{"type":"FeatureCollection","bbox":[-7.3837,61.3959,-6.3866,62.337],"features":[
{"type":"Feature","id":"FRO:ADM0:FRO","properties":{"shapeName":"Faeroe Islands","shapeISO":"FRO","shapeType":"ADM0"},"geometry":{"type":"MultiPolygon","coordinates":[[[[-6.6548,61.3959],[-6.7375,61.579],[-6.9231,61.5661],[-6.8275,61.4719],[-6.6548,61.3959]]],[[[-6.6125,61.8211],[-6.6669,61.866],[-6.9073,61.9099],[-6.8677,61.8393],[-6.6125,61.8211]]],[[[-7.3837,62.0949],[-7.1849,62.0266],[-7.0383,62.0886],[-7.2861,62.1553],[-7.3837,62.0949]]],[[[-7.2226,62.1706],[-7.0309,62.1166],[-6.8569,61.9948],[-6.7156,62.034],[-6.8561,62.1479],[-6.9974,62.1842],[-7.0726,62.2903],[-7.1903,62.3098],[-7.2226,62.1706]]],[[[-7.0551,62.2904],[-6.9575,62.1896],[-6.8596,62.1638],[-6.6914,62.0734],[-6.592,62.1166],[-6.6086,62.2024],[-6.9407,62.337],[-7.0551,62.2904]]],[[[-6.5375,62.1911],[-6.4071,62.1911],[-6.3866,62.26],[-6.5511,62.3078],[-6.5375,62.1911]]]]}}
]}