{"type":"FeatureCollection","bbox":[-83.0532,7.2126,-77.2012,9.6293], "features": [
{"type":"Feature","geometry":{"type":"MultiPolygon","coordinates":[[[[-82.5736,9.5762],[-82.6189,9.4867],[-82.829,9.6027],[-82.9443,9.4372],[-82.9394,9.0596],[-82.7491,8.9741],[-82.9242,8.7412],[-82.8498,8.6299],[-82.8704,8.4381],[-83.0532,8.3151],[-82.8772,8.2191],[-82.8087,8.2957],[-82.6589,8.3228],[-82.5117,8.2764],[-82.2801,8.3432],[-82.1965,8.2022],[-82.1094,8.2333],[-81.7115,8.1303],[-81.6227,7.8901],[-81.5258,7.7115],[-81.1952,7.6389],[-81.1833,7.8237],[-81.0854,7.7943],[-80.9463,7.5557],[-80.8731,7.2126],[-80.4745,7.2533],[-80.3576,7.382],[-80.1355,7.4246],[-79.9947,7.5034],[-80.1438,7.7528],[-80.3,7.8833],[-80.3489,7.9893],[-80.4561,8.0362],[-80.4702,8.2206],[-80.3807,8.3104],[-80.225,8.3011],[-79.7744,8.5796],[-79.7563,8.7963],[-79.482,8.9984],[-79.176,9.0107],[-79.0053,8.9595],[-78.7576,8.8293],[-78.6125,8.6697],[-78.5044,8.634],[-78.4498,8.391],[-78.3033,8.4543],[-78.1556,8.3941],[-78.1829,8.2979],[-78.3058,8.2539],[-78.2864,8.0807],[-78.4308,8.0771],[-78.3294,7.8432],[-78.1442,7.4979],[-77.8958,7.2351],[-77.8202,7.4765],[-77.7312,7.5303],[-77.6799,7.671],[-77.58,7.5284],[-77.3397,7.7072],[-77.3216,7.881],[-77.2012,7.982],[-77.2311,8.0987],[-77.3632,8.2721],[-77.4804,8.5262],[-77.4132,8.6667],[-77.5447,8.7146],[-77.5741,8.7928],[-77.7208,8.8923],[-77.7444,8.9636],[-78.0246,9.2265],[-78.4377,9.4044],[-78.7811,9.4459],[-78.9033,9.4229],[-79.0581,9.4579],[-79.1938,9.5396],[-79.551,9.6293],[-79.909,9.3084],[-80.0008,9.3205],[-80.1008,9.2223],[-80.4083,9.1423],[-80.6371,9.0517],[-80.8224,8.8907],[-81.0877,8.8087],[-81.3045,8.7819],[-81.5391,8.8129],[-81.762,9.0638],[-81.7934,8.9316],[-81.9037,8.9711],[-82.1054,8.9352],[-82.246,9.0141],[-82.2555,9.1826],[-82.3876,9.2861],[-82.3496,9.402],[-82.5736,9.5762]]],[[[-81.6644,7.3973],[-81.83,7.5762],[-81.8419,7.4308],[-81.7462,7.3489],[-81.6644,7.3973]]],[[[-78.8922,8.458],[-78.9747,8.4444],[-78.9699,8.3051],[-78.8345,8.3428],[-78.8922,8.458]]]]},"properties":{"shapeName":"Panama","shapeISO":"PAN","shapeType":"ADM0"}}
]}