{"type":"FeatureCollection","bbox":[-8.178225,54.022873,-5.433869,55.312062],"features":[
{"type":"Feature","id":"GBR:ADM2:GB-NIR.antrim-and-newtownabbey","properties":{"shapeName":"Antrim and Newtownabbey","shapeISO":"","shapeGroup":"GBR","shapeType":"ADM2","adm1ISO":"GB-NIR","parentISO":"GB-NIR","parentID":"GBR:ADM1:GB-NIR","src_shape_id":"9080712B89184827117381"},"geometry":{"type":"Polygon","coordinates":[[[-6.47802,54.780947],[-6.47875,54.772808],[-6.458167,54.761875],[-6.496886,54.713716],[-6.470153,54.685299],[-6.408066,54.648885],[-6.426961,54.568291],[-6.324725,54.591351],[-6.305614,54.572945],[-6.282155,54.580087],[-6.295495,54.596737],[-6.264642,54.597997],[-6.237695,54.58805],[-6.218467,54.602113],[-6.192911,54.600488],[-6.146535,54.611203],[-6.149067,54.620818],[-6.123855,54.617703],[-6.08832,54.624418],[-6.046545,54.605962],[-6.042082,54.612998],[-6.022162,54.611768],[-6.024555,54.628813],[-5.987428,54.65949],[-5.971898,54.645371],[-5.949817,54.652428],[-5.951722,54.665066],[-5.913893,54.648046],[-5.896736,54.674121],[-5.869291,54.688929],[-5.890843,54.695989],[-5.889957,54.710519],[-5.902822,54.708808],[-5.911631,54.716266],[-5.893359,54.745331],[-5.906215,54.750579],[-5.897877,54.75898],[-5.906967,54.765812],[-5.888469,54.772444],[-5.901819,54.780337],[-5.923074,54.772327],[-5.94961,54.7802],[-5.96368,54.77365],[-5.974947,54.783271],[-5.98785,54.774038],[-6.013127,54.788353],[-6.010867,54.80014],[-6.055126,54.798327],[-6.049811,54.791822],[-6.06794,54.797231],[-6.080849,54.796353],[-6.074028,54.791738],[-6.103662,54.792614],[-6.112338,54.807131],[-6.173021,54.811911],[-6.199455,54.806381],[-6.199855,54.798051],[-6.228203,54.788524],[-6.268667,54.798958],[-6.264146,54.790844],[-6.289304,54.789699],[-6.303215,54.796384],[-6.322417,54.790737],[-6.346412,54.801132],[-6.385677,54.779185],[-6.434567,54.789433],[-6.47802,54.780947]]]}},
{"type":"Feature","id":"GBR:ADM2:GB-NIR.armagh-city-banbridge-and-craigavon","properties":{"shapeName":"Armagh City, Banbridge and Craigavon","shapeISO":"","shapeGroup":"GBR","shapeType":"ADM2","adm1ISO":"GB-NIR","parentISO":"GB-NIR","parentID":"GBR:ADM1:GB-NIR","src_shape_id":"9080712B2696242106213"},"geometry":{"type":"Polygon","coordinates":[[[-6.426961,54.568291],[-6.542217,54.542174],[-6.59272,54.503512],[-6.630389,54.503892],[-6.651623,54.486786],[-6.650739,54.470102],[-6.698008,54.442324],[-6.711032,54.403985],[-6.729069,54.401739],[-6.735915,54.409242],[-6.761876,54.407055],[-6.79464,54.415122],[-6.808437,54.399058],[-6.805573,54.379705],[-6.837938,54.335684],[-6.864826,54.330184],[-6.851855,54.292078],[-6.862363,54.281212],[-6.875915,54.287429],[-6.878918,54.27916],[-6.828647,54.261548],[-6.817073,54.223113],[-6.801313,54.22121],[-6.801924,54.213302],[-6.776492,54.199009],[-6.756858,54.199145],[-6.741717,54.182025],[-6.72195,54.182104],[-6.71102,54.19815],[-6.69278,54.200338],[-6.64498,54.179867],[-6.600844,54.219055],[-6.586139,54.213652],[-6.572926,54.224312],[-6.525943,54.237334],[-6.505045,54.225795],[-6.467729,54.255086],[-6.458823,54.252214],[-6.440048,54.267587],[-6.402626,54.273138],[-6.369406,54.265413],[-6.352407,54.274105],[-6.332017,54.26328],[-6.289469,54.26515],[-6.280096,54.271867],[-6.254982,54.257895],[-6.242471,54.263834],[-6.213325,54.258723],[-6.182406,54.244292],[-6.189916,54.23765],[-6.161269,54.219023],[-6.13756,54.243238],[-6.107856,54.240217],[-6.071111,54.25451],[-6.051379,54.244039],[-6.039847,54.263245],[-6.076678,54.263589],[-6.063637,54.271557],[-6.073352,54.279676],[-6.059857,54.281003],[-6.060872,54.291504],[-6.105394,54.318585],[-6.099416,54.326664],[-6.064587,54.327024],[-6.01955,54.370574],[-6.021785,54.377628],[-6.042408,54.378838],[-6.038146,54.384357],[-6.065248,54.387356],[-6.056288,54.403576],[-6.087369,54.410237],[-6.134821,54.435796],[-6.159935,54.434316],[-6.157517,54.444238],[-6.211171,54.432828],[-6.209783,54.445092],[-6.259033,54.479621],[-6.240177,54.495443],[-6.274147,54.51963],[-6.278702,54.557503],[-6.305614,54.572945],[-6.324725,54.591351],[-6.426961,54.568291]]]}},
{"type":"Feature","id":"GBR:ADM2:GB-NIR.belfast","properties":{"shapeName":"Belfast","shapeISO":"","shapeGroup":"GBR","shapeType":"ADM2","adm1ISO":"GB-NIR","parentISO":"GB-NIR","parentID":"GBR:ADM1:GB-NIR","src_shape_id":"9080712B3525939255113"},"geometry":{"type":"Polygon","coordinates":[[[-6.046545,54.605962],[-6.042012,54.564165],[-6.060778,54.555241],[-6.042195,54.546841],[-6.01765,54.550896],[-5.976763,54.530666],[-5.942414,54.543745],[-5.934199,54.54027],[-5.913179,54.566743],[-5.89021,54.561857],[-5.824219,54.581556],[-5.810141,54.61559],[-5.83177,54.610653],[-5.830308,54.616821],[-5.859542,54.623628],[-5.85614,54.633742],[-5.913893,54.648046],[-5.951722,54.665066],[-5.949817,54.652428],[-5.971898,54.645371],[-5.987428,54.65949],[-6.024555,54.628813],[-6.022162,54.611768],[-6.042082,54.612998],[-6.046545,54.605962]]]}},
{"type":"Feature","id":"GBR:ADM2:GB-NIR.causeway-coast-and-glens","properties":{"shapeName":"Causeway Coast and Glens","shapeISO":"","shapeGroup":"GBR","shapeType":"ADM2","adm1ISO":"GB-NIR","parentISO":"GB-NIR","parentID":"GBR:ADM1:GB-NIR","src_shape_id":"9080712B10379595920788"},"geometry":{"type":"MultiPolygon","coordinates":[[[[-7.147925,55.046728],[-7.166766,55.033963],[-7.134013,55.004911],[-7.127549,54.985285],[-7.081924,54.985828],[-7.094598,54.959097],[-7.088529,54.927466],[-7.0445,54.913983],[-7.03551,54.888452],[-7.020196,54.886992],[-7.040093,54.867446],[-7.039736,54.845525],[-7.016182,54.835299],[-7.007824,54.820944],[-6.988281,54.833017],[-6.972728,54.828231],[-6.94714,54.833777],[-6.912973,54.820411],[-6.887897,54.831827],[-6.887514,54.853027],[-6.858192,54.857615],[-6.851833,54.850963],[-6.803482,54.84659],[-6.7833,54.862144],[-6.785877,54.870019],[-6.769168,54.873197],[-6.758481,54.903074],[-6.776735,54.913779],[-6.739057,54.928829],[-6.708427,54.931783],[-6.691227,54.916281],[-6.657893,54.922425],[-6.644404,54.937364],[-6.618439,54.938234],[-6.585985,54.923539],[-6.556111,54.937096],[-6.537795,54.933557],[-6.538562,54.952041],[-6.500863,54.918786],[-6.468798,54.924879],[-6.423121,54.916802],[-6.429415,54.936642],[-6.4088,54.940511],[-6.449172,54.964667],[-6.427981,54.964136],[-6.424587,54.972972],[-6.402365,54.966633],[-6.391552,54.981566],[-6.358012,54.975399],[-6.346579,54.988063],[-6.323968,54.979153],[-6.324741,55.010236],[-6.28022,55.004821],[-6.205361,55.029639],[-6.186228,55.026108],[-6.18181,55.034446],[-6.1663,55.030693],[-6.132655,54.988222],[-6.098995,54.983976],[-6.02574,55.036974],[-6.015154,55.035533],[-5.977964,55.056312],[-6.043493,55.052981],[-6.063274,55.060102],[-6.053841,55.065759],[-6.059756,55.081244],[-6.036998,55.103256],[-6.042222,55.131021],[-6.026518,55.140452],[-6.027925,55.161228],[-6.052157,55.175758],[-6.063257,55.198878],[-6.117157,55.209531],[-6.146973,55.228015],[-6.179074,55.213824],[-6.237192,55.202671],[-6.290428,55.230238],[-6.313664,55.229804],[-6.333561,55.239634],[-6.369131,55.245823],[-6.410293,55.232266],[-6.455931,55.239048],[-6.476863,55.252145],[-6.531558,55.233708],[-6.529491,55.224968],[-6.547095,55.216012],[-6.553867,55.220068],[-6.607398,55.20591],[-6.650546,55.205052],[-6.663841,55.212666],[-6.660449,55.198781],[-6.722827,55.189893],[-6.725527,55.173212],[-6.753564,55.168541],[-6.875645,55.168063],[-6.914603,55.174413],[-6.966835,55.194746],[-6.969735,55.147883],[-6.990901,55.109548],[-7.020993,55.100423],[-7.014711,55.077082],[-7.0468,55.058278],[-7.042612,55.053041],[-7.050901,55.056906],[-7.052306,55.049543],[-7.11105,55.042522],[-7.147925,55.046728]]],[[[-6.240973,55.312062],[-6.271011,55.306946],[-6.287098,55.293433],[-6.194051,55.292612],[-6.201836,55.27538],[-6.190931,55.258454],[-6.170779,55.301562],[-6.240973,55.312062]]]]}},
{"type":"Feature","id":"GBR:ADM2:GB-NIR.derry-city-and-strabane","properties":{"shapeName":"Derry City and Strabane","shapeISO":"","shapeGroup":"GBR","shapeType":"ADM2","adm1ISO":"GB-NIR","parentISO":"GB-NIR","parentID":"GBR:ADM1:GB-NIR","src_shape_id":"9080712B49734305235119"},"geometry":{"type":"Polygon","coordinates":[[[-7.147925,55.046728],[-7.157405,55.059034],[-7.225743,55.061066],[-7.233684,55.048216],[-7.252642,55.044174],[-7.246407,55.063514],[-7.256421,55.065452],[-7.255251,55.060013],[-7.265738,55.066637],[-7.290069,55.047415],[-7.3003,55.056127],[-7.319211,55.045089],[-7.347067,55.050506],[-7.392299,55.022352],[-7.406433,55.003317],[-7.392313,54.997853],[-7.407898,54.982996],[-7.408307,54.963668],[-7.392937,54.945447],[-7.448184,54.935057],[-7.44394,54.871365],[-7.484863,54.823841],[-7.529089,54.807723],[-7.550134,54.789385],[-7.548376,54.755383],[-7.535038,54.747125],[-7.544159,54.742711],[-7.579225,54.741789],[-7.580107,54.750476],[-7.589373,54.743731],[-7.618416,54.743397],[-7.637437,54.751536],[-7.69784,54.723808],[-7.712416,54.726134],[-7.736106,54.716952],[-7.750748,54.704294],[-7.78947,54.719654],[-7.805503,54.71869],[-7.818491,54.733844],[-7.837465,54.736465],[-7.880256,54.702708],[-7.918893,54.702755],[-7.921792,54.696004],[-7.898823,54.688009],[-7.914647,54.675993],[-7.910643,54.668222],[-7.894063,54.656567],[-7.857375,54.650521],[-7.855313,54.631971],[-7.829123,54.633088],[-7.814051,54.643931],[-7.77326,54.621552],[-7.758679,54.625074],[-7.742394,54.617996],[-7.709172,54.634951],[-7.7072,54.619632],[-7.694289,54.619162],[-7.704286,54.608511],[-7.658372,54.626728],[-7.617888,54.625118],[-7.616139,54.632937],[-7.597062,54.634842],[-7.573722,54.629691],[-7.575437,54.640212],[-7.562506,54.647413],[-7.55113,54.647273],[-7.551299,54.638693],[-7.511219,54.653853],[-7.495424,54.649342],[-7.485037,54.654209],[-7.448706,54.641018],[-7.392554,54.693134],[-7.320127,54.713362],[-7.321407,54.732088],[-7.306574,54.738538],[-7.284519,54.740596],[-7.261871,54.730998],[-7.227083,54.752027],[-7.118168,54.749416],[-7.081616,54.765824],[-7.006287,54.779888],[-6.94091,54.773625],[-6.923,54.77316],[-6.903811,54.783856],[-6.923332,54.802578],[-6.912973,54.820411],[-6.94714,54.833777],[-6.972728,54.828231],[-6.988281,54.833017],[-7.007824,54.820944],[-7.016182,54.835299],[-7.039736,54.845525],[-7.040093,54.867446],[-7.020196,54.886992],[-7.03551,54.888452],[-7.0445,54.913983],[-7.088529,54.927466],[-7.094598,54.959097],[-7.081924,54.985828],[-7.127549,54.985285],[-7.134013,55.004911],[-7.166766,55.033963],[-7.147925,55.046728]]]}},
{"type":"Feature","id":"GBR:ADM2:GB-NIR.fermanagh-and-omagh","properties":{"shapeName":"Fermanagh and Omagh","shapeISO":"","shapeGroup":"GBR","shapeType":"ADM2","adm1ISO":"GB-NIR","parentISO":"GB-NIR","parentID":"GBR:ADM1:GB-NIR","src_shape_id":"9080712B62714260736365"},"geometry":{"type":"Polygon","coordinates":[[[-7.704286,54.608511],[-7.752273,54.598852],[-7.763089,54.585922],[-7.794834,54.581642],[-7.797383,54.571679],[-7.834029,54.552399],[-7.824696,54.544463],[-7.851296,54.533063],[-7.950495,54.533704],[-7.971086,54.547347],[-8.00673,54.545998],[-8.042515,54.506553],[-8.043365,54.487787],[-8.089791,54.487153],[-8.099365,54.484276],[-8.091866,54.476411],[-8.113932,54.476444],[-8.115499,54.469123],[-8.178225,54.464841],[-8.143801,54.450987],[-8.162271,54.441683],[-8.084888,54.397471],[-8.058148,54.365819],[-8.032108,54.356761],[-8.001049,54.358175],[-7.962416,54.31252],[-7.911658,54.296087],[-7.902272,54.301515],[-7.881711,54.291981],[-7.862662,54.293575],[-7.873982,54.279609],[-7.873578,54.2663],[-7.86124,54.260352],[-7.861017,54.21765],[-7.812252,54.200986],[-7.768781,54.209522],[-7.739982,54.203622],[-7.686224,54.207861],[-7.677332,54.182079],[-7.65692,54.185766],[-7.629305,54.169345],[-7.611208,54.143905],[-7.575378,54.141606],[-7.566538,54.126697],[-7.548199,54.122222],[-7.528955,54.135866],[-7.480149,54.12236],[-7.469324,54.140894],[-7.443165,54.154011],[-7.410383,54.156321],[-7.421217,54.136964],[-7.373617,54.139632],[-7.392729,54.120314],[-7.364355,54.131551],[-7.347009,54.116616],[-7.327904,54.124707],[-7.319667,54.113461],[-7.30617,54.123469],[-7.340333,54.146799],[-7.311056,54.167417],[-7.280611,54.167735],[-7.284646,54.153962],[-7.302173,54.144437],[-7.286285,54.136472],[-7.309778,54.132225],[-7.301548,54.121602],[-7.280351,54.122493],[-7.253367,54.155793],[-7.258992,54.164595],[-7.241121,54.169793],[-7.259097,54.177484],[-7.259908,54.192347],[-7.23383,54.197902],[-7.250064,54.198004],[-7.248912,54.204521],[-7.232708,54.205673],[-7.221701,54.215914],[-7.199644,54.215714],[-7.189132,54.224975],[-7.17197,54.217695],[-7.145816,54.224818],[-7.146905,54.239851],[-7.159854,54.243767],[-7.143109,54.25572],[-7.161509,54.273713],[-7.180157,54.272674],[-7.17377,54.286161],[-7.213051,54.299695],[-7.198727,54.311157],[-7.180011,54.309782],[-7.189692,54.337738],[-7.201824,54.341862],[-7.227975,54.327066],[-7.247047,54.327061],[-7.2728,54.344188],[-7.281375,54.371658],[-7.335273,54.371767],[-7.332293,54.40479],[-7.363087,54.419714],[-7.367863,54.437586],[-7.335541,54.444945],[-7.295672,54.443628],[-7.271429,54.453762],[-7.273414,54.46045],[-7.253798,54.451072],[-7.236647,54.45457],[-7.217289,54.467375],[-7.199478,54.466323],[-7.203729,54.477957],[-7.161021,54.472577],[-7.136073,54.481441],[-7.122036,54.475519],[-7.124737,54.484821],[-7.108951,54.485998],[-7.100249,54.500392],[-7.073033,54.507978],[-7.073801,54.502832],[-7.040352,54.505611],[-7.029978,54.525881],[-7.009685,54.524653],[-6.975408,54.54374],[-6.986561,54.557227],[-6.97037,54.569703],[-6.989476,54.581523],[-6.97055,54.579615],[-6.967854,54.597123],[-6.948897,54.608022],[-6.962155,54.612389],[-6.989355,54.65197],[-6.97028,54.663744],[-7.003494,54.671514],[-6.995111,54.705875],[-7.012043,54.717961],[-6.99232,54.740819],[-6.941658,54.75223],[-6.94091,54.773625],[-7.006287,54.779888],[-7.081616,54.765824],[-7.118168,54.749416],[-7.227083,54.752027],[-7.261871,54.730998],[-7.284519,54.740596],[-7.306574,54.738538],[-7.321407,54.732088],[-7.320127,54.713362],[-7.392554,54.693134],[-7.448706,54.641018],[-7.485037,54.654209],[-7.495424,54.649342],[-7.511219,54.653853],[-7.551299,54.638693],[-7.55113,54.647273],[-7.562506,54.647413],[-7.575437,54.640212],[-7.573722,54.629691],[-7.597062,54.634842],[-7.616139,54.632937],[-7.617888,54.625118],[-7.658372,54.626728],[-7.704286,54.608511]]]}},
{"type":"Feature","id":"GBR:ADM2:GB-NIR.lisburn-and-castlereagh","properties":{"shapeName":"Lisburn and Castlereagh","shapeISO":"","shapeGroup":"GBR","shapeType":"ADM2","adm1ISO":"GB-NIR","parentISO":"GB-NIR","parentID":"GBR:ADM1:GB-NIR","src_shape_id":"9080712B9143936598786"},"geometry":{"type":"Polygon","coordinates":[[[-6.305614,54.572945],[-6.278702,54.557503],[-6.274147,54.51963],[-6.240177,54.495443],[-6.259033,54.479621],[-6.209783,54.445092],[-6.211171,54.432828],[-6.157517,54.444238],[-6.159935,54.434316],[-6.134821,54.435796],[-6.087369,54.410237],[-6.056288,54.403576],[-6.065248,54.387356],[-6.038146,54.384357],[-6.042408,54.378838],[-6.021785,54.377628],[-6.01955,54.370574],[-5.971326,54.384477],[-5.951043,54.37957],[-5.939456,54.383965],[-5.951728,54.403822],[-5.925291,54.424014],[-5.930593,54.430397],[-5.915848,54.433429],[-5.916456,54.450049],[-5.900765,54.454837],[-5.903261,54.462249],[-5.877421,54.467301],[-5.872257,54.479515],[-5.824505,54.495494],[-5.83411,54.501419],[-5.827825,54.525534],[-5.793953,54.545794],[-5.800182,54.560704],[-5.789985,54.571169],[-5.758516,54.581523],[-5.774502,54.594024],[-5.772027,54.613365],[-5.787439,54.619642],[-5.810141,54.61559],[-5.824219,54.581556],[-5.89021,54.561857],[-5.913179,54.566743],[-5.934199,54.54027],[-5.942414,54.543745],[-5.976763,54.530666],[-6.01765,54.550896],[-6.042195,54.546841],[-6.060778,54.555241],[-6.042012,54.564165],[-6.046545,54.605962],[-6.08832,54.624418],[-6.123855,54.617703],[-6.149067,54.620818],[-6.146535,54.611203],[-6.192911,54.600488],[-6.218467,54.602113],[-6.237695,54.58805],[-6.264642,54.597997],[-6.295495,54.596737],[-6.282155,54.580087],[-6.305614,54.572945]]]}},
{"type":"Feature","id":"GBR:ADM2:GB-NIR.mid-and-east-antrim","properties":{"shapeName":"Mid and East Antrim","shapeISO":"","shapeGroup":"GBR","shapeType":"ADM2","adm1ISO":"GB-NIR","parentISO":"GB-NIR","parentID":"GBR:ADM1:GB-NIR","src_shape_id":"9080712B28598685825084"},"geometry":{"type":"Polygon","coordinates":[[[-5.869291,54.688929],[-5.791289,54.720983],[-5.755934,54.721403],[-5.711168,54.745985],[-5.689109,54.767011],[-5.690712,54.803754],[-5.72621,54.848061],[-5.763675,54.859386],[-5.766956,54.85232],[-5.78086,54.858724],[-5.784383,54.851126],[-5.798655,54.852196],[-5.838246,54.880713],[-5.845343,54.900789],[-5.859328,54.898778],[-5.879098,54.907674],[-5.920027,54.96178],[-5.991104,54.984538],[-5.964227,55.044198],[-5.977964,55.056312],[-6.015154,55.035533],[-6.02574,55.036974],[-6.098995,54.983976],[-6.132655,54.988222],[-6.1663,55.030693],[-6.18181,55.034446],[-6.186228,55.026108],[-6.205361,55.029639],[-6.28022,55.004821],[-6.324741,55.010236],[-6.323968,54.979153],[-6.346579,54.988063],[-6.358012,54.975399],[-6.391552,54.981566],[-6.402365,54.966633],[-6.424587,54.972972],[-6.427981,54.964136],[-6.449172,54.964667],[-6.4088,54.940511],[-6.429415,54.936642],[-6.423121,54.916802],[-6.468798,54.924879],[-6.500863,54.918786],[-6.507257,54.908285],[-6.458256,54.82453],[-6.471924,54.812506],[-6.47802,54.780947],[-6.434567,54.789433],[-6.385677,54.779185],[-6.346412,54.801132],[-6.322417,54.790737],[-6.303215,54.796384],[-6.289304,54.789699],[-6.264146,54.790844],[-6.268667,54.798958],[-6.228203,54.788524],[-6.199855,54.798051],[-6.199455,54.806381],[-6.173021,54.811911],[-6.112338,54.807131],[-6.103662,54.792614],[-6.074028,54.791738],[-6.080849,54.796353],[-6.06794,54.797231],[-6.049811,54.791822],[-6.055126,54.798327],[-6.010867,54.80014],[-6.013127,54.788353],[-5.98785,54.774038],[-5.974947,54.783271],[-5.96368,54.77365],[-5.94961,54.7802],[-5.923074,54.772327],[-5.901819,54.780337],[-5.888469,54.772444],[-5.906967,54.765812],[-5.897877,54.75898],[-5.906215,54.750579],[-5.893359,54.745331],[-5.911631,54.716266],[-5.902822,54.708808],[-5.889957,54.710519],[-5.890843,54.695989],[-5.869291,54.688929]]]}},
{"type":"Feature","id":"GBR:ADM2:GB-NIR.mid-ulster","properties":{"shapeName":"Mid Ulster","shapeISO":"","shapeGroup":"GBR","shapeType":"ADM2","adm1ISO":"GB-NIR","parentISO":"GB-NIR","parentID":"GBR:ADM1:GB-NIR","src_shape_id":"9080712B21956478421018"},"geometry":{"type":"Polygon","coordinates":[[[-6.47802,54.780947],[-6.471924,54.812506],[-6.458256,54.82453],[-6.507257,54.908285],[-6.500863,54.918786],[-6.538562,54.952041],[-6.537795,54.933557],[-6.556111,54.937096],[-6.585985,54.923539],[-6.618439,54.938234],[-6.644404,54.937364],[-6.657893,54.922425],[-6.691227,54.916281],[-6.708427,54.931783],[-6.739057,54.928829],[-6.776735,54.913779],[-6.758481,54.903074],[-6.769168,54.873197],[-6.785877,54.870019],[-6.7833,54.862144],[-6.803482,54.84659],[-6.851833,54.850963],[-6.858192,54.857615],[-6.887514,54.853027],[-6.887897,54.831827],[-6.912973,54.820411],[-6.923332,54.802578],[-6.903811,54.783856],[-6.923,54.77316],[-6.94091,54.773625],[-6.941658,54.75223],[-6.99232,54.740819],[-7.012043,54.717961],[-6.995111,54.705875],[-7.003494,54.671514],[-6.97028,54.663744],[-6.989355,54.65197],[-6.962155,54.612389],[-6.948897,54.608022],[-6.967854,54.597123],[-6.97055,54.579615],[-6.989476,54.581523],[-6.97037,54.569703],[-6.986561,54.557227],[-6.975408,54.54374],[-7.009685,54.524653],[-7.029978,54.525881],[-7.040352,54.505611],[-7.073801,54.502832],[-7.073033,54.507978],[-7.100249,54.500392],[-7.108951,54.485998],[-7.124737,54.484821],[-7.122036,54.475519],[-7.136073,54.481441],[-7.161021,54.472577],[-7.203729,54.477957],[-7.199478,54.466323],[-7.217289,54.467375],[-7.236647,54.45457],[-7.253798,54.451072],[-7.273414,54.46045],[-7.271429,54.453762],[-7.295672,54.443628],[-7.335541,54.444945],[-7.367863,54.437586],[-7.363087,54.419714],[-7.332293,54.40479],[-7.335273,54.371767],[-7.281375,54.371658],[-7.2728,54.344188],[-7.247047,54.327061],[-7.227975,54.327066],[-7.201824,54.341862],[-7.189692,54.337738],[-7.153586,54.335315],[-7.104374,54.355989],[-7.110577,54.368402],[-7.073277,54.388434],[-7.058197,54.411106],[-7.029957,54.421406],[-6.996711,54.405452],[-6.979685,54.408672],[-6.960541,54.392332],[-6.924648,54.382961],[-6.933613,54.377923],[-6.912086,54.374787],[-6.907268,54.350519],[-6.876943,54.346663],[-6.864826,54.330184],[-6.837938,54.335684],[-6.805573,54.379705],[-6.808437,54.399058],[-6.79464,54.415122],[-6.761876,54.407055],[-6.735915,54.409242],[-6.729069,54.401739],[-6.711032,54.403985],[-6.698008,54.442324],[-6.650739,54.470102],[-6.651623,54.486786],[-6.630389,54.503892],[-6.59272,54.503512],[-6.542217,54.542174],[-6.426961,54.568291],[-6.408066,54.648885],[-6.470153,54.685299],[-6.496886,54.713716],[-6.458167,54.761875],[-6.47875,54.772808],[-6.47802,54.780947]]]}},
{"type":"Feature","id":"GBR:ADM2:GB-NIR.newry-mourne-and-down","properties":{"shapeName":"Newry, Mourne and Down","shapeISO":"","shapeGroup":"GBR","shapeType":"ADM2","adm1ISO":"GB-NIR","parentISO":"GB-NIR","parentID":"GBR:ADM1:GB-NIR","src_shape_id":"9080712B31055162860413"},"geometry":{"type":"Polygon","coordinates":[[[-6.64498,54.179867],[-6.630676,54.153421],[-6.64947,54.121732],[-6.662144,54.122784],[-6.645996,54.096072],[-6.659805,54.096255],[-6.659086,54.076327],[-6.669898,54.072932],[-6.624762,54.036617],[-6.59587,54.044725],[-6.587543,54.05768],[-6.558874,54.049409],[-6.532903,54.05978],[-6.511466,54.0528],[-6.472215,54.066422],[-6.4787,54.077237],[-6.456985,54.072671],[-6.444473,54.056595],[-6.412945,54.063204],[-6.392223,54.058965],[-6.364483,54.072734],[-6.367348,54.113766],[-6.340908,54.112031],[-6.337315,54.094848],[-6.318975,54.091088],[-6.309987,54.106833],[-6.291849,54.112799],[-6.255056,54.09648],[-6.199076,54.098297],[-6.184173,54.073779],[-6.160369,54.065088],[-6.095939,54.062774],[-6.074067,54.046039],[-6.099497,54.048699],[-6.108558,54.040308],[-6.063714,54.022873],[-6.0147,54.042026],[-5.989167,54.057732],[-5.997157,54.061429],[-5.964052,54.062858],[-5.952953,54.077925],[-5.897942,54.104833],[-5.872796,54.167726],[-5.893885,54.205543],[-5.830755,54.242058],[-5.834347,54.251363],[-5.851116,54.253432],[-5.815415,54.286588],[-5.816891,54.259258],[-5.83486,54.256774],[-5.822601,54.24297],[-5.693799,54.251426],[-5.678146,54.246708],[-5.661229,54.225732],[-5.637408,54.242385],[-5.640858,54.263102],[-5.635432,54.252545],[-5.625077,54.255897],[-5.619228,54.246289],[-5.609819,54.248829],[-5.609028,54.265534],[-5.591635,54.263906],[-5.561383,54.286594],[-5.551606,54.30646],[-5.526851,54.310458],[-5.532698,54.315912],[-5.517041,54.324446],[-5.549452,54.37386],[-5.585536,54.391779],[-5.596547,54.406989],[-5.584812,54.449607],[-5.629278,54.465077],[-5.639538,54.457591],[-5.668412,54.461051],[-5.702796,54.446471],[-5.723907,54.447804],[-5.737016,54.463978],[-5.79212,54.463707],[-5.824505,54.495494],[-5.872257,54.479515],[-5.877421,54.467301],[-5.903261,54.462249],[-5.900765,54.454837],[-5.916456,54.450049],[-5.915848,54.433429],[-5.930593,54.430397],[-5.925291,54.424014],[-5.951728,54.403822],[-5.939456,54.383965],[-5.951043,54.37957],[-5.971326,54.384477],[-6.01955,54.370574],[-6.064587,54.327024],[-6.099416,54.326664],[-6.105394,54.318585],[-6.060872,54.291504],[-6.059857,54.281003],[-6.073352,54.279676],[-6.063637,54.271557],[-6.076678,54.263589],[-6.039847,54.263245],[-6.051379,54.244039],[-6.071111,54.25451],[-6.107856,54.240217],[-6.13756,54.243238],[-6.161269,54.219023],[-6.189916,54.23765],[-6.182406,54.244292],[-6.213325,54.258723],[-6.242471,54.263834],[-6.254982,54.257895],[-6.280096,54.271867],[-6.289469,54.26515],[-6.332017,54.26328],[-6.352407,54.274105],[-6.369406,54.265413],[-6.402626,54.273138],[-6.440048,54.267587],[-6.458823,54.252214],[-6.467729,54.255086],[-6.505045,54.225795],[-6.525943,54.237334],[-6.572926,54.224312],[-6.586139,54.213652],[-6.600844,54.219055],[-6.64498,54.179867]]]}},
{"type":"Feature","id":"GBR:ADM2:GB-NIR.ards-and-north-down","properties":{"shapeName":"Ards and North Down","shapeISO":"","shapeGroup":"GBR","shapeType":"ADM2","adm1ISO":"GB-NIR","parentISO":"GB-NIR","parentID":"GBR:ADM1:GB-NIR","src_shape_id":"9080712B7932686865756"},"geometry":{"type":"MultiPolygon","coordinates":[[[[-5.810141,54.61559],[-5.787439,54.619642],[-5.772027,54.613365],[-5.774502,54.594024],[-5.758516,54.581523],[-5.789985,54.571169],[-5.800182,54.560704],[-5.793953,54.545794],[-5.827825,54.525534],[-5.83411,54.501419],[-5.824505,54.495494],[-5.79212,54.463707],[-5.737016,54.463978],[-5.723907,54.447804],[-5.702796,54.446471],[-5.668412,54.461051],[-5.639538,54.457591],[-5.629278,54.465077],[-5.584812,54.449607],[-5.596547,54.406989],[-5.585536,54.391779],[-5.549452,54.37386],[-5.517041,54.324446],[-5.497836,54.333388],[-5.499245,54.351592],[-5.482351,54.356781],[-5.4941,54.365411],[-5.490765,54.376495],[-5.461264,54.386451],[-5.465317,54.414703],[-5.481124,54.428531],[-5.436707,54.457202],[-5.443089,54.47571],[-5.433869,54.487416],[-5.464646,54.49853],[-5.486846,54.546703],[-5.478331,54.564133],[-5.522692,54.597692],[-5.53515,54.622517],[-5.531267,54.645044],[-5.584974,54.67774],[-5.633638,54.679702],[-5.640187,54.667271],[-5.657076,54.671038],[-5.673592,54.663038],[-5.681075,54.66891],[-5.721718,54.667093],[-5.742067,54.677686],[-5.806442,54.659113],[-5.85614,54.633742],[-5.859542,54.623628],[-5.830308,54.616821],[-5.83177,54.610653],[-5.810141,54.61559]]],[[[-5.535072,54.681797],[-5.546496,54.672932],[-5.525595,54.669028],[-5.522387,54.676463],[-5.535072,54.681797]]]]}}
]}