{"type":"FeatureCollection","bbox":[-5.353335,51.381001,-2.650398,53.430007],"features":[
{"type":"Feature","id":"GBR:ADM2:GB-WLS.isle-of-anglesey","properties":{"shapeName":"Isle of Anglesey","shapeISO":"","shapeGroup":"GBR","shapeType":"ADM2","adm1ISO":"GB-WLS","parentISO":"GB-WLS","parentID":"GBR:ADM1:GB-WLS","src_shape_id":"9080712B15924150199921"},"geometry":{"type":"MultiPolygon","coordinates":[[[[-4.334403,53.148941],[-4.318602,53.149964],[-4.317668,53.144133],[-4.21852,53.185604],[-4.202767,53.215733],[-4.170831,53.225138],[-4.162627,53.22367],[-4.159229,53.233876],[-4.100684,53.254719],[-4.040157,53.310587],[-4.119695,53.319168],[-4.143343,53.3053],[-4.204073,53.292228],[-4.214505,53.298781],[-4.204253,53.313792],[-4.219096,53.319004],[-4.233845,53.340605],[-4.230056,53.357732],[-4.26477,53.360794],[-4.279984,53.376074],[-4.276349,53.371044],[-4.295685,53.364605],[-4.269372,53.390529],[-4.28731,53.417027],[-4.293007,53.411053],[-4.32527,53.418345],[-4.334381,53.413266],[-4.338788,53.419587],[-4.356356,53.414196],[-4.368192,53.424041],[-4.402568,53.420904],[-4.425189,53.430007],[-4.450954,53.422851],[-4.450201,53.412876],[-4.478114,53.422215],[-4.491914,53.411167],[-4.509469,53.409395],[-4.510203,53.416839],[-4.529792,53.406042],[-4.574255,53.403683],[-4.555119,53.373717],[-4.58291,53.325658],[-4.562357,53.316734],[-4.563136,53.299426],[-4.529718,53.309493],[-4.574784,53.287886],[-4.583504,53.290374],[-4.576176,53.285997],[-4.588609,53.281265],[-4.560331,53.264532],[-4.554226,53.267616],[-4.55547,53.249658],[-4.535889,53.23696],[-4.523479,53.232565],[-4.52315,53.237561],[-4.51273,53.2386],[-4.521812,53.231974],[-4.52352,53.23194],[-4.523879,53.226483],[-4.497335,53.207208],[-4.504217,53.187089],[-4.488313,53.186588],[-4.486443,53.17719],[-4.466728,53.182237],[-4.466781,53.184168],[-4.443552,53.154993],[-4.396856,53.187864],[-4.385008,53.191556],[-4.389585,53.169694],[-4.419786,53.163799],[-4.407573,53.144325],[-4.415933,53.13489],[-4.398681,53.144959],[-4.328733,53.126581],[-4.35502,53.134398],[-4.337564,53.142767],[-4.336181,53.14752],[-4.340111,53.148571],[-4.33092,53.1656],[-4.334403,53.148941]]],[[[-4.619005,53.330837],[-4.661923,53.318865],[-4.682377,53.322672],[-4.696694,53.30736],[-4.677724,53.298276],[-4.686541,53.284048],[-4.6673,53.281228],[-4.651592,53.287889],[-4.617279,53.279129],[-4.625568,53.269265],[-4.608511,53.255895],[-4.613231,53.2465],[-4.597555,53.240328],[-4.55623,53.245171],[-4.57268,53.261598],[-4.561828,53.263981],[-4.584504,53.263232],[-4.57641,53.27241],[-4.597353,53.274357],[-4.598009,53.282714],[-4.609891,53.279322],[-4.58378,53.290175],[-4.584976,53.301162],[-4.611185,53.302763],[-4.620795,53.312683],[-4.631351,53.307809],[-4.627703,53.314447],[-4.648195,53.31865],[-4.619005,53.330837]]]]}},
{"type":"Feature","id":"GBR:ADM2:GB-WLS.gwynedd","properties":{"shapeName":"Gwynedd","shapeISO":"","shapeGroup":"GBR","shapeType":"ADM2","adm1ISO":"GB-WLS","parentISO":"GB-WLS","parentID":"GBR:ADM1:GB-WLS","src_shape_id":"9080712B16572211542142"},"geometry":{"type":"MultiPolygon","coordinates":[[[[-4.007386,53.246905],[-4.085568,53.22563],[-4.091077,53.23668],[-4.106257,53.232312],[-4.113238,53.236866],[-4.114465,53.23139],[-4.122365,53.237058],[-4.199312,53.209963],[-4.212101,53.18317],[-4.243625,53.170441],[-4.277689,53.14337],[-4.273616,53.132792],[-4.283139,53.139472],[-4.311872,53.127174],[-4.31377,53.106614],[-4.305828,53.10785],[-4.319319,53.092779],[-4.333824,53.113973],[-4.319608,53.121468],[-4.337581,53.122573],[-4.346589,53.114259],[-4.336395,53.079113],[-4.353847,53.033177],[-4.410151,52.998005],[-4.437083,52.998686],[-4.471582,52.966722],[-4.519591,52.940302],[-4.560074,52.937711],[-4.56744,52.94853],[-4.570563,52.938866],[-4.615141,52.923751],[-4.632149,52.905951],[-4.649755,52.90617],[-4.696057,52.859441],[-4.726156,52.853494],[-4.722529,52.836251],[-4.767757,52.795951],[-4.732313,52.781836],[-4.720895,52.802802],[-4.688433,52.793838],[-4.661296,52.806139],[-4.644002,52.799816],[-4.601464,52.824929],[-4.536174,52.800263],[-4.542564,52.786472],[-4.528018,52.777686],[-4.514842,52.79295],[-4.486506,52.794799],[-4.483142,52.805121],[-4.499849,52.812255],[-4.497367,52.825642],[-4.506146,52.824957],[-4.47032,52.847812],[-4.476504,52.857655],[-4.442515,52.87564],[-4.397058,52.882277],[-4.415117,52.885213],[-4.407374,52.891719],[-4.403287,52.884159],[-4.387194,52.895841],[-4.326646,52.891935],[-4.316306,52.908675],[-4.263827,52.910581],[-4.284715,52.917136],[-4.261268,52.910877],[-4.219092,52.919092],[-4.152052,52.906347],[-4.126626,52.929103],[-4.128626,52.921887],[-4.11039,52.919964],[-4.11918,52.918962],[-4.103528,52.908919],[-4.076764,52.922726],[-4.047651,52.926864],[-4.059063,52.915994],[-4.071843,52.917022],[-4.085557,52.903175],[-4.068625,52.909526],[-4.082951,52.900233],[-4.086473,52.901946],[-4.14524,52.893731],[-4.118961,52.847943],[-4.129342,52.826952],[-4.114887,52.832079],[-4.107918,52.826629],[-4.118675,52.830274],[-4.139605,52.815448],[-4.132673,52.826008],[-4.150594,52.808264],[-4.058922,52.717803],[-4.036237,52.721053],[-4.023196,52.736086],[-3.989159,52.736061],[-4.011492,52.713121],[-4.016227,52.7206],[-4.051432,52.70375],[-4.049831,52.715379],[-4.057297,52.687299],[-4.095001,52.668368],[-4.128594,52.611718],[-4.126509,52.607393],[-4.064379,52.541387],[-3.960478,52.560651],[-3.939812,52.560684],[-3.941623,52.557939],[-3.936926,52.549674],[-3.930731,52.553287],[-3.92603,52.560762],[-3.906237,52.560786],[-3.923081,52.564907],[-3.920198,52.573932],[-3.915229,52.578389],[-3.892039,52.576934],[-3.875429,52.583469],[-3.875263,52.592913],[-3.841875,52.599841],[-3.850441,52.620621],[-3.834606,52.633044],[-3.840706,52.650888],[-3.808088,52.67793],[-3.759344,52.669431],[-3.7439,52.681294],[-3.716752,52.678764],[-3.70936,52.671068],[-3.68392,52.693843],[-3.656368,52.691358],[-3.602011,52.704972],[-3.599288,52.725867],[-3.583508,52.738608],[-3.608707,52.794007],[-3.597053,52.81404],[-3.586471,52.827703],[-3.568165,52.822881],[-3.566668,52.830066],[-3.505281,52.841942],[-3.483009,52.865439],[-3.473559,52.871253],[-3.489965,52.895775],[-3.465113,52.920255],[-3.491425,52.933671],[-3.446711,52.963223],[-3.448743,52.973812],[-3.436783,52.980833],[-3.457979,52.984873],[-3.504539,52.965335],[-3.533805,52.973671],[-3.582986,52.967522],[-3.610785,52.995999],[-3.599618,53.011675],[-3.615318,53.011335],[-3.672946,52.997036],[-3.683021,52.986829],[-3.735337,52.979835],[-3.769717,52.959289],[-3.813218,52.949356],[-3.841028,52.962281],[-3.849369,52.977309],[-3.896553,52.994882],[-3.887805,53.011572],[-3.89893,53.020551],[-3.985417,53.010638],[-3.997208,53.037636],[-3.977057,53.068917],[-3.991317,53.076478],[-3.986669,53.084186],[-4.013592,53.089689],[-4.014097,53.10354],[-4.031332,53.105631],[-4.021008,53.12457],[-4.020114,53.124806],[-4.008621,53.142666],[-3.970324,53.16017],[-3.96497,53.183374],[-3.939043,53.200094],[-3.935288,53.214858],[-4.007386,53.246905]]],[[[-4.780214,52.758972],[-4.779888,52.766076],[-4.793419,52.768478],[-4.801642,52.745063],[-4.780214,52.758972]]]]}},
{"type":"Feature","id":"GBR:ADM2:GB-WLS.conwy","properties":{"shapeName":"Conwy","shapeISO":"","shapeGroup":"GBR","shapeType":"ADM2","adm1ISO":"GB-WLS","parentISO":"GB-WLS","parentID":"GBR:ADM1:GB-WLS","src_shape_id":"9080712B48550997087693"},"geometry":{"type":"Polygon","coordinates":[[[-3.457979,52.984873],[-3.454589,52.99791],[-3.481182,53.018507],[-3.476272,53.026405],[-3.489656,53.037844],[-3.462607,53.046196],[-3.486886,53.065908],[-3.486927,53.084035],[-3.509864,53.076338],[-3.515708,53.089784],[-3.564928,53.09464],[-3.593055,53.07844],[-3.601951,53.087491],[-3.555951,53.106655],[-3.56334,53.119469],[-3.534069,53.139932],[-3.461012,53.164979],[-3.474456,53.176357],[-3.466023,53.220765],[-3.509198,53.24163],[-3.526341,53.240407],[-3.533076,53.248853],[-3.518336,53.256357],[-3.521917,53.283376],[-3.49765,53.300749],[-3.506173,53.310669],[-3.511448,53.316806],[-3.605805,53.29082],[-3.706898,53.293722],[-3.732114,53.300346],[-3.739106,53.314119],[-3.764869,53.318825],[-3.77512,53.328287],[-3.818802,53.322775],[-3.833004,53.338011],[-3.878967,53.339442],[-3.844506,53.318951],[-3.822947,53.280422],[-3.841575,53.295476],[-3.983481,53.259454],[-4.007386,53.246905],[-3.935288,53.214858],[-3.939043,53.200094],[-3.96497,53.183374],[-3.970324,53.16017],[-4.008621,53.142666],[-4.020114,53.124806],[-4.021008,53.12457],[-4.031332,53.105631],[-4.014097,53.10354],[-4.013592,53.089689],[-3.986669,53.084186],[-3.991317,53.076478],[-3.977057,53.068917],[-3.997208,53.037636],[-3.985417,53.010638],[-3.89893,53.020551],[-3.887805,53.011572],[-3.896553,52.994882],[-3.849369,52.977309],[-3.841028,52.962281],[-3.813218,52.949356],[-3.769717,52.959289],[-3.735337,52.979835],[-3.683021,52.986829],[-3.672946,52.997036],[-3.615318,53.011335],[-3.599618,53.011675],[-3.610785,52.995999],[-3.582986,52.967522],[-3.533805,52.973671],[-3.504539,52.965335],[-3.457979,52.984873]]]}},
{"type":"Feature","id":"GBR:ADM2:GB-WLS.denbighshire","properties":{"shapeName":"Denbighshire","shapeISO":"","shapeGroup":"GBR","shapeType":"ADM2","adm1ISO":"GB-WLS","parentISO":"GB-WLS","parentID":"GBR:ADM1:GB-WLS","src_shape_id":"9080712B21023064751221"},"geometry":{"type":"Polygon","coordinates":[[[-3.483009,52.865439],[-3.467243,52.862063],[-3.388821,52.876056],[-3.375013,52.892439],[-3.348873,52.916318],[-3.353313,52.921957],[-3.324338,52.931829],[-3.314305,52.946786],[-3.297399,52.942952],[-3.237438,52.950997],[-3.197973,52.944191],[-3.096727,52.959233],[-3.110701,52.96171],[-3.09215,52.964261],[-3.090296,52.971605],[-3.111282,52.969374],[-3.10518,52.973358],[-3.122289,52.976746],[-3.120552,52.985531],[-3.148766,52.998562],[-3.130891,53.023861],[-3.147791,53.043792],[-3.129616,53.072353],[-3.151764,53.092947],[-3.145908,53.103934],[-3.176762,53.116071],[-3.182346,53.154022],[-3.208227,53.159828],[-3.244153,53.152282],[-3.271206,53.157451],[-3.280978,53.168575],[-3.275171,53.179406],[-3.307698,53.197699],[-3.304214,53.208016],[-3.317085,53.20998],[-3.322378,53.220394],[-3.304439,53.232908],[-3.333807,53.236647],[-3.361754,53.253067],[-3.329624,53.273351],[-3.357033,53.283911],[-3.356037,53.297253],[-3.37513,53.291637],[-3.39434,53.301691],[-3.381307,53.31581],[-3.400598,53.31384],[-3.393462,53.326966],[-3.388346,53.323216],[-3.369102,53.334258],[-3.363429,53.352041],[-3.480561,53.328363],[-3.50374,53.317451],[-3.506173,53.310669],[-3.49765,53.300749],[-3.521917,53.283376],[-3.518336,53.256357],[-3.533076,53.248853],[-3.526341,53.240407],[-3.509198,53.24163],[-3.466023,53.220765],[-3.474456,53.176357],[-3.461012,53.164979],[-3.534069,53.139932],[-3.56334,53.119469],[-3.555951,53.106655],[-3.601951,53.087491],[-3.593055,53.07844],[-3.564928,53.09464],[-3.515708,53.089784],[-3.509864,53.076338],[-3.486927,53.084035],[-3.486886,53.065908],[-3.462607,53.046196],[-3.489656,53.037844],[-3.476272,53.026405],[-3.481182,53.018507],[-3.454589,52.99791],[-3.457979,52.984873],[-3.436783,52.980833],[-3.448743,52.973812],[-3.446711,52.963223],[-3.491425,52.933671],[-3.465113,52.920255],[-3.489965,52.895775],[-3.473559,52.871253],[-3.483009,52.865439]]]}},
{"type":"Feature","id":"GBR:ADM2:GB-WLS.flintshire","properties":{"shapeName":"Flintshire","shapeISO":"","shapeGroup":"GBR","shapeType":"ADM2","adm1ISO":"GB-WLS","parentISO":"GB-WLS","parentID":"GBR:ADM1:GB-WLS","src_shape_id":"9080712B22270450131797"},"geometry":{"type":"MultiPolygon","coordinates":[[[[-3.085601,53.256623],[-3.109358,53.257592],[-3.081039,53.244689],[-3.089321,53.244723],[-3.084936,53.240219],[-3.094653,53.244808],[-3.066147,53.227118],[-3.108953,53.2409],[-3.201218,53.293597],[-3.258273,53.314535],[-3.261482,53.326129],[-3.273217,53.320646],[-3.298326,53.332063],[-3.312446,53.342301],[-3.310843,53.355554],[-3.363429,53.352041],[-3.369102,53.334258],[-3.388346,53.323216],[-3.393462,53.326966],[-3.400598,53.31384],[-3.381307,53.31581],[-3.39434,53.301691],[-3.37513,53.291637],[-3.356037,53.297253],[-3.357033,53.283911],[-3.329624,53.273351],[-3.361754,53.253067],[-3.333807,53.236647],[-3.304439,53.232908],[-3.322378,53.220394],[-3.317085,53.20998],[-3.304214,53.208016],[-3.307698,53.197699],[-3.275171,53.179406],[-3.280978,53.168575],[-3.271206,53.157451],[-3.244153,53.152282],[-3.208227,53.159828],[-3.182346,53.154022],[-3.176762,53.116071],[-3.145908,53.103934],[-3.151764,53.092947],[-3.129616,53.072353],[-3.07134,53.089595],[-3.058851,53.085316],[-3.035044,53.096779],[-3.027559,53.092957],[-3.029147,53.103499],[-2.996851,53.12992],[-2.963812,53.132742],[-2.979497,53.150606],[-2.995088,53.15418],[-2.94404,53.165232],[-2.920451,53.182185],[-2.920353,53.182937],[-2.94951,53.211264],[-3.025463,53.248299],[-3.08231,53.255454],[-3.085601,53.256623]]],[[[-3.101724,53.267205],[-3.112264,53.262649],[-3.095487,53.262112],[-3.101724,53.267205]]],[[[-3.107246,53.271958],[-3.111345,53.266347],[-3.101724,53.267205],[-3.107246,53.271958]]]]}},
{"type":"Feature","id":"GBR:ADM2:GB-WLS.wrexham","properties":{"shapeName":"Wrexham","shapeISO":"","shapeGroup":"GBR","shapeType":"ADM2","adm1ISO":"GB-WLS","parentISO":"GB-WLS","parentID":"GBR:ADM1:GB-WLS","src_shape_id":"9080712B59470533264950"},"geometry":{"type":"Polygon","coordinates":[[[-2.963812,53.132742],[-2.996851,53.12992],[-3.029147,53.103499],[-3.027559,53.092957],[-3.035044,53.096779],[-3.058851,53.085316],[-3.07134,53.089595],[-3.129616,53.072353],[-3.147791,53.043792],[-3.130891,53.023861],[-3.148766,52.998562],[-3.120552,52.985531],[-3.122289,52.976746],[-3.10518,52.973358],[-3.111282,52.969374],[-3.090296,52.971605],[-3.09215,52.964261],[-3.110701,52.96171],[-3.096727,52.959233],[-3.197973,52.944191],[-3.237438,52.950997],[-3.297399,52.942952],[-3.314305,52.946786],[-3.324338,52.931829],[-3.353313,52.921957],[-3.348873,52.916318],[-3.375013,52.892439],[-3.345649,52.892526],[-3.261801,52.866594],[-3.233002,52.866996],[-3.205363,52.893114],[-3.174381,52.901561],[-3.147504,52.890155],[-3.114163,52.893964],[-3.095954,52.930267],[-3.076514,52.925465],[-3.03508,52.929467],[-3.00965,52.956184],[-2.982023,52.959183],[-2.97503,52.968969],[-2.959814,52.951154],[-2.928889,52.938664],[-2.887432,52.952514],[-2.88354,52.946624],[-2.841016,52.942608],[-2.79885,52.895744],[-2.755328,52.924614],[-2.728441,52.925288],[-2.724178,52.957108],[-2.735294,52.969932],[-2.726841,52.983259],[-2.759941,52.986405],[-2.768276,52.994845],[-2.803312,52.989579],[-2.835996,52.997134],[-2.844062,53.017652],[-2.861045,53.022833],[-2.855715,53.03724],[-2.870118,53.045344],[-2.85924,53.054239],[-2.872555,53.058599],[-2.861475,53.060644],[-2.881643,53.074376],[-2.875722,53.081506],[-2.902073,53.092023],[-2.881098,53.121588],[-2.910231,53.112623],[-2.963812,53.132742]]]}},
{"type":"Feature","id":"GBR:ADM2:GB-WLS.ceredigion","properties":{"shapeName":"Ceredigion","shapeISO":"","shapeGroup":"GBR","shapeType":"ADM2","adm1ISO":"GB-WLS","parentISO":"GB-WLS","parentID":"GBR:ADM1:GB-WLS","src_shape_id":"9080712B80842466042481"},"geometry":{"type":"Polygon","coordinates":[[[-3.941623,52.557939],[-3.949221,52.551661],[-3.955955,52.555385],[-3.984463,52.536244],[-3.966671,52.530718],[-3.99703,52.534823],[-3.98565,52.517589],[-4.001459,52.532758],[-4.041512,52.52649],[-4.056259,52.532319],[-4.05173,52.481538],[-4.068446,52.469054],[-4.091802,52.413908],[-4.090408,52.407088],[-4.09207,52.406796],[-4.140367,52.322488],[-4.207498,52.263645],[-4.324949,52.2136],[-4.350516,52.209978],[-4.362007,52.218847],[-4.377628,52.21573],[-4.428908,52.178171],[-4.45449,52.167577],[-4.466895,52.171254],[-4.470967,52.160264],[-4.518584,52.134973],[-4.545563,52.13328],[-4.56721,52.144527],[-4.582777,52.137958],[-4.640748,52.138469],[-4.686198,52.129697],[-4.688351,52.104124],[-4.688887,52.102081],[-4.681221,52.092474],[-4.683267,52.084761],[-4.672867,52.081999],[-4.67026,52.07396],[-4.682902,52.069838],[-4.667503,52.057599],[-4.647415,52.076535],[-4.643387,52.07671],[-4.636955,52.060403],[-4.624881,52.054486],[-4.607753,52.062139],[-4.570237,52.058856],[-4.559732,52.043714],[-4.544905,52.044231],[-4.541054,52.052113],[-4.535599,52.044348],[-4.501937,52.042573],[-4.487428,52.049057],[-4.463632,52.036525],[-4.44871,52.044133],[-4.41108,52.041825],[-4.39882,52.034623],[-4.384875,52.04001],[-4.350594,52.026744],[-4.334723,52.041318],[-4.305768,52.038602],[-4.301053,52.051631],[-4.288948,52.052773],[-4.282478,52.039799],[-4.234458,52.038204],[-4.205826,52.062562],[-4.191439,52.059315],[-4.164138,52.068142],[-4.158547,52.081198],[-4.147257,52.080785],[-4.158744,52.086881],[-4.143987,52.094259],[-4.100038,52.09605],[-4.058083,52.113867],[-4.018107,52.097133],[-3.940475,52.138436],[-3.906709,52.119776],[-3.860092,52.142185],[-3.794407,52.117127],[-3.786089,52.104547],[-3.758091,52.128224],[-3.74204,52.139289],[-3.752261,52.197602],[-3.744198,52.246292],[-3.753423,52.251748],[-3.731628,52.271438],[-3.707161,52.274045],[-3.73308,52.290292],[-3.727727,52.305813],[-3.745001,52.317553],[-3.70512,52.341442],[-3.658159,52.347636],[-3.68547,52.368208],[-3.697192,52.366916],[-3.712041,52.413342],[-3.771607,52.442138],[-3.766398,52.469289],[-3.744789,52.474619],[-3.733252,52.506575],[-3.812457,52.478897],[-3.826747,52.484779],[-3.843987,52.512024],[-3.840853,52.55134],[-3.859457,52.560829],[-3.906237,52.560786],[-3.92603,52.560762],[-3.930731,52.553287],[-3.936926,52.549674],[-3.941623,52.557939]]]}},
{"type":"Feature","id":"GBR:ADM2:GB-WLS.pembrokeshire","properties":{"shapeName":"Pembrokeshire","shapeISO":"","shapeGroup":"GBR","shapeType":"ADM2","adm1ISO":"GB-WLS","parentISO":"GB-WLS","parentID":"GBR:ADM1:GB-WLS","src_shape_id":"9080712B36001150789343"},"geometry":{"type":"MultiPolygon","coordinates":[[[[-4.688351,52.104124],[-4.731518,52.117853],[-4.74947,52.103968],[-4.741416,52.098618],[-4.759027,52.076756],[-4.791405,52.058442],[-4.837909,52.05032],[-4.847753,52.037701],[-4.837941,52.033405],[-4.8413,52.024742],[-4.814319,52.018512],[-4.87886,52.019013],[-4.909997,52.034877],[-4.919681,52.010083],[-4.971171,52.001506],[-4.969206,51.994915],[-4.989706,52.000685],[-4.980931,52.005137],[-4.993088,52.004053],[-4.982669,52.014677],[-4.986781,52.016039],[-4.991777,52.026017],[-5.020706,52.020337],[-5.07098,52.03029],[-5.08961,52.015309],[-5.072552,52.003946],[-5.095628,51.993611],[-5.079882,51.985338],[-5.085766,51.968219],[-5.104295,51.969307],[-5.107082,51.961165],[-5.14676,51.961479],[-5.154033,51.948281],[-5.196385,51.950595],[-5.210103,51.932218],[-5.236216,51.929491],[-5.259127,51.914829],[-5.305504,51.908287],[-5.314555,51.901998],[-5.303742,51.90365],[-5.295817,51.893305],[-5.316089,51.88467],[-5.307298,51.874765],[-5.319783,51.86161],[-5.297525,51.866088],[-5.296245,51.86073],[-5.28252,51.870217],[-5.24576,51.873495],[-5.198255,51.867271],[-5.189284,51.873875],[-5.194591,51.867172],[-5.179469,51.867231],[-5.181559,51.861034],[-5.137746,51.863899],[-5.123087,51.851901],[-5.102852,51.810039],[-5.107612,51.774162],[-5.118546,51.768242],[-5.160263,51.772113],[-5.186073,51.753614],[-5.203148,51.755558],[-5.210828,51.733901],[-5.253986,51.738172],[-5.239305,51.725551],[-5.212172,51.722953],[-5.203627,51.711738],[-5.187148,51.708849],[-5.188241,51.689901],[-5.175564,51.680295],[-5.15728,51.687962],[-5.158087,51.701708],[-5.14958,51.702353],[-5.168481,51.706764],[-5.169962,51.730953],[-5.156507,51.712813],[-5.124547,51.717422],[-5.115871,51.710362],[-5.105221,51.736062],[-5.092988,51.740453],[-5.105097,51.723574],[-5.084938,51.706278],[-5.022639,51.707917],[-5.013851,51.717163],[-5.019464,51.706667],[-4.984957,51.699357],[-4.943197,51.705226],[-4.976724,51.688119],[-4.973459,51.67889],[-4.981224,51.689123],[-5.007452,51.687309],[-5.027524,51.69502],[-5.051148,51.69386],[-5.046515,51.676235],[-5.073857,51.677842],[-5.088099,51.684684],[-5.075528,51.687989],[-5.104968,51.692093],[-5.125634,51.681609],[-5.123337,51.671184],[-5.065034,51.663378],[-5.050032,51.639932],[-5.059373,51.620592],[-5.007552,51.608559],[-4.975411,51.610329],[-4.948311,51.597001],[-4.923401,51.597192],[-4.922962,51.611422],[-4.896398,51.610116],[-4.898615,51.627142],[-4.861737,51.638715],[-4.860755,51.647098],[-4.812846,51.645122],[-4.781145,51.63492],[-4.777084,51.642421],[-4.755907,51.643998],[-4.756818,51.653675],[-4.711109,51.651744],[-4.714249,51.658776],[-4.693323,51.671951],[-4.701842,51.674534],[-4.697171,51.686281],[-4.680214,51.697272],[-4.696539,51.712713],[-4.676243,51.727146],[-4.632823,51.735189],[-4.622553,51.768116],[-4.643941,51.776511],[-4.634091,51.785003],[-4.644566,51.797264],[-4.616913,51.811604],[-4.645765,51.831329],[-4.704235,51.839109],[-4.70859,51.847256],[-4.694075,51.859609],[-4.706686,51.888866],[-4.723076,51.895686],[-4.713511,51.899226],[-4.713401,51.915773],[-4.667864,51.934066],[-4.635585,51.918584],[-4.599929,51.940918],[-4.577661,51.931903],[-4.541525,51.956539],[-4.493287,51.961299],[-4.487088,51.988672],[-4.512251,51.994902],[-4.522989,52.01124],[-4.546375,52.019045],[-4.559732,52.043714],[-4.570237,52.058856],[-4.607753,52.062139],[-4.624881,52.054486],[-4.636955,52.060403],[-4.643387,52.07671],[-4.647415,52.076535],[-4.667503,52.057599],[-4.682902,52.069838],[-4.67026,52.07396],[-4.672867,52.081999],[-4.683267,52.084761],[-4.681221,52.092474],[-4.688887,52.102081],[-4.688351,52.104124]]],[[[-5.299673,51.744948],[-5.313161,51.739781],[-5.310757,51.732704],[-5.292998,51.728305],[-5.281381,51.736732],[-5.280239,51.731747],[-5.269222,51.734664],[-5.299673,51.744948]]],[[[-5.329775,51.877688],[-5.338493,51.879117],[-5.353335,51.863752],[-5.333324,51.853737],[-5.329775,51.877688]]],[[[-4.674639,51.637719],[-4.702173,51.642269],[-4.709483,51.642169],[-4.703439,51.632017],[-4.684025,51.629907],[-4.674639,51.637719]]],[[[-5.270054,51.695947],[-5.264611,51.701822],[-5.273952,51.703484],[-5.288108,51.693368],[-5.270054,51.695947]]]]}},
{"type":"Feature","id":"GBR:ADM2:GB-WLS.carmarthenshire","properties":{"shapeName":"Carmarthenshire","shapeISO":"","shapeGroup":"GBR","shapeType":"ADM2","adm1ISO":"GB-WLS","parentISO":"GB-WLS","parentID":"GBR:ADM1:GB-WLS","src_shape_id":"9080712B87157839876770"},"geometry":{"type":"Polygon","coordinates":[[[-4.559732,52.043714],[-4.546375,52.019045],[-4.522989,52.01124],[-4.512251,51.994902],[-4.487088,51.988672],[-4.493287,51.961299],[-4.541525,51.956539],[-4.577661,51.931903],[-4.599929,51.940918],[-4.635585,51.918584],[-4.667864,51.934066],[-4.713401,51.915773],[-4.713511,51.899226],[-4.723076,51.895686],[-4.706686,51.888866],[-4.694075,51.859609],[-4.70859,51.847256],[-4.704235,51.839109],[-4.645765,51.831329],[-4.616913,51.811604],[-4.644566,51.797264],[-4.634091,51.785003],[-4.643941,51.776511],[-4.622553,51.768116],[-4.632823,51.735189],[-4.578671,51.734265],[-4.558996,51.741974],[-4.463193,51.731675],[-4.423634,51.740726],[-4.417757,51.745283],[-4.458962,51.76045],[-4.462726,51.769112],[-4.448854,51.770105],[-4.403807,51.757267],[-4.363439,51.796493],[-4.32644,51.801343],[-4.323992,51.801513],[-4.366105,51.787177],[-4.37602,51.753868],[-4.36553,51.737912],[-4.321687,51.734487],[-4.295432,51.741877],[-4.324999,51.73189],[-4.301925,51.726125],[-4.309767,51.721444],[-4.314987,51.726253],[-4.314823,51.719205],[-4.321756,51.724649],[-4.323821,51.724089],[-4.33644,51.717503],[-4.335419,51.723089],[-4.356185,51.721817],[-4.357491,51.729689],[-4.36296,51.724661],[-4.360521,51.730283],[-4.379901,51.73213],[-4.348299,51.695099],[-4.291211,51.667645],[-4.26418,51.673296],[-4.289062,51.676943],[-4.215418,51.685308],[-4.182316,51.680719],[-4.170047,51.665423],[-4.168566,51.680807],[-4.167586,51.664061],[-4.14614,51.654676],[-4.133191,51.665374],[-4.129403,51.657937],[-4.081662,51.66389],[-4.089638,51.671694],[-4.081325,51.674899],[-4.081622,51.688798],[-4.067306,51.690652],[-4.071757,51.699051],[-4.053211,51.700899],[-4.056302,51.71319],[-4.043979,51.706675],[-4.049636,51.71204],[-4.044147,51.736111],[-4.034439,51.735636],[-4.001574,51.762607],[-3.999785,51.774145],[-3.965171,51.763699],[-3.936486,51.771349],[-3.918406,51.775294],[-3.887188,51.768791],[-3.882079,51.787898],[-3.899864,51.803624],[-3.865439,51.81034],[-3.818562,51.802341],[-3.806675,51.787946],[-3.772631,51.846016],[-3.713824,51.887119],[-3.71367,51.905929],[-3.727505,51.910507],[-3.720923,51.941304],[-3.699894,51.946081],[-3.711191,51.961871],[-3.670004,52.004205],[-3.66826,52.025424],[-3.647125,52.03878],[-3.679038,52.060603],[-3.66712,52.07429],[-3.723084,52.085204],[-3.728788,52.093973],[-3.714065,52.104961],[-3.720308,52.117491],[-3.758091,52.128224],[-3.786089,52.104547],[-3.794407,52.117127],[-3.860092,52.142185],[-3.906709,52.119776],[-3.940475,52.138436],[-4.018107,52.097133],[-4.058083,52.113867],[-4.100038,52.09605],[-4.143987,52.094259],[-4.158744,52.086881],[-4.147257,52.080785],[-4.158547,52.081198],[-4.164138,52.068142],[-4.191439,52.059315],[-4.205826,52.062562],[-4.234458,52.038204],[-4.282478,52.039799],[-4.288948,52.052773],[-4.301053,52.051631],[-4.305768,52.038602],[-4.334723,52.041318],[-4.350594,52.026744],[-4.384875,52.04001],[-4.39882,52.034623],[-4.41108,52.041825],[-4.44871,52.044133],[-4.463632,52.036525],[-4.487428,52.049057],[-4.501937,52.042573],[-4.535599,52.044348],[-4.541054,52.052113],[-4.544905,52.044231],[-4.559732,52.043714]]]}},
{"type":"Feature","id":"GBR:ADM2:GB-WLS.swansea","properties":{"shapeName":"Swansea","shapeISO":"","shapeGroup":"GBR","shapeType":"ADM2","adm1ISO":"GB-WLS","parentISO":"GB-WLS","parentID":"GBR:ADM1:GB-WLS","src_shape_id":"9080712B37144090362745"},"geometry":{"type":"Polygon","coordinates":[[[-4.049636,51.71204],[-4.043257,51.706471],[-4.043628,51.706228],[-4.053668,51.708897],[-4.051373,51.699839],[-4.069207,51.679829],[-4.077141,51.682044],[-4.062412,51.672651],[-4.081307,51.662094],[-4.048547,51.655693],[-4.105375,51.652649],[-4.116311,51.644714],[-4.137425,51.642116],[-4.132953,51.632489],[-4.158451,51.63431],[-4.154704,51.627792],[-4.164304,51.628175],[-4.158853,51.624229],[-4.173178,51.61612],[-4.165869,51.628168],[-4.192024,51.62413],[-4.187772,51.616954],[-4.197761,51.622316],[-4.18634,51.626707],[-4.21766,51.63555],[-4.208872,51.624925],[-4.219526,51.631543],[-4.224626,51.627689],[-4.220883,51.625482],[-4.212939,51.624162],[-4.205514,51.616416],[-4.222269,51.625712],[-4.225351,51.626223],[-4.228688,51.630354],[-4.233864,51.62285],[-4.23224,51.631498],[-4.245536,51.617984],[-4.232506,51.642239],[-4.245479,51.647583],[-4.279625,51.615905],[-4.30918,51.609612],[-4.28898,51.576346],[-4.308134,51.563016],[-4.278792,51.561498],[-4.21076,51.537144],[-4.194783,51.54826],[-4.152573,51.540967],[-4.156417,51.561945],[-4.103693,51.577769],[-4.111303,51.569945],[-4.064331,51.55725],[-4.034974,51.570102],[-4.024309,51.563145],[-4.010533,51.568152],[-3.980874,51.564717],[-3.976504,51.568747],[-4.000563,51.58003],[-3.993881,51.598693],[-3.958325,51.612181],[-3.928715,51.613457],[-3.926912,51.606364],[-3.886215,51.617533],[-3.875226,51.657541],[-3.842727,51.697364],[-3.876006,51.703955],[-3.888489,51.73908],[-3.936486,51.771349],[-3.965171,51.763699],[-3.999785,51.774145],[-4.001574,51.762607],[-4.034439,51.735636],[-4.044147,51.736111],[-4.049636,51.71204]]]}},
{"type":"Feature","id":"GBR:ADM2:GB-WLS.neath-port-talbot","properties":{"shapeName":"Neath Port Talbot","shapeISO":"","shapeGroup":"GBR","shapeType":"ADM2","adm1ISO":"GB-WLS","parentISO":"GB-WLS","parentID":"GBR:ADM1:GB-WLS","src_shape_id":"9080712B46320351698050"},"geometry":{"type":"Polygon","coordinates":[[[-3.936486,51.771349],[-3.888489,51.73908],[-3.876006,51.703955],[-3.842727,51.697364],[-3.875226,51.657541],[-3.886215,51.617533],[-3.836923,51.623654],[-3.850808,51.614462],[-3.811859,51.583499],[-3.790693,51.592979],[-3.817022,51.579619],[-3.802216,51.581881],[-3.79792,51.571132],[-3.817384,51.574318],[-3.797179,51.569276],[-3.789249,51.569711],[-3.762988,51.536509],[-3.703111,51.527164],[-3.687787,51.537432],[-3.656598,51.539169],[-3.655272,51.564831],[-3.694404,51.594264],[-3.691105,51.603516],[-3.676722,51.601322],[-3.680694,51.621909],[-3.665686,51.64115],[-3.595707,51.637725],[-3.563298,51.645481],[-3.589573,51.679269],[-3.578635,51.717877],[-3.59128,51.754607],[-3.603418,51.773841],[-3.670353,51.787193],[-3.727896,51.776201],[-3.746076,51.753386],[-3.770305,51.754516],[-3.806675,51.787946],[-3.818562,51.802341],[-3.865439,51.81034],[-3.899864,51.803624],[-3.882079,51.787898],[-3.887188,51.768791],[-3.918406,51.775294],[-3.936486,51.771349]]]}},
{"type":"Feature","id":"GBR:ADM2:GB-WLS.bridgend","properties":{"shapeName":"Bridgend","shapeISO":"","shapeGroup":"GBR","shapeType":"ADM2","adm1ISO":"GB-WLS","parentISO":"GB-WLS","parentID":"GBR:ADM1:GB-WLS","src_shape_id":"9080712B76343097183385"},"geometry":{"type":"Polygon","coordinates":[[[-3.762988,51.536509],[-3.749404,51.504045],[-3.72081,51.47968],[-3.699706,51.473005],[-3.698797,51.478015],[-3.679819,51.473179],[-3.658901,51.480045],[-3.638306,51.46993],[-3.619614,51.476619],[-3.554746,51.492773],[-3.532835,51.481605],[-3.539435,51.491031],[-3.527597,51.493684],[-3.529595,51.501363],[-3.497499,51.512641],[-3.463012,51.543409],[-3.488718,51.574238],[-3.476454,51.581631],[-3.472514,51.601265],[-3.510009,51.618134],[-3.537627,51.64413],[-3.563298,51.645481],[-3.595707,51.637725],[-3.665686,51.64115],[-3.680694,51.621909],[-3.676722,51.601322],[-3.691105,51.603516],[-3.694404,51.594264],[-3.655272,51.564831],[-3.656598,51.539169],[-3.687787,51.537432],[-3.703111,51.527164],[-3.762988,51.536509]]]}},
{"type":"Feature","id":"GBR:ADM2:GB-WLS.vale-of-glamorgan","properties":{"shapeName":"Vale of Glamorgan","shapeISO":"","shapeGroup":"GBR","shapeType":"ADM2","adm1ISO":"GB-WLS","parentISO":"GB-WLS","parentID":"GBR:ADM1:GB-WLS","src_shape_id":"9080712B65892771938338"},"geometry":{"type":"Polygon","coordinates":[[[-3.619614,51.476619],[-3.640959,51.46227],[-3.596774,51.441024],[-3.558947,51.401327],[-3.415245,51.387776],[-3.405581,51.381001],[-3.395778,51.382732],[-3.342353,51.381064],[-3.310322,51.392759],[-3.265793,51.387524],[-3.260894,51.394773],[-3.224144,51.403421],[-3.187634,51.400089],[-3.169688,51.406297],[-3.165724,51.446174],[-3.186656,51.4479],[-3.219635,51.474992],[-3.248043,51.464555],[-3.271049,51.465053],[-3.298375,51.499914],[-3.335727,51.508426],[-3.378629,51.512712],[-3.401902,51.498962],[-3.411046,51.506766],[-3.465348,51.514808],[-3.497499,51.512641],[-3.529595,51.501363],[-3.527597,51.493684],[-3.539435,51.491031],[-3.532835,51.481605],[-3.554746,51.492773],[-3.619614,51.476619]]]}},
{"type":"Feature","id":"GBR:ADM2:GB-WLS.cardiff","properties":{"shapeName":"Cardiff","shapeISO":"","shapeGroup":"GBR","shapeType":"ADM2","adm1ISO":"GB-WLS","parentISO":"GB-WLS","parentID":"GBR:ADM1:GB-WLS","src_shape_id":"9080712B81959387268883"},"geometry":{"type":"Polygon","coordinates":[[[-3.165724,51.446174],[-3.164133,51.44576],[-3.123572,51.486045],[-3.125446,51.489505],[-3.082712,51.501906],[-3.090383,51.509874],[-3.068902,51.520265],[-3.118882,51.545637],[-3.144474,51.555337],[-3.152566,51.55164],[-3.163725,51.560504],[-3.237686,51.552601],[-3.261562,51.537785],[-3.277657,51.551857],[-3.310353,51.548931],[-3.324349,51.535774],[-3.341582,51.535138],[-3.335727,51.508426],[-3.298375,51.499914],[-3.271049,51.465053],[-3.248043,51.464555],[-3.219635,51.474992],[-3.186656,51.4479],[-3.165724,51.446174]]]}},
{"type":"Feature","id":"GBR:ADM2:GB-WLS.rhondda-cynon-taf","properties":{"shapeName":"Rhondda Cynon Taf","shapeISO":"","shapeGroup":"GBR","shapeType":"ADM2","adm1ISO":"GB-WLS","parentISO":"GB-WLS","parentID":"GBR:ADM1:GB-WLS","src_shape_id":"9080712B86479073269736"},"geometry":{"type":"Polygon","coordinates":[[[-3.563298,51.645481],[-3.537627,51.64413],[-3.510009,51.618134],[-3.472514,51.601265],[-3.476454,51.581631],[-3.488718,51.574238],[-3.463012,51.543409],[-3.497499,51.512641],[-3.465348,51.514808],[-3.411046,51.506766],[-3.401902,51.498962],[-3.378629,51.512712],[-3.335727,51.508426],[-3.341582,51.535138],[-3.324349,51.535774],[-3.310353,51.548931],[-3.277657,51.551857],[-3.261562,51.537785],[-3.237686,51.552601],[-3.242443,51.565487],[-3.262846,51.566235],[-3.269836,51.58383],[-3.29137,51.592106],[-3.313894,51.644675],[-3.313849,51.6557],[-3.331181,51.656499],[-3.380028,51.711007],[-3.399904,51.717879],[-3.453139,51.761657],[-3.427461,51.758494],[-3.416623,51.767173],[-3.440678,51.795799],[-3.444192,51.816481],[-3.460121,51.830124],[-3.470063,51.828499],[-3.476319,51.809466],[-3.5412,51.784558],[-3.537051,51.776193],[-3.559855,51.777511],[-3.565631,51.76488],[-3.59128,51.754607],[-3.578635,51.717877],[-3.589573,51.679269],[-3.563298,51.645481]]]}},
{"type":"Feature","id":"GBR:ADM2:GB-WLS.caerphilly","properties":{"shapeName":"Caerphilly","shapeISO":"","shapeGroup":"GBR","shapeType":"ADM2","adm1ISO":"GB-WLS","parentISO":"GB-WLS","parentID":"GBR:ADM1:GB-WLS","src_shape_id":"9080712B28109040189769"},"geometry":{"type":"Polygon","coordinates":[[[-3.118882,51.545637],[-3.090197,51.569264],[-3.121746,51.579691],[-3.124184,51.58855],[-3.10515,51.597213],[-3.09373,51.591396],[-3.064566,51.60393],[-3.08182,51.61943],[-3.102646,51.633948],[-3.074832,51.652237],[-3.071657,51.674185],[-3.084417,51.688356],[-3.101967,51.682089],[-3.116108,51.6908],[-3.13766,51.681924],[-3.129064,51.695779],[-3.156355,51.713968],[-3.16724,51.709899],[-3.210122,51.750091],[-3.219627,51.745077],[-3.210873,51.7307],[-3.224039,51.729147],[-3.222882,51.723097],[-3.266963,51.759288],[-3.272473,51.777478],[-3.301308,51.798971],[-3.310086,51.794297],[-3.33446,51.790397],[-3.329035,51.758648],[-3.309939,51.739045],[-3.3155,51.731804],[-3.300626,51.73631],[-3.273919,51.682333],[-3.284668,51.677125],[-3.285204,51.658234],[-3.296097,51.664089],[-3.313894,51.644675],[-3.29137,51.592106],[-3.269836,51.58383],[-3.262846,51.566235],[-3.242443,51.565487],[-3.237686,51.552601],[-3.163725,51.560504],[-3.152566,51.55164],[-3.144474,51.555337],[-3.118882,51.545637]]]}},
{"type":"Feature","id":"GBR:ADM2:GB-WLS.blaenau-gwent","properties":{"shapeName":"Blaenau Gwent","shapeISO":"","shapeGroup":"GBR","shapeType":"ADM2","adm1ISO":"GB-WLS","parentISO":"GB-WLS","parentID":"GBR:ADM1:GB-WLS","src_shape_id":"9080712B1934102491611"},"geometry":{"type":"Polygon","coordinates":[[[-3.116108,51.6908],[-3.106008,51.720513],[-3.115182,51.757393],[-3.106106,51.761249],[-3.143917,51.786097],[-3.134182,51.792806],[-3.156853,51.796085],[-3.145821,51.804692],[-3.157345,51.816046],[-3.238771,51.81235],[-3.283426,51.825483],[-3.308576,51.806128],[-3.310086,51.794297],[-3.301308,51.798971],[-3.272473,51.777478],[-3.266963,51.759288],[-3.222882,51.723097],[-3.224039,51.729147],[-3.210873,51.7307],[-3.219627,51.745077],[-3.210122,51.750091],[-3.16724,51.709899],[-3.156355,51.713968],[-3.129064,51.695779],[-3.13766,51.681924],[-3.116108,51.6908]]]}},
{"type":"Feature","id":"GBR:ADM2:GB-WLS.torfaen","properties":{"shapeName":"Torfaen","shapeISO":"","shapeGroup":"GBR","shapeType":"ADM2","adm1ISO":"GB-WLS","parentISO":"GB-WLS","parentID":"GBR:ADM1:GB-WLS","src_shape_id":"9080712B72120355157145"},"geometry":{"type":"Polygon","coordinates":[[[-3.08182,51.61943],[-3.045036,51.606672],[-3.047165,51.622505],[-3.019657,51.616525],[-2.989319,51.62876],[-2.958905,51.628778],[-3.003462,51.669054],[-2.994896,51.679256],[-2.979448,51.673683],[-2.968592,51.691437],[-3.001998,51.690826],[-2.983541,51.715368],[-3.03128,51.722676],[-3.027773,51.745369],[-3.04933,51.760444],[-3.043442,51.770399],[-3.05887,51.783635],[-3.108232,51.796217],[-3.134182,51.792806],[-3.143917,51.786097],[-3.106106,51.761249],[-3.115182,51.757393],[-3.106008,51.720513],[-3.116108,51.6908],[-3.101967,51.682089],[-3.084417,51.688356],[-3.071657,51.674185],[-3.074832,51.652237],[-3.102646,51.633948],[-3.08182,51.61943]]]}},
{"type":"Feature","id":"GBR:ADM2:GB-WLS.monmouthshire","properties":{"shapeName":"Monmouthshire","shapeISO":"","shapeGroup":"GBR","shapeType":"ADM2","adm1ISO":"GB-WLS","parentISO":"GB-WLS","parentID":"GBR:ADM1:GB-WLS","src_shape_id":"9080712B23643149504284"},"geometry":{"type":"Polygon","coordinates":[[[-3.067362,51.983136],[-3.093079,51.965184],[-3.081586,51.955388],[-3.090047,51.950348],[-3.078644,51.924525],[-3.0495,51.91144],[-3.040048,51.884584],[-3.072239,51.875191],[-3.063396,51.863318],[-3.097166,51.846422],[-3.100995,51.832044],[-3.120513,51.838916],[-3.157345,51.816046],[-3.145821,51.804692],[-3.156853,51.796085],[-3.134182,51.792806],[-3.108232,51.796217],[-3.05887,51.783635],[-3.043442,51.770399],[-3.04933,51.760444],[-3.027773,51.745369],[-3.03128,51.722676],[-2.983541,51.715368],[-3.001998,51.690826],[-2.968592,51.691437],[-2.979448,51.673683],[-2.994896,51.679256],[-3.003462,51.669054],[-2.958905,51.628778],[-2.944834,51.621246],[-2.908604,51.623798],[-2.886479,51.639714],[-2.836818,51.649469],[-2.805674,51.623717],[-2.803278,51.615688],[-2.830276,51.614948],[-2.847398,51.600921],[-2.845956,51.587267],[-2.859193,51.579421],[-2.85266,51.571255],[-2.834221,51.570381],[-2.82163,51.554069],[-2.75753,51.57841],[-2.712606,51.582354],[-2.695576,51.603405],[-2.669688,51.608784],[-2.658189,51.621628],[-2.663297,51.635611],[-2.66635,51.643965],[-2.68101,51.646761],[-2.66675,51.664201],[-2.68576,51.662154],[-2.687147,51.663104],[-2.657584,51.673858],[-2.684345,51.701074],[-2.669388,51.70231],[-2.687936,51.730368],[-2.66952,51.742724],[-2.662693,51.754026],[-2.680449,51.768925],[-2.669807,51.794268],[-2.678601,51.802609],[-2.659536,51.810677],[-2.660869,51.822748],[-2.650398,51.826119],[-2.666195,51.835618],[-2.693293,51.833835],[-2.697299,51.844803],[-2.715125,51.840238],[-2.719602,51.848914],[-2.738845,51.836611],[-2.778795,51.865853],[-2.768425,51.880535],[-2.836097,51.906039],[-2.841904,51.91772],[-2.861916,51.914012],[-2.844931,51.922019],[-2.877831,51.933807],[-2.971841,51.904976],[-2.97666,51.927484],[-3.008117,51.927124],[-3.025938,51.957276],[-3.067362,51.983136]]]}},
{"type":"Feature","id":"GBR:ADM2:GB-WLS.newport","properties":{"shapeName":"Newport","shapeISO":"","shapeGroup":"GBR","shapeType":"ADM2","adm1ISO":"GB-WLS","parentISO":"GB-WLS","parentID":"GBR:ADM1:GB-WLS","src_shape_id":"9080712B95574283757937"},"geometry":{"type":"Polygon","coordinates":[[[-3.082712,51.501906],[-2.995302,51.536469],[-2.989304,51.547512],[-3.004911,51.565769],[-2.988706,51.549526],[-2.970225,51.555587],[-2.98165,51.545131],[-2.951229,51.535091],[-2.914011,51.542575],[-2.922517,51.535784],[-2.904877,51.532397],[-2.82163,51.554069],[-2.834221,51.570381],[-2.85266,51.571255],[-2.859193,51.579421],[-2.845956,51.587267],[-2.847398,51.600921],[-2.830276,51.614948],[-2.803278,51.615688],[-2.805674,51.623717],[-2.836818,51.649469],[-2.886479,51.639714],[-2.908604,51.623798],[-2.944834,51.621246],[-2.958905,51.628778],[-2.989319,51.62876],[-3.019657,51.616525],[-3.047165,51.622505],[-3.045036,51.606672],[-3.08182,51.61943],[-3.064566,51.60393],[-3.09373,51.591396],[-3.10515,51.597213],[-3.124184,51.58855],[-3.121746,51.579691],[-3.090197,51.569264],[-3.118882,51.545637],[-3.068902,51.520265],[-3.090383,51.509874],[-3.082712,51.501906]]]}},
{"type":"Feature","id":"GBR:ADM2:GB-WLS.powys","properties":{"shapeName":"Powys","shapeISO":"","shapeGroup":"GBR","shapeType":"ADM2","adm1ISO":"GB-WLS","parentISO":"GB-WLS","parentID":"GBR:ADM1:GB-WLS","src_shape_id":"9080712B19665394937089"},"geometry":{"type":"Polygon","coordinates":[[[-2.954652,52.349142],[-2.974504,52.354688],[-3.040176,52.344314],[-3.060665,52.348227],[-3.110606,52.37718],[-3.154445,52.387702],[-3.178835,52.409384],[-3.219543,52.421239],[-3.235541,52.442489],[-3.197239,52.475975],[-3.180213,52.47392],[-3.111017,52.49892],[-3.029204,52.501253],[-3.032381,52.523716],[-3.003876,52.519818],[-2.994166,52.552896],[-3.014233,52.575482],[-3.087277,52.551317],[-3.085413,52.534488],[-3.133064,52.527456],[-3.137045,52.53403],[-3.111496,52.541349],[-3.139501,52.585705],[-3.117415,52.585748],[-3.089559,52.599491],[-3.093624,52.609324],[-3.073189,52.628948],[-3.059802,52.630706],[-3.083569,52.641278],[-3.051115,52.647351],[-3.038583,52.675359],[-3.04705,52.691251],[-3.022488,52.706653],[-3.020359,52.725088],[-3.000557,52.720261],[-2.977594,52.726577],[-2.978105,52.715343],[-2.961082,52.716451],[-2.965068,52.732254],[-2.991322,52.733803],[-2.991995,52.743742],[-3.021812,52.751926],[-3.010792,52.758549],[-3.017201,52.76765],[-3.035096,52.763994],[-3.038979,52.770386],[-3.052582,52.768675],[-3.047791,52.772628],[-3.079518,52.771499],[-3.091684,52.786649],[-3.086634,52.795579],[-3.118288,52.783568],[-3.160856,52.795731],[-3.153191,52.806354],[-3.168206,52.807314],[-3.167888,52.819252],[-3.15126,52.84255],[-3.163015,52.847476],[-3.127713,52.867088],[-3.152416,52.878733],[-3.135524,52.884999],[-3.147504,52.890155],[-3.174381,52.901561],[-3.205363,52.893114],[-3.233002,52.866996],[-3.261801,52.866594],[-3.345649,52.892526],[-3.375013,52.892439],[-3.388821,52.876056],[-3.467243,52.862063],[-3.483009,52.865439],[-3.505281,52.841942],[-3.566668,52.830066],[-3.568165,52.822881],[-3.586471,52.827703],[-3.597053,52.81404],[-3.608707,52.794007],[-3.583508,52.738608],[-3.599288,52.725867],[-3.602011,52.704972],[-3.656368,52.691358],[-3.68392,52.693843],[-3.70936,52.671068],[-3.716752,52.678764],[-3.7439,52.681294],[-3.759344,52.669431],[-3.808088,52.67793],[-3.840706,52.650888],[-3.834606,52.633044],[-3.850441,52.620621],[-3.841875,52.599841],[-3.875263,52.592913],[-3.875429,52.583469],[-3.892039,52.576934],[-3.915229,52.578389],[-3.920198,52.573932],[-3.923081,52.564907],[-3.906237,52.560786],[-3.859457,52.560829],[-3.840853,52.55134],[-3.843987,52.512024],[-3.826747,52.484779],[-3.812457,52.478897],[-3.733252,52.506575],[-3.744789,52.474619],[-3.766398,52.469289],[-3.771607,52.442138],[-3.712041,52.413342],[-3.697192,52.366916],[-3.68547,52.368208],[-3.658159,52.347636],[-3.70512,52.341442],[-3.745001,52.317553],[-3.727727,52.305813],[-3.73308,52.290292],[-3.707161,52.274045],[-3.731628,52.271438],[-3.753423,52.251748],[-3.744198,52.246292],[-3.752261,52.197602],[-3.74204,52.139289],[-3.758091,52.128224],[-3.720308,52.117491],[-3.714065,52.104961],[-3.728788,52.093973],[-3.723084,52.085204],[-3.66712,52.07429],[-3.679038,52.060603],[-3.647125,52.03878],[-3.66826,52.025424],[-3.670004,52.004205],[-3.711191,51.961871],[-3.699894,51.946081],[-3.720923,51.941304],[-3.727505,51.910507],[-3.71367,51.905929],[-3.713824,51.887119],[-3.772631,51.846016],[-3.806675,51.787946],[-3.770305,51.754516],[-3.746076,51.753386],[-3.727896,51.776201],[-3.670353,51.787193],[-3.603418,51.773841],[-3.59128,51.754607],[-3.565631,51.76488],[-3.559855,51.777511],[-3.537051,51.776193],[-3.5412,51.784558],[-3.476319,51.809466],[-3.470063,51.828499],[-3.460121,51.830124],[-3.444192,51.816481],[-3.417122,51.835096],[-3.402407,51.826307],[-3.402306,51.814154],[-3.35753,51.806972],[-3.360044,51.791083],[-3.33446,51.790397],[-3.310086,51.794297],[-3.308576,51.806128],[-3.283426,51.825483],[-3.238771,51.81235],[-3.157345,51.816046],[-3.120513,51.838916],[-3.100995,51.832044],[-3.097166,51.846422],[-3.063396,51.863318],[-3.072239,51.875191],[-3.040048,51.884584],[-3.0495,51.91144],[-3.078644,51.924525],[-3.090047,51.950348],[-3.081586,51.955388],[-3.093079,51.965184],[-3.067362,51.983136],[-3.099193,52.022679],[-3.08628,52.040188],[-3.090582,52.050507],[-3.12589,52.078304],[-3.122709,52.10315],[-3.10546,52.105378],[-3.10498,52.11672],[-3.141915,52.127859],[-3.135868,52.1379],[-3.093686,52.144297],[-3.072535,52.155764],[-3.08254,52.163038],[-3.098893,52.154725],[-3.122427,52.163411],[-3.094649,52.183733],[-3.102081,52.202711],[-3.072092,52.213078],[-3.073038,52.235867],[-3.044216,52.237917],[-3.048319,52.250222],[-3.035862,52.256746],[-3.005776,52.264249],[-2.977181,52.259675],[-2.949634,52.269457],[-3.012609,52.279158],[-3.000868,52.321754],[-2.966803,52.329437],[-2.954652,52.349142]]]}},
{"type":"Feature","id":"GBR:ADM2:GB-WLS.merthyr-tydfil","properties":{"shapeName":"Merthyr Tydfil","shapeISO":"","shapeGroup":"GBR","shapeType":"ADM2","adm1ISO":"GB-WLS","parentISO":"GB-WLS","parentID":"GBR:ADM1:GB-WLS","src_shape_id":"9080712B53025975773445"},"geometry":{"type":"Polygon","coordinates":[[[-3.313894,51.644675],[-3.296097,51.664089],[-3.285204,51.658234],[-3.284668,51.677125],[-3.273919,51.682333],[-3.300626,51.73631],[-3.3155,51.731804],[-3.309939,51.739045],[-3.329035,51.758648],[-3.33446,51.790397],[-3.360044,51.791083],[-3.35753,51.806972],[-3.402306,51.814154],[-3.402407,51.826307],[-3.417122,51.835096],[-3.444192,51.816481],[-3.440678,51.795799],[-3.416623,51.767173],[-3.427461,51.758494],[-3.453139,51.761657],[-3.399904,51.717879],[-3.380028,51.711007],[-3.331181,51.656499],[-3.313849,51.6557],[-3.313894,51.644675]]]}}
]}