{"type":"FeatureCollection","bbox":[13.5134,42.5591,19.2898,46.547],"features":[
{"type":"Feature","id":"HRV:ADM0:HRV","properties":{"shapeName":"Croatia","shapeISO":"HRV","shapeType":"ADM0"},"geometry":{"type":"MultiPolygon","coordinates":[[[[16.5153,46.5017],[16.3441,46.547],[16.2349,46.4933],[16.1918,46.3698],[16.0389,46.3084],[15.6613,46.2153],[15.5899,46.1135],[15.698,46.0362],[15.6661,45.8317],[15.4513,45.8151],[15.2489,45.7118],[15.314,45.4505],[15.1393,45.43],[14.9226,45.5149],[14.8816,45.4698],[14.6685,45.534],[14.5561,45.6567],[14.4689,45.5256],[14.3728,45.4778],[14.2187,45.4972],[13.9698,45.463],[13.5134,45.4362],[13.6438,45.0705],[13.7741,44.9638],[13.86,44.8257],[13.9727,44.8266],[14.2326,45.1494],[14.3298,45.354],[14.5105,45.2998],[14.8274,45.114],[14.9216,44.9588],[14.8838,44.8615],[14.9014,44.6902],[15.308,44.3544],[15.1576,44.2803],[15.1445,44.1955],[15.4661,43.9217],[15.9312,43.6765],[15.918,43.5933],[16.0985,43.48],[16.4338,43.5498],[16.6258,43.449],[16.8806,43.406],[17.0735,43.239],[17.3163,43.1273],[17.5156,42.9589],[17.6627,42.9657],[17.5874,43.0821],[17.4421,43.1524],[17.2676,43.3533],[17.2395,43.4784],[17.0846,43.5132],[16.7126,43.7715],[16.6786,43.8407],[16.2158,44.2082],[16.1165,44.5215],[15.8956,44.7186],[15.7173,44.7865],[15.78,45.1603],[15.9975,45.2185],[16.213,45.0315],[16.3406,45.0059],[16.4819,45.1995],[16.587,45.2209],[16.7863,45.1788],[16.9326,45.2788],[17.1871,45.1486],[17.5724,45.1204],[17.6847,45.164],[17.8357,45.0644],[17.9885,45.1438],[18.1925,45.1085],[18.2379,45.1575],[18.4661,45.074],[18.6167,45.0977],[18.789,45.0057],[18.8896,44.8612],[19.005,44.8633],[19.1317,44.9532],[19.0823,45.0849],[19.2898,45.2363],[19.1041,45.2987],[18.9755,45.3911],[19.0181,45.5674],[18.9685,45.6687],[18.7633,45.884],[18.4117,45.7432],[18.2112,45.7854],[17.8898,45.7921],[17.6565,45.8454],[17.5911,45.9362],[17.3453,45.9557],[17.2486,46.0802],[16.9748,46.2106],[16.8377,46.3819],[16.5153,46.5017]]],[[[18.4374,42.5592],[18.2241,42.6281],[17.8585,42.817],[17.7016,42.9195],[17.5189,42.9081],[17.2402,43.0228],[17.2019,42.9843],[17.4404,42.8734],[17.7288,42.8008],[17.8067,42.8119],[18.2175,42.6201],[18.2389,42.5591],[18.4374,42.5592]]],[[[17.1318,42.9696],[16.8241,42.9621],[16.8514,42.9007],[17.1074,42.9143],[17.1318,42.9696]]],[[[16.5007,43.2842],[16.8462,43.2734],[16.8098,43.3532],[16.4939,43.3823],[16.5007,43.2842]]],[[[14.5139,44.6622],[14.4519,44.8509],[14.3298,44.8339],[14.4279,44.6566],[14.5139,44.6622]]],[[[14.7234,44.9433],[14.6653,45.1618],[14.4251,45.0873],[14.7234,44.9433]]]]}}
]}