{"type":"FeatureCollection","bbox":[18.4528,41.8945,20.3454,43.5359],"features":[
{"type":"Feature","id":"MNE:ADM0:MNE","properties":{"shapeName":"Montenegro","shapeISO":"MNE","shapeType":"ADM0"},"geometry":{"type":"Polygon","coordinates":[[[18.4964,42.4163],[18.6838,42.4588],[19.3102,41.8945],[19.3749,42.0947],[19.272,42.1807],[19.605,42.5848],[19.8196,42.4665],[20.3454,42.8274],[19.9292,43.1139],[19.6187,43.1682],[19.1228,43.5359],[18.911,43.5073],[18.8991,43.3519],[18.6795,43.2495],[18.639,43.0202],[18.4528,42.9934],[18.5384,42.6183],[18.4964,42.4163]]]}}
]}