{"type":"FeatureCollection","bbox":[-9.1174,58.0175,33.0986,80.493],"features":[
{"type":"Feature","id":"NOR:ADM0:NOR","properties":{"shapeName":"Norway","shapeISO":"NOR","shapeType":"ADM0"},"geometry":{"type":"MultiPolygon","coordinates":[[[[20.6232,69.0364],[20.7444,69.1044],[21.0325,69.041],[21.1564,69.0876],[21.0336,69.1812],[21.3136,69.2914],[21.6629,69.2632],[22.0231,69.012],[22.3714,68.8226],[22.4287,68.7101],[22.5965,68.7246],[23.0193,68.6867],[23.1976,68.618],[23.7348,68.7154],[23.929,68.8162],[24.3325,68.7086],[24.6634,68.6661],[24.8609,68.5634],[25.1176,68.6377],[25.2013,68.8126],[25.3872,68.8746],[25.6516,68.8835],[25.8011,69.0132],[25.7341,69.1913],[25.8774,69.3708],[25.8867,69.5209],[26.032,69.6967],[26.1983,69.7154],[26.5007,69.9183],[26.8646,69.9381],[27.1003,69.9018],[27.3118,69.9295],[27.6126,70.0621],[27.8669,70.0753],[28.1674,69.8943],[28.4046,69.8023],[29.1312,69.6742],[29.3445,69.4644],[29.2293,69.3769],[28.8648,69.2166],[28.827,69.1068],[28.9541,69.0273],[29.2405,69.1151],[29.3345,69.2774],[29.9007,69.3582],[30.1234,69.4419],[30.2944,69.6202],[30.5117,69.5363],[30.853,69.5274],[30.9277,69.6721],[30.844,69.7662],[30.4507,69.8103],[30.1652,69.8795],[29.993,69.768],[29.7754,69.8386],[29.6859,69.9696],[29.138,70.0576],[28.7327,70.0856],[28.7537,70.1675],[29.2267,70.1203],[30.1331,70.0732],[30.3171,70.1174],[30.5488,70.2487],[30.9336,70.2637],[31.0633,70.3668],[30.4563,70.5612],[30.2068,70.6815],[29.3805,70.7694],[29.2214,70.8554],[28.7947,70.8732],[28.5262,70.7217],[28.3975,70.5483],[28.1372,70.4467],[27.8494,70.4829],[28.2332,70.6152],[28.3013,70.7026],[28.1305,70.736],[28.4832,70.8895],[28.5461,70.9799],[27.8767,71.0377],[27.5687,71.0972],[27.4764,71.0067],[27.2532,71.0263],[27.1226,70.9217],[27.3913,70.8764],[27.287,70.7436],[26.9761,70.5274],[26.6623,70.4264],[26.513,70.4316],[26.7443,70.8235],[26.6136,70.9491],[26.3743,70.8685],[26.0708,70.7125],[26.0122,70.6262],[25.4411,70.3422],[25.5171,70.2779],[25.2527,70.1013],[24.9434,70.1024],[24.9798,70.2294],[25.2013,70.3071],[25.2459,70.5279],[25.3538,70.6072],[25.8252,70.8275],[25.7057,70.8956],[25.3418,70.9527],[24.8602,70.9284],[24.666,70.9777],[24.574,70.7988],[24.2694,70.8384],[24.3524,70.691],[24.2643,70.6063],[23.5132,70.3655],[23.4876,70.2355],[23.2757,70.225],[23.3578,70.1153],[22.9981,70.0822],[22.9671,70.2075],[22.6037,70.2185],[21.9868,70.3234],[21.8218,70.2686],[21.4393,70.2695],[21.2092,70.2085],[21.9401,69.9857],[21.9046,69.8254],[21.5786,69.9279],[21.5581,69.9894],[21.2531,70.003],[21.1704,69.8756],[20.8939,69.8529],[20.512,69.7695],[20.315,69.9638],[20.1148,69.8784],[20.007,69.7685],[19.7842,69.8044],[19.2957,69.7829],[19.0983,69.7362],[18.8527,69.5523],[18.301,69.4868],[18.0031,69.2857],[18.0813,69.1691],[17.6794,69.0919],[17.4364,68.9134],[17.6942,68.8918],[17.2344,68.756],[16.6292,68.6417],[16.4646,68.51],[16.5348,68.4383],[16.1724,68.3179],[16.172,68.2037],[16.32,68.1258],[16.2754,67.9753],[16.042,68.0299],[16.104,68.1602],[15.7101,68.0846],[15.9688,68.0086],[15.7887,67.9514],[15.0632,67.8388],[15.0407,67.6776],[15.1965,67.6446],[14.7268,67.4887],[14.8,67.4218],[14.6017,67.3773],[14.4069,67.2781],[14.6738,67.2167],[15.138,67.311],[15.0946,67.2134],[14.7814,67.2143],[14.363,67.1597],[14.2228,66.9815],[13.9175,66.9289],[13.5897,66.9382],[13.6883,66.835],[13.4802,66.6753],[13.2839,66.6607],[13.0818,66.498],[13.1707,66.4123],[13,66.3571],[13.2266,66.2973],[13.2254,66.1858],[12.869,66.1343],[12.9175,65.953],[12.6823,65.9267],[12.6603,65.8097],[12.3489,65.6384],[12.4043,65.535],[12.6022,65.4323],[12.3421,65.3026],[12.5028,65.1449],[12.4715,65.0893],[12.1156,65.0493],[11.9785,65.0688],[11.7764,64.9767],[11.4014,64.9223],[11.3464,64.805],[11.6221,64.8432],[11.402,64.6632],[11.5213,64.5182],[11.3621,64.4113],[11.0762,64.5236],[10.6152,64.4501],[10.4502,64.3498],[10.4626,64.2941],[10.0137,64.1188],[9.9939,63.9294],[9.5459,63.7744],[9.5868,63.6714],[9.7991,63.6918],[9.9182,63.5147],[10.0803,63.5075],[10.4158,63.5794],[10.6428,63.6776],[10.91,63.731],[11.0964,63.8896],[11.4152,63.8501],[11.4639,63.8017],[11.0335,63.7192],[10.7557,63.6251],[10.7777,63.4875],[10.5769,63.4307],[10.3005,63.4665],[9.9606,63.4277],[9.8059,63.5137],[9.6991,63.6445],[9.5168,63.6037],[9.4167,63.5249],[9.2443,63.5137],[9.1677,63.402],[8.7918,63.4312],[8.7376,63.3347],[8.5147,63.3059],[8.6245,63.1281],[8.2362,63.1507],[8.2232,63.0334],[8.3552,63.0083],[8.4797,62.9072],[8.3293,62.8807],[8.2468,63.008],[7.9973,63.0923],[7.7483,62.9421],[7.5012,62.9108],[7.2712,63.0141],[6.9102,62.9294],[7.0166,62.8415],[6.9704,62.7256],[7.3125,62.744],[7.365,62.5928],[7.0923,62.6509],[6.7771,62.6503],[6.6222,62.5888],[6.3196,62.6085],[6.3047,62.4592],[6.5003,62.3993],[6.0277,62.3057],[5.9287,62.1989],[5.6221,62.1649],[5.1818,62.2127],[5.0706,62.1638],[5.2979,62.0682],[5.2386,61.9606],[5.3626,61.9055],[5.2445,61.8173],[4.9745,61.7386],[4.9927,61.6304],[5.2293,61.6287],[5.3314,61.5613],[5.2903,61.4796],[5.0571,61.4443],[4.9641,61.2657],[5.1252,61.1451],[5.4237,61.0797],[5.5573,61.1365],[5.9409,61.17],[6.4343,61.1147],[6.5579,61.2246],[7.0098,61.1291],[7.2295,61.1837],[7.3045,61.1303],[7.0003,61.0929],[6.7868,61.1503],[6.5664,61.1189],[6.3835,61.046],[6.0985,61.1222],[5.8928,61.1218],[5.5271,61.0754],[5.4338,61.0266],[5.0686,61.0736],[5.0039,61.0161],[5.033,60.7417],[5.0977,60.6491],[5.3001,60.5608],[5.7386,60.7051],[5.7083,60.4711],[5.6177,60.4172],[5.2383,60.4892],[5.2656,60.387],[5.1707,60.2787],[5.304,60.1906],[5.7292,60.1324],[5.6814,60.0397],[5.856,60.0237],[5.8528,60.1371],[6.1053,60.2452],[6.1921,60.3835],[6.3518,60.3681],[6.1423,60.2155],[6.098,60.0919],[5.7722,59.9307],[5.7151,59.8317],[5.8317,59.7722],[5.7461,59.6755],[5.4372,59.7082],[5.1823,59.5112],[5.2017,59.4296],[5.4754,59.2788],[5.6462,59.3341],[5.8596,59.3508],[5.7484,59.4458],[5.8345,59.5156],[6.0304,59.3749],[6.1123,59.2746],[6.0088,59.1494],[5.8727,59.087],[5.8825,58.9593],[5.6262,58.9256],[5.478,58.7547],[5.7042,58.5208],[5.9285,58.4836],[6.1403,58.3397],[6.4006,58.2722],[6.6262,58.2447],[6.542,58.1077],[6.8738,58.1348],[6.9994,58.0307],[7.1555,58.0503],[7.3906,58.0175],[7.6536,58.0646],[8.1229,58.102],[8.3535,58.2447],[8.5134,58.2934],[9.3405,58.7512],[9.4281,58.8931],[9.6633,58.9588],[9.8462,58.9556],[10.282,59.0997],[10.4445,59.3489],[10.4837,59.5145],[10.6564,59.5947],[10.6903,59.4807],[10.6428,59.3749],[10.7332,59.2409],[10.8503,59.1804],[11.0911,59.128],[11.3705,59.1007],[11.5471,58.8847],[11.6644,58.9201],[11.8117,59.2497],[11.6774,59.5591],[11.8284,59.6597],[11.9035,59.77],[11.8496,59.8724],[12.1437,59.8984],[12.4468,60.0511],[12.5109,60.118],[12.4873,60.2959],[12.5936,60.395],[12.5944,60.5149],[12.377,60.7541],[12.2561,60.9813],[12.5118,61.0491],[12.6825,61.0403],[12.8197,61.2049],[12.8771,61.371],[12.6138,61.547],[12.4165,61.5823],[12.1617,61.7248],[12.3175,62.234],[12.2864,62.3354],[12.0912,62.5863],[12.1562,62.7337],[12.1044,62.9233],[12.2227,63.0015],[11.9924,63.2889],[12.2049,63.4546],[12.1703,63.5981],[12.2932,63.657],[12.6819,63.9564],[12.9824,64.0588],[13.2341,64.0909],[13.9394,64.0095],[14.1614,64.2054],[14.1156,64.4412],[13.6428,64.584],[14.3107,65.0841],[14.366,65.2158],[14.5143,65.3181],[14.5607,65.7011],[14.6444,65.8429],[14.5405,66.1254],[15.0534,66.1533],[15.4819,66.2749],[15.4263,66.4912],[15.6695,66.5994],[16.0388,66.8875],[16.4156,67.0527],[16.4379,67.2003],[16.1271,67.4228],[16.1996,67.5083],[16.483,67.5578],[16.6087,67.6473],[16.808,67.9106],[17.2201,68.0401],[17.3215,68.1053],[17.8954,67.9697],[18.1667,68.1585],[18.1357,68.3957],[18.1718,68.5359],[18.4362,68.5739],[18.6446,68.5012],[19.0381,68.5056],[19.931,68.3502],[20.2459,68.4774],[19.9622,68.5412],[20.2366,68.6591],[20.3565,68.8046],[20.3411,68.9101],[20.1023,69.0221],[20.6232,69.0364]]],[[[14.0278,68.2626],[13.6367,68.2943],[13.5,68.2423],[13.4857,68.1068],[13.7188,68.0776],[14.0278,68.2626]]],[[[5.3071,59.7586],[5.1683,59.85],[5.0762,59.7663],[5.3071,59.7586]]],[[[5.4891,59.861],[5.4207,59.9384],[5.2502,59.9094],[5.3104,59.795],[5.4891,59.861]]],[[[5.6192,60.0739],[5.3753,60.0025],[5.5715,59.923],[5.6192,60.0739]]],[[[5.6877,60.6766],[5.324,60.5468],[5.486,60.4443],[5.6814,60.4817],[5.6877,60.6766]]],[[[4.8652,61.8894],[4.9163,61.781],[5.2228,61.8485],[4.8652,61.8894]]],[[[5.7361,62.2805],[5.5632,62.2914],[5.5469,62.1927],[5.7783,62.2074],[5.7361,62.2805]]],[[[5.9886,62.3965],[5.8045,62.3624],[5.874,62.2554],[6.0663,62.3482],[5.9886,62.3965]]],[[[7.9147,63.3425],[8.0867,63.3288],[8.1817,63.3902],[8.0041,63.4728],[7.7782,63.4113],[7.9147,63.3425]]],[[[9.1387,63.5678],[8.9652,63.6562],[8.5453,63.6025],[8.3172,63.5132],[8.5036,63.4342],[9.1068,63.5333],[9.1387,63.5678]]],[[[8.3604,63.6714],[8.7434,63.6879],[8.8053,63.791],[8.3604,63.6714]]],[[[12.4514,65.4261],[12.1974,65.4739],[12.2477,65.2805],[12.4919,65.3875],[12.4514,65.4261]]],[[[13.0547,68.0981],[12.8416,67.8791],[13.1309,67.9526],[13.0547,68.0981]]],[[[15.0005,68.3651],[15.1724,68.4544],[14.6535,68.4285],[14.3034,68.312],[14.1985,68.1528],[14.7632,68.259],[15.0005,68.3651]]],[[[16.4229,68.4919],[16.1921,68.515],[16.0949,68.3975],[16.3986,68.4135],[16.4229,68.4919]]],[[[16.5286,68.722],[16.5055,68.8032],[16.3146,68.8701],[16.1074,68.8361],[16.201,68.7607],[15.9331,68.6841],[15.8633,68.7829],[15.9074,68.9594],[15.6766,68.9627],[15.4592,68.7961],[15.5138,68.6362],[15.2388,68.5643],[15.2166,68.3354],[15.6913,68.343],[15.904,68.3699],[16.0935,68.5335],[16.4815,68.5475],[16.5286,68.722]]],[[[14.3972,68.6605],[14.617,68.6257],[15.0687,68.7486],[15.1651,68.7014],[14.8159,68.6378],[15.0627,68.5785],[15.3362,68.6529],[15.3942,68.7311],[15.2953,68.9069],[14.72,68.7629],[14.4382,68.756],[14.3972,68.6605]]],[[[15.5287,68.9138],[15.8479,69.0292],[16.0608,69.1446],[16.1499,69.2908],[15.8645,69.2495],[15.7914,69.1613],[15.5697,69.1055],[15.4598,69.0131],[15.5287,68.9138]]],[[[18.0708,69.4379],[18.0505,69.4959],[17.7722,69.5478],[17.2634,69.4784],[16.9153,69.3176],[16.8233,69.0544],[17.5191,69.1579],[17.9583,69.1805],[17.9231,69.3323],[18.0708,69.4379]]],[[[18.999,69.8286],[18.822,69.8861],[18.6532,69.8044],[18.3568,69.7929],[18.262,69.5306],[18.8229,69.5907],[18.8035,69.6815],[19.0335,69.7437],[18.999,69.8286]]],[[[19.6192,70.0168],[19.3926,69.9919],[19.2082,70.0986],[18.8758,70.0242],[18.7693,69.9553],[19.1216,69.7878],[19.4067,69.8386],[19.6192,70.0168]]],[[[20.7915,70.0924],[20.8242,70.1946],[20.5877,70.2362],[20.4157,70.1715],[20.4317,70.0681],[20.7915,70.0924]]],[[[22.9224,70.3047],[22.689,70.3941],[22.3737,70.332],[22.7317,70.2569],[22.9224,70.3047]]],[[[23.656,70.5033],[23.4845,70.6247],[23.3108,70.5187],[22.8972,70.451],[22.9496,70.3593],[23.2163,70.2828],[23.5925,70.4153],[23.656,70.5033]]],[[[24.0669,70.661],[23.8157,70.7512],[23.6401,70.7022],[23.697,70.5716],[23.8679,70.5124],[24.1016,70.5887],[24.0669,70.661]]],[[[22.4221,70.5107],[22.6438,70.5642],[22.9138,70.5438],[23.0889,70.5862],[23.1284,70.7578],[22.7737,70.6502],[22.541,70.7175],[22.2659,70.675],[22.1409,70.4829],[22.4221,70.5107]]],[[[26.136,71.0377],[25.5534,71.1408],[25.2933,71.0452],[25.5335,70.9318],[26.0726,70.9752],[26.136,71.0377]]],[[[19.8133,70.0026],[19.533,69.9194],[19.7206,69.8647],[19.8133,70.0026]]],[[[-7.9626,71.1749],[-8.3257,71.1476],[-8.5074,71.0207],[-9.1174,70.8749],[-9.0201,70.8067],[-8.6974,70.9381],[-8.006,71.0325],[-7.9626,71.1749]]],[[[19.1603,74.526],[18.7898,74.4782],[19.0737,74.3474],[19.2974,74.4811],[19.1603,74.526]]],[[[24.4248,77.8259],[23.6283,77.8703],[23.1205,77.9859],[23.0713,78.0662],[23.4705,78.1514],[22.9661,78.2563],[22.3963,78.1999],[21.6968,78.2111],[20.9922,78.1386],[20.8801,78.0854],[21.6618,77.918],[21.2608,77.7331],[21.1896,77.6017],[20.8735,77.5686],[20.9217,77.4424],[22.1917,77.5041],[22.4388,77.4389],[22.4297,77.2637],[22.7039,77.2373],[23.2345,77.2637],[23.3543,77.3769],[23.8928,77.5084],[24.4248,77.8259]]],[[[21.0243,78.2191],[22.2713,78.2675],[22.2354,78.4879],[21.9839,78.5692],[21.1782,78.6232],[20.8714,78.5566],[20.1831,78.4953],[20.6611,78.3911],[21.0243,78.2191]]],[[[12.1428,78.237],[11.8892,78.3951],[11.2673,78.5742],[11.1838,78.7336],[10.8438,78.8789],[10.5254,78.7883],[11.3053,78.4522],[12.1428,78.237]]],[[[20.0989,79.1241],[20.4059,78.9959],[20.8318,79.0552],[20.4678,79.1258],[20.0989,79.1241]]],[[[20.2088,78.6381],[21.0374,78.6442],[21.5083,78.747],[21.5221,78.8537],[20.4504,78.9464],[19.9064,79.0142],[19.7863,79.1651],[18.9451,79.157],[18.8818,79.4411],[18.7273,79.5435],[18.3469,79.6299],[17.5625,79.8979],[16.6165,79.9851],[16.2947,80.0674],[15.6516,79.8503],[15.6858,79.7006],[15.8677,79.5485],[15.9595,79.3096],[16.1507,79.234],[16.1263,79.0583],[15.4973,79.33],[15.2624,79.6188],[14.8579,79.7737],[14.5486,79.8115],[13.8831,79.5424],[13.4772,79.5865],[12.6463,79.5944],[13.0105,79.6729],[13.7383,79.7064],[13.9727,79.7752],[13.797,79.8819],[13.0601,79.8286],[12.7676,79.7733],[11.8223,79.845],[11.1976,79.7212],[10.708,79.5614],[10.9001,79.4706],[10.8412,79.371],[11.2793,79.0996],[11.7005,79.168],[11.5928,79.2728],[12.115,79.2612],[11.5671,78.9849],[11.5645,78.8872],[11.8566,78.8556],[11.6432,78.7473],[12.0205,78.6144],[12.3472,78.5957],[12.3626,78.4873],[12.8581,78.3597],[12.9113,78.247],[13.856,78.2129],[14.2819,78.3051],[14.286,78.3874],[14.6763,78.4379],[14.3836,78.5009],[14.8013,78.6442],[15.2093,78.6562],[15.4395,78.4584],[16.002,78.4827],[16.3177,78.5678],[16.4551,78.6785],[16.8289,78.6733],[16.4953,78.5454],[16.411,78.4326],[16.9365,78.3523],[15.7951,78.3429],[15.5574,78.2397],[15.2952,78.2222],[15.0347,78.1166],[13.8662,78.0969],[13.5891,78.0559],[13.7188,77.7679],[14.4578,77.758],[15.0903,77.791],[15.5545,77.8801],[15.7853,77.8354],[16.6829,77.866],[16.87,77.8113],[15.1154,77.7032],[14.9661,77.6232],[15.8459,77.5788],[15.8533,77.5316],[14.7742,77.5488],[14.44,77.5861],[13.9107,77.5345],[13.959,77.4252],[14.322,77.2806],[14.3737,77.1987],[15.0402,77.1348],[15.3457,77.0085],[16.0915,77.0273],[15.5785,76.9196],[15.9416,76.7607],[16.284,76.7079],[16.3368,76.6164],[16.8096,76.5668],[17.1921,76.6968],[16.9424,76.7803],[17.3237,76.9789],[17.4832,77.3061],[17.8133,77.4935],[18.1941,77.4902],[18.4452,77.7563],[18.3304,77.905],[18.5829,78.0551],[19.0628,78.0869],[18.9206,78.1785],[19.0664,78.3779],[18.993,78.467],[19.6812,78.5146],[19.763,78.6242],[20.2088,78.6381]]],[[[33.0986,80.2277],[31.4963,80.1157],[31.6111,80.0727],[32.8311,80.1332],[33.0986,80.2277]]],[[[27.1711,80.0734],[26.8071,80.1743],[25.9397,80.1855],[24.8924,80.2613],[24.376,80.3323],[23.7577,80.2761],[23.6006,80.1426],[23.055,80.2484],[23.3059,80.2897],[23.2674,80.4538],[22.833,80.4126],[22.5642,80.3109],[22.3737,80.111],[21.7634,80.1469],[21.8467,80.2721],[20.8826,80.2112],[20.1914,80.4214],[19.8023,80.493],[19.1052,80.258],[19.3994,80.1383],[18.0078,80.1904],[18.3755,80.039],[18.8062,79.9826],[18.1467,79.9164],[18.7839,79.7231],[19.4856,79.718],[20.172,79.7852],[21.8877,79.8236],[21.8504,79.7069],[20.4756,79.6864],[19.6333,79.6113],[19.6853,79.5539],[20.1968,79.4688],[20.7297,79.4586],[20.8169,79.3781],[21.7118,79.3718],[22.4167,79.4097],[22.9256,79.2228],[24.0531,79.1889],[24.2881,79.3099],[24.7715,79.3708],[25.1833,79.3362],[25.6457,79.3977],[25.9651,79.5262],[25.826,79.626],[26.4951,79.7233],[27.1497,79.855],[27.1711,80.0734]]]]}}
]}