{"type":"FeatureCollection","bbox":[-62.644617,-23.885431,-59.336595,-20.0892], "features": [
{"type":"Feature","geometry":{"type":"Polygon","coordinates":[[[-60.535834,-20.456691],[-60.536322,-20.465099],[-60.537047,-20.538758],[-60.537855,-20.643725],[-60.537717,-20.677446],[-60.539508,-20.749033],[-60.54178,-20.819171],[-60.541836,-20.891984],[-60.544415,-20.963788],[-60.545427,-21.02273],[-60.545685,-21.049703],[-60.546517,-21.084775],[-60.548584,-21.14489],[-60.551274,-21.209529],[-60.553831,-21.278944],[-60.55477,-21.296825],[-60.556401,-21.348593],[-60.560316,-21.420842],[-60.563007,-21.484283],[-60.566876,-21.553906],[-60.569343,-21.618064],[-60.572961,-21.687213],[-60.576327,-21.756127],[-60.580217,-21.828382],[-60.49315,-21.83566],[-60.501252,-21.9717],[-60.503483,-22.009059],[-60.414066,-22.007673],[-60.409478,-22.007795],[-60.409998,-22.049713],[-60.411432,-22.114677],[-60.411566,-22.132722],[-60.411436,-22.183797],[-60.411614,-22.199036],[-60.411613,-22.214723],[-60.414827,-22.221657],[-60.375918,-22.251162],[-60.305377,-22.304668],[-60.235643,-22.357273],[-60.199328,-22.384602],[-60.144739,-22.425553],[-60.110494,-22.451237],[-60.092925,-22.464336],[-60.090103,-22.465653],[-60.084246,-22.466898],[-60.057175,-22.466877],[-60.055265,-22.467076],[-60.017698,-22.486208],[-59.982547,-22.503856],[-59.960864,-22.514572],[-59.953142,-22.518525],[-59.953398,-22.501963],[-59.954786,-22.501938],[-59.95416,-22.497633],[-59.955555,-22.492894],[-59.953364,-22.49115],[-59.953439,-22.466968],[-59.968754,-22.466847],[-59.991474,-22.467149],[-59.991245,-22.428344],[-59.991169,-22.42766],[-59.991241,-22.35116],[-59.972812,-22.350678],[-59.969289,-22.349068],[-59.948041,-22.348784],[-59.930838,-22.348677],[-59.8801,-22.348],[-59.83867,-22.347806],[-59.838174,-22.349025],[-59.781199,-22.349328],[-59.748809,-22.34929],[-59.739024,-22.349135],[-59.739257,-22.301424],[-59.739257,-22.260018],[-59.739024,-22.232725],[-59.738752,-22.23235],[-59.738854,-22.193303],[-59.738584,-22.178351],[-59.739699,-22.171211],[-59.739354,-22.163104],[-59.739616,-22.131318],[-59.739616,-22.115121],[-59.739419,-22.108179],[-59.739627,-22.093029],[-59.739855,-22.062644],[-59.740028,-22.055499],[-59.781538,-22.055363],[-59.860806,-22.054194],[-59.908239,-22.054306],[-59.92442,-22.054628],[-59.953068,-22.054504],[-59.952322,-22.037797],[-59.951239,-22.024007],[-59.951641,-21.990658],[-59.951841,-21.98222],[-59.951038,-21.972175],[-59.94923,-21.94365],[-59.947422,-21.926573],[-59.942196,-21.892765],[-59.941012,-21.887502],[-59.938993,-21.874942],[-59.939221,-21.869653],[-59.932733,-21.834242],[-59.929586,-21.809372],[-59.926285,-21.776837],[-59.921806,-21.751169],[-59.904947,-21.646972],[-59.90263,-21.635644],[-59.887532,-21.554004],[-59.883765,-21.526403],[-59.881068,-21.508373],[-59.874267,-21.467676],[-59.872402,-21.447163],[-59.845566,-21.432452],[-59.769895,-21.383322],[-59.715013,-21.345861],[-59.766985,-21.201298],[-59.76635,-21.200573],[-59.75087,-21.182933],[-59.751441,-21.15854],[-59.753497,-21.12755],[-59.755849,-21.096831],[-59.759982,-21.07567],[-59.762325,-21.06029],[-59.76588,-21.047354],[-59.768323,-21.037456],[-59.776379,-21.031294],[-59.785691,-21.022105],[-59.789366,-21.015743],[-59.803268,-20.994692],[-59.809842,-20.987461],[-59.814891,-20.976694],[-59.816309,-20.951195],[-59.817786,-20.936654],[-59.823769,-20.929157],[-59.839607,-20.903143],[-59.838542,-20.893023],[-59.83831,-20.8807],[-59.841408,-20.874898],[-59.8541,-20.843032],[-59.858639,-20.830508],[-59.863118,-20.820841],[-59.871264,-20.81249],[-59.880375,-20.801378],[-59.886896,-20.791957],[-59.887103,-20.756887],[-59.886141,-20.729235],[-59.886381,-20.711153],[-59.885348,-20.687339],[-59.883453,-20.664084],[-59.881153,-20.650153],[-59.879076,-20.640325],[-59.879513,-20.630417],[-59.90058,-20.631565],[-59.9273,-20.632887],[-59.985696,-20.616458],[-60.013194,-20.608849],[-60.041502,-20.6009],[-60.066034,-20.594096],[-60.067032,-20.593654],[-60.111019,-20.58095],[-60.535834,-20.456691]]]},"properties":{"shapeName":"Filadelfia","shapeISO":"47425931B94838681343765","shapeGroup":"PRY","shapeType":"ADM2","src_shape_id":"47425931B94838681343765","adm1ISO":"PY-19"}},
{"type":"Feature","geometry":{"type":"Polygon","coordinates":[[[-59.953142,-22.518525],[-59.953426,-22.527917],[-59.957885,-22.58949],[-59.936747,-22.589603],[-59.923048,-22.589428],[-59.923872,-22.628435],[-59.915482,-22.628471],[-59.91616,-22.673429],[-59.897841,-22.67308],[-59.878531,-22.672287],[-59.86904,-22.672335],[-59.843758,-22.634372],[-59.818874,-22.603487],[-59.812311,-22.595591],[-59.787933,-22.566777],[-59.75177,-22.525404],[-59.75167,-22.500902],[-59.747184,-22.500433],[-59.747181,-22.466983],[-59.712167,-22.467009],[-59.711801,-22.427974],[-59.686741,-22.427734],[-59.626237,-22.427976],[-59.639763,-22.388631],[-59.639343,-22.368923],[-59.626249,-22.354277],[-59.622307,-22.349633],[-59.614445,-22.341085],[-59.614392,-22.335895],[-59.57166,-22.310457],[-59.557401,-22.301881],[-59.518199,-22.278502],[-59.472326,-22.2515],[-59.467727,-22.24855],[-59.44485,-22.235028],[-59.419103,-22.219659],[-59.390604,-22.202795],[-59.336595,-22.170403],[-59.367744,-22.076224],[-59.403671,-22.060676],[-59.412897,-22.05682],[-59.416363,-22.056525],[-59.448191,-22.056526],[-59.50716,-22.056283],[-59.537036,-22.056233],[-59.551534,-22.056332],[-59.5818,-22.056137],[-59.651698,-22.055755],[-59.699153,-22.055516],[-59.710696,-22.055605],[-59.740028,-22.055499],[-59.739855,-22.062644],[-59.739627,-22.093029],[-59.739419,-22.108179],[-59.739616,-22.115121],[-59.739616,-22.131318],[-59.739354,-22.163104],[-59.739699,-22.171211],[-59.738584,-22.178351],[-59.738854,-22.193303],[-59.738752,-22.23235],[-59.739024,-22.232725],[-59.739257,-22.260018],[-59.739257,-22.301424],[-59.739024,-22.349135],[-59.748809,-22.34929],[-59.781199,-22.349328],[-59.838174,-22.349025],[-59.83867,-22.347806],[-59.8801,-22.348],[-59.930838,-22.348677],[-59.948041,-22.348784],[-59.969289,-22.349068],[-59.972812,-22.350678],[-59.991241,-22.35116],[-59.991169,-22.42766],[-59.991245,-22.428344],[-59.991474,-22.467149],[-59.968754,-22.466847],[-59.953439,-22.466968],[-59.953364,-22.49115],[-59.955555,-22.492894],[-59.95416,-22.497633],[-59.954786,-22.501938],[-59.953398,-22.501963],[-59.953142,-22.518525]]]},"properties":{"shapeName":"Loma Plata","shapeISO":"47425931B89191859634930","shapeGroup":"PRY","shapeType":"ADM2","src_shape_id":"47425931B89191859634930","adm1ISO":"PY-19"}},
{"type":"Feature","geometry":{"type":"Polygon","coordinates":[[[-61.9224,-20.0892],[-62.081121,-20.308092],[-62.106225,-20.342629],[-62.2668,-20.563],[-62.2621,-21.0582],[-62.33246,-21.279348],[-62.345357,-21.31978],[-62.514936,-21.848389],[-62.564987,-22.003331],[-62.606316,-22.130899],[-62.638093,-22.228778],[-62.644617,-22.251467],[-62.641359,-22.251714],[-62.638082,-22.256971],[-62.634261,-22.259545],[-62.630945,-22.263514],[-62.629382,-22.266187],[-62.630599,-22.274783],[-62.63226,-22.27898],[-62.634607,-22.286965],[-62.638146,-22.295528],[-62.640238,-22.299752],[-62.63798,-22.300765],[-62.629825,-22.299505],[-62.627705,-22.295855],[-62.624262,-22.291406],[-62.621384,-22.291337],[-62.619604,-22.292288],[-62.616202,-22.295821],[-62.615547,-22.298549],[-62.612456,-22.302563],[-62.60397,-22.307807],[-62.601648,-22.310181],[-62.595442,-22.314306],[-62.591574,-22.315818],[-62.587897,-22.318477],[-62.583565,-22.320496],[-62.576639,-22.32123],[-62.564748,-22.323559],[-62.562356,-22.324405],[-62.559249,-22.327487],[-62.556433,-22.334769],[-62.555525,-22.34066],[-62.553632,-22.342409],[-62.550329,-22.34151],[-62.547484,-22.338813],[-62.545425,-22.339306],[-62.54574,-22.344572],[-62.544881,-22.345845],[-62.540868,-22.348649],[-62.539982,-22.350457],[-62.541338,-22.354228],[-62.544574,-22.353536],[-62.546783,-22.354589],[-62.547094,-22.356422],[-62.544882,-22.364494],[-62.541317,-22.372856],[-62.539072,-22.374267],[-62.532418,-22.368906],[-62.529894,-22.36824],[-62.528438,-22.369005],[-62.526651,-22.373372],[-62.523743,-22.376271],[-62.519542,-22.377972],[-62.511556,-22.380104],[-62.50744,-22.380338],[-62.501477,-22.378905],[-62.497642,-22.376643],[-62.492087,-22.374706],[-62.486408,-22.373393],[-62.480912,-22.373243],[-62.477397,-22.374209],[-62.474393,-22.375869],[-62.472781,-22.377612],[-62.46801,-22.385598],[-62.468312,-22.388116],[-62.463655,-22.398806],[-62.461773,-22.405241],[-62.461711,-22.41207],[-62.460234,-22.413497],[-62.454165,-22.415636],[-62.450014,-22.417504],[-62.446556,-22.419726],[-62.442442,-22.420388],[-62.438214,-22.419796],[-62.433935,-22.418594],[-62.431124,-22.418554],[-62.429034,-22.419528],[-62.430084,-22.424302],[-62.430041,-22.426872],[-62.428842,-22.429344],[-62.425887,-22.42956],[-62.423324,-22.427828],[-62.421639,-22.424905],[-62.419724,-22.423604],[-62.417756,-22.424544],[-62.414565,-22.435473],[-62.412535,-22.439427],[-62.407495,-22.447781],[-62.405505,-22.449707],[-62.404191,-22.449452],[-62.402368,-22.445414],[-62.399209,-22.442379],[-62.396013,-22.440796],[-62.394034,-22.440943],[-62.394661,-22.443273],[-62.397922,-22.447237],[-62.399307,-22.449977],[-62.400012,-22.453532],[-62.396601,-22.454093],[-62.390081,-22.456068],[-62.383437,-22.458731],[-62.381535,-22.460167],[-62.380693,-22.462796],[-62.379647,-22.469511],[-62.379225,-22.476011],[-62.377986,-22.479887],[-62.375192,-22.480533],[-62.373377,-22.478759],[-62.37144,-22.470513],[-62.370344,-22.462367],[-62.368213,-22.459453],[-62.357475,-22.461774],[-62.355435,-22.46179],[-62.354148,-22.459999],[-62.35278,-22.4532],[-62.35034,-22.451447],[-62.347776,-22.453975],[-62.346247,-22.457203],[-62.345684,-22.460314],[-62.34507,-22.468121],[-62.341313,-22.478616],[-62.33871,-22.481007],[-62.336256,-22.481229],[-62.334062,-22.479685],[-62.330495,-22.474355],[-62.328697,-22.475034],[-62.324193,-22.48045],[-62.315889,-22.485995],[-62.310406,-22.488043],[-62.307502,-22.48803],[-62.305181,-22.487013],[-62.302439,-22.484557],[-62.298804,-22.479058],[-62.295152,-22.475975],[-62.2897,-22.47624],[-62.286889,-22.477569],[-62.285546,-22.481425],[-62.286413,-22.486224],[-62.290962,-22.493402],[-62.291099,-22.495345],[-62.287669,-22.497907],[-62.283283,-22.499728],[-62.282197,-22.501483],[-62.284844,-22.509384],[-62.286366,-22.5104],[-62.293639,-22.510322],[-62.295029,-22.510988],[-62.296226,-22.514025],[-62.29636,-22.519118],[-62.294359,-22.52039],[-62.290677,-22.520253],[-62.285179,-22.521068],[-62.279164,-22.52448],[-62.276094,-22.524938],[-62.273807,-22.522851],[-62.271395,-22.517717],[-62.269164,-22.514697],[-62.265901,-22.514095],[-62.262797,-22.516749],[-62.256354,-22.524174],[-62.251427,-22.532754],[-62.247315,-22.537951],[-62.24466,-22.539902],[-62.242212,-22.540083],[-62.236422,-22.537883],[-62.232056,-22.540259],[-62.229437,-22.546217],[-62.227095,-22.547943],[-62.224858,-22.547827],[-62.223574,-22.549243],[-62.22349,-22.551775],[-62.22498,-22.555394],[-62.228971,-22.559423],[-62.233128,-22.565408],[-62.234703,-22.568454],[-62.23706,-22.571172],[-62.239978,-22.573466],[-62.246979,-22.574687],[-62.249292,-22.576091],[-62.248242,-22.578869],[-62.248837,-22.584042],[-62.248131,-22.585768],[-62.244586,-22.584104],[-62.242405,-22.58382],[-62.240678,-22.589089],[-62.240489,-22.591844],[-62.243694,-22.592343],[-62.253331,-22.592431],[-62.258011,-22.594617],[-62.260733,-22.597984],[-62.26188,-22.602259],[-62.260489,-22.604087],[-62.257562,-22.604459],[-62.251593,-22.602438],[-62.249596,-22.604845],[-62.253306,-22.609786],[-62.254266,-22.612689],[-62.25292,-22.61377],[-62.247967,-22.612951],[-62.244053,-22.614151],[-62.237916,-22.612469],[-62.234443,-22.612879],[-62.236823,-22.620498],[-62.238637,-22.635509],[-62.238439,-22.642118],[-62.23603,-22.646792],[-62.232548,-22.646849],[-62.231238,-22.641417],[-62.228222,-22.638471],[-62.223329,-22.64061],[-62.22164,-22.642457],[-62.222772,-22.645675],[-62.229405,-22.649137],[-62.22859,-22.651914],[-62.224315,-22.650818],[-62.220631,-22.646457],[-62.216903,-22.648727],[-62.213847,-22.649763],[-62.205368,-22.649265],[-62.202829,-22.650594],[-62.203132,-22.652288],[-62.208517,-22.653532],[-62.216046,-22.654774],[-62.217961,-22.657187],[-62.214032,-22.661833],[-62.210965,-22.663558],[-62.20757,-22.664492],[-62.206287,-22.663742],[-62.205633,-22.659879],[-62.20386,-22.65881],[-62.202003,-22.660109],[-62.199138,-22.66423],[-62.198072,-22.668504],[-62.200141,-22.673793],[-62.202131,-22.676512],[-62.203074,-22.680008],[-62.202263,-22.682717],[-62.196785,-22.688613],[-62.19662,-22.691302],[-62.197798,-22.695643],[-62.202149,-22.699525],[-62.207469,-22.702169],[-62.205612,-22.705346],[-62.200251,-22.706812],[-62.197535,-22.709938],[-62.194286,-22.715464],[-62.19134,-22.718741],[-62.187148,-22.717856],[-62.184335,-22.713813],[-62.182622,-22.709808],[-62.178505,-22.708846],[-62.17394,-22.710724],[-62.172765,-22.713005],[-62.173237,-22.715236],[-62.176736,-22.718679],[-62.177024,-22.720118],[-62.172426,-22.723299],[-62.165417,-22.731553],[-62.156507,-22.739208],[-62.150906,-22.743224],[-62.148782,-22.745242],[-62.148669,-22.748723],[-62.156907,-22.746228],[-62.165976,-22.74501],[-62.166466,-22.747748],[-62.162449,-22.751171],[-62.158775,-22.758237],[-62.155198,-22.761461],[-62.150719,-22.761451],[-62.146595,-22.760343],[-62.134057,-22.758838],[-62.131061,-22.760739],[-62.136323,-22.767462],[-62.138827,-22.769414],[-62.141153,-22.772967],[-62.140887,-22.774354],[-62.135849,-22.779021],[-62.135419,-22.791276],[-62.131165,-22.795464],[-62.124982,-22.79818],[-62.122698,-22.798106],[-62.114576,-22.795238],[-62.1127,-22.795437],[-62.111355,-22.797361],[-62.110937,-22.80092],[-62.109423,-22.807093],[-62.108247,-22.816112],[-62.106702,-22.821303],[-62.104856,-22.822445],[-62.102338,-22.822377],[-62.099225,-22.82102],[-62.093871,-22.816252],[-62.087439,-22.812244],[-62.084992,-22.812027],[-62.082763,-22.813544],[-62.082086,-22.816681],[-62.081319,-22.828521],[-62.080008,-22.835601],[-62.07754,-22.843721],[-62.073181,-22.85175],[-62.07134,-22.853112],[-62.069809,-22.85207],[-62.065005,-22.843008],[-62.060302,-22.838942],[-62.058979,-22.839417],[-62.058535,-22.842402],[-62.06169,-22.851736],[-62.061591,-22.857056],[-62.058156,-22.862086],[-62.049974,-22.864578],[-62.045861,-22.866149],[-62.041562,-22.869249],[-62.036724,-22.877225],[-62.035604,-22.88125],[-62.034412,-22.890082],[-62.036129,-22.905479],[-62.036167,-22.908814],[-62.037521,-22.913779],[-62.036315,-22.915338],[-62.034171,-22.914821],[-62.029371,-22.910392],[-62.025916,-22.906143],[-62.024627,-22.90531],[-62.021764,-22.906772],[-62.024578,-22.913],[-62.027695,-22.917338],[-62.030638,-22.922691],[-62.030935,-22.924423],[-62.029676,-22.926709],[-62.024901,-22.929825],[-62.021908,-22.92984],[-62.011994,-22.927883],[-62.00128,-22.927834],[-61.999656,-22.928679],[-62.000363,-22.930908],[-62.005157,-22.939689],[-62.005514,-22.941691],[-62.002454,-22.946568],[-62.002159,-22.951726],[-62.007659,-22.953596],[-62.008376,-22.956184],[-62.008772,-22.963065],[-62.007731,-22.969407],[-62.005847,-22.974254],[-62.00331,-22.976143],[-62.000094,-22.976676],[-61.998164,-22.977895],[-61.99762,-22.980377],[-61.998328,-22.983535],[-62.005006,-22.987476],[-62.007844,-22.992038],[-62.007904,-22.993779],[-62.005889,-22.994781],[-61.998615,-22.996445],[-61.993336,-22.998998],[-61.988671,-23.007697],[-61.987806,-23.013106],[-61.986647,-23.016117],[-61.984961,-23.017545],[-61.981993,-23.018431],[-61.979401,-23.021047],[-61.976688,-23.022432],[-61.968839,-23.023532],[-61.9635,-23.026518],[-61.952726,-23.034455],[-61.939856,-23.045735],[-61.937659,-23.048487],[-61.934066,-23.051857],[-61.929489,-23.058815],[-61.927417,-23.062869],[-61.926715,-23.067755],[-61.924219,-23.068625],[-61.916858,-23.068038],[-61.914053,-23.069136],[-61.908955,-23.070081],[-61.904386,-23.070431],[-61.895699,-23.072919],[-61.891929,-23.073536],[-61.885846,-23.075743],[-61.873584,-23.084729],[-61.870451,-23.085472],[-61.862663,-23.086272],[-61.856271,-23.088777],[-61.852891,-23.091634],[-61.847113,-23.098338],[-61.838389,-23.109344],[-61.834225,-23.112441],[-61.829099,-23.115279],[-61.824386,-23.119493],[-61.820654,-23.123667],[-61.8166,-23.12538],[-61.815649,-23.12766],[-61.814945,-23.132697],[-61.813199,-23.134854],[-61.812674,-23.140465],[-61.812988,-23.142782],[-61.815143,-23.145774],[-61.8152,-23.147517],[-61.812997,-23.150196],[-61.810473,-23.15034],[-61.807565,-23.148948],[-61.803842,-23.143742],[-61.801449,-23.143155],[-61.797773,-23.146969],[-61.791905,-23.146332],[-61.787349,-23.149584],[-61.785762,-23.149486],[-61.783452,-23.151941],[-61.782722,-23.157004],[-61.780101,-23.164378],[-61.77691,-23.164542],[-61.772652,-23.159542],[-61.768681,-23.158374],[-61.766331,-23.158889],[-61.76605,-23.160403],[-61.767965,-23.163888],[-61.769374,-23.169418],[-61.767443,-23.17045],[-61.760033,-23.171634],[-61.755045,-23.174332],[-61.753211,-23.173329],[-61.749048,-23.178712],[-61.744412,-23.187198],[-61.742409,-23.194461],[-61.740216,-23.200016],[-61.739493,-23.202973],[-61.739551,-23.209746],[-61.741525,-23.215036],[-61.739473,-23.21991],[-61.739781,-23.226828],[-61.739393,-23.23],[-61.737526,-23.23555],[-61.734829,-23.240436],[-61.729007,-23.242781],[-61.725164,-23.243035],[-61.722518,-23.242279],[-61.720082,-23.240465],[-61.715793,-23.239605],[-61.713526,-23.240496],[-61.708717,-23.243867],[-61.70673,-23.248289],[-61.704874,-23.249245],[-61.700154,-23.250123],[-61.70119,-23.255078],[-61.696086,-23.256949],[-61.691423,-23.259789],[-61.689774,-23.262017],[-61.688858,-23.266789],[-61.686882,-23.269178],[-61.681567,-23.271957],[-61.683212,-23.275218],[-61.682587,-23.276872],[-61.677881,-23.278326],[-61.67436,-23.28232],[-61.671055,-23.285139],[-61.666994,-23.285561],[-61.657847,-23.283626],[-61.646264,-23.280117],[-61.638503,-23.279],[-61.630652,-23.277498],[-61.628704,-23.277717],[-61.623093,-23.279999],[-61.619341,-23.28328],[-61.609682,-23.286921],[-61.605036,-23.286628],[-61.602785,-23.288692],[-61.601681,-23.29252],[-61.600486,-23.293512],[-61.595516,-23.293081],[-61.593112,-23.291979],[-61.591319,-23.292736],[-61.593041,-23.299618],[-61.591953,-23.302529],[-61.590148,-23.304455],[-61.586291,-23.306185],[-61.58351,-23.305923],[-61.584545,-23.302683],[-61.58464,-23.299925],[-61.580862,-23.299776],[-61.576761,-23.303767],[-61.572988,-23.306664],[-61.564364,-23.310829],[-61.563572,-23.313147],[-61.56678,-23.315274],[-61.572281,-23.315296],[-61.572529,-23.317168],[-61.56422,-23.323996],[-61.563555,-23.325891],[-61.562913,-23.333008],[-61.555968,-23.342091],[-61.551198,-23.345462],[-61.547883,-23.347137],[-61.544321,-23.348192],[-61.542526,-23.346108],[-61.538227,-23.344006],[-61.534679,-23.34552],[-61.531776,-23.344425],[-61.528795,-23.345131],[-61.527972,-23.34787],[-61.526588,-23.348866],[-61.520801,-23.348934],[-61.518397,-23.347669],[-61.513223,-23.346758],[-61.509982,-23.34789],[-61.51017,-23.349557],[-61.513303,-23.358127],[-61.51888,-23.361027],[-61.522298,-23.364032],[-61.524859,-23.36731],[-61.525091,-23.370273],[-61.521869,-23.377577],[-61.519885,-23.381225],[-61.513435,-23.386204],[-61.507944,-23.391324],[-61.506031,-23.396745],[-61.501131,-23.400386],[-61.499286,-23.404114],[-61.499568,-23.409503],[-61.495764,-23.417674],[-61.493466,-23.421497],[-61.489143,-23.423243],[-61.487365,-23.421912],[-61.485024,-23.418499],[-61.481262,-23.419069],[-61.478159,-23.420528],[-61.476322,-23.424555],[-61.474744,-23.426602],[-61.472613,-23.426991],[-61.467896,-23.424897],[-61.464968,-23.421837],[-61.461248,-23.419504],[-61.456919,-23.418865],[-61.456041,-23.419976],[-61.456747,-23.42515],[-61.453263,-23.42461],[-61.447959,-23.421358],[-61.445582,-23.421124],[-61.440924,-23.426852],[-61.437565,-23.432353],[-61.435569,-23.434204],[-61.426717,-23.438658],[-61.424188,-23.441025],[-61.420871,-23.445975],[-61.417703,-23.446829],[-61.416157,-23.445487],[-61.411895,-23.448027],[-61.409257,-23.448427],[-61.403812,-23.44569],[-61.397262,-23.450392],[-61.391442,-23.457443],[-61.389329,-23.457331],[-61.387949,-23.455541],[-61.387987,-23.448792],[-61.385042,-23.447096],[-61.381991,-23.447892],[-61.379906,-23.452758],[-61.377124,-23.456534],[-61.373791,-23.453795],[-61.371851,-23.453457],[-61.36487,-23.454544],[-61.361614,-23.45247],[-61.35678,-23.448002],[-61.353139,-23.447209],[-61.350963,-23.450968],[-61.349714,-23.461783],[-61.349024,-23.464896],[-61.345384,-23.46831],[-61.341415,-23.466294],[-61.337818,-23.469039],[-61.332838,-23.467836],[-61.324129,-23.468993],[-61.317314,-23.470933],[-61.315073,-23.472648],[-61.309933,-23.480408],[-61.309486,-23.48374],[-61.3057,-23.48747],[-61.296516,-23.492295],[-61.294369,-23.494702],[-61.29212,-23.493582],[-61.290391,-23.49031],[-61.288849,-23.485429],[-61.286523,-23.4857],[-61.283072,-23.48739],[-61.280473,-23.490127],[-61.279167,-23.49326],[-61.278452,-23.497419],[-61.276433,-23.50134],[-61.273646,-23.505044],[-61.274979,-23.508431],[-61.279344,-23.513448],[-61.278299,-23.51703],[-61.274083,-23.520104],[-61.270369,-23.5243],[-61.269081,-23.526912],[-61.267521,-23.527537],[-61.266421,-23.524906],[-61.266696,-23.521106],[-61.262675,-23.517765],[-61.261707,-23.518219],[-61.261548,-23.521545],[-61.263805,-23.527356],[-61.260996,-23.528867],[-61.258904,-23.527516],[-61.258414,-23.522444],[-61.256695,-23.522135],[-61.25481,-23.524526],[-61.25424,-23.531462],[-61.252882,-23.533253],[-61.248455,-23.534886],[-61.246594,-23.536847],[-61.245476,-23.542682],[-61.242025,-23.545815],[-61.239807,-23.545791],[-61.237222,-23.54343],[-61.234478,-23.542338],[-61.231695,-23.546394],[-61.225139,-23.552653],[-61.223458,-23.553554],[-61.219829,-23.553446],[-61.220026,-23.549921],[-61.218962,-23.548578],[-61.215964,-23.549706],[-61.21357,-23.55391],[-61.208164,-23.552946],[-61.203104,-23.549938],[-61.199203,-23.546396],[-61.197447,-23.546164],[-61.194041,-23.5509],[-61.191652,-23.550958],[-61.190194,-23.547668],[-61.19171,-23.544032],[-61.189559,-23.540445],[-61.185502,-23.538936],[-61.183326,-23.538987],[-61.183398,-23.541491],[-61.186173,-23.544438],[-61.186361,-23.547994],[-61.185126,-23.549628],[-61.180968,-23.550379],[-61.176346,-23.552915],[-61.173642,-23.55384],[-61.170468,-23.55337],[-61.168459,-23.556521],[-61.161187,-23.558962],[-61.160275,-23.561449],[-61.164526,-23.5653],[-61.162371,-23.56758],[-61.15466,-23.569724],[-61.150841,-23.571885],[-61.150539,-23.573302],[-61.152662,-23.576276],[-61.152119,-23.579247],[-61.148738,-23.582107],[-61.143156,-23.582474],[-61.14007,-23.58059],[-61.138972,-23.578032],[-61.136462,-23.576803],[-61.132172,-23.58066],[-61.13287,-23.584205],[-61.133988,-23.586058],[-61.13432,-23.590238],[-61.133137,-23.590696],[-61.129643,-23.58812],[-61.124957,-23.585568],[-61.121613,-23.58574],[-61.121003,-23.58685],[-61.123094,-23.594358],[-61.122537,-23.59582],[-61.112494,-23.597229],[-61.108429,-23.599196],[-61.106229,-23.601441],[-61.100312,-23.605299],[-61.098897,-23.611243],[-61.097671,-23.611782],[-61.091776,-23.611313],[-61.087701,-23.613874],[-61.087845,-23.617513],[-61.092032,-23.620432],[-61.098829,-23.620664],[-61.097801,-23.624268],[-61.098195,-23.626138],[-61.101636,-23.626879],[-61.100888,-23.629208],[-61.096464,-23.629938],[-61.094681,-23.631938],[-61.093846,-23.635857],[-61.090844,-23.638589],[-61.091101,-23.646299],[-61.096804,-23.652983],[-61.099811,-23.655027],[-61.100602,-23.657282],[-61.097324,-23.66064],[-61.094748,-23.666419],[-61.088713,-23.666326],[-61.085083,-23.669545],[-61.081195,-23.671439],[-61.081611,-23.672566],[-61.086167,-23.674811],[-61.087806,-23.678338],[-61.086996,-23.679962],[-61.081897,-23.684273],[-61.082812,-23.687727],[-61.08252,-23.689578],[-61.072728,-23.697524],[-61.069072,-23.7],[-61.068626,-23.70252],[-61.066518,-23.706406],[-61.064619,-23.70739],[-61.060816,-23.704579],[-61.05922,-23.704146],[-61.05734,-23.707323],[-61.056491,-23.712244],[-61.05496,-23.715729],[-61.049335,-23.71825],[-61.045945,-23.722985],[-61.04198,-23.726763],[-61.039806,-23.730185],[-61.039393,-23.735582],[-61.040386,-23.74058],[-61.037547,-23.743273],[-61.032678,-23.745426],[-61.028178,-23.751648],[-61.026128,-23.75346],[-61.017179,-23.758175],[-61.013902,-23.760643],[-61.013676,-23.763397],[-61.019894,-23.769719],[-61.019927,-23.772502],[-61.018708,-23.773356],[-61.016348,-23.778339],[-61.012624,-23.77862],[-61.010504,-23.779532],[-61.005849,-23.784659],[-60.999945,-23.792744],[-60.999007,-23.796019],[-60.995633,-23.801317],[-60.993094,-23.807381],[-60.988617,-23.810388],[-60.979175,-23.811857],[-60.971301,-23.812663],[-60.969617,-23.816941],[-60.965063,-23.817242],[-60.961542,-23.819344],[-60.959407,-23.819746],[-60.952947,-23.819027],[-60.948841,-23.819591],[-60.944056,-23.818834],[-60.941693,-23.817003],[-60.941747,-23.814175],[-60.943117,-23.811189],[-60.93966,-23.811645],[-60.937593,-23.808703],[-60.934639,-23.808861],[-60.932827,-23.809883],[-60.930901,-23.814222],[-60.929652,-23.815231],[-60.923589,-23.815693],[-60.918662,-23.818559],[-60.913064,-23.819243],[-60.911226,-23.821247],[-60.910006,-23.827754],[-60.909184,-23.8295],[-60.906232,-23.83176],[-60.901774,-23.833121],[-60.899643,-23.835597],[-60.896561,-23.84071],[-60.894455,-23.842205],[-60.89068,-23.842287],[-60.885678,-23.841032],[-60.883634,-23.841079],[-60.879339,-23.844532],[-60.87746,-23.845043],[-60.873618,-23.848347],[-60.870849,-23.851818],[-60.866198,-23.851592],[-60.862724,-23.85545],[-60.860664,-23.856804],[-60.856027,-23.858034],[-60.857262,-23.860342],[-60.85792,-23.864018],[-60.854601,-23.867967],[-60.850732,-23.868472],[-60.848386,-23.870578],[-60.843537,-23.870731],[-60.839731,-23.869786],[-60.833221,-23.873658],[-60.823121,-23.874201],[-60.819209,-23.873664],[-60.811228,-23.873276],[-60.805738,-23.870359],[-60.799866,-23.864548],[-60.794961,-23.862596],[-60.793074,-23.864603],[-60.797499,-23.86787],[-60.800384,-23.872761],[-60.801027,-23.879896],[-60.804496,-23.883655],[-60.80449,-23.885431],[-60.800752,-23.885086],[-60.795145,-23.879648],[-60.791669,-23.873741],[-60.790573,-23.868811],[-60.787549,-23.868548],[-60.785689,-23.871626],[-60.780525,-23.875152],[-60.775114,-23.879427],[-60.774062,-23.876225],[-60.777061,-23.873591],[-60.774497,-23.871213],[-60.770274,-23.871914],[-60.768036,-23.876307],[-60.765992,-23.876396],[-60.764156,-23.874473],[-60.759891,-23.873604],[-60.759739,-23.869792],[-60.761168,-23.862673],[-60.76545,-23.855847],[-60.769973,-23.852996],[-60.773404,-23.849913],[-60.772054,-23.845624],[-60.771796,-23.840513],[-60.773346,-23.837612],[-60.773541,-23.8351],[-60.778004,-23.832937],[-60.781131,-23.830757],[-60.781641,-23.828858],[-60.779544,-23.820489],[-60.779469,-23.815728],[-60.779982,-23.805242],[-60.780909,-23.794414],[-60.783338,-23.790928],[-60.785391,-23.789129],[-60.768308,-23.777527],[-60.740664,-23.761415],[-60.715424,-23.745713],[-60.692926,-23.733395],[-60.688344,-23.728012],[-60.68294,-23.720613],[-60.675586,-23.707457],[-60.671569,-23.697829],[-60.672956,-23.677406],[-60.674927,-23.632165],[-60.675205,-23.59219],[-60.601665,-23.611015],[-60.595187,-23.602713],[-60.59231,-23.596646],[-60.58553,-23.590633],[-60.578945,-23.58208],[-60.580971,-23.574891],[-60.574146,-23.573317],[-60.571328,-23.572293],[-60.56889,-23.572341],[-60.565409,-23.573936],[-60.492345,-23.565713],[-60.46544,-23.563237],[-60.442015,-23.559862],[-60.382987,-23.553505],[-60.371358,-23.55208],[-60.331976,-23.547589],[-60.301912,-23.544317],[-60.291531,-23.543342],[-60.268421,-23.540726],[-60.25621,-23.539074],[-60.229201,-23.535816],[-60.22109,-23.535065],[-60.202723,-23.532855],[-60.186348,-23.524553],[-60.136866,-23.512571],[-60.10309,-23.497619],[-60.092735,-23.492822],[-60.076769,-23.458487],[-60.059304,-23.38407],[-60.056926,-23.376234],[-60.050372,-23.361084],[-60.042698,-23.342129],[-60.02788,-23.304451],[-60.023755,-23.293548],[-60.018232,-23.277898],[-59.999983,-23.23049],[-59.990617,-23.204407],[-59.978988,-23.172979],[-59.979302,-23.171673],[-59.989576,-23.162161],[-59.992144,-23.159076],[-59.992281,-23.157465],[-59.98892,-23.144268],[-59.987938,-23.142776],[-59.986689,-23.137983],[-59.984343,-23.135364],[-59.977757,-23.120867],[-59.972551,-23.108452],[-59.966026,-23.090908],[-59.958426,-23.067302],[-59.959598,-23.058429],[-59.963333,-23.026789],[-59.969417,-22.970089],[-59.970519,-22.96934],[-59.969469,-22.966653],[-59.972726,-22.900508],[-59.976196,-22.830056],[-59.975091,-22.818633],[-59.969564,-22.811507],[-59.966371,-22.802297],[-59.961213,-22.801193],[-59.944878,-22.796893],[-59.945001,-22.794436],[-59.948822,-22.782389],[-59.937939,-22.77921],[-59.938062,-22.776509],[-59.935852,-22.775403],[-59.939777,-22.769478],[-59.928165,-22.756081],[-59.911308,-22.732905],[-59.878634,-22.686695],[-59.86904,-22.672335],[-59.878531,-22.672287],[-59.897841,-22.67308],[-59.91616,-22.673429],[-59.915482,-22.628471],[-59.923872,-22.628435],[-59.923048,-22.589428],[-59.936747,-22.589603],[-59.957885,-22.58949],[-59.953426,-22.527917],[-59.953142,-22.518525],[-59.960864,-22.514572],[-59.982547,-22.503856],[-60.017698,-22.486208],[-60.055265,-22.467076],[-60.057175,-22.466877],[-60.084246,-22.466898],[-60.090103,-22.465653],[-60.092925,-22.464336],[-60.110494,-22.451237],[-60.144739,-22.425553],[-60.199328,-22.384602],[-60.235643,-22.357273],[-60.305377,-22.304668],[-60.375918,-22.251162],[-60.414827,-22.221657],[-60.411613,-22.214723],[-60.411614,-22.199036],[-60.411436,-22.183797],[-60.411566,-22.132722],[-60.411432,-22.114677],[-60.409998,-22.049713],[-60.409478,-22.007795],[-60.414066,-22.007673],[-60.503483,-22.009059],[-60.501252,-21.9717],[-60.49315,-21.83566],[-60.580217,-21.828382],[-60.576327,-21.756127],[-60.572961,-21.687213],[-60.569343,-21.618064],[-60.566876,-21.553906],[-60.563007,-21.484283],[-60.560316,-21.420842],[-60.556401,-21.348593],[-60.55477,-21.296825],[-60.553831,-21.278944],[-60.551274,-21.209529],[-60.548584,-21.14489],[-60.546517,-21.084775],[-60.545685,-21.049703],[-60.545427,-21.02273],[-60.544415,-20.963788],[-60.541836,-20.891984],[-60.54178,-20.819171],[-60.539508,-20.749033],[-60.537717,-20.677446],[-60.537855,-20.643725],[-60.537047,-20.538758],[-60.536322,-20.465099],[-60.535834,-20.456691],[-60.662522,-20.421954],[-60.742623,-20.399938],[-60.90463,-20.355282],[-61.490832,-20.192296],[-61.51439,-20.182631],[-61.54988,-20.174715],[-61.574742,-20.174146],[-61.600657,-20.172543],[-61.620052,-20.170064],[-61.645544,-20.153219],[-61.660203,-20.135611],[-61.683444,-20.115767],[-61.698262,-20.104244],[-61.71859,-20.096645],[-61.737006,-20.098228],[-61.755672,-20.108942],[-61.762181,-20.109798],[-61.768661,-20.109639],[-61.855919,-20.098055],[-61.9224,-20.0892]]]},"properties":{"shapeName":"Mariscal Estigarribia","shapeISO":"47425931B26005780695530","shapeGroup":"PRY","shapeType":"ADM2","src_shape_id":"47425931B26005780695530","adm1ISO":"PY-19"}}
]}