{"type":"FeatureCollection","bbox":[-56.747588,-26.19729,-55.633585,-25.564827], "features": [
{"type":"Feature","geometry":{"type":"Polygon","coordinates":[[[-56.536435,-25.895141],[-56.539763,-25.894741],[-56.540724,-25.893435],[-56.543163,-25.893433],[-56.544017,-25.896104],[-56.546282,-25.896563],[-56.546749,-25.899598],[-56.548624,-25.90099],[-56.549131,-25.903917],[-56.552705,-25.905288],[-56.55838,-25.902135],[-56.560408,-25.902191],[-56.561373,-25.90521],[-56.560352,-25.906367],[-56.561648,-25.910629],[-56.566034,-25.912398],[-56.56639,-25.915099],[-56.569105,-25.917749],[-56.571138,-25.917728],[-56.572526,-25.919452],[-56.572217,-25.923257],[-56.570952,-25.924549],[-56.565834,-25.92513],[-56.571261,-25.928789],[-56.570156,-25.930606],[-56.570605,-25.933126],[-56.572724,-25.934871],[-56.570631,-25.937294],[-56.570295,-25.940105],[-56.572664,-25.940343],[-56.574387,-25.942032],[-56.572669,-25.944442],[-56.575746,-25.945729],[-56.576044,-25.947698],[-56.579242,-25.949234],[-56.578641,-25.950614],[-56.585352,-25.951978],[-56.587155,-25.950704],[-56.588099,-25.94843],[-56.589997,-25.947308],[-56.59172,-25.948418],[-56.592143,-25.950978],[-56.59558,-25.95604],[-56.597815,-25.954702],[-56.597038,-25.95045],[-56.599816,-25.944581],[-56.599968,-25.942153],[-56.604453,-25.942209],[-56.607719,-25.940555],[-56.607639,-25.978275],[-56.609437,-25.979505],[-56.617438,-25.977991],[-56.621077,-25.975653],[-56.624131,-25.975173],[-56.624972,-25.972959],[-56.627885,-25.973359],[-56.628502,-25.971306],[-56.63265,-25.970324],[-56.633397,-25.971847],[-56.636818,-25.96958],[-56.641556,-25.968454],[-56.6435,-25.970771],[-56.651063,-25.969155],[-56.65592,-25.969225],[-56.66047,-25.970864],[-56.666061,-25.970483],[-56.672901,-25.964384],[-56.676833,-25.96265],[-56.685551,-25.962857],[-56.68983,-25.967054],[-56.697863,-25.964883],[-56.699839,-25.963387],[-56.706154,-25.956274],[-56.707353,-25.95383],[-56.710723,-25.955087],[-56.714609,-25.957596],[-56.717456,-25.96057],[-56.719535,-25.959559],[-56.727667,-25.958558],[-56.729659,-25.957624],[-56.73355,-25.957944],[-56.737573,-25.957444],[-56.739659,-25.952807],[-56.742413,-25.951326],[-56.747588,-25.951921],[-56.742915,-25.95573],[-56.741577,-25.95817],[-56.741203,-25.963578],[-56.73702,-25.972646],[-56.73226,-25.974728],[-56.729142,-25.97893],[-56.726172,-25.979917],[-56.72531,-25.983514],[-56.725238,-25.988769],[-56.722753,-25.990873],[-56.722522,-25.994182],[-56.720967,-25.998364],[-56.714783,-26.001138],[-56.713058,-26.003992],[-56.71424,-26.004875],[-56.712381,-26.011355],[-56.713113,-26.016002],[-56.710844,-26.018499],[-56.708527,-26.019361],[-56.707524,-26.022352],[-56.707697,-26.024944],[-56.705464,-26.0275],[-56.701729,-26.029555],[-56.702082,-26.030883],[-56.705194,-26.030917],[-56.706779,-26.033656],[-56.70323,-26.036931],[-56.701878,-26.041199],[-56.701791,-26.04464],[-56.704315,-26.044911],[-56.707894,-26.048815],[-56.707894,-26.052941],[-56.708926,-26.055359],[-56.707991,-26.057772],[-56.708638,-26.059656],[-56.711072,-26.062461],[-56.710329,-26.066378],[-56.712853,-26.066925],[-56.715398,-26.072163],[-56.714577,-26.077705],[-56.715793,-26.077757],[-56.717797,-26.081156],[-56.719105,-26.082044],[-56.720563,-26.087993],[-56.721934,-26.091607],[-56.71946,-26.095774],[-56.720891,-26.097976],[-56.717294,-26.098885],[-56.717355,-26.103928],[-56.716249,-26.105813],[-56.711814,-26.106107],[-56.710517,-26.104949],[-56.707243,-26.106495],[-56.70579,-26.108989],[-56.706095,-26.112719],[-56.708028,-26.119445],[-56.707415,-26.121598],[-56.707679,-26.125007],[-56.711758,-26.130117],[-56.711795,-26.131963],[-56.710228,-26.135459],[-56.708455,-26.1369],[-56.706446,-26.140106],[-56.705381,-26.144822],[-56.703753,-26.147234],[-56.699241,-26.148457],[-56.69628,-26.153129],[-56.691918,-26.153787],[-56.69103,-26.156609],[-56.686526,-26.157637],[-56.68201,-26.160069],[-56.673423,-26.166968],[-56.658976,-26.172631],[-56.64813,-26.17993],[-56.643033,-26.182667],[-56.641836,-26.182155],[-56.638066,-26.182832],[-56.637248,-26.184853],[-56.632747,-26.187327],[-56.632322,-26.19202],[-56.629165,-26.194631],[-56.629782,-26.192026],[-56.628574,-26.190718],[-56.62639,-26.19729],[-56.623853,-26.196381],[-56.623072,-26.194555],[-56.623618,-26.190032],[-56.627533,-26.188774],[-56.6285,-26.18567],[-56.625339,-26.183824],[-56.624878,-26.181656],[-56.622635,-26.178485],[-56.620852,-26.178097],[-56.61749,-26.179122],[-56.615798,-26.176472],[-56.571444,-26.098256],[-56.569274,-26.065489],[-56.570012,-26.03846],[-56.554303,-26.037731],[-56.543319,-26.034095],[-56.53782,-26.034202],[-56.522696,-26.035022],[-56.515249,-26.037221],[-56.512103,-26.041114],[-56.509651,-26.045335],[-56.503338,-26.049303],[-56.500075,-26.049057],[-56.497844,-26.050797],[-56.496474,-26.048222],[-56.499679,-26.045349],[-56.5016,-26.045269],[-56.503323,-26.04196],[-56.501681,-26.039887],[-56.501923,-26.038402],[-56.505011,-26.036038],[-56.503184,-26.031474],[-56.500574,-26.030838],[-56.499846,-26.027919],[-56.496995,-26.027796],[-56.494481,-26.024609],[-56.493322,-26.022036],[-56.49493,-26.020506],[-56.492761,-26.017997],[-56.489276,-26.017014],[-56.486314,-26.017519],[-56.482446,-26.014968],[-56.4799,-26.014164],[-56.477983,-26.008595],[-56.477129,-25.993643],[-56.474058,-25.98365],[-56.472415,-25.979991],[-56.464526,-25.969578],[-56.486807,-25.94632],[-56.48823,-25.938607],[-56.482626,-25.925743],[-56.488732,-25.914647],[-56.501923,-25.914364],[-56.504979,-25.915589],[-56.506477,-25.917197],[-56.509003,-25.913801],[-56.510331,-25.9147],[-56.51512,-25.914824],[-56.520348,-25.914255],[-56.521827,-25.910652],[-56.523539,-25.909592],[-56.523478,-25.907091],[-56.5291,-25.904599],[-56.532963,-25.904702],[-56.536648,-25.903558],[-56.53603,-25.900318],[-56.536435,-25.895141]]]},"properties":{"shapeName":"Borja","shapeISO":"47425931B53640944121584","shapeGroup":"PRY","shapeType":"ADM2","src_shape_id":"47425931B53640944121584","adm1ISO":"PY-4"}},
{"type":"Feature","geometry":{"type":"Polygon","coordinates":[[[-56.118748,-25.658276],[-56.121262,-25.655885],[-56.123081,-25.655309],[-56.124921,-25.652263],[-56.127406,-25.651962],[-56.129104,-25.647959],[-56.136386,-25.646882],[-56.139956,-25.642424],[-56.140153,-25.640674],[-56.142035,-25.638003],[-56.145603,-25.637098],[-56.150298,-25.64002],[-56.154002,-25.638953],[-56.157772,-25.639196],[-56.158874,-25.640015],[-56.163985,-25.638492],[-56.165792,-25.63871],[-56.168789,-25.637408],[-56.170089,-25.633885],[-56.172599,-25.635398],[-56.178953,-25.632337],[-56.185549,-25.636342],[-56.189404,-25.639646],[-56.190478,-25.64177],[-56.19453,-25.641697],[-56.196846,-25.638202],[-56.199307,-25.639782],[-56.200396,-25.638294],[-56.208361,-25.644256],[-56.208999,-25.646666],[-56.212361,-25.648589],[-56.214431,-25.646244],[-56.217089,-25.646353],[-56.216597,-25.644328],[-56.218751,-25.644],[-56.219482,-25.640614],[-56.220961,-25.637917],[-56.221536,-25.634051],[-56.224481,-25.633358],[-56.225132,-25.628485],[-56.226739,-25.629388],[-56.228589,-25.627488],[-56.235328,-25.626169],[-56.237711,-25.624136],[-56.240746,-25.654252],[-56.244591,-25.65392],[-56.24657,-25.673897],[-56.24931,-25.704249],[-56.252979,-25.704748],[-56.257583,-25.708045],[-56.25944,-25.710253],[-56.29165,-25.707671],[-56.293405,-25.711061],[-56.293703,-25.716237],[-56.293292,-25.720082],[-56.296893,-25.725165],[-56.296827,-25.727891],[-56.293595,-25.730034],[-56.291196,-25.730456],[-56.288228,-25.732085],[-56.28742,-25.733584],[-56.287738,-25.738182],[-56.283899,-25.743581],[-56.28233,-25.749005],[-56.280551,-25.751253],[-56.28062,-25.75696],[-56.28114,-25.75918],[-56.283233,-25.763181],[-56.285569,-25.765748],[-56.313834,-25.779691],[-56.279545,-25.80959],[-56.275094,-25.837387],[-56.276798,-25.844823],[-56.272609,-25.844079],[-56.268263,-25.844947],[-56.258674,-25.842158],[-56.25301,-25.838576],[-56.24876,-25.838919],[-56.248204,-25.836149],[-56.243504,-25.836978],[-56.240522,-25.836872],[-56.237,-25.83777],[-56.236069,-25.837097],[-56.229476,-25.837789],[-56.227839,-25.840065],[-56.22521,-25.841672],[-56.222684,-25.840751],[-56.219785,-25.842297],[-56.215673,-25.83925],[-56.211151,-25.838503],[-56.207613,-25.839581],[-56.204515,-25.838259],[-56.192228,-25.858661],[-56.125128,-25.864965],[-56.118844,-25.865554],[-56.088729,-25.866377],[-56.038027,-25.864574],[-56.034183,-25.862157],[-56.035564,-25.860098],[-56.034307,-25.856036],[-56.034593,-25.852322],[-56.037384,-25.848783],[-56.034723,-25.843452],[-56.035535,-25.838066],[-56.033257,-25.831939],[-56.033787,-25.826037],[-56.032489,-25.821423],[-56.033983,-25.816752],[-56.033762,-25.812425],[-56.032663,-25.809023],[-56.032941,-25.805788],[-56.029186,-25.79546],[-56.031021,-25.793942],[-56.035151,-25.793468],[-56.036458,-25.790538],[-56.034003,-25.786409],[-56.033632,-25.782388],[-56.037521,-25.77915],[-56.038788,-25.775709],[-56.038413,-25.768537],[-56.04078,-25.766196],[-56.043914,-25.76996],[-56.050064,-25.771481],[-56.04993,-25.773516],[-56.051507,-25.775531],[-56.056244,-25.771647],[-56.060452,-25.770316],[-56.06021,-25.766522],[-56.060972,-25.764341],[-56.06595,-25.763322],[-56.065989,-25.760766],[-56.064043,-25.75647],[-56.063662,-25.752932],[-56.065276,-25.750306],[-56.066512,-25.746648],[-56.068157,-25.745476],[-56.070263,-25.747078],[-56.073867,-25.746356],[-56.077959,-25.743511],[-56.078639,-25.740052],[-56.07789,-25.738594],[-56.080399,-25.73419],[-56.08223,-25.732549],[-56.080546,-25.727708],[-56.082287,-25.722657],[-56.086074,-25.721706],[-56.087883,-25.722047],[-56.091964,-25.720655],[-56.093064,-25.718382],[-56.096553,-25.713929],[-56.097131,-25.71131],[-56.095258,-25.707199],[-56.095007,-25.704795],[-56.097543,-25.701425],[-56.099881,-25.699837],[-56.099261,-25.697409],[-56.100298,-25.696209],[-56.099794,-25.693109],[-56.101544,-25.689698],[-56.10209,-25.68669],[-56.100914,-25.683829],[-56.104015,-25.681198],[-56.10805,-25.676902],[-56.111064,-25.675792],[-56.112542,-25.67437],[-56.112601,-25.670659],[-56.110806,-25.669718],[-56.110829,-25.665993],[-56.112049,-25.664208],[-56.115219,-25.662214],[-56.118748,-25.658276]]]},"properties":{"shapeName":"Colonia Independencia","shapeISO":"47425931B57187609966543","shapeGroup":"PRY","shapeType":"ADM2","src_shape_id":"47425931B57187609966543","adm1ISO":"PY-4"}},
{"type":"Feature","geometry":{"type":"Polygon","coordinates":[[[-56.584448,-25.662496],[-56.585979,-25.662516],[-56.587155,-25.665093],[-56.590923,-25.667013],[-56.595823,-25.668305],[-56.598337,-25.667883],[-56.597379,-25.672183],[-56.60299,-25.674646],[-56.60489,-25.676317],[-56.607164,-25.674232],[-56.608291,-25.674818],[-56.609438,-25.678555],[-56.611344,-25.678375],[-56.61476,-25.680158],[-56.617976,-25.678352],[-56.620567,-25.679623],[-56.622546,-25.677768],[-56.625624,-25.676376],[-56.632037,-25.679291],[-56.632458,-25.680872],[-56.636841,-25.683827],[-56.638055,-25.682909],[-56.640386,-25.686039],[-56.644351,-25.686121],[-56.645804,-25.684228],[-56.648903,-25.686064],[-56.648829,-25.688963],[-56.650434,-25.689919],[-56.650281,-25.693879],[-56.652371,-25.695369],[-56.653536,-25.693444],[-56.656374,-25.694345],[-56.656881,-25.69659],[-56.661082,-25.697038],[-56.658865,-25.6992],[-56.659723,-25.702173],[-56.662314,-25.706708],[-56.660776,-25.709418],[-56.661239,-25.712459],[-56.65676,-25.717481],[-56.657946,-25.71962],[-56.656507,-25.721718],[-56.656519,-25.727137],[-56.653316,-25.728687],[-56.653413,-25.730303],[-56.655626,-25.732385],[-56.655464,-25.737108],[-56.65653,-25.739422],[-56.655609,-25.741371],[-56.656546,-25.743567],[-56.65592,-25.745785],[-56.651199,-25.747533],[-56.654513,-25.749626],[-56.655783,-25.751806],[-56.654766,-25.75481],[-56.651695,-25.755087],[-56.648289,-25.759241],[-56.646142,-25.759638],[-56.645901,-25.762845],[-56.644644,-25.765848],[-56.646398,-25.766992],[-56.644771,-25.769726],[-56.64279,-25.770525],[-56.640723,-25.768812],[-56.639171,-25.771128],[-56.636726,-25.772244],[-56.634231,-25.774607],[-56.631694,-25.775606],[-56.627653,-25.781215],[-56.622671,-25.779971],[-56.621337,-25.780721],[-56.622583,-25.784593],[-56.619462,-25.788555],[-56.620848,-25.789195],[-56.621542,-25.794833],[-56.622898,-25.796034],[-56.619716,-25.798915],[-56.618632,-25.805067],[-56.613969,-25.805638],[-56.610089,-25.804201],[-56.603729,-25.806026],[-56.60211,-25.808008],[-56.596958,-25.808838],[-56.594634,-25.808037],[-56.593223,-25.808868],[-56.589725,-25.807689],[-56.585894,-25.807954],[-56.583116,-25.806158],[-56.577453,-25.799518],[-56.556929,-25.801721],[-56.532965,-25.779564],[-56.528845,-25.775195],[-56.52517,-25.774625],[-56.526285,-25.770441],[-56.529353,-25.767219],[-56.536828,-25.762015],[-56.539491,-25.760804],[-56.543089,-25.760513],[-56.549265,-25.756383],[-56.553137,-25.751753],[-56.555526,-25.751535],[-56.557464,-25.749789],[-56.559047,-25.749938],[-56.571677,-25.735996],[-56.574486,-25.719143],[-56.584448,-25.662496]]]},"properties":{"shapeName":"Coronel Martinez","shapeISO":"47425931B17847096690556","shapeGroup":"PRY","shapeType":"ADM2","src_shape_id":"47425931B17847096690556","adm1ISO":"PY-4"}},
{"type":"Feature","geometry":{"type":"Polygon","coordinates":[[[-56.443962,-25.621711],[-56.439548,-25.62389],[-56.43804,-25.626377],[-56.432653,-25.628025],[-56.43001,-25.626713],[-56.424152,-25.629605],[-56.422928,-25.628521],[-56.42148,-25.630016],[-56.419195,-25.629952],[-56.418597,-25.628171],[-56.415797,-25.630012],[-56.4139,-25.629973],[-56.412257,-25.626111],[-56.40883,-25.628077],[-56.405543,-25.626194],[-56.401653,-25.627516],[-56.399723,-25.629231],[-56.39866,-25.626601],[-56.395795,-25.626094],[-56.393649,-25.624614],[-56.388818,-25.623177],[-56.386646,-25.623732],[-56.385044,-25.622612],[-56.381494,-25.622968],[-56.37965,-25.624514],[-56.372465,-25.623741],[-56.369835,-25.624912],[-56.368616,-25.623091],[-56.362366,-25.623408],[-56.36252,-25.62587],[-56.360743,-25.62622],[-56.358668,-25.628466],[-56.355315,-25.628671],[-56.354971,-25.630595],[-56.352453,-25.633457],[-56.350901,-25.631635],[-56.348496,-25.633651],[-56.346535,-25.631203],[-56.345064,-25.631128],[-56.342019,-25.633232],[-56.33895,-25.632473],[-56.33601,-25.630908],[-56.331906,-25.629638],[-56.32877,-25.626379],[-56.325448,-25.624935],[-56.323344,-25.625853],[-56.31997,-25.625064],[-56.318917,-25.626213],[-56.3209,-25.628162],[-56.319169,-25.630892],[-56.316647,-25.631886],[-56.314319,-25.630143],[-56.309672,-25.630823],[-56.304684,-25.630207],[-56.302517,-25.632514],[-56.304269,-25.617169],[-56.305036,-25.595663],[-56.305924,-25.582733],[-56.306189,-25.56874],[-56.307976,-25.568676],[-56.310468,-25.566344],[-56.314774,-25.566292],[-56.317261,-25.564827],[-56.323465,-25.56841],[-56.326378,-25.571832],[-56.330092,-25.57272],[-56.330323,-25.57432],[-56.333285,-25.57385],[-56.334477,-25.570447],[-56.339825,-25.572259],[-56.342536,-25.571305],[-56.345148,-25.571389],[-56.347397,-25.569606],[-56.352913,-25.570069],[-56.356234,-25.569623],[-56.361429,-25.572766],[-56.36578,-25.576676],[-56.368971,-25.578189],[-56.372237,-25.576217],[-56.373284,-25.576966],[-56.376383,-25.573665],[-56.376454,-25.570126],[-56.378968,-25.570845],[-56.379834,-25.569458],[-56.382838,-25.568175],[-56.385262,-25.569138],[-56.387291,-25.567977],[-56.38658,-25.566466],[-56.389795,-25.565875],[-56.391817,-25.568615],[-56.394291,-25.569379],[-56.393571,-25.571114],[-56.394127,-25.574431],[-56.396838,-25.575548],[-56.401262,-25.572595],[-56.407511,-25.57407],[-56.407627,-25.576387],[-56.41695,-25.58112],[-56.418639,-25.584752],[-56.418713,-25.588581],[-56.422056,-25.593119],[-56.422716,-25.597419],[-56.424922,-25.599008],[-56.424488,-25.601951],[-56.428824,-25.602938],[-56.429391,-25.603911],[-56.427118,-25.607781],[-56.428634,-25.610776],[-56.428391,-25.614229],[-56.430005,-25.616172],[-56.436386,-25.614838],[-56.436875,-25.617716],[-56.43859,-25.619158],[-56.442916,-25.619789],[-56.443962,-25.621711]]]},"properties":{"shapeName":"Dr. Bottrell","shapeISO":"47425931B26565501496547","shapeGroup":"PRY","shapeType":"ADM2","src_shape_id":"47425931B26565501496547","adm1ISO":"PY-4"}},
{"type":"Feature","geometry":{"type":"Polygon","coordinates":[[[-56.52517,-25.774625],[-56.519977,-25.775162],[-56.514549,-25.777763],[-56.508755,-25.776668],[-56.505185,-25.777289],[-56.502113,-25.77591],[-56.49962,-25.773382],[-56.498904,-25.769418],[-56.49497,-25.767023],[-56.49144,-25.764107],[-56.487965,-25.760311],[-56.483766,-25.759285],[-56.477711,-25.754049],[-56.476116,-25.750251],[-56.474795,-25.745026],[-56.474522,-25.740307],[-56.475054,-25.733338],[-56.475819,-25.731594],[-56.476346,-25.725803],[-56.478512,-25.722013],[-56.479839,-25.720759],[-56.479825,-25.718095],[-56.481498,-25.712538],[-56.485009,-25.707968],[-56.489046,-25.705034],[-56.492673,-25.695755],[-56.49732,-25.689576],[-56.49885,-25.690773],[-56.503631,-25.686351],[-56.507544,-25.679524],[-56.516603,-25.674891],[-56.517855,-25.672425],[-56.517391,-25.67087],[-56.521204,-25.666061],[-56.525666,-25.663872],[-56.526774,-25.660729],[-56.529063,-25.658826],[-56.533441,-25.657811],[-56.535689,-25.655867],[-56.538095,-25.651319],[-56.540774,-25.64782],[-56.546348,-25.644649],[-56.547319,-25.640697],[-56.550514,-25.63915],[-56.553222,-25.639058],[-56.556,-25.640408],[-56.560353,-25.644661],[-56.558452,-25.645978],[-56.56013,-25.647839],[-56.563543,-25.646576],[-56.565624,-25.649034],[-56.566648,-25.651642],[-56.568626,-25.651526],[-56.568798,-25.654271],[-56.571382,-25.654256],[-56.573243,-25.65596],[-56.574881,-25.655892],[-56.578451,-25.65755],[-56.581282,-25.661374],[-56.584448,-25.662496],[-56.574486,-25.719143],[-56.571677,-25.735996],[-56.559047,-25.749938],[-56.557464,-25.749789],[-56.555526,-25.751535],[-56.553137,-25.751753],[-56.549265,-25.756383],[-56.543089,-25.760513],[-56.539491,-25.760804],[-56.536828,-25.762015],[-56.529353,-25.767219],[-56.526285,-25.770441],[-56.52517,-25.774625]]]},"properties":{"shapeName":"Felix Perez Cardozo","shapeISO":"47425931B40709785779372","shapeGroup":"PRY","shapeType":"ADM2","src_shape_id":"47425931B40709785779372","adm1ISO":"PY-4"}},
{"type":"Feature","geometry":{"type":"Polygon","coordinates":[[[-56.180444,-26.063412],[-56.177273,-26.062762],[-56.174996,-26.060889],[-56.17143,-26.060205],[-56.169507,-26.058677],[-56.166426,-26.054696],[-56.164352,-26.053961],[-56.161596,-26.054514],[-56.159571,-26.052642],[-56.15852,-26.049792],[-56.155398,-26.048654],[-56.153396,-26.043744],[-56.14825,-26.037926],[-56.142883,-26.036454],[-56.140187,-26.034578],[-56.136796,-26.030134],[-56.133022,-26.029281],[-56.129065,-26.030394],[-56.125871,-26.030619],[-56.12482,-26.031804],[-56.121166,-26.030559],[-56.120771,-26.027396],[-56.12511,-26.020834],[-56.128906,-26.007595],[-56.133537,-26.000504],[-56.139631,-25.994504],[-56.151859,-25.985179],[-56.156342,-25.974448],[-56.154766,-25.969721],[-56.152215,-25.968962],[-56.151009,-25.970779],[-56.148586,-25.970706],[-56.146442,-25.97295],[-56.142665,-25.972937],[-56.140585,-25.974753],[-56.137707,-25.97554],[-56.135221,-25.973155],[-56.133049,-25.972564],[-56.132356,-25.970158],[-56.133371,-25.968191],[-56.130837,-25.964997],[-56.131578,-25.962492],[-56.130843,-25.960546],[-56.128216,-25.959609],[-56.125856,-25.957175],[-56.1226,-25.95497],[-56.122938,-25.952056],[-56.118003,-25.948943],[-56.114745,-25.945889],[-56.115222,-25.943914],[-56.112743,-25.941087],[-56.113258,-25.938282],[-56.11255,-25.936336],[-56.115986,-25.93145],[-56.119577,-25.930681],[-56.115365,-25.92694],[-56.115991,-25.922267],[-56.117294,-25.920288],[-56.123646,-25.915365],[-56.129646,-25.908566],[-56.132903,-25.903155],[-56.139649,-25.899168],[-56.132255,-25.887801],[-56.135807,-25.881191],[-56.134952,-25.876494],[-56.135321,-25.874424],[-56.132173,-25.873669],[-56.128245,-25.871113],[-56.128822,-25.86853],[-56.126124,-25.868644],[-56.125128,-25.864965],[-56.192228,-25.858661],[-56.204515,-25.838259],[-56.207613,-25.839581],[-56.211151,-25.838503],[-56.215673,-25.83925],[-56.219785,-25.842297],[-56.222684,-25.840751],[-56.22521,-25.841672],[-56.227839,-25.840065],[-56.229476,-25.837789],[-56.236069,-25.837097],[-56.237,-25.83777],[-56.240522,-25.836872],[-56.243504,-25.836978],[-56.248204,-25.836149],[-56.24876,-25.838919],[-56.25301,-25.838576],[-56.258674,-25.842158],[-56.268263,-25.844947],[-56.272609,-25.844079],[-56.276798,-25.844823],[-56.277253,-25.879489],[-56.276579,-25.880606],[-56.276702,-25.885794],[-56.273136,-25.885677],[-56.269588,-25.886575],[-56.263291,-25.88941],[-56.262849,-25.890659],[-56.258422,-25.892726],[-56.254198,-25.892741],[-56.251138,-25.894007],[-56.249205,-25.898742],[-56.251636,-25.907441],[-56.250898,-25.911252],[-56.252248,-25.914366],[-56.253387,-25.91466],[-56.254042,-25.918542],[-56.253337,-25.921947],[-56.255255,-25.925013],[-56.258555,-25.923766],[-56.262698,-25.925385],[-56.2618,-25.931498],[-56.262948,-25.937188],[-56.265203,-25.940473],[-56.267038,-25.939954],[-56.270754,-25.94051],[-56.274312,-25.94237],[-56.281246,-25.972478],[-56.280961,-25.976187],[-56.277796,-25.977968],[-56.27254,-25.977978],[-56.229917,-26.017541],[-56.180444,-26.063412]]]},"properties":{"shapeName":"General Eugenio A. Garay","shapeISO":"47425931B7723909423785","shapeGroup":"PRY","shapeType":"ADM2","src_shape_id":"47425931B7723909423785","adm1ISO":"PY-4"}},
{"type":"Feature","geometry":{"type":"Polygon","coordinates":[[[-56.536435,-25.895141],[-56.534557,-25.89486],[-56.533342,-25.89105],[-56.5316,-25.889333],[-56.530239,-25.886462],[-56.525718,-25.886022],[-56.522608,-25.883272],[-56.523413,-25.880213],[-56.519843,-25.878021],[-56.516638,-25.873093],[-56.514276,-25.872155],[-56.511126,-25.872506],[-56.50706,-25.868939],[-56.506732,-25.863986],[-56.509091,-25.860426],[-56.50697,-25.857912],[-56.508686,-25.85541],[-56.510302,-25.851173],[-56.513834,-25.84752],[-56.51363,-25.845205],[-56.509594,-25.842009],[-56.507482,-25.837277],[-56.503781,-25.830321],[-56.501867,-25.82935],[-56.498684,-25.826254],[-56.497628,-25.823839],[-56.497968,-25.819115],[-56.495395,-25.817183],[-56.49942,-25.800697],[-56.50084,-25.796304],[-56.496668,-25.7924],[-56.495939,-25.786953],[-56.494779,-25.781892],[-56.49603,-25.778153],[-56.49962,-25.773382],[-56.502113,-25.77591],[-56.505185,-25.777289],[-56.508755,-25.776668],[-56.514549,-25.777763],[-56.519977,-25.775162],[-56.52517,-25.774625],[-56.528845,-25.775195],[-56.532965,-25.779564],[-56.556929,-25.801721],[-56.577453,-25.799518],[-56.583116,-25.806158],[-56.585894,-25.807954],[-56.589725,-25.807689],[-56.593223,-25.808868],[-56.594634,-25.808037],[-56.596958,-25.808838],[-56.60211,-25.808008],[-56.603729,-25.806026],[-56.610089,-25.804201],[-56.613969,-25.805638],[-56.618632,-25.805067],[-56.617972,-25.80614],[-56.619318,-25.809519],[-56.62348,-25.809651],[-56.623561,-25.812244],[-56.625232,-25.814537],[-56.627622,-25.816082],[-56.628196,-25.818474],[-56.630502,-25.818196],[-56.633577,-25.822559],[-56.630821,-25.823463],[-56.631571,-25.826908],[-56.629016,-25.828056],[-56.629806,-25.833163],[-56.627718,-25.835203],[-56.630865,-25.838269],[-56.628444,-25.839397],[-56.627765,-25.841907],[-56.629028,-25.846002],[-56.626785,-25.847475],[-56.626906,-25.851647],[-56.626339,-25.853833],[-56.624298,-25.855206],[-56.624982,-25.858347],[-56.62276,-25.860164],[-56.619856,-25.86526],[-56.620896,-25.869152],[-56.623951,-25.872745],[-56.625354,-25.875382],[-56.624847,-25.879857],[-56.621856,-25.884102],[-56.62218,-25.887749],[-56.624534,-25.886722],[-56.62387,-25.884391],[-56.62589,-25.882877],[-56.627668,-25.886487],[-56.626214,-25.889412],[-56.629107,-25.890153],[-56.626973,-25.894055],[-56.627543,-25.895669],[-56.626471,-25.897722],[-56.623487,-25.899028],[-56.626772,-25.900973],[-56.625617,-25.902446],[-56.623173,-25.902729],[-56.619969,-25.901851],[-56.621552,-25.905336],[-56.618467,-25.905541],[-56.614871,-25.907658],[-56.613912,-25.909424],[-56.614549,-25.911883],[-56.61164,-25.911903],[-56.610609,-25.913068],[-56.609886,-25.916533],[-56.610666,-25.91968],[-56.613182,-25.920238],[-56.610557,-25.923496],[-56.610466,-25.929098],[-56.611229,-25.932283],[-56.612826,-25.933019],[-56.608411,-25.937036],[-56.607719,-25.940555],[-56.604453,-25.942209],[-56.599968,-25.942153],[-56.599816,-25.944581],[-56.597038,-25.95045],[-56.597815,-25.954702],[-56.59558,-25.95604],[-56.592143,-25.950978],[-56.59172,-25.948418],[-56.589997,-25.947308],[-56.588099,-25.94843],[-56.587155,-25.950704],[-56.585352,-25.951978],[-56.578641,-25.950614],[-56.579242,-25.949234],[-56.576044,-25.947698],[-56.575746,-25.945729],[-56.572669,-25.944442],[-56.574387,-25.942032],[-56.572664,-25.940343],[-56.570295,-25.940105],[-56.570631,-25.937294],[-56.572724,-25.934871],[-56.570605,-25.933126],[-56.570156,-25.930606],[-56.571261,-25.928789],[-56.565834,-25.92513],[-56.570952,-25.924549],[-56.572217,-25.923257],[-56.572526,-25.919452],[-56.571138,-25.917728],[-56.569105,-25.917749],[-56.56639,-25.915099],[-56.566034,-25.912398],[-56.561648,-25.910629],[-56.560352,-25.906367],[-56.561373,-25.90521],[-56.560408,-25.902191],[-56.55838,-25.902135],[-56.552705,-25.905288],[-56.549131,-25.903917],[-56.548624,-25.90099],[-56.546749,-25.899598],[-56.546282,-25.896563],[-56.544017,-25.896104],[-56.543163,-25.893433],[-56.540724,-25.893435],[-56.539763,-25.894741],[-56.536435,-25.895141]]]},"properties":{"shapeName":"Itape","shapeISO":"47425931B37538667805731","shapeGroup":"PRY","shapeType":"ADM2","src_shape_id":"47425931B37538667805731","adm1ISO":"PY-4"}},
{"type":"Feature","geometry":{"type":"Polygon","coordinates":[[[-56.615798,-26.176472],[-56.613201,-26.177982],[-56.611808,-26.175062],[-56.606129,-26.176333],[-56.604495,-26.175692],[-56.603696,-26.173139],[-56.596991,-26.176077],[-56.594358,-26.175533],[-56.593439,-26.176812],[-56.596066,-26.179488],[-56.591954,-26.182104],[-56.589296,-26.18267],[-56.586182,-26.185884],[-56.583911,-26.184857],[-56.579717,-26.186687],[-56.578534,-26.184806],[-56.576113,-26.184261],[-56.571959,-26.186705],[-56.572694,-26.189258],[-56.570137,-26.190745],[-56.569827,-26.18831],[-56.568156,-26.186269],[-56.566325,-26.187185],[-56.562583,-26.187309],[-56.561302,-26.188953],[-56.55238,-26.18749],[-56.551945,-26.184572],[-56.554886,-26.182414],[-56.554854,-26.17975],[-56.552351,-26.17832],[-56.553976,-26.175815],[-56.550425,-26.176323],[-56.548859,-26.174819],[-56.549292,-26.172599],[-56.551621,-26.169324],[-56.549828,-26.165946],[-56.547382,-26.166322],[-56.545898,-26.165338],[-56.545546,-26.163111],[-56.542769,-26.161242],[-56.543188,-26.157505],[-56.540306,-26.155578],[-56.541336,-26.152935],[-56.539093,-26.150549],[-56.538739,-26.14871],[-56.54014,-26.143667],[-56.542502,-26.142546],[-56.543082,-26.140841],[-56.542007,-26.138766],[-56.544341,-26.134037],[-56.546402,-26.128445],[-56.542922,-26.127378],[-56.54272,-26.124614],[-56.541235,-26.124361],[-56.539125,-26.126156],[-56.537963,-26.124332],[-56.538991,-26.12164],[-56.534342,-26.119639],[-56.532745,-26.121778],[-56.524712,-26.120971],[-56.49657,-26.119029],[-56.494453,-26.119229],[-56.489669,-26.116978],[-56.488115,-26.118665],[-56.483962,-26.118077],[-56.48085,-26.116594],[-56.47428,-26.118164],[-56.470306,-26.118226],[-56.468801,-26.119408],[-56.466841,-26.118471],[-56.460433,-26.118966],[-56.458087,-26.119756],[-56.454487,-26.119621],[-56.447109,-26.117362],[-56.439735,-26.117867],[-56.437506,-26.119072],[-56.435936,-26.123121],[-56.432696,-26.127514],[-56.426043,-26.131876],[-56.42314,-26.132907],[-56.421205,-26.135505],[-56.417803,-26.137134],[-56.410134,-26.139789],[-56.402691,-26.138073],[-56.402443,-26.137133],[-56.407845,-26.064929],[-56.410906,-26.023869],[-56.40614,-26.020634],[-56.40047,-26.020245],[-56.400132,-26.01902],[-56.395981,-26.018899],[-56.392453,-26.016739],[-56.387239,-26.018889],[-56.382163,-26.015544],[-56.378861,-26.016036],[-56.376128,-26.015108],[-56.37144,-26.017638],[-56.369777,-26.022502],[-56.368341,-26.02362],[-56.364226,-26.02316],[-56.35968,-26.024083],[-56.356982,-26.0259],[-56.352383,-26.026281],[-56.348545,-26.019866],[-56.346098,-26.013797],[-56.341233,-26.009765],[-56.340106,-26.004704],[-56.335464,-26.002497],[-56.329444,-26.00344],[-56.325944,-26.003185],[-56.323347,-26.002197],[-56.320766,-25.998212],[-56.317984,-25.998199],[-56.315681,-25.997114],[-56.314457,-25.994336],[-56.310137,-25.991837],[-56.307885,-25.988061],[-56.301645,-25.983688],[-56.29843,-25.982972],[-56.296138,-25.983693],[-56.291961,-25.983207],[-56.286939,-25.981905],[-56.283413,-25.977481],[-56.280961,-25.976187],[-56.281246,-25.972478],[-56.274312,-25.94237],[-56.275858,-25.940964],[-56.278161,-25.941242],[-56.281455,-25.940324],[-56.281454,-25.938911],[-56.289809,-25.940654],[-56.290788,-25.942664],[-56.293089,-25.94239],[-56.293846,-25.943889],[-56.299365,-25.942633],[-56.303518,-25.947628],[-56.312204,-25.949033],[-56.316469,-25.951559],[-56.316339,-25.95894],[-56.317848,-25.960988],[-56.317747,-25.962663],[-56.321628,-25.962839],[-56.323526,-25.963818],[-56.32638,-25.963606],[-56.329313,-25.965173],[-56.340003,-25.9684],[-56.343406,-25.967264],[-56.34778,-25.969257],[-56.349519,-25.971671],[-56.349686,-25.975744],[-56.350718,-25.976494],[-56.351977,-25.981795],[-56.355308,-25.986185],[-56.356663,-25.986498],[-56.358742,-25.989117],[-56.365221,-25.993001],[-56.370525,-25.994234],[-56.372091,-25.993866],[-56.374556,-25.995751],[-56.380873,-25.997399],[-56.382973,-25.997421],[-56.38684,-25.999433],[-56.390686,-26.002917],[-56.39326,-26.007623],[-56.395154,-26.007536],[-56.399034,-26.00981],[-56.399399,-26.01173],[-56.402269,-26.01227],[-56.409783,-26.016193],[-56.412062,-26.020441],[-56.414507,-26.022596],[-56.418253,-26.0228],[-56.423279,-26.025114],[-56.423726,-26.027297],[-56.427668,-26.029944],[-56.429034,-26.03153],[-56.435094,-26.035992],[-56.436753,-26.036346],[-56.439939,-26.039072],[-56.448844,-26.037255],[-56.448046,-26.034412],[-56.45029,-26.032804],[-56.450047,-26.029223],[-56.451857,-26.026936],[-56.456337,-26.024294],[-56.458896,-26.023735],[-56.459619,-26.022194],[-56.466801,-26.019498],[-56.470187,-26.01914],[-56.475886,-26.020705],[-56.480544,-26.020853],[-56.482837,-26.019213],[-56.485378,-26.019055],[-56.486314,-26.017519],[-56.489276,-26.017014],[-56.492761,-26.017997],[-56.49493,-26.020506],[-56.493322,-26.022036],[-56.494481,-26.024609],[-56.496995,-26.027796],[-56.499846,-26.027919],[-56.500574,-26.030838],[-56.503184,-26.031474],[-56.505011,-26.036038],[-56.501923,-26.038402],[-56.501681,-26.039887],[-56.503323,-26.04196],[-56.5016,-26.045269],[-56.499679,-26.045349],[-56.496474,-26.048222],[-56.497844,-26.050797],[-56.500075,-26.049057],[-56.503338,-26.049303],[-56.509651,-26.045335],[-56.512103,-26.041114],[-56.515249,-26.037221],[-56.522696,-26.035022],[-56.53782,-26.034202],[-56.543319,-26.034095],[-56.554303,-26.037731],[-56.570012,-26.03846],[-56.569274,-26.065489],[-56.571444,-26.098256],[-56.615798,-26.176472]]]},"properties":{"shapeName":"Iturbe","shapeISO":"47425931B96553432870417","shapeGroup":"PRY","shapeType":"ADM2","src_shape_id":"47425931B96553432870417","adm1ISO":"PY-4"}},
{"type":"Feature","geometry":{"type":"Polygon","coordinates":[[[-56.009762,-25.877585],[-56.012177,-25.87734],[-56.015147,-25.875541],[-56.016883,-25.873602],[-56.030236,-25.870703],[-56.032964,-25.866415],[-56.034183,-25.862157],[-56.038027,-25.864574],[-56.088729,-25.866377],[-56.118844,-25.865554],[-56.125128,-25.864965],[-56.126124,-25.868644],[-56.128822,-25.86853],[-56.128245,-25.871113],[-56.132173,-25.873669],[-56.135321,-25.874424],[-56.134952,-25.876494],[-56.135807,-25.881191],[-56.132255,-25.887801],[-56.139649,-25.899168],[-56.132903,-25.903155],[-56.129646,-25.908566],[-56.123646,-25.915365],[-56.117294,-25.920288],[-56.115991,-25.922267],[-56.115365,-25.92694],[-56.119577,-25.930681],[-56.115986,-25.93145],[-56.11255,-25.936336],[-56.113258,-25.938282],[-56.112743,-25.941087],[-56.115222,-25.943914],[-56.114745,-25.945889],[-56.118003,-25.948943],[-56.122938,-25.952056],[-56.1226,-25.95497],[-56.125856,-25.957175],[-56.128216,-25.959609],[-56.130843,-25.960546],[-56.131578,-25.962492],[-56.130837,-25.964997],[-56.133371,-25.968191],[-56.132356,-25.970158],[-56.133049,-25.972564],[-56.135221,-25.973155],[-56.137707,-25.97554],[-56.140585,-25.974753],[-56.142665,-25.972937],[-56.146442,-25.97295],[-56.148586,-25.970706],[-56.151009,-25.970779],[-56.152215,-25.968962],[-56.154766,-25.969721],[-56.156342,-25.974448],[-56.151859,-25.985179],[-56.139631,-25.994504],[-56.133537,-26.000504],[-56.128906,-26.007595],[-56.12511,-26.020834],[-56.120771,-26.027396],[-56.119972,-26.025306],[-56.116576,-26.024829],[-56.112801,-26.0177],[-56.107652,-26.015271],[-56.101528,-26.018741],[-56.099206,-26.018884],[-56.09878,-26.016001],[-56.096855,-26.014405],[-56.095815,-26.009933],[-56.092661,-26.004446],[-56.092217,-26.000791],[-56.090587,-25.998325],[-56.075175,-25.95904],[-56.048453,-25.89086],[-56.044152,-25.892019],[-56.038252,-25.895041],[-56.031108,-25.894768],[-56.02716,-25.892457],[-56.023531,-25.890631],[-56.020859,-25.888022],[-56.019295,-25.887524],[-56.017391,-25.884256],[-56.015182,-25.883925],[-56.011771,-25.882168],[-56.009762,-25.877585]]]},"properties":{"shapeName":"Jose Fassardi","shapeISO":"47425931B95709781555100","shapeGroup":"PRY","shapeType":"ADM2","src_shape_id":"47425931B95709781555100","adm1ISO":"PY-4"}},
{"type":"Feature","geometry":{"type":"Polygon","coordinates":[[[-56.292163,-25.569038],[-56.299175,-25.569383],[-56.301792,-25.568479],[-56.306189,-25.56874],[-56.305924,-25.582733],[-56.305036,-25.595663],[-56.304269,-25.617169],[-56.302517,-25.632514],[-56.300826,-25.635385],[-56.299582,-25.635392],[-56.298256,-25.639541],[-56.295125,-25.638399],[-56.29311,-25.636829],[-56.291071,-25.636806],[-56.28786,-25.63451],[-56.284429,-25.635083],[-56.280866,-25.633558],[-56.276554,-25.636539],[-56.274046,-25.635058],[-56.270917,-25.636026],[-56.270559,-25.63782],[-56.267823,-25.63833],[-56.265233,-25.640926],[-56.25792,-25.640129],[-56.257207,-25.636297],[-56.25775,-25.63244],[-56.254681,-25.630991],[-56.252025,-25.631998],[-56.251026,-25.628214],[-56.249433,-25.626454],[-56.247517,-25.62606],[-56.247759,-25.622264],[-56.245673,-25.621184],[-56.242503,-25.622797],[-56.239732,-25.622512],[-56.237711,-25.624136],[-56.235328,-25.626169],[-56.228589,-25.627488],[-56.226739,-25.629388],[-56.225132,-25.628485],[-56.224481,-25.633358],[-56.221536,-25.634051],[-56.220961,-25.637917],[-56.219482,-25.640614],[-56.218751,-25.644],[-56.216597,-25.644328],[-56.217089,-25.646353],[-56.214431,-25.646244],[-56.212361,-25.648589],[-56.208999,-25.646666],[-56.208361,-25.644256],[-56.200396,-25.638294],[-56.199307,-25.639782],[-56.196846,-25.638202],[-56.19453,-25.641697],[-56.190478,-25.64177],[-56.189404,-25.639646],[-56.185549,-25.636342],[-56.178953,-25.632337],[-56.172599,-25.635398],[-56.170089,-25.633885],[-56.168789,-25.637408],[-56.165792,-25.63871],[-56.163985,-25.638492],[-56.158874,-25.640015],[-56.157772,-25.639196],[-56.154002,-25.638953],[-56.150298,-25.64002],[-56.145603,-25.637098],[-56.142035,-25.638003],[-56.140153,-25.640674],[-56.139956,-25.642424],[-56.136386,-25.646882],[-56.129104,-25.647959],[-56.127406,-25.651962],[-56.124921,-25.652263],[-56.123081,-25.655309],[-56.121262,-25.655885],[-56.118748,-25.658276],[-56.115897,-25.658521],[-56.113666,-25.660024],[-56.108328,-25.660001],[-56.110662,-25.655839],[-56.106775,-25.654004],[-56.10185,-25.654195],[-56.101388,-25.65115],[-56.098325,-25.653406],[-56.09773,-25.650387],[-56.094367,-25.650005],[-56.095039,-25.647413],[-56.093799,-25.64443],[-56.091585,-25.644335],[-56.08632,-25.647494],[-56.084511,-25.64653],[-56.084821,-25.644469],[-56.080319,-25.644106],[-56.079455,-25.643424],[-56.079848,-25.640135],[-56.076872,-25.639285],[-56.0735,-25.640627],[-56.073756,-25.642385],[-56.072096,-25.644411],[-56.068363,-25.641462],[-56.067042,-25.642194],[-56.06706,-25.644776],[-56.065358,-25.647298],[-56.065889,-25.649902],[-56.062358,-25.656629],[-56.058375,-25.657068],[-56.056621,-25.661256],[-56.054299,-25.660378],[-56.052484,-25.657703],[-56.05019,-25.658537],[-56.048063,-25.657543],[-56.042071,-25.660046],[-56.042366,-25.661682],[-56.035497,-25.661176],[-56.034363,-25.660334],[-56.03168,-25.661724],[-56.029605,-25.661656],[-56.027877,-25.666444],[-56.023769,-25.669965],[-56.021774,-25.673871],[-56.020525,-25.67356],[-56.016899,-25.674881],[-56.013483,-25.673178],[-56.010383,-25.67583],[-56.008405,-25.675401],[-56.007285,-25.673687],[-56.005227,-25.67463],[-56.004782,-25.671589],[-55.999698,-25.668881],[-55.997235,-25.665758],[-55.995398,-25.66231],[-55.992302,-25.660501],[-55.989652,-25.656613],[-55.985406,-25.652728],[-55.977941,-25.648008],[-55.973816,-25.646494],[-55.968351,-25.640139],[-55.966068,-25.636489],[-55.962134,-25.631635],[-55.960818,-25.628736],[-55.957751,-25.628321],[-55.952012,-25.630131],[-55.946435,-25.630597],[-55.943138,-25.626837],[-56.023334,-25.62384],[-56.059975,-25.622427],[-56.120886,-25.607682],[-56.154692,-25.599507],[-56.168045,-25.590707],[-56.170154,-25.590222],[-56.177103,-25.590203],[-56.179847,-25.589446],[-56.183007,-25.587437],[-56.184438,-25.584939],[-56.187158,-25.583545],[-56.193045,-25.584169],[-56.196681,-25.581228],[-56.201672,-25.579503],[-56.205938,-25.576799],[-56.211206,-25.577482],[-56.212594,-25.578948],[-56.213008,-25.581389],[-56.21462,-25.581447],[-56.217238,-25.578747],[-56.220229,-25.578551],[-56.221934,-25.580804],[-56.223974,-25.581108],[-56.22818,-25.578986],[-56.231182,-25.580266],[-56.237375,-25.578398],[-56.239484,-25.576363],[-56.244222,-25.575119],[-56.24553,-25.5722],[-56.249188,-25.571587],[-56.251994,-25.572848],[-56.256065,-25.578322],[-56.258227,-25.576916],[-56.261121,-25.578876],[-56.261129,-25.580348],[-56.264808,-25.582556],[-56.265825,-25.582101],[-56.271776,-25.583083],[-56.274435,-25.584966],[-56.279335,-25.583613],[-56.283906,-25.586408],[-56.287292,-25.585336],[-56.287609,-25.583225],[-56.289335,-25.580059],[-56.289674,-25.576963],[-56.29172,-25.573804],[-56.291211,-25.571255],[-56.292163,-25.569038]]]},"properties":{"shapeName":"Mauricio Jose Troche","shapeISO":"47425931B79901045187341","shapeGroup":"PRY","shapeType":"ADM2","src_shape_id":"47425931B79901045187341","adm1ISO":"PY-4"}},
{"type":"Feature","geometry":{"type":"Polygon","coordinates":[[[-56.29165,-25.707671],[-56.291662,-25.70559],[-56.2974,-25.701514],[-56.302425,-25.695596],[-56.302656,-25.690938],[-56.303887,-25.687187],[-56.309397,-25.682559],[-56.31414,-25.679944],[-56.318614,-25.678904],[-56.320736,-25.67383],[-56.322955,-25.670771],[-56.325336,-25.669666],[-56.327167,-25.666505],[-56.327703,-25.663239],[-56.326746,-25.660751],[-56.327341,-25.658542],[-56.332463,-25.657256],[-56.335654,-25.653966],[-56.337117,-25.647046],[-56.340581,-25.644972],[-56.341309,-25.642076],[-56.338579,-25.640091],[-56.338019,-25.63602],[-56.340983,-25.634684],[-56.33895,-25.632473],[-56.342019,-25.633232],[-56.345064,-25.631128],[-56.346535,-25.631203],[-56.348496,-25.633651],[-56.350901,-25.631635],[-56.352453,-25.633457],[-56.354971,-25.630595],[-56.355315,-25.628671],[-56.358668,-25.628466],[-56.360743,-25.62622],[-56.36252,-25.62587],[-56.362366,-25.623408],[-56.368616,-25.623091],[-56.369835,-25.624912],[-56.372465,-25.623741],[-56.37965,-25.624514],[-56.381494,-25.622968],[-56.385044,-25.622612],[-56.386646,-25.623732],[-56.388818,-25.623177],[-56.393649,-25.624614],[-56.395795,-25.626094],[-56.39866,-25.626601],[-56.399723,-25.629231],[-56.401653,-25.627516],[-56.405543,-25.626194],[-56.40883,-25.628077],[-56.412257,-25.626111],[-56.4139,-25.629973],[-56.415797,-25.630012],[-56.418597,-25.628171],[-56.419195,-25.629952],[-56.42148,-25.630016],[-56.422928,-25.628521],[-56.423523,-25.648939],[-56.427956,-25.659734],[-56.427351,-25.666332],[-56.430828,-25.670879],[-56.434447,-25.681278],[-56.440511,-25.683274],[-56.439251,-25.68686],[-56.440409,-25.691148],[-56.437005,-25.69292],[-56.437858,-25.69568],[-56.437191,-25.708257],[-56.441352,-25.727133],[-56.456667,-25.731081],[-56.45429,-25.735285],[-56.45179,-25.73439],[-56.447656,-25.736483],[-56.445297,-25.73837],[-56.44065,-25.73894],[-56.437093,-25.740122],[-56.433182,-25.742482],[-56.429288,-25.746246],[-56.426079,-25.75069],[-56.421805,-25.754032],[-56.420392,-25.754121],[-56.404907,-25.76095],[-56.398212,-25.758768],[-56.387157,-25.763031],[-56.383179,-25.7653],[-56.373143,-25.767738],[-56.35362,-25.776812],[-56.335607,-25.79698],[-56.332473,-25.792925],[-56.329535,-25.791412],[-56.323425,-25.785898],[-56.318788,-25.784035],[-56.318058,-25.781137],[-56.313834,-25.779691],[-56.285569,-25.765748],[-56.283233,-25.763181],[-56.28114,-25.75918],[-56.28062,-25.75696],[-56.280551,-25.751253],[-56.28233,-25.749005],[-56.283899,-25.743581],[-56.287738,-25.738182],[-56.28742,-25.733584],[-56.288228,-25.732085],[-56.291196,-25.730456],[-56.293595,-25.730034],[-56.296827,-25.727891],[-56.296893,-25.725165],[-56.293292,-25.720082],[-56.293703,-25.716237],[-56.293405,-25.711061],[-56.29165,-25.707671]]]},"properties":{"shapeName":"Mbocayaty","shapeISO":"47425931B1619028943370","shapeGroup":"PRY","shapeType":"ADM2","src_shape_id":"47425931B1619028943370","adm1ISO":"PY-4"}},
{"type":"Feature","geometry":{"type":"Polygon","coordinates":[[[-56.237711,-25.624136],[-56.239732,-25.622512],[-56.242503,-25.622797],[-56.245673,-25.621184],[-56.247759,-25.622264],[-56.247517,-25.62606],[-56.249433,-25.626454],[-56.251026,-25.628214],[-56.252025,-25.631998],[-56.254681,-25.630991],[-56.25775,-25.63244],[-56.257207,-25.636297],[-56.25792,-25.640129],[-56.265233,-25.640926],[-56.267823,-25.63833],[-56.270559,-25.63782],[-56.270917,-25.636026],[-56.274046,-25.635058],[-56.276554,-25.636539],[-56.280866,-25.633558],[-56.284429,-25.635083],[-56.28786,-25.63451],[-56.291071,-25.636806],[-56.29311,-25.636829],[-56.295125,-25.638399],[-56.298256,-25.639541],[-56.299582,-25.635392],[-56.300826,-25.635385],[-56.302517,-25.632514],[-56.304684,-25.630207],[-56.309672,-25.630823],[-56.314319,-25.630143],[-56.316647,-25.631886],[-56.319169,-25.630892],[-56.3209,-25.628162],[-56.318917,-25.626213],[-56.31997,-25.625064],[-56.323344,-25.625853],[-56.325448,-25.624935],[-56.32877,-25.626379],[-56.331906,-25.629638],[-56.33601,-25.630908],[-56.33895,-25.632473],[-56.340983,-25.634684],[-56.338019,-25.63602],[-56.338579,-25.640091],[-56.341309,-25.642076],[-56.340581,-25.644972],[-56.337117,-25.647046],[-56.335654,-25.653966],[-56.332463,-25.657256],[-56.327341,-25.658542],[-56.326746,-25.660751],[-56.327703,-25.663239],[-56.327167,-25.666505],[-56.325336,-25.669666],[-56.322955,-25.670771],[-56.320736,-25.67383],[-56.318614,-25.678904],[-56.31414,-25.679944],[-56.309397,-25.682559],[-56.303887,-25.687187],[-56.302656,-25.690938],[-56.302425,-25.695596],[-56.2974,-25.701514],[-56.291662,-25.70559],[-56.29165,-25.707671],[-56.25944,-25.710253],[-56.257583,-25.708045],[-56.252979,-25.704748],[-56.24931,-25.704249],[-56.24657,-25.673897],[-56.244591,-25.65392],[-56.240746,-25.654252],[-56.237711,-25.624136]]]},"properties":{"shapeName":"Natalicio Talavera","shapeISO":"47425931B20242307055378","shapeGroup":"PRY","shapeType":"ADM2","src_shape_id":"47425931B20242307055378","adm1ISO":"PY-4"}},
{"type":"Feature","geometry":{"type":"Polygon","coordinates":[[[-56.276798,-25.844823],[-56.289907,-25.874771],[-56.339091,-25.878276],[-56.340706,-25.880767],[-56.341122,-25.883175],[-56.348046,-25.887125],[-56.35167,-25.891056],[-56.351531,-25.892879],[-56.353574,-25.8958],[-56.356706,-25.895503],[-56.363888,-25.893781],[-56.367755,-25.9156],[-56.369312,-25.932372],[-56.370648,-25.936179],[-56.369934,-25.938447],[-56.37167,-25.939737],[-56.371544,-25.941994],[-56.369693,-25.942974],[-56.369356,-25.946047],[-56.367231,-25.950562],[-56.368896,-25.95387],[-56.350981,-25.967967],[-56.350826,-25.971117],[-56.349519,-25.971671],[-56.34778,-25.969257],[-56.343406,-25.967264],[-56.340003,-25.9684],[-56.329313,-25.965173],[-56.32638,-25.963606],[-56.323526,-25.963818],[-56.321628,-25.962839],[-56.317747,-25.962663],[-56.317848,-25.960988],[-56.316339,-25.95894],[-56.316469,-25.951559],[-56.312204,-25.949033],[-56.303518,-25.947628],[-56.299365,-25.942633],[-56.293846,-25.943889],[-56.293089,-25.94239],[-56.290788,-25.942664],[-56.289809,-25.940654],[-56.281454,-25.938911],[-56.281455,-25.940324],[-56.278161,-25.941242],[-56.275858,-25.940964],[-56.274312,-25.94237],[-56.270754,-25.94051],[-56.267038,-25.939954],[-56.265203,-25.940473],[-56.262948,-25.937188],[-56.2618,-25.931498],[-56.262698,-25.925385],[-56.258555,-25.923766],[-56.255255,-25.925013],[-56.253337,-25.921947],[-56.254042,-25.918542],[-56.253387,-25.91466],[-56.252248,-25.914366],[-56.250898,-25.911252],[-56.251636,-25.907441],[-56.249205,-25.898742],[-56.251138,-25.894007],[-56.254198,-25.892741],[-56.258422,-25.892726],[-56.262849,-25.890659],[-56.263291,-25.88941],[-56.269588,-25.886575],[-56.273136,-25.885677],[-56.276702,-25.885794],[-56.276579,-25.880606],[-56.277253,-25.879489],[-56.276798,-25.844823]]]},"properties":{"shapeName":"Ñumi","shapeISO":"47425931B39086004490826","shapeGroup":"PRY","shapeType":"ADM2","src_shape_id":"47425931B39086004490826","adm1ISO":"PY-4"}},
{"type":"Feature","geometry":{"type":"Polygon","coordinates":[[[-55.633585,-25.65027],[-55.636402,-25.649317],[-55.638821,-25.644979],[-55.64488,-25.647735],[-55.651417,-25.647606],[-55.654266,-25.649808],[-55.656431,-25.650103],[-55.658198,-25.649054],[-55.661366,-25.648785],[-55.666178,-25.645696],[-55.669084,-25.647249],[-55.66937,-25.651034],[-55.672978,-25.652643],[-55.677643,-25.65208],[-55.679731,-25.654212],[-55.679253,-25.660279],[-55.681111,-25.662982],[-55.682964,-25.664037],[-55.683771,-25.666031],[-55.686773,-25.668744],[-55.688106,-25.67267],[-55.690854,-25.672902],[-55.692459,-25.674081],[-55.693877,-25.678459],[-55.697502,-25.677503],[-55.700255,-25.677586],[-55.704234,-25.676308],[-55.706045,-25.674997],[-55.712568,-25.673655],[-55.714871,-25.673933],[-55.717718,-25.67557],[-55.720324,-25.675498],[-55.726459,-25.678851],[-55.729367,-25.680863],[-55.730435,-25.682511],[-55.735865,-25.684657],[-55.736978,-25.686911],[-55.743935,-25.689774],[-55.746604,-25.691246],[-55.750297,-25.690989],[-55.751221,-25.689792],[-55.755273,-25.687501],[-55.75812,-25.686754],[-55.760192,-25.68423],[-55.766773,-25.681094],[-55.769531,-25.681487],[-55.772901,-25.683367],[-55.776406,-25.683893],[-55.778899,-25.685801],[-55.783754,-25.690532],[-55.786869,-25.692779],[-55.792684,-25.694746],[-55.798018,-25.689788],[-55.801308,-25.69],[-55.803545,-25.691422],[-55.810654,-25.69181],[-55.812434,-25.689396],[-55.816072,-25.68822],[-55.823616,-25.687039],[-55.825499,-25.688021],[-55.833586,-25.686329],[-55.834557,-25.687064],[-55.837358,-25.685348],[-55.843016,-25.68682],[-55.846956,-25.685673],[-55.850446,-25.683091],[-55.853609,-25.682362],[-55.857968,-25.679782],[-55.861593,-25.678564],[-55.863315,-25.673896],[-55.860915,-25.671738],[-55.8592,-25.668113],[-55.858628,-25.661449],[-55.860078,-25.656747],[-55.879426,-25.649034],[-55.933161,-25.627229],[-55.943138,-25.626837],[-55.946435,-25.630597],[-55.952012,-25.630131],[-55.957751,-25.628321],[-55.960818,-25.628736],[-55.962134,-25.631635],[-55.966068,-25.636489],[-55.968351,-25.640139],[-55.973816,-25.646494],[-55.977941,-25.648008],[-55.985406,-25.652728],[-55.989652,-25.656613],[-55.992302,-25.660501],[-55.995398,-25.66231],[-55.997235,-25.665758],[-55.999698,-25.668881],[-56.004782,-25.671589],[-56.005227,-25.67463],[-56.007285,-25.673687],[-56.008405,-25.675401],[-56.010383,-25.67583],[-56.013483,-25.673178],[-56.016899,-25.674881],[-56.020525,-25.67356],[-56.021774,-25.673871],[-56.023769,-25.669965],[-56.027877,-25.666444],[-56.029605,-25.661656],[-56.03168,-25.661724],[-56.034363,-25.660334],[-56.035497,-25.661176],[-56.042366,-25.661682],[-56.042071,-25.660046],[-56.048063,-25.657543],[-56.05019,-25.658537],[-56.052484,-25.657703],[-56.054299,-25.660378],[-56.056621,-25.661256],[-56.058375,-25.657068],[-56.062358,-25.656629],[-56.065889,-25.649902],[-56.065358,-25.647298],[-56.06706,-25.644776],[-56.067042,-25.642194],[-56.068363,-25.641462],[-56.072096,-25.644411],[-56.073756,-25.642385],[-56.0735,-25.640627],[-56.076872,-25.639285],[-56.079848,-25.640135],[-56.079455,-25.643424],[-56.080319,-25.644106],[-56.084821,-25.644469],[-56.084511,-25.64653],[-56.08632,-25.647494],[-56.091585,-25.644335],[-56.093799,-25.64443],[-56.095039,-25.647413],[-56.094367,-25.650005],[-56.09773,-25.650387],[-56.098325,-25.653406],[-56.101388,-25.65115],[-56.10185,-25.654195],[-56.106775,-25.654004],[-56.110662,-25.655839],[-56.108328,-25.660001],[-56.113666,-25.660024],[-56.115897,-25.658521],[-56.118748,-25.658276],[-56.115219,-25.662214],[-56.112049,-25.664208],[-56.110829,-25.665993],[-56.110806,-25.669718],[-56.112601,-25.670659],[-56.112542,-25.67437],[-56.111064,-25.675792],[-56.10805,-25.676902],[-56.104015,-25.681198],[-56.100914,-25.683829],[-56.10209,-25.68669],[-56.101544,-25.689698],[-56.099794,-25.693109],[-56.100298,-25.696209],[-56.099261,-25.697409],[-56.099881,-25.699837],[-56.097543,-25.701425],[-56.095007,-25.704795],[-56.095258,-25.707199],[-56.097131,-25.71131],[-56.096553,-25.713929],[-56.093064,-25.718382],[-56.091964,-25.720655],[-56.087883,-25.722047],[-56.086074,-25.721706],[-56.082287,-25.722657],[-56.080546,-25.727708],[-56.08223,-25.732549],[-56.080399,-25.73419],[-56.07789,-25.738594],[-56.078639,-25.740052],[-56.077959,-25.743511],[-56.073867,-25.746356],[-56.070263,-25.747078],[-56.068157,-25.745476],[-56.066512,-25.746648],[-56.065276,-25.750306],[-56.063662,-25.752932],[-56.064043,-25.75647],[-56.065989,-25.760766],[-56.06595,-25.763322],[-56.060972,-25.764341],[-56.06021,-25.766522],[-56.060452,-25.770316],[-56.056244,-25.771647],[-56.051507,-25.775531],[-56.04993,-25.773516],[-56.050064,-25.771481],[-56.043914,-25.76996],[-56.04078,-25.766196],[-56.038413,-25.768537],[-56.038788,-25.775709],[-56.037521,-25.77915],[-56.033632,-25.782388],[-56.034003,-25.786409],[-56.036458,-25.790538],[-56.035151,-25.793468],[-56.031021,-25.793942],[-56.029186,-25.79546],[-56.032941,-25.805788],[-56.032663,-25.809023],[-56.033762,-25.812425],[-56.033983,-25.816752],[-56.032489,-25.821423],[-56.033787,-25.826037],[-56.033257,-25.831939],[-56.035535,-25.838066],[-56.034723,-25.843452],[-56.037384,-25.848783],[-56.034593,-25.852322],[-56.034307,-25.856036],[-56.035564,-25.860098],[-56.034183,-25.862157],[-56.032964,-25.866415],[-56.030236,-25.870703],[-56.016883,-25.873602],[-56.015147,-25.875541],[-56.012177,-25.87734],[-56.009762,-25.877585],[-56.007116,-25.874407],[-56.003622,-25.873331],[-55.999246,-25.873559],[-55.997689,-25.872776],[-55.99343,-25.864864],[-55.989014,-25.859443],[-55.983205,-25.854364],[-55.978995,-25.854592],[-55.973648,-25.853091],[-55.964173,-25.855227],[-55.958617,-25.856944],[-55.953424,-25.855629],[-55.950931,-25.855484],[-55.946529,-25.856653],[-55.943979,-25.854987],[-55.939454,-25.854367],[-55.93567,-25.854463],[-55.912355,-25.876045],[-55.911379,-25.872989],[-55.905333,-25.870583],[-55.903643,-25.8688],[-55.900777,-25.867528],[-55.898588,-25.864527],[-55.895489,-25.862879],[-55.887802,-25.855466],[-55.884551,-25.851039],[-55.882557,-25.84692],[-55.881868,-25.843836],[-55.876235,-25.836032],[-55.875919,-25.834079],[-55.876987,-25.831885],[-55.875325,-25.828377],[-55.871788,-25.823989],[-55.867591,-25.819641],[-55.862861,-25.81782],[-55.861149,-25.818146],[-55.858,-25.815841],[-55.85811,-25.814036],[-55.853885,-25.811782],[-55.852791,-25.808225],[-55.848124,-25.804955],[-55.848217,-25.802523],[-55.843451,-25.802074],[-55.83574,-25.800013],[-55.83486,-25.801942],[-55.828763,-25.800074],[-55.82637,-25.797802],[-55.823717,-25.797352],[-55.8223,-25.799096],[-55.820327,-25.79406],[-55.816507,-25.790368],[-55.816938,-25.78829],[-55.814619,-25.78689],[-55.813625,-25.784088],[-55.808533,-25.784813],[-55.807549,-25.78658],[-55.80548,-25.786242],[-55.801188,-25.787024],[-55.80271,-25.789298],[-55.802355,-25.791345],[-55.79907,-25.792704],[-55.799109,-25.795498],[-55.796472,-25.794461],[-55.797518,-25.791359],[-55.795463,-25.789229],[-55.790902,-25.78823],[-55.78806,-25.785972],[-55.784804,-25.784599],[-55.785271,-25.783511],[-55.778722,-25.776616],[-55.775981,-25.777677],[-55.773818,-25.775546],[-55.771019,-25.775337],[-55.765865,-25.776007],[-55.761228,-25.778699],[-55.758024,-25.775073],[-55.755898,-25.773836],[-55.755193,-25.771686],[-55.756826,-25.769239],[-55.759479,-25.767659],[-55.757275,-25.764937],[-55.758902,-25.763185],[-55.759912,-25.759822],[-55.757183,-25.75764],[-55.75413,-25.757303],[-55.753505,-25.754345],[-55.75465,-25.750414],[-55.757636,-25.748656],[-55.760278,-25.748593],[-55.759879,-25.746477],[-55.761601,-25.740948],[-55.760706,-25.739545],[-55.761989,-25.736567],[-55.764755,-25.732704],[-55.762479,-25.731673],[-55.765212,-25.726537],[-55.7619,-25.721868],[-55.762568,-25.720343],[-55.76132,-25.717863],[-55.758587,-25.717041],[-55.754098,-25.719431],[-55.748337,-25.717743],[-55.746422,-25.715275],[-55.742537,-25.714352],[-55.741608,-25.711184],[-55.736014,-25.710382],[-55.733533,-25.71157],[-55.731947,-25.710636],[-55.724339,-25.71149],[-55.725428,-25.713734],[-55.720612,-25.714536],[-55.717091,-25.715932],[-55.716191,-25.718488],[-55.711775,-25.719496],[-55.710487,-25.717941],[-55.70786,-25.717453],[-55.705104,-25.720634],[-55.703147,-25.721492],[-55.702729,-25.724734],[-55.7017,-25.726427],[-55.701424,-25.729431],[-55.700216,-25.73193],[-55.695048,-25.737802],[-55.694928,-25.739223],[-55.691947,-25.740763],[-55.69185,-25.742884],[-55.689608,-25.742986],[-55.688305,-25.74078],[-55.688795,-25.739042],[-55.685605,-25.73741],[-55.680946,-25.742388],[-55.676344,-25.739633],[-55.676036,-25.737933],[-55.673724,-25.737059],[-55.67494,-25.734348],[-55.671436,-25.732461],[-55.670168,-25.729492],[-55.666451,-25.726239],[-55.667575,-25.723546],[-55.669873,-25.722109],[-55.672022,-25.723045],[-55.669493,-25.717613],[-55.661901,-25.713269],[-55.66322,-25.708875],[-55.66561,-25.707673],[-55.663182,-25.705168],[-55.662161,-25.702902],[-55.662527,-25.699718],[-55.660359,-25.697906],[-55.656224,-25.697069],[-55.65454,-25.69462],[-55.656172,-25.691935],[-55.654022,-25.691654],[-55.651627,-25.689785],[-55.653051,-25.688291],[-55.652819,-25.686153],[-55.650802,-25.685376],[-55.65054,-25.682886],[-55.646862,-25.67995],[-55.643693,-25.676042],[-55.642448,-25.672464],[-55.642812,-25.66933],[-55.642369,-25.665512],[-55.642902,-25.662794],[-55.64229,-25.659448],[-55.637383,-25.65468],[-55.636043,-25.651133],[-55.633585,-25.65027]]]},"properties":{"shapeName":"Paso Yobai","shapeISO":"47425931B97963886844876","shapeGroup":"PRY","shapeType":"ADM2","src_shape_id":"47425931B97963886844876","adm1ISO":"PY-4"}},
{"type":"Feature","geometry":{"type":"Polygon","coordinates":[[[-56.486314,-26.017519],[-56.485378,-26.019055],[-56.482837,-26.019213],[-56.480544,-26.020853],[-56.475886,-26.020705],[-56.470187,-26.01914],[-56.466801,-26.019498],[-56.459619,-26.022194],[-56.458896,-26.023735],[-56.456337,-26.024294],[-56.451857,-26.026936],[-56.450047,-26.029223],[-56.45029,-26.032804],[-56.448046,-26.034412],[-56.448844,-26.037255],[-56.439939,-26.039072],[-56.436753,-26.036346],[-56.435094,-26.035992],[-56.429034,-26.03153],[-56.427668,-26.029944],[-56.423726,-26.027297],[-56.423279,-26.025114],[-56.418253,-26.0228],[-56.414507,-26.022596],[-56.412062,-26.020441],[-56.409783,-26.016193],[-56.402269,-26.01227],[-56.399399,-26.01173],[-56.399034,-26.00981],[-56.395154,-26.007536],[-56.39326,-26.007623],[-56.390686,-26.002917],[-56.38684,-25.999433],[-56.382973,-25.997421],[-56.380873,-25.997399],[-56.374556,-25.995751],[-56.372091,-25.993866],[-56.370525,-25.994234],[-56.365221,-25.993001],[-56.358742,-25.989117],[-56.356663,-25.986498],[-56.355308,-25.986185],[-56.351977,-25.981795],[-56.350718,-25.976494],[-56.349686,-25.975744],[-56.349519,-25.971671],[-56.350826,-25.971117],[-56.350981,-25.967967],[-56.368896,-25.95387],[-56.367231,-25.950562],[-56.369356,-25.946047],[-56.369693,-25.942974],[-56.371544,-25.941994],[-56.37167,-25.939737],[-56.369934,-25.938447],[-56.370648,-25.936179],[-56.369312,-25.932372],[-56.367755,-25.9156],[-56.363888,-25.893781],[-56.367226,-25.892949],[-56.37117,-25.893318],[-56.373001,-25.895692],[-56.374556,-25.893721],[-56.37847,-25.896465],[-56.383106,-25.899031],[-56.389069,-25.898997],[-56.391886,-25.901447],[-56.394764,-25.902538],[-56.404981,-25.907881],[-56.408376,-25.907881],[-56.410268,-25.906923],[-56.413203,-25.908506],[-56.415185,-25.911819],[-56.417451,-25.912076],[-56.41993,-25.914294],[-56.421687,-25.913705],[-56.422933,-25.91557],[-56.429083,-25.919062],[-56.431025,-25.919137],[-56.43342,-25.91753],[-56.454944,-25.897856],[-56.454695,-25.885918],[-56.467172,-25.883544],[-56.489932,-25.879995],[-56.49403,-25.888536],[-56.494253,-25.893322],[-56.489881,-25.895832],[-56.491325,-25.901816],[-56.489572,-25.912799],[-56.488732,-25.914647],[-56.482626,-25.925743],[-56.48823,-25.938607],[-56.486807,-25.94632],[-56.464526,-25.969578],[-56.472415,-25.979991],[-56.474058,-25.98365],[-56.477129,-25.993643],[-56.477983,-26.008595],[-56.4799,-26.014164],[-56.482446,-26.014968],[-56.486314,-26.017519]]]},"properties":{"shapeName":"San Salvador","shapeISO":"47425931B30739629628074","shapeGroup":"PRY","shapeType":"ADM2","src_shape_id":"47425931B30739629628074","adm1ISO":"PY-4"}},
{"type":"Feature","geometry":{"type":"Polygon","coordinates":[[[-56.662314,-25.706708],[-56.665046,-25.704271],[-56.666549,-25.700211],[-56.669062,-25.700086],[-56.669835,-25.700155],[-56.681039,-25.735069],[-56.689541,-25.762165],[-56.684829,-25.78063],[-56.666513,-25.849005],[-56.662634,-25.853153],[-56.662761,-25.854882],[-56.659812,-25.855991],[-56.659479,-25.858487],[-56.6582,-25.85991],[-56.654015,-25.862],[-56.652476,-25.866394],[-56.650126,-25.867052],[-56.650085,-25.868691],[-56.646783,-25.870751],[-56.646673,-25.8728],[-56.648282,-25.87456],[-56.647848,-25.876465],[-56.642257,-25.878537],[-56.641143,-25.880286],[-56.638155,-25.882437],[-56.634192,-25.882287],[-56.632911,-25.884694],[-56.630868,-25.88464],[-56.627668,-25.886487],[-56.62589,-25.882877],[-56.62387,-25.884391],[-56.624534,-25.886722],[-56.62218,-25.887749],[-56.621856,-25.884102],[-56.624847,-25.879857],[-56.625354,-25.875382],[-56.623951,-25.872745],[-56.620896,-25.869152],[-56.619856,-25.86526],[-56.62276,-25.860164],[-56.624982,-25.858347],[-56.624298,-25.855206],[-56.626339,-25.853833],[-56.626906,-25.851647],[-56.626785,-25.847475],[-56.629028,-25.846002],[-56.627765,-25.841907],[-56.628444,-25.839397],[-56.630865,-25.838269],[-56.627718,-25.835203],[-56.629806,-25.833163],[-56.629016,-25.828056],[-56.631571,-25.826908],[-56.630821,-25.823463],[-56.633577,-25.822559],[-56.630502,-25.818196],[-56.628196,-25.818474],[-56.627622,-25.816082],[-56.625232,-25.814537],[-56.623561,-25.812244],[-56.62348,-25.809651],[-56.619318,-25.809519],[-56.617972,-25.80614],[-56.618632,-25.805067],[-56.619716,-25.798915],[-56.622898,-25.796034],[-56.621542,-25.794833],[-56.620848,-25.789195],[-56.619462,-25.788555],[-56.622583,-25.784593],[-56.621337,-25.780721],[-56.622671,-25.779971],[-56.627653,-25.781215],[-56.631694,-25.775606],[-56.634231,-25.774607],[-56.636726,-25.772244],[-56.639171,-25.771128],[-56.640723,-25.768812],[-56.64279,-25.770525],[-56.644771,-25.769726],[-56.646398,-25.766992],[-56.644644,-25.765848],[-56.645901,-25.762845],[-56.646142,-25.759638],[-56.648289,-25.759241],[-56.651695,-25.755087],[-56.654766,-25.75481],[-56.655783,-25.751806],[-56.654513,-25.749626],[-56.651199,-25.747533],[-56.65592,-25.745785],[-56.656546,-25.743567],[-56.655609,-25.741371],[-56.65653,-25.739422],[-56.655464,-25.737108],[-56.655626,-25.732385],[-56.653413,-25.730303],[-56.653316,-25.728687],[-56.656519,-25.727137],[-56.656507,-25.721718],[-56.657946,-25.71962],[-56.65676,-25.717481],[-56.661239,-25.712459],[-56.660776,-25.709418],[-56.662314,-25.706708]]]},"properties":{"shapeName":"Tebicuary","shapeISO":"47425931B23814985752255","shapeGroup":"PRY","shapeType":"ADM2","src_shape_id":"47425931B23814985752255","adm1ISO":"PY-4"}},
{"type":"Feature","geometry":{"type":"Polygon","coordinates":[[[-56.488732,-25.914647],[-56.489572,-25.912799],[-56.491325,-25.901816],[-56.489881,-25.895832],[-56.494253,-25.893322],[-56.49403,-25.888536],[-56.489932,-25.879995],[-56.467172,-25.883544],[-56.454695,-25.885918],[-56.454944,-25.897856],[-56.43342,-25.91753],[-56.431025,-25.919137],[-56.429083,-25.919062],[-56.422933,-25.91557],[-56.421687,-25.913705],[-56.41993,-25.914294],[-56.417451,-25.912076],[-56.415185,-25.911819],[-56.413203,-25.908506],[-56.410268,-25.906923],[-56.408376,-25.907881],[-56.404981,-25.907881],[-56.394764,-25.902538],[-56.391886,-25.901447],[-56.389069,-25.898997],[-56.383106,-25.899031],[-56.37847,-25.896465],[-56.374556,-25.893721],[-56.373001,-25.895692],[-56.37117,-25.893318],[-56.367226,-25.892949],[-56.363888,-25.893781],[-56.356706,-25.895503],[-56.353574,-25.8958],[-56.351531,-25.892879],[-56.35167,-25.891056],[-56.348046,-25.887125],[-56.341122,-25.883175],[-56.340706,-25.880767],[-56.339091,-25.878276],[-56.289907,-25.874771],[-56.276798,-25.844823],[-56.275094,-25.837387],[-56.279545,-25.80959],[-56.313834,-25.779691],[-56.318058,-25.781137],[-56.318788,-25.784035],[-56.323425,-25.785898],[-56.329535,-25.791412],[-56.332473,-25.792925],[-56.335607,-25.79698],[-56.35362,-25.776812],[-56.373143,-25.767738],[-56.383179,-25.7653],[-56.387157,-25.763031],[-56.398212,-25.758768],[-56.404907,-25.76095],[-56.420392,-25.754121],[-56.421805,-25.754032],[-56.426079,-25.75069],[-56.429288,-25.746246],[-56.433182,-25.742482],[-56.437093,-25.740122],[-56.44065,-25.73894],[-56.445297,-25.73837],[-56.447656,-25.736483],[-56.45179,-25.73439],[-56.45429,-25.735285],[-56.456667,-25.731081],[-56.458437,-25.729304],[-56.463734,-25.726624],[-56.46708,-25.725738],[-56.468435,-25.724438],[-56.476632,-25.722038],[-56.478512,-25.722013],[-56.476346,-25.725803],[-56.475819,-25.731594],[-56.475054,-25.733338],[-56.474522,-25.740307],[-56.474795,-25.745026],[-56.476116,-25.750251],[-56.477711,-25.754049],[-56.483766,-25.759285],[-56.487965,-25.760311],[-56.49144,-25.764107],[-56.49497,-25.767023],[-56.498904,-25.769418],[-56.49962,-25.773382],[-56.49603,-25.778153],[-56.494779,-25.781892],[-56.495939,-25.786953],[-56.496668,-25.7924],[-56.50084,-25.796304],[-56.49942,-25.800697],[-56.495395,-25.817183],[-56.497968,-25.819115],[-56.497628,-25.823839],[-56.498684,-25.826254],[-56.501867,-25.82935],[-56.503781,-25.830321],[-56.507482,-25.837277],[-56.509594,-25.842009],[-56.51363,-25.845205],[-56.513834,-25.84752],[-56.510302,-25.851173],[-56.508686,-25.85541],[-56.50697,-25.857912],[-56.509091,-25.860426],[-56.506732,-25.863986],[-56.50706,-25.868939],[-56.511126,-25.872506],[-56.514276,-25.872155],[-56.516638,-25.873093],[-56.519843,-25.878021],[-56.523413,-25.880213],[-56.522608,-25.883272],[-56.525718,-25.886022],[-56.530239,-25.886462],[-56.5316,-25.889333],[-56.533342,-25.89105],[-56.534557,-25.89486],[-56.536435,-25.895141],[-56.53603,-25.900318],[-56.536648,-25.903558],[-56.532963,-25.904702],[-56.5291,-25.904599],[-56.523478,-25.907091],[-56.523539,-25.909592],[-56.521827,-25.910652],[-56.520348,-25.914255],[-56.51512,-25.914824],[-56.510331,-25.9147],[-56.509003,-25.913801],[-56.506477,-25.917197],[-56.504979,-25.915589],[-56.501923,-25.914364],[-56.488732,-25.914647]]]},"properties":{"shapeName":"Villarrica","shapeISO":"47425931B65676015354684","shapeGroup":"PRY","shapeType":"ADM2","src_shape_id":"47425931B65676015354684","adm1ISO":"PY-4"}},
{"type":"Feature","geometry":{"type":"Polygon","coordinates":[[[-56.550514,-25.63915],[-56.547319,-25.640697],[-56.546348,-25.644649],[-56.540774,-25.64782],[-56.538095,-25.651319],[-56.535689,-25.655867],[-56.533441,-25.657811],[-56.529063,-25.658826],[-56.526774,-25.660729],[-56.525666,-25.663872],[-56.521204,-25.666061],[-56.517391,-25.67087],[-56.517855,-25.672425],[-56.516603,-25.674891],[-56.507544,-25.679524],[-56.503631,-25.686351],[-56.49885,-25.690773],[-56.49732,-25.689576],[-56.492673,-25.695755],[-56.489046,-25.705034],[-56.485009,-25.707968],[-56.481498,-25.712538],[-56.479825,-25.718095],[-56.479839,-25.720759],[-56.478512,-25.722013],[-56.476632,-25.722038],[-56.468435,-25.724438],[-56.46708,-25.725738],[-56.463734,-25.726624],[-56.458437,-25.729304],[-56.456667,-25.731081],[-56.441352,-25.727133],[-56.437191,-25.708257],[-56.437858,-25.69568],[-56.437005,-25.69292],[-56.440409,-25.691148],[-56.439251,-25.68686],[-56.440511,-25.683274],[-56.434447,-25.681278],[-56.430828,-25.670879],[-56.427351,-25.666332],[-56.427956,-25.659734],[-56.423523,-25.648939],[-56.422928,-25.628521],[-56.424152,-25.629605],[-56.43001,-25.626713],[-56.432653,-25.628025],[-56.43804,-25.626377],[-56.439548,-25.62389],[-56.443962,-25.621711],[-56.446744,-25.622508],[-56.448982,-25.621979],[-56.452992,-25.623976],[-56.454954,-25.626476],[-56.457689,-25.62565],[-56.460763,-25.625806],[-56.462083,-25.627504],[-56.464755,-25.628259],[-56.46769,-25.626744],[-56.474495,-25.630236],[-56.477487,-25.63552],[-56.481575,-25.635729],[-56.484885,-25.63235],[-56.489819,-25.630995],[-56.490144,-25.627799],[-56.493239,-25.627313],[-56.494885,-25.624908],[-56.495153,-25.622927],[-56.500805,-25.623659],[-56.503073,-25.62313],[-56.504132,-25.625468],[-56.507304,-25.627145],[-56.507832,-25.625476],[-56.515788,-25.626767],[-56.516957,-25.625506],[-56.519192,-25.626782],[-56.521225,-25.623507],[-56.523736,-25.625804],[-56.52666,-25.626138],[-56.528384,-25.624785],[-56.53147,-25.62563],[-56.535814,-25.628231],[-56.53625,-25.632535],[-56.538644,-25.632999],[-56.54075,-25.631827],[-56.542977,-25.633207],[-56.543605,-25.635787],[-56.545876,-25.635636],[-56.548299,-25.638551],[-56.550514,-25.63915]]]},"properties":{"shapeName":"Yataity","shapeISO":"47425931B7430518162595","shapeGroup":"PRY","shapeType":"ADM2","src_shape_id":"47425931B7430518162595","adm1ISO":"PY-4"}}
]}