{"type":"FeatureCollection","bbox":[12.385629,43.892056,12.492392,43.982567],"features":[
{"type":"Feature","id":"SMR:ADM0:SMR","properties":{"shapeName":"San Marino","shapeISO":"SMR","shapeGroup":"SMR","shapeType":"ADM0"},"geometry":{"type":"Polygon","coordinates":[[[12.42945,43.892056],[12.460456,43.895259],[12.478287,43.917038],[12.477494,43.920051],[12.478026,43.923216],[12.479576,43.9258],[12.48216,43.927919],[12.490325,43.939159],[12.492392,43.956419],[12.489188,43.97311],[12.48216,43.982567],[12.453325,43.979053],[12.421389,43.967219],[12.395654,43.948409],[12.385629,43.924534],[12.399581,43.903218],[12.42945,43.892056]]]}}
]}