{"type":"FeatureCollection","bbox":[-61.479744,15.207874,-61.240477,15.639432],"features":[
{"type":"Feature","id":"DMA:ADM1:DM-02","properties":{"shapeName":"Saint Andrew","shapeISO":"DM-02","shapeGroup":"DMA","shapeType":"ADM1","parentISO":"DMA","parentID":"DMA:ADM0:DMA","src_shape_id":"96108325B47785236493574"},"geometry":{"type":"Polygon","coordinates":[[[-61.272815,15.519048],[-61.274867,15.521226],[-61.275144,15.524216],[-61.273884,15.525875],[-61.271333,15.531826],[-61.271947,15.532626],[-61.27078,15.536357],[-61.272992,15.540709],[-61.274345,15.54145],[-61.282396,15.542131],[-61.287222,15.541953],[-61.288143,15.545032],[-61.290694,15.545891],[-61.291985,15.549503],[-61.29512,15.552049],[-61.295796,15.554033],[-61.296841,15.560783],[-61.299361,15.567563],[-61.301359,15.567356],[-61.305384,15.573365],[-61.305292,15.577421],[-61.304616,15.580559],[-61.302711,15.582335],[-61.302434,15.583993],[-61.306306,15.586421],[-61.311592,15.586628],[-61.314205,15.587575],[-61.316172,15.589351],[-61.319368,15.586154],[-61.32324,15.586421],[-61.328772,15.588463],[-61.3308,15.590032],[-61.333843,15.590802],[-61.333781,15.595124],[-61.338268,15.596071],[-61.340205,15.595804],[-61.343124,15.597403],[-61.346566,15.594443],[-61.349547,15.593377],[-61.356308,15.593318],[-61.357937,15.596811],[-61.360611,15.597344],[-61.365098,15.6006],[-61.369954,15.596604],[-61.37272,15.597018],[-61.375025,15.594443],[-61.381601,15.593703],[-61.385658,15.595449],[-61.390422,15.594916],[-61.390975,15.597906],[-61.395216,15.600777],[-61.395277,15.604448],[-61.396937,15.606342],[-61.398934,15.606431],[-61.401332,15.608976],[-61.402161,15.613061],[-61.403268,15.615666],[-61.406341,15.617086],[-61.406925,15.619632],[-61.408308,15.621378],[-61.408646,15.624841],[-61.410459,15.627534],[-61.412518,15.62857],[-61.417313,15.633039],[-61.416913,15.635318],[-61.42057,15.637419],[-61.422168,15.63662],[-61.423367,15.639402],[-61.427055,15.639136],[-61.436582,15.639432],[-61.444357,15.639313],[-61.43023,15.608365],[-61.433606,15.595574],[-61.432648,15.592193],[-61.427393,15.591275],[-61.422414,15.589381],[-61.419936,15.587141],[-61.416946,15.587444],[-61.414665,15.585682],[-61.415766,15.581836],[-61.412344,15.579032],[-61.412029,15.566375],[-61.411321,15.565788],[-61.412029,15.56196],[-61.410515,15.560274],[-61.409649,15.552164],[-61.411065,15.549758],[-61.412698,15.540093],[-61.405951,15.536171],[-61.403414,15.532817],[-61.402922,15.530391],[-61.40365,15.524156],[-61.40367,15.520593],[-61.402391,15.517447],[-61.400245,15.510156],[-61.39891,15.505564],[-61.3988,15.501866],[-61.398084,15.499973],[-61.395802,15.498172],[-61.391849,15.496201],[-61.388348,15.49351],[-61.386164,15.489017],[-61.379752,15.484601],[-61.37751,15.483824],[-61.373065,15.483862],[-61.370508,15.485283],[-61.366142,15.488733],[-61.361677,15.489226],[-61.351832,15.483574],[-61.344921,15.483476],[-61.342039,15.483015],[-61.337054,15.48031],[-61.331188,15.475943],[-61.32799,15.47308],[-61.319242,15.468021],[-61.316296,15.463447],[-61.315239,15.459625],[-61.314527,15.453195],[-61.309082,15.458067],[-61.305625,15.458817],[-61.303637,15.462799],[-61.301856,15.464048],[-61.301649,15.466481],[-61.298917,15.467964],[-61.297206,15.473179],[-61.294613,15.474595],[-61.289928,15.473728],[-61.288182,15.474178],[-61.286989,15.477277],[-61.282978,15.47871],[-61.280351,15.480542],[-61.279798,15.482025],[-61.277412,15.483741],[-61.275009,15.48654],[-61.275389,15.490471],[-61.274283,15.491754],[-61.274292,15.498153],[-61.273229,15.502066],[-61.276323,15.505647],[-61.276703,15.510828],[-61.274663,15.512377],[-61.27558,15.516075],[-61.272815,15.519048]]]}},
{"type":"Feature","id":"DMA:ADM1:DM-06","properties":{"shapeName":"Saint Joseph","shapeISO":"DM-06","shapeGroup":"DMA","shapeType":"ADM1","parentISO":"DMA","parentID":"DMA:ADM0:DMA","src_shape_id":"96108325B74916276227315"},"geometry":{"type":"Polygon","coordinates":[[[-61.3988,15.501866],[-61.406886,15.501866],[-61.412457,15.500076],[-61.415918,15.499791],[-61.421615,15.49487],[-61.429845,15.481733],[-61.439637,15.476283],[-61.446136,15.470629],[-61.453907,15.461788],[-61.448652,15.455844],[-61.446981,15.452982],[-61.447197,15.451105],[-61.450305,15.446308],[-61.450265,15.44354],[-61.444266,15.439332],[-61.440077,15.435805],[-61.438464,15.435464],[-61.436615,15.433151],[-61.436123,15.428164],[-61.431147,15.42132],[-61.427036,15.414228],[-61.426387,15.40598],[-61.427725,15.401296],[-61.427449,15.398698],[-61.425699,15.3961],[-61.424302,15.392422],[-61.420307,15.389704],[-61.417315,15.391459],[-61.410401,15.396511],[-61.403216,15.399402],[-61.393789,15.401407],[-61.387954,15.401485],[-61.382687,15.400053],[-61.374449,15.39698],[-61.368317,15.395965],[-61.364725,15.395939],[-61.360916,15.397058],[-61.355622,15.399636],[-61.351408,15.402423],[-61.346654,15.406511],[-61.32829,15.41253],[-61.327358,15.415633],[-61.32658,15.42542],[-61.32502,15.428126],[-61.32006,15.431099],[-61.316301,15.437303],[-61.315298,15.440526],[-61.315258,15.444507],[-61.314527,15.453195],[-61.315239,15.459625],[-61.316296,15.463447],[-61.319242,15.468021],[-61.32799,15.47308],[-61.331188,15.475943],[-61.337054,15.48031],[-61.342039,15.483015],[-61.344921,15.483476],[-61.351832,15.483574],[-61.361677,15.489226],[-61.366142,15.488733],[-61.370508,15.485283],[-61.373065,15.483862],[-61.37751,15.483824],[-61.379752,15.484601],[-61.386164,15.489017],[-61.388348,15.49351],[-61.391849,15.496201],[-61.395802,15.498172],[-61.398084,15.499973],[-61.3988,15.501866]]]}},
{"type":"Feature","id":"DMA:ADM1:DM-09","properties":{"shapeName":"Saint Patrick","shapeISO":"DM-09","shapeGroup":"DMA","shapeType":"ADM1","parentISO":"DMA","parentID":"DMA:ADM0:DMA","src_shape_id":"96108325B67235694688325"},"geometry":{"type":"Polygon","coordinates":[[[-61.30322,15.324979],[-61.30094,15.322946],[-61.299747,15.320712],[-61.303429,15.317044],[-61.305002,15.310391],[-61.30718,15.30584],[-61.31375,15.295885],[-61.317276,15.292934],[-61.326196,15.287881],[-61.330293,15.28683],[-61.332558,15.285213],[-61.337139,15.28031],[-61.338349,15.277509],[-61.341011,15.274273],[-61.344002,15.271655],[-61.344088,15.269304],[-61.346681,15.262616],[-61.346955,15.260413],[-61.34597,15.250299],[-61.345334,15.241117],[-61.339611,15.229934],[-61.334219,15.211724],[-61.330739,15.2125],[-61.330186,15.213479],[-61.331815,15.217156],[-61.330186,15.22024],[-61.324869,15.223947],[-61.317155,15.225993],[-61.314696,15.228158],[-61.314358,15.230708],[-61.312975,15.23394],[-61.313098,15.237232],[-61.310394,15.242658],[-61.305139,15.24506],[-61.302619,15.245238],[-61.292815,15.244052],[-61.290479,15.240612],[-61.287129,15.242717],[-61.282796,15.243933],[-61.275943,15.243133],[-61.270902,15.244141],[-61.267092,15.246365],[-61.26282,15.249715],[-61.259531,15.250723],[-61.259747,15.253866],[-61.258026,15.256208],[-61.258271,15.262642],[-61.257288,15.26869],[-61.255966,15.273315],[-61.255014,15.274531],[-61.254,15.280757],[-61.254706,15.281854],[-61.252371,15.284522],[-61.248806,15.28633],[-61.245425,15.28722],[-61.247546,15.291903],[-61.246409,15.295431],[-61.248867,15.299137],[-61.247392,15.301004],[-61.24687,15.304947],[-61.247208,15.308237],[-61.245978,15.311912],[-61.245056,15.318196],[-61.243766,15.320953],[-61.24355,15.324125],[-61.241123,15.328837],[-61.241276,15.332275],[-61.245149,15.336721],[-61.246648,15.342628],[-61.253317,15.342363],[-61.258252,15.339888],[-61.264723,15.338251],[-61.270048,15.336067],[-61.278293,15.336159],[-61.283826,15.333783],[-61.293593,15.332566],[-61.296462,15.330432],[-61.299747,15.326314],[-61.30322,15.324979]]]}},
{"type":"Feature","id":"DMA:ADM1:DM-03","properties":{"shapeName":"Saint David","shapeISO":"DM-03","shapeGroup":"DMA","shapeType":"ADM1","parentISO":"DMA","parentID":"DMA:ADM0:DMA","src_shape_id":"96108325B69930325682932"},"geometry":{"type":"Polygon","coordinates":[[[-61.314527,15.453195],[-61.315258,15.444507],[-61.315298,15.440526],[-61.316301,15.437303],[-61.32006,15.431099],[-61.32502,15.428126],[-61.32658,15.42542],[-61.327358,15.415633],[-61.32829,15.41253],[-61.325297,15.408159],[-61.322462,15.400476],[-61.322203,15.397109],[-61.323309,15.391359],[-61.324986,15.387376],[-61.327303,15.377008],[-61.327475,15.371741],[-61.326473,15.369141],[-61.320612,15.361156],[-61.319886,15.356089],[-61.322371,15.351949],[-61.316267,15.350204],[-61.31069,15.347904],[-61.305642,15.345203],[-61.304069,15.343403],[-61.302668,15.340102],[-61.302703,15.336301],[-61.301061,15.331849],[-61.303204,15.326498],[-61.30322,15.324979],[-61.299747,15.326314],[-61.296462,15.330432],[-61.293593,15.332566],[-61.283826,15.333783],[-61.278293,15.336159],[-61.270048,15.336067],[-61.264723,15.338251],[-61.258252,15.339888],[-61.253317,15.342363],[-61.246648,15.342628],[-61.249052,15.346027],[-61.250158,15.350532],[-61.249881,15.354414],[-61.251971,15.368165],[-61.250742,15.375573],[-61.244595,15.377707],[-61.245056,15.381055],[-61.252217,15.383248],[-61.250742,15.3863],[-61.252156,15.388315],[-61.251357,15.391663],[-61.244964,15.393322],[-61.240477,15.394893],[-61.242567,15.399426],[-61.241246,15.400433],[-61.242198,15.402922],[-61.246009,15.403456],[-61.247822,15.40307],[-61.253815,15.403781],[-61.253846,15.406033],[-61.252279,15.407366],[-61.251695,15.409559],[-61.249021,15.40944],[-61.247484,15.410863],[-61.247085,15.414507],[-61.248929,15.41501],[-61.248437,15.418773],[-61.250558,15.419928],[-61.249728,15.421854],[-61.250834,15.425735],[-61.247945,15.428461],[-61.249451,15.430564],[-61.24942,15.433408],[-61.254276,15.432045],[-61.255966,15.433408],[-61.257288,15.436992],[-61.255321,15.439747],[-61.253231,15.446324],[-61.251664,15.44899],[-61.249052,15.449316],[-61.248652,15.45364],[-61.246808,15.454588],[-61.246439,15.457876],[-61.245087,15.460246],[-61.247023,15.461401],[-61.245978,15.464748],[-61.24226,15.465489],[-61.241829,15.467266],[-61.245026,15.468362],[-61.245302,15.469932],[-61.243919,15.474049],[-61.246962,15.474996],[-61.247792,15.479469],[-61.246593,15.482993],[-61.248529,15.486547],[-61.249144,15.492885],[-61.252279,15.49484],[-61.253907,15.500052],[-61.255475,15.501592],[-61.25781,15.502273],[-61.25904,15.503961],[-61.258855,15.506478],[-61.256981,15.507633],[-61.25695,15.516517],[-61.256151,15.517702],[-61.259255,15.519182],[-61.261252,15.518679],[-61.265217,15.519745],[-61.270595,15.517643],[-61.272815,15.519048],[-61.27558,15.516075],[-61.274663,15.512377],[-61.276703,15.510828],[-61.276323,15.505647],[-61.273229,15.502066],[-61.274292,15.498153],[-61.274283,15.491754],[-61.275389,15.490471],[-61.275009,15.48654],[-61.277412,15.483741],[-61.279798,15.482025],[-61.280351,15.480542],[-61.282978,15.47871],[-61.286989,15.477277],[-61.288182,15.474178],[-61.289928,15.473728],[-61.294613,15.474595],[-61.297206,15.473179],[-61.298917,15.467964],[-61.301649,15.466481],[-61.301856,15.464048],[-61.303637,15.462799],[-61.305625,15.458817],[-61.309082,15.458067],[-61.314527,15.453195]]]}},
{"type":"Feature","id":"DMA:ADM1:DM-08","properties":{"shapeName":"Saint Mark","shapeISO":"DM-08","shapeGroup":"DMA","shapeType":"ADM1","parentISO":"DMA","parentID":"DMA:ADM0:DMA","src_shape_id":"96108325B32463735273618"},"geometry":{"type":"Polygon","coordinates":[[[-61.34597,15.250299],[-61.364343,15.240237],[-61.365404,15.234134],[-61.362086,15.232843],[-61.360765,15.230441],[-61.361502,15.223829],[-61.365221,15.217512],[-61.365651,15.21514],[-61.368601,15.212026],[-61.364883,15.20998],[-61.358613,15.208082],[-61.350715,15.207874],[-61.346505,15.209653],[-61.343739,15.208942],[-61.341803,15.210513],[-61.338883,15.211166],[-61.336978,15.210365],[-61.334219,15.211724],[-61.339611,15.229934],[-61.345334,15.241117],[-61.34597,15.250299]]]}},
{"type":"Feature","id":"DMA:ADM1:DM-07","properties":{"shapeName":"Saint Luke","shapeISO":"DM-07","shapeGroup":"DMA","shapeType":"ADM1","parentISO":"DMA","parentID":"DMA:ADM0:DMA","src_shape_id":"96108325B86083732773811"},"geometry":{"type":"Polygon","coordinates":[[[-61.346955,15.260413],[-61.3681,15.268036],[-61.375771,15.269809],[-61.377176,15.264392],[-61.37779,15.259648],[-61.376069,15.255378],[-61.375516,15.252443],[-61.373119,15.246038],[-61.372935,15.242065],[-61.369769,15.237558],[-61.366296,15.235512],[-61.365404,15.234134],[-61.364343,15.240237],[-61.34597,15.250299],[-61.346955,15.260413]]]}},
{"type":"Feature","id":"DMA:ADM1:DM-04","properties":{"shapeName":"Saint George","shapeISO":"DM-04","shapeGroup":"DMA","shapeType":"ADM1","parentISO":"DMA","parentID":"DMA:ADM0:DMA","src_shape_id":"96108325B98972581904621"},"geometry":{"type":"Polygon","coordinates":[[[-61.30322,15.324979],[-61.303204,15.326498],[-61.301061,15.331849],[-61.302703,15.336301],[-61.302668,15.340102],[-61.304069,15.343403],[-61.305642,15.345203],[-61.31069,15.347904],[-61.316267,15.350204],[-61.322371,15.351949],[-61.325208,15.347183],[-61.327855,15.345385],[-61.331339,15.344213],[-61.335607,15.34015],[-61.340091,15.340306],[-61.344439,15.33942],[-61.347114,15.340071],[-61.349328,15.33705],[-61.353407,15.335982],[-61.357162,15.332309],[-61.360889,15.330459],[-61.361835,15.324624],[-61.362969,15.321863],[-61.364887,15.3203],[-61.368695,15.319857],[-61.372531,15.318658],[-61.375961,15.31858],[-61.383416,15.319987],[-61.388468,15.319674],[-61.391174,15.317854],[-61.389223,15.315707],[-61.388762,15.313454],[-61.390114,15.305954],[-61.390852,15.299818],[-61.390391,15.298395],[-61.383998,15.293771],[-61.379972,15.291844],[-61.377575,15.28968],[-61.375393,15.283959],[-61.374779,15.278444],[-61.37484,15.272871],[-61.375771,15.269809],[-61.3681,15.268036],[-61.346955,15.260413],[-61.346681,15.262616],[-61.344088,15.269304],[-61.344002,15.271655],[-61.341011,15.274273],[-61.338349,15.277509],[-61.337139,15.28031],[-61.332558,15.285213],[-61.330293,15.28683],[-61.326196,15.287881],[-61.317276,15.292934],[-61.31375,15.295885],[-61.30718,15.30584],[-61.305002,15.310391],[-61.303429,15.317044],[-61.299747,15.320712],[-61.30094,15.322946],[-61.30322,15.324979]]]}},
{"type":"Feature","id":"DMA:ADM1:DM-10","properties":{"shapeName":"Saint Paul","shapeISO":"DM-10","shapeGroup":"DMA","shapeType":"ADM1","parentISO":"DMA","parentID":"DMA:ADM0:DMA","src_shape_id":"96108325B20095781885743"},"geometry":{"type":"Polygon","coordinates":[[[-61.420307,15.389704],[-61.414783,15.387188],[-61.412029,15.383983],[-61.411616,15.380986],[-61.409,15.379147],[-61.406345,15.375259],[-61.404653,15.369987],[-61.404299,15.367332],[-61.402529,15.365037],[-61.399421,15.363368],[-61.395704,15.358759],[-61.393796,15.352708],[-61.393953,15.350774],[-61.392931,15.342618],[-61.392665,15.337343],[-61.395953,15.330408],[-61.395523,15.325577],[-61.394478,15.320716],[-61.391174,15.317854],[-61.388468,15.319674],[-61.383416,15.319987],[-61.375961,15.31858],[-61.372531,15.318658],[-61.368695,15.319857],[-61.364887,15.3203],[-61.362969,15.321863],[-61.361835,15.324624],[-61.360889,15.330459],[-61.357162,15.332309],[-61.353407,15.335982],[-61.349328,15.33705],[-61.347114,15.340071],[-61.344439,15.33942],[-61.340091,15.340306],[-61.335607,15.34015],[-61.331339,15.344213],[-61.327855,15.345385],[-61.325208,15.347183],[-61.322371,15.351949],[-61.319886,15.356089],[-61.320612,15.361156],[-61.326473,15.369141],[-61.327475,15.371741],[-61.327303,15.377008],[-61.324986,15.387376],[-61.323309,15.391359],[-61.322203,15.397109],[-61.322462,15.400476],[-61.325297,15.408159],[-61.32829,15.41253],[-61.346654,15.406511],[-61.351408,15.402423],[-61.355622,15.399636],[-61.360916,15.397058],[-61.364725,15.395939],[-61.368317,15.395965],[-61.374449,15.39698],[-61.382687,15.400053],[-61.387954,15.401485],[-61.393789,15.401407],[-61.403216,15.399402],[-61.410401,15.396511],[-61.417315,15.391459],[-61.420307,15.389704]]]}},
{"type":"Feature","id":"DMA:ADM1:DM-05","properties":{"shapeName":"Saint John","shapeISO":"DM-05","shapeGroup":"DMA","shapeType":"ADM1","parentISO":"DMA","parentID":"DMA:ADM0:DMA","src_shape_id":"96108325B18979939092740"},"geometry":{"type":"Polygon","coordinates":[[[-61.444357,15.639313],[-61.453362,15.637893],[-61.458248,15.638425],[-61.461783,15.633957],[-61.463227,15.63079],[-61.464856,15.624723],[-61.466177,15.621881],[-61.466147,15.612706],[-61.464641,15.6109],[-61.464518,15.608532],[-61.466147,15.607733],[-61.464303,15.605217],[-61.46169,15.598143],[-61.46375,15.593199],[-61.46756,15.590387],[-61.470511,15.590565],[-61.473,15.589795],[-61.477087,15.590002],[-61.478194,15.588522],[-61.47844,15.584496],[-61.476288,15.582187],[-61.471771,15.582543],[-61.468513,15.584467],[-61.463534,15.5842],[-61.461998,15.58346],[-61.45831,15.57902],[-61.456404,15.573987],[-61.45662,15.569132],[-61.459816,15.562678],[-61.461593,15.555519],[-61.462697,15.55353],[-61.466346,15.549597],[-61.468507,15.548024],[-61.471677,15.547423],[-61.475422,15.545064],[-61.47936,15.540715],[-61.479744,15.536597],[-61.478639,15.534377],[-61.47643,15.53251],[-61.47129,15.533911],[-61.471164,15.53753],[-61.466141,15.539034],[-61.46268,15.537367],[-61.460359,15.538262],[-61.457531,15.53818],[-61.454957,15.537204],[-61.451918,15.537123],[-61.446263,15.534317],[-61.443857,15.531878],[-61.440692,15.531105],[-61.439763,15.528828],[-61.435627,15.526795],[-61.426891,15.523175],[-61.422917,15.521239],[-61.419287,15.517778],[-61.418936,15.514421],[-61.400245,15.510156],[-61.402391,15.517447],[-61.40367,15.520593],[-61.40365,15.524156],[-61.402922,15.530391],[-61.403414,15.532817],[-61.405951,15.536171],[-61.412698,15.540093],[-61.411065,15.549758],[-61.409649,15.552164],[-61.410515,15.560274],[-61.412029,15.56196],[-61.411321,15.565788],[-61.412029,15.566375],[-61.412344,15.579032],[-61.415766,15.581836],[-61.414665,15.585682],[-61.416946,15.587444],[-61.419936,15.587141],[-61.422414,15.589381],[-61.427393,15.591275],[-61.432648,15.592193],[-61.433606,15.595574],[-61.43023,15.608365],[-61.444357,15.639313]]]}},
{"type":"Feature","id":"DMA:ADM1:DM-11","properties":{"shapeName":"Saint Peter","shapeISO":"DM-11","shapeGroup":"DMA","shapeType":"ADM1","parentISO":"DMA","parentID":"DMA:ADM0:DMA","src_shape_id":"96108325B93131520053722"},"geometry":{"type":"Polygon","coordinates":[[[-61.400245,15.510156],[-61.418936,15.514421],[-61.419287,15.517778],[-61.422917,15.521239],[-61.426891,15.523175],[-61.435627,15.526795],[-61.439763,15.528828],[-61.440692,15.531105],[-61.443857,15.531878],[-61.446263,15.534317],[-61.451918,15.537123],[-61.454957,15.537204],[-61.457531,15.53818],[-61.460359,15.538262],[-61.46268,15.537367],[-61.466141,15.539034],[-61.471164,15.53753],[-61.47129,15.533911],[-61.47643,15.53251],[-61.474773,15.530182],[-61.474458,15.526999],[-61.471291,15.519589],[-61.470013,15.515154],[-61.467594,15.50998],[-61.466984,15.505393],[-61.469895,15.498627],[-61.469403,15.494817],[-61.466217,15.490401],[-61.46543,15.48752],[-61.462794,15.482554],[-61.459844,15.47863],[-61.457405,15.469417],[-61.455753,15.464527],[-61.453907,15.461788],[-61.446136,15.470629],[-61.439637,15.476283],[-61.429845,15.481733],[-61.421615,15.49487],[-61.415918,15.499791],[-61.412457,15.500076],[-61.406886,15.501866],[-61.3988,15.501866],[-61.39891,15.505564],[-61.400245,15.510156]]]}}
]}