{"type":"FeatureCollection","bbox":[27.066521,44.749685,28.197684,45.491667],"features":[
{"type":"Feature","id":"ROU:ADM2:RO-BR.victoria","properties":{"shapeName":"VICTORIA","shapeISO":"","shapeGroup":"ROU","shapeType":"ADM2","adm1ISO":"RO-BR","parentISO":"RO-BR","parentID":"ROU:ADM1:RO-BR","src_shape_id":"2599482B65083865075040"},"geometry":{"type":"Polygon","coordinates":[[[27.649074,44.770306],[27.667406,44.769353],[27.720496,44.7669],[27.721907,44.765054],[27.722847,44.777932],[27.744243,44.779247],[27.743707,44.788446],[27.737829,44.788199],[27.736072,44.790767],[27.73121,44.790565],[27.731146,44.794214],[27.725442,44.79385],[27.728114,44.799394],[27.728294,44.801725],[27.724704,44.80085],[27.704954,44.801664],[27.706131,44.815862],[27.688653,44.816675],[27.689294,44.823866],[27.656448,44.825535],[27.654825,44.825864],[27.655327,44.830718],[27.651907,44.831176],[27.652476,44.837314],[27.65007,44.837122],[27.648515,44.839966],[27.646496,44.848856],[27.653397,44.848981],[27.654118,44.857944],[27.641728,44.856566],[27.642302,44.859689],[27.629553,44.860345],[27.62784,44.848489],[27.626192,44.845826],[27.59484,44.853681],[27.591107,44.846044],[27.587271,44.830126],[27.58852,44.825789],[27.586939,44.789785],[27.591661,44.786239],[27.591616,44.783454],[27.591017,44.777964],[27.620533,44.777244],[27.648409,44.775774],[27.64946,44.775148],[27.649074,44.770306]]]}},
{"type":"Feature","id":"ROU:ADM2:RO-BR.baraganul","properties":{"shapeName":"BARAGANUL","shapeISO":"","shapeGroup":"ROU","shapeType":"ADM2","adm1ISO":"RO-BR","parentISO":"RO-BR","parentID":"ROU:ADM1:RO-BR","src_shape_id":"2599482B45742388682810"},"geometry":{"type":"Polygon","coordinates":[[[27.591616,44.783454],[27.591661,44.786239],[27.586939,44.789785],[27.58852,44.825789],[27.587271,44.830126],[27.591107,44.846044],[27.563957,44.845601],[27.550518,44.846256],[27.551321,44.847593],[27.515481,44.86236],[27.506815,44.865616],[27.506921,44.86275],[27.50148,44.856773],[27.521301,44.847455],[27.513413,44.84],[27.496603,44.825426],[27.479511,44.836739],[27.465939,44.8244],[27.444081,44.805211],[27.436798,44.798959],[27.442426,44.795581],[27.478018,44.775208],[27.483945,44.780434],[27.503345,44.780051],[27.503131,44.774428],[27.526839,44.774019],[27.52157,44.788903],[27.528864,44.788548],[27.53322,44.784319],[27.539798,44.784364],[27.540477,44.783514],[27.562485,44.783625],[27.591616,44.783454]]]}},
{"type":"Feature","id":"ROU:ADM2:RO-BR.ciocile","properties":{"shapeName":"CIOCILE","shapeISO":"","shapeGroup":"ROU","shapeType":"ADM2","adm1ISO":"RO-BR","parentISO":"RO-BR","parentID":"ROU:ADM1:RO-BR","src_shape_id":"2599482B69369781010688"},"geometry":{"type":"Polygon","coordinates":[[[27.257628,44.749685],[27.269339,44.763279],[27.288626,44.785818],[27.309603,44.774698],[27.336131,44.798257],[27.322689,44.805407],[27.323391,44.806202],[27.315595,44.80926],[27.311233,44.811782],[27.293696,44.819182],[27.28177,44.823845],[27.286111,44.827263],[27.289045,44.835989],[27.297028,44.85578],[27.298455,44.860237],[27.248989,44.868181],[27.235273,44.870107],[27.234823,44.869116],[27.228127,44.870686],[27.22609,44.870275],[27.211177,44.873843],[27.210598,44.872702],[27.216032,44.871283],[27.212916,44.863807],[27.216406,44.861711],[27.22119,44.860521],[27.222054,44.861547],[27.231491,44.859299],[27.228624,44.853894],[27.224877,44.843203],[27.218345,44.825848],[27.211553,44.806886],[27.191173,44.811781],[27.18906,44.806888],[27.19807,44.80479],[27.199309,44.804023],[27.197941,44.801316],[27.20245,44.799957],[27.202047,44.79872],[27.207752,44.796877],[27.20349,44.787078],[27.223581,44.782601],[27.221568,44.775307],[27.225949,44.772511],[27.227301,44.770154],[27.230792,44.76875],[27.244039,44.757184],[27.257628,44.749685]]]}},
{"type":"Feature","id":"ROU:ADM2:RO-BR.rosiori","properties":{"shapeName":"ROSIORI","shapeISO":"","shapeGroup":"ROU","shapeType":"ADM2","adm1ISO":"RO-BR","parentISO":"RO-BR","parentID":"ROU:ADM1:RO-BR","src_shape_id":"2599482B90808426082179"},"geometry":{"type":"Polygon","coordinates":[[[27.436798,44.798959],[27.444081,44.805211],[27.411532,44.827092],[27.413923,44.829192],[27.410064,44.831404],[27.416314,44.836822],[27.393301,44.849491],[27.363435,44.845894],[27.363655,44.849437],[27.36565,44.855449],[27.365765,44.857903],[27.352576,44.858859],[27.318553,44.861465],[27.311008,44.873448],[27.311002,44.877159],[27.316093,44.876454],[27.318868,44.884431],[27.313485,44.885345],[27.308075,44.885395],[27.29876,44.860441],[27.298455,44.860237],[27.297028,44.85578],[27.289045,44.835989],[27.286111,44.827263],[27.28177,44.823845],[27.293696,44.819182],[27.311233,44.811782],[27.315595,44.80926],[27.323391,44.806202],[27.322689,44.805407],[27.336131,44.798257],[27.341123,44.802613],[27.365726,44.789589],[27.363877,44.787477],[27.381965,44.774684],[27.391596,44.783371],[27.399816,44.777682],[27.407763,44.773017],[27.42706,44.790452],[27.436798,44.798959]]]}},
{"type":"Feature","id":"ROU:ADM2:RO-BR.bertestii-de-jos","properties":{"shapeName":"BERTESTII DE JOS","shapeISO":"","shapeGroup":"ROU","shapeType":"ADM2","adm1ISO":"RO-BR","parentISO":"RO-BR","parentID":"ROU:ADM1:RO-BR","src_shape_id":"2599482B54803043884513"},"geometry":{"type":"Polygon","coordinates":[[[27.775594,44.804964],[27.782792,44.815225],[27.788558,44.818774],[27.792891,44.818303],[27.800427,44.814789],[27.801277,44.817061],[27.805852,44.819875],[27.818325,44.820423],[27.81978,44.81892],[27.826492,44.820019],[27.826265,44.809663],[27.820845,44.799826],[27.820764,44.793627],[27.823326,44.786295],[27.828034,44.781214],[27.831427,44.779096],[27.837311,44.777941],[27.844109,44.777741],[27.857325,44.775579],[27.869407,44.775385],[27.874952,44.773599],[27.879225,44.769285],[27.881285,44.764856],[27.881044,44.763082],[27.883155,44.764745],[27.897183,44.772474],[27.900158,44.776363],[27.907002,44.782415],[27.907908,44.784733],[27.90676,44.791119],[27.904353,44.790415],[27.88616,44.787126],[27.886632,44.79012],[27.888667,44.790058],[27.889068,44.792755],[27.891361,44.794517],[27.893831,44.813701],[27.903735,44.813167],[27.905848,44.810504],[27.911287,44.813457],[27.918937,44.814672],[27.924916,44.814827],[27.924009,44.823569],[27.91213,44.827349],[27.910257,44.827655],[27.909052,44.831942],[27.91033,44.834458],[27.909428,44.836525],[27.904834,44.840481],[27.902681,44.840639],[27.893936,44.843839],[27.892632,44.845471],[27.894504,44.848116],[27.89703,44.848999],[27.899161,44.851903],[27.892466,44.849241],[27.887659,44.850663],[27.88334,44.85091],[27.881504,44.849969],[27.874181,44.848699],[27.86885,44.850156],[27.870575,44.856211],[27.877038,44.858685],[27.878757,44.856912],[27.881551,44.856953],[27.885727,44.85874],[27.883561,44.863898],[27.882036,44.865983],[27.8829,44.868646],[27.861005,44.860256],[27.856979,44.856472],[27.855289,44.853065],[27.855135,44.847134],[27.854413,44.842418],[27.852858,44.840743],[27.849285,44.83926],[27.836047,44.835494],[27.834928,44.835845],[27.835024,44.844043],[27.832283,44.844198],[27.827277,44.841657],[27.82482,44.836083],[27.821487,44.833106],[27.816256,44.832394],[27.811021,44.830047],[27.803785,44.822819],[27.800642,44.820645],[27.795425,44.82021],[27.791491,44.821902],[27.787234,44.828758],[27.783939,44.830859],[27.778871,44.832489],[27.782881,44.841784],[27.783894,44.842305],[27.783176,44.850251],[27.781037,44.85019],[27.780563,44.85304],[27.779573,44.867836],[27.785177,44.868113],[27.783439,44.894844],[27.759437,44.894473],[27.756744,44.894611],[27.754114,44.893048],[27.751272,44.894682],[27.748603,44.891918],[27.74202,44.893273],[27.741644,44.889862],[27.720208,44.890513],[27.72172,44.893789],[27.720631,44.8951],[27.712969,44.895209],[27.710385,44.895437],[27.709962,44.891815],[27.702882,44.890778],[27.701083,44.86772],[27.679566,44.867576],[27.679839,44.85905],[27.668751,44.859618],[27.662022,44.858573],[27.654118,44.857944],[27.653397,44.848981],[27.646496,44.848856],[27.648515,44.839966],[27.65007,44.837122],[27.652476,44.837314],[27.651907,44.831176],[27.655327,44.830718],[27.654825,44.825864],[27.656448,44.825535],[27.689294,44.823866],[27.688653,44.816675],[27.706131,44.815862],[27.704954,44.801664],[27.724704,44.80085],[27.728294,44.801725],[27.750572,44.807682],[27.775594,44.804964]]]}},
{"type":"Feature","id":"ROU:ADM2:RO-BR.ulmu","properties":{"shapeName":"ULMU","shapeISO":"","shapeGroup":"ROU","shapeType":"ADM2","adm1ISO":"RO-BR","parentISO":"RO-BR","parentID":"ROU:ADM1:RO-BR","src_shape_id":"2599482B28846131553928"},"geometry":{"type":"Polygon","coordinates":[[[27.298455,44.860237],[27.29876,44.860441],[27.308075,44.885395],[27.313485,44.885345],[27.318868,44.884431],[27.316093,44.876454],[27.311002,44.877159],[27.311008,44.873448],[27.318553,44.861465],[27.352576,44.858859],[27.354786,44.871876],[27.350211,44.872138],[27.348728,44.87111],[27.341641,44.870009],[27.340327,44.871433],[27.349204,44.899117],[27.353621,44.911706],[27.341112,44.910499],[27.344872,44.93076],[27.339371,44.931898],[27.341885,44.942281],[27.346791,44.941377],[27.34867,44.951308],[27.34958,44.954408],[27.354481,44.952622],[27.356294,44.953788],[27.354946,44.957534],[27.350763,44.959857],[27.350997,44.963499],[27.353233,44.968292],[27.346368,44.968371],[27.346469,44.974455],[27.356615,44.974401],[27.356464,44.977502],[27.362628,44.979124],[27.358407,44.984212],[27.328816,44.978487],[27.330916,44.983128],[27.332266,44.989093],[27.337479,45.002016],[27.320595,45.000611],[27.313929,45.000121],[27.302599,44.998319],[27.280139,44.997646],[27.280866,44.995102],[27.26629,44.947731],[27.255415,44.918296],[27.249558,44.906399],[27.244702,44.897286],[27.245002,44.89702],[27.241874,44.886899],[27.235273,44.870107],[27.248989,44.868181],[27.298455,44.860237]]]}},
{"type":"Feature","id":"ROU:ADM2:RO-BR.insuratei","properties":{"shapeName":"INSURATEI","shapeISO":"","shapeGroup":"ROU","shapeType":"ADM2","adm1ISO":"RO-BR","parentISO":"RO-BR","parentID":"ROU:ADM1:RO-BR","src_shape_id":"2599482B22032457967395"},"geometry":{"type":"Polygon","coordinates":[[[27.654118,44.857944],[27.662022,44.858573],[27.668751,44.859618],[27.679839,44.85905],[27.679566,44.867576],[27.701083,44.86772],[27.702882,44.890778],[27.709962,44.891815],[27.710385,44.895437],[27.712969,44.895209],[27.713397,44.900113],[27.708492,44.902375],[27.704502,44.901026],[27.706003,44.915555],[27.69725,44.916191],[27.687791,44.918586],[27.690816,44.926407],[27.683228,44.925779],[27.685251,44.929062],[27.685917,44.933156],[27.687642,44.933599],[27.699883,44.946225],[27.701866,44.945608],[27.709028,44.955242],[27.67939,44.964773],[27.641492,44.977122],[27.641575,45.013671],[27.64183,45.055038],[27.623907,45.05405],[27.61347,45.053657],[27.606314,45.054115],[27.606799,45.052796],[27.588446,45.027965],[27.568138,45.001908],[27.565733,44.999979],[27.561917,44.99869],[27.559763,44.996795],[27.555887,44.981201],[27.551941,44.97199],[27.551189,44.966534],[27.538695,44.96766],[27.535886,44.966582],[27.532576,44.95739],[27.530557,44.950287],[27.566892,44.946954],[27.563068,44.941237],[27.558087,44.933845],[27.544366,44.918777],[27.547607,44.917939],[27.538615,44.904154],[27.532497,44.893165],[27.523548,44.878396],[27.516106,44.869806],[27.506319,44.873709],[27.506815,44.865616],[27.515481,44.86236],[27.551321,44.847593],[27.550518,44.846256],[27.563957,44.845601],[27.591107,44.846044],[27.59484,44.853681],[27.626192,44.845826],[27.62784,44.848489],[27.629553,44.860345],[27.642302,44.859689],[27.641728,44.856566],[27.654118,44.857944]]]}},
{"type":"Feature","id":"ROU:ADM2:RO-BR.tufesti","properties":{"shapeName":"TUFESTI","shapeISO":"","shapeGroup":"ROU","shapeType":"ADM2","adm1ISO":"RO-BR","parentISO":"RO-BR","parentID":"ROU:ADM1:RO-BR","src_shape_id":"2599482B7504990090207"},"geometry":{"type":"Polygon","coordinates":[[[27.701866,44.945608],[27.702061,44.944839],[27.727078,44.939024],[27.773101,44.928726],[27.778668,44.942659],[27.779991,44.94694],[27.787694,44.947976],[27.790612,44.950776],[27.792595,44.95403],[27.804247,44.953086],[27.810228,44.969838],[27.812478,44.977074],[27.809507,44.977765],[27.81725,44.995802],[27.829214,45.023962],[27.826115,45.024559],[27.835391,45.035569],[27.837935,45.039],[27.841891,45.045783],[27.845842,45.049458],[27.848603,45.053927],[27.822311,45.066372],[27.791949,45.043926],[27.763869,45.023153],[27.73399,45.001291],[27.764354,44.994987],[27.743449,44.965878],[27.720815,44.970732],[27.709028,44.955242],[27.701866,44.945608]]]}},
{"type":"Feature","id":"ROU:ADM2:RO-BR.surdila-greci","properties":{"shapeName":"SURDILA-GRECI","shapeISO":"","shapeGroup":"ROU","shapeType":"ADM2","adm1ISO":"RO-BR","parentISO":"RO-BR","parentID":"ROU:ADM1:RO-BR","src_shape_id":"2599482B86930693548610"},"geometry":{"type":"Polygon","coordinates":[[[27.320595,45.000611],[27.318664,45.002316],[27.318814,45.004899],[27.314701,45.006805],[27.314224,45.007923],[27.316653,45.011292],[27.318337,45.017501],[27.320678,45.020423],[27.303389,45.02115],[27.304082,45.039041],[27.300925,45.058171],[27.309046,45.05819],[27.310905,45.057716],[27.297627,45.081486],[27.29656,45.085507],[27.299507,45.087531],[27.30995,45.089474],[27.306431,45.103387],[27.305559,45.110401],[27.305298,45.11198],[27.291862,45.114711],[27.29155,45.113704],[27.276061,45.116893],[27.276547,45.118078],[27.281561,45.120696],[27.27764,45.121542],[27.279169,45.125394],[27.268545,45.127848],[27.250436,45.11934],[27.251134,45.116828],[27.250362,45.104107],[27.251298,45.101025],[27.253171,45.099061],[27.256761,45.097262],[27.261695,45.096762],[27.277062,45.098681],[27.277668,45.090964],[27.278464,45.088014],[27.282898,45.087398],[27.292058,45.088625],[27.29044,45.085364],[27.293957,45.084249],[27.294998,45.079464],[27.29168,45.079526],[27.291956,45.07703],[27.285939,45.075094],[27.282362,45.07502],[27.282126,45.076911],[27.279375,45.077132],[27.278577,45.08037],[27.275141,45.080907],[27.26687,45.08079],[27.253754,45.078818],[27.245796,45.077337],[27.24617,45.083608],[27.244347,45.08761],[27.240955,45.092089],[27.231366,45.089323],[27.230751,45.090392],[27.227027,45.110204],[27.22272,45.109503],[27.223246,45.113591],[27.207516,45.11047],[27.205347,45.111567],[27.202852,45.111011],[27.199601,45.107849],[27.197534,45.109514],[27.199739,45.111972],[27.19629,45.113318],[27.19386,45.112405],[27.190376,45.109526],[27.187391,45.109013],[27.18481,45.106794],[27.182166,45.106047],[27.175496,45.105717],[27.1748,45.099489],[27.175637,45.095503],[27.177627,45.094165],[27.177694,45.091632],[27.181544,45.087445],[27.187796,45.087566],[27.188656,45.09208],[27.205425,45.092588],[27.202588,45.072572],[27.202597,45.068975],[27.205633,45.068286],[27.203449,45.065967],[27.200448,45.056505],[27.198732,45.046143],[27.197653,45.027988],[27.217862,45.028005],[27.218203,45.027724],[27.247728,45.027133],[27.246371,45.020535],[27.253322,45.020987],[27.250919,45.007725],[27.251851,45.007625],[27.249277,44.994923],[27.252288,44.994353],[27.254975,44.995209],[27.259371,44.994713],[27.260578,44.995801],[27.264594,44.994974],[27.269214,44.995801],[27.274379,44.99379],[27.276009,44.995523],[27.280139,44.997646],[27.302599,44.998319],[27.313929,45.000121],[27.320595,45.000611]]]}},
{"type":"Feature","id":"ROU:ADM2:RO-BR.faurei","properties":{"shapeName":"FAUREI","shapeISO":"","shapeGroup":"ROU","shapeType":"ADM2","adm1ISO":"RO-BR","parentISO":"RO-BR","parentID":"ROU:ADM1:RO-BR","src_shape_id":"2599482B41579129284084"},"geometry":{"type":"Polygon","coordinates":[[[27.305559,45.110401],[27.308382,45.109873],[27.30902,45.106025],[27.312024,45.106812],[27.316602,45.118064],[27.319358,45.12525],[27.313922,45.126031],[27.291729,45.130518],[27.276997,45.132048],[27.274944,45.134894],[27.27296,45.134268],[27.267724,45.135586],[27.264965,45.133994],[27.264515,45.128008],[27.259894,45.125131],[27.255681,45.124443],[27.248701,45.122973],[27.246592,45.121916],[27.240117,45.120249],[27.235511,45.11828],[27.229474,45.116472],[27.226289,45.114355],[27.223246,45.113591],[27.22272,45.109503],[27.227027,45.110204],[27.230751,45.090392],[27.231366,45.089323],[27.240955,45.092089],[27.244347,45.08761],[27.24617,45.083608],[27.245796,45.077337],[27.253754,45.078818],[27.26687,45.08079],[27.275141,45.080907],[27.278577,45.08037],[27.279375,45.077132],[27.282126,45.076911],[27.282362,45.07502],[27.285939,45.075094],[27.291956,45.07703],[27.29168,45.079526],[27.294998,45.079464],[27.293957,45.084249],[27.29044,45.085364],[27.292058,45.088625],[27.282898,45.087398],[27.278464,45.088014],[27.277668,45.090964],[27.277062,45.098681],[27.261695,45.096762],[27.256761,45.097262],[27.253171,45.099061],[27.251298,45.101025],[27.250362,45.104107],[27.251134,45.116828],[27.250436,45.11934],[27.268545,45.127848],[27.279169,45.125394],[27.27764,45.121542],[27.281561,45.120696],[27.276547,45.118078],[27.276061,45.116893],[27.29155,45.113704],[27.291862,45.114711],[27.305298,45.11198],[27.305559,45.110401]]]}},
{"type":"Feature","id":"ROU:ADM2:RO-BR.gropeni","properties":{"shapeName":"GROPENI","shapeISO":"","shapeGroup":"ROU","shapeType":"ADM2","adm1ISO":"RO-BR","parentISO":"RO-BR","parentID":"ROU:ADM1:RO-BR","src_shape_id":"2599482B39333936770759"},"geometry":{"type":"Polygon","coordinates":[[[27.81725,44.995802],[27.846093,44.989602],[27.846276,44.990111],[27.863766,44.987527],[27.874798,44.986908],[27.892771,44.986223],[27.931966,44.980671],[27.929843,44.986588],[27.929261,44.990476],[27.931353,44.996131],[27.931739,44.999367],[27.930931,45.003304],[27.932604,45.007872],[27.933138,45.0125],[27.930405,45.02034],[27.929224,45.022537],[27.928978,45.028095],[27.928081,45.030753],[27.92563,45.032011],[27.920909,45.0318],[27.918107,45.033599],[27.918034,45.035311],[27.920391,45.039925],[27.919941,45.041458],[27.915569,45.043724],[27.911756,45.047061],[27.910936,45.050971],[27.913612,45.062579],[27.914723,45.068979],[27.924157,45.083094],[27.928081,45.088251],[27.932881,45.093269],[27.94267,45.101441],[27.929162,45.109188],[27.905989,45.117254],[27.898927,45.10946],[27.896043,45.110381],[27.852023,45.126288],[27.838759,45.131232],[27.839335,45.131869],[27.825754,45.137053],[27.811247,45.142103],[27.80493,45.127416],[27.804664,45.125893],[27.798035,45.110144],[27.826035,45.100757],[27.835533,45.097427],[27.830058,45.083909],[27.822311,45.066372],[27.848603,45.053927],[27.845842,45.049458],[27.841891,45.045783],[27.837935,45.039],[27.835391,45.035569],[27.826115,45.024559],[27.829214,45.023962],[27.81725,44.995802]]]}},
{"type":"Feature","id":"ROU:ADM2:RO-BR.tichilesti","properties":{"shapeName":"TICHILESTI","shapeISO":"","shapeGroup":"ROU","shapeType":"ADM2","adm1ISO":"RO-BR","parentISO":"RO-BR","parentID":"ROU:ADM1:RO-BR","src_shape_id":"2599482B652053603883"},"geometry":{"type":"Polygon","coordinates":[[[27.94267,45.101441],[27.948099,45.106886],[27.954412,45.116295],[27.960567,45.123443],[27.962392,45.126573],[27.965115,45.133991],[27.965604,45.137699],[27.964669,45.14262],[27.962424,45.145479],[27.957399,45.149525],[27.950666,45.155769],[27.946932,45.160626],[27.943158,45.167327],[27.937013,45.168209],[27.933313,45.167779],[27.92771,45.165707],[27.927111,45.162241],[27.925296,45.159179],[27.919717,45.160606],[27.895139,45.1683],[27.887195,45.17168],[27.877973,45.174069],[27.868003,45.179804],[27.861515,45.174664],[27.847836,45.178891],[27.822948,45.169436],[27.818863,45.159589],[27.811247,45.142103],[27.825754,45.137053],[27.839335,45.131869],[27.838759,45.131232],[27.852023,45.126288],[27.896043,45.110381],[27.898927,45.10946],[27.905989,45.117254],[27.929162,45.109188],[27.94267,45.101441]]]}},
{"type":"Feature","id":"ROU:ADM2:RO-BR.jirlau","properties":{"shapeName":"JIRLAU","shapeISO":"","shapeGroup":"ROU","shapeType":"ADM2","adm1ISO":"RO-BR","parentISO":"RO-BR","parentID":"ROU:ADM1:RO-BR","src_shape_id":"2599482B33661790192298"},"geometry":{"type":"Polygon","coordinates":[[[27.187391,45.109013],[27.190376,45.109526],[27.19386,45.112405],[27.19629,45.113318],[27.199739,45.111972],[27.197534,45.109514],[27.199601,45.107849],[27.202852,45.111011],[27.205347,45.111567],[27.207516,45.11047],[27.223246,45.113591],[27.226289,45.114355],[27.229474,45.116472],[27.235511,45.11828],[27.240117,45.120249],[27.246592,45.121916],[27.248701,45.122973],[27.255681,45.124443],[27.254288,45.13015],[27.260996,45.133547],[27.26037,45.136093],[27.243274,45.155421],[27.243597,45.156337],[27.238736,45.158172],[27.224364,45.168899],[27.199731,45.171698],[27.189513,45.17432],[27.190757,45.179711],[27.191954,45.179502],[27.197855,45.185048],[27.189466,45.189162],[27.196435,45.196101],[27.200266,45.206806],[27.184468,45.214617],[27.178698,45.204282],[27.184659,45.201403],[27.177259,45.194322],[27.179639,45.193958],[27.177627,45.188691],[27.177058,45.183682],[27.18015,45.180101],[27.176474,45.179554],[27.176157,45.177583],[27.15259,45.176176],[27.149589,45.17122],[27.151688,45.161993],[27.151718,45.156862],[27.160224,45.129676],[27.167021,45.109813],[27.178315,45.113262],[27.183374,45.111956],[27.187391,45.109013]]]}},
{"type":"Feature","id":"ROU:ADM2:RO-BR.movila-miresii","properties":{"shapeName":"MOVILA MIRESII","shapeISO":"","shapeGroup":"ROU","shapeType":"ADM2","adm1ISO":"RO-BR","parentISO":"RO-BR","parentID":"ROU:ADM1:RO-BR","src_shape_id":"2599482B19893524753905"},"geometry":{"type":"Polygon","coordinates":[[[27.671741,45.250631],[27.670445,45.259584],[27.623171,45.252215],[27.599098,45.248783],[27.604703,45.236714],[27.586277,45.23099],[27.582299,45.23722],[27.579156,45.235932],[27.554714,45.228171],[27.551164,45.231832],[27.545396,45.229106],[27.537297,45.220127],[27.539666,45.219164],[27.533385,45.208221],[27.540852,45.206245],[27.533926,45.192932],[27.534743,45.192818],[27.5766,45.163731],[27.595647,45.167284],[27.596377,45.163227],[27.627056,45.169529],[27.668715,45.178247],[27.665669,45.197085],[27.676611,45.195067],[27.690127,45.197464],[27.681425,45.207918],[27.679376,45.207973],[27.671741,45.250631]]]}},
{"type":"Feature","id":"ROU:ADM2:RO-BR.chiscani","properties":{"shapeName":"CHISCANI","shapeISO":"","shapeGroup":"ROU","shapeType":"ADM2","adm1ISO":"RO-BR","parentISO":"RO-BR","parentID":"ROU:ADM1:RO-BR","src_shape_id":"2599482B97827477335554"},"geometry":{"type":"Polygon","coordinates":[[[27.957399,45.149525],[27.96259,45.153568],[27.968845,45.155205],[27.987051,45.158571],[27.990639,45.159872],[27.994454,45.162737],[27.997538,45.16833],[27.997897,45.175481],[27.994641,45.187477],[27.978652,45.209678],[27.973835,45.214599],[27.968739,45.221688],[27.966688,45.226136],[27.966387,45.231211],[27.965115,45.240115],[27.952208,45.231008],[27.93342,45.235983],[27.919306,45.219677],[27.919522,45.216958],[27.92353,45.217181],[27.918074,45.211003],[27.907172,45.199927],[27.912939,45.196707],[27.911089,45.195046],[27.911754,45.193286],[27.918742,45.189416],[27.917451,45.188226],[27.910749,45.187498],[27.906236,45.18345],[27.903049,45.183504],[27.903497,45.181346],[27.918164,45.173942],[27.920425,45.171088],[27.912163,45.174594],[27.898718,45.181772],[27.899409,45.18382],[27.89327,45.187474],[27.900939,45.19433],[27.902019,45.196013],[27.913699,45.206563],[27.917966,45.211053],[27.910709,45.212881],[27.905253,45.215712],[27.904675,45.219389],[27.907954,45.223395],[27.916352,45.226572],[27.920177,45.221276],[27.933214,45.236169],[27.928044,45.238411],[27.931257,45.240319],[27.927066,45.249001],[27.925469,45.254098],[27.923438,45.258328],[27.918124,45.2579],[27.911342,45.258642],[27.901119,45.254755],[27.893211,45.251325],[27.887045,45.250134],[27.875758,45.24687],[27.869226,45.24557],[27.845505,45.241568],[27.849097,45.230874],[27.861264,45.224885],[27.826007,45.199151],[27.819146,45.196762],[27.795029,45.194163],[27.789944,45.171794],[27.791069,45.170664],[27.80553,45.176103],[27.822948,45.169436],[27.847836,45.178891],[27.861515,45.174664],[27.868003,45.179804],[27.877973,45.174069],[27.887195,45.17168],[27.895139,45.1683],[27.919717,45.160606],[27.925296,45.159179],[27.927111,45.162241],[27.92771,45.165707],[27.933313,45.167779],[27.937013,45.168209],[27.943158,45.167327],[27.946932,45.160626],[27.950666,45.155769],[27.957399,45.149525]]]}},
{"type":"Feature","id":"ROU:ADM2:RO-BR.sutesti","properties":{"shapeName":"SUTESTI","shapeISO":"","shapeGroup":"ROU","shapeType":"ADM2","adm1ISO":"RO-BR","parentISO":"RO-BR","parentID":"ROU:ADM1:RO-BR","src_shape_id":"2599482B82719794647179"},"geometry":{"type":"Polygon","coordinates":[[[27.551164,45.231832],[27.534942,45.248249],[27.488124,45.263347],[27.463242,45.270971],[27.460597,45.272533],[27.453013,45.273899],[27.450431,45.272842],[27.448425,45.273595],[27.444085,45.273825],[27.443313,45.270333],[27.448131,45.268015],[27.454557,45.269231],[27.453335,45.266588],[27.450392,45.263514],[27.446064,45.262969],[27.445948,45.26058],[27.441616,45.257598],[27.443016,45.255316],[27.440519,45.254162],[27.440428,45.250518],[27.442422,45.246707],[27.437287,45.24727],[27.434039,45.248478],[27.433753,45.245535],[27.439304,45.245749],[27.442773,45.242444],[27.438227,45.241804],[27.43409,45.243],[27.432993,45.241515],[27.438134,45.239456],[27.440299,45.240806],[27.442357,45.239035],[27.438644,45.235395],[27.436587,45.231696],[27.429277,45.230055],[27.425155,45.231106],[27.429249,45.234415],[27.422117,45.2362],[27.421435,45.237389],[27.426696,45.239871],[27.429927,45.242132],[27.429484,45.243946],[27.422054,45.243162],[27.420025,45.246365],[27.417535,45.24735],[27.396371,45.238537],[27.394351,45.23805],[27.382565,45.2312],[27.380528,45.229184],[27.378248,45.224075],[27.387158,45.218247],[27.385398,45.21512],[27.381604,45.214175],[27.381677,45.208349],[27.3825,45.20628],[27.39788,45.20333],[27.397515,45.205357],[27.414192,45.208577],[27.421398,45.209424],[27.44682,45.212835],[27.447529,45.212582],[27.452196,45.219944],[27.468045,45.213879],[27.487746,45.20613],[27.490941,45.204417],[27.500248,45.200978],[27.491666,45.188962],[27.510854,45.182023],[27.512497,45.183462],[27.533926,45.192932],[27.540852,45.206245],[27.533385,45.208221],[27.539666,45.219164],[27.537297,45.220127],[27.545396,45.229106],[27.551164,45.231832]]]}},
{"type":"Feature","id":"ROU:ADM2:RO-BR.tudor-vladimirescu","properties":{"shapeName":"TUDOR VLADIMIRESCU","shapeISO":"","shapeGroup":"ROU","shapeType":"ADM2","adm1ISO":"RO-BR","parentISO":"RO-BR","parentID":"ROU:ADM1:RO-BR","src_shape_id":"2599482B82586495154096"},"geometry":{"type":"Polygon","coordinates":[[[27.681425,45.207918],[27.682902,45.206965],[27.687944,45.207568],[27.688198,45.206355],[27.716891,45.209957],[27.717653,45.202545],[27.715744,45.197431],[27.726556,45.198462],[27.726684,45.202749],[27.771295,45.208003],[27.784059,45.209611],[27.785401,45.193088],[27.795029,45.194163],[27.819146,45.196762],[27.826007,45.199151],[27.861264,45.224885],[27.849097,45.230874],[27.845505,45.241568],[27.842597,45.241095],[27.834556,45.264496],[27.827065,45.265068],[27.8273,45.26865],[27.81032,45.270816],[27.810054,45.266831],[27.814299,45.252522],[27.782536,45.246849],[27.772691,45.250253],[27.766468,45.252624],[27.758335,45.25486],[27.738886,45.259206],[27.729137,45.260962],[27.707889,45.257841],[27.692252,45.254314],[27.692593,45.252484],[27.671741,45.250631],[27.679376,45.207973],[27.681425,45.207918]]]}},
{"type":"Feature","id":"ROU:ADM2:RO-BR.frecatei","properties":{"shapeName":"FRECATEI","shapeISO":"","shapeGroup":"ROU","shapeType":"ADM2","adm1ISO":"RO-BR","parentISO":"RO-BR","parentID":"ROU:ADM1:RO-BR","src_shape_id":"2599482B580014738144"},"geometry":{"type":"Polygon","coordinates":[[[28.068115,45.252249],[28.057715,45.254742],[28.046031,45.258002],[28.038164,45.260587],[28.027821,45.264547],[28.018179,45.269524],[28.021898,45.263031],[28.022871,45.258386],[28.024015,45.25815],[28.022804,45.253056],[28.023084,45.251369],[28.01989,45.246825],[28.018821,45.242869],[28.020819,45.236438],[28.024232,45.231726],[28.027573,45.230391],[28.024251,45.220656],[28.024204,45.218685],[28.028774,45.213319],[28.032803,45.21349],[28.036593,45.210282],[28.043384,45.2059],[28.052005,45.203665],[28.050935,45.180632],[28.050586,45.179198],[28.049673,45.158838],[28.048473,45.13687],[28.047503,45.13553],[28.042797,45.135414],[28.039127,45.13448],[28.034504,45.131751],[28.034231,45.129224],[28.033758,45.111407],[28.032664,45.091444],[28.034,45.079148],[28.034929,45.075943],[28.032964,45.03466],[28.031212,44.996037],[28.030351,44.980744],[28.02857,44.973538],[28.02846,44.967185],[28.026992,44.947166],[28.026343,44.929807],[28.024287,44.927691],[28.024036,44.922583],[28.022263,44.920102],[28.014322,44.91323],[28.013504,44.893266],[28.016499,44.892524],[28.01569,44.877522],[28.015098,44.873952],[28.014269,44.855778],[28.009185,44.852432],[28.000647,44.852381],[27.99624,44.850691],[27.995638,44.846522],[27.994362,44.818351],[27.999948,44.818154],[27.999048,44.798389],[27.99855,44.794021],[27.997139,44.759801],[28.004437,44.757603],[28.009554,44.757266],[28.015544,44.757852],[28.020648,44.76002],[28.025382,44.763781],[28.02934,44.763749],[28.033432,44.760414],[28.036954,44.760964],[28.03902,44.764556],[28.046302,44.77405],[28.051268,44.776456],[28.059769,44.779814],[28.062578,44.781392],[28.067028,44.786914],[28.070682,44.794948],[28.074835,44.801125],[28.074147,44.803893],[28.074124,44.812237],[28.076424,44.819922],[28.079531,44.823343],[28.082482,44.830042],[28.087464,44.83461],[28.090118,44.838282],[28.096047,44.844418],[28.097582,44.846826],[28.097165,44.85111],[28.098115,44.857647],[28.100072,44.861422],[28.103704,44.865373],[28.108686,44.869885],[28.112411,44.872036],[28.11999,44.875483],[28.126477,44.876649],[28.132878,44.879494],[28.137974,44.883805],[28.142354,44.890027],[28.14199,44.893007],[28.13372,44.896178],[28.130145,44.899551],[28.127335,44.904105],[28.125127,44.915158],[28.124886,44.922034],[28.129632,44.941744],[28.133291,44.949309],[28.138124,44.956204],[28.147527,44.965277],[28.150789,44.970554],[28.151267,44.975231],[28.150004,44.977015],[28.14382,44.977898],[28.142364,44.979201],[28.139078,44.98895],[28.135402,44.994525],[28.132645,45.003449],[28.12849,45.013633],[28.129118,45.018101],[28.131611,45.024171],[28.135737,45.028685],[28.139213,45.031321],[28.152006,45.034857],[28.152374,45.038209],[28.14774,45.046632],[28.146299,45.050433],[28.141246,45.058405],[28.138663,45.064377],[28.134182,45.082417],[28.13557,45.087488],[28.134861,45.098718],[28.136198,45.102695],[28.140396,45.103944],[28.147502,45.1011],[28.160406,45.10024],[28.168665,45.099981],[28.172363,45.100346],[28.17574,45.101887],[28.17898,45.105712],[28.178685,45.108396],[28.170032,45.118482],[28.169624,45.122111],[28.173957,45.126279],[28.182847,45.130345],[28.193611,45.13423],[28.197684,45.136875],[28.196247,45.140027],[28.192147,45.141861],[28.188953,45.141185],[28.181254,45.143642],[28.173619,45.147273],[28.159888,45.156271],[28.15109,45.162274],[28.140909,45.168467],[28.136144,45.170604],[28.119094,45.176703],[28.109021,45.181637],[28.093627,45.188303],[28.091313,45.191222],[28.093482,45.194535],[28.102707,45.202786],[28.109368,45.209836],[28.117358,45.218986],[28.129821,45.23229],[28.130606,45.233806],[28.128809,45.236479],[28.122841,45.24056],[28.119629,45.24665],[28.118516,45.252648],[28.11608,45.258009],[28.113497,45.259193],[28.109724,45.258104],[28.105792,45.254094],[28.101096,45.25118],[28.094768,45.249442],[28.08475,45.249595],[28.068115,45.252249]]]}},
{"type":"Feature","id":"ROU:ADM2:RO-BR.marasu","properties":{"shapeName":"MARASU","shapeISO":"","shapeGroup":"ROU","shapeType":"ADM2","adm1ISO":"RO-BR","parentISO":"RO-BR","parentID":"ROU:ADM1:RO-BR","src_shape_id":"2599482B39653886618444"},"geometry":{"type":"Polygon","coordinates":[[[27.897183,44.772474],[27.904663,44.773259],[27.92057,44.775542],[27.929313,44.777819],[27.945426,44.780475],[27.953799,44.779781],[27.958965,44.77819],[27.97436,44.771925],[27.980681,44.767394],[27.991317,44.761897],[27.997139,44.759801],[27.99855,44.794021],[27.999048,44.798389],[27.999948,44.818154],[27.994362,44.818351],[27.995638,44.846522],[27.99624,44.850691],[28.000647,44.852381],[28.009185,44.852432],[28.014269,44.855778],[28.015098,44.873952],[28.01569,44.877522],[28.016499,44.892524],[28.013504,44.893266],[28.014322,44.91323],[28.022263,44.920102],[28.024036,44.922583],[28.024287,44.927691],[28.026343,44.929807],[28.026992,44.947166],[28.02846,44.967185],[28.02857,44.973538],[28.030351,44.980744],[28.031212,44.996037],[28.032964,45.03466],[28.034929,45.075943],[28.034,45.079148],[28.032664,45.091444],[28.033758,45.111407],[28.034231,45.129224],[28.034504,45.131751],[28.039127,45.13448],[28.042797,45.135414],[28.047503,45.13553],[28.048473,45.13687],[28.049673,45.158838],[28.050586,45.179198],[28.050935,45.180632],[28.052005,45.203665],[28.043384,45.2059],[28.036593,45.210282],[28.032803,45.21349],[28.028774,45.213319],[28.024204,45.218685],[28.024251,45.220656],[28.027573,45.230391],[28.024232,45.231726],[28.020819,45.236438],[28.018821,45.242869],[28.01989,45.246825],[28.023084,45.251369],[28.022804,45.253056],[28.024015,45.25815],[28.022871,45.258386],[28.021898,45.263031],[28.018179,45.269524],[28.011842,45.274094],[28.004075,45.280987],[27.994844,45.286751],[27.982431,45.267291],[27.975436,45.262153],[27.97148,45.257109],[27.965115,45.240115],[27.966387,45.231211],[27.966688,45.226136],[27.968739,45.221688],[27.973835,45.214599],[27.978652,45.209678],[27.994641,45.187477],[27.997897,45.175481],[27.997538,45.16833],[27.994454,45.162737],[27.990639,45.159872],[27.987051,45.158571],[27.968845,45.155205],[27.96259,45.153568],[27.957399,45.149525],[27.962424,45.145479],[27.964669,45.14262],[27.965604,45.137699],[27.965115,45.133991],[27.962392,45.126573],[27.960567,45.123443],[27.954412,45.116295],[27.948099,45.106886],[27.94267,45.101441],[27.932881,45.093269],[27.928081,45.088251],[27.924157,45.083094],[27.914723,45.068979],[27.913612,45.062579],[27.910936,45.050971],[27.911756,45.047061],[27.915569,45.043724],[27.919941,45.041458],[27.920391,45.039925],[27.918034,45.035311],[27.918107,45.033599],[27.920909,45.0318],[27.92563,45.032011],[27.928081,45.030753],[27.928978,45.028095],[27.929224,45.022537],[27.930405,45.02034],[27.933138,45.0125],[27.932604,45.007872],[27.930931,45.003304],[27.931739,44.999367],[27.931353,44.996131],[27.929261,44.990476],[27.929843,44.986588],[27.931966,44.980671],[27.932748,44.978571],[27.932564,44.973041],[27.929354,44.967522],[27.922025,44.963734],[27.921264,44.961868],[27.922315,44.957298],[27.927302,44.949412],[27.928135,44.942594],[27.925318,44.935644],[27.925538,44.930075],[27.928816,44.926906],[27.932434,44.926369],[27.937756,44.926936],[27.939857,44.92588],[27.940573,44.922493],[27.938115,44.918556],[27.930364,44.912464],[27.928076,44.908439],[27.92353,44.909806],[27.923133,44.904466],[27.925695,44.90472],[27.922948,44.90008],[27.919433,44.895925],[27.917841,44.891871],[27.917822,44.888877],[27.919547,44.885775],[27.923527,44.881091],[27.924936,44.877876],[27.923585,44.871186],[27.926879,44.863005],[27.922016,44.861653],[27.916804,44.862368],[27.913391,44.860353],[27.925133,44.858594],[27.928272,44.855886],[27.932469,44.855227],[27.934817,44.856292],[27.941418,44.853956],[27.945588,44.851195],[27.946507,44.846998],[27.947958,44.843938],[27.951121,44.840419],[27.953203,44.834404],[27.95244,44.833022],[27.946698,44.833433],[27.938884,44.830264],[27.936021,44.828302],[27.933691,44.828729],[27.931816,44.825878],[27.924572,44.824539],[27.924009,44.823569],[27.924916,44.814827],[27.918937,44.814672],[27.911287,44.813457],[27.905848,44.810504],[27.903735,44.813167],[27.893831,44.813701],[27.891361,44.794517],[27.889068,44.792755],[27.888667,44.790058],[27.886632,44.79012],[27.88616,44.787126],[27.904353,44.790415],[27.90676,44.791119],[27.907908,44.784733],[27.907002,44.782415],[27.900158,44.776363],[27.897183,44.772474]]]}},
{"type":"Feature","id":"ROU:ADM2:RO-BR.cazasu","properties":{"shapeName":"CAZASU","shapeISO":"","shapeGroup":"ROU","shapeType":"ADM2","adm1ISO":"RO-BR","parentISO":"RO-BR","parentID":"ROU:ADM1:RO-BR","src_shape_id":"2599482B82277665245942"},"geometry":{"type":"Polygon","coordinates":[[[27.923438,45.258328],[27.918973,45.269946],[27.919649,45.27831],[27.921074,45.280972],[27.90853,45.285144],[27.896796,45.288987],[27.895653,45.286948],[27.886364,45.290054],[27.871394,45.295418],[27.86786,45.297901],[27.861621,45.300301],[27.859608,45.298419],[27.857131,45.299112],[27.852894,45.287679],[27.849393,45.277928],[27.845218,45.263978],[27.834556,45.264496],[27.842597,45.241095],[27.845505,45.241568],[27.869226,45.24557],[27.875758,45.24687],[27.887045,45.250134],[27.893211,45.251325],[27.901119,45.254755],[27.911342,45.258642],[27.918124,45.2579],[27.923438,45.258328]]]}},
{"type":"Feature","id":"ROU:ADM2:RO-BR.gemenele","properties":{"shapeName":"GEMENELE","shapeISO":"","shapeGroup":"ROU","shapeType":"ADM2","adm1ISO":"RO-BR","parentISO":"RO-BR","parentID":"ROU:ADM1:RO-BR","src_shape_id":"2599482B65666711084077"},"geometry":{"type":"Polygon","coordinates":[[[27.671741,45.250631],[27.692593,45.252484],[27.692252,45.254314],[27.684689,45.278915],[27.679141,45.296451],[27.670725,45.296172],[27.667915,45.302871],[27.66201,45.302158],[27.652549,45.319709],[27.627008,45.312192],[27.62846,45.309203],[27.611419,45.305289],[27.601817,45.30337],[27.579813,45.298313],[27.593182,45.274395],[27.58784,45.273152],[27.599098,45.248783],[27.623171,45.252215],[27.670445,45.259584],[27.671741,45.250631]]]}},
{"type":"Feature","id":"ROU:ADM2:RO-BR.braila","properties":{"shapeName":"BRAILA","shapeISO":"","shapeGroup":"ROU","shapeType":"ADM2","adm1ISO":"RO-BR","parentISO":"RO-BR","parentID":"ROU:ADM1:RO-BR","src_shape_id":"2599482B33603161036297"},"geometry":{"type":"Polygon","coordinates":[[[27.965115,45.240115],[27.97148,45.257109],[27.975436,45.262153],[27.982431,45.267291],[27.994844,45.286751],[27.997554,45.301359],[27.999218,45.308177],[27.985001,45.310523],[27.978591,45.310433],[27.975059,45.31291],[27.966362,45.312224],[27.959324,45.311208],[27.950893,45.312694],[27.943583,45.313496],[27.944168,45.311465],[27.940102,45.310967],[27.936258,45.308119],[27.933389,45.30985],[27.929424,45.309737],[27.934926,45.304518],[27.93528,45.303285],[27.93144,45.295672],[27.925,45.297937],[27.921978,45.292331],[27.915091,45.294834],[27.90853,45.285144],[27.921074,45.280972],[27.919649,45.27831],[27.918973,45.269946],[27.923438,45.258328],[27.925469,45.254098],[27.927066,45.249001],[27.931257,45.240319],[27.928044,45.238411],[27.933214,45.236169],[27.920177,45.221276],[27.916352,45.226572],[27.907954,45.223395],[27.904675,45.219389],[27.905253,45.215712],[27.910709,45.212881],[27.917966,45.211053],[27.913699,45.206563],[27.902019,45.196013],[27.900939,45.19433],[27.89327,45.187474],[27.899409,45.18382],[27.898718,45.181772],[27.912163,45.174594],[27.920425,45.171088],[27.918164,45.173942],[27.903497,45.181346],[27.903049,45.183504],[27.906236,45.18345],[27.910749,45.187498],[27.917451,45.188226],[27.918742,45.189416],[27.911754,45.193286],[27.911089,45.195046],[27.912939,45.196707],[27.907172,45.199927],[27.918074,45.211003],[27.92353,45.217181],[27.919522,45.216958],[27.919306,45.219677],[27.93342,45.235983],[27.952208,45.231008],[27.965115,45.240115]]]}},
{"type":"Feature","id":"ROU:ADM2:RO-BR.ramnicelu","properties":{"shapeName":"RAMNICELU","shapeISO":"","shapeGroup":"ROU","shapeType":"ADM2","adm1ISO":"RO-BR","parentISO":"RO-BR","parentID":"ROU:ADM1:RO-BR","src_shape_id":"2599482B58935779771922"},"geometry":{"type":"Polygon","coordinates":[[[27.599098,45.248783],[27.58784,45.273152],[27.593182,45.274395],[27.579813,45.298313],[27.575021,45.307973],[27.565979,45.304886],[27.550567,45.31681],[27.55341,45.318728],[27.553525,45.321503],[27.551371,45.32284],[27.547098,45.323541],[27.542401,45.32307],[27.540904,45.324967],[27.541354,45.327083],[27.543038,45.345946],[27.540153,45.345106],[27.527417,45.341458],[27.530984,45.330849],[27.519855,45.327871],[27.514961,45.325804],[27.50469,45.32287],[27.495414,45.320592],[27.492382,45.322302],[27.483826,45.320032],[27.483015,45.320321],[27.474341,45.306193],[27.473617,45.303311],[27.478915,45.299623],[27.483486,45.298471],[27.486481,45.296945],[27.48187,45.293735],[27.477482,45.291903],[27.475039,45.293532],[27.469029,45.293356],[27.46362,45.293887],[27.456802,45.291154],[27.447012,45.288135],[27.439733,45.282463],[27.442834,45.28282],[27.445456,45.280107],[27.444989,45.276952],[27.451049,45.277175],[27.451626,45.275151],[27.448425,45.273595],[27.450431,45.272842],[27.453013,45.273899],[27.460597,45.272533],[27.463242,45.270971],[27.488124,45.263347],[27.534942,45.248249],[27.551164,45.231832],[27.554714,45.228171],[27.579156,45.235932],[27.582299,45.23722],[27.586277,45.23099],[27.604703,45.236714],[27.599098,45.248783]]]}},
{"type":"Feature","id":"ROU:ADM2:RO-BR.racovita","properties":{"shapeName":"RACOVITA","shapeISO":"","shapeGroup":"ROU","shapeType":"ADM2","adm1ISO":"RO-BR","parentISO":"RO-BR","parentID":"ROU:ADM1:RO-BR","src_shape_id":"2599482B6891697866435"},"geometry":{"type":"Polygon","coordinates":[[[27.448425,45.273595],[27.451626,45.275151],[27.451049,45.277175],[27.444989,45.276952],[27.445456,45.280107],[27.442834,45.28282],[27.439733,45.282463],[27.447012,45.288135],[27.456802,45.291154],[27.46362,45.293887],[27.469029,45.293356],[27.475039,45.293532],[27.477482,45.291903],[27.48187,45.293735],[27.486481,45.296945],[27.483486,45.298471],[27.478915,45.299623],[27.473617,45.303311],[27.474341,45.306193],[27.483015,45.320321],[27.483826,45.320032],[27.492382,45.322302],[27.495414,45.320592],[27.50469,45.32287],[27.514961,45.325804],[27.519855,45.327871],[27.530984,45.330849],[27.527417,45.341458],[27.486077,45.329627],[27.48436,45.332614],[27.480272,45.332776],[27.467461,45.354862],[27.457527,45.352137],[27.44335,45.376365],[27.441739,45.375741],[27.424496,45.368516],[27.406896,45.361386],[27.404569,45.363402],[27.398408,45.36155],[27.399575,45.358264],[27.40229,45.355987],[27.407875,45.352961],[27.407785,45.345839],[27.40974,45.342721],[27.408855,45.340387],[27.4105,45.333075],[27.418605,45.31265],[27.426175,45.292766],[27.433811,45.254447],[27.440519,45.254162],[27.443016,45.255316],[27.441616,45.257598],[27.445948,45.26058],[27.446064,45.262969],[27.450392,45.263514],[27.453335,45.266588],[27.454557,45.269231],[27.448131,45.268015],[27.443313,45.270333],[27.444085,45.273825],[27.448425,45.273595]]]}},
{"type":"Feature","id":"ROU:ADM2:RO-BR.vadeni","properties":{"shapeName":"VADENI","shapeISO":"","shapeGroup":"ROU","shapeType":"ADM2","adm1ISO":"RO-BR","parentISO":"RO-BR","parentID":"ROU:ADM1:RO-BR","src_shape_id":"2599482B78618154614063"},"geometry":{"type":"Polygon","coordinates":[[[27.90853,45.285144],[27.915091,45.294834],[27.921978,45.292331],[27.925,45.297937],[27.93144,45.295672],[27.93528,45.303285],[27.934926,45.304518],[27.929424,45.309737],[27.933389,45.30985],[27.936258,45.308119],[27.940102,45.310967],[27.944168,45.311465],[27.943583,45.313496],[27.950893,45.312694],[27.959324,45.311208],[27.966362,45.312224],[27.975059,45.31291],[27.978591,45.310433],[27.985001,45.310523],[27.999218,45.308177],[28.004674,45.316017],[28.008486,45.32046],[28.010053,45.323729],[28.010949,45.330637],[28.012151,45.334174],[28.022892,45.352509],[28.024628,45.359489],[28.027025,45.368373],[28.027279,45.375397],[28.026426,45.381444],[28.026266,45.388813],[28.026701,45.393499],[28.028789,45.40047],[28.03055,45.404338],[28.014768,45.401384],[28.012159,45.400244],[28.005843,45.396145],[28.002609,45.396218],[27.996927,45.400055],[27.992715,45.400268],[27.98872,45.393165],[27.985646,45.391015],[27.983007,45.390636],[27.979758,45.393585],[27.97555,45.395946],[27.970255,45.396084],[27.964769,45.399395],[27.956014,45.402807],[27.946692,45.405261],[27.941521,45.406087],[27.926305,45.405286],[27.922114,45.405642],[27.916805,45.407032],[27.91231,45.409192],[27.904175,45.414362],[27.89732,45.417571],[27.889085,45.42007],[27.885649,45.417241],[27.88051,45.416689],[27.875769,45.417873],[27.873072,45.416605],[27.872605,45.410667],[27.87062,45.408385],[27.867074,45.407381],[27.865546,45.405829],[27.866519,45.403651],[27.870219,45.40191],[27.870155,45.399131],[27.865633,45.396983],[27.856497,45.396505],[27.849708,45.399265],[27.843298,45.400046],[27.841632,45.396035],[27.844182,45.387037],[27.839276,45.382597],[27.846345,45.379458],[27.845278,45.375018],[27.850006,45.373132],[27.844488,45.359667],[27.841907,45.354381],[27.834037,45.335456],[27.849555,45.332795],[27.873154,45.328257],[27.870302,45.322057],[27.863214,45.322133],[27.860397,45.320856],[27.855664,45.320484],[27.850868,45.321245],[27.848877,45.322933],[27.848424,45.325827],[27.845939,45.325706],[27.844584,45.320715],[27.842262,45.315142],[27.847853,45.312844],[27.840708,45.294285],[27.852894,45.287679],[27.857131,45.299112],[27.859608,45.298419],[27.861621,45.300301],[27.86786,45.297901],[27.871394,45.295418],[27.886364,45.290054],[27.895653,45.286948],[27.896796,45.288987],[27.90853,45.285144]]]}},
{"type":"Feature","id":"ROU:ADM2:RO-BR.ianca","properties":{"shapeName":"IANCA","shapeISO":"","shapeGroup":"ROU","shapeType":"ADM2","adm1ISO":"RO-BR","parentISO":"RO-BR","parentID":"ROU:ADM1:RO-BR","src_shape_id":"2599482B90302220331569"},"geometry":{"type":"Polygon","coordinates":[[[27.533926,45.192932],[27.512497,45.183462],[27.510854,45.182023],[27.491666,45.188962],[27.500248,45.200978],[27.490941,45.204417],[27.487746,45.20613],[27.468045,45.213879],[27.452196,45.219944],[27.447529,45.212582],[27.44682,45.212835],[27.421398,45.209424],[27.418724,45.194802],[27.398525,45.17019],[27.411884,45.172263],[27.414527,45.160758],[27.42313,45.161635],[27.424203,45.160554],[27.413436,45.147806],[27.417758,45.146046],[27.415289,45.142886],[27.418489,45.141527],[27.419393,45.139271],[27.423653,45.133619],[27.437228,45.11746],[27.437807,45.117555],[27.446475,45.100373],[27.451344,45.090238],[27.451073,45.089369],[27.427257,45.083784],[27.41714,45.081705],[27.424069,45.072387],[27.428669,45.072718],[27.43815,45.054382],[27.451718,45.057448],[27.457322,45.044101],[27.478535,45.048638],[27.483831,45.049413],[27.495423,45.017726],[27.511833,45.018514],[27.514942,45.030384],[27.518875,45.042333],[27.522201,45.043234],[27.519461,45.049965],[27.520257,45.071239],[27.544644,45.068954],[27.543436,45.084957],[27.55749,45.085785],[27.548392,45.100303],[27.571396,45.106942],[27.564601,45.117994],[27.577913,45.122738],[27.591924,45.127372],[27.58666,45.134895],[27.603487,45.140856],[27.605956,45.141459],[27.609566,45.13866],[27.609659,45.145981],[27.594077,45.145465],[27.587705,45.161125],[27.58138,45.159789],[27.5766,45.163731],[27.534743,45.192818],[27.533926,45.192932]]]}},
{"type":"Feature","id":"ROU:ADM2:RO-BR.gradistea","properties":{"shapeName":"GRADISTEA","shapeISO":"","shapeGroup":"ROU","shapeType":"ADM2","adm1ISO":"RO-BR","parentISO":"RO-BR","parentID":"ROU:ADM1:RO-BR","src_shape_id":"2599482B92536621414341"},"geometry":{"type":"Polygon","coordinates":[[[27.440519,45.254162],[27.433811,45.254447],[27.426175,45.292766],[27.418605,45.31265],[27.4105,45.333075],[27.408855,45.340387],[27.391504,45.337284],[27.393177,45.331621],[27.379785,45.329764],[27.381571,45.326243],[27.381404,45.323705],[27.38715,45.317609],[27.389149,45.312194],[27.388696,45.302913],[27.387921,45.295961],[27.386859,45.293192],[27.387176,45.289836],[27.38958,45.289554],[27.390169,45.286683],[27.3857,45.28512],[27.383941,45.283694],[27.380532,45.283489],[27.376648,45.282152],[27.371743,45.281716],[27.373871,45.276075],[27.368082,45.272569],[27.360675,45.274032],[27.356289,45.276124],[27.348216,45.278543],[27.341404,45.282661],[27.335193,45.284199],[27.332089,45.288528],[27.325731,45.291807],[27.312525,45.292195],[27.313688,45.28729],[27.317492,45.284783],[27.320178,45.280792],[27.323446,45.278101],[27.328027,45.276032],[27.319374,45.2615],[27.33983,45.252736],[27.327855,45.238747],[27.351232,45.231641],[27.350702,45.230754],[27.343958,45.226006],[27.348411,45.224596],[27.365777,45.219098],[27.359415,45.209392],[27.36145,45.207063],[27.360352,45.205083],[27.364522,45.204887],[27.366859,45.203203],[27.363965,45.200002],[27.368356,45.198546],[27.374739,45.203712],[27.376973,45.20738],[27.3825,45.20628],[27.381677,45.208349],[27.381604,45.214175],[27.385398,45.21512],[27.387158,45.218247],[27.378248,45.224075],[27.380528,45.229184],[27.382565,45.2312],[27.394351,45.23805],[27.396371,45.238537],[27.417535,45.24735],[27.420025,45.246365],[27.422054,45.243162],[27.429484,45.243946],[27.429927,45.242132],[27.426696,45.239871],[27.421435,45.237389],[27.422117,45.2362],[27.429249,45.234415],[27.425155,45.231106],[27.429277,45.230055],[27.436587,45.231696],[27.438644,45.235395],[27.442357,45.239035],[27.440299,45.240806],[27.438134,45.239456],[27.432993,45.241515],[27.43409,45.243],[27.438227,45.241804],[27.442773,45.242444],[27.439304,45.245749],[27.433753,45.245535],[27.434039,45.248478],[27.437287,45.24727],[27.442422,45.246707],[27.440428,45.250518],[27.440519,45.254162]]]}},
{"type":"Feature","id":"ROU:ADM2:RO-BR.salcia-tudor","properties":{"shapeName":"SALCIA TUDOR","shapeISO":"","shapeGroup":"ROU","shapeType":"ADM2","adm1ISO":"RO-BR","parentISO":"RO-BR","parentID":"ROU:ADM1:RO-BR","src_shape_id":"2599482B15573123019161"},"geometry":{"type":"Polygon","coordinates":[[[27.540153,45.345106],[27.533164,45.357325],[27.538587,45.358818],[27.533433,45.369217],[27.53255,45.37534],[27.531525,45.375377],[27.532515,45.391093],[27.531138,45.391127],[27.531704,45.399034],[27.532327,45.40156],[27.536584,45.408926],[27.54159,45.416381],[27.545798,45.423673],[27.552987,45.421923],[27.559237,45.431407],[27.555228,45.432555],[27.563895,45.445298],[27.559373,45.446774],[27.56738,45.458466],[27.587548,45.451749],[27.601448,45.465272],[27.608174,45.464639],[27.611245,45.465948],[27.612725,45.467352],[27.614548,45.471659],[27.613583,45.475009],[27.60274,45.477579],[27.605608,45.482246],[27.600772,45.484198],[27.588214,45.485407],[27.580045,45.490721],[27.57529,45.491667],[27.57265,45.487273],[27.562196,45.490815],[27.558547,45.488385],[27.523776,45.464804],[27.486619,45.439987],[27.46778,45.429473],[27.466894,45.428591],[27.454541,45.421891],[27.440405,45.414801],[27.438693,45.412989],[27.432771,45.409667],[27.435213,45.406883],[27.429441,45.405602],[27.434758,45.394709],[27.441739,45.375741],[27.44335,45.376365],[27.457527,45.352137],[27.467461,45.354862],[27.480272,45.332776],[27.48436,45.332614],[27.486077,45.329627],[27.527417,45.341458],[27.540153,45.345106]]]}},
{"type":"Feature","id":"ROU:ADM2:RO-BR.maxineni","properties":{"shapeName":"MAXINENI","shapeISO":"","shapeGroup":"ROU","shapeType":"ADM2","adm1ISO":"RO-BR","parentISO":"RO-BR","parentID":"ROU:ADM1:RO-BR","src_shape_id":"2599482B99359782124657"},"geometry":{"type":"Polygon","coordinates":[[[27.688569,45.460539],[27.685047,45.46168],[27.681397,45.464595],[27.681965,45.467151],[27.687541,45.468171],[27.692325,45.470982],[27.694873,45.474647],[27.695278,45.478701],[27.693951,45.480791],[27.690676,45.482164],[27.683264,45.479666],[27.673516,45.475012],[27.66721,45.47431],[27.661631,45.471964],[27.65894,45.473938],[27.659589,45.479845],[27.661082,45.483017],[27.664182,45.4898],[27.657529,45.491208],[27.652979,45.489492],[27.656002,45.485713],[27.654956,45.479803],[27.644304,45.478033],[27.643496,45.476967],[27.645786,45.468985],[27.646235,45.462144],[27.628834,45.454651],[27.62722,45.455033],[27.626307,45.459382],[27.624064,45.466176],[27.620548,45.465469],[27.617661,45.466082],[27.612485,45.463815],[27.611245,45.465948],[27.608174,45.464639],[27.601448,45.465272],[27.587548,45.451749],[27.56738,45.458466],[27.559373,45.446774],[27.563895,45.445298],[27.555228,45.432555],[27.559237,45.431407],[27.552987,45.421923],[27.545798,45.423673],[27.54159,45.416381],[27.536584,45.408926],[27.532327,45.40156],[27.531704,45.399034],[27.543431,45.398641],[27.543414,45.394752],[27.572891,45.393701],[27.582153,45.393071],[27.586203,45.388086],[27.584325,45.387404],[27.584485,45.383676],[27.599516,45.369596],[27.603275,45.365442],[27.615829,45.371131],[27.612852,45.374415],[27.654503,45.39314],[27.674197,45.378033],[27.677515,45.374073],[27.681427,45.374655],[27.687293,45.366113],[27.683738,45.365955],[27.690144,45.357302],[27.722818,45.358939],[27.722722,45.360763],[27.744518,45.361803],[27.745352,45.372166],[27.73453,45.377247],[27.732627,45.389777],[27.742779,45.389106],[27.738749,45.403299],[27.746272,45.413358],[27.74609,45.41473],[27.743085,45.41395],[27.73963,45.415369],[27.738501,45.417652],[27.738943,45.421137],[27.742929,45.424285],[27.744176,45.42808],[27.742264,45.431178],[27.743423,45.436232],[27.750954,45.447602],[27.747111,45.448614],[27.740872,45.441888],[27.737156,45.440613],[27.738085,45.436701],[27.730862,45.438479],[27.728339,45.440384],[27.724121,45.440901],[27.720616,45.439573],[27.716782,45.433473],[27.706126,45.437292],[27.704993,45.435512],[27.673268,45.446186],[27.68339,45.461493],[27.687475,45.459466],[27.688569,45.460539]]]}},
{"type":"Feature","id":"ROU:ADM2:RO-BR.silistea","properties":{"shapeName":"SILISTEA","shapeISO":"","shapeGroup":"ROU","shapeType":"ADM2","adm1ISO":"RO-BR","parentISO":"RO-BR","parentID":"ROU:ADM1:RO-BR","src_shape_id":"2599482B85034366886302"},"geometry":{"type":"Polygon","coordinates":[[[27.834556,45.264496],[27.845218,45.263978],[27.849393,45.277928],[27.852894,45.287679],[27.840708,45.294285],[27.847853,45.312844],[27.842262,45.315142],[27.844584,45.320715],[27.845939,45.325706],[27.848424,45.325827],[27.848877,45.322933],[27.850868,45.321245],[27.855664,45.320484],[27.860397,45.320856],[27.863214,45.322133],[27.870302,45.322057],[27.873154,45.328257],[27.849555,45.332795],[27.834037,45.335456],[27.841907,45.354381],[27.844488,45.359667],[27.850006,45.373132],[27.845278,45.375018],[27.846345,45.379458],[27.839276,45.382597],[27.844182,45.387037],[27.841632,45.396035],[27.843298,45.400046],[27.837162,45.399143],[27.83022,45.399178],[27.823583,45.396508],[27.820659,45.396854],[27.817149,45.399725],[27.81357,45.401695],[27.809495,45.403022],[27.79425,45.405935],[27.788301,45.406163],[27.786362,45.406892],[27.78623,45.412047],[27.785309,45.416131],[27.786673,45.419468],[27.783019,45.422311],[27.775391,45.422307],[27.769312,45.41951],[27.765292,45.418845],[27.756547,45.418948],[27.753275,45.418092],[27.74609,45.41473],[27.746272,45.413358],[27.738749,45.403299],[27.742779,45.389106],[27.732627,45.389777],[27.73453,45.377247],[27.745352,45.372166],[27.744518,45.361803],[27.743683,45.352385],[27.754014,45.349677],[27.753373,45.339631],[27.756323,45.314518],[27.770094,45.315492],[27.771774,45.3003],[27.772425,45.291164],[27.772544,45.255051],[27.772691,45.250253],[27.782536,45.246849],[27.814299,45.252522],[27.810054,45.266831],[27.81032,45.270816],[27.8273,45.26865],[27.827065,45.265068],[27.834556,45.264496]]]}},
{"type":"Feature","id":"ROU:ADM2:RO-BR.unirea","properties":{"shapeName":"UNIREA","shapeISO":"","shapeGroup":"ROU","shapeType":"ADM2","adm1ISO":"RO-BR","parentISO":"RO-BR","parentID":"ROU:ADM1:RO-BR","src_shape_id":"2599482B9026576063852"},"geometry":{"type":"Polygon","coordinates":[[[27.822311,45.066372],[27.830058,45.083909],[27.835533,45.097427],[27.826035,45.100757],[27.798035,45.110144],[27.804664,45.125893],[27.80493,45.127416],[27.747493,45.139797],[27.748679,45.142685],[27.736312,45.14407],[27.714412,45.146116],[27.714842,45.140568],[27.709077,45.134378],[27.70872,45.126974],[27.707424,45.124279],[27.709411,45.122377],[27.706609,45.116291],[27.707507,45.113674],[27.706865,45.111299],[27.700146,45.109896],[27.703861,45.107852],[27.70116,45.105701],[27.715559,45.094271],[27.725756,45.085751],[27.728151,45.082994],[27.773536,45.055354],[27.791949,45.043926],[27.822311,45.066372]]]}},
{"type":"Feature","id":"ROU:ADM2:RO-BR.viziru","properties":{"shapeName":"VIZIRU","shapeISO":"","shapeGroup":"ROU","shapeType":"ADM2","adm1ISO":"RO-BR","parentISO":"RO-BR","parentID":"ROU:ADM1:RO-BR","src_shape_id":"2599482B41463898366157"},"geometry":{"type":"Polygon","coordinates":[[[27.709028,44.955242],[27.720815,44.970732],[27.743449,44.965878],[27.764354,44.994987],[27.73399,45.001291],[27.763869,45.023153],[27.791949,45.043926],[27.773536,45.055354],[27.728151,45.082994],[27.683406,45.058736],[27.680496,45.057213],[27.64183,45.055038],[27.641575,45.013671],[27.641492,44.977122],[27.67939,44.964773],[27.709028,44.955242]]]}},
{"type":"Feature","id":"ROU:ADM2:RO-BR.traian","properties":{"shapeName":"TRAIAN","shapeISO":"","shapeGroup":"ROU","shapeType":"ADM2","adm1ISO":"RO-BR","parentISO":"RO-BR","parentID":"ROU:ADM1:RO-BR","src_shape_id":"2599482B34558550347077"},"geometry":{"type":"Polygon","coordinates":[[[27.811247,45.142103],[27.818863,45.159589],[27.822948,45.169436],[27.80553,45.176103],[27.791069,45.170664],[27.789944,45.171794],[27.795029,45.194163],[27.785401,45.193088],[27.784059,45.209611],[27.771295,45.208003],[27.726684,45.202749],[27.726556,45.198462],[27.715744,45.197431],[27.717653,45.202545],[27.716891,45.209957],[27.688198,45.206355],[27.687944,45.207568],[27.682902,45.206965],[27.681425,45.207918],[27.690127,45.197464],[27.676611,45.195067],[27.665669,45.197085],[27.668715,45.178247],[27.627056,45.169529],[27.596377,45.163227],[27.595647,45.167284],[27.5766,45.163731],[27.58138,45.159789],[27.587705,45.161125],[27.594077,45.145465],[27.609659,45.145981],[27.609566,45.13866],[27.605956,45.141459],[27.603487,45.140856],[27.58666,45.134895],[27.591924,45.127372],[27.577913,45.122738],[27.564601,45.117994],[27.571396,45.106942],[27.579907,45.093119],[27.592128,45.093475],[27.612682,45.094972],[27.63638,45.096023],[27.636589,45.082774],[27.659221,45.083973],[27.677508,45.084396],[27.681788,45.063797],[27.683406,45.058736],[27.728151,45.082994],[27.725756,45.085751],[27.715559,45.094271],[27.70116,45.105701],[27.703861,45.107852],[27.700146,45.109896],[27.706865,45.111299],[27.707507,45.113674],[27.706609,45.116291],[27.709411,45.122377],[27.707424,45.124279],[27.70872,45.126974],[27.709077,45.134378],[27.714842,45.140568],[27.714412,45.146116],[27.736312,45.14407],[27.748679,45.142685],[27.747493,45.139797],[27.80493,45.127416],[27.811247,45.142103]]]}},
{"type":"Feature","id":"ROU:ADM2:RO-BR.zavoaia","properties":{"shapeName":"ZAVOAIA","shapeISO":"","shapeGroup":"ROU","shapeType":"ADM2","adm1ISO":"RO-BR","parentISO":"RO-BR","parentID":"ROU:ADM1:RO-BR","src_shape_id":"2599482B8806992520419"},"geometry":{"type":"Polygon","coordinates":[[[27.555887,44.981201],[27.550997,44.980256],[27.543019,44.977389],[27.538729,44.9744],[27.53402,44.973558],[27.525729,44.976107],[27.519371,44.980119],[27.522395,44.985772],[27.524336,44.988233],[27.532901,45.007429],[27.531328,45.007467],[27.526712,45.010359],[27.523477,45.019074],[27.511833,45.018514],[27.495423,45.017726],[27.50133,45.000865],[27.503203,44.982429],[27.49583,44.984866],[27.489959,44.982263],[27.482166,44.982679],[27.477102,44.983579],[27.473625,44.985895],[27.466216,44.987968],[27.462733,44.987076],[27.459787,44.984267],[27.456531,44.982785],[27.452849,44.983249],[27.450233,44.984479],[27.447201,44.983228],[27.43574,44.981804],[27.431825,44.979798],[27.429423,44.976733],[27.421558,44.975718],[27.419909,44.978302],[27.416244,44.978008],[27.409262,44.979847],[27.405622,44.978607],[27.398027,44.977495],[27.400345,44.958573],[27.40165,44.957152],[27.402514,44.941281],[27.40132,44.932325],[27.407755,44.924373],[27.419001,44.910552],[27.430665,44.911415],[27.43029,44.913769],[27.449791,44.914165],[27.450597,44.922577],[27.460327,44.922779],[27.469065,44.92207],[27.465246,44.908689],[27.485811,44.90686],[27.490009,44.912899],[27.514602,44.905338],[27.523884,44.920463],[27.514518,44.921089],[27.518999,44.936906],[27.544453,44.934085],[27.547922,44.941674],[27.554099,44.94202],[27.563068,44.941237],[27.566892,44.946954],[27.530557,44.950287],[27.532576,44.95739],[27.535886,44.966582],[27.538695,44.96766],[27.551189,44.966534],[27.551941,44.97199],[27.555887,44.981201]]]}},
{"type":"Feature","id":"ROU:ADM2:RO-BR.dudesti","properties":{"shapeName":"DUDESTI","shapeISO":"","shapeGroup":"ROU","shapeType":"ADM2","adm1ISO":"RO-BR","parentISO":"RO-BR","parentID":"ROU:ADM1:RO-BR","src_shape_id":"2599482B13678396959351"},"geometry":{"type":"Polygon","coordinates":[[[27.506815,44.865616],[27.506319,44.873709],[27.516106,44.869806],[27.523548,44.878396],[27.532497,44.893165],[27.538615,44.904154],[27.547607,44.917939],[27.544366,44.918777],[27.558087,44.933845],[27.563068,44.941237],[27.554099,44.94202],[27.547922,44.941674],[27.544453,44.934085],[27.518999,44.936906],[27.514518,44.921089],[27.523884,44.920463],[27.514602,44.905338],[27.490009,44.912899],[27.485811,44.90686],[27.465246,44.908689],[27.469065,44.92207],[27.460327,44.922779],[27.450597,44.922577],[27.449791,44.914165],[27.43029,44.913769],[27.430665,44.911415],[27.419001,44.910552],[27.407755,44.924373],[27.388378,44.924071],[27.375708,44.888635],[27.366272,44.858308],[27.365765,44.857903],[27.36565,44.855449],[27.363655,44.849437],[27.363435,44.845894],[27.393301,44.849491],[27.416314,44.836822],[27.410064,44.831404],[27.413923,44.829192],[27.411532,44.827092],[27.444081,44.805211],[27.465939,44.8244],[27.479511,44.836739],[27.496603,44.825426],[27.513413,44.84],[27.521301,44.847455],[27.50148,44.856773],[27.506921,44.86275],[27.506815,44.865616]]]}},
{"type":"Feature","id":"ROU:ADM2:RO-BR.bordei-verde","properties":{"shapeName":"BORDEI VERDE","shapeISO":"","shapeGroup":"ROU","shapeType":"ADM2","adm1ISO":"RO-BR","parentISO":"RO-BR","parentID":"ROU:ADM1:RO-BR","src_shape_id":"2599482B17606250456703"},"geometry":{"type":"Polygon","coordinates":[[[27.64183,45.055038],[27.680496,45.057213],[27.683406,45.058736],[27.681788,45.063797],[27.677508,45.084396],[27.659221,45.083973],[27.636589,45.082774],[27.63638,45.096023],[27.612682,45.094972],[27.592128,45.093475],[27.579907,45.093119],[27.571396,45.106942],[27.548392,45.100303],[27.55749,45.085785],[27.543436,45.084957],[27.544644,45.068954],[27.520257,45.071239],[27.519461,45.049965],[27.522201,45.043234],[27.518875,45.042333],[27.514942,45.030384],[27.511833,45.018514],[27.523477,45.019074],[27.526712,45.010359],[27.531328,45.007467],[27.532901,45.007429],[27.524336,44.988233],[27.522395,44.985772],[27.519371,44.980119],[27.525729,44.976107],[27.53402,44.973558],[27.538729,44.9744],[27.543019,44.977389],[27.550997,44.980256],[27.555887,44.981201],[27.559763,44.996795],[27.561917,44.99869],[27.565733,44.999979],[27.568138,45.001908],[27.588446,45.027965],[27.606799,45.052796],[27.606314,45.054115],[27.61347,45.053657],[27.623907,45.05405],[27.64183,45.055038]]]}},
{"type":"Feature","id":"ROU:ADM2:RO-BR.romanu","properties":{"shapeName":"ROMANU","shapeISO":"","shapeGroup":"ROU","shapeType":"ADM2","adm1ISO":"RO-BR","parentISO":"RO-BR","parentID":"ROU:ADM1:RO-BR","src_shape_id":"2599482B95882755808747"},"geometry":{"type":"Polygon","coordinates":[[[27.772691,45.250253],[27.772544,45.255051],[27.772425,45.291164],[27.771774,45.3003],[27.770094,45.315492],[27.756323,45.314518],[27.753373,45.339631],[27.754014,45.349677],[27.743683,45.352385],[27.744518,45.361803],[27.722722,45.360763],[27.722818,45.358939],[27.690144,45.357302],[27.700931,45.342664],[27.701124,45.341977],[27.69222,45.340342],[27.694821,45.331096],[27.666649,45.328323],[27.675,45.309691],[27.679141,45.296451],[27.684689,45.278915],[27.692252,45.254314],[27.707889,45.257841],[27.729137,45.260962],[27.738886,45.259206],[27.758335,45.25486],[27.766468,45.252624],[27.772691,45.250253]]]}},
{"type":"Feature","id":"ROU:ADM2:RO-BR.scortaru-nou","properties":{"shapeName":"SCORTARU NOU","shapeISO":"","shapeGroup":"ROU","shapeType":"ADM2","adm1ISO":"RO-BR","parentISO":"RO-BR","parentID":"ROU:ADM1:RO-BR","src_shape_id":"2599482B5642728949351"},"geometry":{"type":"Polygon","coordinates":[[[27.679141,45.296451],[27.675,45.309691],[27.666649,45.328323],[27.694821,45.331096],[27.69222,45.340342],[27.701124,45.341977],[27.700931,45.342664],[27.690144,45.357302],[27.683738,45.365955],[27.687293,45.366113],[27.681427,45.374655],[27.677515,45.374073],[27.674197,45.378033],[27.654503,45.39314],[27.612852,45.374415],[27.615829,45.371131],[27.603275,45.365442],[27.599516,45.369596],[27.584485,45.383676],[27.584325,45.387404],[27.586203,45.388086],[27.582153,45.393071],[27.572891,45.393701],[27.543414,45.394752],[27.543431,45.398641],[27.531704,45.399034],[27.531138,45.391127],[27.532515,45.391093],[27.531525,45.375377],[27.53255,45.37534],[27.533433,45.369217],[27.538587,45.358818],[27.533164,45.357325],[27.540153,45.345106],[27.543038,45.345946],[27.541354,45.327083],[27.540904,45.324967],[27.542401,45.32307],[27.547098,45.323541],[27.551371,45.32284],[27.553525,45.321503],[27.55341,45.318728],[27.550567,45.31681],[27.565979,45.304886],[27.575021,45.307973],[27.579813,45.298313],[27.601817,45.30337],[27.611419,45.305289],[27.62846,45.309203],[27.627008,45.312192],[27.652549,45.319709],[27.66201,45.302158],[27.667915,45.302871],[27.670725,45.296172],[27.679141,45.296451]]]}},
{"type":"Feature","id":"ROU:ADM2:RO-BR.ciresu","properties":{"shapeName":"CIRESU","shapeISO":"","shapeGroup":"ROU","shapeType":"ADM2","adm1ISO":"RO-BR","parentISO":"RO-BR","parentID":"ROU:ADM1:RO-BR","src_shape_id":"2599482B19299751639554"},"geometry":{"type":"Polygon","coordinates":[[[27.365765,44.857903],[27.366272,44.858308],[27.375708,44.888635],[27.388378,44.924071],[27.407755,44.924373],[27.40132,44.932325],[27.402514,44.941281],[27.40165,44.957152],[27.400345,44.958573],[27.398027,44.977495],[27.405622,44.978607],[27.409262,44.979847],[27.416244,44.978008],[27.419909,44.978302],[27.421558,44.975718],[27.429423,44.976733],[27.431825,44.979798],[27.43574,44.981804],[27.447201,44.983228],[27.450233,44.984479],[27.452849,44.983249],[27.456531,44.982785],[27.459787,44.984267],[27.462733,44.987076],[27.466216,44.987968],[27.473625,44.985895],[27.477102,44.983579],[27.482166,44.982679],[27.489959,44.982263],[27.49583,44.984866],[27.503203,44.982429],[27.50133,45.000865],[27.495423,45.017726],[27.483831,45.049413],[27.478535,45.048638],[27.457322,45.044101],[27.450931,45.042868],[27.452765,45.038673],[27.449941,45.037044],[27.45263,45.029236],[27.448942,45.027012],[27.444735,45.028286],[27.441719,45.02612],[27.435615,45.023414],[27.433109,45.023002],[27.432414,45.020001],[27.429742,45.0208],[27.428512,45.022772],[27.422383,45.026132],[27.421946,45.021115],[27.416839,45.019655],[27.414193,45.022552],[27.410366,45.019391],[27.412309,45.016825],[27.404546,45.016716],[27.392076,45.014004],[27.383671,45.024396],[27.378665,45.023317],[27.364397,45.020127],[27.337849,45.014725],[27.334179,45.01356],[27.338068,45.008133],[27.337627,45.007245],[27.314701,45.006805],[27.318814,45.004899],[27.318664,45.002316],[27.320595,45.000611],[27.337479,45.002016],[27.332266,44.989093],[27.330916,44.983128],[27.328816,44.978487],[27.358407,44.984212],[27.362628,44.979124],[27.356464,44.977502],[27.356615,44.974401],[27.346469,44.974455],[27.346368,44.968371],[27.353233,44.968292],[27.350997,44.963499],[27.350763,44.959857],[27.354946,44.957534],[27.356294,44.953788],[27.354481,44.952622],[27.34958,44.954408],[27.34867,44.951308],[27.346791,44.941377],[27.341885,44.942281],[27.339371,44.931898],[27.344872,44.93076],[27.341112,44.910499],[27.353621,44.911706],[27.349204,44.899117],[27.340327,44.871433],[27.341641,44.870009],[27.348728,44.87111],[27.350211,44.872138],[27.354786,44.871876],[27.352576,44.858859],[27.365765,44.857903]]]}},
{"type":"Feature","id":"ROU:ADM2:RO-BR.surdila-gaiseanca","properties":{"shapeName":"SURDILA-GAISEANCA","shapeISO":"","shapeGroup":"ROU","shapeType":"ADM2","adm1ISO":"RO-BR","parentISO":"RO-BR","parentID":"ROU:ADM1:RO-BR","src_shape_id":"2599482B95731435419780"},"geometry":{"type":"Polygon","coordinates":[[[27.314701,45.006805],[27.337627,45.007245],[27.338068,45.008133],[27.334179,45.01356],[27.337849,45.014725],[27.364397,45.020127],[27.378665,45.023317],[27.376743,45.03539],[27.393268,45.036823],[27.389266,45.044301],[27.391121,45.044709],[27.378418,45.071929],[27.37425,45.071862],[27.369499,45.070856],[27.353875,45.099054],[27.372356,45.103203],[27.371012,45.105697],[27.366262,45.110495],[27.357924,45.118066],[27.354689,45.120288],[27.350463,45.119678],[27.347222,45.120706],[27.343585,45.120656],[27.341686,45.117254],[27.33756,45.11713],[27.335354,45.11611],[27.331326,45.117012],[27.32809,45.11593],[27.316602,45.118064],[27.312024,45.106812],[27.30902,45.106025],[27.308382,45.109873],[27.305559,45.110401],[27.306431,45.103387],[27.30995,45.089474],[27.299507,45.087531],[27.29656,45.085507],[27.297627,45.081486],[27.310905,45.057716],[27.309046,45.05819],[27.300925,45.058171],[27.304082,45.039041],[27.303389,45.02115],[27.320678,45.020423],[27.318337,45.017501],[27.316653,45.011292],[27.314224,45.007923],[27.314701,45.006805]]]}},
{"type":"Feature","id":"ROU:ADM2:RO-BR.mircea-voda","properties":{"shapeName":"MIRCEA VODA","shapeISO":"","shapeGroup":"ROU","shapeType":"ADM2","adm1ISO":"RO-BR","parentISO":"RO-BR","parentID":"ROU:ADM1:RO-BR","src_shape_id":"2599482B59099327438734"},"geometry":{"type":"Polygon","coordinates":[[[27.316602,45.118064],[27.32809,45.11593],[27.331326,45.117012],[27.335354,45.11611],[27.33756,45.11713],[27.341686,45.117254],[27.343585,45.120656],[27.347222,45.120706],[27.350463,45.119678],[27.354689,45.120288],[27.357924,45.118066],[27.366262,45.110495],[27.371012,45.105697],[27.372356,45.103203],[27.353875,45.099054],[27.369499,45.070856],[27.37425,45.071862],[27.378418,45.071929],[27.391121,45.044709],[27.389266,45.044301],[27.393268,45.036823],[27.376743,45.03539],[27.378665,45.023317],[27.383671,45.024396],[27.392076,45.014004],[27.404546,45.016716],[27.412309,45.016825],[27.410366,45.019391],[27.414193,45.022552],[27.416839,45.019655],[27.421946,45.021115],[27.422383,45.026132],[27.428512,45.022772],[27.429742,45.0208],[27.432414,45.020001],[27.433109,45.023002],[27.435615,45.023414],[27.441719,45.02612],[27.444735,45.028286],[27.448942,45.027012],[27.45263,45.029236],[27.449941,45.037044],[27.452765,45.038673],[27.450931,45.042868],[27.457322,45.044101],[27.451718,45.057448],[27.43815,45.054382],[27.428669,45.072718],[27.424069,45.072387],[27.41714,45.081705],[27.427257,45.083784],[27.451073,45.089369],[27.451344,45.090238],[27.446475,45.100373],[27.437807,45.117555],[27.437228,45.11746],[27.423653,45.133619],[27.419393,45.139271],[27.418489,45.141527],[27.415289,45.142886],[27.417758,45.146046],[27.413436,45.147806],[27.424203,45.160554],[27.42313,45.161635],[27.414527,45.160758],[27.411884,45.172263],[27.398525,45.17019],[27.418724,45.194802],[27.421398,45.209424],[27.414192,45.208577],[27.397515,45.205357],[27.39788,45.20333],[27.3825,45.20628],[27.38433,45.199264],[27.384102,45.191854],[27.383465,45.189446],[27.384273,45.184194],[27.38074,45.179361],[27.377978,45.176526],[27.377614,45.173559],[27.374812,45.174048],[27.371049,45.170557],[27.36804,45.17009],[27.365283,45.171298],[27.361339,45.16657],[27.363778,45.164091],[27.365734,45.163508],[27.364257,45.159697],[27.360299,45.157197],[27.356733,45.157932],[27.353025,45.156918],[27.351804,45.153549],[27.345869,45.149237],[27.342385,45.148249],[27.334113,45.149035],[27.328867,45.151676],[27.328341,45.148809],[27.319358,45.12525],[27.316602,45.118064]]]}},
{"type":"Feature","id":"ROU:ADM2:RO-BR.stancuta","properties":{"shapeName":"STANCUTA","shapeISO":"","shapeGroup":"ROU","shapeType":"ADM2","adm1ISO":"RO-BR","parentISO":"RO-BR","parentID":"ROU:ADM1:RO-BR","src_shape_id":"2599482B41841434061539"},"geometry":{"type":"Polygon","coordinates":[[[27.924009,44.823569],[27.924572,44.824539],[27.931816,44.825878],[27.933691,44.828729],[27.936021,44.828302],[27.938884,44.830264],[27.946698,44.833433],[27.95244,44.833022],[27.953203,44.834404],[27.951121,44.840419],[27.947958,44.843938],[27.946507,44.846998],[27.945588,44.851195],[27.941418,44.853956],[27.934817,44.856292],[27.932469,44.855227],[27.928272,44.855886],[27.925133,44.858594],[27.913391,44.860353],[27.916804,44.862368],[27.922016,44.861653],[27.926879,44.863005],[27.923585,44.871186],[27.924936,44.877876],[27.923527,44.881091],[27.919547,44.885775],[27.917822,44.888877],[27.917841,44.891871],[27.919433,44.895925],[27.922948,44.90008],[27.925695,44.90472],[27.923133,44.904466],[27.92353,44.909806],[27.928076,44.908439],[27.930364,44.912464],[27.938115,44.918556],[27.940573,44.922493],[27.939857,44.92588],[27.937756,44.926936],[27.932434,44.926369],[27.928816,44.926906],[27.925538,44.930075],[27.925318,44.935644],[27.928135,44.942594],[27.927302,44.949412],[27.922315,44.957298],[27.921264,44.961868],[27.922025,44.963734],[27.929354,44.967522],[27.932564,44.973041],[27.932748,44.978571],[27.931966,44.980671],[27.892771,44.986223],[27.874798,44.986908],[27.863766,44.987527],[27.846276,44.990111],[27.846093,44.989602],[27.81725,44.995802],[27.809507,44.977765],[27.812478,44.977074],[27.810228,44.969838],[27.804247,44.953086],[27.792595,44.95403],[27.790612,44.950776],[27.787694,44.947976],[27.779991,44.94694],[27.778668,44.942659],[27.773101,44.928726],[27.727078,44.939024],[27.702061,44.944839],[27.701866,44.945608],[27.699883,44.946225],[27.687642,44.933599],[27.685917,44.933156],[27.685251,44.929062],[27.683228,44.925779],[27.690816,44.926407],[27.687791,44.918586],[27.69725,44.916191],[27.706003,44.915555],[27.704502,44.901026],[27.708492,44.902375],[27.713397,44.900113],[27.712969,44.895209],[27.720631,44.8951],[27.72172,44.893789],[27.720208,44.890513],[27.741644,44.889862],[27.74202,44.893273],[27.748603,44.891918],[27.751272,44.894682],[27.754114,44.893048],[27.756744,44.894611],[27.759437,44.894473],[27.783439,44.894844],[27.785177,44.868113],[27.779573,44.867836],[27.780563,44.85304],[27.781037,44.85019],[27.783176,44.850251],[27.783894,44.842305],[27.782881,44.841784],[27.778871,44.832489],[27.783939,44.830859],[27.787234,44.828758],[27.791491,44.821902],[27.795425,44.82021],[27.800642,44.820645],[27.803785,44.822819],[27.811021,44.830047],[27.816256,44.832394],[27.821487,44.833106],[27.82482,44.836083],[27.827277,44.841657],[27.832283,44.844198],[27.835024,44.844043],[27.834928,44.835845],[27.836047,44.835494],[27.849285,44.83926],[27.852858,44.840743],[27.854413,44.842418],[27.855135,44.847134],[27.855289,44.853065],[27.856979,44.856472],[27.861005,44.860256],[27.8829,44.868646],[27.882036,44.865983],[27.883561,44.863898],[27.885727,44.85874],[27.881551,44.856953],[27.878757,44.856912],[27.877038,44.858685],[27.870575,44.856211],[27.86885,44.850156],[27.874181,44.848699],[27.881504,44.849969],[27.88334,44.85091],[27.887659,44.850663],[27.892466,44.849241],[27.899161,44.851903],[27.89703,44.848999],[27.894504,44.848116],[27.892632,44.845471],[27.893936,44.843839],[27.902681,44.840639],[27.904834,44.840481],[27.909428,44.836525],[27.91033,44.834458],[27.909052,44.831942],[27.910257,44.827655],[27.91213,44.827349],[27.924009,44.823569]]]}},
{"type":"Feature","id":"ROU:ADM2:RO-BR.visani","properties":{"shapeName":"VISANI","shapeISO":"","shapeGroup":"ROU","shapeType":"ADM2","adm1ISO":"RO-BR","parentISO":"RO-BR","parentID":"ROU:ADM1:RO-BR","src_shape_id":"2599482B40440653080900"},"geometry":{"type":"Polygon","coordinates":[[[27.319358,45.12525],[27.328341,45.148809],[27.328867,45.151676],[27.334113,45.149035],[27.342385,45.148249],[27.345869,45.149237],[27.351804,45.153549],[27.353025,45.156918],[27.356733,45.157932],[27.360299,45.157197],[27.364257,45.159697],[27.365734,45.163508],[27.363778,45.164091],[27.361339,45.16657],[27.365283,45.171298],[27.36804,45.17009],[27.371049,45.170557],[27.374812,45.174048],[27.377614,45.173559],[27.377978,45.176526],[27.38074,45.179361],[27.384273,45.184194],[27.383465,45.189446],[27.384102,45.191854],[27.38433,45.199264],[27.3825,45.20628],[27.376973,45.20738],[27.374739,45.203712],[27.368356,45.198546],[27.363965,45.200002],[27.366859,45.203203],[27.364522,45.204887],[27.360352,45.205083],[27.36145,45.207063],[27.359415,45.209392],[27.365777,45.219098],[27.348411,45.224596],[27.339536,45.215698],[27.350172,45.21239],[27.335375,45.210839],[27.320946,45.216473],[27.315184,45.210606],[27.30781,45.212171],[27.303763,45.213612],[27.292395,45.213481],[27.28369,45.200096],[27.268734,45.20757],[27.25459,45.174441],[27.257778,45.172756],[27.255738,45.170411],[27.246578,45.169122],[27.224364,45.168899],[27.238736,45.158172],[27.243597,45.156337],[27.243274,45.155421],[27.26037,45.136093],[27.260996,45.133547],[27.254288,45.13015],[27.255681,45.124443],[27.259894,45.125131],[27.264515,45.128008],[27.264965,45.133994],[27.267724,45.135586],[27.27296,45.134268],[27.274944,45.134894],[27.276997,45.132048],[27.291729,45.130518],[27.313922,45.126031],[27.319358,45.12525]]]}},
{"type":"Feature","id":"ROU:ADM2:RO-BR.galbenu","properties":{"shapeName":"GALBENU","shapeISO":"","shapeGroup":"ROU","shapeType":"ADM2","adm1ISO":"RO-BR","parentISO":"RO-BR","parentID":"ROU:ADM1:RO-BR","src_shape_id":"2599482B76307381902120"},"geometry":{"type":"Polygon","coordinates":[[[27.149589,45.17122],[27.15259,45.176176],[27.176157,45.177583],[27.176474,45.179554],[27.18015,45.180101],[27.177058,45.183682],[27.177627,45.188691],[27.179639,45.193958],[27.177259,45.194322],[27.184659,45.201403],[27.178698,45.204282],[27.184468,45.214617],[27.200266,45.206806],[27.196435,45.196101],[27.189466,45.189162],[27.197855,45.185048],[27.191954,45.179502],[27.190757,45.179711],[27.189513,45.17432],[27.199731,45.171698],[27.224364,45.168899],[27.246578,45.169122],[27.255738,45.170411],[27.257778,45.172756],[27.25459,45.174441],[27.268734,45.20757],[27.259724,45.212064],[27.243213,45.220075],[27.239648,45.209811],[27.210621,45.223652],[27.210928,45.224045],[27.175093,45.249337],[27.125342,45.214936],[27.122105,45.217598],[27.118283,45.214884],[27.120694,45.21422],[27.118245,45.207195],[27.116001,45.203428],[27.113779,45.20122],[27.110238,45.19956],[27.099809,45.189536],[27.084379,45.179864],[27.07614,45.170379],[27.066521,45.158749],[27.067126,45.156341],[27.069029,45.155314],[27.071587,45.156131],[27.07317,45.154339],[27.074208,45.151036],[27.075794,45.149442],[27.079462,45.148208],[27.082425,45.145615],[27.0842,45.142887],[27.088879,45.1395],[27.091287,45.138831],[27.092861,45.135074],[27.097661,45.130463],[27.114496,45.137429],[27.109286,45.152974],[27.113622,45.154693],[27.111956,45.156397],[27.149203,45.170365],[27.149589,45.17122]]]}}
]}