{"type":"FeatureCollection","bbox":[26.25252,44.033097,28.017411,44.595538],"features":[
{"type":"Feature","id":"ROU:ADM2:RO-CL.cascioarele","properties":{"shapeName":"CASCIOARELE","shapeISO":"","shapeGroup":"ROU","shapeType":"ADM2","adm1ISO":"RO-CL","parentISO":"RO-CL","parentID":"ROU:ADM1:RO-CL","src_shape_id":"2599482B95938588353719"},"geometry":{"type":"Polygon","coordinates":[[[26.453156,44.159313],[26.436398,44.160636],[26.433548,44.146672],[26.428513,44.147007],[26.428518,44.145175],[26.423954,44.141431],[26.423414,44.137743],[26.422063,44.13647],[26.421011,44.132407],[26.417957,44.131157],[26.418067,44.127019],[26.419,44.124737],[26.428877,44.122138],[26.44076,44.117367],[26.447691,44.115123],[26.454387,44.113708],[26.459906,44.111141],[26.465475,44.110057],[26.47178,44.110647],[26.477286,44.11377],[26.488309,44.113619],[26.495975,44.112684],[26.500444,44.112937],[26.500422,44.12835],[26.502809,44.130567],[26.504938,44.13387],[26.506576,44.134847],[26.503497,44.138557],[26.495602,44.137578],[26.491453,44.138136],[26.487146,44.140003],[26.492738,44.149399],[26.453156,44.159313]]]}},
{"type":"Feature","id":"ROU:ADM2:RO-CL.chirnogi","properties":{"shapeName":"CHIRNOGI","shapeISO":"","shapeGroup":"ROU","shapeType":"ADM2","adm1ISO":"RO-CL","parentISO":"RO-CL","parentID":"ROU:ADM1:RO-CL","src_shape_id":"2599482B29900557308409"},"geometry":{"type":"Polygon","coordinates":[[[26.358789,44.107392],[26.373497,44.056198],[26.375028,44.05232],[26.37997,44.042948],[26.392387,44.041004],[26.399605,44.040218],[26.406372,44.037414],[26.416244,44.036903],[26.425768,44.035533],[26.434524,44.035325],[26.434633,44.033097],[26.445203,44.033739],[26.455108,44.03517],[26.458599,44.036112],[26.457716,44.038472],[26.474557,44.04192],[26.486512,44.044169],[26.502095,44.04673],[26.518496,44.05181],[26.528287,44.053648],[26.537741,44.054372],[26.550768,44.054306],[26.557326,44.054533],[26.57047,44.054019],[26.582717,44.052427],[26.592827,44.050035],[26.600595,44.051828],[26.608228,44.054514],[26.614474,44.056059],[26.617966,44.061634],[26.621277,44.064923],[26.622308,44.067234],[26.622743,44.071929],[26.621231,44.073784],[26.613724,44.074778],[26.608769,44.074574],[26.605434,44.077005],[26.608453,44.078705],[26.616342,44.080019],[26.617921,44.080853],[26.623253,44.088514],[26.627526,44.091833],[26.636028,44.097196],[26.636709,44.100173],[26.63477,44.104817],[26.635504,44.109912],[26.633982,44.113125],[26.630284,44.116006],[26.628787,44.118715],[26.628845,44.12205],[26.63057,44.128213],[26.63028,44.13055],[26.627179,44.133769],[26.622749,44.135271],[26.617638,44.135722],[26.61493,44.136742],[26.609616,44.135215],[26.594491,44.140648],[26.593534,44.139381],[26.586789,44.141708],[26.585717,44.144022],[26.581744,44.14739],[26.574189,44.160533],[26.572099,44.163529],[26.555326,44.15482],[26.561551,44.148657],[26.546155,44.148141],[26.502605,44.146903],[26.492738,44.149399],[26.487146,44.140003],[26.491453,44.138136],[26.495602,44.137578],[26.503497,44.138557],[26.506576,44.134847],[26.504938,44.13387],[26.502809,44.130567],[26.500422,44.12835],[26.500444,44.112937],[26.495975,44.112684],[26.488309,44.113619],[26.477286,44.11377],[26.47178,44.110647],[26.465475,44.110057],[26.459906,44.111141],[26.454387,44.113708],[26.447691,44.115123],[26.44076,44.117367],[26.428877,44.122138],[26.419,44.124737],[26.410122,44.125687],[26.401874,44.125793],[26.389676,44.122952],[26.378791,44.118755],[26.367963,44.113733],[26.358092,44.108071],[26.358789,44.107392]]]}},
{"type":"Feature","id":"ROU:ADM2:RO-CL.oltenita","properties":{"shapeName":"OLTENITA","shapeISO":"","shapeGroup":"ROU","shapeType":"ADM2","adm1ISO":"RO-CL","parentISO":"RO-CL","parentID":"ROU:ADM1:RO-CL","src_shape_id":"2599482B1187163066673"},"geometry":{"type":"Polygon","coordinates":[[[26.614474,44.056059],[26.637426,44.060016],[26.64305,44.06],[26.663812,44.062844],[26.662813,44.064852],[26.670439,44.067281],[26.677961,44.07092],[26.690301,44.074427],[26.699963,44.075982],[26.708103,44.076228],[26.723678,44.074526],[26.723746,44.072667],[26.734386,44.073932],[26.750399,44.076542],[26.754992,44.076678],[26.762813,44.077866],[26.77793,44.082457],[26.783518,44.085223],[26.776968,44.091261],[26.771763,44.121543],[26.766686,44.123176],[26.765195,44.121715],[26.759898,44.125649],[26.754699,44.130882],[26.750962,44.13586],[26.746267,44.140887],[26.739477,44.14303],[26.734158,44.143845],[26.724746,44.142431],[26.714338,44.139111],[26.713924,44.14019],[26.704535,44.139821],[26.699792,44.137939],[26.696761,44.132801],[26.694771,44.12743],[26.691588,44.130039],[26.692006,44.131123],[26.690063,44.147686],[26.681278,44.14705],[26.673017,44.146816],[26.670726,44.171102],[26.641125,44.1696],[26.641767,44.163999],[26.628827,44.16327],[26.630565,44.161483],[26.622028,44.157778],[26.606892,44.151759],[26.613048,44.145552],[26.619149,44.141735],[26.614002,44.137308],[26.61493,44.136742],[26.617638,44.135722],[26.622749,44.135271],[26.627179,44.133769],[26.63028,44.13055],[26.63057,44.128213],[26.628845,44.12205],[26.628787,44.118715],[26.630284,44.116006],[26.633982,44.113125],[26.635504,44.109912],[26.63477,44.104817],[26.636709,44.100173],[26.636028,44.097196],[26.627526,44.091833],[26.623253,44.088514],[26.617921,44.080853],[26.616342,44.080019],[26.608453,44.078705],[26.605434,44.077005],[26.608769,44.074574],[26.613724,44.074778],[26.621231,44.073784],[26.622743,44.071929],[26.622308,44.067234],[26.621277,44.064923],[26.617966,44.061634],[26.614474,44.056059]]]}},
{"type":"Feature","id":"ROU:ADM2:RO-CL.spantov","properties":{"shapeName":"SPANTOV","shapeISO":"","shapeGroup":"ROU","shapeType":"ADM2","adm1ISO":"RO-CL","parentISO":"RO-CL","parentID":"ROU:ADM1:RO-CL","src_shape_id":"2599482B51695230514205"},"geometry":{"type":"Polygon","coordinates":[[[26.783518,44.085223],[26.797958,44.091527],[26.811027,44.096702],[26.813366,44.098021],[26.826343,44.10342],[26.84087,44.111456],[26.852836,44.11569],[26.850316,44.118275],[26.850038,44.122057],[26.846005,44.124425],[26.836665,44.135308],[26.829386,44.142983],[26.826402,44.146705],[26.825034,44.159856],[26.809736,44.159023],[26.808383,44.174655],[26.806946,44.188857],[26.799408,44.189033],[26.791729,44.188735],[26.789751,44.209838],[26.782239,44.209553],[26.781106,44.221147],[26.767985,44.215966],[26.756276,44.212208],[26.75053,44.211681],[26.751695,44.197692],[26.75262,44.197726],[26.754117,44.181479],[26.755772,44.166354],[26.756065,44.161553],[26.752257,44.161279],[26.754464,44.140166],[26.752531,44.14143],[26.751847,44.136429],[26.750962,44.13586],[26.754699,44.130882],[26.759898,44.125649],[26.765195,44.121715],[26.766686,44.123176],[26.771763,44.121543],[26.776968,44.091261],[26.783518,44.085223]]]}},
{"type":"Feature","id":"ROU:ADM2:RO-CL.crivat","properties":{"shapeName":"CRIVAT","shapeISO":"","shapeGroup":"ROU","shapeType":"ADM2","adm1ISO":"RO-CL","parentISO":"RO-CL","parentID":"ROU:ADM1:RO-CL","src_shape_id":"2599482B25594026358369"},"geometry":{"type":"Polygon","coordinates":[[[26.453156,44.159313],[26.463844,44.18017],[26.458838,44.181599],[26.461178,44.1858],[26.453989,44.188051],[26.457145,44.192092],[26.465035,44.192803],[26.464824,44.195603],[26.46785,44.198446],[26.46823,44.201642],[26.475959,44.216251],[26.47187,44.21755],[26.477489,44.228319],[26.470736,44.227042],[26.468504,44.225787],[26.463379,44.224769],[26.458997,44.225745],[26.448147,44.224133],[26.444603,44.221986],[26.436776,44.210917],[26.432203,44.203361],[26.430068,44.201725],[26.424753,44.200016],[26.418356,44.198572],[26.415878,44.198593],[26.408609,44.200187],[26.405554,44.199816],[26.399777,44.197474],[26.39985,44.185373],[26.408614,44.185939],[26.411232,44.187293],[26.416941,44.188023],[26.418582,44.184535],[26.420781,44.183282],[26.41857,44.181804],[26.414028,44.180234],[26.414529,44.178098],[26.413466,44.175802],[26.417488,44.164722],[26.42212,44.165652],[26.423805,44.161722],[26.4271,44.157492],[26.428311,44.152944],[26.428513,44.147007],[26.433548,44.146672],[26.436398,44.160636],[26.453156,44.159313]]]}},
{"type":"Feature","id":"ROU:ADM2:RO-CL.radovanu","properties":{"shapeName":"RADOVANU","shapeISO":"","shapeGroup":"ROU","shapeType":"ADM2","adm1ISO":"RO-CL","parentISO":"RO-CL","parentID":"ROU:ADM1:RO-CL","src_shape_id":"2599482B28336823997090"},"geometry":{"type":"Polygon","coordinates":[[[26.492738,44.149399],[26.502605,44.146903],[26.546155,44.148141],[26.561551,44.148657],[26.555326,44.15482],[26.572099,44.163529],[26.571781,44.165797],[26.580542,44.169354],[26.577005,44.171514],[26.571491,44.174977],[26.570195,44.177559],[26.569997,44.181572],[26.572704,44.186938],[26.572921,44.191989],[26.568032,44.197817],[26.556511,44.207082],[26.549737,44.209439],[26.543236,44.210353],[26.537332,44.213409],[26.531332,44.206373],[26.530061,44.208978],[26.528192,44.209898],[26.526081,44.207623],[26.52751,44.204598],[26.523767,44.201403],[26.52152,44.202699],[26.518585,44.201295],[26.515999,44.203652],[26.516697,44.204622],[26.513654,44.207659],[26.509666,44.207671],[26.511675,44.210371],[26.501262,44.217081],[26.499491,44.214971],[26.495325,44.215994],[26.492176,44.214738],[26.489319,44.215992],[26.490779,44.220975],[26.495981,44.225873],[26.491859,44.227876],[26.484892,44.229158],[26.477489,44.228319],[26.47187,44.21755],[26.475959,44.216251],[26.46823,44.201642],[26.46785,44.198446],[26.464824,44.195603],[26.465035,44.192803],[26.457145,44.192092],[26.453989,44.188051],[26.461178,44.1858],[26.458838,44.181599],[26.463844,44.18017],[26.453156,44.159313],[26.492738,44.149399]]]}},
{"type":"Feature","id":"ROU:ADM2:RO-CL.ulmeni","properties":{"shapeName":"ULMENI","shapeISO":"","shapeGroup":"ROU","shapeType":"ADM2","adm1ISO":"RO-CL","parentISO":"RO-CL","parentID":"ROU:ADM1:RO-CL","src_shape_id":"2599482B95342273049795"},"geometry":{"type":"Polygon","coordinates":[[[26.750962,44.13586],[26.751847,44.136429],[26.752531,44.14143],[26.754464,44.140166],[26.752257,44.161279],[26.756065,44.161553],[26.755772,44.166354],[26.754117,44.181479],[26.75262,44.197726],[26.751695,44.197692],[26.75053,44.211681],[26.756276,44.212208],[26.751131,44.219659],[26.745271,44.217173],[26.738867,44.21955],[26.737877,44.222596],[26.731819,44.234599],[26.722679,44.231584],[26.711564,44.229396],[26.704409,44.226762],[26.703732,44.225696],[26.705296,44.209968],[26.674438,44.208534],[26.676505,44.188984],[26.678082,44.176979],[26.670204,44.176613],[26.670726,44.171102],[26.673017,44.146816],[26.681278,44.14705],[26.690063,44.147686],[26.692006,44.131123],[26.691588,44.130039],[26.694771,44.12743],[26.696761,44.132801],[26.699792,44.137939],[26.704535,44.139821],[26.713924,44.14019],[26.714338,44.139111],[26.724746,44.142431],[26.734158,44.143845],[26.739477,44.14303],[26.746267,44.140887],[26.750962,44.13586]]]}},
{"type":"Feature","id":"ROU:ADM2:RO-CL.curcani-2","properties":{"shapeName":"CURCANI","shapeISO":"","shapeGroup":"ROU","shapeType":"ADM2","adm1ISO":"RO-CL","parentISO":"RO-CL","parentID":"ROU:ADM1:RO-CL","src_shape_id":"2599482B73805615564390"},"geometry":{"type":"Polygon","coordinates":[[[26.577005,44.171514],[26.584368,44.176488],[26.592947,44.181127],[26.591543,44.182403],[26.598004,44.184161],[26.599462,44.18766],[26.604433,44.18944],[26.59962,44.197319],[26.624242,44.210701],[26.629028,44.20648],[26.641999,44.213595],[26.6464,44.215691],[26.64837,44.213821],[26.652867,44.215399],[26.664367,44.215948],[26.664279,44.225437],[26.672665,44.225602],[26.672798,44.234526],[26.665102,44.234523],[26.665326,44.240805],[26.651139,44.240841],[26.628392,44.24205],[26.626088,44.241781],[26.612317,44.238255],[26.613831,44.236083],[26.593899,44.2253],[26.591239,44.223666],[26.597579,44.216987],[26.594432,44.215353],[26.586425,44.213755],[26.568382,44.222767],[26.549737,44.209439],[26.556511,44.207082],[26.568032,44.197817],[26.572921,44.191989],[26.572704,44.186938],[26.569997,44.181572],[26.570195,44.177559],[26.571491,44.174977],[26.577005,44.171514]]]}},
{"type":"Feature","id":"ROU:ADM2:RO-CL.curcani","properties":{"shapeName":"CURCANI","shapeISO":"","shapeGroup":"ROU","shapeType":"ADM2","adm1ISO":"RO-CL","parentISO":"RO-CL","parentID":"ROU:ADM1:RO-CL","src_shape_id":"2599482B18753621764646"},"geometry":{"type":"Polygon","coordinates":[[[26.665326,44.240805],[26.686182,44.241598],[26.691709,44.242739],[26.701945,44.24364],[26.718468,44.240088],[26.719843,44.240585],[26.720184,44.24643],[26.722886,44.251551],[26.726709,44.252471],[26.727651,44.261454],[26.720359,44.261606],[26.722205,44.274169],[26.728323,44.273382],[26.733465,44.273352],[26.735722,44.275917],[26.736337,44.290945],[26.720912,44.291278],[26.721549,44.310055],[26.702583,44.310447],[26.702653,44.307383],[26.69763,44.305042],[26.704388,44.298594],[26.706964,44.295503],[26.706019,44.291761],[26.682524,44.292036],[26.681634,44.262344],[26.697023,44.262008],[26.696816,44.253363],[26.68914,44.253536],[26.688827,44.248869],[26.665648,44.249406],[26.665326,44.240805]]]}},
{"type":"Feature","id":"ROU:ADM2:RO-CL.mitreni","properties":{"shapeName":"MITRENI","shapeISO":"","shapeGroup":"ROU","shapeType":"ADM2","adm1ISO":"RO-CL","parentISO":"RO-CL","parentID":"ROU:ADM1:RO-CL","src_shape_id":"2599482B76882873077957"},"geometry":{"type":"Polygon","coordinates":[[[26.61493,44.136742],[26.614002,44.137308],[26.619149,44.141735],[26.613048,44.145552],[26.606892,44.151759],[26.622028,44.157778],[26.630565,44.161483],[26.628827,44.16327],[26.641767,44.163999],[26.641125,44.1696],[26.670726,44.171102],[26.670204,44.176613],[26.678082,44.176979],[26.676505,44.188984],[26.674438,44.208534],[26.705296,44.209968],[26.703732,44.225696],[26.704409,44.226762],[26.711564,44.229396],[26.718468,44.240088],[26.701945,44.24364],[26.691709,44.242739],[26.686182,44.241598],[26.665326,44.240805],[26.665102,44.234523],[26.672798,44.234526],[26.672665,44.225602],[26.664279,44.225437],[26.664367,44.215948],[26.652867,44.215399],[26.64837,44.213821],[26.6464,44.215691],[26.641999,44.213595],[26.629028,44.20648],[26.624242,44.210701],[26.59962,44.197319],[26.604433,44.18944],[26.599462,44.18766],[26.598004,44.184161],[26.591543,44.182403],[26.592947,44.181127],[26.584368,44.176488],[26.577005,44.171514],[26.580542,44.169354],[26.571781,44.165797],[26.572099,44.163529],[26.574189,44.160533],[26.581744,44.14739],[26.585717,44.144022],[26.586789,44.141708],[26.593534,44.139381],[26.594491,44.140648],[26.609616,44.135215],[26.61493,44.136742]]]}},
{"type":"Feature","id":"ROU:ADM2:RO-CL.soldanu","properties":{"shapeName":"SOLDANU","shapeISO":"","shapeGroup":"ROU","shapeType":"ADM2","adm1ISO":"RO-CL","parentISO":"RO-CL","parentID":"ROU:ADM1:RO-CL","src_shape_id":"2599482B93522079592050"},"geometry":{"type":"Polygon","coordinates":[[[26.477489,44.228319],[26.484892,44.229158],[26.491859,44.227876],[26.495981,44.225873],[26.490779,44.220975],[26.489319,44.215992],[26.492176,44.214738],[26.495325,44.215994],[26.499491,44.214971],[26.501262,44.217081],[26.511675,44.210371],[26.509666,44.207671],[26.513654,44.207659],[26.516697,44.204622],[26.515999,44.203652],[26.518585,44.201295],[26.52152,44.202699],[26.523767,44.201403],[26.52751,44.204598],[26.526081,44.207623],[26.528192,44.209898],[26.530061,44.208978],[26.531332,44.206373],[26.537332,44.213409],[26.543236,44.210353],[26.549737,44.209439],[26.568382,44.222767],[26.563807,44.225108],[26.567684,44.228955],[26.568125,44.237945],[26.576064,44.240959],[26.588015,44.246858],[26.588713,44.249124],[26.588414,44.253174],[26.581452,44.259128],[26.582824,44.259943],[26.573302,44.268438],[26.576296,44.27151],[26.576171,44.275266],[26.556196,44.275839],[26.536582,44.276194],[26.535623,44.275897],[26.535105,44.258671],[26.534064,44.257904],[26.525429,44.258218],[26.52483,44.249927],[26.518841,44.249391],[26.503501,44.24893],[26.50633,44.253652],[26.505776,44.254849],[26.501379,44.255594],[26.498002,44.257446],[26.496497,44.259892],[26.475011,44.241885],[26.478743,44.239648],[26.471894,44.233784],[26.474612,44.23042],[26.471509,44.230258],[26.470736,44.227042],[26.477489,44.228319]]]}},
{"type":"Feature","id":"ROU:ADM2:RO-CL.luica","properties":{"shapeName":"LUICA","shapeISO":"","shapeGroup":"ROU","shapeType":"ADM2","adm1ISO":"RO-CL","parentISO":"RO-CL","parentID":"ROU:ADM1:RO-CL","src_shape_id":"2599482B3478355061153"},"geometry":{"type":"Polygon","coordinates":[[[26.665326,44.240805],[26.665648,44.249406],[26.688827,44.248869],[26.68914,44.253536],[26.696816,44.253363],[26.697023,44.262008],[26.681634,44.262344],[26.682524,44.292036],[26.647238,44.292946],[26.639391,44.295342],[26.636595,44.291785],[26.632823,44.288794],[26.630301,44.287895],[26.636833,44.28473],[26.636429,44.273908],[26.616243,44.274376],[26.616278,44.260681],[26.614969,44.259388],[26.607752,44.255299],[26.605669,44.255174],[26.599397,44.251513],[26.596757,44.248841],[26.594391,44.250472],[26.590388,44.24848],[26.588713,44.249124],[26.588015,44.246858],[26.576064,44.240959],[26.568125,44.237945],[26.567684,44.228955],[26.563807,44.225108],[26.568382,44.222767],[26.586425,44.213755],[26.594432,44.215353],[26.597579,44.216987],[26.591239,44.223666],[26.593899,44.2253],[26.613831,44.236083],[26.612317,44.238255],[26.626088,44.241781],[26.628392,44.24205],[26.651139,44.240841],[26.665326,44.240805]]]}},
{"type":"Feature","id":"ROU:ADM2:RO-CL.vasilati","properties":{"shapeName":"VASILATI","shapeISO":"","shapeGroup":"ROU","shapeType":"ADM2","adm1ISO":"RO-CL","parentISO":"RO-CL","parentID":"ROU:ADM1:RO-CL","src_shape_id":"2599482B17575272178188"},"geometry":{"type":"Polygon","coordinates":[[[26.557865,44.314432],[26.550912,44.312137],[26.550972,44.31813],[26.5292,44.319037],[26.524371,44.318667],[26.503307,44.314648],[26.503737,44.317046],[26.477807,44.311348],[26.477181,44.311892],[26.468806,44.309541],[26.46395,44.310165],[26.457898,44.310264],[26.458221,44.308061],[26.44823,44.308086],[26.44782,44.310581],[26.440619,44.30918],[26.436715,44.312935],[26.43507,44.311188],[26.426484,44.304348],[26.422059,44.305898],[26.413305,44.310945],[26.397234,44.317519],[26.394655,44.31621],[26.393575,44.312867],[26.392905,44.309605],[26.367206,44.298317],[26.358055,44.29685],[26.358915,44.294495],[26.335123,44.284281],[26.339654,44.281933],[26.340179,44.2797],[26.34565,44.27545],[26.347596,44.272305],[26.353757,44.271866],[26.35785,44.268884],[26.363572,44.272307],[26.366001,44.269457],[26.374061,44.268615],[26.375125,44.269149],[26.380348,44.269373],[26.383735,44.267502],[26.385824,44.26807],[26.386164,44.270857],[26.389655,44.269582],[26.393747,44.269688],[26.395573,44.266366],[26.411503,44.26982],[26.415788,44.272151],[26.416406,44.276266],[26.423152,44.278695],[26.426887,44.278777],[26.428907,44.281438],[26.429134,44.274874],[26.435834,44.249321],[26.440004,44.254948],[26.443807,44.256472],[26.448797,44.259997],[26.448959,44.261549],[26.452911,44.261134],[26.454703,44.256713],[26.465408,44.256475],[26.466514,44.277181],[26.493966,44.27654],[26.497552,44.277486],[26.499936,44.281072],[26.500738,44.28716],[26.507567,44.287028],[26.52125,44.28619],[26.522043,44.28871],[26.535894,44.288079],[26.536697,44.303813],[26.557417,44.30329],[26.557865,44.314432]]]}},
{"type":"Feature","id":"ROU:ADM2:RO-CL.calarasi","properties":{"shapeName":"CALARASI","shapeISO":"","shapeGroup":"ROU","shapeType":"ADM2","adm1ISO":"RO-CL","parentISO":"RO-CL","parentID":"ROU:ADM1:RO-CL","src_shape_id":"2599482B19108190485382"},"geometry":{"type":"Polygon","coordinates":[[[27.356959,44.31389],[27.32733,44.316288],[27.317799,44.317411],[27.31576,44.280652],[27.314037,44.280128],[27.314029,44.254637],[27.295351,44.254956],[27.295367,44.239863],[27.281963,44.240219],[27.279499,44.236699],[27.277528,44.235315],[27.279047,44.233191],[27.268679,44.232548],[27.273436,44.183265],[27.277233,44.1461],[27.278141,44.136175],[27.274332,44.13457],[27.274632,44.128023],[27.29153,44.136052],[27.295405,44.138141],[27.30535,44.140457],[27.315128,44.140593],[27.327863,44.139286],[27.342088,44.133165],[27.345798,44.131253],[27.359491,44.128828],[27.371584,44.1279],[27.37686,44.12831],[27.392763,44.131946],[27.397974,44.131463],[27.398926,44.137694],[27.396335,44.153013],[27.394471,44.157915],[27.394464,44.160163],[27.397653,44.16126],[27.395323,44.163907],[27.403358,44.168418],[27.400923,44.170053],[27.394998,44.169433],[27.392486,44.170552],[27.394954,44.177967],[27.395427,44.181821],[27.397539,44.188335],[27.396975,44.190822],[27.392527,44.193608],[27.391639,44.191926],[27.386258,44.18812],[27.384579,44.184151],[27.381853,44.179707],[27.380253,44.186495],[27.382328,44.187002],[27.378875,44.194204],[27.378813,44.19651],[27.363265,44.192588],[27.365307,44.204557],[27.371072,44.204219],[27.3715,44.207215],[27.378566,44.246968],[27.374256,44.247433],[27.373591,44.244603],[27.345406,44.247076],[27.353315,44.292259],[27.356959,44.31389]]]}},
{"type":"Feature","id":"ROU:ADM2:RO-CL.dichiseni","properties":{"shapeName":"DICHISENI","shapeISO":"","shapeGroup":"ROU","shapeType":"ADM2","adm1ISO":"RO-CL","parentISO":"RO-CL","parentID":"ROU:ADM1:RO-CL","src_shape_id":"2599482B41972871086325"},"geometry":{"type":"Polygon","coordinates":[[[27.520789,44.31965],[27.515945,44.319822],[27.497845,44.319503],[27.488481,44.320094],[27.492282,44.287175],[27.49365,44.277029],[27.484389,44.277285],[27.482649,44.25948],[27.484101,44.246215],[27.485228,44.23903],[27.48534,44.221065],[27.486414,44.218048],[27.480984,44.216708],[27.480511,44.211794],[27.479673,44.180534],[27.479946,44.175472],[27.478236,44.169278],[27.479141,44.166449],[27.491009,44.158846],[27.492433,44.156228],[27.50841,44.15432],[27.512164,44.1585],[27.518345,44.164086],[27.528358,44.170073],[27.534806,44.172033],[27.544602,44.175667],[27.55164,44.179868],[27.556826,44.182343],[27.563426,44.184655],[27.561192,44.188013],[27.569176,44.195884],[27.577031,44.20133],[27.582076,44.20589],[27.584069,44.209828],[27.584374,44.213057],[27.573926,44.216654],[27.572103,44.218816],[27.568748,44.220924],[27.560735,44.232917],[27.557498,44.23634],[27.555863,44.242281],[27.556669,44.243402],[27.555013,44.25895],[27.55404,44.265979],[27.54259,44.265243],[27.541709,44.270697],[27.524518,44.310251],[27.522369,44.313856],[27.520789,44.31965]]]}},
{"type":"Feature","id":"ROU:ADM2:RO-CL.dorobantu","properties":{"shapeName":"DOROBANTU","shapeISO":"","shapeGroup":"ROU","shapeType":"ADM2","adm1ISO":"RO-CL","parentISO":"RO-CL","parentID":"ROU:ADM1:RO-CL","src_shape_id":"2599482B87906677909085"},"geometry":{"type":"Polygon","coordinates":[[[27.017954,44.32985],[27.016142,44.330159],[27.012944,44.320135],[27.005345,44.321379],[26.99999,44.304787],[26.977111,44.308647],[26.967374,44.276469],[26.946502,44.280043],[26.943832,44.270974],[26.939723,44.25925],[26.936402,44.259791],[26.934569,44.253295],[26.932036,44.251526],[26.927298,44.249716],[26.919434,44.247661],[26.910896,44.246974],[26.911181,44.246795],[26.920971,44.228865],[26.925935,44.220453],[26.9308,44.22258],[26.936708,44.211048],[26.939118,44.208668],[26.95001,44.199981],[26.950867,44.198716],[26.952464,44.189729],[26.949696,44.179929],[26.949738,44.177546],[26.955242,44.164577],[26.95648,44.162349],[26.963909,44.153355],[26.969001,44.135762],[26.986809,44.133639],[26.994518,44.133912],[27.006001,44.1367],[27.005937,44.137472],[27.018654,44.141072],[27.018152,44.156357],[27.016406,44.161692],[27.00904,44.166382],[27.007925,44.167726],[27.007138,44.18287],[27.012639,44.183615],[27.012228,44.196855],[27.019545,44.196428],[27.019074,44.199227],[27.015824,44.207314],[27.008214,44.225],[27.000803,44.241626],[27.00841,44.256491],[27.009332,44.258822],[27.006673,44.259375],[27.004929,44.261085],[27.006419,44.268173],[27.010174,44.289404],[27.011013,44.292341],[27.029683,44.289395],[27.034424,44.325261],[27.024296,44.323608],[27.024936,44.328476],[27.017954,44.32985]]]}},
{"type":"Feature","id":"ROU:ADM2:RO-CL.roseti","properties":{"shapeName":"ROSETI","shapeISO":"","shapeGroup":"ROU","shapeType":"ADM2","adm1ISO":"RO-CL","parentISO":"RO-CL","parentID":"ROU:ADM1:RO-CL","src_shape_id":"2599482B60300141658332"},"geometry":{"type":"Polygon","coordinates":[[[27.488481,44.320094],[27.445496,44.322797],[27.443565,44.322689],[27.442848,44.31058],[27.441414,44.288048],[27.440649,44.270822],[27.44155,44.270747],[27.440726,44.260822],[27.443922,44.260466],[27.443793,44.256548],[27.437546,44.257039],[27.434972,44.237246],[27.438033,44.237114],[27.437237,44.22827],[27.437101,44.220262],[27.437976,44.215326],[27.43763,44.211473],[27.429292,44.209075],[27.428663,44.199556],[27.429084,44.197017],[27.429192,44.180855],[27.434193,44.180588],[27.434193,44.176036],[27.430969,44.173712],[27.430955,44.1615],[27.431895,44.15425],[27.432763,44.137623],[27.423876,44.133442],[27.422864,44.132444],[27.425121,44.126471],[27.430956,44.125166],[27.443631,44.12398],[27.453465,44.125076],[27.458461,44.126682],[27.463957,44.129813],[27.471332,44.135315],[27.475957,44.137746],[27.484772,44.143959],[27.496671,44.149018],[27.503957,44.151372],[27.50841,44.15432],[27.492433,44.156228],[27.491009,44.158846],[27.479141,44.166449],[27.478236,44.169278],[27.479946,44.175472],[27.479673,44.180534],[27.480511,44.211794],[27.480984,44.216708],[27.486414,44.218048],[27.48534,44.221065],[27.485228,44.23903],[27.484101,44.246215],[27.482649,44.25948],[27.484389,44.277285],[27.49365,44.277029],[27.492282,44.287175],[27.488481,44.320094]]]}},
{"type":"Feature","id":"ROU:ADM2:RO-CL.ciocanesti","properties":{"shapeName":"CIOCANESTI","shapeISO":"","shapeGroup":"ROU","shapeType":"ADM2","adm1ISO":"RO-CL","parentISO":"RO-CL","parentID":"ROU:ADM1:RO-CL","src_shape_id":"2599482B47068055124782"},"geometry":{"type":"Polygon","coordinates":[[[27.018654,44.141072],[27.029777,44.143433],[27.041956,44.144615],[27.048083,44.144001],[27.047415,44.141556],[27.049435,44.140219],[27.05681,44.136974],[27.061028,44.135637],[27.080378,44.132981],[27.090027,44.133098],[27.0946,44.134086],[27.10223,44.136774],[27.123528,44.140258],[27.131304,44.140694],[27.135147,44.140459],[27.131685,44.143325],[27.127936,44.143218],[27.125243,44.145213],[27.127168,44.147267],[27.127012,44.166383],[27.127201,44.204014],[27.12572,44.207831],[27.124226,44.209466],[27.121739,44.206487],[27.114698,44.200582],[27.110933,44.204522],[27.107337,44.219462],[27.106273,44.226332],[27.106598,44.23222],[27.091172,44.229739],[27.083631,44.253174],[27.071091,44.251053],[27.06905,44.259145],[27.069789,44.259276],[27.071142,44.262776],[27.069301,44.266748],[27.053474,44.268287],[27.047736,44.286107],[27.038378,44.287911],[27.06016,44.319973],[27.052094,44.322764],[27.061879,44.336599],[27.043426,44.343331],[27.037773,44.335384],[27.02821,44.335936],[27.026918,44.338794],[27.017954,44.32985],[27.024936,44.328476],[27.024296,44.323608],[27.034424,44.325261],[27.029683,44.289395],[27.011013,44.292341],[27.010174,44.289404],[27.006419,44.268173],[27.004929,44.261085],[27.006673,44.259375],[27.009332,44.258822],[27.00841,44.256491],[27.000803,44.241626],[27.008214,44.225],[27.015824,44.207314],[27.019074,44.199227],[27.019545,44.196428],[27.012228,44.196855],[27.012639,44.183615],[27.007138,44.18287],[27.007925,44.167726],[27.00904,44.166382],[27.016406,44.161692],[27.018152,44.156357],[27.018654,44.141072]]]}},
{"type":"Feature","id":"ROU:ADM2:RO-CL.modelu","properties":{"shapeName":"MODELU","shapeISO":"","shapeGroup":"ROU","shapeType":"ADM2","adm1ISO":"RO-CL","parentISO":"RO-CL","parentID":"ROU:ADM1:RO-CL","src_shape_id":"2599482B1796391595822"},"geometry":{"type":"Polygon","coordinates":[[[27.397974,44.131463],[27.407524,44.130519],[27.425121,44.126471],[27.422864,44.132444],[27.423876,44.133442],[27.432763,44.137623],[27.431895,44.15425],[27.430955,44.1615],[27.430969,44.173712],[27.434193,44.176036],[27.434193,44.180588],[27.429192,44.180855],[27.429084,44.197017],[27.428663,44.199556],[27.429292,44.209075],[27.43763,44.211473],[27.437976,44.215326],[27.437101,44.220262],[27.437237,44.22827],[27.438033,44.237114],[27.434972,44.237246],[27.437546,44.257039],[27.443793,44.256548],[27.443922,44.260466],[27.440726,44.260822],[27.44155,44.270747],[27.440649,44.270822],[27.441414,44.288048],[27.442848,44.31058],[27.408046,44.310956],[27.41085,44.332181],[27.39427,44.334053],[27.361133,44.337452],[27.356959,44.31389],[27.353315,44.292259],[27.345406,44.247076],[27.373591,44.244603],[27.374256,44.247433],[27.378566,44.246968],[27.3715,44.207215],[27.371072,44.204219],[27.365307,44.204557],[27.363265,44.192588],[27.378813,44.19651],[27.378875,44.194204],[27.382328,44.187002],[27.380253,44.186495],[27.381853,44.179707],[27.384579,44.184151],[27.386258,44.18812],[27.391639,44.191926],[27.392527,44.193608],[27.396975,44.190822],[27.397539,44.188335],[27.395427,44.181821],[27.394954,44.177967],[27.392486,44.170552],[27.394998,44.169433],[27.400923,44.170053],[27.403358,44.168418],[27.395323,44.163907],[27.397653,44.16126],[27.394464,44.160163],[27.394471,44.157915],[27.396335,44.153013],[27.398926,44.137694],[27.397974,44.131463]]]}},
{"type":"Feature","id":"ROU:ADM2:RO-CL.nana","properties":{"shapeName":"NANA","shapeISO":"","shapeGroup":"ROU","shapeType":"ADM2","adm1ISO":"RO-CL","parentISO":"RO-CL","parentID":"ROU:ADM1:RO-CL","src_shape_id":"2599482B6717067498389"},"geometry":{"type":"Polygon","coordinates":[[[26.702583,44.310447],[26.701136,44.314658],[26.691171,44.318033],[26.691869,44.328952],[26.668851,44.329452],[26.669744,44.34903],[26.643627,44.349885],[26.627687,44.350173],[26.627149,44.349466],[26.618719,44.350824],[26.608657,44.352472],[26.608122,44.350683],[26.578708,44.351434],[26.578836,44.347071],[26.586627,44.335062],[26.576915,44.332834],[26.587426,44.325234],[26.58575,44.324057],[26.567795,44.318035],[26.557865,44.314432],[26.557417,44.30329],[26.55691,44.288239],[26.575449,44.287795],[26.573902,44.285536],[26.574218,44.282882],[26.575785,44.281587],[26.576171,44.275266],[26.576296,44.27151],[26.573302,44.268438],[26.582824,44.259943],[26.581452,44.259128],[26.588414,44.253174],[26.588713,44.249124],[26.590388,44.24848],[26.594391,44.250472],[26.596757,44.248841],[26.599397,44.251513],[26.605669,44.255174],[26.607752,44.255299],[26.614969,44.259388],[26.616278,44.260681],[26.616243,44.274376],[26.636429,44.273908],[26.636833,44.28473],[26.630301,44.287895],[26.632823,44.288794],[26.636595,44.291785],[26.639391,44.295342],[26.647238,44.292946],[26.682524,44.292036],[26.706019,44.291761],[26.706964,44.295503],[26.704388,44.298594],[26.69763,44.305042],[26.702653,44.307383],[26.702583,44.310447]]]}},
{"type":"Feature","id":"ROU:ADM2:RO-CL.galbinasi","properties":{"shapeName":"GALBINASI","shapeISO":"","shapeGroup":"ROU","shapeType":"ADM2","adm1ISO":"RO-CL","parentISO":"RO-CL","parentID":"ROU:ADM1:RO-CL","src_shape_id":"2599482B621131645392"},"geometry":{"type":"Polygon","coordinates":[[[26.46395,44.310165],[26.463921,44.311759],[26.467684,44.313993],[26.468407,44.317666],[26.465734,44.318407],[26.465683,44.321311],[26.462185,44.326599],[26.462826,44.329507],[26.461225,44.330775],[26.461047,44.333921],[26.459695,44.336119],[26.487152,44.335406],[26.489207,44.335898],[26.498269,44.335639],[26.498819,44.344853],[26.50834,44.344734],[26.509048,44.35647],[26.498977,44.356592],[26.49885,44.353351],[26.480883,44.353546],[26.480925,44.350576],[26.469309,44.350074],[26.462033,44.347683],[26.457985,44.347757],[26.458352,44.343476],[26.453542,44.340604],[26.45557,44.336978],[26.454772,44.336129],[26.4429,44.33643],[26.427962,44.336869],[26.427276,44.331147],[26.424622,44.329786],[26.409986,44.330761],[26.409953,44.325248],[26.407704,44.325291],[26.408211,44.321555],[26.405824,44.319208],[26.401882,44.31924],[26.397234,44.317519],[26.413305,44.310945],[26.422059,44.305898],[26.426484,44.304348],[26.43507,44.311188],[26.436715,44.312935],[26.440619,44.30918],[26.44782,44.310581],[26.44823,44.308086],[26.458221,44.308061],[26.457898,44.310264],[26.46395,44.310165]]]}},
{"type":"Feature","id":"ROU:ADM2:RO-CL.ulmu","properties":{"shapeName":"ULMU","shapeISO":"","shapeGroup":"ROU","shapeType":"ADM2","adm1ISO":"RO-CL","parentISO":"RO-CL","parentID":"ROU:ADM1:RO-CL","src_shape_id":"2599482B65281916384420"},"geometry":{"type":"Polygon","coordinates":[[[27.016142,44.330159],[26.997766,44.333211],[26.971376,44.337151],[26.974305,44.345966],[26.981249,44.345685],[26.981895,44.353977],[26.978632,44.354127],[26.974392,44.352115],[26.971713,44.35588],[26.964526,44.357184],[26.95335,44.35873],[26.946944,44.33338],[26.946357,44.332598],[26.931399,44.321727],[26.91141,44.335947],[26.907008,44.332287],[26.908043,44.329865],[26.908382,44.32556],[26.905864,44.325602],[26.903517,44.323168],[26.903455,44.321108],[26.90632,44.317879],[26.905616,44.314906],[26.902542,44.314665],[26.889234,44.318275],[26.884325,44.314061],[26.87541,44.310772],[26.871618,44.301922],[26.869986,44.299927],[26.863023,44.296453],[26.860103,44.292088],[26.857631,44.285608],[26.858854,44.283374],[26.858575,44.280868],[26.861384,44.279739],[26.865962,44.285369],[26.870227,44.287309],[26.873528,44.285547],[26.874208,44.280825],[26.877314,44.277891],[26.882454,44.275695],[26.894749,44.259251],[26.897542,44.258989],[26.898081,44.25507],[26.910896,44.246974],[26.919434,44.247661],[26.927298,44.249716],[26.932036,44.251526],[26.934569,44.253295],[26.936402,44.259791],[26.939723,44.25925],[26.943832,44.270974],[26.946502,44.280043],[26.967374,44.276469],[26.977111,44.308647],[26.99999,44.304787],[27.005345,44.321379],[27.012944,44.320135],[27.016142,44.330159]]]}},
{"type":"Feature","id":"ROU:ADM2:RO-CL.gradistea","properties":{"shapeName":"GRADISTEA","shapeISO":"","shapeGroup":"ROU","shapeType":"ADM2","adm1ISO":"RO-CL","parentISO":"RO-CL","parentID":"ROU:ADM1:RO-CL","src_shape_id":"2599482B45351562291775"},"geometry":{"type":"Polygon","coordinates":[[[27.135147,44.140459],[27.141181,44.139672],[27.145712,44.138474],[27.154383,44.134971],[27.164948,44.131742],[27.171614,44.128976],[27.175911,44.126618],[27.178702,44.123929],[27.185197,44.120496],[27.200918,44.1191],[27.21728,44.116678],[27.228691,44.116232],[27.233497,44.116465],[27.241878,44.117955],[27.241352,44.126952],[27.237812,44.138806],[27.240755,44.139086],[27.23859,44.151567],[27.241483,44.151697],[27.240642,44.161905],[27.238235,44.186409],[27.235576,44.210602],[27.233117,44.234582],[27.226803,44.23417],[27.223601,44.238531],[27.22496,44.241658],[27.226714,44.242137],[27.227441,44.249721],[27.230796,44.249721],[27.232262,44.255294],[27.222983,44.258219],[27.22505,44.274432],[27.232088,44.273548],[27.237827,44.295936],[27.240515,44.296585],[27.246234,44.318322],[27.253337,44.346022],[27.241479,44.346144],[27.245957,44.369187],[27.234931,44.36975],[27.232791,44.361287],[27.221292,44.362373],[27.216884,44.346557],[27.213901,44.337531],[27.209756,44.326725],[27.209014,44.321689],[27.20156,44.292257],[27.20118,44.28729],[27.186409,44.289947],[27.180283,44.271851],[27.181429,44.269433],[27.17472,44.270713],[27.171053,44.269638],[27.168288,44.26316],[27.149941,44.264335],[27.147816,44.266942],[27.143562,44.260129],[27.137337,44.25571],[27.136119,44.252556],[27.129732,44.249861],[27.129149,44.255759],[27.126678,44.25848],[27.120568,44.260924],[27.118722,44.263659],[27.119242,44.268304],[27.116464,44.263817],[27.117036,44.261766],[27.115116,44.26041],[27.107345,44.260399],[27.099652,44.257218],[27.09619,44.256979],[27.093641,44.262581],[27.086124,44.265974],[27.079802,44.265039],[27.080525,44.262219],[27.071591,44.261367],[27.069789,44.259276],[27.06905,44.259145],[27.071091,44.251053],[27.083631,44.253174],[27.091172,44.229739],[27.106598,44.23222],[27.106273,44.226332],[27.107337,44.219462],[27.110933,44.204522],[27.114698,44.200582],[27.121739,44.206487],[27.124226,44.209466],[27.12572,44.207831],[27.127201,44.204014],[27.127012,44.166383],[27.127168,44.147267],[27.125243,44.145213],[27.127936,44.143218],[27.131685,44.143325],[27.135147,44.140459]]]}},
{"type":"Feature","id":"ROU:ADM2:RO-CL.alexandru-odobescu","properties":{"shapeName":"ALEXANDRU ODOBESCU","shapeISO":"","shapeGroup":"ROU","shapeType":"ADM2","adm1ISO":"RO-CL","parentISO":"RO-CL","parentID":"ROU:ADM1:RO-CL","src_shape_id":"2599482B54929326220532"},"geometry":{"type":"Polygon","coordinates":[[[27.069789,44.259276],[27.071591,44.261367],[27.080525,44.262219],[27.079802,44.265039],[27.086124,44.265974],[27.093641,44.262581],[27.09619,44.256979],[27.099652,44.257218],[27.107345,44.260399],[27.115116,44.26041],[27.117036,44.261766],[27.116464,44.263817],[27.119242,44.268304],[27.120262,44.267976],[27.139648,44.299178],[27.16022,44.331404],[27.146383,44.335854],[27.153459,44.347232],[27.153841,44.347846],[27.136971,44.348273],[27.141455,44.35518],[27.136875,44.356657],[27.145929,44.369567],[27.136605,44.372944],[27.130882,44.366906],[27.119804,44.358544],[27.117179,44.357046],[27.128525,44.352952],[27.115489,44.334182],[27.11024,44.327035],[27.096915,44.331822],[27.093927,44.327356],[27.089202,44.328618],[27.085463,44.323142],[27.081208,44.324203],[27.072192,44.327467],[27.068024,44.330125],[27.071412,44.335069],[27.062841,44.338175],[27.061958,44.340272],[27.063409,44.342583],[27.046971,44.348616],[27.043426,44.343331],[27.061879,44.336599],[27.052094,44.322764],[27.06016,44.319973],[27.038378,44.287911],[27.047736,44.286107],[27.053474,44.268287],[27.069301,44.266748],[27.071142,44.262776],[27.069789,44.259276]]]}},
{"type":"Feature","id":"ROU:ADM2:RO-CL.unirea","properties":{"shapeName":"UNIREA","shapeISO":"","shapeGroup":"ROU","shapeType":"ADM2","adm1ISO":"RO-CL","parentISO":"RO-CL","parentID":"ROU:ADM1:RO-CL","src_shape_id":"2599482B78203742234892"},"geometry":{"type":"Polygon","coordinates":[[[27.650491,44.205017],[27.647174,44.207571],[27.643054,44.213739],[27.642327,44.220249],[27.652578,44.220779],[27.652347,44.229139],[27.661328,44.229441],[27.663795,44.230224],[27.646383,44.253199],[27.652482,44.25603],[27.649391,44.2597],[27.648286,44.25925],[27.640841,44.262182],[27.635383,44.26634],[27.625006,44.276698],[27.623043,44.274505],[27.621082,44.276541],[27.616489,44.278802],[27.610615,44.27198],[27.604944,44.281002],[27.596933,44.278883],[27.580092,44.30673],[27.561363,44.338092],[27.550986,44.356109],[27.545477,44.36475],[27.517663,44.356086],[27.537577,44.322812],[27.520789,44.31965],[27.522369,44.313856],[27.524518,44.310251],[27.541709,44.270697],[27.54259,44.265243],[27.55404,44.265979],[27.555013,44.25895],[27.556669,44.243402],[27.555863,44.242281],[27.557498,44.23634],[27.560735,44.232917],[27.568748,44.220924],[27.572103,44.218816],[27.573926,44.216654],[27.584374,44.213057],[27.584069,44.209828],[27.582076,44.20589],[27.577031,44.20133],[27.569176,44.195884],[27.561192,44.188013],[27.563426,44.184655],[27.577816,44.190735],[27.600662,44.198329],[27.615153,44.199847],[27.62024,44.201127],[27.629415,44.205327],[27.636993,44.206066],[27.650491,44.205017]]]}},
{"type":"Feature","id":"ROU:ADM2:RO-CL.frasinet","properties":{"shapeName":"FRASINET","shapeISO":"","shapeGroup":"ROU","shapeType":"ADM2","adm1ISO":"RO-CL","parentISO":"RO-CL","parentID":"ROU:ADM1:RO-CL","src_shape_id":"2599482B90916905842338"},"geometry":{"type":"Polygon","coordinates":[[[26.733465,44.273352],[26.758802,44.273096],[26.759089,44.281866],[26.774347,44.281626],[26.773982,44.272605],[26.806552,44.272037],[26.812974,44.271688],[26.839484,44.271184],[26.858575,44.280868],[26.858854,44.283374],[26.857631,44.285608],[26.860103,44.292088],[26.863023,44.296453],[26.869986,44.299927],[26.871618,44.301922],[26.87541,44.310772],[26.884325,44.314061],[26.889234,44.318275],[26.902542,44.314665],[26.905616,44.314906],[26.90632,44.317879],[26.903455,44.321108],[26.903517,44.323168],[26.905864,44.325602],[26.9066,44.329941],[26.905986,44.333462],[26.907882,44.33477],[26.887092,44.347629],[26.895486,44.35443],[26.87972,44.367036],[26.862808,44.380202],[26.854164,44.373133],[26.853644,44.373294],[26.84492,44.366135],[26.841116,44.368663],[26.837209,44.36546],[26.819488,44.352456],[26.824805,44.348341],[26.804051,44.333198],[26.801613,44.335587],[26.798646,44.334879],[26.793496,44.330577],[26.782514,44.322348],[26.782068,44.318182],[26.768393,44.318237],[26.767977,44.309073],[26.745939,44.309183],[26.745377,44.308281],[26.744082,44.290788],[26.736337,44.290945],[26.735722,44.275917],[26.733465,44.273352]]]}},
{"type":"Feature","id":"ROU:ADM2:RO-CL.stefan-voda","properties":{"shapeName":"STEFAN VODA","shapeISO":"","shapeGroup":"ROU","shapeType":"ADM2","adm1ISO":"RO-CL","parentISO":"RO-CL","parentID":"ROU:ADM1:RO-CL","src_shape_id":"2599482B59698871742145"},"geometry":{"type":"Polygon","coordinates":[[[27.356959,44.31389],[27.361133,44.337452],[27.39427,44.334053],[27.41085,44.332181],[27.408046,44.310956],[27.442848,44.31058],[27.443565,44.322689],[27.445496,44.322797],[27.446967,44.33684],[27.449979,44.367775],[27.384755,44.369675],[27.366785,44.370328],[27.367799,44.375979],[27.356172,44.377387],[27.331002,44.380137],[27.322176,44.380126],[27.299858,44.380561],[27.29836,44.371683],[27.298486,44.367114],[27.292401,44.345206],[27.285905,44.321273],[27.317799,44.317411],[27.32733,44.316288],[27.356959,44.31389]]]}},
{"type":"Feature","id":"ROU:ADM2:RO-CL.independenta","properties":{"shapeName":"INDEPENDENTA","shapeISO":"","shapeGroup":"ROU","shapeType":"ADM2","adm1ISO":"RO-CL","parentISO":"RO-CL","parentID":"ROU:ADM1:RO-CL","src_shape_id":"2599482B9869535617898"},"geometry":{"type":"Polygon","coordinates":[[[27.245957,44.369187],[27.250995,44.394983],[27.238696,44.395528],[27.236882,44.39059],[27.214218,44.395048],[27.203459,44.367515],[27.201863,44.367821],[27.193819,44.354233],[27.189274,44.347246],[27.188139,44.347016],[27.182563,44.337615],[27.153459,44.347232],[27.146383,44.335854],[27.16022,44.331404],[27.139648,44.299178],[27.120262,44.267976],[27.119242,44.268304],[27.118722,44.263659],[27.120568,44.260924],[27.126678,44.25848],[27.129149,44.255759],[27.129732,44.249861],[27.136119,44.252556],[27.137337,44.25571],[27.143562,44.260129],[27.147816,44.266942],[27.149941,44.264335],[27.168288,44.26316],[27.171053,44.269638],[27.17472,44.270713],[27.181429,44.269433],[27.180283,44.271851],[27.186409,44.289947],[27.20118,44.28729],[27.20156,44.292257],[27.209014,44.321689],[27.209756,44.326725],[27.213901,44.337531],[27.216884,44.346557],[27.221292,44.362373],[27.232791,44.361287],[27.234931,44.36975],[27.245957,44.369187]]]}},
{"type":"Feature","id":"ROU:ADM2:RO-CL.jegalia","properties":{"shapeName":"JEGALIA","shapeISO":"","shapeGroup":"ROU","shapeType":"ADM2","adm1ISO":"RO-CL","parentISO":"RO-CL","parentID":"ROU:ADM1:RO-CL","src_shape_id":"2599482B22085974272415"},"geometry":{"type":"Polygon","coordinates":[[[27.714234,44.196097],[27.714517,44.21266],[27.720747,44.213509],[27.726827,44.215647],[27.735863,44.221579],[27.720066,44.219157],[27.718071,44.226921],[27.71997,44.227154],[27.716029,44.24193],[27.71198,44.241412],[27.706878,44.241688],[27.706922,44.244383],[27.703726,44.246396],[27.702573,44.249466],[27.703921,44.254746],[27.699147,44.25872],[27.70218,44.261792],[27.692366,44.275198],[27.692273,44.278351],[27.679417,44.290555],[27.672195,44.297146],[27.669823,44.302013],[27.672386,44.304172],[27.676238,44.306045],[27.681753,44.3106],[27.688609,44.313461],[27.694098,44.31508],[27.692538,44.318081],[27.689205,44.317319],[27.686083,44.319809],[27.677389,44.328853],[27.665572,44.341708],[27.663083,44.340835],[27.661083,44.343696],[27.64816,44.339907],[27.632676,44.36539],[27.631205,44.368442],[27.619353,44.387757],[27.613489,44.385884],[27.545477,44.36475],[27.550986,44.356109],[27.561363,44.338092],[27.580092,44.30673],[27.596933,44.278883],[27.604944,44.281002],[27.610615,44.27198],[27.616489,44.278802],[27.621082,44.276541],[27.623043,44.274505],[27.625006,44.276698],[27.635383,44.26634],[27.640841,44.262182],[27.648286,44.25925],[27.649391,44.2597],[27.652482,44.25603],[27.646383,44.253199],[27.663795,44.230224],[27.661328,44.229441],[27.652347,44.229139],[27.652578,44.220779],[27.642327,44.220249],[27.643054,44.213739],[27.647174,44.207571],[27.650491,44.205017],[27.65683,44.204515],[27.665912,44.202366],[27.683877,44.201202],[27.693878,44.198644],[27.700217,44.196441],[27.712233,44.195808],[27.714234,44.196097]]]}},
{"type":"Feature","id":"ROU:ADM2:RO-CL.sohatu","properties":{"shapeName":"SOHATU","shapeISO":"","shapeGroup":"ROU","shapeType":"ADM2","adm1ISO":"RO-CL","parentISO":"RO-CL","parentID":"ROU:ADM1:RO-CL","src_shape_id":"2599482B94348057267162"},"geometry":{"type":"Polygon","coordinates":[[[26.557865,44.314432],[26.567795,44.318035],[26.58575,44.324057],[26.587426,44.325234],[26.576915,44.332834],[26.586627,44.335062],[26.578836,44.347071],[26.578708,44.351434],[26.608122,44.350683],[26.608657,44.352472],[26.618719,44.350824],[26.619675,44.369501],[26.620041,44.37201],[26.617815,44.372554],[26.616432,44.376627],[26.611145,44.37853],[26.609511,44.380167],[26.603523,44.381727],[26.600768,44.380748],[26.599805,44.363158],[26.569649,44.363939],[26.569958,44.370045],[26.54988,44.370614],[26.550329,44.384756],[26.550819,44.392706],[26.550252,44.39445],[26.542945,44.390744],[26.541322,44.389369],[26.53885,44.389877],[26.53495,44.392594],[26.520457,44.392504],[26.520715,44.402637],[26.523023,44.404299],[26.519647,44.406679],[26.511184,44.409181],[26.508523,44.407633],[26.502977,44.407109],[26.50131,44.408597],[26.498464,44.407722],[26.491976,44.410593],[26.486657,44.4108],[26.48461,44.408447],[26.482436,44.401182],[26.486225,44.400546],[26.490688,44.403562],[26.490754,44.39616],[26.487322,44.394287],[26.490779,44.391373],[26.490379,44.387311],[26.47002,44.387392],[26.469277,44.372301],[26.439295,44.372894],[26.4384,44.354324],[26.443417,44.353849],[26.4429,44.33643],[26.454772,44.336129],[26.45557,44.336978],[26.453542,44.340604],[26.458352,44.343476],[26.457985,44.347757],[26.462033,44.347683],[26.469309,44.350074],[26.480925,44.350576],[26.480883,44.353546],[26.49885,44.353351],[26.498977,44.356592],[26.509048,44.35647],[26.50834,44.344734],[26.498819,44.344853],[26.498269,44.335639],[26.489207,44.335898],[26.487152,44.335406],[26.459695,44.336119],[26.461047,44.333921],[26.461225,44.330775],[26.462826,44.329507],[26.462185,44.326599],[26.465683,44.321311],[26.465734,44.318407],[26.468407,44.317666],[26.467684,44.313993],[26.463921,44.311759],[26.46395,44.310165],[26.468806,44.309541],[26.477181,44.311892],[26.477807,44.311348],[26.503737,44.317046],[26.503307,44.314648],[26.524371,44.318667],[26.5292,44.319037],[26.550972,44.31813],[26.550912,44.312137],[26.557865,44.314432]]]}},
{"type":"Feature","id":"ROU:ADM2:RO-CL.valea-argovei","properties":{"shapeName":"VALEA ARGOVEI","shapeISO":"","shapeGroup":"ROU","shapeType":"ADM2","adm1ISO":"RO-CL","parentISO":"RO-CL","parentID":"ROU:ADM1:RO-CL","src_shape_id":"2599482B75738828080552"},"geometry":{"type":"Polygon","coordinates":[[[26.736337,44.290945],[26.744082,44.290788],[26.745377,44.308281],[26.745939,44.309183],[26.767977,44.309073],[26.768393,44.318237],[26.782068,44.318182],[26.782514,44.322348],[26.793496,44.330577],[26.798646,44.334879],[26.801613,44.335587],[26.804051,44.333198],[26.824805,44.348341],[26.819488,44.352456],[26.837209,44.36546],[26.841116,44.368663],[26.84492,44.366135],[26.853644,44.373294],[26.854164,44.373133],[26.862808,44.380202],[26.856765,44.385665],[26.851539,44.391734],[26.852876,44.393321],[26.831011,44.409791],[26.834519,44.412844],[26.831005,44.415574],[26.81551,44.405992],[26.812179,44.408296],[26.808979,44.406307],[26.807767,44.403742],[26.809173,44.402674],[26.803102,44.399275],[26.806094,44.397105],[26.803488,44.393121],[26.797356,44.395176],[26.792061,44.399586],[26.777934,44.412526],[26.772521,44.411996],[26.768306,44.410254],[26.764464,44.407671],[26.75958,44.407552],[26.757887,44.408423],[26.759428,44.410535],[26.758942,44.414786],[26.752552,44.415318],[26.752711,44.414014],[26.742455,44.406158],[26.719609,44.38899],[26.722885,44.385171],[26.718458,44.372265],[26.719527,44.370103],[26.722463,44.367602],[26.722476,44.366193],[26.726591,44.36542],[26.731305,44.358555],[26.738434,44.360272],[26.739068,44.356803],[26.738909,44.347824],[26.738066,44.327969],[26.722587,44.328253],[26.721549,44.310055],[26.720912,44.291278],[26.736337,44.290945]]]}},
{"type":"Feature","id":"ROU:ADM2:RO-CL.plataresti","properties":{"shapeName":"PLATARESTI","shapeISO":"","shapeGroup":"ROU","shapeType":"ADM2","adm1ISO":"RO-CL","parentISO":"RO-CL","parentID":"ROU:ADM1:RO-CL","src_shape_id":"2599482B2519283515230"},"geometry":{"type":"Polygon","coordinates":[[[26.397234,44.317519],[26.401882,44.31924],[26.405824,44.319208],[26.408211,44.321555],[26.407704,44.325291],[26.409953,44.325248],[26.409986,44.330761],[26.424622,44.329786],[26.427276,44.331147],[26.427962,44.336869],[26.4429,44.33643],[26.443417,44.353849],[26.4384,44.354324],[26.439295,44.372894],[26.469277,44.372301],[26.47002,44.387392],[26.490379,44.387311],[26.490779,44.391373],[26.487322,44.394287],[26.490754,44.39616],[26.490688,44.403562],[26.486225,44.400546],[26.482436,44.401182],[26.48461,44.408447],[26.486657,44.4108],[26.491976,44.410593],[26.498464,44.407722],[26.50131,44.408597],[26.501126,44.421007],[26.471351,44.421041],[26.470752,44.401883],[26.45261,44.402276],[26.440724,44.40322],[26.440018,44.388271],[26.419733,44.388787],[26.420689,44.386284],[26.413926,44.382952],[26.412924,44.384241],[26.413238,44.388866],[26.400052,44.389275],[26.399351,44.374035],[26.38911,44.3743],[26.388805,44.36795],[26.372634,44.368411],[26.355399,44.368387],[26.353292,44.367589],[26.355982,44.363662],[26.357184,44.359728],[26.360628,44.356675],[26.360793,44.353637],[26.358887,44.351516],[26.361639,44.349689],[26.368202,44.348013],[26.371581,44.345873],[26.373045,44.343494],[26.372488,44.337743],[26.367062,44.337067],[26.360395,44.333613],[26.342077,44.324705],[26.320504,44.31532],[26.319338,44.312556],[26.319762,44.308971],[26.34447,44.3202],[26.362025,44.329154],[26.366145,44.320567],[26.361196,44.318491],[26.35676,44.317363],[26.348512,44.312602],[26.353683,44.304663],[26.36238,44.307701],[26.378162,44.314783],[26.381072,44.312797],[26.385645,44.312127],[26.389631,44.313449],[26.391975,44.315369],[26.393575,44.312867],[26.394655,44.31621],[26.397234,44.317519]]]}},
{"type":"Feature","id":"ROU:ADM2:RO-CL.cuza-voda","properties":{"shapeName":"CUZA VODA","shapeISO":"","shapeGroup":"ROU","shapeType":"ADM2","adm1ISO":"RO-CL","parentISO":"RO-CL","parentID":"ROU:ADM1:RO-CL","src_shape_id":"2599482B12109110667072"},"geometry":{"type":"Polygon","coordinates":[[[27.317799,44.317411],[27.285905,44.321273],[27.292401,44.345206],[27.298486,44.367114],[27.29836,44.371683],[27.299858,44.380561],[27.303054,44.397012],[27.304061,44.404847],[27.290484,44.405809],[27.290914,44.410985],[27.29196,44.415963],[27.278518,44.416926],[27.277165,44.410835],[27.270664,44.41102],[27.271961,44.417298],[27.256524,44.418264],[27.253926,44.409835],[27.250995,44.394983],[27.245957,44.369187],[27.241479,44.346144],[27.253337,44.346022],[27.246234,44.318322],[27.240515,44.296585],[27.237827,44.295936],[27.232088,44.273548],[27.22505,44.274432],[27.222983,44.258219],[27.232262,44.255294],[27.230796,44.249721],[27.227441,44.249721],[27.226714,44.242137],[27.22496,44.241658],[27.223601,44.238531],[27.226803,44.23417],[27.233117,44.234582],[27.235576,44.210602],[27.238235,44.186409],[27.240642,44.161905],[27.241483,44.151697],[27.23859,44.151567],[27.240755,44.139086],[27.237812,44.138806],[27.241352,44.126952],[27.241878,44.117955],[27.248531,44.119916],[27.252735,44.120177],[27.25832,44.12472],[27.264032,44.126095],[27.27138,44.126337],[27.274632,44.128023],[27.274332,44.13457],[27.278141,44.136175],[27.277233,44.1461],[27.273436,44.183265],[27.268679,44.232548],[27.279047,44.233191],[27.277528,44.235315],[27.279499,44.236699],[27.281963,44.240219],[27.295367,44.239863],[27.295351,44.254956],[27.314029,44.254637],[27.314037,44.280128],[27.31576,44.280652],[27.317799,44.317411]]]}},
{"type":"Feature","id":"ROU:ADM2:RO-CL.lupsanu","properties":{"shapeName":"LUPSANU","shapeISO":"","shapeGroup":"ROU","shapeType":"ADM2","adm1ISO":"RO-CL","parentISO":"RO-CL","parentID":"ROU:ADM1:RO-CL","src_shape_id":"2599482B13609226917732"},"geometry":{"type":"Polygon","coordinates":[[[27.017954,44.32985],[27.026918,44.338794],[27.032785,44.343012],[27.030745,44.346491],[27.024721,44.35275],[27.028755,44.361301],[27.019483,44.360338],[27.023712,44.369055],[27.026262,44.372841],[27.022863,44.373838],[27.024365,44.376664],[27.019577,44.378046],[27.028766,44.396463],[27.014834,44.398539],[26.999274,44.400114],[26.997758,44.397867],[26.977908,44.400738],[26.979686,44.402866],[26.965451,44.405349],[26.964188,44.40155],[26.92415,44.406659],[26.931266,44.435337],[26.92021,44.435411],[26.916821,44.431244],[26.912686,44.428734],[26.909438,44.424579],[26.906433,44.419362],[26.903323,44.415445],[26.901945,44.412561],[26.89841,44.408087],[26.891118,44.405679],[26.891861,44.410633],[26.885512,44.40644],[26.883807,44.407732],[26.878644,44.403507],[26.867044,44.412594],[26.856603,44.403893],[26.855332,44.396637],[26.852876,44.393321],[26.851539,44.391734],[26.856765,44.385665],[26.862808,44.380202],[26.87972,44.367036],[26.895486,44.35443],[26.887092,44.347629],[26.907882,44.33477],[26.905986,44.333462],[26.9066,44.329941],[26.905864,44.325602],[26.908382,44.32556],[26.908043,44.329865],[26.907008,44.332287],[26.91141,44.335947],[26.931399,44.321727],[26.946357,44.332598],[26.946944,44.33338],[26.95335,44.35873],[26.964526,44.357184],[26.971713,44.35588],[26.974392,44.352115],[26.978632,44.354127],[26.981895,44.353977],[26.981249,44.345685],[26.974305,44.345966],[26.971376,44.337151],[26.997766,44.333211],[27.016142,44.330159],[27.017954,44.32985]]]}},
{"type":"Feature","id":"ROU:ADM2:RO-CL.valcelele","properties":{"shapeName":"VALCELELE","shapeISO":"","shapeGroup":"ROU","shapeType":"ADM2","adm1ISO":"RO-CL","parentISO":"RO-CL","parentID":"ROU:ADM1:RO-CL","src_shape_id":"2599482B65802479293410"},"geometry":{"type":"Polygon","coordinates":[[[27.153459,44.347232],[27.182563,44.337615],[27.188139,44.347016],[27.189274,44.347246],[27.193819,44.354233],[27.201863,44.367821],[27.203459,44.367515],[27.214218,44.395048],[27.236882,44.39059],[27.238696,44.395528],[27.250995,44.394983],[27.253926,44.409835],[27.236883,44.411811],[27.221727,44.415153],[27.227405,44.429871],[27.192091,44.430571],[27.188954,44.43048],[27.187422,44.425591],[27.178908,44.427324],[27.180204,44.430831],[27.168899,44.431032],[27.165609,44.430393],[27.162104,44.425734],[27.159502,44.423527],[27.157864,44.419625],[27.154012,44.420443],[27.152359,44.416442],[27.143276,44.418517],[27.116255,44.424127],[27.11564,44.424091],[27.113385,44.416621],[27.110468,44.410502],[27.103674,44.398397],[27.117281,44.393834],[27.11752,44.393357],[27.109649,44.382472],[27.136605,44.372944],[27.145929,44.369567],[27.136875,44.356657],[27.141455,44.35518],[27.136971,44.348273],[27.153841,44.347846],[27.153459,44.347232]]]}},
{"type":"Feature","id":"ROU:ADM2:RO-CL.vlad-tepes","properties":{"shapeName":"VLAD TEPES","shapeISO":"","shapeGroup":"ROU","shapeType":"ADM2","adm1ISO":"RO-CL","parentISO":"RO-CL","parentID":"ROU:ADM1:RO-CL","src_shape_id":"2599482B30900908751152"},"geometry":{"type":"Polygon","coordinates":[[[27.043426,44.343331],[27.046971,44.348616],[27.063409,44.342583],[27.061958,44.340272],[27.062841,44.338175],[27.071412,44.335069],[27.068024,44.330125],[27.072192,44.327467],[27.081208,44.324203],[27.085463,44.323142],[27.089202,44.328618],[27.093927,44.327356],[27.096915,44.331822],[27.11024,44.327035],[27.115489,44.334182],[27.128525,44.352952],[27.117179,44.357046],[27.119804,44.358544],[27.130882,44.366906],[27.136605,44.372944],[27.109649,44.382472],[27.11752,44.393357],[27.117281,44.393834],[27.103674,44.398397],[27.110468,44.410502],[27.113385,44.416621],[27.100595,44.420067],[27.092982,44.420216],[27.093425,44.43254],[27.054542,44.433281],[27.051001,44.423711],[27.042977,44.424253],[27.038426,44.415252],[27.026729,44.418331],[27.021666,44.409101],[27.033452,44.405435],[27.028766,44.396463],[27.019577,44.378046],[27.024365,44.376664],[27.022863,44.373838],[27.026262,44.372841],[27.023712,44.369055],[27.019483,44.360338],[27.028755,44.361301],[27.024721,44.35275],[27.030745,44.346491],[27.032785,44.343012],[27.026918,44.338794],[27.02821,44.335936],[27.037773,44.335384],[27.043426,44.343331]]]}},
{"type":"Feature","id":"ROU:ADM2:RO-CL.nicolae-balcescu","properties":{"shapeName":"NICOLAE BALCESCU","shapeISO":"","shapeGroup":"ROU","shapeType":"ADM2","adm1ISO":"RO-CL","parentISO":"RO-CL","parentID":"ROU:ADM1:RO-CL","src_shape_id":"2599482B57162776684646"},"geometry":{"type":"Polygon","coordinates":[[[26.777934,44.412526],[26.777217,44.413281],[26.784954,44.419395],[26.783001,44.426319],[26.78348,44.430344],[26.785031,44.431072],[26.788598,44.434122],[26.790226,44.438808],[26.792799,44.441961],[26.803374,44.447798],[26.804453,44.450006],[26.802354,44.452972],[26.80361,44.454789],[26.807844,44.457901],[26.796989,44.463324],[26.795904,44.463205],[26.760079,44.462911],[26.744145,44.463733],[26.745831,44.479484],[26.744133,44.481149],[26.740135,44.475389],[26.73407,44.472147],[26.729886,44.470509],[26.726403,44.470505],[26.718913,44.468829],[26.714544,44.466195],[26.71175,44.459812],[26.713463,44.457145],[26.710483,44.450819],[26.706661,44.446862],[26.7093,44.446597],[26.717795,44.447068],[26.715588,44.418039],[26.71936,44.418885],[26.723541,44.422987],[26.727679,44.419967],[26.730199,44.4201],[26.735421,44.42234],[26.742335,44.422821],[26.743996,44.42177],[26.748087,44.415647],[26.752552,44.415318],[26.758942,44.414786],[26.759428,44.410535],[26.757887,44.408423],[26.75958,44.407552],[26.764464,44.407671],[26.768306,44.410254],[26.772521,44.411996],[26.777934,44.412526]]]}},
{"type":"Feature","id":"ROU:ADM2:RO-CL.dragos-voda","properties":{"shapeName":"DRAGOS VODA","shapeISO":"","shapeGroup":"ROU","shapeType":"ADM2","adm1ISO":"RO-CL","parentISO":"RO-CL","parentID":"ROU:ADM1:RO-CL","src_shape_id":"2599482B24421220796675"},"geometry":{"type":"Polygon","coordinates":[[[27.29196,44.415963],[27.29474,44.429307],[27.285971,44.429443],[27.288687,44.44339],[27.291684,44.45745],[27.292304,44.458387],[27.306318,44.456472],[27.312448,44.486802],[27.287466,44.489706],[27.290306,44.503793],[27.267832,44.506261],[27.262934,44.489179],[27.227903,44.49347],[27.230828,44.505011],[27.221687,44.506265],[27.220091,44.499837],[27.210503,44.501048],[27.207046,44.488282],[27.2062,44.48384],[27.187088,44.486674],[27.188457,44.491921],[27.172145,44.495123],[27.161229,44.497888],[27.154086,44.499168],[27.139879,44.500925],[27.135521,44.483022],[27.108164,44.484397],[27.098712,44.449463],[27.095725,44.437611],[27.09485,44.432519],[27.093425,44.43254],[27.092982,44.420216],[27.100595,44.420067],[27.113385,44.416621],[27.11564,44.424091],[27.116255,44.424127],[27.143276,44.418517],[27.152359,44.416442],[27.154012,44.420443],[27.157864,44.419625],[27.159502,44.423527],[27.162104,44.425734],[27.165609,44.430393],[27.168899,44.431032],[27.180204,44.430831],[27.178908,44.427324],[27.187422,44.425591],[27.188954,44.43048],[27.192091,44.430571],[27.227405,44.429871],[27.221727,44.415153],[27.236883,44.411811],[27.253926,44.409835],[27.256524,44.418264],[27.271961,44.417298],[27.270664,44.41102],[27.277165,44.410835],[27.278518,44.416926],[27.29196,44.415963]]]}},
{"type":"Feature","id":"ROU:ADM2:RO-CL.tamadau-mare","properties":{"shapeName":"TAMADAU MARE","shapeISO":"","shapeGroup":"ROU","shapeType":"ADM2","adm1ISO":"RO-CL","parentISO":"RO-CL","parentID":"ROU:ADM1:RO-CL","src_shape_id":"2599482B39728516719627"},"geometry":{"type":"Polygon","coordinates":[[[26.597574,44.515132],[26.594153,44.514203],[26.591045,44.511025],[26.588221,44.512399],[26.592932,44.517363],[26.598755,44.521569],[26.599373,44.523068],[26.587641,44.524186],[26.589113,44.523061],[26.584735,44.51972],[26.569867,44.509621],[26.557432,44.50201],[26.5584,44.501089],[26.548446,44.495308],[26.531155,44.47841],[26.531642,44.474629],[26.539067,44.471742],[26.545129,44.47181],[26.547178,44.473265],[26.546481,44.474888],[26.552424,44.480102],[26.561853,44.475222],[26.557433,44.467028],[26.563178,44.465365],[26.562967,44.462849],[26.56041,44.460679],[26.558318,44.460294],[26.550398,44.453272],[26.552901,44.451023],[26.555817,44.450287],[26.559838,44.451704],[26.564357,44.450162],[26.55773,44.44529],[26.557908,44.444346],[26.592081,44.423236],[26.600739,44.430268],[26.596336,44.432937],[26.595252,44.432096],[26.590341,44.434375],[26.604634,44.447739],[26.606733,44.449335],[26.618903,44.460463],[26.62968,44.470037],[26.627194,44.470819],[26.622616,44.474614],[26.620317,44.47464],[26.616277,44.473011],[26.610244,44.471717],[26.608776,44.472832],[26.615599,44.482698],[26.6221,44.483105],[26.618007,44.487443],[26.619074,44.487919],[26.600466,44.503328],[26.608541,44.507578],[26.602073,44.511597],[26.597574,44.515132]]]}},
{"type":"Feature","id":"ROU:ADM2:RO-CL.fundulea","properties":{"shapeName":"FUNDULEA","shapeISO":"","shapeGroup":"ROU","shapeType":"ADM2","adm1ISO":"RO-CL","parentISO":"RO-CL","parentID":"ROU:ADM1:RO-CL","src_shape_id":"2599482B1760038642223"},"geometry":{"type":"Polygon","coordinates":[[[26.550252,44.39445],[26.552618,44.394552],[26.560625,44.391808],[26.560892,44.402324],[26.565992,44.401138],[26.601151,44.400526],[26.601599,44.419353],[26.592081,44.423236],[26.557908,44.444346],[26.55773,44.44529],[26.564357,44.450162],[26.559838,44.451704],[26.555817,44.450287],[26.552901,44.451023],[26.550398,44.453272],[26.558318,44.460294],[26.56041,44.460679],[26.562967,44.462849],[26.563178,44.465365],[26.557433,44.467028],[26.561853,44.475222],[26.552424,44.480102],[26.546481,44.474888],[26.547178,44.473265],[26.545129,44.47181],[26.539067,44.471742],[26.531642,44.474629],[26.531155,44.47841],[26.548446,44.495308],[26.5584,44.501089],[26.557432,44.50201],[26.569867,44.509621],[26.584735,44.51972],[26.589113,44.523061],[26.587641,44.524186],[26.578552,44.525332],[26.562907,44.526601],[26.553258,44.534006],[26.549045,44.533159],[26.541185,44.528785],[26.531793,44.536217],[26.522066,44.530283],[26.510706,44.52485],[26.50862,44.526665],[26.506424,44.52651],[26.486022,44.516122],[26.484193,44.517878],[26.467937,44.507316],[26.463443,44.493936],[26.472935,44.491825],[26.481837,44.493995],[26.47774,44.481801],[26.473456,44.481538],[26.468806,44.48259],[26.464564,44.484557],[26.454301,44.479012],[26.454311,44.474771],[26.455597,44.4739],[26.455806,44.469165],[26.462041,44.469209],[26.461501,44.455775],[26.472241,44.455555],[26.471577,44.436992],[26.471838,44.436744],[26.471351,44.421041],[26.501126,44.421007],[26.50131,44.408597],[26.502977,44.407109],[26.508523,44.407633],[26.511184,44.409181],[26.519647,44.406679],[26.523023,44.404299],[26.520715,44.402637],[26.520457,44.392504],[26.53495,44.392594],[26.53885,44.389877],[26.541322,44.389369],[26.542945,44.390744],[26.550252,44.39445]]]}},
{"type":"Feature","id":"ROU:ADM2:RO-CL.lehliu","properties":{"shapeName":"LEHLIU","shapeISO":"","shapeGroup":"ROU","shapeType":"ADM2","adm1ISO":"RO-CL","parentISO":"RO-CL","parentID":"ROU:ADM1:RO-CL","src_shape_id":"2599482B77078336789858"},"geometry":{"type":"Polygon","coordinates":[[[26.785031,44.431072],[26.821975,44.4286],[26.823492,44.440505],[26.839905,44.439459],[26.843445,44.441655],[26.838926,44.445879],[26.843423,44.448245],[26.842346,44.449529],[26.853299,44.455366],[26.861735,44.44736],[26.865148,44.454978],[26.848851,44.459085],[26.850323,44.461822],[26.859013,44.48114],[26.862554,44.485141],[26.863774,44.488785],[26.874025,44.511522],[26.892728,44.515923],[26.897547,44.523089],[26.881386,44.528009],[26.87552,44.517572],[26.86189,44.520126],[26.850441,44.517601],[26.844844,44.51577],[26.844181,44.519299],[26.846456,44.521811],[26.85024,44.524559],[26.842405,44.52613],[26.842533,44.525249],[26.829923,44.527556],[26.823388,44.511546],[26.810641,44.522441],[26.804881,44.514915],[26.796312,44.511021],[26.789893,44.50736],[26.78717,44.502947],[26.781345,44.497194],[26.784916,44.495164],[26.784057,44.479995],[26.770184,44.480608],[26.761903,44.48123],[26.760079,44.462911],[26.795904,44.463205],[26.796989,44.463324],[26.807844,44.457901],[26.80361,44.454789],[26.802354,44.452972],[26.804453,44.450006],[26.803374,44.447798],[26.792799,44.441961],[26.790226,44.438808],[26.788598,44.434122],[26.785031,44.431072]]]}},
{"type":"Feature","id":"ROU:ADM2:RO-CL.belciugatele","properties":{"shapeName":"BELCIUGATELE","shapeISO":"","shapeGroup":"ROU","shapeType":"ADM2","adm1ISO":"RO-CL","parentISO":"RO-CL","parentID":"ROU:ADM1:RO-CL","src_shape_id":"2599482B10542752576449"},"geometry":{"type":"Polygon","coordinates":[[[26.553258,44.534006],[26.525159,44.556212],[26.522169,44.558168],[26.512691,44.561579],[26.509746,44.556966],[26.507777,44.555431],[26.504306,44.558614],[26.491598,44.562322],[26.49636,44.571477],[26.479865,44.576504],[26.476131,44.570158],[26.473243,44.569057],[26.466579,44.56357],[26.459755,44.564667],[26.45534,44.566136],[26.450156,44.56615],[26.445306,44.562916],[26.44524,44.56022],[26.439027,44.548656],[26.448378,44.549017],[26.451925,44.550088],[26.45217,44.548144],[26.455592,44.547505],[26.458171,44.548135],[26.461727,44.54735],[26.465864,44.548737],[26.467212,44.546881],[26.463739,44.5457],[26.462596,44.54338],[26.456153,44.541591],[26.456754,44.540113],[26.440786,44.528873],[26.428494,44.521575],[26.419159,44.524745],[26.41609,44.521684],[26.40711,44.508159],[26.403778,44.509214],[26.399762,44.51156],[26.398099,44.51012],[26.388896,44.504137],[26.378151,44.497411],[26.360572,44.486101],[26.37677,44.47724],[26.376237,44.469062],[26.381731,44.470308],[26.381626,44.464707],[26.39473,44.465731],[26.395389,44.457195],[26.426341,44.45664],[26.437637,44.461857],[26.443531,44.456343],[26.45017,44.456275],[26.450505,44.461729],[26.452361,44.462537],[26.458469,44.458968],[26.451968,44.455963],[26.461501,44.455775],[26.462041,44.469209],[26.455806,44.469165],[26.455597,44.4739],[26.454311,44.474771],[26.454301,44.479012],[26.464564,44.484557],[26.468806,44.48259],[26.473456,44.481538],[26.47774,44.481801],[26.481837,44.493995],[26.472935,44.491825],[26.463443,44.493936],[26.467937,44.507316],[26.484193,44.517878],[26.486022,44.516122],[26.506424,44.52651],[26.50862,44.526665],[26.510706,44.52485],[26.522066,44.530283],[26.531793,44.536217],[26.541185,44.528785],[26.549045,44.533159],[26.553258,44.534006]]]}},
{"type":"Feature","id":"ROU:ADM2:RO-CL.perisoru","properties":{"shapeName":"PERISORU","shapeISO":"","shapeGroup":"ROU","shapeType":"ADM2","adm1ISO":"RO-CL","parentISO":"RO-CL","parentID":"ROU:ADM1:RO-CL","src_shape_id":"2599482B98819823315951"},"geometry":{"type":"Polygon","coordinates":[[[27.520789,44.31965],[27.537577,44.322812],[27.517663,44.356086],[27.545477,44.36475],[27.613489,44.385884],[27.615205,44.395888],[27.615892,44.397302],[27.605259,44.413947],[27.600344,44.422409],[27.606892,44.422257],[27.611446,44.436733],[27.61388,44.467735],[27.570228,44.46781],[27.571196,44.513447],[27.571982,44.559077],[27.568825,44.558985],[27.558626,44.561112],[27.550682,44.561656],[27.546399,44.562017],[27.545659,44.542116],[27.525269,44.543811],[27.521748,44.523162],[27.519465,44.503394],[27.51854,44.497149],[27.502393,44.496697],[27.502445,44.493554],[27.504974,44.463777],[27.473437,44.462817],[27.47287,44.469399],[27.472189,44.469936],[27.448894,44.469939],[27.449737,44.44497],[27.449703,44.429599],[27.449924,44.389007],[27.450117,44.379214],[27.449979,44.367775],[27.446967,44.33684],[27.445496,44.322797],[27.488481,44.320094],[27.497845,44.319503],[27.515945,44.319822],[27.520789,44.31965]]]}},
{"type":"Feature","id":"ROU:ADM2:RO-CL.ileana","properties":{"shapeName":"ILEANA","shapeISO":"","shapeGroup":"ROU","shapeType":"ADM2","adm1ISO":"RO-CL","parentISO":"RO-CL","parentID":"ROU:ADM1:RO-CL","src_shape_id":"2599482B99093410988413"},"geometry":{"type":"Polygon","coordinates":[[[26.760079,44.462911],[26.761903,44.48123],[26.770184,44.480608],[26.784057,44.479995],[26.784916,44.495164],[26.781345,44.497194],[26.78717,44.502947],[26.789893,44.50736],[26.796312,44.511021],[26.770143,44.517794],[26.77311,44.522898],[26.779294,44.521408],[26.784306,44.535179],[26.786965,44.5418],[26.766163,44.54674],[26.766606,44.549024],[26.760278,44.54992],[26.754194,44.528062],[26.748941,44.529158],[26.722724,44.537683],[26.723753,44.541203],[26.722195,44.541876],[26.724085,44.546814],[26.725988,44.559013],[26.704561,44.560569],[26.70409,44.559091],[26.697855,44.560003],[26.680873,44.562408],[26.682672,44.565234],[26.673321,44.572524],[26.67618,44.574518],[26.683839,44.591051],[26.665003,44.595538],[26.657375,44.583492],[26.65529,44.579711],[26.635573,44.540863],[26.644694,44.536127],[26.641301,44.531657],[26.624513,44.541385],[26.620583,44.541582],[26.614514,44.535386],[26.61838,44.532904],[26.61999,44.530347],[26.616828,44.526581],[26.608374,44.532095],[26.606414,44.531115],[26.60374,44.532444],[26.601793,44.526709],[26.61079,44.522352],[26.597574,44.515132],[26.602073,44.511597],[26.608541,44.507578],[26.600466,44.503328],[26.619074,44.487919],[26.618007,44.487443],[26.6221,44.483105],[26.615599,44.482698],[26.608776,44.472832],[26.610244,44.471717],[26.616277,44.473011],[26.620317,44.47464],[26.622616,44.474614],[26.627194,44.470819],[26.62968,44.470037],[26.633894,44.467976],[26.633886,44.465505],[26.6309,44.461193],[26.630565,44.458047],[26.631809,44.457149],[26.636378,44.457377],[26.638924,44.455738],[26.642982,44.455807],[26.646409,44.453447],[26.652055,44.454251],[26.656317,44.456198],[26.662432,44.455184],[26.665394,44.453346],[26.666588,44.449973],[26.669412,44.448374],[26.67403,44.448793],[26.679993,44.448165],[26.685753,44.444967],[26.687217,44.445486],[26.704252,44.446898],[26.706661,44.446862],[26.710483,44.450819],[26.713463,44.457145],[26.71175,44.459812],[26.714544,44.466195],[26.718913,44.468829],[26.726403,44.470505],[26.729886,44.470509],[26.73407,44.472147],[26.740135,44.475389],[26.744133,44.481149],[26.745831,44.479484],[26.744145,44.463733],[26.760079,44.462911]]]}},
{"type":"Feature","id":"ROU:ADM2:RO-CL.chiselet","properties":{"shapeName":"CHISELET","shapeISO":"","shapeGroup":"ROU","shapeType":"ADM2","adm1ISO":"RO-CL","parentISO":"RO-CL","parentID":"ROU:ADM1:RO-CL","src_shape_id":"2599482B88528086640764"},"geometry":{"type":"Polygon","coordinates":[[[26.852836,44.11569],[26.875026,44.120986],[26.882221,44.122991],[26.881379,44.124176],[26.898468,44.131256],[26.906712,44.133331],[26.912324,44.133712],[26.923237,44.132297],[26.928515,44.132445],[26.91776,44.149956],[26.90511,44.165182],[26.895904,44.175817],[26.874747,44.188688],[26.872294,44.18963],[26.857284,44.189053],[26.856821,44.195437],[26.839334,44.194834],[26.821795,44.193623],[26.819181,44.222024],[26.808598,44.221575],[26.809503,44.228542],[26.7918,44.235274],[26.789082,44.235222],[26.780133,44.231336],[26.780943,44.253971],[26.77309,44.254226],[26.773416,44.261814],[26.767958,44.262905],[26.758632,44.268394],[26.752446,44.272717],[26.742213,44.264553],[26.73902,44.261625],[26.735712,44.255514],[26.726709,44.252471],[26.722886,44.251551],[26.720184,44.24643],[26.719843,44.240585],[26.718468,44.240088],[26.711564,44.229396],[26.722679,44.231584],[26.731819,44.234599],[26.737877,44.222596],[26.738867,44.21955],[26.745271,44.217173],[26.751131,44.219659],[26.756276,44.212208],[26.767985,44.215966],[26.781106,44.221147],[26.782239,44.209553],[26.789751,44.209838],[26.791729,44.188735],[26.799408,44.189033],[26.806946,44.188857],[26.808383,44.174655],[26.809736,44.159023],[26.825034,44.159856],[26.826402,44.146705],[26.829386,44.142983],[26.836665,44.135308],[26.846005,44.124425],[26.850038,44.122057],[26.850316,44.118275],[26.852836,44.11569]]]}},
{"type":"Feature","id":"ROU:ADM2:RO-CL.manastirea","properties":{"shapeName":"MANASTIREA","shapeISO":"","shapeGroup":"ROU","shapeType":"ADM2","adm1ISO":"RO-CL","parentISO":"RO-CL","parentID":"ROU:ADM1:RO-CL","src_shape_id":"2599482B98336508905768"},"geometry":{"type":"Polygon","coordinates":[[[26.726709,44.252471],[26.735712,44.255514],[26.73902,44.261625],[26.742213,44.264553],[26.752446,44.272717],[26.758632,44.268394],[26.767958,44.262905],[26.773416,44.261814],[26.77309,44.254226],[26.780943,44.253971],[26.780133,44.231336],[26.789082,44.235222],[26.7918,44.235274],[26.809503,44.228542],[26.808598,44.221575],[26.819181,44.222024],[26.821795,44.193623],[26.839334,44.194834],[26.856821,44.195437],[26.857284,44.189053],[26.872294,44.18963],[26.874747,44.188688],[26.895904,44.175817],[26.90511,44.165182],[26.91776,44.149956],[26.928515,44.132445],[26.94082,44.133359],[26.950185,44.134879],[26.961914,44.136188],[26.969001,44.135762],[26.963909,44.153355],[26.95648,44.162349],[26.955242,44.164577],[26.949738,44.177546],[26.949696,44.179929],[26.952464,44.189729],[26.950867,44.198716],[26.95001,44.199981],[26.939118,44.208668],[26.936708,44.211048],[26.9308,44.22258],[26.925935,44.220453],[26.920971,44.228865],[26.911181,44.246795],[26.910896,44.246974],[26.898081,44.25507],[26.897542,44.258989],[26.894749,44.259251],[26.882454,44.275695],[26.877314,44.277891],[26.874208,44.280825],[26.873528,44.285547],[26.870227,44.287309],[26.865962,44.285369],[26.861384,44.279739],[26.858575,44.280868],[26.839484,44.271184],[26.812974,44.271688],[26.806552,44.272037],[26.773982,44.272605],[26.774347,44.281626],[26.759089,44.281866],[26.758802,44.273096],[26.733465,44.273352],[26.728323,44.273382],[26.722205,44.274169],[26.720359,44.261606],[26.727651,44.261454],[26.726709,44.252471]]]}},
{"type":"Feature","id":"ROU:ADM2:RO-CL.gurbanesti","properties":{"shapeName":"GURBANESTI","shapeISO":"","shapeGroup":"ROU","shapeType":"ADM2","adm1ISO":"RO-CL","parentISO":"RO-CL","parentID":"ROU:ADM1:RO-CL","src_shape_id":"2599482B46558344458581"},"geometry":{"type":"Polygon","coordinates":[[[26.721549,44.310055],[26.722587,44.328253],[26.738066,44.327969],[26.738909,44.347824],[26.739068,44.356803],[26.738434,44.360272],[26.731305,44.358555],[26.726591,44.36542],[26.722476,44.366193],[26.722463,44.367602],[26.719527,44.370103],[26.718458,44.372265],[26.722885,44.385171],[26.719609,44.38899],[26.742455,44.406158],[26.752711,44.414014],[26.752552,44.415318],[26.748087,44.415647],[26.743996,44.42177],[26.742335,44.422821],[26.735421,44.42234],[26.730199,44.4201],[26.727679,44.419967],[26.723541,44.422987],[26.71936,44.418885],[26.715588,44.418039],[26.714895,44.418507],[26.708621,44.415292],[26.705947,44.417057],[26.707014,44.419169],[26.70557,44.422484],[26.70323,44.422758],[26.700112,44.421211],[26.698316,44.421938],[26.697541,44.424819],[26.670988,44.40364],[26.669407,44.402016],[26.660888,44.395311],[26.656741,44.398234],[26.649984,44.393948],[26.647227,44.396069],[26.648614,44.399129],[26.647358,44.400279],[26.625629,44.388233],[26.61621,44.382765],[26.611145,44.37853],[26.616432,44.376627],[26.617815,44.372554],[26.620041,44.37201],[26.619675,44.369501],[26.618719,44.350824],[26.627149,44.349466],[26.627687,44.350173],[26.643627,44.349885],[26.669744,44.34903],[26.668851,44.329452],[26.691869,44.328952],[26.691171,44.318033],[26.701136,44.314658],[26.702583,44.310447],[26.721549,44.310055]]]}},
{"type":"Feature","id":"ROU:ADM2:RO-CL.sarulesti","properties":{"shapeName":"SARULESTI","shapeISO":"","shapeGroup":"ROU","shapeType":"ADM2","adm1ISO":"RO-CL","parentISO":"RO-CL","parentID":"ROU:ADM1:RO-CL","src_shape_id":"2599482B18552862006598"},"geometry":{"type":"Polygon","coordinates":[[[26.611145,44.37853],[26.61621,44.382765],[26.625629,44.388233],[26.647358,44.400279],[26.648614,44.399129],[26.647227,44.396069],[26.649984,44.393948],[26.656741,44.398234],[26.660888,44.395311],[26.669407,44.402016],[26.670988,44.40364],[26.697541,44.424819],[26.698316,44.421938],[26.700112,44.421211],[26.70323,44.422758],[26.70557,44.422484],[26.707014,44.419169],[26.705947,44.417057],[26.708621,44.415292],[26.714895,44.418507],[26.715588,44.418039],[26.717795,44.447068],[26.7093,44.446597],[26.706661,44.446862],[26.704252,44.446898],[26.687217,44.445486],[26.685753,44.444967],[26.679993,44.448165],[26.67403,44.448793],[26.669412,44.448374],[26.666588,44.449973],[26.665394,44.453346],[26.662432,44.455184],[26.656317,44.456198],[26.652055,44.454251],[26.646409,44.453447],[26.642982,44.455807],[26.638924,44.455738],[26.636378,44.457377],[26.631809,44.457149],[26.630565,44.458047],[26.6309,44.461193],[26.633886,44.465505],[26.633894,44.467976],[26.62968,44.470037],[26.618903,44.460463],[26.606733,44.449335],[26.604634,44.447739],[26.590341,44.434375],[26.595252,44.432096],[26.596336,44.432937],[26.600739,44.430268],[26.592081,44.423236],[26.601599,44.419353],[26.601151,44.400526],[26.565992,44.401138],[26.560892,44.402324],[26.560625,44.391808],[26.552618,44.394552],[26.550252,44.39445],[26.550819,44.392706],[26.550329,44.384756],[26.54988,44.370614],[26.569958,44.370045],[26.569649,44.363939],[26.599805,44.363158],[26.600768,44.380748],[26.603523,44.381727],[26.609511,44.380167],[26.611145,44.37853]]]}},
{"type":"Feature","id":"ROU:ADM2:RO-CL.lehliu-gara","properties":{"shapeName":"LEHLIU GARA","shapeISO":"","shapeGroup":"ROU","shapeType":"ADM2","adm1ISO":"RO-CL","parentISO":"RO-CL","parentID":"ROU:ADM1:RO-CL","src_shape_id":"2599482B17056969376019"},"geometry":{"type":"Polygon","coordinates":[[[26.852876,44.393321],[26.855332,44.396637],[26.856603,44.403893],[26.867044,44.412594],[26.878644,44.403507],[26.883807,44.407732],[26.885512,44.40644],[26.891861,44.410633],[26.891118,44.405679],[26.89841,44.408087],[26.901945,44.412561],[26.903323,44.415445],[26.906433,44.419362],[26.909438,44.424579],[26.912686,44.428734],[26.916821,44.431244],[26.92021,44.435411],[26.888936,44.436041],[26.902146,44.45755],[26.900849,44.458785],[26.902162,44.460684],[26.898576,44.461859],[26.902953,44.467964],[26.900818,44.471134],[26.902618,44.490158],[26.955015,44.490262],[26.952152,44.492664],[26.957741,44.499345],[26.972686,44.49998],[26.972734,44.528923],[26.971755,44.528946],[26.940821,44.524176],[26.892728,44.515923],[26.874025,44.511522],[26.863774,44.488785],[26.862554,44.485141],[26.859013,44.48114],[26.850323,44.461822],[26.848851,44.459085],[26.865148,44.454978],[26.861735,44.44736],[26.853299,44.455366],[26.842346,44.449529],[26.843423,44.448245],[26.838926,44.445879],[26.843445,44.441655],[26.839905,44.439459],[26.823492,44.440505],[26.821975,44.4286],[26.785031,44.431072],[26.78348,44.430344],[26.783001,44.426319],[26.784954,44.419395],[26.777217,44.413281],[26.777934,44.412526],[26.792061,44.399586],[26.797356,44.395176],[26.803488,44.393121],[26.806094,44.397105],[26.803102,44.399275],[26.809173,44.402674],[26.807767,44.403742],[26.808979,44.406307],[26.812179,44.408296],[26.81551,44.405992],[26.831005,44.415574],[26.834519,44.412844],[26.831011,44.409791],[26.852876,44.393321]]]}},
{"type":"Feature","id":"ROU:ADM2:RO-CL.dor-marunt","properties":{"shapeName":"DOR MARUNT","shapeISO":"","shapeGroup":"ROU","shapeType":"ADM2","adm1ISO":"RO-CL","parentISO":"RO-CL","parentID":"ROU:ADM1:RO-CL","src_shape_id":"2599482B33848106941365"},"geometry":{"type":"Polygon","coordinates":[[[27.028766,44.396463],[27.033452,44.405435],[27.021666,44.409101],[27.026729,44.418331],[27.038426,44.415252],[27.042977,44.424253],[27.051001,44.423711],[27.054542,44.433281],[27.093425,44.43254],[27.09485,44.432519],[27.095725,44.437611],[27.098712,44.449463],[27.108164,44.484397],[27.091565,44.485082],[27.091702,44.508591],[27.042417,44.508663],[27.0035,44.508688],[27.003612,44.528991],[26.972734,44.528923],[26.972686,44.49998],[26.957741,44.499345],[26.952152,44.492664],[26.955015,44.490262],[26.902618,44.490158],[26.900818,44.471134],[26.902953,44.467964],[26.898576,44.461859],[26.902162,44.460684],[26.900849,44.458785],[26.902146,44.45755],[26.888936,44.436041],[26.92021,44.435411],[26.931266,44.435337],[26.92415,44.406659],[26.964188,44.40155],[26.965451,44.405349],[26.979686,44.402866],[26.977908,44.400738],[26.997758,44.397867],[26.999274,44.400114],[27.014834,44.398539],[27.028766,44.396463]]]}},
{"type":"Feature","id":"ROU:ADM2:RO-CL.budesti","properties":{"shapeName":"BUDESTI","shapeISO":"","shapeGroup":"ROU","shapeType":"ADM2","adm1ISO":"RO-CL","parentISO":"RO-CL","parentID":"ROU:ADM1:RO-CL","src_shape_id":"2599482B32121739895306"},"geometry":{"type":"Polygon","coordinates":[[[26.470736,44.227042],[26.471509,44.230258],[26.474612,44.23042],[26.471894,44.233784],[26.478743,44.239648],[26.475011,44.241885],[26.496497,44.259892],[26.498002,44.257446],[26.501379,44.255594],[26.505776,44.254849],[26.50633,44.253652],[26.503501,44.24893],[26.518841,44.249391],[26.52483,44.249927],[26.525429,44.258218],[26.534064,44.257904],[26.535105,44.258671],[26.535623,44.275897],[26.536582,44.276194],[26.556196,44.275839],[26.576171,44.275266],[26.575785,44.281587],[26.574218,44.282882],[26.573902,44.285536],[26.575449,44.287795],[26.55691,44.288239],[26.557417,44.30329],[26.536697,44.303813],[26.535894,44.288079],[26.522043,44.28871],[26.52125,44.28619],[26.507567,44.287028],[26.500738,44.28716],[26.499936,44.281072],[26.497552,44.277486],[26.493966,44.27654],[26.466514,44.277181],[26.465408,44.256475],[26.454703,44.256713],[26.452911,44.261134],[26.448959,44.261549],[26.448797,44.259997],[26.443807,44.256472],[26.440004,44.254948],[26.435834,44.249321],[26.429134,44.274874],[26.428907,44.281438],[26.426887,44.278777],[26.423152,44.278695],[26.416406,44.276266],[26.415788,44.272151],[26.411503,44.26982],[26.395573,44.266366],[26.393747,44.269688],[26.389655,44.269582],[26.386164,44.270857],[26.385824,44.26807],[26.383735,44.267502],[26.380348,44.269373],[26.375125,44.269149],[26.37523,44.268624],[26.358638,44.25926],[26.351499,44.264968],[26.335451,44.261614],[26.317977,44.258238],[26.315001,44.257861],[26.325831,44.249893],[26.333587,44.251067],[26.345859,44.24181],[26.360173,44.241935],[26.361323,44.223072],[26.400454,44.224207],[26.401054,44.208104],[26.403322,44.206618],[26.413028,44.205577],[26.415808,44.203823],[26.415878,44.198593],[26.418356,44.198572],[26.424753,44.200016],[26.430068,44.201725],[26.432203,44.203361],[26.436776,44.210917],[26.444603,44.221986],[26.448147,44.224133],[26.458997,44.225745],[26.463379,44.224769],[26.468504,44.225787],[26.470736,44.227042]]]}},
{"type":"Feature","id":"ROU:ADM2:RO-CL.frumusani","properties":{"shapeName":"FRUMUSANI","shapeISO":"","shapeGroup":"ROU","shapeType":"ADM2","adm1ISO":"RO-CL","parentISO":"RO-CL","parentID":"ROU:ADM1:RO-CL","src_shape_id":"2599482B46828357361633"},"geometry":{"type":"Polygon","coordinates":[[[26.393575,44.312867],[26.391975,44.315369],[26.389631,44.313449],[26.385645,44.312127],[26.381072,44.312797],[26.378162,44.314783],[26.36238,44.307701],[26.353683,44.304663],[26.348512,44.312602],[26.35676,44.317363],[26.361196,44.318491],[26.366145,44.320567],[26.362025,44.329154],[26.34447,44.3202],[26.319762,44.308971],[26.319338,44.312556],[26.320504,44.31532],[26.342077,44.324705],[26.360395,44.333613],[26.367062,44.337067],[26.372488,44.337743],[26.373045,44.343494],[26.371581,44.345873],[26.368202,44.348013],[26.361639,44.349689],[26.352494,44.345633],[26.348707,44.348632],[26.346289,44.347375],[26.344515,44.351681],[26.342564,44.353423],[26.340739,44.358038],[26.342934,44.361782],[26.341828,44.362649],[26.334422,44.361257],[26.332175,44.363677],[26.330985,44.371692],[26.314203,44.361765],[26.318106,44.359644],[26.321917,44.361905],[26.322926,44.360805],[26.305908,44.350835],[26.301894,44.354098],[26.29801,44.351789],[26.295262,44.353184],[26.286677,44.345928],[26.280359,44.348943],[26.26682,44.33875],[26.264413,44.336126],[26.26061,44.334789],[26.25252,44.330238],[26.271683,44.319316],[26.27586,44.317223],[26.272477,44.314692],[26.254168,44.298216],[26.259986,44.294985],[26.268525,44.289854],[26.28345,44.281328],[26.280885,44.279113],[26.284234,44.27595],[26.286273,44.276694],[26.303604,44.255854],[26.315001,44.257861],[26.317977,44.258238],[26.335451,44.261614],[26.351499,44.264968],[26.358638,44.25926],[26.37523,44.268624],[26.375125,44.269149],[26.374061,44.268615],[26.366001,44.269457],[26.363572,44.272307],[26.35785,44.268884],[26.353757,44.271866],[26.347596,44.272305],[26.34565,44.27545],[26.340179,44.2797],[26.339654,44.281933],[26.335123,44.284281],[26.358915,44.294495],[26.358055,44.29685],[26.367206,44.298317],[26.392905,44.309605],[26.393575,44.312867]]]}},
{"type":"Feature","id":"ROU:ADM2:RO-CL.borcea","properties":{"shapeName":"BORCEA","shapeISO":"","shapeGroup":"ROU","shapeType":"ADM2","adm1ISO":"RO-CL","parentISO":"RO-CL","parentID":"ROU:ADM1:RO-CL","src_shape_id":"2599482B41605099855928"},"geometry":{"type":"Polygon","coordinates":[[[27.741506,44.205328],[27.757308,44.216021],[27.768303,44.224434],[27.773956,44.228437],[27.778653,44.232555],[27.785836,44.23584],[27.800758,44.240144],[27.815577,44.242874],[27.828666,44.246579],[27.838276,44.24686],[27.85221,44.244866],[27.862591,44.245339],[27.874588,44.247697],[27.884948,44.251048],[27.890574,44.251046],[27.898453,44.249749],[27.908437,44.247564],[27.914278,44.247222],[27.922906,44.247688],[27.930414,44.24892],[27.93616,44.250625],[27.949827,44.257119],[27.967511,44.274138],[27.975206,44.285377],[27.978975,44.291724],[27.983433,44.295317],[27.990847,44.299711],[27.996962,44.304591],[28.00194,44.311717],[28.007245,44.317639],[28.011883,44.322082],[28.013793,44.32903],[28.01397,44.332922],[28.017411,44.340252],[28.001445,44.344285],[27.99993,44.344004],[27.981994,44.348857],[27.973624,44.350737],[27.95483,44.355501],[27.888177,44.371942],[27.883832,44.372817],[27.855082,44.380113],[27.85131,44.376039],[27.844462,44.370622],[27.842598,44.367933],[27.841401,44.364467],[27.839615,44.3558],[27.834758,44.347307],[27.82893,44.341678],[27.823506,44.338293],[27.815721,44.335433],[27.81338,44.334138],[27.810877,44.335388],[27.803297,44.341437],[27.799652,44.338432],[27.789126,44.35513],[27.777892,44.349415],[27.771907,44.344347],[27.764221,44.348652],[27.762511,44.347756],[27.756435,44.353656],[27.748607,44.361857],[27.756361,44.365903],[27.747501,44.374902],[27.747882,44.375476],[27.745658,44.381969],[27.769889,44.394831],[27.765715,44.397441],[27.74803,44.397403],[27.748476,44.400928],[27.745949,44.40087],[27.746557,44.405379],[27.733632,44.40621],[27.731664,44.408019],[27.732263,44.417078],[27.731337,44.419177],[27.726204,44.419285],[27.707062,44.419749],[27.705136,44.419498],[27.690566,44.420103],[27.654314,44.420927],[27.644509,44.420897],[27.643837,44.406829],[27.621586,44.407196],[27.618091,44.401736],[27.615892,44.397302],[27.615205,44.395888],[27.613489,44.385884],[27.619353,44.387757],[27.631205,44.368442],[27.632676,44.36539],[27.64816,44.339907],[27.661083,44.343696],[27.663083,44.340835],[27.665572,44.341708],[27.677389,44.328853],[27.686083,44.319809],[27.689205,44.317319],[27.692538,44.318081],[27.694098,44.31508],[27.688609,44.313461],[27.681753,44.3106],[27.676238,44.306045],[27.672386,44.304172],[27.669823,44.302013],[27.672195,44.297146],[27.679417,44.290555],[27.692273,44.278351],[27.692366,44.275198],[27.70218,44.261792],[27.699147,44.25872],[27.703921,44.254746],[27.702573,44.249466],[27.703726,44.246396],[27.706922,44.244383],[27.706878,44.241688],[27.71198,44.241412],[27.716029,44.24193],[27.71997,44.227154],[27.718071,44.226921],[27.720066,44.219157],[27.735863,44.221579],[27.726827,44.215647],[27.720747,44.213509],[27.714517,44.21266],[27.714234,44.196097],[27.725268,44.197647],[27.732966,44.199429],[27.741506,44.205328]]]}},
{"type":"Feature","id":"ROU:ADM2:RO-CL.stefan-cel-mare","properties":{"shapeName":"STEFAN CEL MARE","shapeISO":"","shapeGroup":"ROU","shapeType":"ADM2","adm1ISO":"RO-CL","parentISO":"RO-CL","parentID":"ROU:ADM1:RO-CL","src_shape_id":"2599482B78620668788752"},"geometry":{"type":"Polygon","coordinates":[[[27.615892,44.397302],[27.618091,44.401736],[27.621586,44.407196],[27.643837,44.406829],[27.644509,44.420897],[27.654314,44.420927],[27.654524,44.425059],[27.659036,44.441851],[27.659424,44.446135],[27.653439,44.44656],[27.653845,44.450621],[27.648522,44.450821],[27.649442,44.464995],[27.638594,44.465414],[27.639122,44.47071],[27.614423,44.471616],[27.61388,44.467735],[27.611446,44.436733],[27.606892,44.422257],[27.600344,44.422409],[27.605259,44.413947],[27.615892,44.397302]]]}},
{"type":"Feature","id":"ROU:ADM2:RO-CL.dragalina","properties":{"shapeName":"DRAGALINA","shapeISO":"","shapeGroup":"ROU","shapeType":"ADM2","adm1ISO":"RO-CL","parentISO":"RO-CL","parentID":"ROU:ADM1:RO-CL","src_shape_id":"2599482B45268650673873"},"geometry":{"type":"Polygon","coordinates":[[[27.449979,44.367775],[27.450117,44.379214],[27.449924,44.389007],[27.449703,44.429599],[27.449737,44.44497],[27.448894,44.469939],[27.472189,44.469936],[27.47287,44.469399],[27.473437,44.462817],[27.504974,44.463777],[27.502445,44.493554],[27.48683,44.493892],[27.445763,44.494691],[27.424063,44.495016],[27.419058,44.494609],[27.418557,44.497266],[27.388493,44.496234],[27.390101,44.505917],[27.369756,44.506141],[27.370199,44.516291],[27.352193,44.517294],[27.351511,44.513516],[27.345621,44.485945],[27.312954,44.489428],[27.312448,44.486802],[27.306318,44.456472],[27.292304,44.458387],[27.291684,44.45745],[27.288687,44.44339],[27.285971,44.429443],[27.29474,44.429307],[27.29196,44.415963],[27.290914,44.410985],[27.290484,44.405809],[27.304061,44.404847],[27.303054,44.397012],[27.299858,44.380561],[27.322176,44.380126],[27.331002,44.380137],[27.356172,44.377387],[27.367799,44.375979],[27.366785,44.370328],[27.384755,44.369675],[27.449979,44.367775]]]}},
{"type":"Feature","id":"ROU:ADM2:RO-CL.fundeni","properties":{"shapeName":"FUNDENI","shapeISO":"","shapeGroup":"ROU","shapeType":"ADM2","adm1ISO":"RO-CL","parentISO":"RO-CL","parentID":"ROU:ADM1:RO-CL","src_shape_id":"2599482B18444720984708"},"geometry":{"type":"Polygon","coordinates":[[[26.471351,44.421041],[26.471838,44.436744],[26.471577,44.436992],[26.472241,44.455555],[26.461501,44.455775],[26.451968,44.455963],[26.451747,44.444281],[26.441853,44.44443],[26.441462,44.437708],[26.408181,44.438578],[26.401463,44.438411],[26.400777,44.419771],[26.398812,44.421151],[26.389892,44.416041],[26.3756,44.421859],[26.36525,44.416961],[26.350654,44.410657],[26.348824,44.407001],[26.346536,44.404913],[26.346088,44.402915],[26.347891,44.400269],[26.3469,44.398987],[26.341981,44.397525],[26.338745,44.401918],[26.323229,44.396109],[26.330987,44.389505],[26.32455,44.387175],[26.323901,44.385424],[26.320056,44.38649],[26.320773,44.389283],[26.318284,44.394315],[26.31834,44.396748],[26.316499,44.399916],[26.313443,44.401495],[26.310718,44.400238],[26.307941,44.404894],[26.304912,44.406295],[26.305329,44.411371],[26.301823,44.413345],[26.298059,44.411688],[26.2933,44.416502],[26.288917,44.417318],[26.28619,44.415375],[26.281819,44.41393],[26.273072,44.410952],[26.268737,44.410172],[26.267147,44.408824],[26.263717,44.410406],[26.260058,44.409248],[26.262793,44.407295],[26.26837,44.405587],[26.286828,44.405147],[26.287935,44.402479],[26.287805,44.398656],[26.29833,44.399033],[26.296208,44.394787],[26.296615,44.393169],[26.299697,44.389797],[26.304217,44.389879],[26.309558,44.39177],[26.312865,44.390211],[26.313744,44.388664],[26.311707,44.384018],[26.311744,44.381844],[26.314792,44.371808],[26.321478,44.372004],[26.324857,44.374062],[26.330985,44.371692],[26.332175,44.363677],[26.334422,44.361257],[26.341828,44.362649],[26.342934,44.361782],[26.340739,44.358038],[26.342564,44.353423],[26.344515,44.351681],[26.346289,44.347375],[26.348707,44.348632],[26.352494,44.345633],[26.361639,44.349689],[26.358887,44.351516],[26.360793,44.353637],[26.360628,44.356675],[26.357184,44.359728],[26.355982,44.363662],[26.353292,44.367589],[26.355399,44.368387],[26.372634,44.368411],[26.388805,44.36795],[26.38911,44.3743],[26.399351,44.374035],[26.400052,44.389275],[26.413238,44.388866],[26.412924,44.384241],[26.413926,44.382952],[26.420689,44.386284],[26.419733,44.388787],[26.440018,44.388271],[26.440724,44.40322],[26.45261,44.402276],[26.470752,44.401883],[26.471351,44.421041]]]}}
]}