{"type":"FeatureCollection","bbox":[25.425677,43.69003,26.428518,44.55354],"features":[
{"type":"Feature","id":"ROU:ADM2:RO-GR.gaujani","properties":{"shapeName":"GAUJANI","shapeISO":"","shapeGroup":"ROU","shapeType":"ADM2","adm1ISO":"RO-GR","parentISO":"RO-GR","parentID":"ROU:ADM1:RO-GR","src_shape_id":"2599482B70071285458497"},"geometry":{"type":"Polygon","coordinates":[[[25.758461,43.701896],[25.744296,43.721881],[25.747578,43.723153],[25.745113,43.726833],[25.745924,43.729729],[25.750279,43.732171],[25.754837,43.735796],[25.753079,43.737852],[25.749748,43.73607],[25.739941,43.744992],[25.743704,43.748157],[25.748193,43.750768],[25.750181,43.753334],[25.746683,43.755348],[25.748998,43.760866],[25.751564,43.763946],[25.745181,43.774047],[25.752753,43.779568],[25.73869,43.786567],[25.739764,43.788594],[25.731093,43.793061],[25.721361,43.796997],[25.700151,43.806201],[25.683334,43.813256],[25.681559,43.81088],[25.677854,43.81058],[25.674761,43.80685],[25.660043,43.806704],[25.660223,43.791996],[25.660144,43.778655],[25.66656,43.778682],[25.668116,43.776251],[25.667731,43.773161],[25.665986,43.771314],[25.662699,43.765384],[25.658735,43.763234],[25.659519,43.760688],[25.653619,43.753591],[25.651053,43.749804],[25.660055,43.746002],[25.656465,43.741163],[25.662913,43.738426],[25.663046,43.730386],[25.66401,43.723691],[25.662859,43.720553],[25.663698,43.718103],[25.666277,43.719266],[25.677723,43.721974],[25.681308,43.725747],[25.684828,43.72779],[25.687441,43.72826],[25.688244,43.72571],[25.682967,43.723771],[25.684108,43.721688],[25.679604,43.720006],[25.683543,43.714426],[25.683075,43.712776],[25.674372,43.714803],[25.672025,43.711508],[25.673917,43.705942],[25.678999,43.706109],[25.681338,43.697903],[25.671526,43.697968],[25.671889,43.691334],[25.700924,43.692052],[25.709444,43.691605],[25.718608,43.69161],[25.719058,43.69003],[25.734184,43.69263],[25.741777,43.69491],[25.746292,43.697013],[25.758461,43.701896]]]}},
{"type":"Feature","id":"ROU:ADM2:RO-GR.vedea","properties":{"shapeName":"VEDEA","shapeISO":"","shapeGroup":"ROU","shapeType":"ADM2","adm1ISO":"RO-GR","parentISO":"RO-GR","parentID":"ROU:ADM1:RO-GR","src_shape_id":"2599482B51909863572758"},"geometry":{"type":"Polygon","coordinates":[[[25.758461,43.701896],[25.780001,43.710292],[25.789186,43.717032],[25.792525,43.720418],[25.795103,43.726317],[25.801354,43.736636],[25.805998,43.741544],[25.811968,43.745973],[25.821578,43.751657],[25.823777,43.749843],[25.835489,43.753105],[25.825325,43.765652],[25.825229,43.766326],[25.804971,43.802163],[25.805696,43.802722],[25.802287,43.806891],[25.782111,43.815586],[25.773576,43.819519],[25.765788,43.822636],[25.765829,43.823192],[25.749812,43.830029],[25.747934,43.827538],[25.736969,43.832149],[25.73925,43.834482],[25.73242,43.837562],[25.728783,43.845406],[25.703132,43.839525],[25.699484,43.84011],[25.702553,43.832162],[25.694904,43.829668],[25.694763,43.827044],[25.693189,43.825505],[25.683334,43.813256],[25.700151,43.806201],[25.721361,43.796997],[25.731093,43.793061],[25.739764,43.788594],[25.73869,43.786567],[25.752753,43.779568],[25.745181,43.774047],[25.751564,43.763946],[25.748998,43.760866],[25.746683,43.755348],[25.750181,43.753334],[25.748193,43.750768],[25.743704,43.748157],[25.739941,43.744992],[25.749748,43.73607],[25.753079,43.737852],[25.754837,43.735796],[25.750279,43.732171],[25.745924,43.729729],[25.745113,43.726833],[25.747578,43.723153],[25.744296,43.721881],[25.758461,43.701896]]]}},
{"type":"Feature","id":"ROU:ADM2:RO-GR.malu","properties":{"shapeName":"MALU","shapeISO":"","shapeGroup":"ROU","shapeType":"ADM2","adm1ISO":"RO-GR","parentISO":"RO-GR","parentID":"ROU:ADM1:RO-GR","src_shape_id":"2599482B97919449751722"},"geometry":{"type":"Polygon","coordinates":[[[25.835489,43.753105],[25.845896,43.756418],[25.854992,43.760759],[25.866559,43.769513],[25.870776,43.773072],[25.88436,43.783462],[25.881294,43.786187],[25.887214,43.795079],[25.892225,43.799964],[25.902866,43.808595],[25.894433,43.812666],[25.88847,43.811389],[25.885201,43.812167],[25.850476,43.833349],[25.840086,43.839778],[25.844281,43.841942],[25.838619,43.848417],[25.837739,43.850293],[25.837318,43.854903],[25.831807,43.854059],[25.830824,43.855999],[25.820926,43.855788],[25.820726,43.866787],[25.807462,43.866475],[25.80808,43.859476],[25.800478,43.859193],[25.801248,43.850282],[25.797972,43.850834],[25.795286,43.85263],[25.791165,43.850147],[25.786159,43.8516],[25.785427,43.852761],[25.780725,43.851569],[25.778438,43.847421],[25.774976,43.846815],[25.772353,43.843715],[25.767643,43.84629],[25.765293,43.84859],[25.762369,43.853349],[25.759963,43.855939],[25.761156,43.859236],[25.758298,43.858903],[25.754477,43.859974],[25.752017,43.859652],[25.751956,43.856579],[25.747173,43.85317],[25.743555,43.852276],[25.731826,43.854914],[25.725828,43.851751],[25.728783,43.845406],[25.73242,43.837562],[25.73925,43.834482],[25.736969,43.832149],[25.747934,43.827538],[25.749812,43.830029],[25.765829,43.823192],[25.765788,43.822636],[25.773576,43.819519],[25.782111,43.815586],[25.802287,43.806891],[25.805696,43.802722],[25.804971,43.802163],[25.825229,43.766326],[25.825325,43.765652],[25.835489,43.753105]]]}},
{"type":"Feature","id":"ROU:ADM2:RO-GR.slobozia","properties":{"shapeName":"SLOBOZIA","shapeISO":"","shapeGroup":"ROU","shapeType":"ADM2","adm1ISO":"RO-GR","parentISO":"RO-GR","parentID":"ROU:ADM1:RO-GR","src_shape_id":"2599482B23076284199588"},"geometry":{"type":"Polygon","coordinates":[[[25.902866,43.808595],[25.907939,43.812847],[25.910483,43.811621],[25.914532,43.818202],[25.917038,43.823441],[25.918623,43.828442],[25.925431,43.836143],[25.928805,43.840855],[25.934371,43.845826],[25.939922,43.851825],[25.941192,43.851074],[25.946704,43.855851],[25.952413,43.859342],[25.949485,43.861687],[25.950702,43.862656],[25.945883,43.866407],[25.943806,43.864681],[25.933821,43.869767],[25.929075,43.870904],[25.927794,43.872834],[25.919094,43.881506],[25.899501,43.881138],[25.899535,43.882989],[25.895861,43.882875],[25.895457,43.893654],[25.881451,43.893424],[25.851512,43.89286],[25.84612,43.892759],[25.846661,43.874757],[25.823849,43.874407],[25.82396,43.866837],[25.820726,43.866787],[25.820926,43.855788],[25.830824,43.855999],[25.831807,43.854059],[25.837318,43.854903],[25.837739,43.850293],[25.838619,43.848417],[25.844281,43.841942],[25.840086,43.839778],[25.850476,43.833349],[25.885201,43.812167],[25.88847,43.811389],[25.894433,43.812666],[25.902866,43.808595]]]}},
{"type":"Feature","id":"ROU:ADM2:RO-GR.gogosari","properties":{"shapeName":"GOGOSARI","shapeISO":"","shapeGroup":"ROU","shapeType":"ADM2","adm1ISO":"RO-GR","parentISO":"RO-GR","parentID":"ROU:ADM1:RO-GR","src_shape_id":"2599482B84507417435339"},"geometry":{"type":"Polygon","coordinates":[[[25.683334,43.813256],[25.693189,43.825505],[25.694763,43.827044],[25.694904,43.829668],[25.702553,43.832162],[25.699484,43.84011],[25.703132,43.839525],[25.728783,43.845406],[25.725828,43.851751],[25.731826,43.854914],[25.743555,43.852276],[25.747173,43.85317],[25.751956,43.856579],[25.752017,43.859652],[25.754477,43.859974],[25.75292,43.862252],[25.752613,43.869054],[25.756498,43.868893],[25.770889,43.869971],[25.759863,43.873935],[25.759686,43.881726],[25.758421,43.883352],[25.755669,43.883367],[25.75384,43.885568],[25.751414,43.885604],[25.745359,43.89015],[25.73637,43.891658],[25.73649,43.889882],[25.728578,43.889876],[25.727655,43.90941],[25.689291,43.908545],[25.688305,43.920891],[25.673726,43.920556],[25.672839,43.942563],[25.649978,43.941839],[25.623088,43.941294],[25.622192,43.94148],[25.618044,43.941394],[25.618059,43.937492],[25.58482,43.937586],[25.584395,43.906723],[25.60317,43.90693],[25.614647,43.903796],[25.614217,43.897116],[25.614139,43.886334],[25.614635,43.880751],[25.606908,43.87779],[25.6069,43.867273],[25.606914,43.844466],[25.614882,43.844519],[25.629699,43.844652],[25.629576,43.837245],[25.629835,43.820532],[25.63793,43.820504],[25.659963,43.820487],[25.660043,43.806704],[25.674761,43.80685],[25.677854,43.81058],[25.681559,43.81088],[25.683334,43.813256]]]}},
{"type":"Feature","id":"ROU:ADM2:RO-GR.putineiu","properties":{"shapeName":"PUTINEIU","shapeISO":"","shapeGroup":"ROU","shapeType":"ADM2","adm1ISO":"RO-GR","parentISO":"RO-GR","parentID":"ROU:ADM1:RO-GR","src_shape_id":"2599482B3296523517134"},"geometry":{"type":"Polygon","coordinates":[[[25.820726,43.866787],[25.82396,43.866837],[25.823849,43.874407],[25.846661,43.874757],[25.84612,43.892759],[25.851512,43.89286],[25.851368,43.895363],[25.843275,43.895117],[25.842956,43.905261],[25.838204,43.903061],[25.821364,43.892403],[25.81927,43.892366],[25.814382,43.899148],[25.816203,43.900312],[25.79931,43.91568],[25.791608,43.915511],[25.790983,43.931022],[25.78351,43.930816],[25.783084,43.945795],[25.775475,43.945581],[25.776418,43.947211],[25.776084,43.953678],[25.761063,43.95332],[25.751243,43.953089],[25.751059,43.964253],[25.7457,43.96402],[25.725998,43.971646],[25.718674,43.974643],[25.712727,43.968902],[25.713509,43.960199],[25.686233,43.958551],[25.686724,43.94404],[25.687107,43.942914],[25.672839,43.942563],[25.673726,43.920556],[25.688305,43.920891],[25.689291,43.908545],[25.727655,43.90941],[25.728578,43.889876],[25.73649,43.889882],[25.73637,43.891658],[25.745359,43.89015],[25.751414,43.885604],[25.75384,43.885568],[25.755669,43.883367],[25.758421,43.883352],[25.759686,43.881726],[25.759863,43.873935],[25.770889,43.869971],[25.756498,43.868893],[25.752613,43.869054],[25.75292,43.862252],[25.754477,43.859974],[25.758298,43.858903],[25.761156,43.859236],[25.759963,43.855939],[25.762369,43.853349],[25.765293,43.84859],[25.767643,43.84629],[25.772353,43.843715],[25.774976,43.846815],[25.778438,43.847421],[25.780725,43.851569],[25.785427,43.852761],[25.786159,43.8516],[25.791165,43.850147],[25.795286,43.85263],[25.797972,43.850834],[25.801248,43.850282],[25.800478,43.859193],[25.80808,43.859476],[25.807462,43.866475],[25.820726,43.866787]]]}},
{"type":"Feature","id":"ROU:ADM2:RO-GR.oinacu","properties":{"shapeName":"OINACU","shapeISO":"","shapeGroup":"ROU","shapeType":"ADM2","adm1ISO":"RO-GR","parentISO":"RO-GR","parentID":"ROU:ADM1:RO-GR","src_shape_id":"2599482B44052699219659"},"geometry":{"type":"Polygon","coordinates":[[[26.06294,43.991924],[26.042053,43.992456],[26.041392,43.983557],[26.034539,43.981736],[26.02444,43.979742],[26.019718,43.984189],[26.012902,43.988157],[26.010628,43.98479],[26.017033,43.980934],[26.016033,43.979314],[26.012623,43.979306],[26.00835,43.975048],[26.004695,43.972335],[26.001548,43.971358],[26.000458,43.969487],[25.997414,43.970994],[25.986449,43.972196],[25.984496,43.963929],[25.985825,43.964022],[26.003705,43.959734],[26.00232,43.954669],[25.997459,43.955349],[25.994884,43.944561],[26.001439,43.943776],[25.99677,43.925838],[26.019807,43.922896],[26.020725,43.917714],[26.032184,43.899976],[26.032818,43.896596],[26.042862,43.900984],[26.047673,43.904542],[26.05349,43.90983],[26.056792,43.915153],[26.060549,43.919126],[26.059562,43.919776],[26.067035,43.925704],[26.071447,43.931952],[26.064152,43.937099],[26.073943,43.948407],[26.083975,43.957196],[26.080572,43.960416],[26.085555,43.963811],[26.086408,43.969802],[26.088287,43.975905],[26.087062,43.978452],[26.080883,43.97582],[26.07446,43.983429],[26.067031,43.983524],[26.063009,43.984043],[26.059918,43.985861],[26.059535,43.987477],[26.06294,43.991924]]]}},
{"type":"Feature","id":"ROU:ADM2:RO-GR.gostinu","properties":{"shapeName":"GOSTINU","shapeISO":"","shapeGroup":"ROU","shapeType":"ADM2","adm1ISO":"RO-GR","parentISO":"RO-GR","parentID":"ROU:ADM1:RO-GR","src_shape_id":"2599482B60954600947831"},"geometry":{"type":"Polygon","coordinates":[[[26.071447,43.931952],[26.071998,43.932733],[26.08094,43.939488],[26.085494,43.944346],[26.095106,43.951292],[26.092859,43.952688],[26.101941,43.963451],[26.111679,43.972205],[26.114954,43.974088],[26.125121,43.978121],[26.1346,43.981219],[26.147037,43.984199],[26.15802,43.985379],[26.179725,43.985051],[26.180157,43.983241],[26.19183,43.98319],[26.194546,43.984057],[26.187914,43.990874],[26.180778,43.997577],[26.181497,43.999533],[26.177552,44.00082],[26.169436,44.009861],[26.168969,44.009826],[26.157774,44.022129],[26.144307,44.036397],[26.125413,44.030873],[26.092797,44.024225],[26.091777,44.022914],[26.096672,44.018688],[26.100908,44.01769],[26.103558,44.015988],[26.094196,44.013322],[26.081934,44.010234],[26.067933,44.024064],[26.066258,44.02528],[26.062993,44.021716],[26.060951,44.016623],[26.060737,44.013866],[26.055612,44.005585],[26.057598,44.003318],[26.063748,44.001217],[26.064914,43.998396],[26.06294,43.991924],[26.059535,43.987477],[26.059918,43.985861],[26.063009,43.984043],[26.067031,43.983524],[26.07446,43.983429],[26.080883,43.97582],[26.087062,43.978452],[26.088287,43.975905],[26.086408,43.969802],[26.085555,43.963811],[26.080572,43.960416],[26.083975,43.957196],[26.073943,43.948407],[26.064152,43.937099],[26.071447,43.931952]]]}},
{"type":"Feature","id":"ROU:ADM2:RO-GR.fratesti","properties":{"shapeName":"FRATESTI","shapeISO":"","shapeGroup":"ROU","shapeType":"ADM2","adm1ISO":"RO-GR","parentISO":"RO-GR","parentID":"ROU:ADM1:RO-GR","src_shape_id":"2599482B51222543390169"},"geometry":{"type":"Polygon","coordinates":[[[25.986449,43.972196],[25.987747,43.977272],[25.978936,43.978392],[25.983132,43.984045],[25.981654,43.985199],[25.977012,43.982115],[25.97452,43.992615],[25.97362,43.994781],[25.969913,43.994696],[25.961724,44.004819],[25.953594,44.015313],[25.94957,44.018457],[25.940796,44.029748],[25.927372,44.030977],[25.930991,44.047549],[25.931891,44.052712],[25.900373,44.056167],[25.897717,44.056818],[25.887848,44.057259],[25.887267,44.057152],[25.888534,44.048415],[25.888324,44.044309],[25.889333,44.040489],[25.863878,44.030126],[25.862691,44.027382],[25.854463,44.027922],[25.862694,44.01733],[25.852537,44.013164],[25.852301,44.007923],[25.857774,44.000751],[25.858387,44.00007],[25.868826,44.005181],[25.880543,43.989874],[25.876774,43.988298],[25.887315,43.975113],[25.891731,43.973423],[25.897946,43.972654],[25.900731,43.971243],[25.900516,43.968432],[25.903777,43.966783],[25.907798,43.963404],[25.909559,43.960737],[25.913452,43.960496],[25.914252,43.958346],[25.918226,43.958115],[25.921271,43.951234],[25.913163,43.949334],[25.916659,43.943846],[25.921955,43.933876],[25.925822,43.93513],[25.927959,43.932881],[25.919899,43.928186],[25.91561,43.926639],[25.917751,43.924819],[25.925964,43.927257],[25.931158,43.92367],[25.93316,43.924429],[25.940842,43.925677],[25.942901,43.927716],[25.940622,43.932327],[25.941994,43.93324],[25.945502,43.92544],[25.9544,43.927494],[25.95365,43.929176],[25.966446,43.931686],[25.967319,43.936064],[25.975623,43.935159],[25.975143,43.93185],[25.97616,43.928706],[25.99677,43.925838],[26.001439,43.943776],[25.994884,43.944561],[25.997459,43.955349],[26.00232,43.954669],[26.003705,43.959734],[25.985825,43.964022],[25.984496,43.963929],[25.986449,43.972196]]]}},
{"type":"Feature","id":"ROU:ADM2:RO-GR.daia","properties":{"shapeName":"DAIA","shapeISO":"","shapeGroup":"ROU","shapeType":"ADM2","adm1ISO":"RO-GR","parentISO":"RO-GR","parentID":"ROU:ADM1:RO-GR","src_shape_id":"2599482B46391816231209"},"geometry":{"type":"Polygon","coordinates":[[[26.042053,43.992456],[26.042307,43.996109],[26.040036,43.997708],[26.036543,43.998665],[26.035566,44.001193],[26.033264,44.003626],[26.030995,44.003125],[26.027532,44.00519],[26.019207,44.012375],[26.00861,44.025122],[26.005336,44.03977],[25.99901,44.051617],[25.997899,44.051832],[25.978211,44.051145],[25.980807,44.065557],[25.981529,44.069631],[25.965326,44.07127],[25.96507,44.069963],[25.959697,44.071883],[25.954718,44.072144],[25.930005,44.074956],[25.904511,44.077524],[25.900373,44.056167],[25.931891,44.052712],[25.930991,44.047549],[25.927372,44.030977],[25.940796,44.029748],[25.94957,44.018457],[25.953594,44.015313],[25.961724,44.004819],[25.969913,43.994696],[25.97362,43.994781],[25.97452,43.992615],[25.977012,43.982115],[25.981654,43.985199],[25.983132,43.984045],[25.978936,43.978392],[25.987747,43.977272],[25.986449,43.972196],[25.997414,43.970994],[26.000458,43.969487],[26.001548,43.971358],[26.004695,43.972335],[26.00835,43.975048],[26.012623,43.979306],[26.016033,43.979314],[26.017033,43.980934],[26.010628,43.98479],[26.012902,43.988157],[26.019718,43.984189],[26.02444,43.979742],[26.034539,43.981736],[26.041392,43.983557],[26.042053,43.992456]]]}},
{"type":"Feature","id":"ROU:ADM2:RO-GR.baneasa","properties":{"shapeName":"BANEASA","shapeISO":"","shapeGroup":"ROU","shapeType":"ADM2","adm1ISO":"RO-GR","parentISO":"RO-GR","parentID":"ROU:ADM1:RO-GR","src_shape_id":"2599482B8826706360299"},"geometry":{"type":"Polygon","coordinates":[[[26.06294,43.991924],[26.064914,43.998396],[26.063748,44.001217],[26.057598,44.003318],[26.055612,44.005585],[26.060737,44.013866],[26.060951,44.016623],[26.062993,44.021716],[26.066258,44.02528],[26.067933,44.024064],[26.081934,44.010234],[26.094196,44.013322],[26.103558,44.015988],[26.100908,44.01769],[26.096672,44.018688],[26.091777,44.022914],[26.092797,44.024225],[26.125413,44.030873],[26.144307,44.036397],[26.157774,44.022129],[26.168969,44.009826],[26.169436,44.009861],[26.172408,44.01144],[26.167393,44.016209],[26.174394,44.020883],[26.176779,44.024376],[26.173734,44.026465],[26.174116,44.028777],[26.171218,44.032186],[26.171426,44.035377],[26.162893,44.048292],[26.163624,44.051331],[26.165513,44.052253],[26.166896,44.055878],[26.163223,44.056381],[26.158017,44.058818],[26.152172,44.062986],[26.152241,44.065569],[26.15885,44.0687],[26.166697,44.071424],[26.16554,44.073813],[26.160375,44.079662],[26.147118,44.077239],[26.144675,44.081401],[26.138444,44.091759],[26.125878,44.090233],[26.123293,44.097248],[26.105971,44.094177],[26.083247,44.102381],[26.083332,44.097192],[26.08219,44.09315],[26.080197,44.089807],[26.058808,44.085575],[26.058715,44.088519],[26.057164,44.091274],[26.059436,44.096002],[26.054895,44.09828],[26.04334,44.097126],[26.033955,44.095837],[26.030021,44.11138],[26.026058,44.111583],[26.025487,44.109182],[26.021413,44.107873],[26.022443,44.103532],[26.015888,44.10255],[26.016155,44.10015],[26.013911,44.099866],[26.011231,44.102623],[26.007771,44.083487],[26.005453,44.071643],[25.980807,44.065557],[25.978211,44.051145],[25.997899,44.051832],[25.99901,44.051617],[26.005336,44.03977],[26.00861,44.025122],[26.019207,44.012375],[26.027532,44.00519],[26.030995,44.003125],[26.033264,44.003626],[26.035566,44.001193],[26.036543,43.998665],[26.040036,43.997708],[26.042307,43.996109],[26.042053,43.992456],[26.06294,43.991924]]]}},
{"type":"Feature","id":"ROU:ADM2:RO-GR.izvoarele","properties":{"shapeName":"IZVOARELE","shapeISO":"","shapeGroup":"ROU","shapeType":"ADM2","adm1ISO":"RO-GR","parentISO":"RO-GR","parentID":"ROU:ADM1:RO-GR","src_shape_id":"2599482B10041458655839"},"geometry":{"type":"Polygon","coordinates":[[[25.761063,43.95332],[25.760896,43.956078],[25.775916,43.956883],[25.775069,43.974469],[25.775847,43.976528],[25.795805,43.968451],[25.795369,43.96982],[25.799322,43.975939],[25.79923,43.977552],[25.802258,43.981937],[25.819521,43.975074],[25.826711,43.984344],[25.833934,43.984887],[25.839841,43.986942],[25.835604,43.99069],[25.835718,43.992552],[25.851033,43.998768],[25.857774,44.000751],[25.852301,44.007923],[25.852537,44.013164],[25.862694,44.01733],[25.854463,44.027922],[25.862691,44.027382],[25.863878,44.030126],[25.889333,44.040489],[25.888324,44.044309],[25.888534,44.048415],[25.887267,44.057152],[25.885813,44.059546],[25.864713,44.054966],[25.860397,44.066915],[25.87373,44.073139],[25.87452,44.076625],[25.873757,44.079659],[25.871059,44.084818],[25.867497,44.087778],[25.868143,44.08946],[25.856679,44.09077],[25.85673,44.091976],[25.848822,44.092711],[25.816178,44.093239],[25.809528,44.091641],[25.812683,44.100006],[25.803223,44.101805],[25.806696,44.106476],[25.804779,44.106803],[25.805538,44.111644],[25.803673,44.112391],[25.808734,44.116682],[25.810334,44.118702],[25.804318,44.127895],[25.800842,44.12406],[25.802351,44.122063],[25.801619,44.120193],[25.797058,44.117377],[25.793992,44.114548],[25.793922,44.113107],[25.796782,44.11042],[25.79474,44.105924],[25.790762,44.106355],[25.791907,44.109315],[25.789022,44.109443],[25.786783,44.107229],[25.786432,44.103176],[25.788179,44.100943],[25.783459,44.093238],[25.782002,44.08783],[25.778966,44.083985],[25.774288,44.080139],[25.770927,44.076243],[25.764493,44.073782],[25.761592,44.071068],[25.761759,44.068929],[25.763844,44.065623],[25.763039,44.063515],[25.762593,44.058158],[25.76732,44.055452],[25.757455,44.052521],[25.759782,44.047899],[25.734372,44.043582],[25.733036,44.041362],[25.736223,44.03777],[25.738147,44.033518],[25.73592,44.030977],[25.736215,44.027995],[25.738496,44.026549],[25.737975,44.024708],[25.723047,44.030109],[25.707798,44.010662],[25.703831,44.005576],[25.7331,43.9936],[25.723325,43.980305],[25.720885,43.976573],[25.718674,43.974643],[25.725998,43.971646],[25.7457,43.96402],[25.751059,43.964253],[25.751243,43.953089],[25.761063,43.95332]]]}},
{"type":"Feature","id":"ROU:ADM2:RO-GR.greaca","properties":{"shapeName":"GREACA","shapeISO":"","shapeGroup":"ROU","shapeType":"ADM2","adm1ISO":"RO-GR","parentISO":"RO-GR","parentID":"ROU:ADM1:RO-GR","src_shape_id":"2599482B7970474716808"},"geometry":{"type":"Polygon","coordinates":[[[26.378791,44.118755],[26.378659,44.123173],[26.380245,44.124251],[26.373405,44.131176],[26.364206,44.123035],[26.362116,44.124358],[26.352213,44.115603],[26.349975,44.117651],[26.340993,44.131952],[26.344347,44.13457],[26.348809,44.133339],[26.350543,44.134972],[26.355228,44.135904],[26.35903,44.133448],[26.360197,44.134557],[26.354918,44.150303],[26.324421,44.145185],[26.320649,44.145888],[26.292598,44.141177],[26.29938,44.121246],[26.298612,44.120179],[26.2873,44.119348],[26.264423,44.117213],[26.264136,44.11622],[26.265316,44.107886],[26.269482,44.107103],[26.27183,44.096253],[26.278901,44.09686],[26.278874,44.094265],[26.284748,44.094542],[26.292337,44.094164],[26.300872,44.094611],[26.309447,44.094161],[26.313685,44.095643],[26.320809,44.095793],[26.326236,44.098442],[26.334068,44.100471],[26.337979,44.102692],[26.346531,44.102587],[26.351336,44.103295],[26.358789,44.107392],[26.358092,44.108071],[26.367963,44.113733],[26.378791,44.118755]]]}},
{"type":"Feature","id":"ROU:ADM2:RO-GR.mihai-bravu","properties":{"shapeName":"MIHAI BRAVU","shapeISO":"","shapeGroup":"ROU","shapeType":"ADM2","adm1ISO":"RO-GR","parentISO":"RO-GR","parentID":"ROU:ADM1:RO-GR","src_shape_id":"2599482B97305638724228"},"geometry":{"type":"Polygon","coordinates":[[[26.123293,44.097248],[26.13346,44.099093],[26.125539,44.112392],[26.119974,44.119766],[26.117315,44.122385],[26.110171,44.118393],[26.092265,44.127303],[26.086649,44.130395],[26.084551,44.142556],[26.105401,44.144793],[26.102781,44.158747],[26.102216,44.160272],[26.098284,44.161157],[26.087521,44.161173],[26.080369,44.162082],[26.073154,44.160867],[26.066924,44.161791],[26.05788,44.164401],[26.055169,44.164451],[26.048804,44.162541],[26.043697,44.162516],[26.042317,44.161345],[26.036178,44.163489],[26.035301,44.165124],[26.032535,44.166061],[26.030283,44.168119],[26.024177,44.167065],[26.022606,44.165396],[26.018271,44.163806],[26.014985,44.166269],[26.006691,44.163805],[26.004797,44.162477],[26.006459,44.159381],[26.007344,44.155116],[26.004784,44.153491],[26.001102,44.153405],[25.995513,44.152106],[25.995064,44.147596],[25.996988,44.145935],[25.999426,44.146042],[25.997643,44.140127],[25.99475,44.140052],[25.988011,44.104238],[25.994187,44.104325],[25.996448,44.101841],[26.001956,44.101008],[26.006116,44.102595],[26.011231,44.102623],[26.013911,44.099866],[26.016155,44.10015],[26.015888,44.10255],[26.022443,44.103532],[26.021413,44.107873],[26.025487,44.109182],[26.026058,44.111583],[26.030021,44.11138],[26.033955,44.095837],[26.04334,44.097126],[26.054895,44.09828],[26.059436,44.096002],[26.057164,44.091274],[26.058715,44.088519],[26.058808,44.085575],[26.080197,44.089807],[26.08219,44.09315],[26.083332,44.097192],[26.083247,44.102381],[26.105971,44.094177],[26.123293,44.097248]]]}},
{"type":"Feature","id":"ROU:ADM2:RO-GR.stoenesti","properties":{"shapeName":"STOENESTI","shapeISO":"","shapeGroup":"ROU","shapeType":"ADM2","adm1ISO":"RO-GR","parentISO":"RO-GR","parentID":"ROU:ADM1:RO-GR","src_shape_id":"2599482B4424245077125"},"geometry":{"type":"Polygon","coordinates":[[[25.900373,44.056167],[25.904511,44.077524],[25.906714,44.088263],[25.926336,44.086465],[25.92838,44.097459],[25.923728,44.09791],[25.931496,44.137683],[25.931608,44.141569],[25.930351,44.143347],[25.927991,44.142938],[25.929361,44.147462],[25.929032,44.149457],[25.930358,44.151988],[25.92759,44.156356],[25.918872,44.154978],[25.915155,44.157524],[25.91517,44.161122],[25.914074,44.163176],[25.914756,44.165452],[25.913216,44.167686],[25.908281,44.166596],[25.907756,44.163949],[25.909676,44.162561],[25.908655,44.160587],[25.906277,44.159363],[25.90323,44.159887],[25.899714,44.163653],[25.911403,44.180799],[25.908471,44.18267],[25.901601,44.183172],[25.898376,44.180775],[25.890989,44.184459],[25.883383,44.17785],[25.875133,44.179174],[25.874572,44.177177],[25.872329,44.176567],[25.869665,44.17956],[25.866225,44.179771],[25.86939,44.173768],[25.865274,44.170654],[25.864801,44.167475],[25.867588,44.167986],[25.875534,44.164738],[25.873514,44.163428],[25.873514,44.159017],[25.867669,44.158098],[25.857923,44.155193],[25.858715,44.148197],[25.85502,44.147959],[25.854272,44.134017],[25.858724,44.133877],[25.860889,44.132925],[25.86414,44.133571],[25.863741,44.130149],[25.865532,44.127313],[25.869972,44.124605],[25.867596,44.121563],[25.872637,44.121239],[25.872684,44.119617],[25.869801,44.118896],[25.874148,44.114037],[25.873711,44.110639],[25.87224,44.107311],[25.87946,44.106224],[25.887686,44.104135],[25.891176,44.083031],[25.891544,44.082563],[25.887757,44.057961],[25.887848,44.057259],[25.897717,44.056818],[25.900373,44.056167]]]}},
{"type":"Feature","id":"ROU:ADM2:RO-GR.isvoarele","properties":{"shapeName":"ISVOARELE","shapeISO":"","shapeGroup":"ROU","shapeType":"ADM2","adm1ISO":"RO-GR","parentISO":"RO-GR","parentID":"ROU:ADM1:RO-GR","src_shape_id":"2599482B48168115040378"},"geometry":{"type":"Polygon","coordinates":[[[26.320649,44.145888],[26.318478,44.154463],[26.320358,44.156461],[26.324332,44.157781],[26.332075,44.158144],[26.331202,44.164326],[26.333122,44.164338],[26.333738,44.167277],[26.337068,44.169826],[26.342996,44.171748],[26.33968,44.173112],[26.340415,44.183536],[26.339258,44.18504],[26.333317,44.18608],[26.328628,44.191994],[26.324138,44.192994],[26.320818,44.19209],[26.319654,44.189887],[26.322749,44.186645],[26.323074,44.184976],[26.320751,44.183755],[26.315775,44.183559],[26.310645,44.186016],[26.30507,44.18414],[26.306534,44.181287],[26.311304,44.178901],[26.30821,44.176305],[26.303611,44.175446],[26.298469,44.172058],[26.292435,44.170443],[26.287164,44.171031],[26.283281,44.173429],[26.270157,44.17273],[26.269463,44.170649],[26.266245,44.170799],[26.266756,44.167313],[26.265017,44.164596],[26.265283,44.160675],[26.257968,44.159867],[26.259249,44.150869],[26.260696,44.137766],[26.259923,44.137674],[26.264215,44.117008],[26.264136,44.11622],[26.264423,44.117213],[26.2873,44.119348],[26.298612,44.120179],[26.29938,44.121246],[26.292598,44.141177],[26.320649,44.145888]]]}},
{"type":"Feature","id":"ROU:ADM2:RO-GR.hotarele","properties":{"shapeName":"HOTARELE","shapeISO":"","shapeGroup":"ROU","shapeType":"ADM2","adm1ISO":"RO-GR","parentISO":"RO-GR","parentID":"ROU:ADM1:RO-GR","src_shape_id":"2599482B11707962616548"},"geometry":{"type":"Polygon","coordinates":[[[26.378791,44.118755],[26.389676,44.122952],[26.401874,44.125793],[26.410122,44.125687],[26.419,44.124737],[26.418067,44.127019],[26.417957,44.131157],[26.421011,44.132407],[26.422063,44.13647],[26.423414,44.137743],[26.423954,44.141431],[26.428518,44.145175],[26.428513,44.147007],[26.428311,44.152944],[26.4271,44.157492],[26.423805,44.161722],[26.42212,44.165652],[26.417488,44.164722],[26.413466,44.175802],[26.414529,44.178098],[26.414028,44.180234],[26.41857,44.181804],[26.420781,44.183282],[26.418582,44.184535],[26.416941,44.188023],[26.411232,44.187293],[26.408614,44.185939],[26.39985,44.185373],[26.399777,44.197474],[26.394777,44.195073],[26.386922,44.192262],[26.380307,44.190847],[26.375038,44.189033],[26.370032,44.189295],[26.364854,44.192634],[26.359644,44.192091],[26.355289,44.188573],[26.3473,44.184673],[26.339258,44.18504],[26.340415,44.183536],[26.33968,44.173112],[26.342996,44.171748],[26.337068,44.169826],[26.333738,44.167277],[26.333122,44.164338],[26.331202,44.164326],[26.332075,44.158144],[26.324332,44.157781],[26.320358,44.156461],[26.318478,44.154463],[26.320649,44.145888],[26.324421,44.145185],[26.354918,44.150303],[26.360197,44.134557],[26.35903,44.133448],[26.355228,44.135904],[26.350543,44.134972],[26.348809,44.133339],[26.344347,44.13457],[26.340993,44.131952],[26.349975,44.117651],[26.352213,44.115603],[26.362116,44.124358],[26.364206,44.123035],[26.373405,44.131176],[26.380245,44.124251],[26.378659,44.123173],[26.378791,44.118755]]]}},
{"type":"Feature","id":"ROU:ADM2:RO-GR.schitu","properties":{"shapeName":"SCHITU","shapeISO":"","shapeGroup":"ROU","shapeType":"ADM2","adm1ISO":"RO-GR","parentISO":"RO-GR","parentID":"ROU:ADM1:RO-GR","src_shape_id":"2599482B69197751187645"},"geometry":{"type":"Polygon","coordinates":[[[25.887848,44.057259],[25.887757,44.057961],[25.891544,44.082563],[25.891176,44.083031],[25.887686,44.104135],[25.87946,44.106224],[25.87224,44.107311],[25.873711,44.110639],[25.874148,44.114037],[25.869801,44.118896],[25.872684,44.119617],[25.872637,44.121239],[25.867596,44.121563],[25.869972,44.124605],[25.865532,44.127313],[25.863741,44.130149],[25.86414,44.133571],[25.860889,44.132925],[25.858724,44.133877],[25.854272,44.134017],[25.85502,44.147959],[25.858715,44.148197],[25.857923,44.155193],[25.867669,44.158098],[25.873514,44.159017],[25.873514,44.163428],[25.875534,44.164738],[25.867588,44.167986],[25.864801,44.167475],[25.865274,44.170654],[25.86939,44.173768],[25.866225,44.179771],[25.869665,44.17956],[25.872329,44.176567],[25.874572,44.177177],[25.875133,44.179174],[25.883383,44.17785],[25.890989,44.184459],[25.87022,44.19502],[25.877379,44.201596],[25.842939,44.207661],[25.834162,44.209343],[25.833297,44.208033],[25.824645,44.1872],[25.82132,44.17961],[25.81929,44.179992],[25.810004,44.176047],[25.802468,44.179132],[25.800063,44.182571],[25.7975,44.176789],[25.800845,44.174781],[25.797379,44.173854],[25.798655,44.17227],[25.797199,44.167874],[25.797694,44.165229],[25.801848,44.160723],[25.800742,44.158548],[25.801573,44.153539],[25.799718,44.15198],[25.790291,44.147878],[25.786641,44.143838],[25.782764,44.144659],[25.778749,44.147468],[25.777019,44.147529],[25.777376,44.14413],[25.78112,44.138874],[25.786279,44.137075],[25.787195,44.13534],[25.785497,44.132961],[25.786377,44.129603],[25.787651,44.12857],[25.794504,44.126798],[25.800842,44.12406],[25.804318,44.127895],[25.810334,44.118702],[25.808734,44.116682],[25.803673,44.112391],[25.805538,44.111644],[25.804779,44.106803],[25.806696,44.106476],[25.803223,44.101805],[25.812683,44.100006],[25.809528,44.091641],[25.816178,44.093239],[25.848822,44.092711],[25.85673,44.091976],[25.856679,44.09077],[25.868143,44.08946],[25.867497,44.087778],[25.871059,44.084818],[25.873757,44.079659],[25.87452,44.076625],[25.87373,44.073139],[25.860397,44.066915],[25.864713,44.054966],[25.885813,44.059546],[25.887267,44.057152],[25.887848,44.057259]]]}},
{"type":"Feature","id":"ROU:ADM2:RO-GR.gostinari","properties":{"shapeName":"GOSTINARI","shapeISO":"","shapeGroup":"ROU","shapeType":"ADM2","adm1ISO":"RO-GR","parentISO":"RO-GR","parentID":"ROU:ADM1:RO-GR","src_shape_id":"2599482B31604747226035"},"geometry":{"type":"Polygon","coordinates":[[[26.264136,44.11622],[26.264215,44.117008],[26.259923,44.137674],[26.260696,44.137766],[26.259249,44.150869],[26.257968,44.159867],[26.265283,44.160675],[26.265017,44.164596],[26.266756,44.167313],[26.266245,44.170799],[26.262845,44.175001],[26.264469,44.178308],[26.262499,44.178539],[26.263803,44.182024],[26.260112,44.183071],[26.260542,44.18606],[26.253972,44.187075],[26.250288,44.18578],[26.2475,44.186131],[26.246554,44.189339],[26.23559,44.189523],[26.233985,44.190856],[26.233892,44.193238],[26.235653,44.196334],[26.23357,44.199085],[26.227958,44.20211],[26.227129,44.204232],[26.230718,44.209102],[26.22712,44.209649],[26.223045,44.207457],[26.207514,44.187784],[26.201307,44.186865],[26.202691,44.183632],[26.197424,44.181725],[26.192669,44.181642],[26.19209,44.171258],[26.190835,44.160745],[26.189879,44.148205],[26.217753,44.151876],[26.233196,44.154074],[26.242859,44.116437],[26.248125,44.114949],[26.249718,44.112592],[26.24944,44.109332],[26.253067,44.106647],[26.265316,44.107886],[26.264136,44.11622]]]}},
{"type":"Feature","id":"ROU:ADM2:RO-GR.calugareni","properties":{"shapeName":"CALUGARENI","shapeISO":"","shapeGroup":"ROU","shapeType":"ADM2","adm1ISO":"RO-GR","parentISO":"RO-GR","parentID":"ROU:ADM1:RO-GR","src_shape_id":"2599482B39711091097472"},"geometry":{"type":"Polygon","coordinates":[[[25.980807,44.065557],[26.005453,44.071643],[26.007771,44.083487],[26.011231,44.102623],[26.006116,44.102595],[26.001956,44.101008],[25.996448,44.101841],[25.994187,44.104325],[25.988011,44.104238],[25.99475,44.140052],[25.997643,44.140127],[25.999426,44.146042],[25.996988,44.145935],[25.995064,44.147596],[25.995513,44.152106],[26.001102,44.153405],[26.004784,44.153491],[26.007344,44.155116],[26.006459,44.159381],[26.004797,44.162477],[26.006691,44.163805],[26.014985,44.166269],[26.018271,44.163806],[26.022606,44.165396],[26.024177,44.167065],[26.030283,44.168119],[26.032535,44.166061],[26.035301,44.165124],[26.036178,44.163489],[26.042317,44.161345],[26.043697,44.162516],[26.048804,44.162541],[26.055169,44.164451],[26.05788,44.164401],[26.066924,44.161791],[26.073154,44.160867],[26.080369,44.162082],[26.082414,44.17051],[26.084427,44.175889],[26.083407,44.178992],[26.076527,44.195197],[26.07261,44.204136],[26.063272,44.204657],[26.0433,44.206142],[26.017386,44.20852],[26.028093,44.224613],[26.019639,44.227634],[26.016518,44.225195],[25.991123,44.204108],[25.986323,44.200787],[25.975276,44.194905],[25.972697,44.194389],[25.972174,44.190153],[25.962212,44.191176],[25.956147,44.188899],[25.952865,44.193286],[25.952809,44.196864],[25.948444,44.205161],[25.944134,44.209074],[25.929286,44.200407],[25.91858,44.191063],[25.911403,44.180799],[25.899714,44.163653],[25.90323,44.159887],[25.906277,44.159363],[25.908655,44.160587],[25.909676,44.162561],[25.907756,44.163949],[25.908281,44.166596],[25.913216,44.167686],[25.914756,44.165452],[25.914074,44.163176],[25.91517,44.161122],[25.915155,44.157524],[25.918872,44.154978],[25.92759,44.156356],[25.930358,44.151988],[25.929032,44.149457],[25.929361,44.147462],[25.927991,44.142938],[25.930351,44.143347],[25.931608,44.141569],[25.931496,44.137683],[25.923728,44.09791],[25.92838,44.097459],[25.926336,44.086465],[25.906714,44.088263],[25.904511,44.077524],[25.930005,44.074956],[25.954718,44.072144],[25.959697,44.071883],[25.96507,44.069963],[25.965326,44.07127],[25.981529,44.069631],[25.980807,44.065557]]]}},
{"type":"Feature","id":"ROU:ADM2:RO-GR.valea-dragului","properties":{"shapeName":"VALEA DRAGULUI","shapeISO":"","shapeGroup":"ROU","shapeType":"ADM2","adm1ISO":"RO-GR","parentISO":"RO-GR","parentID":"ROU:ADM1:RO-GR","src_shape_id":"2599482B96012240826898"},"geometry":{"type":"Polygon","coordinates":[[[26.339258,44.18504],[26.336465,44.192601],[26.340113,44.192568],[26.338245,44.197414],[26.335127,44.196734],[26.331209,44.206836],[26.330286,44.215238],[26.325091,44.214645],[26.325074,44.242193],[26.323451,44.242309],[26.311016,44.251053],[26.305066,44.254875],[26.280496,44.228872],[26.282329,44.228872],[26.269683,44.215954],[26.264852,44.211289],[26.263548,44.212509],[26.255466,44.201573],[26.251366,44.194862],[26.246554,44.189339],[26.2475,44.186131],[26.250288,44.18578],[26.253972,44.187075],[26.260542,44.18606],[26.260112,44.183071],[26.263803,44.182024],[26.262499,44.178539],[26.264469,44.178308],[26.262845,44.175001],[26.266245,44.170799],[26.269463,44.170649],[26.270157,44.17273],[26.283281,44.173429],[26.287164,44.171031],[26.292435,44.170443],[26.298469,44.172058],[26.303611,44.175446],[26.30821,44.176305],[26.311304,44.178901],[26.306534,44.181287],[26.30507,44.18414],[26.310645,44.186016],[26.315775,44.183559],[26.320751,44.183755],[26.323074,44.184976],[26.322749,44.186645],[26.319654,44.189887],[26.320818,44.19209],[26.324138,44.192994],[26.328628,44.191994],[26.333317,44.18608],[26.339258,44.18504]]]}},
{"type":"Feature","id":"ROU:ADM2:RO-GR.singureni","properties":{"shapeName":"SINGURENI","shapeISO":"","shapeGroup":"ROU","shapeType":"ADM2","adm1ISO":"RO-GR","parentISO":"RO-GR","parentID":"ROU:ADM1:RO-GR","src_shape_id":"2599482B21174600796262"},"geometry":{"type":"Polygon","coordinates":[[[25.911403,44.180799],[25.91858,44.191063],[25.929286,44.200407],[25.944134,44.209074],[25.948444,44.205161],[25.952809,44.196864],[25.952865,44.193286],[25.956147,44.188899],[25.962212,44.191176],[25.972174,44.190153],[25.972697,44.194389],[25.975276,44.194905],[25.986323,44.200787],[25.991123,44.204108],[26.016518,44.225195],[26.019639,44.227634],[26.006279,44.2407],[25.992769,44.233637],[25.962432,44.257336],[25.969439,44.263296],[25.976809,44.268372],[25.974478,44.269512],[25.977547,44.273486],[25.964554,44.279411],[25.959165,44.271708],[25.950792,44.273278],[25.937089,44.277522],[25.922329,44.270569],[25.924463,44.268254],[25.924917,44.262593],[25.928186,44.260134],[25.922254,44.257388],[25.921561,44.256381],[25.915353,44.253625],[25.915385,44.252408],[25.918852,44.249914],[25.917128,44.247475],[25.917751,44.245802],[25.923819,44.244535],[25.926537,44.240973],[25.92856,44.240414],[25.926903,44.236771],[25.921334,44.234077],[25.905743,44.225278],[25.887803,44.206449],[25.883698,44.207229],[25.877379,44.201596],[25.87022,44.19502],[25.890989,44.184459],[25.898376,44.180775],[25.901601,44.183172],[25.908471,44.18267],[25.911403,44.180799]]]}},
{"type":"Feature","id":"ROU:ADM2:RO-GR.adunatii-copaceni","properties":{"shapeName":"ADUNATII-COPACENI","shapeISO":"","shapeGroup":"ROU","shapeType":"ADM2","adm1ISO":"RO-GR","parentISO":"RO-GR","parentID":"ROU:ADM1:RO-GR","src_shape_id":"2599482B97048996480927"},"geometry":{"type":"Polygon","coordinates":[[[26.076527,44.195197],[26.086544,44.198452],[26.098028,44.201766],[26.099175,44.20178],[26.100195,44.20848],[26.102925,44.208275],[26.106924,44.213135],[26.106116,44.215773],[26.10915,44.218875],[26.107233,44.220772],[26.109572,44.222341],[26.117159,44.229158],[26.134442,44.221578],[26.146218,44.232097],[26.145401,44.234496],[26.138189,44.236497],[26.127807,44.242625],[26.123624,44.244014],[26.119249,44.244773],[26.11299,44.246635],[26.111271,44.245669],[26.105962,44.247096],[26.100048,44.250796],[26.094249,44.252933],[26.090243,44.255573],[26.086443,44.265861],[26.084266,44.26743],[26.078341,44.268247],[26.070173,44.267466],[26.063436,44.26727],[26.057107,44.268639],[26.053769,44.270034],[26.048396,44.273971],[26.036487,44.285302],[26.031242,44.29102],[26.026558,44.292355],[26.021171,44.292802],[26.015025,44.294718],[26.011821,44.296373],[26.01032,44.298279],[26.010123,44.301113],[26.001765,44.299225],[25.995628,44.291023],[25.983044,44.276204],[25.976809,44.268372],[25.969439,44.263296],[25.962432,44.257336],[25.992769,44.233637],[26.006279,44.2407],[26.019639,44.227634],[26.028093,44.224613],[26.017386,44.20852],[26.0433,44.206142],[26.063272,44.204657],[26.07261,44.204136],[26.076527,44.195197]]]}},
{"type":"Feature","id":"ROU:ADM2:RO-GR.clejani","properties":{"shapeName":"CLEJANI","shapeISO":"","shapeGroup":"ROU","shapeType":"ADM2","adm1ISO":"RO-GR","parentISO":"RO-GR","parentID":"ROU:ADM1:RO-GR","src_shape_id":"2599482B97356742421436"},"geometry":{"type":"Polygon","coordinates":[[[25.644689,44.27666],[25.650559,44.27434],[25.655436,44.296446],[25.656102,44.296524],[25.669859,44.292424],[25.682476,44.288418],[25.684296,44.286484],[25.688398,44.287506],[25.689081,44.289551],[25.693216,44.290915],[25.700683,44.290722],[25.714809,44.287375],[25.717762,44.292165],[25.725131,44.293076],[25.747923,44.288151],[25.752107,44.28751],[25.764171,44.288857],[25.771831,44.283711],[25.778872,44.288816],[25.784152,44.287398],[25.791819,44.291361],[25.795873,44.289894],[25.803639,44.291319],[25.808764,44.289721],[25.801904,44.297698],[25.798093,44.297988],[25.795338,44.299953],[25.790077,44.302495],[25.784389,44.302806],[25.78211,44.305234],[25.788988,44.308431],[25.803569,44.2987],[25.814381,44.298585],[25.818559,44.302179],[25.820004,44.304057],[25.818909,44.315383],[25.816012,44.316551],[25.809254,44.320875],[25.803677,44.323164],[25.778099,44.319412],[25.778815,44.323255],[25.774204,44.323105],[25.771661,44.326431],[25.768041,44.325592],[25.758137,44.334297],[25.76245,44.337946],[25.763897,44.34059],[25.769653,44.344833],[25.774434,44.349914],[25.760879,44.352598],[25.749914,44.353804],[25.74686,44.353335],[25.746143,44.351336],[25.727897,44.34117],[25.698961,44.348444],[25.690864,44.332583],[25.683103,44.334326],[25.67635,44.336485],[25.675344,44.339616],[25.669861,44.342379],[25.668432,44.341029],[25.663142,44.339105],[25.65855,44.336483],[25.654737,44.335907],[25.647583,44.324801],[25.645745,44.322877],[25.630211,44.316908],[25.622471,44.314208],[25.625729,44.310633],[25.629916,44.309319],[25.631538,44.306852],[25.623973,44.298425],[25.617452,44.290606],[25.618353,44.288429],[25.620576,44.287234],[25.623624,44.28739],[25.626865,44.285127],[25.63505,44.281801],[25.638991,44.280589],[25.644689,44.27666]]]}},
{"type":"Feature","id":"ROU:ADM2:RO-GR.bucsani","properties":{"shapeName":"BUCSANI","shapeISO":"","shapeGroup":"ROU","shapeType":"ADM2","adm1ISO":"RO-GR","parentISO":"RO-GR","parentID":"ROU:ADM1:RO-GR","src_shape_id":"2599482B97241972850799"},"geometry":{"type":"Polygon","coordinates":[[[25.622471,44.314208],[25.630211,44.316908],[25.645745,44.322877],[25.647583,44.324801],[25.654737,44.335907],[25.65855,44.336483],[25.663142,44.339105],[25.668432,44.341029],[25.669861,44.342379],[25.675344,44.339616],[25.67635,44.336485],[25.683103,44.334326],[25.690864,44.332583],[25.698961,44.348444],[25.727897,44.34117],[25.746143,44.351336],[25.74294,44.35466],[25.739856,44.357728],[25.736537,44.364082],[25.732551,44.366642],[25.728251,44.365276],[25.724514,44.374116],[25.726362,44.376958],[25.726282,44.381505],[25.730923,44.382819],[25.728673,44.387358],[25.730499,44.391531],[25.729982,44.395929],[25.726732,44.396622],[25.723833,44.39489],[25.716739,44.394928],[25.709154,44.396521],[25.710214,44.399844],[25.708932,44.401315],[25.7046,44.398945],[25.701315,44.399017],[25.698303,44.402011],[25.698041,44.410471],[25.696946,44.413275],[25.692368,44.412831],[25.68907,44.41352],[25.666008,44.402657],[25.648502,44.391196],[25.642473,44.384476],[25.636761,44.380566],[25.63257,44.383179],[25.625263,44.376638],[25.615182,44.384147],[25.593959,44.369668],[25.576053,44.357676],[25.575966,44.354871],[25.578495,44.354187],[25.578658,44.352087],[25.57173,44.343345],[25.577478,44.341388],[25.564172,44.324304],[25.560833,44.323335],[25.560019,44.316427],[25.566606,44.314868],[25.570023,44.312705],[25.571095,44.308209],[25.589796,44.310459],[25.594712,44.310798],[25.599222,44.316276],[25.604219,44.319258],[25.610806,44.318299],[25.613815,44.315921],[25.615666,44.317659],[25.621577,44.315544],[25.622471,44.314208]]]}},
{"type":"Feature","id":"ROU:ADM2:RO-GR.marsa","properties":{"shapeName":"MARSA","shapeISO":"","shapeGroup":"ROU","shapeType":"ADM2","adm1ISO":"RO-GR","parentISO":"RO-GR","parentID":"ROU:ADM1:RO-GR","src_shape_id":"2599482B58006673270206"},"geometry":{"type":"Polygon","coordinates":[[[25.560019,44.316427],[25.560833,44.323335],[25.564172,44.324304],[25.577478,44.341388],[25.57173,44.343345],[25.578658,44.352087],[25.578495,44.354187],[25.575966,44.354871],[25.576053,44.357676],[25.593959,44.369668],[25.615182,44.384147],[25.636445,44.398593],[25.639642,44.401117],[25.639403,44.403621],[25.635964,44.405074],[25.632815,44.407355],[25.632542,44.409447],[25.635204,44.41348],[25.627891,44.415203],[25.624659,44.414598],[25.621684,44.412552],[25.61073,44.406547],[25.605446,44.405231],[25.597831,44.412148],[25.573134,44.400054],[25.559615,44.393035],[25.559377,44.394167],[25.552989,44.391625],[25.547389,44.388547],[25.537508,44.383982],[25.524736,44.377607],[25.503171,44.367277],[25.477988,44.354075],[25.469514,44.34907],[25.473428,44.345391],[25.471099,44.333786],[25.469573,44.328233],[25.468137,44.325245],[25.495387,44.317707],[25.509671,44.314185],[25.518924,44.313708],[25.5263,44.314666],[25.53765,44.316267],[25.545338,44.317067],[25.551459,44.318621],[25.557016,44.317783],[25.560019,44.316427]]]}},
{"type":"Feature","id":"ROU:ADM2:RO-GR.ogrezeni","properties":{"shapeName":"OGREZENI","shapeISO":"","shapeGroup":"ROU","shapeType":"ADM2","adm1ISO":"RO-GR","parentISO":"RO-GR","parentID":"ROU:ADM1:RO-GR","src_shape_id":"2599482B64620511258400"},"geometry":{"type":"Polygon","coordinates":[[[25.696946,44.413275],[25.698041,44.410471],[25.698303,44.402011],[25.701315,44.399017],[25.7046,44.398945],[25.708932,44.401315],[25.710214,44.399844],[25.709154,44.396521],[25.716739,44.394928],[25.723833,44.39489],[25.726732,44.396622],[25.729982,44.395929],[25.730499,44.391531],[25.728673,44.387358],[25.730923,44.382819],[25.726282,44.381505],[25.726362,44.376958],[25.724514,44.374116],[25.728251,44.365276],[25.732551,44.366642],[25.736537,44.364082],[25.746849,44.368861],[25.748657,44.365408],[25.771171,44.375807],[25.771894,44.378259],[25.777237,44.379649],[25.788563,44.383307],[25.787814,44.385354],[25.792521,44.388228],[25.790843,44.394571],[25.788901,44.397103],[25.794746,44.40101],[25.792691,44.403088],[25.786802,44.40567],[25.786499,44.410006],[25.788748,44.411532],[25.792202,44.409891],[25.794931,44.412339],[25.79445,44.414276],[25.796425,44.417103],[25.796907,44.419907],[25.795178,44.425131],[25.796202,44.427305],[25.794962,44.42773],[25.787431,44.425954],[25.779967,44.425952],[25.778662,44.426992],[25.776128,44.431585],[25.772981,44.432236],[25.768435,44.429693],[25.762379,44.430792],[25.745488,44.430973],[25.740931,44.430383],[25.736971,44.42659],[25.733265,44.429033],[25.730875,44.427268],[25.728218,44.42739],[25.721445,44.422056],[25.723812,44.42049],[25.713097,44.412491],[25.705527,44.417837],[25.69864,44.414178],[25.696946,44.413275]]]}},
{"type":"Feature","id":"ROU:ADM2:RO-GR.gradinari","properties":{"shapeName":"GRADINARI","shapeISO":"","shapeGroup":"ROU","shapeType":"ADM2","adm1ISO":"RO-GR","parentISO":"RO-GR","parentID":"ROU:ADM1:RO-GR","src_shape_id":"2599482B26302883103765"},"geometry":{"type":"Polygon","coordinates":[[[25.74294,44.35466],[25.77194,44.363222],[25.778673,44.365396],[25.784611,44.363563],[25.791698,44.365727],[25.793924,44.360433],[25.8091,44.361892],[25.81192,44.362918],[25.826769,44.371807],[25.834863,44.377033],[25.836609,44.380373],[25.847162,44.382828],[25.849586,44.383694],[25.849686,44.385901],[25.846504,44.386453],[25.840912,44.390403],[25.833853,44.390531],[25.829779,44.389452],[25.826612,44.390529],[25.82505,44.392136],[25.825928,44.394844],[25.823733,44.398084],[25.825637,44.400828],[25.829923,44.398971],[25.82976,44.39768],[25.83233,44.394813],[25.835671,44.39716],[25.832859,44.40036],[25.840208,44.402706],[25.839266,44.404548],[25.859194,44.414417],[25.855873,44.416737],[25.849146,44.41969],[25.85611,44.422796],[25.859003,44.421209],[25.86425,44.423968],[25.848118,44.43035],[25.849904,44.433077],[25.845003,44.432613],[25.84152,44.431057],[25.829715,44.426869],[25.818017,44.422391],[25.796425,44.417103],[25.79445,44.414276],[25.794931,44.412339],[25.792202,44.409891],[25.788748,44.411532],[25.786499,44.410006],[25.786802,44.40567],[25.792691,44.403088],[25.794746,44.40101],[25.788901,44.397103],[25.790843,44.394571],[25.792521,44.388228],[25.787814,44.385354],[25.788563,44.383307],[25.777237,44.379649],[25.771894,44.378259],[25.771171,44.375807],[25.748657,44.365408],[25.746849,44.368861],[25.736537,44.364082],[25.739856,44.357728],[25.74294,44.35466]]]}},
{"type":"Feature","id":"ROU:ADM2:RO-GR.roata-de-jos","properties":{"shapeName":"ROATA DE JOS","shapeISO":"","shapeGroup":"ROU","shapeType":"ADM2","adm1ISO":"RO-GR","parentISO":"RO-GR","parentID":"ROU:ADM1:RO-GR","src_shape_id":"2599482B53285943705449"},"geometry":{"type":"Polygon","coordinates":[[[25.425677,44.396757],[25.435576,44.392654],[25.442487,44.388088],[25.449409,44.386295],[25.447519,44.382526],[25.449771,44.377735],[25.45481,44.376744],[25.457947,44.374863],[25.468821,44.374253],[25.473306,44.373654],[25.484759,44.377265],[25.477871,44.36748],[25.470323,44.36036],[25.477988,44.354075],[25.503171,44.367277],[25.524736,44.377607],[25.537508,44.383982],[25.547389,44.388547],[25.552989,44.391625],[25.559377,44.394167],[25.559615,44.393035],[25.573134,44.400054],[25.597831,44.412148],[25.599992,44.414796],[25.598315,44.418183],[25.593842,44.419456],[25.589496,44.421786],[25.587298,44.420631],[25.584005,44.422011],[25.581214,44.419364],[25.57841,44.418358],[25.571668,44.421559],[25.57421,44.423174],[25.574392,44.428023],[25.570349,44.429109],[25.565936,44.431865],[25.563064,44.432243],[25.560097,44.435547],[25.556653,44.437779],[25.552952,44.438455],[25.553942,44.440117],[25.549274,44.443318],[25.550025,44.445032],[25.54391,44.45226],[25.539082,44.450734],[25.538822,44.452512],[25.534787,44.451722],[25.531026,44.453297],[25.530021,44.455581],[25.525525,44.456101],[25.520692,44.457368],[25.515499,44.459968],[25.510802,44.46497],[25.507641,44.469224],[25.507379,44.473959],[25.502503,44.476781],[25.498326,44.479172],[25.490774,44.471665],[25.497628,44.465478],[25.48051,44.451998],[25.484544,44.450779],[25.470404,44.436675],[25.472933,44.43614],[25.467459,44.430664],[25.459173,44.420866],[25.455959,44.41856],[25.450411,44.419595],[25.431075,44.405554],[25.428908,44.404017],[25.431569,44.401179],[25.425677,44.396757]]]}},
{"type":"Feature","id":"ROU:ADM2:RO-GR.crevedia-mare","properties":{"shapeName":"CREVEDIA MARE","shapeISO":"","shapeGroup":"ROU","shapeType":"ADM2","adm1ISO":"RO-GR","parentISO":"RO-GR","parentID":"ROU:ADM1:RO-GR","src_shape_id":"2599482B65943054980402"},"geometry":{"type":"Polygon","coordinates":[[[25.69864,44.414178],[25.653985,44.46599],[25.638549,44.459274],[25.63669,44.460851],[25.63635,44.463456],[25.625725,44.469934],[25.621678,44.469033],[25.617677,44.470355],[25.616144,44.4717],[25.612303,44.470253],[25.610878,44.468822],[25.608085,44.477051],[25.60291,44.480491],[25.586935,44.472894],[25.588344,44.470836],[25.57932,44.466189],[25.576886,44.463428],[25.577662,44.462145],[25.567885,44.4598],[25.54391,44.45226],[25.550025,44.445032],[25.549274,44.443318],[25.553942,44.440117],[25.552952,44.438455],[25.556653,44.437779],[25.560097,44.435547],[25.563064,44.432243],[25.565936,44.431865],[25.570349,44.429109],[25.574392,44.428023],[25.57421,44.423174],[25.571668,44.421559],[25.57841,44.418358],[25.581214,44.419364],[25.584005,44.422011],[25.587298,44.420631],[25.589496,44.421786],[25.593842,44.419456],[25.598315,44.418183],[25.599992,44.414796],[25.597831,44.412148],[25.605446,44.405231],[25.61073,44.406547],[25.621684,44.412552],[25.624659,44.414598],[25.627891,44.415203],[25.635204,44.41348],[25.632542,44.409447],[25.632815,44.407355],[25.635964,44.405074],[25.639403,44.403621],[25.639642,44.401117],[25.636445,44.398593],[25.615182,44.384147],[25.625263,44.376638],[25.63257,44.383179],[25.636761,44.380566],[25.642473,44.384476],[25.648502,44.391196],[25.666008,44.402657],[25.68907,44.41352],[25.692368,44.412831],[25.696946,44.413275],[25.69864,44.414178]]]}},
{"type":"Feature","id":"ROU:ADM2:RO-GR.bolintin-vale","properties":{"shapeName":"BOLINTIN-VALE","shapeISO":"","shapeGroup":"ROU","shapeType":"ADM2","adm1ISO":"RO-GR","parentISO":"RO-GR","parentID":"ROU:ADM1:RO-GR","src_shape_id":"2599482B86536056003936"},"geometry":{"type":"Polygon","coordinates":[[[25.796202,44.427305],[25.800491,44.431322],[25.803758,44.432404],[25.805951,44.434415],[25.803842,44.440215],[25.799164,44.439069],[25.79371,44.439065],[25.791927,44.443075],[25.786189,44.447183],[25.788101,44.448965],[25.786606,44.459722],[25.781273,44.457343],[25.776414,44.455845],[25.777086,44.458556],[25.77327,44.458864],[25.769967,44.460262],[25.771396,44.462714],[25.769593,44.46828],[25.766133,44.467468],[25.754083,44.464042],[25.7485,44.462958],[25.738444,44.462066],[25.729671,44.458349],[25.727262,44.459243],[25.723631,44.458866],[25.721838,44.452676],[25.719591,44.451372],[25.71028,44.450285],[25.703216,44.452301],[25.698876,44.452441],[25.690753,44.451966],[25.689115,44.454688],[25.690653,44.457306],[25.690681,44.460695],[25.688602,44.462951],[25.685288,44.464189],[25.676331,44.464182],[25.675368,44.467395],[25.677319,44.469758],[25.679472,44.478795],[25.670823,44.480566],[25.673654,44.473573],[25.669986,44.47003],[25.674094,44.464883],[25.670621,44.46587],[25.662006,44.467015],[25.659257,44.470162],[25.652834,44.467322],[25.653985,44.46599],[25.69864,44.414178],[25.705527,44.417837],[25.713097,44.412491],[25.723812,44.42049],[25.721445,44.422056],[25.728218,44.42739],[25.730875,44.427268],[25.733265,44.429033],[25.736971,44.42659],[25.740931,44.430383],[25.745488,44.430973],[25.762379,44.430792],[25.768435,44.429693],[25.772981,44.432236],[25.776128,44.431585],[25.778662,44.426992],[25.779967,44.425952],[25.787431,44.425954],[25.794962,44.42773],[25.796202,44.427305]]]}},
{"type":"Feature","id":"ROU:ADM2:RO-GR.bolintin-deal","properties":{"shapeName":"BOLINTIN-DEAL","shapeISO":"","shapeGroup":"ROU","shapeType":"ADM2","adm1ISO":"RO-GR","parentISO":"RO-GR","parentID":"ROU:ADM1:RO-GR","src_shape_id":"2599482B7504561423592"},"geometry":{"type":"Polygon","coordinates":[[[25.796425,44.417103],[25.818017,44.422391],[25.829715,44.426869],[25.84152,44.431057],[25.845003,44.432613],[25.849904,44.433077],[25.864686,44.442939],[25.864792,44.444713],[25.852546,44.446997],[25.855071,44.450503],[25.853759,44.466358],[25.849951,44.467243],[25.851721,44.469328],[25.843016,44.469409],[25.845462,44.472017],[25.856729,44.482179],[25.851634,44.482643],[25.835457,44.470997],[25.832764,44.471003],[25.823491,44.480538],[25.808494,44.480303],[25.805113,44.479591],[25.790656,44.4787],[25.789657,44.476781],[25.792855,44.473864],[25.79403,44.471689],[25.790514,44.471808],[25.789711,44.470602],[25.794748,44.464478],[25.794004,44.462801],[25.786606,44.459722],[25.788101,44.448965],[25.786189,44.447183],[25.791927,44.443075],[25.79371,44.439065],[25.799164,44.439069],[25.803842,44.440215],[25.805951,44.434415],[25.803758,44.432404],[25.800491,44.431322],[25.796202,44.427305],[25.795178,44.425131],[25.796907,44.419907],[25.796425,44.417103]]]}},
{"type":"Feature","id":"ROU:ADM2:RO-GR.joita","properties":{"shapeName":"JOITA","shapeISO":"","shapeGroup":"ROU","shapeType":"ADM2","adm1ISO":"RO-GR","parentISO":"RO-GR","parentID":"ROU:ADM1:RO-GR","src_shape_id":"2599482B22090159285998"},"geometry":{"type":"Polygon","coordinates":[[[25.856729,44.482179],[25.857756,44.479499],[25.864009,44.479625],[25.867503,44.477902],[25.870644,44.473731],[25.867667,44.470772],[25.867132,44.464842],[25.878948,44.461824],[25.888666,44.458265],[25.900082,44.452807],[25.902966,44.457929],[25.911467,44.471513],[25.915348,44.476881],[25.911884,44.47606],[25.910671,44.478904],[25.907264,44.480506],[25.906806,44.4819],[25.898283,44.484952],[25.895684,44.4854],[25.892235,44.48512],[25.887145,44.486927],[25.884629,44.48901],[25.86993,44.490954],[25.868748,44.494922],[25.865065,44.502668],[25.862221,44.501077],[25.861593,44.504638],[25.855535,44.504191],[25.852659,44.504998],[25.852882,44.508603],[25.850545,44.512234],[25.852169,44.514478],[25.84787,44.517131],[25.846244,44.522264],[25.831746,44.515211],[25.813908,44.502358],[25.833283,44.483709],[25.823491,44.480538],[25.832764,44.471003],[25.835457,44.470997],[25.851634,44.482643],[25.856729,44.482179]]]}},
{"type":"Feature","id":"ROU:ADM2:RO-GR.vanatorii-mici","properties":{"shapeName":"VANATORII MICI","shapeISO":"","shapeGroup":"ROU","shapeType":"ADM2","adm1ISO":"RO-GR","parentISO":"RO-GR","parentID":"ROU:ADM1:RO-GR","src_shape_id":"2599482B21874534700145"},"geometry":{"type":"Polygon","coordinates":[[[25.54391,44.45226],[25.567885,44.4598],[25.577662,44.462145],[25.576886,44.463428],[25.57932,44.466189],[25.588344,44.470836],[25.586935,44.472894],[25.60291,44.480491],[25.601391,44.484867],[25.593932,44.49337],[25.597186,44.494344],[25.588228,44.497979],[25.584097,44.497747],[25.578247,44.503773],[25.580289,44.505345],[25.582506,44.505161],[25.588892,44.507012],[25.592244,44.505798],[25.597163,44.506691],[25.595429,44.509696],[25.587472,44.52045],[25.589298,44.525372],[25.582152,44.526587],[25.582589,44.529191],[25.579528,44.531005],[25.581753,44.532866],[25.580586,44.534193],[25.576178,44.53473],[25.574911,44.537984],[25.5716,44.537098],[25.570284,44.535531],[25.564963,44.53196],[25.563248,44.529487],[25.560902,44.53121],[25.552703,44.532462],[25.548122,44.536448],[25.547818,44.539515],[25.541989,44.540009],[25.539259,44.539068],[25.515557,44.518898],[25.513619,44.519506],[25.509233,44.517987],[25.506814,44.519157],[25.500383,44.519411],[25.497983,44.520689],[25.495118,44.51917],[25.498801,44.517551],[25.484561,44.502452],[25.480394,44.504333],[25.479864,44.499094],[25.481044,44.499002],[25.496664,44.491527],[25.500111,44.487701],[25.509675,44.489981],[25.512172,44.487685],[25.502503,44.476781],[25.507379,44.473959],[25.507641,44.469224],[25.510802,44.46497],[25.515499,44.459968],[25.520692,44.457368],[25.525525,44.456101],[25.530021,44.455581],[25.531026,44.453297],[25.534787,44.451722],[25.538822,44.452512],[25.539082,44.450734],[25.54391,44.45226]]]}},
{"type":"Feature","id":"ROU:ADM2:RO-GR.sabareni","properties":{"shapeName":"SABARENI","shapeISO":"","shapeGroup":"ROU","shapeType":"ADM2","adm1ISO":"RO-GR","parentISO":"RO-GR","parentID":"ROU:ADM1:RO-GR","src_shape_id":"2599482B37773759614218"},"geometry":{"type":"Polygon","coordinates":[[[25.895684,44.4854],[25.902637,44.492677],[25.907001,44.498715],[25.920622,44.516333],[25.908741,44.525383],[25.902941,44.529305],[25.898042,44.533475],[25.890762,44.540954],[25.874998,44.533914],[25.873778,44.53461],[25.867494,44.535405],[25.860074,44.537705],[25.858789,44.535949],[25.853589,44.5389],[25.846183,44.527243],[25.846503,44.525322],[25.844557,44.523853],[25.846244,44.522264],[25.84787,44.517131],[25.852169,44.514478],[25.850545,44.512234],[25.852882,44.508603],[25.852659,44.504998],[25.855535,44.504191],[25.861593,44.504638],[25.862221,44.501077],[25.865065,44.502668],[25.868748,44.494922],[25.86993,44.490954],[25.884629,44.48901],[25.887145,44.486927],[25.892235,44.48512],[25.895684,44.4854]]]}},
{"type":"Feature","id":"ROU:ADM2:RO-GR.floresti-stoenesti","properties":{"shapeName":"FLORESTI-STOENESTI","shapeISO":"","shapeGroup":"ROU","shapeType":"ADM2","adm1ISO":"RO-GR","parentISO":"RO-GR","parentID":"ROU:ADM1:RO-GR","src_shape_id":"2599482B22375380524823"},"geometry":{"type":"Polygon","coordinates":[[[25.766133,44.467468],[25.761227,44.469557],[25.756432,44.470076],[25.752399,44.469651],[25.750755,44.468616],[25.747015,44.469792],[25.744635,44.469116],[25.742506,44.472053],[25.731442,44.485745],[25.719743,44.508103],[25.741943,44.515419],[25.744926,44.5166],[25.734007,44.527618],[25.733896,44.52863],[25.71767,44.537827],[25.720526,44.539495],[25.715976,44.541961],[25.712909,44.540478],[25.70812,44.544383],[25.696287,44.534374],[25.682972,44.523451],[25.681848,44.522953],[25.680911,44.522453],[25.672806,44.50703],[25.671953,44.506398],[25.671008,44.498048],[25.672232,44.495654],[25.676457,44.493745],[25.676091,44.491567],[25.671389,44.487395],[25.672691,44.483758],[25.678814,44.481626],[25.679472,44.478795],[25.677319,44.469758],[25.675368,44.467395],[25.676331,44.464182],[25.685288,44.464189],[25.688602,44.462951],[25.690681,44.460695],[25.690653,44.457306],[25.689115,44.454688],[25.690753,44.451966],[25.698876,44.452441],[25.703216,44.452301],[25.71028,44.450285],[25.719591,44.451372],[25.721838,44.452676],[25.723631,44.458866],[25.727262,44.459243],[25.729671,44.458349],[25.738444,44.462066],[25.7485,44.462958],[25.754083,44.464042],[25.766133,44.467468]]]}},
{"type":"Feature","id":"ROU:ADM2:RO-GR.ulmi","properties":{"shapeName":"ULMI","shapeISO":"","shapeGroup":"ROU","shapeType":"ADM2","adm1ISO":"RO-GR","parentISO":"RO-GR","parentID":"ROU:ADM1:RO-GR","src_shape_id":"2599482B15778475924534"},"geometry":{"type":"Polygon","coordinates":[[[25.786606,44.459722],[25.794004,44.462801],[25.794748,44.464478],[25.789711,44.470602],[25.790514,44.471808],[25.79403,44.471689],[25.792855,44.473864],[25.789657,44.476781],[25.790656,44.4787],[25.805113,44.479591],[25.808494,44.480303],[25.823491,44.480538],[25.833283,44.483709],[25.813908,44.502358],[25.810606,44.503844],[25.807633,44.502702],[25.800763,44.504958],[25.797647,44.508952],[25.797717,44.512044],[25.796319,44.51356],[25.800716,44.515364],[25.795604,44.518355],[25.799267,44.521295],[25.796055,44.523465],[25.787536,44.517412],[25.783208,44.520817],[25.792149,44.527491],[25.789237,44.530273],[25.78543,44.533258],[25.778661,44.529324],[25.764073,44.535664],[25.760939,44.531872],[25.757643,44.529805],[25.752545,44.532466],[25.746341,44.538062],[25.739764,44.5348],[25.737017,44.537047],[25.728848,44.53638],[25.725625,44.53919],[25.727621,44.541172],[25.723332,44.543535],[25.722077,44.545125],[25.715976,44.541961],[25.720526,44.539495],[25.71767,44.537827],[25.733896,44.52863],[25.734007,44.527618],[25.744926,44.5166],[25.741943,44.515419],[25.719743,44.508103],[25.731442,44.485745],[25.742506,44.472053],[25.744635,44.469116],[25.747015,44.469792],[25.750755,44.468616],[25.752399,44.469651],[25.756432,44.470076],[25.761227,44.469557],[25.766133,44.467468],[25.769593,44.46828],[25.771396,44.462714],[25.769967,44.460262],[25.77327,44.458864],[25.777086,44.458556],[25.776414,44.455845],[25.781273,44.457343],[25.786606,44.459722]]]}},
{"type":"Feature","id":"ROU:ADM2:RO-GR.gaiseni","properties":{"shapeName":"GAISENI","shapeISO":"","shapeGroup":"ROU","shapeType":"ADM2","adm1ISO":"RO-GR","parentISO":"RO-GR","parentID":"ROU:ADM1:RO-GR","src_shape_id":"2599482B30657181659472"},"geometry":{"type":"Polygon","coordinates":[[[25.653985,44.46599],[25.652834,44.467322],[25.659257,44.470162],[25.662006,44.467015],[25.670621,44.46587],[25.674094,44.464883],[25.669986,44.47003],[25.673654,44.473573],[25.670823,44.480566],[25.679472,44.478795],[25.678814,44.481626],[25.672691,44.483758],[25.671389,44.487395],[25.676091,44.491567],[25.676457,44.493745],[25.672232,44.495654],[25.671008,44.498048],[25.671953,44.506398],[25.672806,44.50703],[25.680911,44.522453],[25.681848,44.522953],[25.680217,44.524905],[25.684195,44.528591],[25.680994,44.530005],[25.678811,44.526864],[25.676494,44.525265],[25.673523,44.528771],[25.674988,44.529613],[25.674155,44.532428],[25.670869,44.532001],[25.661427,44.535618],[25.659858,44.537858],[25.653416,44.540308],[25.646295,44.544002],[25.64882,44.548714],[25.646801,44.55354],[25.639863,44.551887],[25.635538,44.54904],[25.625045,44.550693],[25.619191,44.549415],[25.616586,44.550066],[25.612164,44.544386],[25.601081,44.528939],[25.597095,44.529656],[25.593439,44.532135],[25.590718,44.526329],[25.589298,44.525372],[25.587472,44.52045],[25.595429,44.509696],[25.597163,44.506691],[25.592244,44.505798],[25.588892,44.507012],[25.582506,44.505161],[25.580289,44.505345],[25.578247,44.503773],[25.584097,44.497747],[25.588228,44.497979],[25.597186,44.494344],[25.593932,44.49337],[25.601391,44.484867],[25.60291,44.480491],[25.608085,44.477051],[25.610878,44.468822],[25.612303,44.470253],[25.616144,44.4717],[25.617677,44.470355],[25.621678,44.469033],[25.625725,44.469934],[25.63635,44.463456],[25.63669,44.460851],[25.638549,44.459274],[25.653985,44.46599]]]}},
{"type":"Feature","id":"ROU:ADM2:RO-GR.colibasi","properties":{"shapeName":"COLIBASI","shapeISO":"","shapeGroup":"ROU","shapeType":"ADM2","adm1ISO":"RO-GR","parentISO":"RO-GR","parentID":"ROU:ADM1:RO-GR","src_shape_id":"2599482B40153006578740"},"geometry":{"type":"Polygon","coordinates":[[[26.22712,44.209649],[26.225982,44.210321],[26.231857,44.216863],[26.227123,44.219331],[26.219107,44.224982],[26.223437,44.232436],[26.229508,44.243683],[26.239625,44.254234],[26.257253,44.270945],[26.242392,44.279415],[26.21822,44.25766],[26.220833,44.255827],[26.221039,44.25301],[26.226526,44.249344],[26.224356,44.247432],[26.22141,44.249562],[26.216738,44.243834],[26.20616,44.247473],[26.198953,44.238172],[26.196043,44.238247],[26.190162,44.241491],[26.176034,44.247408],[26.172976,44.250393],[26.161779,44.235967],[26.164593,44.220572],[26.165872,44.215614],[26.17396,44.214825],[26.176954,44.213293],[26.18083,44.212571],[26.184138,44.208641],[26.192993,44.201721],[26.195741,44.196481],[26.195346,44.19305],[26.192542,44.18833],[26.193716,44.186394],[26.196291,44.185959],[26.201307,44.186865],[26.207514,44.187784],[26.223045,44.207457],[26.22712,44.209649]]]}},
{"type":"Feature","id":"ROU:ADM2:RO-GR.comana","properties":{"shapeName":"COMANA","shapeISO":"","shapeGroup":"ROU","shapeType":"ADM2","adm1ISO":"RO-GR","parentISO":"RO-GR","parentID":"ROU:ADM1:RO-GR","src_shape_id":"2599482B75147928047629"},"geometry":{"type":"Polygon","coordinates":[[[26.144675,44.081401],[26.159274,44.092787],[26.169429,44.099593],[26.175672,44.10225],[26.180536,44.10309],[26.183483,44.102829],[26.18723,44.103726],[26.186648,44.107175],[26.18607,44.124142],[26.184974,44.146611],[26.189879,44.148205],[26.190835,44.160745],[26.19209,44.171258],[26.192669,44.181642],[26.197424,44.181725],[26.202691,44.183632],[26.201307,44.186865],[26.196291,44.185959],[26.193716,44.186394],[26.192542,44.18833],[26.195346,44.19305],[26.195741,44.196481],[26.192993,44.201721],[26.184138,44.208641],[26.18083,44.212571],[26.176954,44.213293],[26.17396,44.214825],[26.165872,44.215614],[26.164593,44.220572],[26.161779,44.235967],[26.160349,44.239469],[26.154752,44.240004],[26.152405,44.238551],[26.148373,44.237895],[26.144924,44.235717],[26.145401,44.234496],[26.146218,44.232097],[26.134442,44.221578],[26.117159,44.229158],[26.109572,44.222341],[26.107233,44.220772],[26.10915,44.218875],[26.106116,44.215773],[26.106924,44.213135],[26.102925,44.208275],[26.100195,44.20848],[26.099175,44.20178],[26.098028,44.201766],[26.086544,44.198452],[26.076527,44.195197],[26.083407,44.178992],[26.084427,44.175889],[26.082414,44.17051],[26.080369,44.162082],[26.087521,44.161173],[26.098284,44.161157],[26.102216,44.160272],[26.102781,44.158747],[26.105401,44.144793],[26.084551,44.142556],[26.086649,44.130395],[26.092265,44.127303],[26.110171,44.118393],[26.117315,44.122385],[26.119974,44.119766],[26.125539,44.112392],[26.13346,44.099093],[26.123293,44.097248],[26.125878,44.090233],[26.138444,44.091759],[26.144675,44.081401]]]}},
{"type":"Feature","id":"ROU:ADM2:RO-GR.bulbucata","properties":{"shapeName":"BULBUCATA","shapeISO":"","shapeGroup":"ROU","shapeType":"ADM2","adm1ISO":"RO-GR","parentISO":"RO-GR","parentID":"ROU:ADM1:RO-GR","src_shape_id":"2599482B12854279400652"},"geometry":{"type":"Polygon","coordinates":[[[25.771831,44.283711],[25.77531,44.281341],[25.771351,44.278832],[25.760273,44.267864],[25.752865,44.262185],[25.75407,44.260592],[25.779663,44.243085],[25.780519,44.242659],[25.801491,44.253521],[25.804391,44.255386],[25.817399,44.2662],[25.821267,44.266826],[25.826167,44.26659],[25.830698,44.26338],[25.841493,44.267945],[25.836078,44.270786],[25.838317,44.271652],[25.8419,44.274325],[25.840149,44.277237],[25.833809,44.279883],[25.839822,44.288931],[25.848202,44.300158],[25.841157,44.301453],[25.845672,44.304675],[25.838037,44.311998],[25.839409,44.312886],[25.835441,44.316484],[25.828292,44.312255],[25.829201,44.307903],[25.830546,44.30543],[25.833764,44.30436],[25.828326,44.301808],[25.821103,44.297452],[25.818559,44.302179],[25.814381,44.298585],[25.803569,44.2987],[25.788988,44.308431],[25.78211,44.305234],[25.784389,44.302806],[25.790077,44.302495],[25.795338,44.299953],[25.798093,44.297988],[25.801904,44.297698],[25.808764,44.289721],[25.803639,44.291319],[25.795873,44.289894],[25.791819,44.291361],[25.784152,44.287398],[25.778872,44.288816],[25.771831,44.283711]]]}},
{"type":"Feature","id":"ROU:ADM2:RO-GR.ghimpati","properties":{"shapeName":"GHIMPATI","shapeISO":"","shapeGroup":"ROU","shapeType":"ADM2","adm1ISO":"RO-GR","parentISO":"RO-GR","parentID":"ROU:ADM1:RO-GR","src_shape_id":"2599482B55466329645382"},"geometry":{"type":"Polygon","coordinates":[[[25.800842,44.12406],[25.794504,44.126798],[25.787651,44.12857],[25.786377,44.129603],[25.785497,44.132961],[25.787195,44.13534],[25.786279,44.137075],[25.78112,44.138874],[25.777376,44.14413],[25.777019,44.147529],[25.778749,44.147468],[25.782764,44.144659],[25.786641,44.143838],[25.790291,44.147878],[25.799718,44.15198],[25.801573,44.153539],[25.800742,44.158548],[25.801848,44.160723],[25.797694,44.165229],[25.797199,44.167874],[25.798655,44.17227],[25.797379,44.173854],[25.800845,44.174781],[25.7975,44.176789],[25.800063,44.182571],[25.802468,44.179132],[25.810004,44.176047],[25.81929,44.179992],[25.82132,44.17961],[25.824645,44.1872],[25.833297,44.208033],[25.834162,44.209343],[25.836641,44.216171],[25.834048,44.216725],[25.840344,44.234378],[25.839642,44.236608],[25.841824,44.24361],[25.845169,44.242241],[25.850574,44.252337],[25.853422,44.251589],[25.857053,44.258119],[25.843674,44.261419],[25.842144,44.262232],[25.850549,44.267691],[25.838317,44.271652],[25.836078,44.270786],[25.841493,44.267945],[25.830698,44.26338],[25.826167,44.26659],[25.821267,44.266826],[25.817399,44.2662],[25.804391,44.255386],[25.801491,44.253521],[25.780519,44.242659],[25.794646,44.233105],[25.774318,44.217105],[25.77771,44.2144],[25.77627,44.212733],[25.769867,44.21037],[25.767405,44.211417],[25.764615,44.209855],[25.758704,44.209011],[25.756885,44.210129],[25.75654,44.216127],[25.755679,44.218176],[25.75342,44.218761],[25.74972,44.2131],[25.745487,44.211369],[25.742354,44.216534],[25.735238,44.221276],[25.727078,44.21497],[25.731205,44.212231],[25.729091,44.208632],[25.727727,44.213076],[25.723958,44.212555],[25.719563,44.211007],[25.720267,44.20906],[25.717207,44.207964],[25.714907,44.210766],[25.715984,44.200824],[25.719315,44.200166],[25.719619,44.197838],[25.723425,44.195491],[25.724288,44.193791],[25.720868,44.190169],[25.72108,44.186865],[25.706892,44.168005],[25.707975,44.166548],[25.715111,44.165833],[25.717464,44.16429],[25.702895,44.153082],[25.701744,44.15402],[25.696772,44.155053],[25.690137,44.153409],[25.684673,44.157145],[25.676813,44.157192],[25.679012,44.126648],[25.681775,44.126525],[25.688213,44.1282],[25.706713,44.135371],[25.708915,44.134891],[25.708584,44.132637],[25.713337,44.130367],[25.713176,44.127823],[25.712683,44.12589],[25.717283,44.120196],[25.718256,44.115895],[25.719799,44.112725],[25.729962,44.112199],[25.739397,44.110941],[25.745245,44.108422],[25.7569,44.086653],[25.767054,44.083622],[25.76204,44.07502],[25.764493,44.073782],[25.770927,44.076243],[25.774288,44.080139],[25.778966,44.083985],[25.782002,44.08783],[25.783459,44.093238],[25.788179,44.100943],[25.786432,44.103176],[25.786783,44.107229],[25.789022,44.109443],[25.791907,44.109315],[25.790762,44.106355],[25.79474,44.105924],[25.796782,44.11042],[25.793922,44.113107],[25.793992,44.114548],[25.797058,44.117377],[25.801619,44.120193],[25.802351,44.122063],[25.800842,44.12406]]]}},
{"type":"Feature","id":"ROU:ADM2:RO-GR.iepuresti","properties":{"shapeName":"IEPURESTI","shapeISO":"","shapeGroup":"ROU","shapeType":"ADM2","adm1ISO":"RO-GR","parentISO":"RO-GR","parentID":"ROU:ADM1:RO-GR","src_shape_id":"2599482B53463845367908"},"geometry":{"type":"Polygon","coordinates":[[[25.877379,44.201596],[25.883698,44.207229],[25.887803,44.206449],[25.905743,44.225278],[25.921334,44.234077],[25.926903,44.236771],[25.92856,44.240414],[25.926537,44.240973],[25.923819,44.244535],[25.917751,44.245802],[25.917128,44.247475],[25.918852,44.249914],[25.915385,44.252408],[25.915353,44.253625],[25.921561,44.256381],[25.922254,44.257388],[25.928186,44.260134],[25.924917,44.262593],[25.924463,44.268254],[25.922329,44.270569],[25.919612,44.273234],[25.907228,44.283622],[25.906171,44.282161],[25.88048,44.283765],[25.878582,44.287587],[25.880793,44.291097],[25.875658,44.29412],[25.870474,44.296224],[25.848202,44.300158],[25.839822,44.288931],[25.833809,44.279883],[25.840149,44.277237],[25.8419,44.274325],[25.838317,44.271652],[25.850549,44.267691],[25.842144,44.262232],[25.843674,44.261419],[25.857053,44.258119],[25.853422,44.251589],[25.850574,44.252337],[25.845169,44.242241],[25.841824,44.24361],[25.839642,44.236608],[25.840344,44.234378],[25.834048,44.216725],[25.836641,44.216171],[25.834162,44.209343],[25.842939,44.207661],[25.877379,44.201596]]]}},
{"type":"Feature","id":"ROU:ADM2:RO-GR.prundu","properties":{"shapeName":"PRUNDU","shapeISO":"","shapeGroup":"ROU","shapeType":"ADM2","adm1ISO":"RO-GR","parentISO":"RO-GR","parentID":"ROU:ADM1:RO-GR","src_shape_id":"2599482B89662234668465"},"geometry":{"type":"Polygon","coordinates":[[[26.194546,43.984057],[26.209834,43.988668],[26.216751,43.991088],[26.22722,43.993838],[26.240405,43.999217],[26.252604,44.001695],[26.260782,44.004186],[26.270933,44.007878],[26.280288,44.010254],[26.279717,44.011496],[26.288923,44.017517],[26.304834,44.026586],[26.306365,44.025143],[26.312851,44.027641],[26.323775,44.029813],[26.34201,44.033771],[26.352194,44.037389],[26.358389,44.038413],[26.371255,44.042086],[26.37997,44.042948],[26.375028,44.05232],[26.373497,44.056198],[26.358789,44.107392],[26.351336,44.103295],[26.346531,44.102587],[26.337979,44.102692],[26.334068,44.100471],[26.326236,44.098442],[26.320809,44.095793],[26.313685,44.095643],[26.309447,44.094161],[26.300872,44.094611],[26.292337,44.094164],[26.284748,44.094542],[26.278874,44.094265],[26.278901,44.09686],[26.27183,44.096253],[26.269482,44.107103],[26.265316,44.107886],[26.253067,44.106647],[26.24944,44.109332],[26.249718,44.112592],[26.248125,44.114949],[26.242859,44.116437],[26.233196,44.154074],[26.217753,44.151876],[26.189879,44.148205],[26.184974,44.146611],[26.18607,44.124142],[26.186648,44.107175],[26.18723,44.103726],[26.183483,44.102829],[26.180536,44.10309],[26.175672,44.10225],[26.169429,44.099593],[26.159274,44.092787],[26.144675,44.081401],[26.147118,44.077239],[26.160375,44.079662],[26.16554,44.073813],[26.166697,44.071424],[26.15885,44.0687],[26.152241,44.065569],[26.152172,44.062986],[26.158017,44.058818],[26.163223,44.056381],[26.166896,44.055878],[26.165513,44.052253],[26.163624,44.051331],[26.162893,44.048292],[26.171426,44.035377],[26.171218,44.032186],[26.174116,44.028777],[26.173734,44.026465],[26.176779,44.024376],[26.174394,44.020883],[26.167393,44.016209],[26.172408,44.01144],[26.169436,44.009861],[26.177552,44.00082],[26.181497,43.999533],[26.180778,43.997577],[26.187914,43.990874],[26.194546,43.984057]]]}},
{"type":"Feature","id":"ROU:ADM2:RO-GR.herasti","properties":{"shapeName":"HERASTI","shapeISO":"","shapeGroup":"ROU","shapeType":"ADM2","adm1ISO":"RO-GR","parentISO":"RO-GR","parentID":"ROU:ADM1:RO-GR","src_shape_id":"2599482B7326478622533"},"geometry":{"type":"Polygon","coordinates":[[[26.399777,44.197474],[26.405554,44.199816],[26.408609,44.200187],[26.415878,44.198593],[26.415808,44.203823],[26.413028,44.205577],[26.403322,44.206618],[26.401054,44.208104],[26.400454,44.224207],[26.361323,44.223072],[26.360173,44.241935],[26.345859,44.24181],[26.333587,44.251067],[26.325831,44.249893],[26.315001,44.257861],[26.303604,44.255854],[26.305066,44.254875],[26.311016,44.251053],[26.323451,44.242309],[26.325074,44.242193],[26.325091,44.214645],[26.330286,44.215238],[26.331209,44.206836],[26.335127,44.196734],[26.338245,44.197414],[26.340113,44.192568],[26.336465,44.192601],[26.339258,44.18504],[26.3473,44.184673],[26.355289,44.188573],[26.359644,44.192091],[26.364854,44.192634],[26.370032,44.189295],[26.375038,44.189033],[26.380307,44.190847],[26.386922,44.192262],[26.394777,44.195073],[26.399777,44.197474]]]}},
{"type":"Feature","id":"ROU:ADM2:RO-GR.buturugeni","properties":{"shapeName":"BUTURUGENI","shapeISO":"","shapeGroup":"ROU","shapeType":"ADM2","adm1ISO":"RO-GR","parentISO":"RO-GR","parentID":"ROU:ADM1:RO-GR","src_shape_id":"2599482B72112138789646"},"geometry":{"type":"Polygon","coordinates":[[[25.818559,44.302179],[25.821103,44.297452],[25.828326,44.301808],[25.833764,44.30436],[25.830546,44.30543],[25.829201,44.307903],[25.828292,44.312255],[25.835441,44.316484],[25.838972,44.319898],[25.83357,44.324516],[25.83902,44.327679],[25.840211,44.326767],[25.848716,44.332945],[25.847061,44.334171],[25.859138,44.342911],[25.863841,44.339705],[25.872312,44.341174],[25.877931,44.345401],[25.875144,44.348246],[25.883142,44.352654],[25.882327,44.354284],[25.883487,44.357148],[25.880766,44.357278],[25.876174,44.355344],[25.870043,44.357401],[25.868095,44.361104],[25.869485,44.365388],[25.865978,44.367003],[25.861748,44.37053],[25.857202,44.372468],[25.856051,44.378812],[25.857834,44.382855],[25.858191,44.3861],[25.856081,44.388146],[25.854148,44.38874],[25.849927,44.387628],[25.849686,44.385901],[25.849586,44.383694],[25.847162,44.382828],[25.836609,44.380373],[25.834863,44.377033],[25.826769,44.371807],[25.81192,44.362918],[25.8091,44.361892],[25.793924,44.360433],[25.791698,44.365727],[25.784611,44.363563],[25.778673,44.365396],[25.77194,44.363222],[25.74294,44.35466],[25.746143,44.351336],[25.74686,44.353335],[25.749914,44.353804],[25.760879,44.352598],[25.774434,44.349914],[25.769653,44.344833],[25.763897,44.34059],[25.76245,44.337946],[25.758137,44.334297],[25.768041,44.325592],[25.771661,44.326431],[25.774204,44.323105],[25.778815,44.323255],[25.778099,44.319412],[25.803677,44.323164],[25.809254,44.320875],[25.816012,44.316551],[25.818909,44.315383],[25.820004,44.304057],[25.818559,44.302179]]]}},
{"type":"Feature","id":"ROU:ADM2:RO-GR.varasti","properties":{"shapeName":"VARASTI","shapeISO":"","shapeGroup":"ROU","shapeType":"ADM2","adm1ISO":"RO-GR","parentISO":"RO-GR","parentID":"ROU:ADM1:RO-GR","src_shape_id":"2599482B7162388776253"},"geometry":{"type":"Polygon","coordinates":[[[26.246554,44.189339],[26.251366,44.194862],[26.255466,44.201573],[26.263548,44.212509],[26.264852,44.211289],[26.269683,44.215954],[26.282329,44.228872],[26.280496,44.228872],[26.305066,44.254875],[26.303604,44.255854],[26.286273,44.276694],[26.284234,44.27595],[26.280885,44.279113],[26.28345,44.281328],[26.268525,44.289854],[26.259986,44.294985],[26.256047,44.291574],[26.249547,44.295035],[26.232363,44.279719],[26.213873,44.263241],[26.212542,44.266905],[26.209195,44.269121],[26.208826,44.27077],[26.205291,44.271853],[26.204687,44.269532],[26.190808,44.252114],[26.188706,44.251212],[26.195545,44.248521],[26.190162,44.241491],[26.196043,44.238247],[26.198953,44.238172],[26.20616,44.247473],[26.216738,44.243834],[26.22141,44.249562],[26.224356,44.247432],[26.226526,44.249344],[26.221039,44.25301],[26.220833,44.255827],[26.21822,44.25766],[26.242392,44.279415],[26.257253,44.270945],[26.239625,44.254234],[26.229508,44.243683],[26.223437,44.232436],[26.219107,44.224982],[26.227123,44.219331],[26.231857,44.216863],[26.225982,44.210321],[26.22712,44.209649],[26.230718,44.209102],[26.227129,44.204232],[26.227958,44.20211],[26.23357,44.199085],[26.235653,44.196334],[26.233892,44.193238],[26.233985,44.190856],[26.23559,44.189523],[26.246554,44.189339]]]}},
{"type":"Feature","id":"ROU:ADM2:RO-GR.toporu","properties":{"shapeName":"TOPORU","shapeISO":"","shapeGroup":"ROU","shapeType":"ADM2","adm1ISO":"RO-GR","parentISO":"RO-GR","parentID":"ROU:ADM1:RO-GR","src_shape_id":"2599482B93697882069712"},"geometry":{"type":"Polygon","coordinates":[[[25.672839,43.942563],[25.687107,43.942914],[25.686724,43.94404],[25.686233,43.958551],[25.713509,43.960199],[25.712727,43.968902],[25.718674,43.974643],[25.720885,43.976573],[25.723325,43.980305],[25.7331,43.9936],[25.703831,44.005576],[25.707798,44.010662],[25.695077,44.01619],[25.687166,44.019218],[25.672978,44.025237],[25.670748,44.026536],[25.664551,44.033225],[25.658794,44.031121],[25.657208,44.032667],[25.657125,44.035533],[25.653171,44.036752],[25.633701,44.058647],[25.627903,44.058336],[25.623169,44.063741],[25.627337,44.065481],[25.625307,44.067957],[25.622917,44.068275],[25.61549,44.064866],[25.614519,44.063136],[25.615269,44.060227],[25.618044,44.058346],[25.623552,44.057629],[25.624438,44.055915],[25.629851,44.052524],[25.628987,44.051422],[25.623012,44.048111],[25.619538,44.048301],[25.61607,44.046822],[25.612726,44.04782],[25.60672,44.046194],[25.604876,44.042383],[25.605062,44.039315],[25.607235,44.03797],[25.60293,44.035509],[25.598745,44.037687],[25.598847,44.016567],[25.593986,44.01361],[25.598285,44.008985],[25.599856,44.003041],[25.59345,44.002017],[25.603895,43.99065],[25.591356,43.984506],[25.617823,43.955857],[25.61176,43.952817],[25.622192,43.94148],[25.623088,43.941294],[25.649978,43.941839],[25.672839,43.942563]]]}},
{"type":"Feature","id":"ROU:ADM2:RO-GR.rasuceni","properties":{"shapeName":"RASUCENI","shapeISO":"","shapeGroup":"ROU","shapeType":"ADM2","adm1ISO":"RO-GR","parentISO":"RO-GR","parentID":"ROU:ADM1:RO-GR","src_shape_id":"2599482B42533582324930"},"geometry":{"type":"Polygon","coordinates":[[[25.764493,44.073782],[25.76204,44.07502],[25.767054,44.083622],[25.7569,44.086653],[25.745245,44.108422],[25.739397,44.110941],[25.729962,44.112199],[25.719799,44.112725],[25.718256,44.115895],[25.717283,44.120196],[25.712683,44.12589],[25.713176,44.127823],[25.70969,44.126879],[25.705955,44.124924],[25.704478,44.120391],[25.704944,44.109115],[25.708797,44.102672],[25.706343,44.101791],[25.701952,44.103008],[25.698089,44.105446],[25.693505,44.110789],[25.693107,44.11326],[25.691141,44.117347],[25.690445,44.121192],[25.686036,44.122416],[25.684679,44.121346],[25.684531,44.116591],[25.686738,44.111056],[25.685075,44.109089],[25.681829,44.109882],[25.677965,44.113423],[25.676207,44.112986],[25.672534,44.107812],[25.672354,44.103812],[25.679663,44.097209],[25.678287,44.089783],[25.676553,44.089612],[25.673324,44.092134],[25.671299,44.09482],[25.662855,44.099333],[25.661544,44.100939],[25.660156,44.105555],[25.660009,44.109324],[25.658914,44.114339],[25.657119,44.11506],[25.65366,44.114192],[25.649143,44.110035],[25.647334,44.104453],[25.641936,44.102359],[25.637498,44.098573],[25.641509,44.097809],[25.645916,44.095677],[25.624732,44.085808],[25.628875,44.081079],[25.617961,44.076085],[25.625307,44.067957],[25.627337,44.065481],[25.623169,44.063741],[25.627903,44.058336],[25.633701,44.058647],[25.653171,44.036752],[25.657125,44.035533],[25.657208,44.032667],[25.658794,44.031121],[25.664551,44.033225],[25.670748,44.026536],[25.672978,44.025237],[25.687166,44.019218],[25.695077,44.01619],[25.707798,44.010662],[25.723047,44.030109],[25.737975,44.024708],[25.738496,44.026549],[25.736215,44.027995],[25.73592,44.030977],[25.738147,44.033518],[25.736223,44.03777],[25.733036,44.041362],[25.734372,44.043582],[25.759782,44.047899],[25.757455,44.052521],[25.76732,44.055452],[25.762593,44.058158],[25.763039,44.063515],[25.763844,44.065623],[25.761759,44.068929],[25.761592,44.071068],[25.764493,44.073782]]]}},
{"type":"Feature","id":"ROU:ADM2:RO-GR.giurgiu","properties":{"shapeName":"GIURGIU","shapeISO":"","shapeGroup":"ROU","shapeType":"ADM2","adm1ISO":"RO-GR","parentISO":"RO-GR","parentID":"ROU:ADM1:RO-GR","src_shape_id":"2599482B32840692607101"},"geometry":{"type":"Polygon","coordinates":[[[25.952413,43.859342],[25.959959,43.863594],[25.968817,43.86668],[25.976623,43.869966],[25.983831,43.876007],[25.999727,43.88525],[26.001303,43.883633],[26.012933,43.889658],[26.023666,43.894035],[26.032818,43.896596],[26.032184,43.899976],[26.020725,43.917714],[26.019807,43.922896],[25.99677,43.925838],[25.97616,43.928706],[25.975143,43.93185],[25.975623,43.935159],[25.967319,43.936064],[25.966446,43.931686],[25.95365,43.929176],[25.9544,43.927494],[25.945502,43.92544],[25.940025,43.924165],[25.944366,43.914436],[25.940307,43.914574],[25.935343,43.910804],[25.930055,43.914275],[25.92275,43.91412],[25.922859,43.909612],[25.898845,43.908881],[25.894919,43.905839],[25.891128,43.905697],[25.884589,43.90206],[25.881119,43.902239],[25.881451,43.893424],[25.895457,43.893654],[25.895861,43.882875],[25.899535,43.882989],[25.899501,43.881138],[25.919094,43.881506],[25.927794,43.872834],[25.929075,43.870904],[25.933821,43.869767],[25.943806,43.864681],[25.945883,43.866407],[25.950702,43.862656],[25.949485,43.861687],[25.952413,43.859342]]]}},
{"type":"Feature","id":"ROU:ADM2:RO-GR.stanesti","properties":{"shapeName":"STANESTI","shapeISO":"","shapeGroup":"ROU","shapeType":"ADM2","adm1ISO":"RO-GR","parentISO":"RO-GR","parentID":"ROU:ADM1:RO-GR","src_shape_id":"2599482B52121049044399"},"geometry":{"type":"Polygon","coordinates":[[[25.881451,43.893424],[25.881119,43.902239],[25.884589,43.90206],[25.891128,43.905697],[25.894919,43.905839],[25.898845,43.908881],[25.922859,43.909612],[25.92275,43.91412],[25.930055,43.914275],[25.935343,43.910804],[25.940307,43.914574],[25.944366,43.914436],[25.940025,43.924165],[25.945502,43.92544],[25.941994,43.93324],[25.940622,43.932327],[25.942901,43.927716],[25.940842,43.925677],[25.93316,43.924429],[25.931158,43.92367],[25.925964,43.927257],[25.917751,43.924819],[25.91561,43.926639],[25.919899,43.928186],[25.927959,43.932881],[25.925822,43.93513],[25.921955,43.933876],[25.916659,43.943846],[25.913163,43.949334],[25.921271,43.951234],[25.918226,43.958115],[25.914252,43.958346],[25.913452,43.960496],[25.909559,43.960737],[25.907798,43.963404],[25.903777,43.966783],[25.900516,43.968432],[25.900731,43.971243],[25.897946,43.972654],[25.891731,43.973423],[25.887315,43.975113],[25.876774,43.988298],[25.880543,43.989874],[25.868826,44.005181],[25.858387,44.00007],[25.857774,44.000751],[25.851033,43.998768],[25.835718,43.992552],[25.835604,43.99069],[25.839841,43.986942],[25.833934,43.984887],[25.826711,43.984344],[25.819521,43.975074],[25.802258,43.981937],[25.79923,43.977552],[25.799322,43.975939],[25.795369,43.96982],[25.795805,43.968451],[25.775847,43.976528],[25.775069,43.974469],[25.775916,43.956883],[25.760896,43.956078],[25.761063,43.95332],[25.776084,43.953678],[25.776418,43.947211],[25.775475,43.945581],[25.783084,43.945795],[25.78351,43.930816],[25.790983,43.931022],[25.791608,43.915511],[25.79931,43.91568],[25.816203,43.900312],[25.814382,43.899148],[25.81927,43.892366],[25.821364,43.892403],[25.838204,43.903061],[25.842956,43.905261],[25.843275,43.895117],[25.851368,43.895363],[25.851512,43.89286],[25.881451,43.893424]]]}},
{"type":"Feature","id":"ROU:ADM2:RO-GR.mihailesti","properties":{"shapeName":"MIHAILESTI","shapeISO":"","shapeGroup":"ROU","shapeType":"ADM2","adm1ISO":"RO-GR","parentISO":"RO-GR","parentID":"ROU:ADM1:RO-GR","src_shape_id":"2599482B73686202162005"},"geometry":{"type":"Polygon","coordinates":[[[25.977547,44.273486],[25.988852,44.288477],[25.991775,44.291794],[26.001494,44.305638],[25.99683,44.306836],[25.995817,44.308091],[25.996397,44.312178],[25.99481,44.314531],[25.992752,44.317015],[25.982979,44.319658],[25.976999,44.323009],[25.974646,44.327336],[25.969172,44.327084],[25.967842,44.324222],[25.970187,44.319645],[25.966019,44.31642],[25.962167,44.315419],[25.951273,44.316474],[25.949226,44.317419],[25.949153,44.321027],[25.953367,44.323089],[25.953351,44.325024],[25.952615,44.327398],[25.944724,44.328675],[25.936385,44.334638],[25.932682,44.336003],[25.924483,44.335509],[25.914796,44.331603],[25.910772,44.331431],[25.906494,44.335664],[25.901265,44.338937],[25.898092,44.341716],[25.896896,44.344237],[25.891829,44.34458],[25.889195,44.34367],[25.88648,44.344343],[25.886116,44.346721],[25.889214,44.347551],[25.891794,44.352377],[25.892347,44.355073],[25.889841,44.358013],[25.883487,44.357148],[25.882327,44.354284],[25.883142,44.352654],[25.875144,44.348246],[25.877931,44.345401],[25.872312,44.341174],[25.863841,44.339705],[25.859138,44.342911],[25.847061,44.334171],[25.848716,44.332945],[25.840211,44.326767],[25.83902,44.327679],[25.83357,44.324516],[25.838972,44.319898],[25.835441,44.316484],[25.839409,44.312886],[25.838037,44.311998],[25.845672,44.304675],[25.841157,44.301453],[25.848202,44.300158],[25.870474,44.296224],[25.875658,44.29412],[25.880793,44.291097],[25.878582,44.287587],[25.88048,44.283765],[25.906171,44.282161],[25.907228,44.283622],[25.919612,44.273234],[25.922329,44.270569],[25.937089,44.277522],[25.950792,44.273278],[25.959165,44.271708],[25.964554,44.279411],[25.977547,44.273486]]]}},
{"type":"Feature","id":"ROU:ADM2:RO-GR.cosoba","properties":{"shapeName":"COSOBA","shapeISO":"","shapeGroup":"ROU","shapeType":"ADM2","adm1ISO":"RO-GR","parentISO":"RO-GR","parentID":"ROU:ADM1:RO-GR","src_shape_id":"2599482B93703236518743"},"geometry":{"type":"Polygon","coordinates":[[[25.846244,44.522264],[25.844557,44.523853],[25.845278,44.526391],[25.839937,44.53435],[25.831859,44.54138],[25.82933,44.542201],[25.826142,44.539551],[25.822124,44.542493],[25.814854,44.545791],[25.810217,44.548771],[25.802892,44.541371],[25.801696,44.53929],[25.789237,44.530273],[25.792149,44.527491],[25.783208,44.520817],[25.787536,44.517412],[25.796055,44.523465],[25.799267,44.521295],[25.795604,44.518355],[25.800716,44.515364],[25.796319,44.51356],[25.797717,44.512044],[25.797647,44.508952],[25.800763,44.504958],[25.807633,44.502702],[25.810606,44.503844],[25.813908,44.502358],[25.831746,44.515211],[25.846244,44.522264]]]}},
{"type":"Feature","id":"ROU:ADM2:RO-GR.letca-noua","properties":{"shapeName":"LETCA NOUA","shapeISO":"","shapeGroup":"ROU","shapeType":"ADM2","adm1ISO":"RO-GR","parentISO":"RO-GR","parentID":"ROU:ADM1:RO-GR","src_shape_id":"2599482B85200519507888"},"geometry":{"type":"Polygon","coordinates":[[[25.669859,44.292424],[25.66914,44.285616],[25.665846,44.278789],[25.671637,44.274927],[25.667564,44.269949],[25.669423,44.26776],[25.675138,44.267951],[25.675339,44.266128],[25.680325,44.264045],[25.682912,44.264087],[25.684414,44.261744],[25.688502,44.262621],[25.691321,44.261331],[25.692831,44.255716],[25.699712,44.257159],[25.703165,44.251959],[25.696036,44.249424],[25.705512,44.238832],[25.701593,44.24051],[25.698547,44.240507],[25.693025,44.241779],[25.688263,44.240795],[25.684037,44.238901],[25.680249,44.224781],[25.676008,44.219276],[25.674319,44.218856],[25.672186,44.216038],[25.667355,44.212857],[25.665712,44.208624],[25.664276,44.207205],[25.662778,44.203055],[25.663578,44.200564],[25.666133,44.199847],[25.66163,44.187197],[25.65535,44.168785],[25.672561,44.165695],[25.703027,44.160519],[25.701744,44.15402],[25.702895,44.153082],[25.717464,44.16429],[25.715111,44.165833],[25.707975,44.166548],[25.706892,44.168005],[25.72108,44.186865],[25.720868,44.190169],[25.724288,44.193791],[25.723425,44.195491],[25.719619,44.197838],[25.719315,44.200166],[25.715984,44.200824],[25.714907,44.210766],[25.717207,44.207964],[25.720267,44.20906],[25.719563,44.211007],[25.723958,44.212555],[25.727727,44.213076],[25.729091,44.208632],[25.731205,44.212231],[25.727078,44.21497],[25.735238,44.221276],[25.742354,44.216534],[25.745487,44.211369],[25.74972,44.2131],[25.75342,44.218761],[25.755679,44.218176],[25.75654,44.216127],[25.756885,44.210129],[25.758704,44.209011],[25.764615,44.209855],[25.767405,44.211417],[25.769867,44.21037],[25.77627,44.212733],[25.77771,44.2144],[25.774318,44.217105],[25.794646,44.233105],[25.780519,44.242659],[25.779663,44.243085],[25.75407,44.260592],[25.752865,44.262185],[25.760273,44.267864],[25.771351,44.278832],[25.77531,44.281341],[25.771831,44.283711],[25.764171,44.288857],[25.752107,44.28751],[25.747923,44.288151],[25.725131,44.293076],[25.717762,44.292165],[25.714809,44.287375],[25.700683,44.290722],[25.693216,44.290915],[25.689081,44.289551],[25.688398,44.287506],[25.684296,44.286484],[25.682476,44.288418],[25.669859,44.292424]]]}}
]}