{"type":"FeatureCollection","bbox":[-73.5306,-55.051,-53.6667,-21.7924], "features": [
{"type":"Feature","geometry":{"type":"MultiPolygon","coordinates":[[[[-67.1939,-22.8222],[-67.014,-23.0007],[-67.3624,-24.0304],[-68.2445,-24.3854],[-68.5724,-24.7699],[-68.3674,-25.1034],[-68.606,-25.437],[-68.4199,-26.1793],[-68.5752,-26.3035],[-68.5702,-26.5506],[-68.3201,-26.8701],[-68.3305,-27.045],[-68.5859,-27.1628],[-68.8011,-27.1128],[-69.173,-27.9241],[-69.653,-28.3979],[-69.8039,-29.0987],[-70.0426,-29.3631],[-69.9291,-29.7183],[-69.9756,-30.0586],[-69.9028,-30.3127],[-70.2171,-30.5151],[-70.3398,-31.0417],[-70.4798,-31.0967],[-70.5914,-31.5496],[-70.4283,-31.8701],[-70.2417,-31.9615],[-70.3218,-32.2801],[-70.0002,-32.8766],[-70.1008,-33.1869],[-69.7877,-33.3794],[-69.8954,-33.6623],[-69.8328,-34.2432],[-70.0403,-34.277],[-70.2278,-34.5853],[-70.3866,-35.1667],[-70.3803,-36.046],[-71.0433,-36.4843],[-71.1453,-36.6882],[-71.1231,-37.4432],[-71.185,-37.7061],[-71.01,-38.0655],[-70.8738,-38.6914],[-71.4158,-38.9353],[-71.402,-39.236],[-71.6248,-39.931],[-71.8238,-40.2101],[-71.9556,-40.7204],[-71.8514,-40.9383],[-71.926,-41.6229],[-71.7363,-42.0839],[-72.1247,-42.2633],[-72.1485,-42.9987],[-71.743,-43.1901],[-71.9373,-43.4569],[-71.7238,-43.5948],[-71.6599,-43.9263],[-71.8587,-44.1078],[-71.822,-44.4032],[-71.2098,-44.4276],[-71.1227,-44.5303],[-71.5887,-44.9781],[-71.3115,-45.2995],[-71.7985,-45.7399],[-71.6123,-45.9705],[-71.7702,-46.1126],[-71.6872,-46.6901],[-71.9341,-46.7995],[-72.0098,-47.1982],[-72.5439,-47.9148],[-72.3256,-48.2855],[-72.5768,-48.4521],[-72.5923,-48.7911],[-73.0097,-48.9904],[-73.1832,-49.2391],[-73.0597,-49.555],[-73.4651,-49.76],[-73.5306,-50.1408],[-73.3229,-50.2684],[-73.0961,-50.7706],[-72.7784,-50.6196],[-72.3028,-50.6489],[-72.3822,-51.1606],[-72.2811,-51.7015],[-71.9177,-51.9901],[-69.9528,-52.0074],[-68.3656,-52.3062],[-68.9359,-51.6455],[-69.1678,-50.9782],[-69.0765,-50.5602],[-68.8764,-50.3306],[-68.0763,-50.0873],[-67.732,-49.7813],[-67.5565,-49.0158],[-67.1143,-48.6737],[-66.4685,-48.4003],[-65.8471,-47.9444],[-65.7449,-47.2042],[-66.7864,-47.0066],[-67.4232,-46.5674],[-67.6225,-46.1638],[-67.3319,-45.6135],[-66.8689,-45.2356],[-66.524,-45.2161],[-66.2004,-44.9929],[-65.6026,-45.0277],[-65.6855,-44.7125],[-65.2169,-44.3664],[-65.3341,-43.6726],[-64.5131,-42.9363],[-64.9971,-42.7848],[-64.6149,-42.5153],[-64.3226,-42.5424],[-64.1079,-42.8837],[-63.6203,-42.7512],[-63.5905,-42.3412],[-63.81,-42.0702],[-64.1622,-42.2094],[-64.1276,-42.4327],[-64.5663,-42.436],[-64.5315,-42.2442],[-64.8573,-42.1936],[-65.0696,-41.9858],[-64.9933,-41.553],[-65.1751,-41.0102],[-64.9465,-40.7114],[-63.7794,-41.1588],[-63.0995,-41.1549],[-62.3378,-40.8727],[-62.2506,-40.6222],[-62.4842,-40.2875],[-62.3146,-39.8694],[-62.1642,-39.8588],[-62.0558,-39.4519],[-62.3578,-39.1022],[-62.0267,-38.9376],[-61.5181,-39.0115],[-60.8657,-38.9757],[-59.0632,-38.6938],[-58.1557,-38.4301],[-57.5936,-38.1528],[-57.5119,-37.8723],[-57.0559,-37.4127],[-56.6649,-36.851],[-56.6976,-36.3962],[-57.248,-36.1703],[-57.3526,-35.7275],[-57.1449,-35.4842],[-57.2488,-35.2488],[-57.522,-35.0132],[-58.1549,-34.7504],[-58.5115,-34.4359],[-58.3786,-34.1882],[-58.5494,-33.683],[-58.3832,-33.0755],[-58.1468,-33.05],[-58.2201,-32.4895],[-58.1016,-32.3114],[-58.1686,-31.846],[-57.9868,-31.5541],[-57.8072,-30.9076],[-57.8496,-30.4853],[-57.6425,-30.1931],[-57.3252,-29.981],[-56.4158,-29.0514],[-55.8981,-28.4607],[-55.7725,-28.232],[-55.3299,-27.9281],[-55.0258,-27.8402],[-54.8275,-27.5451],[-53.8192,-27.1397],[-53.6667,-26.2192],[-53.8262,-25.9727],[-53.91,-25.6292],[-54.2148,-25.5315],[-54.6431,-25.6879],[-54.6383,-26.197],[-54.7065,-26.4418],[-54.9753,-26.7878],[-55.414,-26.9799],[-55.7547,-27.4437],[-56.1246,-27.2989],[-56.3675,-27.5806],[-56.5464,-27.4551],[-56.9044,-27.4187],[-57.1801,-27.4873],[-58.022,-27.2598],[-58.5108,-27.2784],[-58.6533,-27.1563],[-58.2479,-26.7582],[-58.0865,-26.1272],[-57.5569,-25.4598],[-57.7541,-25.1809],[-58.2241,-24.9412],[-58.8092,-24.7768],[-59.341,-24.4876],[-59.4597,-24.3585],[-60.0337,-24.007],[-60.328,-24.018],[-61.0063,-23.8055],[-61.1099,-23.607],[-61.4918,-23.4132],[-61.9564,-23.0344],[-62.2872,-22.4839],[-62.6327,-22.296],[-62.8044,-22.0041],[-63.9476,-22.0076],[-64.294,-22.6909],[-64.5869,-22.2128],[-65.0204,-22.0966],[-65.7446,-22.114],[-66.24,-21.7924],[-66.3775,-22.1271],[-66.7359,-22.2251],[-66.7965,-22.4349],[-67.0327,-22.5246],[-67.1939,-22.8222]]],[[[-68.6419,-54.783],[-67.031,-54.9052],[-66.5405,-55.051],[-65.9662,-54.9021],[-65.3323,-54.9138],[-65.1556,-54.6406],[-65.8442,-54.6474],[-66.4822,-54.4658],[-66.7666,-54.2498],[-67.2978,-54.0538],[-67.9836,-53.6013],[-68.1114,-53.3438],[-68.4514,-53.2977],[-68.266,-52.9806],[-68.6276,-52.6396],[-68.6419,-54.783]]]]},"properties":{"shapeName":"Argentina","shapeISO":"ARG","shapeType":"ADM0"}}
]}