{"type":"FeatureCollection","bbox":[-58.0681,1.9486,-53.985,6.0071],"features":[
{"type":"Feature","id":"SUR:ADM2:weg-naar-see","properties":{"shapeName":"Weg Naar See","shapeISO":"","shapeType":"ADM2"},"geometry":{"type":"Polygon","coordinates":[[[-55.2775,5.9067],[-55.2569,5.8441],[-55.2189,5.841],[-55.2286,5.8902],[-55.2775,5.9067]]]}},
{"type":"Feature","id":"SUR:ADM2:westelijke-polders","properties":{"shapeName":"Westelijke Polders","shapeISO":"","shapeType":"ADM2"},"geometry":{"type":"Polygon","coordinates":[[[-57.0441,5.901],[-57.0474,5.9446],[-57.1052,5.9398],[-57.2297,5.7194],[-57.2139,5.6183],[-57.3089,5.4646],[-57.3104,5.391],[-57.3823,5.2986],[-57.269,5.2526],[-57.232,5.268],[-57.0208,5.8207],[-57.0441,5.901]]]}},
{"type":"Feature","id":"SUR:ADM2:nieuw-nickerie","properties":{"shapeName":"Nieuw Nickerie","shapeISO":"","shapeType":"ADM2"},"geometry":{"type":"Polygon","coordinates":[[[-57.0441,5.901],[-57.0339,5.967],[-57.0474,5.9446],[-57.0441,5.901]]]}},
{"type":"Feature","id":"SUR:ADM2:oostelijke-polders","properties":{"shapeName":"Oostelijke Polders","shapeISO":"","shapeType":"ADM2"},"geometry":{"type":"Polygon","coordinates":[[[-57.0208,5.8207],[-56.8036,5.9759],[-56.9816,6.0071],[-57.0339,5.967],[-57.0441,5.901],[-57.0208,5.8207]]]}},
{"type":"Feature","id":"SUR:ADM2:groot-henar","properties":{"shapeName":"Groot Henar","shapeISO":"","shapeType":"ADM2"},"geometry":{"type":"Polygon","coordinates":[[[-57.269,5.2526],[-57.258,5.2532],[-56.7789,5.3303],[-56.7609,5.3332],[-56.8519,5.7464],[-56.7419,5.9623],[-56.8036,5.9759],[-57.0208,5.8207],[-57.232,5.268],[-57.269,5.2526]]]}},
{"type":"Feature","id":"SUR:ADM2:wageningen","properties":{"shapeName":"Wageningen","shapeISO":"","shapeType":"ADM2"},"geometry":{"type":"Polygon","coordinates":[[[-56.7789,5.3303],[-56.5041,5.3065],[-56.4809,5.3303],[-56.5943,5.5288],[-56.5949,5.6466],[-56.6413,5.7615],[-56.6418,5.9423],[-56.7419,5.9623],[-56.8519,5.7464],[-56.7609,5.3332],[-56.7789,5.3303]]]}},
{"type":"Feature","id":"SUR:ADM2:kabalebo","properties":{"shapeName":"Kabalebo","shapeISO":"","shapeType":"ADM2"},"geometry":{"type":"Polygon","coordinates":[[[-57.258,5.2532],[-57.3234,5.1631],[-57.3473,5.03],[-57.4491,4.9909],[-57.6929,5.0187],[-57.8292,4.9436],[-57.9241,4.8385],[-57.8381,4.624],[-58.0681,4.1545],[-58.0344,4.0004],[-57.9776,3.9028],[-57.9083,3.8921],[-57.8333,3.7701],[-57.8,3.6487],[-57.6892,3.5666],[-57.4915,3.5812],[-57.4111,3.5165],[-57.3126,3.4959],[-57.1728,3.3558],[-57.1529,3.2909],[-56.9162,3.2462],[-56.7377,3.3705],[-56.7255,3.4363],[-56.7923,3.5478],[-56.6973,3.6326],[-56.7704,3.7096],[-56.8353,3.6858],[-56.9406,3.7524],[-57.0316,3.7655],[-57.0655,3.8571],[-56.9123,4.091],[-56.835,4.0785],[-56.8189,4.1802],[-56.9445,4.2035],[-56.9278,4.3638],[-56.8357,4.4815],[-56.6018,4.6618],[-56.5596,4.7499],[-56.4787,4.7278],[-56.2942,4.7677],[-56.2573,4.9665],[-56.3293,5.0081],[-56.427,5.1569],[-56.4452,5.3235],[-56.4809,5.3303],[-56.5041,5.3065],[-56.7789,5.3303],[-57.258,5.2532]]]}},
{"type":"Feature","id":"SUR:ADM2:coeroeni","properties":{"shapeName":"Coeroeni","shapeISO":"","shapeType":"ADM2"},"geometry":{"type":"Polygon","coordinates":[[[-57.6892,3.5666],[-57.6679,3.4109],[-57.4517,3.3411],[-57.2676,3.3362],[-57.2763,3.1389],[-57.199,3.0816],[-57.2015,2.9233],[-57.0068,2.6849],[-56.9662,2.5553],[-56.8515,2.3632],[-56.6691,2.1214],[-56.5537,2.1208],[-56.4482,2.0463],[-56.3367,2.0396],[-55.9479,1.9486],[-55.889,1.9981],[-55.8935,2.1178],[-56.0307,2.2837],[-56.1143,2.3165],[-55.9741,2.4449],[-55.9736,2.5304],[-56.1448,2.5857],[-56.0595,2.7365],[-56.1265,2.911],[-56.1043,2.9667],[-56.1754,3.0451],[-56.1702,3.2291],[-56.2581,3.2153],[-56.34,3.3664],[-56.3244,3.4923],[-56.2385,3.4364],[-56.1713,3.4714],[-56.2108,3.5843],[-56.3347,3.6275],[-56.4882,3.6121],[-56.495,3.7081],[-56.6973,3.6326],[-56.7923,3.5478],[-56.7255,3.4363],[-56.7377,3.3705],[-56.9162,3.2462],[-57.1529,3.2909],[-57.1728,3.3558],[-57.3126,3.4959],[-57.4111,3.5165],[-57.4915,3.5812],[-57.6892,3.5666]]]}},
{"type":"Feature","id":"SUR:ADM2:boven-coppename","properties":{"shapeName":"Boven Coppename","shapeISO":"","shapeType":"ADM2"},"geometry":{"type":"Polygon","coordinates":[[[-56.6973,3.6326],[-56.495,3.7081],[-56.4882,3.6121],[-56.3347,3.6275],[-56.2108,3.5843],[-56.1291,3.7743],[-56.1805,3.9821],[-56.1908,4.1643],[-56.1503,4.2235],[-55.9867,4.2129],[-55.8543,4.265],[-55.7934,4.4989],[-55.6735,4.7348],[-55.7242,4.9335],[-55.7034,4.9831],[-55.794,5.0945],[-56.0564,5.0945],[-56.0106,5.1568],[-55.9894,5.4172],[-55.9261,5.5278],[-55.9299,5.5431],[-56.0744,5.4303],[-56.0895,5.3705],[-56.3573,5.3901],[-56.3903,5.3518],[-56.4452,5.3235],[-56.427,5.1569],[-56.3293,5.0081],[-56.2573,4.9665],[-56.2942,4.7677],[-56.4787,4.7278],[-56.5596,4.7499],[-56.6018,4.6618],[-56.8357,4.4815],[-56.9278,4.3638],[-56.9445,4.2035],[-56.8189,4.1802],[-56.835,4.0785],[-56.9123,4.091],[-57.0655,3.8571],[-57.0316,3.7655],[-56.9406,3.7524],[-56.8353,3.6858],[-56.7704,3.7096],[-56.6973,3.6326]]]}},
{"type":"Feature","id":"SUR:ADM2:boven-saramacca","properties":{"shapeName":"Boven Saramacca","shapeISO":"","shapeType":"ADM2"},"geometry":{"type":"Polygon","coordinates":[[[-56.1713,3.4714],[-56.0617,3.5428],[-55.9539,3.6736],[-55.8074,3.9123],[-55.6809,4.303],[-55.5152,4.3821],[-55.38,4.5397],[-55.3202,4.6083],[-55.2977,4.7341],[-55.3016,4.7353],[-55.3937,4.7578],[-55.375,4.8413],[-55.4909,4.9398],[-55.5388,5.0578],[-55.7034,4.9831],[-55.7242,4.9335],[-55.6735,4.7348],[-55.7934,4.4989],[-55.8543,4.265],[-55.9867,4.2129],[-56.1503,4.2235],[-56.1908,4.1643],[-56.1805,3.9821],[-56.1291,3.7743],[-56.2108,3.5843],[-56.1713,3.4714]]]}},
{"type":"Feature","id":"SUR:ADM2:boven-suriname","properties":{"shapeName":"Boven Suriname","shapeISO":"","shapeType":"ADM2"},"geometry":{"type":"Polygon","coordinates":[[[-56.1702,3.2291],[-56.1054,3.2342],[-56.0546,3.3217],[-55.8562,3.2364],[-55.7381,3.2763],[-55.6141,3.2769],[-55.5029,3.5045],[-55.4926,3.6531],[-55.4325,3.7428],[-55.2614,3.8101],[-55.292,3.9648],[-55.3233,4.0889],[-55.3236,4.2301],[-55.2538,4.488],[-55.38,4.5397],[-55.5152,4.3821],[-55.6809,4.303],[-55.8074,3.9123],[-55.9539,3.6736],[-56.0617,3.5428],[-56.1713,3.4714],[-56.2385,3.4364],[-56.3244,3.4923],[-56.34,3.3664],[-56.2581,3.2153],[-56.1702,3.2291]]]}},
{"type":"Feature","id":"SUR:ADM2:tapanahony","properties":{"shapeName":"Tapanahony","shapeISO":"","shapeType":"ADM2"},"geometry":{"type":"Polygon","coordinates":[[[-55.9736,2.5304],[-55.9263,2.5391],[-55.7512,2.4335],[-55.5182,2.4494],[-55.402,2.4235],[-55.3434,2.5042],[-55.1318,2.5145],[-54.9815,2.5549],[-54.9167,2.4327],[-54.7323,2.4302],[-54.7323,2.343],[-54.6376,2.3231],[-54.5485,2.3536],[-54.4157,2.4757],[-54.3164,2.6785],[-54.2416,2.7589],[-54.1919,2.9404],[-54.2305,3.118],[-54.2118,3.1747],[-54.0804,3.3087],[-54.0156,3.4347],[-53.9909,3.5886],[-54.1336,3.7874],[-54.1953,3.8023],[-54.3561,4.0272],[-54.3623,4.1494],[-54.4277,4.3594],[-54.4477,4.4946],[-54.4196,4.5899],[-54.4714,4.7289],[-54.4514,5.0024],[-54.3165,5.2058],[-54.6383,5.3747],[-54.8172,5.1427],[-54.8462,4.9863],[-54.7256,4.8867],[-54.7739,4.824],[-54.8166,4.5614],[-54.8882,4.4483],[-54.8948,4.1791],[-54.9633,4.126],[-55.1147,4.1076],[-55.292,3.9648],[-55.2614,3.8101],[-55.4325,3.7428],[-55.4926,3.6531],[-55.5029,3.5045],[-55.6141,3.2769],[-55.7381,3.2763],[-55.8562,3.2364],[-56.0546,3.3217],[-56.1054,3.2342],[-56.1702,3.2291],[-56.1754,3.0451],[-56.1043,2.9667],[-56.1265,2.911],[-56.0595,2.7365],[-56.1448,2.5857],[-55.9736,2.5304]]]}},
{"type":"Feature","id":"SUR:ADM2:bigi-poika","properties":{"shapeName":"Bigi Poika","shapeISO":"","shapeType":"ADM2"},"geometry":{"type":"Polygon","coordinates":[[[-55.7034,4.9831],[-55.5388,5.0578],[-55.4403,5.12],[-55.3605,5.2303],[-55.3649,5.3062],[-55.4093,5.4037],[-55.4847,5.4359],[-55.634,5.4255],[-55.8115,5.4055],[-55.9336,5.4532],[-55.9261,5.5278],[-55.9894,5.4172],[-56.0106,5.1568],[-56.0564,5.0945],[-55.794,5.0945],[-55.7034,4.9831]]]}},
{"type":"Feature","id":"SUR:ADM2:zuid","properties":{"shapeName":"Zuid","shapeISO":"","shapeType":"ADM2"},"geometry":{"type":"Polygon","coordinates":[[[-55.3649,5.3062],[-55.2257,5.3262],[-55.1186,5.3432],[-55.1273,5.5563],[-55.1961,5.5952],[-55.4273,5.5426],[-55.4847,5.4359],[-55.4093,5.4037],[-55.3649,5.3062]]]}},
{"type":"Feature","id":"SUR:ADM2:noord","properties":{"shapeName":"Noord","shapeISO":"","shapeType":"ADM2"},"geometry":{"type":"Polygon","coordinates":[[[-55.1961,5.5952],[-55.2174,5.6557],[-55.351,5.6477],[-55.4273,5.5426],[-55.1961,5.5952]]]}},
{"type":"Feature","id":"SUR:ADM2:oost","properties":{"shapeName":"Oost","shapeISO":"","shapeType":"ADM2"},"geometry":{"type":"Polygon","coordinates":[[[-55.1186,5.3432],[-55.0272,5.3314],[-55.0048,5.4739],[-55.0943,5.6124],[-55.0934,5.6987],[-55.1496,5.6865],[-55.1999,5.6728],[-55.2174,5.6557],[-55.1961,5.5952],[-55.1273,5.5563],[-55.1186,5.3432]]]}},
{"type":"Feature","id":"SUR:ADM2:carolina","properties":{"shapeName":"Carolina","shapeISO":"","shapeType":"ADM2"},"geometry":{"type":"Polygon","coordinates":[[[-54.6383,5.3747],[-54.6363,5.5364],[-55.0048,5.4739],[-55.0272,5.3314],[-54.9879,5.2197],[-54.9004,5.141],[-54.8771,4.977],[-54.8462,4.9863],[-54.8172,5.1427],[-54.6383,5.3747]]]}},
{"type":"Feature","id":"SUR:ADM2:johanna-maria","properties":{"shapeName":"Johanna Maria","shapeISO":"","shapeType":"ADM2"},"geometry":{"type":"Polygon","coordinates":[[[-56.4809,5.3303],[-56.4452,5.3235],[-56.3903,5.3518],[-56.3917,5.9015],[-56.5618,5.9473],[-56.6418,5.9423],[-56.6413,5.7615],[-56.5949,5.6466],[-56.5943,5.5288],[-56.4809,5.3303]]]}},
{"type":"Feature","id":"SUR:ADM2:totness","properties":{"shapeName":"Totness","shapeISO":"","shapeType":"ADM2"},"geometry":{"type":"Polygon","coordinates":[[[-56.3573,5.3901],[-56.3618,5.8962],[-56.3917,5.9015],[-56.3903,5.3518],[-56.3573,5.3901]]]}},
{"type":"Feature","id":"SUR:ADM2:welgelegen","properties":{"shapeName":"Welgelegen","shapeISO":"","shapeType":"ADM2"},"geometry":{"type":"Polygon","coordinates":[[[-56.3573,5.3901],[-56.0895,5.3705],[-56.0744,5.4303],[-55.9299,5.5431],[-55.9358,5.7671],[-56.2853,5.8869],[-56.3618,5.8962],[-56.3573,5.3901]]]}},
{"type":"Feature","id":"SUR:ADM2:sarakreet","properties":{"shapeName":"Sarakreet","shapeISO":"","shapeType":"ADM2"},"geometry":{"type":"Polygon","coordinates":[[[-55.38,4.5397],[-55.2538,4.488],[-55.3236,4.2301],[-55.3233,4.0889],[-55.292,3.9648],[-55.1147,4.1076],[-54.9633,4.126],[-54.8948,4.1791],[-54.8882,4.4483],[-54.8166,4.5614],[-54.7739,4.824],[-54.7256,4.8867],[-54.8462,4.9863],[-54.8771,4.977],[-55.0078,4.9653],[-55.1561,4.9306],[-55.2393,4.7399],[-55.2977,4.7341],[-55.3202,4.6083],[-55.38,4.5397]]]}},
{"type":"Feature","id":"SUR:ADM2:centrum-2","properties":{"shapeName":"Centrum","shapeISO":"","shapeType":"ADM2"},"geometry":{"type":"Polygon","coordinates":[[[-54.9004,5.141],[-55.0834,5.1117],[-55.0078,4.9653],[-54.8771,4.977],[-54.9004,5.141]]]}},
{"type":"Feature","id":"SUR:ADM2:brownsweg","properties":{"shapeName":"BrownSweg","shapeISO":"","shapeType":"ADM2"},"geometry":{"type":"Polygon","coordinates":[[[-55.2977,4.7341],[-55.2393,4.7399],[-55.1561,4.9306],[-55.0078,4.9653],[-55.0834,5.1117],[-55.291,5.1034],[-55.3038,4.9427],[-55.2773,4.8828],[-55.3016,4.7353],[-55.2977,4.7341]]]}},
{"type":"Feature","id":"SUR:ADM2:klaaskreek","properties":{"shapeName":"Klaaskreek","shapeISO":"","shapeType":"ADM2"},"geometry":{"type":"Polygon","coordinates":[[[-54.9879,5.2197],[-55.2633,5.2103],[-55.291,5.1034],[-55.0834,5.1117],[-54.9004,5.141],[-54.9879,5.2197]]]}},
{"type":"Feature","id":"SUR:ADM2:marshallkreek","properties":{"shapeName":"Marshallkreek","shapeISO":"","shapeType":"ADM2"},"geometry":{"type":"Polygon","coordinates":[[[-55.2257,5.3262],[-55.2633,5.2103],[-54.9879,5.2197],[-55.0272,5.3314],[-55.1186,5.3432],[-55.2257,5.3262]]]}},
{"type":"Feature","id":"SUR:ADM2:kwakoegron","properties":{"shapeName":"Kwakoegron","shapeISO":"","shapeType":"ADM2"},"geometry":{"type":"Polygon","coordinates":[[[-55.3016,4.7353],[-55.2773,4.8828],[-55.3038,4.9427],[-55.291,5.1034],[-55.2633,5.2103],[-55.2257,5.3262],[-55.3649,5.3062],[-55.3605,5.2303],[-55.4403,5.12],[-55.5388,5.0578],[-55.4909,4.9398],[-55.375,4.8413],[-55.3937,4.7578],[-55.3016,4.7353]]]}},
{"type":"Feature","id":"SUR:ADM2:margaretha","properties":{"shapeName":"Margaretha","shapeISO":"","shapeType":"ADM2"},"geometry":{"type":"Polygon","coordinates":[[[-55.1272,5.8704],[-55.1237,5.8558],[-55.0811,5.8717],[-55.0418,5.8782],[-54.9818,5.9971],[-55.173,5.9765],[-55.1272,5.8704]]]}},
{"type":"Feature","id":"SUR:ADM2:bakkie","properties":{"shapeName":"Bakkie","shapeISO":"","shapeType":"ADM2"},"geometry":{"type":"Polygon","coordinates":[[[-55.0418,5.8782],[-54.9569,5.8623],[-54.7384,5.846],[-54.7195,5.8982],[-54.7278,5.9768],[-54.9818,5.9971],[-55.0418,5.8782]]]}},
{"type":"Feature","id":"SUR:ADM2:almaar","properties":{"shapeName":"Almaar","shapeISO":"","shapeType":"ADM2"},"geometry":{"type":"Polygon","coordinates":[[[-55.0811,5.8717],[-55.0865,5.8035],[-55.0557,5.795],[-54.9569,5.8623],[-55.0418,5.8782],[-55.0811,5.8717]]]}},
{"type":"Feature","id":"SUR:ADM2:nieuw-amsterdam","properties":{"shapeName":"Nieuw Amsterdam","shapeISO":"","shapeType":"ADM2"},"geometry":{"type":"Polygon","coordinates":[[[-55.1237,5.8558],[-55.1429,5.8175],[-55.0865,5.8035],[-55.0811,5.8717],[-55.1237,5.8558]]]}},
{"type":"Feature","id":"SUR:ADM2:tamanredjo","properties":{"shapeName":"Tamanredjo","shapeISO":"","shapeType":"ADM2"},"geometry":{"type":"Polygon","coordinates":[[[-54.9569,5.8623],[-55.0557,5.795],[-55.037,5.7558],[-54.7407,5.6804],[-54.708,5.6969],[-54.7384,5.846],[-54.9569,5.8623]]]}},
{"type":"Feature","id":"SUR:ADM2:meerzorg","properties":{"shapeName":"Meerzorg","shapeISO":"","shapeType":"ADM2"},"geometry":{"type":"Polygon","coordinates":[[[-55.0048,5.4739],[-54.6363,5.5364],[-54.6324,5.5893],[-54.708,5.6969],[-54.7407,5.6804],[-55.037,5.7558],[-55.0557,5.795],[-55.0865,5.8035],[-55.1429,5.8175],[-55.1499,5.8212],[-55.1818,5.8197],[-55.1875,5.8107],[-55.1814,5.796],[-55.1768,5.7871],[-55.1469,5.7524],[-55.0934,5.6987],[-55.0943,5.6124],[-55.0048,5.4739]]]}},
{"type":"Feature","id":"SUR:ADM2:galibi","properties":{"shapeName":"Galibi","shapeISO":"","shapeType":"ADM2"},"geometry":{"type":"Polygon","coordinates":[[[-54.7195,5.8982],[-54.5261,5.8855],[-54.2869,5.8522],[-54.2604,5.7407],[-54.1988,5.6563],[-54.0361,5.6659],[-53.985,5.7535],[-54.0196,5.8313],[-54.1875,5.8865],[-54.5742,5.941],[-54.7278,5.9768],[-54.7195,5.8982]]]}},
{"type":"Feature","id":"SUR:ADM2:albina","properties":{"shapeName":"Albina","shapeISO":"","shapeType":"ADM2"},"geometry":{"type":"Polygon","coordinates":[[[-54.1988,5.6563],[-54.1492,5.3548],[-54.0302,5.5223],[-54.0361,5.6659],[-54.1988,5.6563]]]}},
{"type":"Feature","id":"SUR:ADM2:moengotapoe","properties":{"shapeName":"Moengotapoe","shapeISO":"","shapeType":"ADM2"},"geometry":{"type":"Polygon","coordinates":[[[-54.2604,5.7407],[-54.3545,5.731],[-54.3162,5.4914],[-54.1505,5.3502],[-54.1492,5.3548],[-54.1988,5.6563],[-54.2604,5.7407]]]}},
{"type":"Feature","id":"SUR:ADM2:patamacca","properties":{"shapeName":"Patamacca","shapeISO":"","shapeType":"ADM2"},"geometry":{"type":"Polygon","coordinates":[[[-54.3165,5.2058],[-54.1505,5.3502],[-54.3162,5.4914],[-54.6324,5.5893],[-54.6363,5.5364],[-54.6383,5.3747],[-54.3165,5.2058]]]}},
{"type":"Feature","id":"SUR:ADM2:wanhatti","properties":{"shapeName":"Wanhatti","shapeISO":"","shapeType":"ADM2"},"geometry":{"type":"Polygon","coordinates":[[[-54.5261,5.8855],[-54.5383,5.7159],[-54.3545,5.731],[-54.2604,5.7407],[-54.2869,5.8522],[-54.5261,5.8855]]]}},
{"type":"Feature","id":"SUR:ADM2:moengo","properties":{"shapeName":"Moengo","shapeISO":"","shapeType":"ADM2"},"geometry":{"type":"Polygon","coordinates":[[[-54.7384,5.846],[-54.708,5.6969],[-54.6324,5.5893],[-54.3162,5.4914],[-54.3545,5.731],[-54.5383,5.7159],[-54.5261,5.8855],[-54.7195,5.8982],[-54.7384,5.846]]]}},
{"type":"Feature","id":"SUR:ADM2:munder","properties":{"shapeName":"Munder","shapeISO":"","shapeType":"ADM2"},"geometry":{"type":"Polygon","coordinates":[[[-55.2189,5.841],[-55.2089,5.8355],[-55.2175,5.8907],[-55.2286,5.8902],[-55.2189,5.841]]]}},
{"type":"Feature","id":"SUR:ADM2:rainville","properties":{"shapeName":"Rainville","shapeISO":"","shapeType":"ADM2"},"geometry":{"type":"Polygon","coordinates":[[[-55.1499,5.8212],[-55.188,5.9018],[-55.2175,5.8907],[-55.2089,5.8355],[-55.1818,5.8197],[-55.1499,5.8212]]]}},
{"type":"Feature","id":"SUR:ADM2:blauwgrond","properties":{"shapeName":"Blauwgrond","shapeISO":"","shapeType":"ADM2"},"geometry":{"type":"Polygon","coordinates":[[[-55.1272,5.8704],[-55.188,5.9018],[-55.1499,5.8212],[-55.1429,5.8175],[-55.1237,5.8558],[-55.1272,5.8704]]]}},
{"type":"Feature","id":"SUR:ADM2:flora","properties":{"shapeName":"Flora","shapeISO":"","shapeType":"ADM2"},"geometry":{"type":"Polygon","coordinates":[[[-55.2236,5.827],[-55.2279,5.8057],[-55.2239,5.816],[-55.2236,5.827]]]}},
{"type":"Feature","id":"SUR:ADM2:centrum","properties":{"shapeName":"Centrum","shapeISO":"","shapeType":"ADM2"},"geometry":{"type":"Polygon","coordinates":[[[-55.1818,5.8197],[-55.2089,5.8355],[-55.2189,5.841],[-55.2236,5.827],[-55.2239,5.816],[-55.1875,5.8107],[-55.1818,5.8197]]]}},
{"type":"Feature","id":"SUR:ADM2:pontibuiten","properties":{"shapeName":"Pontibuiten","shapeISO":"","shapeType":"ADM2"},"geometry":{"type":"Polygon","coordinates":[[[-55.2483,5.7907],[-55.2535,5.7817],[-55.2075,5.7772],[-55.2074,5.7772],[-55.2483,5.7907]]]}},
{"type":"Feature","id":"SUR:ADM2:livornio","properties":{"shapeName":"Livornio","shapeISO":"","shapeType":"ADM2"},"geometry":{"type":"Polygon","coordinates":[[[-55.1875,5.8107],[-55.2239,5.816],[-55.2279,5.8057],[-55.1814,5.796],[-55.1875,5.8107]]]}},
{"type":"Feature","id":"SUR:ADM2:calcutta","properties":{"shapeName":"Calcutta","shapeISO":"","shapeType":"ADM2"},"geometry":{"type":"Polygon","coordinates":[[[-55.9261,5.5278],[-55.9336,5.4532],[-55.8115,5.4055],[-55.634,5.4255],[-55.5635,5.5217],[-55.6012,5.6681],[-55.6638,5.6756],[-55.6685,5.8655],[-55.9482,5.8614],[-55.9358,5.7671],[-55.9299,5.5431],[-55.9261,5.5278]]]}},
{"type":"Feature","id":"SUR:ADM2:tijgerkreek","properties":{"shapeName":"Tijgerkreek","shapeISO":"","shapeType":"ADM2"},"geometry":{"type":"Polygon","coordinates":[[[-55.6012,5.6681],[-55.5398,5.721],[-55.5727,5.8586],[-55.6685,5.8655],[-55.6638,5.6756],[-55.6012,5.6681]]]}},
{"type":"Feature","id":"SUR:ADM2:groningen","properties":{"shapeName":"Groningen","shapeISO":"","shapeType":"ADM2"},"geometry":{"type":"Polygon","coordinates":[[[-55.5398,5.721],[-55.4899,5.7609],[-55.4842,5.8206],[-55.5727,5.8586],[-55.5398,5.721]]]}},
{"type":"Feature","id":"SUR:ADM2:jarikaba","properties":{"shapeName":"Jarikaba","shapeISO":"","shapeType":"ADM2"},"geometry":{"type":"Polygon","coordinates":[[[-55.4899,5.7609],[-55.3455,5.7634],[-55.329,5.8096],[-55.3305,5.8355],[-55.4842,5.8206],[-55.4899,5.7609]]]}},
{"type":"Feature","id":"SUR:ADM2:wayamboweg","properties":{"shapeName":"Wayamboweg","shapeISO":"","shapeType":"ADM2"},"geometry":{"type":"Polygon","coordinates":[[[-55.6685,5.8655],[-55.5727,5.8586],[-55.4842,5.8206],[-55.3305,5.8355],[-55.3303,5.8414],[-55.3277,5.9314],[-55.5594,5.9714],[-55.7515,5.9668],[-55.8833,5.9405],[-55.9482,5.8614],[-55.6685,5.8655]]]}},
{"type":"Feature","id":"SUR:ADM2:kampong-baroe","properties":{"shapeName":"Kampong Baroe","shapeISO":"","shapeType":"ADM2"},"geometry":{"type":"Polygon","coordinates":[[[-55.4847,5.4359],[-55.4273,5.5426],[-55.351,5.6477],[-55.3566,5.7448],[-55.3455,5.7634],[-55.4899,5.7609],[-55.5398,5.721],[-55.6012,5.6681],[-55.5635,5.5217],[-55.634,5.4255],[-55.4847,5.4359]]]}},
{"type":"Feature","id":"SUR:ADM2:kwatta","properties":{"shapeName":"Kwatta","shapeISO":"","shapeType":"ADM2"},"geometry":{"type":"Polygon","coordinates":[[[-55.2775,5.9067],[-55.3277,5.9314],[-55.3303,5.8414],[-55.2569,5.8441],[-55.2775,5.9067]]]}},
{"type":"Feature","id":"SUR:ADM2:saramacca-polder","properties":{"shapeName":"Saramacca Polder","shapeISO":"","shapeType":"ADM2"},"geometry":{"type":"Polygon","coordinates":[[[-55.1814,5.796],[-55.2279,5.8057],[-55.2236,5.827],[-55.2189,5.841],[-55.2569,5.8441],[-55.3303,5.8414],[-55.3305,5.8355],[-55.329,5.8096],[-55.2483,5.7907],[-55.2074,5.7772],[-55.1768,5.7871],[-55.1814,5.796]]]}},
{"type":"Feature","id":"SUR:ADM2:koewarasan","properties":{"shapeName":"Koewarasan","shapeISO":"","shapeType":"ADM2"},"geometry":{"type":"Polygon","coordinates":[[[-55.329,5.8096],[-55.3455,5.7634],[-55.3566,5.7448],[-55.274,5.732],[-55.2535,5.7817],[-55.2483,5.7907],[-55.329,5.8096]]]}},
{"type":"Feature","id":"SUR:ADM2:domburg","properties":{"shapeName":"Domburg","shapeISO":"","shapeType":"ADM2"},"geometry":{"type":"Polygon","coordinates":[[[-55.0934,5.6987],[-55.1469,5.7524],[-55.1496,5.6865],[-55.0934,5.6987]]]}},
{"type":"Feature","id":"SUR:ADM2:houttuin","properties":{"shapeName":"Houttuin","shapeISO":"","shapeType":"ADM2"},"geometry":{"type":"Polygon","coordinates":[[[-55.1496,5.6865],[-55.1469,5.7524],[-55.1768,5.7871],[-55.2074,5.7772],[-55.2075,5.7772],[-55.2124,5.7315],[-55.1999,5.6728],[-55.1496,5.6865]]]}},
{"type":"Feature","id":"SUR:ADM2:de-nieuwe-grond","properties":{"shapeName":"De Nieuwe Grond","shapeISO":"","shapeType":"ADM2"},"geometry":{"type":"Polygon","coordinates":[[[-55.2535,5.7817],[-55.274,5.732],[-55.2124,5.7315],[-55.2075,5.7772],[-55.2535,5.7817]]]}},
{"type":"Feature","id":"SUR:ADM2:lelydorp","properties":{"shapeName":"Lelydorp","shapeISO":"","shapeType":"ADM2"},"geometry":{"type":"Polygon","coordinates":[[[-55.2174,5.6557],[-55.1999,5.6728],[-55.2124,5.7315],[-55.274,5.732],[-55.3566,5.7448],[-55.351,5.6477],[-55.2174,5.6557]]]}}
]}