{"type":"FeatureCollection","bbox":[-61.809839,15.832834,-61.002033,16.510988], "features": [
{"type":"Feature","geometry":{"type":"MultiPolygon","coordinates":[[[[-61.109917,16.17325],[-61.110547,16.174395],[-61.115942,16.17248],[-61.123282,16.172947],[-61.125803,16.172483],[-61.128918,16.173302],[-61.130741,16.17199],[-61.129305,16.169782],[-61.126787,16.16874],[-61.123465,16.168369],[-61.121377,16.167173],[-61.118007,16.168009],[-61.108029,16.169057],[-61.106767,16.171112],[-61.109917,16.17325]]],[[[-61.113182,16.176497],[-61.105872,16.176036],[-61.10319,16.180411],[-61.109713,16.178591],[-61.11114,16.179153],[-61.113182,16.176497]]],[[[-61.055709,16.326913],[-61.059586,16.322654],[-61.064451,16.320015],[-61.069502,16.31863],[-61.073466,16.319916],[-61.077362,16.315851],[-61.077279,16.313615],[-61.078622,16.312326],[-61.087559,16.311207],[-61.08948,16.312097],[-61.093747,16.305331],[-61.09576,16.305265],[-61.097887,16.302744],[-61.096246,16.300045],[-61.096223,16.298018],[-61.098597,16.294263],[-61.097521,16.29158],[-61.095852,16.290277],[-61.09495,16.293365],[-61.09135,16.295571],[-61.0865,16.295747],[-61.081703,16.297239],[-61.080028,16.299465],[-61.077065,16.299496],[-61.075718,16.301853],[-61.073909,16.302782],[-61.066339,16.303072],[-61.060437,16.305015],[-61.056949,16.305301],[-61.048371,16.307741],[-61.043033,16.311433],[-61.040208,16.314454],[-61.038609,16.314839],[-61.035729,16.317687],[-61.025496,16.32434],[-61.01866,16.327571],[-61.015404,16.32797],[-61.013985,16.329126],[-61.009067,16.329598],[-61.007593,16.331325],[-61.002033,16.333973],[-61.00635,16.34131],[-61.006436,16.344697],[-61.008403,16.347465],[-61.00848,16.349103],[-61.011567,16.349769],[-61.014603,16.348549],[-61.01698,16.348805],[-61.018652,16.345002],[-61.021175,16.343952],[-61.024418,16.344204],[-61.028379,16.340175],[-61.031019,16.340324],[-61.032443,16.337209],[-61.034867,16.338565],[-61.036387,16.336534],[-61.039593,16.33452],[-61.041454,16.335026],[-61.044832,16.332113],[-61.046124,16.330513],[-61.048872,16.3305],[-61.050895,16.327655],[-61.055709,16.326913]]]]},"properties":{"shapeName":"La Désirade","shapeISO":"45945325B8612440900081","shapeGroup":"GLP","shapeType":"ADM4","src_shape_id":"45945325B8612440900081"}},
{"type":"Feature","geometry":{"type":"MultiPolygon","coordinates":[[[[-61.54247,16.213734],[-61.539604,16.21319],[-61.534806,16.213402],[-61.536778,16.215524],[-61.54082,16.215582],[-61.54308,16.218896],[-61.543902,16.215952],[-61.54247,16.213734]]],[[[-61.527228,16.219245],[-61.52669,16.222134],[-61.525526,16.22332],[-61.527825,16.226086],[-61.531572,16.228167],[-61.531308,16.230342],[-61.529071,16.23842],[-61.533646,16.246664],[-61.54898,16.253079],[-61.549712,16.251814],[-61.547715,16.249467],[-61.541912,16.244377],[-61.541742,16.240545],[-61.538973,16.239922],[-61.539558,16.237051],[-61.536519,16.234177],[-61.535084,16.235916],[-61.533414,16.233119],[-61.534909,16.232428],[-61.533755,16.229236],[-61.532053,16.228965],[-61.53287,16.224519],[-61.530077,16.222876],[-61.527288,16.222896],[-61.527228,16.219245]]]]},"properties":{"shapeName":"Pointe-à-Pitre","shapeISO":"45945325B98295489226532","shapeGroup":"GLP","shapeType":"ADM4","src_shape_id":"45945325B98295489226532"}},
{"type":"Feature","geometry":{"type":"Polygon","coordinates":[[[-61.614604,15.986189],[-61.617395,15.988638],[-61.621723,15.989455],[-61.624629,15.998272],[-61.624345,16.001525],[-61.627301,16.006409],[-61.627196,16.01096],[-61.629371,16.014092],[-61.630767,16.014959],[-61.633029,16.019041],[-61.636752,16.021189],[-61.639584,16.023963],[-61.641195,16.027498],[-61.645218,16.026801],[-61.650619,16.029772],[-61.653136,16.030692],[-61.655641,16.033419],[-61.655147,16.031568],[-61.656133,16.027096],[-61.656347,16.023694],[-61.658494,16.0193],[-61.658558,16.01517],[-61.663477,16.008282],[-61.663229,16.005919],[-61.664425,16.003318],[-61.668938,16.000754],[-61.668525,15.99892],[-61.669585,15.996731],[-61.6675,15.994569],[-61.666714,15.991536],[-61.667397,15.987797],[-61.665313,15.986751],[-61.663963,15.983095],[-61.661984,15.981728],[-61.662231,15.978372],[-61.663302,15.975689],[-61.669019,15.978536],[-61.673783,15.977634],[-61.678427,15.975281],[-61.679966,15.972652],[-61.683992,15.972693],[-61.682745,15.970753],[-61.684402,15.966168],[-61.683418,15.965166],[-61.681426,15.95916],[-61.679007,15.956508],[-61.677038,15.952861],[-61.675696,15.952946],[-61.673524,15.955482],[-61.672389,15.958599],[-61.669482,15.96177],[-61.665726,15.963882],[-61.662041,15.964322],[-61.65965,15.960538],[-61.653621,15.966809],[-61.65198,15.966969],[-61.650346,15.969044],[-61.648206,15.96983],[-61.646941,15.968556],[-61.637716,15.967811],[-61.634905,15.96644],[-61.632188,15.967994],[-61.630081,15.967238],[-61.629496,15.969078],[-61.627185,15.972045],[-61.623553,15.971064],[-61.618527,15.973363],[-61.619739,15.978124],[-61.61441,15.982266],[-61.614604,15.986189]]]},"properties":{"shapeName":"Trois-Rivières","shapeISO":"45945325B35876077277289","shapeGroup":"GLP","shapeType":"ADM4","src_shape_id":"45945325B35876077277289"}},
{"type":"Feature","geometry":{"type":"Polygon","coordinates":[[[-61.224604,15.964516],[-61.223268,15.967085],[-61.224593,15.968333],[-61.226679,15.967727],[-61.227599,15.969771],[-61.229749,15.97092],[-61.231205,15.973582],[-61.23031,15.975708],[-61.231987,15.977404],[-61.230379,15.980987],[-61.232619,15.982016],[-61.233245,15.985671],[-61.234935,15.985121],[-61.238279,15.986309],[-61.23929,15.988409],[-61.243592,15.988352],[-61.242515,15.990313],[-61.244048,15.991686],[-61.24764,15.991151],[-61.252753,15.992815],[-61.25314,15.994048],[-61.255786,15.994506],[-61.259253,15.998503],[-61.263187,16.000954],[-61.267814,16.003041],[-61.270255,16.003274],[-61.275422,16.004835],[-61.277795,16.004854],[-61.286682,16.003637],[-61.289749,16.003937],[-61.292404,16.001855],[-61.296155,15.997354],[-61.300387,15.990662],[-61.300185,15.98902],[-61.302342,15.987426],[-61.306135,15.986252],[-61.305313,15.982047],[-61.306819,15.980802],[-61.306484,15.978816],[-61.310837,15.976987],[-61.31865,15.976249],[-61.318089,15.974441],[-61.318736,15.968527],[-61.318047,15.967302],[-61.318342,15.961469],[-61.319305,15.953579],[-61.323188,15.949521],[-61.320128,15.950581],[-61.319111,15.946944],[-61.317382,15.946744],[-61.31541,15.944235],[-61.313265,15.93919],[-61.307611,15.938505],[-61.30083,15.938586],[-61.301222,15.935624],[-61.299569,15.935617],[-61.293796,15.933127],[-61.290941,15.935598],[-61.288812,15.934659],[-61.286043,15.935446],[-61.284603,15.933968],[-61.282615,15.934553],[-61.280063,15.932968],[-61.277401,15.932734],[-61.277176,15.927744],[-61.27278,15.92579],[-61.272824,15.924332],[-61.267648,15.92579],[-61.266517,15.923582],[-61.26424,15.924232],[-61.260994,15.92572],[-61.259916,15.928534],[-61.260445,15.931529],[-61.260324,15.935768],[-61.258135,15.936777],[-61.25684,15.939368],[-61.255363,15.940113],[-61.257116,15.942961],[-61.257082,15.945938],[-61.255201,15.947206],[-61.246229,15.947811],[-61.244983,15.951461],[-61.238859,15.952134],[-61.236884,15.958928],[-61.231056,15.957854],[-61.229956,15.961408],[-61.224604,15.964516]]]},"properties":{"shapeName":"Saint-Louis","shapeISO":"45945325B44853816631636","shapeGroup":"GLP","shapeType":"ADM4","src_shape_id":"45945325B44853816631636"}},
{"type":"Feature","geometry":{"type":"Polygon","coordinates":[[[-61.605525,16.297329],[-61.603258,16.298643],[-61.601392,16.302746],[-61.605676,16.304503],[-61.608611,16.304576],[-61.612569,16.303264],[-61.615988,16.303032],[-61.622493,16.301333],[-61.626769,16.302091],[-61.627626,16.304333],[-61.633371,16.305013],[-61.633886,16.307238],[-61.638137,16.309577],[-61.643384,16.308786],[-61.644878,16.312782],[-61.642586,16.313864],[-61.64097,16.316312],[-61.643231,16.317801],[-61.649334,16.319667],[-61.65169,16.321418],[-61.656193,16.319644],[-61.659577,16.319597],[-61.660172,16.320658],[-61.66498,16.317622],[-61.666854,16.320086],[-61.668568,16.317462],[-61.670893,16.318602],[-61.67103,16.321259],[-61.673178,16.323224],[-61.672605,16.324468],[-61.677041,16.32629],[-61.67846,16.328464],[-61.680546,16.328569],[-61.68186,16.325142],[-61.685498,16.324851],[-61.686586,16.329838],[-61.690848,16.33125],[-61.693634,16.334823],[-61.697822,16.334617],[-61.699567,16.335398],[-61.701404,16.334427],[-61.703447,16.336409],[-61.706636,16.33672],[-61.708369,16.336109],[-61.714507,16.33777],[-61.716313,16.339984],[-61.717476,16.342777],[-61.716245,16.344288],[-61.72237,16.348508],[-61.721514,16.350549],[-61.724902,16.35246],[-61.730449,16.357133],[-61.731536,16.356052],[-61.735162,16.356924],[-61.738653,16.359138],[-61.742506,16.360686],[-61.743688,16.361892],[-61.746019,16.360576],[-61.746064,16.357851],[-61.74886,16.354932],[-61.753455,16.353752],[-61.756409,16.354137],[-61.760007,16.355639],[-61.760714,16.35462],[-61.764933,16.353684],[-61.764463,16.351098],[-61.762319,16.349594],[-61.7654,16.343511],[-61.765188,16.339985],[-61.765776,16.335831],[-61.764953,16.332662],[-61.758933,16.330006],[-61.759729,16.326963],[-61.759467,16.323628],[-61.760659,16.321755],[-61.757899,16.317671],[-61.760375,16.314391],[-61.760952,16.310542],[-61.762996,16.307886],[-61.76181,16.304337],[-61.763409,16.303128],[-61.761762,16.300698],[-61.761656,16.295427],[-61.763353,16.293349],[-61.763881,16.290612],[-61.765455,16.288611],[-61.764429,16.287159],[-61.759211,16.285053],[-61.756552,16.28082],[-61.757036,16.274854],[-61.756501,16.272753],[-61.755383,16.268039],[-61.75809,16.263146],[-61.755624,16.261479],[-61.755042,16.259836],[-61.755175,16.255998],[-61.751612,16.252755],[-61.748172,16.253257],[-61.7433,16.249382],[-61.73857,16.249441],[-61.736397,16.247596],[-61.737104,16.245491],[-61.734885,16.242939],[-61.730621,16.241129],[-61.730198,16.238604],[-61.728472,16.235412],[-61.726161,16.233416],[-61.72532,16.230766],[-61.723034,16.229289],[-61.719806,16.229176],[-61.711847,16.226187],[-61.707613,16.226145],[-61.704901,16.227787],[-61.703906,16.231265],[-61.699054,16.231137],[-61.698468,16.232399],[-61.694474,16.2316],[-61.692136,16.23304],[-61.689339,16.233432],[-61.686837,16.234648],[-61.68576,16.236496],[-61.683166,16.238557],[-61.680695,16.242523],[-61.678621,16.244228],[-61.678833,16.246616],[-61.676775,16.246564],[-61.676071,16.249043],[-61.673154,16.251264],[-61.673201,16.254683],[-61.675663,16.256854],[-61.67607,16.258867],[-61.674453,16.264335],[-61.671702,16.264067],[-61.670901,16.265961],[-61.672139,16.268197],[-61.671582,16.270019],[-61.67356,16.27272],[-61.669947,16.273467],[-61.668919,16.275097],[-61.668218,16.279601],[-61.665715,16.283055],[-61.667344,16.288158],[-61.666341,16.29024],[-61.663232,16.29043],[-61.657585,16.289998],[-61.654246,16.291454],[-61.654095,16.293138],[-61.658407,16.293498],[-61.65846,16.295748],[-61.655702,16.297868],[-61.650225,16.295334],[-61.646115,16.295382],[-61.640761,16.296756],[-61.634515,16.29617],[-61.633752,16.299296],[-61.629743,16.299134],[-61.623241,16.295653],[-61.620493,16.29522],[-61.615696,16.295471],[-61.610167,16.298666],[-61.606484,16.298969],[-61.605525,16.297329]]]},"properties":{"shapeName":"Sainte-Rose","shapeISO":"45945325B50163994481477","shapeGroup":"GLP","shapeType":"ADM4","src_shape_id":"45945325B50163994481477"}},
{"type":"Feature","geometry":{"type":"Polygon","coordinates":[[[-61.614604,15.986189],[-61.614259,15.989148],[-61.612515,15.991329],[-61.608347,15.992325],[-61.606172,15.994882],[-61.604266,15.995538],[-61.602263,16.000441],[-61.598654,16.001062],[-61.598656,16.002966],[-61.594353,16.005095],[-61.587919,16.011885],[-61.584768,16.012077],[-61.582903,16.014136],[-61.580065,16.018606],[-61.572666,16.022073],[-61.571622,16.024739],[-61.569142,16.025879],[-61.569934,16.027887],[-61.564473,16.034188],[-61.56518,16.036287],[-61.564273,16.042156],[-61.560848,16.045687],[-61.559702,16.049069],[-61.556837,16.050605],[-61.555346,16.054879],[-61.558431,16.058831],[-61.559877,16.059517],[-61.560795,16.06369],[-61.560881,16.073067],[-61.559589,16.076091],[-61.560596,16.08044],[-61.560175,16.087717],[-61.558868,16.092421],[-61.559029,16.09403],[-61.561209,16.096982],[-61.560815,16.101203],[-61.562488,16.103003],[-61.56276,16.107317],[-61.567271,16.108758],[-61.56907,16.110922],[-61.572193,16.110181],[-61.574175,16.107754],[-61.578666,16.107549],[-61.579764,16.105613],[-61.581759,16.105068],[-61.585212,16.102219],[-61.587288,16.102049],[-61.589837,16.097571],[-61.600312,16.095173],[-61.602709,16.095008],[-61.603853,16.093458],[-61.60734,16.091542],[-61.611692,16.090757],[-61.617746,16.087317],[-61.619542,16.084391],[-61.621604,16.083636],[-61.625238,16.085331],[-61.626631,16.086651],[-61.630702,16.085954],[-61.634201,16.086925],[-61.636988,16.089564],[-61.640851,16.092029],[-61.647963,16.090854],[-61.65062,16.092046],[-61.65366,16.091794],[-61.6586,16.093949],[-61.663504,16.094567],[-61.666416,16.092506],[-61.667879,16.090346],[-61.673917,16.091172],[-61.677076,16.092121],[-61.680442,16.092006],[-61.684105,16.089498],[-61.68296,16.085875],[-61.680632,16.08455],[-61.679023,16.080428],[-61.674045,16.075267],[-61.674806,16.073327],[-61.675109,16.069404],[-61.673628,16.063792],[-61.671679,16.060092],[-61.663874,16.057539],[-61.662893,16.054679],[-61.663337,16.052333],[-61.660919,16.047778],[-61.663001,16.043949],[-61.659699,16.042311],[-61.656394,16.039615],[-61.655641,16.033419],[-61.653136,16.030692],[-61.650619,16.029772],[-61.645218,16.026801],[-61.641195,16.027498],[-61.639584,16.023963],[-61.636752,16.021189],[-61.633029,16.019041],[-61.630767,16.014959],[-61.629371,16.014092],[-61.627196,16.01096],[-61.627301,16.006409],[-61.624345,16.001525],[-61.624629,15.998272],[-61.621723,15.989455],[-61.617395,15.988638],[-61.614604,15.986189]]]},"properties":{"shapeName":"Capesterre-Belle-Eau","shapeISO":"45945325B90407724900616","shapeGroup":"GLP","shapeType":"ADM4","src_shape_id":"45945325B90407724900616"}},
{"type":"Feature","geometry":{"type":"Polygon","coordinates":[[[-61.622335,15.852609],[-61.621078,15.855308],[-61.61847,15.851343],[-61.614698,15.854026],[-61.614413,15.855201],[-61.616506,15.858213],[-61.62065,15.859112],[-61.623913,15.858779],[-61.624892,15.862054],[-61.622881,15.864388],[-61.623947,15.866045],[-61.629641,15.866944],[-61.631689,15.868045],[-61.634527,15.867798],[-61.636973,15.868633],[-61.639387,15.863948],[-61.640612,15.862607],[-61.64654,15.859533],[-61.647023,15.853795],[-61.648648,15.852838],[-61.648787,15.849941],[-61.650756,15.847773],[-61.644273,15.845383],[-61.6341,15.839875],[-61.631747,15.841354],[-61.628326,15.842368],[-61.625393,15.848163],[-61.623466,15.849328],[-61.622335,15.852609]]]},"properties":{"shapeName":"Terre-de-Bas","shapeISO":"45945325B4110611838190","shapeGroup":"GLP","shapeType":"ADM4","src_shape_id":"45945325B4110611838190"}},
{"type":"Feature","geometry":{"type":"MultiPolygon","coordinates":[[[[-61.593067,16.34522],[-61.591657,16.346474],[-61.589677,16.345249],[-61.583352,16.344737],[-61.581296,16.345268],[-61.579231,16.349055],[-61.582802,16.352033],[-61.59004,16.353804],[-61.591384,16.352702],[-61.59134,16.349634],[-61.593958,16.345983],[-61.593067,16.34522]]],[[[-61.49094,16.353644],[-61.494053,16.353612],[-61.495566,16.352489],[-61.498709,16.352472],[-61.50607,16.350443],[-61.507282,16.34547],[-61.506902,16.3441],[-61.508499,16.341978],[-61.512873,16.343102],[-61.519946,16.343242],[-61.522693,16.345359],[-61.52468,16.342119],[-61.529728,16.339311],[-61.527855,16.338255],[-61.534446,16.333699],[-61.535609,16.331355],[-61.534963,16.32868],[-61.533486,16.326586],[-61.534441,16.32474],[-61.534161,16.322559],[-61.535903,16.318526],[-61.533618,16.316197],[-61.535071,16.314373],[-61.534555,16.312558],[-61.533771,16.311545],[-61.530783,16.311348],[-61.525875,16.310221],[-61.523557,16.307585],[-61.517741,16.304907],[-61.517172,16.303384],[-61.514352,16.304116],[-61.511704,16.303793],[-61.511338,16.300768],[-61.504218,16.300419],[-61.502965,16.30582],[-61.498994,16.305872],[-61.496406,16.304068],[-61.491149,16.303813],[-61.4893,16.30205],[-61.486681,16.30122],[-61.483588,16.302047],[-61.482446,16.303694],[-61.477411,16.305332],[-61.476143,16.303888],[-61.477886,16.302454],[-61.476825,16.300458],[-61.474612,16.302205],[-61.472615,16.300292],[-61.468548,16.299856],[-61.465747,16.302288],[-61.461787,16.30019],[-61.460629,16.296493],[-61.456667,16.293951],[-61.457129,16.29132],[-61.455905,16.28991],[-61.453677,16.289585],[-61.452158,16.287928],[-61.447784,16.287079],[-61.446323,16.28453],[-61.442907,16.285571],[-61.441601,16.287593],[-61.442087,16.291258],[-61.439376,16.291867],[-61.440236,16.294278],[-61.438166,16.295929],[-61.435446,16.296722],[-61.435979,16.299053],[-61.433453,16.300232],[-61.433524,16.303124],[-61.430653,16.306596],[-61.429767,16.309868],[-61.427945,16.310358],[-61.425448,16.306724],[-61.423493,16.305354],[-61.421644,16.302539],[-61.41156,16.305581],[-61.400611,16.309171],[-61.401221,16.315986],[-61.40191,16.318612],[-61.404151,16.319216],[-61.405788,16.325888],[-61.40366,16.329973],[-61.406117,16.32939],[-61.407298,16.332075],[-61.411006,16.330649],[-61.414934,16.33001],[-61.415722,16.32901],[-61.419609,16.329185],[-61.422039,16.330934],[-61.424685,16.339347],[-61.427023,16.340337],[-61.429727,16.342793],[-61.431746,16.34262],[-61.43109,16.340234],[-61.437362,16.338398],[-61.440073,16.345932],[-61.440884,16.350315],[-61.445689,16.349612],[-61.446538,16.35781],[-61.458179,16.356348],[-61.461454,16.357373],[-61.464483,16.355963],[-61.477845,16.351299],[-61.481928,16.352012],[-61.483269,16.353324],[-61.49094,16.353644]]]]},"properties":{"shapeName":"Morne-à-l'Eau","shapeISO":"45945325B75460093077193","shapeGroup":"GLP","shapeType":"ADM4","src_shape_id":"45945325B75460093077193"}},
{"type":"Feature","geometry":{"type":"Polygon","coordinates":[[[-61.663504,16.094567],[-61.66651,16.100214],[-61.669638,16.102714],[-61.671467,16.106233],[-61.671362,16.107902],[-61.673376,16.11036],[-61.677361,16.111758],[-61.679631,16.114612],[-61.685893,16.116081],[-61.689547,16.114884],[-61.691828,16.11619],[-61.695038,16.115699],[-61.699794,16.120252],[-61.706519,16.11873],[-61.710363,16.116936],[-61.714144,16.120113],[-61.714835,16.12392],[-61.716682,16.1269],[-61.715368,16.130038],[-61.716591,16.133258],[-61.724108,16.135251],[-61.72618,16.132912],[-61.727909,16.132289],[-61.731497,16.128261],[-61.731557,16.125034],[-61.733457,16.120436],[-61.732929,16.115236],[-61.734158,16.112983],[-61.736735,16.112095],[-61.737914,16.11043],[-61.742495,16.110638],[-61.742974,16.108652],[-61.745401,16.109344],[-61.74611,16.108083],[-61.751451,16.106216],[-61.751768,16.104362],[-61.755265,16.100827],[-61.761735,16.097435],[-61.763652,16.095164],[-61.764966,16.091372],[-61.76648,16.090456],[-61.769104,16.087044],[-61.767714,16.084573],[-61.767642,16.082033],[-61.769383,16.079749],[-61.76822,16.073989],[-61.76925,16.069891],[-61.770478,16.062107],[-61.767507,16.053993],[-61.765262,16.051403],[-61.765076,16.049386],[-61.761023,16.046637],[-61.755695,16.040305],[-61.754709,16.040139],[-61.753741,16.036256],[-61.750499,16.034373],[-61.748057,16.036703],[-61.745366,16.03656],[-61.737448,16.040083],[-61.737924,16.041528],[-61.734481,16.045852],[-61.735492,16.047581],[-61.733265,16.048384],[-61.732404,16.052792],[-61.73085,16.056286],[-61.728686,16.058709],[-61.725279,16.060252],[-61.721862,16.066481],[-61.718353,16.067808],[-61.716831,16.070524],[-61.71189,16.07093],[-61.709573,16.073934],[-61.706456,16.074343],[-61.701689,16.073788],[-61.699065,16.074721],[-61.697278,16.076382],[-61.694707,16.076502],[-61.692203,16.080599],[-61.692329,16.082815],[-61.689848,16.083251],[-61.686699,16.085943],[-61.684105,16.089498],[-61.680442,16.092006],[-61.677076,16.092121],[-61.673917,16.091172],[-61.667879,16.090346],[-61.666416,16.092506],[-61.663504,16.094567]]]},"properties":{"shapeName":"Vieux-Habitants","shapeISO":"45945325B32399599693317","shapeGroup":"GLP","shapeType":"ADM4","src_shape_id":"45945325B32399599693317"}},
{"type":"Feature","geometry":{"type":"Polygon","coordinates":[[[-61.723034,16.229289],[-61.724776,16.224758],[-61.724143,16.220528],[-61.726123,16.21797],[-61.729182,16.217308],[-61.731452,16.215848],[-61.733014,16.21215],[-61.729279,16.211258],[-61.729188,16.207631],[-61.730219,16.204993],[-61.731703,16.204442],[-61.732678,16.201285],[-61.729638,16.196728],[-61.730328,16.193801],[-61.726268,16.189327],[-61.723251,16.189808],[-61.719672,16.191915],[-61.715233,16.192455],[-61.710279,16.190932],[-61.705821,16.191121],[-61.702691,16.19428],[-61.701374,16.194688],[-61.699107,16.198787],[-61.692101,16.201808],[-61.690196,16.202982],[-61.687134,16.201719],[-61.683787,16.201602],[-61.678321,16.202529],[-61.67554,16.201128],[-61.668714,16.201114],[-61.667377,16.206732],[-61.66185,16.208573],[-61.658256,16.208682],[-61.657529,16.211478],[-61.649362,16.212007],[-61.648448,16.212843],[-61.646931,16.214936],[-61.646614,16.218443],[-61.639681,16.223798],[-61.639596,16.227083],[-61.642812,16.22942],[-61.640751,16.231676],[-61.640113,16.235784],[-61.633267,16.241692],[-61.633048,16.245089],[-61.628342,16.252944],[-61.630321,16.256752],[-61.630616,16.260711],[-61.629317,16.263596],[-61.627539,16.265155],[-61.626283,16.268926],[-61.626479,16.272752],[-61.625095,16.274417],[-61.626922,16.280176],[-61.626105,16.28264],[-61.621234,16.283557],[-61.619955,16.282526],[-61.616678,16.282279],[-61.613026,16.28495],[-61.610598,16.294093],[-61.609294,16.295419],[-61.605525,16.297329],[-61.606484,16.298969],[-61.610167,16.298666],[-61.615696,16.295471],[-61.620493,16.29522],[-61.623241,16.295653],[-61.629743,16.299134],[-61.633752,16.299296],[-61.634515,16.29617],[-61.640761,16.296756],[-61.646115,16.295382],[-61.650225,16.295334],[-61.655702,16.297868],[-61.65846,16.295748],[-61.658407,16.293498],[-61.654095,16.293138],[-61.654246,16.291454],[-61.657585,16.289998],[-61.663232,16.29043],[-61.666341,16.29024],[-61.667344,16.288158],[-61.665715,16.283055],[-61.668218,16.279601],[-61.668919,16.275097],[-61.669947,16.273467],[-61.67356,16.27272],[-61.671582,16.270019],[-61.672139,16.268197],[-61.670901,16.265961],[-61.671702,16.264067],[-61.674453,16.264335],[-61.67607,16.258867],[-61.675663,16.256854],[-61.673201,16.254683],[-61.673154,16.251264],[-61.676071,16.249043],[-61.676775,16.246564],[-61.678833,16.246616],[-61.678621,16.244228],[-61.680695,16.242523],[-61.683166,16.238557],[-61.68576,16.236496],[-61.686837,16.234648],[-61.689339,16.233432],[-61.692136,16.23304],[-61.694474,16.2316],[-61.698468,16.232399],[-61.699054,16.231137],[-61.703906,16.231265],[-61.704901,16.227787],[-61.707613,16.226145],[-61.711847,16.226187],[-61.719806,16.229176],[-61.723034,16.229289]]]},"properties":{"shapeName":"Lamentin","shapeISO":"45945325B16192482241672","shapeGroup":"GLP","shapeType":"ADM4","src_shape_id":"45945325B16192482241672"}},
{"type":"Feature","geometry":{"type":"Polygon","coordinates":[[[-61.655641,16.033419],[-61.656394,16.039615],[-61.659699,16.042311],[-61.662752,16.038352],[-61.663502,16.033392],[-61.661691,16.029046],[-61.660893,16.025615],[-61.662026,16.02224],[-61.66431,16.021318],[-61.666751,16.017104],[-61.669519,16.015627],[-61.670705,16.013796],[-61.673497,16.013347],[-61.676375,16.010423],[-61.67807,16.010663],[-61.681106,16.008893],[-61.68314,16.00897],[-61.684977,16.011094],[-61.687426,16.011959],[-61.689397,16.011561],[-61.693911,16.005747],[-61.697518,16.005373],[-61.701327,16.002751],[-61.703559,16.001951],[-61.70807,15.998369],[-61.712486,15.996606],[-61.714357,15.995489],[-61.714705,15.993324],[-61.717438,15.992759],[-61.719084,15.989602],[-61.721121,15.98919],[-61.722941,15.98566],[-61.719796,15.984776],[-61.715192,15.98262],[-61.715026,15.98038],[-61.711277,15.974583],[-61.710028,15.970579],[-61.707365,15.969022],[-61.703019,15.969222],[-61.698172,15.971255],[-61.696064,15.970236],[-61.691054,15.971333],[-61.690091,15.973882],[-61.68657,15.974925],[-61.683992,15.972693],[-61.679966,15.972652],[-61.678427,15.975281],[-61.673783,15.977634],[-61.669019,15.978536],[-61.663302,15.975689],[-61.662231,15.978372],[-61.661984,15.981728],[-61.663963,15.983095],[-61.665313,15.986751],[-61.667397,15.987797],[-61.666714,15.991536],[-61.6675,15.994569],[-61.669585,15.996731],[-61.668525,15.99892],[-61.668938,16.000754],[-61.664425,16.003318],[-61.663229,16.005919],[-61.663477,16.008282],[-61.658558,16.01517],[-61.658494,16.0193],[-61.656347,16.023694],[-61.656133,16.027096],[-61.655147,16.031568],[-61.655641,16.033419]]]},"properties":{"shapeName":"Gourbeyre","shapeISO":"45945325B5127686022806","shapeGroup":"GLP","shapeType":"ADM4","src_shape_id":"45945325B5127686022806"}},
{"type":"Feature","geometry":{"type":"MultiPolygon","coordinates":[[[[-61.764933,16.353684],[-61.766806,16.351817],[-61.770204,16.351072],[-61.771958,16.349468],[-61.774783,16.349224],[-61.777794,16.346334],[-61.777759,16.342713],[-61.780583,16.339947],[-61.785276,16.337522],[-61.787696,16.335341],[-61.789237,16.332507],[-61.787083,16.329501],[-61.786873,16.325661],[-61.788396,16.322464],[-61.792235,16.319476],[-61.800684,16.316262],[-61.802175,16.313212],[-61.800117,16.310408],[-61.795027,16.308361],[-61.794782,16.306183],[-61.795823,16.304396],[-61.800405,16.303715],[-61.802386,16.300907],[-61.802038,16.29611],[-61.803271,16.295134],[-61.801802,16.285933],[-61.803094,16.284645],[-61.804343,16.281326],[-61.802711,16.279217],[-61.80436,16.275183],[-61.809839,16.272938],[-61.807697,16.268898],[-61.805847,16.268038],[-61.801099,16.268718],[-61.800025,16.269447],[-61.793486,16.270404],[-61.791771,16.271484],[-61.786677,16.270604],[-61.784095,16.272035],[-61.776651,16.272806],[-61.773003,16.273708],[-61.766958,16.273709],[-61.763036,16.273101],[-61.75994,16.27139],[-61.756501,16.272753],[-61.757036,16.274854],[-61.756552,16.28082],[-61.759211,16.285053],[-61.764429,16.287159],[-61.765455,16.288611],[-61.763881,16.290612],[-61.763353,16.293349],[-61.761656,16.295427],[-61.761762,16.300698],[-61.763409,16.303128],[-61.76181,16.304337],[-61.762996,16.307886],[-61.760952,16.310542],[-61.760375,16.314391],[-61.757899,16.317671],[-61.760659,16.321755],[-61.759467,16.323628],[-61.759729,16.326963],[-61.758933,16.330006],[-61.764953,16.332662],[-61.765776,16.335831],[-61.765188,16.339985],[-61.7654,16.343511],[-61.762319,16.349594],[-61.764463,16.351098],[-61.764933,16.353684]]],[[[-61.781681,16.37058],[-61.781808,16.367118],[-61.778891,16.364184],[-61.778019,16.368101],[-61.780354,16.368991],[-61.781681,16.37058]]]]},"properties":{"shapeName":"Deshaies","shapeISO":"45945325B10716673202821","shapeGroup":"GLP","shapeType":"ADM4","src_shape_id":"45945325B10716673202821"}},
{"type":"Feature","geometry":{"type":"Polygon","coordinates":[[[-61.724108,16.135251],[-61.723564,16.139597],[-61.724781,16.144257],[-61.724745,16.148633],[-61.728812,16.15116],[-61.7302,16.154161],[-61.7293,16.158562],[-61.73049,16.160647],[-61.729729,16.164378],[-61.731352,16.167746],[-61.73192,16.170816],[-61.735481,16.177119],[-61.736463,16.18069],[-61.738576,16.183057],[-61.74143,16.182848],[-61.742939,16.183705],[-61.748996,16.18452],[-61.749773,16.185749],[-61.755279,16.183422],[-61.75878,16.18131],[-61.764584,16.18034],[-61.770954,16.181265],[-61.773942,16.183221],[-61.778469,16.185299],[-61.779645,16.186937],[-61.782487,16.187701],[-61.783574,16.185691],[-61.78409,16.180411],[-61.783276,16.177785],[-61.784172,16.17634],[-61.782777,16.173971],[-61.779413,16.174523],[-61.776032,16.171267],[-61.776776,16.169374],[-61.775972,16.166707],[-61.775877,16.163428],[-61.776598,16.161645],[-61.776438,16.156058],[-61.775583,16.152692],[-61.776044,16.149925],[-61.775181,16.14892],[-61.777149,16.144761],[-61.778875,16.143405],[-61.779267,16.140554],[-61.775079,16.138919],[-61.773615,16.136693],[-61.771777,16.135923],[-61.769965,16.131002],[-61.770453,16.12772],[-61.773937,16.12661],[-61.773497,16.120176],[-61.77437,16.117163],[-61.773268,16.10515],[-61.77472,16.104652],[-61.774391,16.10188],[-61.772234,16.101824],[-61.771914,16.099733],[-61.773753,16.098117],[-61.770705,16.096071],[-61.771078,16.094589],[-61.773355,16.093311],[-61.770341,16.089635],[-61.76648,16.090456],[-61.764966,16.091372],[-61.763652,16.095164],[-61.761735,16.097435],[-61.755265,16.100827],[-61.751768,16.104362],[-61.751451,16.106216],[-61.74611,16.108083],[-61.745401,16.109344],[-61.742974,16.108652],[-61.742495,16.110638],[-61.737914,16.11043],[-61.736735,16.112095],[-61.734158,16.112983],[-61.732929,16.115236],[-61.733457,16.120436],[-61.731557,16.125034],[-61.731497,16.128261],[-61.727909,16.132289],[-61.72618,16.132912],[-61.724108,16.135251]]]},"properties":{"shapeName":"Bouillante","shapeISO":"45945325B21329267014479","shapeGroup":"GLP","shapeType":"ADM4","src_shape_id":"45945325B21329267014479"}},
{"type":"Feature","geometry":{"type":"Polygon","coordinates":[[[-61.455126,16.258029],[-61.454289,16.256809],[-61.449345,16.254799],[-61.449407,16.252722],[-61.444951,16.248307],[-61.442842,16.248833],[-61.441555,16.245977],[-61.438835,16.246816],[-61.43666,16.243953],[-61.432061,16.239942],[-61.428411,16.228834],[-61.425986,16.227381],[-61.4241,16.22339],[-61.419362,16.210124],[-61.417888,16.211559],[-61.415979,16.211079],[-61.41155,16.212268],[-61.408703,16.212324],[-61.40588,16.216847],[-61.403636,16.218101],[-61.401553,16.218135],[-61.398096,16.219526],[-61.394798,16.217128],[-61.393711,16.221283],[-61.390229,16.223776],[-61.385197,16.223626],[-61.382083,16.222102],[-61.37885,16.2229],[-61.378145,16.224449],[-61.375547,16.226551],[-61.372238,16.228181],[-61.371278,16.231008],[-61.369956,16.232145],[-61.363304,16.234322],[-61.359141,16.235285],[-61.355962,16.23494],[-61.34949,16.236089],[-61.343897,16.238831],[-61.343224,16.239748],[-61.340075,16.239685],[-61.338539,16.24186],[-61.333269,16.241901],[-61.330988,16.241237],[-61.327194,16.241824],[-61.325439,16.243418],[-61.327053,16.245767],[-61.325616,16.247562],[-61.324724,16.25219],[-61.333091,16.276853],[-61.336057,16.286084],[-61.337668,16.290345],[-61.345365,16.287541],[-61.359284,16.287376],[-61.361269,16.287846],[-61.363634,16.296042],[-61.356385,16.296328],[-61.359185,16.30283],[-61.364739,16.302776],[-61.368552,16.300158],[-61.37029,16.300111],[-61.37217,16.298451],[-61.371028,16.295487],[-61.373334,16.29437],[-61.385865,16.290408],[-61.386212,16.292277],[-61.390936,16.290992],[-61.390728,16.288097],[-61.395241,16.286995],[-61.395787,16.288743],[-61.40329,16.286718],[-61.406153,16.284725],[-61.414894,16.283269],[-61.415882,16.282323],[-61.421811,16.280456],[-61.422127,16.278689],[-61.428953,16.279109],[-61.430604,16.278145],[-61.433981,16.280942],[-61.437405,16.280362],[-61.44051,16.278277],[-61.442393,16.2801],[-61.445118,16.279347],[-61.446201,16.276582],[-61.446472,16.272588],[-61.444985,16.273072],[-61.443906,16.268977],[-61.445734,16.26837],[-61.444764,16.265831],[-61.444963,16.261405],[-61.448518,16.262868],[-61.452348,16.261456],[-61.453643,16.257967],[-61.455126,16.258029]]]},"properties":{"shapeName":"Sainte-Anne","shapeISO":"45945325B31316766535712","shapeGroup":"GLP","shapeType":"ADM4","src_shape_id":"45945325B31316766535712"}},
{"type":"Feature","geometry":{"type":"Polygon","coordinates":[[[-61.684105,16.089498],[-61.686699,16.085943],[-61.689848,16.083251],[-61.692329,16.082815],[-61.692203,16.080599],[-61.694707,16.076502],[-61.697278,16.076382],[-61.699065,16.074721],[-61.701689,16.073788],[-61.706456,16.074343],[-61.709573,16.073934],[-61.71189,16.07093],[-61.716831,16.070524],[-61.718353,16.067808],[-61.721862,16.066481],[-61.725279,16.060252],[-61.728686,16.058709],[-61.73085,16.056286],[-61.732404,16.052792],[-61.733265,16.048384],[-61.735492,16.047581],[-61.734481,16.045852],[-61.737924,16.041528],[-61.737448,16.040083],[-61.745366,16.03656],[-61.748057,16.036703],[-61.750499,16.034373],[-61.750533,16.032359],[-61.748947,16.029434],[-61.748663,16.025711],[-61.747218,16.0222],[-61.746796,16.012112],[-61.745356,16.010584],[-61.742175,16.011199],[-61.73826,16.010039],[-61.736865,16.010992],[-61.730639,16.011663],[-61.728942,16.011626],[-61.720526,16.017505],[-61.718926,16.02009],[-61.715633,16.021404],[-61.715385,16.024109],[-61.714129,16.026925],[-61.714806,16.029638],[-61.713054,16.031726],[-61.713747,16.037681],[-61.711351,16.038289],[-61.710076,16.040169],[-61.711073,16.041607],[-61.709664,16.044611],[-61.702244,16.047356],[-61.698413,16.053358],[-61.697392,16.05744],[-61.692189,16.06212],[-61.691182,16.064243],[-61.686554,16.066308],[-61.685062,16.067547],[-61.685541,16.0723],[-61.683301,16.075313],[-61.684099,16.080662],[-61.683273,16.082835],[-61.680632,16.08455],[-61.68296,16.085875],[-61.684105,16.089498]]]},"properties":{"shapeName":"Baillif","shapeISO":"45945325B12596848928259","shapeGroup":"GLP","shapeType":"ADM4","src_shape_id":"45945325B12596848928259"}},
{"type":"Feature","geometry":{"type":"Polygon","coordinates":[[[-61.756501,16.272753],[-61.75994,16.27139],[-61.763036,16.273101],[-61.766958,16.273709],[-61.773003,16.273708],[-61.776651,16.272806],[-61.784095,16.272035],[-61.786677,16.270604],[-61.791771,16.271484],[-61.793486,16.270404],[-61.800025,16.269447],[-61.801099,16.268718],[-61.805847,16.268038],[-61.807135,16.266288],[-61.805407,16.262872],[-61.806345,16.258129],[-61.804986,16.254012],[-61.802861,16.251583],[-61.801586,16.242548],[-61.800281,16.242159],[-61.795209,16.236162],[-61.79196,16.235373],[-61.789059,16.22995],[-61.78755,16.228949],[-61.785615,16.225652],[-61.784392,16.218986],[-61.784803,16.217361],[-61.782623,16.214573],[-61.783259,16.210325],[-61.782949,16.207164],[-61.785516,16.203695],[-61.786645,16.196641],[-61.787884,16.195233],[-61.784375,16.190813],[-61.782487,16.187701],[-61.779645,16.186937],[-61.778469,16.185299],[-61.773942,16.183221],[-61.770954,16.181265],[-61.764584,16.18034],[-61.75878,16.18131],[-61.755279,16.183422],[-61.749773,16.185749],[-61.748996,16.18452],[-61.742939,16.183705],[-61.74143,16.182848],[-61.738576,16.183057],[-61.736463,16.18069],[-61.732764,16.183936],[-61.732324,16.185493],[-61.728383,16.186592],[-61.726268,16.189327],[-61.730328,16.193801],[-61.729638,16.196728],[-61.732678,16.201285],[-61.731703,16.204442],[-61.730219,16.204993],[-61.729188,16.207631],[-61.729279,16.211258],[-61.733014,16.21215],[-61.731452,16.215848],[-61.729182,16.217308],[-61.726123,16.21797],[-61.724143,16.220528],[-61.724776,16.224758],[-61.723034,16.229289],[-61.72532,16.230766],[-61.726161,16.233416],[-61.728472,16.235412],[-61.730198,16.238604],[-61.730621,16.241129],[-61.734885,16.242939],[-61.737104,16.245491],[-61.736397,16.247596],[-61.73857,16.249441],[-61.7433,16.249382],[-61.748172,16.253257],[-61.751612,16.252755],[-61.755175,16.255998],[-61.755042,16.259836],[-61.755624,16.261479],[-61.75809,16.263146],[-61.755383,16.268039],[-61.756501,16.272753]]]},"properties":{"shapeName":"Pointe-Noire","shapeISO":"45945325B62754833680716","shapeGroup":"GLP","shapeType":"ADM4","src_shape_id":"45945325B62754833680716"}},
{"type":"Feature","geometry":{"type":"Polygon","coordinates":[[[-61.648448,16.212843],[-61.644118,16.215773],[-61.629051,16.220745],[-61.621434,16.222325],[-61.620059,16.223142],[-61.616298,16.22283],[-61.614633,16.225622],[-61.610389,16.225287],[-61.607842,16.227494],[-61.606354,16.230178],[-61.602584,16.232817],[-61.599293,16.233749],[-61.597598,16.235167],[-61.594958,16.235194],[-61.592107,16.2362],[-61.589818,16.235129],[-61.58802,16.235928],[-61.583516,16.23454],[-61.580291,16.237096],[-61.577778,16.235174],[-61.57454,16.23443],[-61.572389,16.236089],[-61.56749,16.236192],[-61.566401,16.233477],[-61.563007,16.233124],[-61.561635,16.235047],[-61.559126,16.23523],[-61.556067,16.23277],[-61.552985,16.225685],[-61.551727,16.224205],[-61.547818,16.223259],[-61.543756,16.224405],[-61.546863,16.227842],[-61.541759,16.231413],[-61.544157,16.233225],[-61.548635,16.232164],[-61.550805,16.234915],[-61.550265,16.238793],[-61.550977,16.239613],[-61.548546,16.242512],[-61.551073,16.246226],[-61.55327,16.250578],[-61.550275,16.25261],[-61.547497,16.25637],[-61.547567,16.259012],[-61.548702,16.260521],[-61.547891,16.263377],[-61.548246,16.267161],[-61.549081,16.268905],[-61.548485,16.270991],[-61.549649,16.272102],[-61.549708,16.277574],[-61.551094,16.278399],[-61.554113,16.277822],[-61.555484,16.27436],[-61.557984,16.27615],[-61.560804,16.276183],[-61.559853,16.2805],[-61.556646,16.279641],[-61.554853,16.27755],[-61.552853,16.28044],[-61.55525,16.284861],[-61.558997,16.286611],[-61.562256,16.284804],[-61.564941,16.286657],[-61.567168,16.284828],[-61.569774,16.283826],[-61.571019,16.281838],[-61.57482,16.282367],[-61.575613,16.284972],[-61.577761,16.283842],[-61.579164,16.28165],[-61.579692,16.278246],[-61.583738,16.274281],[-61.584297,16.270212],[-61.587267,16.269307],[-61.590949,16.26684],[-61.595158,16.266],[-61.597897,16.266109],[-61.600647,16.268855],[-61.600915,16.271087],[-61.597956,16.272815],[-61.597045,16.274877],[-61.599871,16.278971],[-61.602396,16.274653],[-61.60229,16.273086],[-61.605046,16.271881],[-61.60746,16.268377],[-61.613527,16.267618],[-61.615225,16.269803],[-61.612255,16.274285],[-61.611641,16.278705],[-61.614933,16.278633],[-61.618024,16.277299],[-61.623181,16.276144],[-61.626479,16.272752],[-61.626283,16.268926],[-61.627539,16.265155],[-61.629317,16.263596],[-61.630616,16.260711],[-61.630321,16.256752],[-61.628342,16.252944],[-61.633048,16.245089],[-61.633267,16.241692],[-61.640113,16.235784],[-61.640751,16.231676],[-61.642812,16.22942],[-61.639596,16.227083],[-61.639681,16.223798],[-61.646614,16.218443],[-61.646931,16.214936],[-61.648448,16.212843]]]},"properties":{"shapeName":"Baie-Mahault","shapeISO":"45945325B2435126936404","shapeGroup":"GLP","shapeType":"ADM4","src_shape_id":"45945325B2435126936404"}},
{"type":"Feature","geometry":{"type":"Polygon","coordinates":[[[-61.429727,16.342793],[-61.426971,16.344418],[-61.42352,16.345591],[-61.424165,16.35443],[-61.417553,16.356416],[-61.419868,16.363423],[-61.41632,16.364484],[-61.418692,16.367178],[-61.419676,16.367004],[-61.421239,16.371517],[-61.412739,16.374371],[-61.417836,16.389608],[-61.416256,16.390611],[-61.408883,16.392878],[-61.405313,16.393329],[-61.405651,16.39546],[-61.40391,16.398132],[-61.404808,16.400449],[-61.404762,16.403778],[-61.405581,16.407183],[-61.40218,16.407975],[-61.400485,16.411984],[-61.402466,16.415437],[-61.398671,16.418007],[-61.398296,16.424296],[-61.399386,16.426575],[-61.39841,16.428217],[-61.398782,16.430999],[-61.400163,16.434307],[-61.401904,16.442621],[-61.403078,16.442887],[-61.403923,16.446011],[-61.409885,16.442859],[-61.4132,16.442341],[-61.413426,16.44075],[-61.411227,16.439238],[-61.412131,16.431424],[-61.413861,16.427317],[-61.421189,16.427519],[-61.42156,16.419909],[-61.425397,16.419161],[-61.427037,16.42088],[-61.429824,16.421634],[-61.432291,16.421233],[-61.432809,16.433096],[-61.431121,16.433965],[-61.431862,16.439008],[-61.434505,16.43897],[-61.438202,16.438537],[-61.437103,16.431922],[-61.446125,16.430236],[-61.446944,16.428657],[-61.451624,16.429034],[-61.451183,16.425695],[-61.454263,16.425666],[-61.458619,16.4111],[-61.458887,16.408405],[-61.47147,16.406839],[-61.471906,16.409504],[-61.4774,16.40974],[-61.478972,16.410868],[-61.481003,16.409845],[-61.481967,16.412428],[-61.493278,16.412415],[-61.495276,16.410848],[-61.494729,16.408498],[-61.497011,16.407096],[-61.4978,16.404333],[-61.501508,16.403139],[-61.5028,16.39998],[-61.50149,16.3982],[-61.502653,16.395222],[-61.50556,16.394073],[-61.508498,16.394967],[-61.511152,16.391385],[-61.51069,16.389614],[-61.507493,16.389416],[-61.506653,16.389552],[-61.503478,16.385571],[-61.499538,16.383484],[-61.495159,16.376662],[-61.496381,16.3752],[-61.497107,16.371894],[-61.495796,16.369546],[-61.496697,16.367293],[-61.501373,16.364323],[-61.495885,16.360634],[-61.49754,16.357281],[-61.499534,16.355329],[-61.49094,16.353644],[-61.483269,16.353324],[-61.481928,16.352012],[-61.477845,16.351299],[-61.464483,16.355963],[-61.461454,16.357373],[-61.458179,16.356348],[-61.446538,16.35781],[-61.445689,16.349612],[-61.440884,16.350315],[-61.440073,16.345932],[-61.437362,16.338398],[-61.43109,16.340234],[-61.431746,16.34262],[-61.429727,16.342793]]]},"properties":{"shapeName":"Petit-Canal","shapeISO":"45945325B74892526941016","shapeGroup":"GLP","shapeType":"ADM4","src_shape_id":"45945325B74892526941016"}},
{"type":"Feature","geometry":{"type":"Polygon","coordinates":[[[-61.26424,15.924232],[-61.259833,15.922664],[-61.256515,15.919639],[-61.252972,15.918813],[-61.250441,15.917512],[-61.250541,15.915854],[-61.25262,15.913263],[-61.252053,15.909719],[-61.254919,15.904143],[-61.25676,15.898993],[-61.248544,15.896275],[-61.252375,15.88575],[-61.255723,15.883213],[-61.258489,15.879891],[-61.257269,15.879156],[-61.258953,15.875256],[-61.259509,15.87118],[-61.250376,15.871958],[-61.244214,15.874667],[-61.24251,15.874389],[-61.238819,15.877907],[-61.233327,15.880083],[-61.232523,15.881807],[-61.227589,15.884343],[-61.226108,15.886271],[-61.221755,15.888393],[-61.220935,15.891502],[-61.217758,15.895209],[-61.213861,15.896324],[-61.210404,15.899301],[-61.204363,15.901212],[-61.2027,15.903232],[-61.20131,15.9081],[-61.197728,15.915634],[-61.196055,15.921437],[-61.196939,15.927115],[-61.195457,15.928453],[-61.195432,15.930666],[-61.197298,15.934764],[-61.198514,15.939932],[-61.20078,15.94539],[-61.203674,15.948045],[-61.205338,15.950853],[-61.209697,15.954277],[-61.213175,15.956099],[-61.218123,15.957614],[-61.217796,15.959043],[-61.219215,15.962137],[-61.224604,15.964516],[-61.229956,15.961408],[-61.231056,15.957854],[-61.236884,15.958928],[-61.238859,15.952134],[-61.244983,15.951461],[-61.246229,15.947811],[-61.255201,15.947206],[-61.257082,15.945938],[-61.257116,15.942961],[-61.255363,15.940113],[-61.25684,15.939368],[-61.258135,15.936777],[-61.260324,15.935768],[-61.260445,15.931529],[-61.259916,15.928534],[-61.260994,15.92572],[-61.26424,15.924232]]]},"properties":{"shapeName":"Capesterre-de-Marie-Galante","shapeISO":"45945325B74016608888498","shapeGroup":"GLP","shapeType":"ADM4","src_shape_id":"45945325B74016608888498"}},
{"type":"Feature","geometry":{"type":"Polygon","coordinates":[[[-61.323188,15.949521],[-61.33586,15.942553],[-61.337148,15.941413],[-61.336289,15.936048],[-61.333534,15.921862],[-61.333562,15.91977],[-61.332411,15.914714],[-61.329261,15.904822],[-61.331612,15.900342],[-61.329854,15.896975],[-61.327102,15.895352],[-61.325757,15.891126],[-61.323532,15.887429],[-61.314943,15.880319],[-61.309776,15.879639],[-61.306204,15.877875],[-61.303472,15.875241],[-61.299048,15.874411],[-61.295777,15.873041],[-61.292822,15.872956],[-61.291324,15.871371],[-61.282481,15.869832],[-61.28088,15.867195],[-61.276231,15.866953],[-61.272718,15.867836],[-61.26887,15.867404],[-61.264828,15.868882],[-61.263571,15.87083],[-61.259509,15.87118],[-61.258953,15.875256],[-61.257269,15.879156],[-61.258489,15.879891],[-61.255723,15.883213],[-61.252375,15.88575],[-61.248544,15.896275],[-61.25676,15.898993],[-61.254919,15.904143],[-61.252053,15.909719],[-61.25262,15.913263],[-61.250541,15.915854],[-61.250441,15.917512],[-61.252972,15.918813],[-61.256515,15.919639],[-61.259833,15.922664],[-61.26424,15.924232],[-61.266517,15.923582],[-61.267648,15.92579],[-61.272824,15.924332],[-61.27278,15.92579],[-61.277176,15.927744],[-61.277401,15.932734],[-61.280063,15.932968],[-61.282615,15.934553],[-61.284603,15.933968],[-61.286043,15.935446],[-61.288812,15.934659],[-61.290941,15.935598],[-61.293796,15.933127],[-61.299569,15.935617],[-61.301222,15.935624],[-61.30083,15.938586],[-61.307611,15.938505],[-61.313265,15.93919],[-61.31541,15.944235],[-61.317382,15.946744],[-61.319111,15.946944],[-61.320128,15.950581],[-61.323188,15.949521]]]},"properties":{"shapeName":"Grand-Bourg","shapeISO":"45945325B47736909954361","shapeGroup":"GLP","shapeType":"ADM4","src_shape_id":"45945325B47736909954361"}},
{"type":"Feature","geometry":{"type":"Polygon","coordinates":[[[-61.56907,16.110922],[-61.570433,16.114266],[-61.570509,16.116979],[-61.569566,16.121585],[-61.568596,16.123146],[-61.563652,16.126008],[-61.560785,16.128429],[-61.560414,16.130535],[-61.562864,16.13466],[-61.567508,16.13519],[-61.573864,16.137401],[-61.576174,16.142396],[-61.577915,16.143044],[-61.576276,16.146163],[-61.575121,16.152024],[-61.576473,16.153584],[-61.580463,16.154319],[-61.581683,16.155208],[-61.582038,16.161078],[-61.583052,16.161796],[-61.585018,16.162456],[-61.588574,16.160551],[-61.590756,16.162533],[-61.596137,16.160004],[-61.597532,16.161415],[-61.600781,16.159821],[-61.604342,16.160579],[-61.607128,16.158454],[-61.609263,16.158113],[-61.611577,16.156085],[-61.614507,16.15635],[-61.616271,16.153688],[-61.619453,16.153382],[-61.622617,16.150195],[-61.626033,16.149481],[-61.628255,16.147658],[-61.632536,16.145753],[-61.636125,16.142706],[-61.635979,16.139986],[-61.638222,16.138894],[-61.639363,16.136279],[-61.643524,16.134809],[-61.650015,16.133193],[-61.65096,16.131635],[-61.654952,16.128994],[-61.657177,16.12485],[-61.657007,16.121794],[-61.658073,16.118978],[-61.65998,16.117533],[-61.663282,16.112584],[-61.666209,16.109661],[-61.668351,16.10393],[-61.669638,16.102714],[-61.66651,16.100214],[-61.663504,16.094567],[-61.6586,16.093949],[-61.65366,16.091794],[-61.65062,16.092046],[-61.647963,16.090854],[-61.640851,16.092029],[-61.636988,16.089564],[-61.634201,16.086925],[-61.630702,16.085954],[-61.626631,16.086651],[-61.625238,16.085331],[-61.621604,16.083636],[-61.619542,16.084391],[-61.617746,16.087317],[-61.611692,16.090757],[-61.60734,16.091542],[-61.603853,16.093458],[-61.602709,16.095008],[-61.600312,16.095173],[-61.589837,16.097571],[-61.587288,16.102049],[-61.585212,16.102219],[-61.581759,16.105068],[-61.579764,16.105613],[-61.578666,16.107549],[-61.574175,16.107754],[-61.572193,16.110181],[-61.56907,16.110922]]]},"properties":{"shapeName":"Goyave","shapeISO":"45945325B61969548015242","shapeGroup":"GLP","shapeType":"ADM4","src_shape_id":"45945325B61969548015242"}},
{"type":"Feature","geometry":{"type":"Polygon","coordinates":[[[-61.403923,16.446011],[-61.406815,16.446182],[-61.407639,16.447471],[-61.406341,16.451336],[-61.407549,16.453125],[-61.40796,16.456545],[-61.409322,16.458046],[-61.408669,16.46024],[-61.410978,16.460544],[-61.409699,16.46503],[-61.411362,16.46946],[-61.413872,16.469341],[-61.41549,16.472033],[-61.418098,16.471326],[-61.41866,16.47409],[-61.421046,16.475413],[-61.42478,16.476155],[-61.429577,16.482175],[-61.433567,16.484054],[-61.433874,16.48684],[-61.438739,16.48919],[-61.438981,16.49057],[-61.442878,16.490277],[-61.442935,16.495038],[-61.443842,16.497556],[-61.443545,16.500165],[-61.447559,16.499681],[-61.452194,16.497447],[-61.454045,16.49973],[-61.457424,16.498602],[-61.45984,16.50128],[-61.461729,16.499437],[-61.463627,16.502651],[-61.463655,16.504875],[-61.466451,16.507933],[-61.465093,16.50982],[-61.466072,16.510988],[-61.47154,16.510177],[-61.473002,16.51048],[-61.474935,16.508392],[-61.475238,16.505714],[-61.477933,16.504845],[-61.478383,16.502642],[-61.480159,16.499379],[-61.47969,16.497919],[-61.481974,16.495649],[-61.485005,16.49426],[-61.486229,16.491293],[-61.488832,16.489985],[-61.492722,16.48952],[-61.495289,16.486681],[-61.500385,16.484234],[-61.504045,16.484083],[-61.507266,16.473763],[-61.512211,16.471615],[-61.517148,16.471133],[-61.521932,16.466618],[-61.523373,16.463141],[-61.525934,16.461529],[-61.528652,16.46126],[-61.535282,16.455081],[-61.535628,16.452928],[-61.516698,16.455217],[-61.516439,16.453369],[-61.514568,16.451171],[-61.511235,16.451991],[-61.510314,16.448359],[-61.506918,16.448122],[-61.502856,16.445515],[-61.500531,16.447338],[-61.497152,16.448217],[-61.496485,16.445076],[-61.493966,16.444638],[-61.492976,16.43948],[-61.488528,16.438923],[-61.479869,16.439892],[-61.474624,16.438525],[-61.474856,16.441378],[-61.471844,16.441708],[-61.472201,16.443622],[-61.466723,16.44495],[-61.466686,16.44733],[-61.462593,16.447905],[-61.462314,16.444685],[-61.453127,16.445883],[-61.453816,16.450215],[-61.445424,16.451269],[-61.443673,16.44009],[-61.434715,16.441216],[-61.434505,16.43897],[-61.431862,16.439008],[-61.431121,16.433965],[-61.432809,16.433096],[-61.432291,16.421233],[-61.429824,16.421634],[-61.427037,16.42088],[-61.425397,16.419161],[-61.42156,16.419909],[-61.421189,16.427519],[-61.413861,16.427317],[-61.412131,16.431424],[-61.411227,16.439238],[-61.413426,16.44075],[-61.4132,16.442341],[-61.409885,16.442859],[-61.403923,16.446011]]]},"properties":{"shapeName":"Anse-Bertrand","shapeISO":"45945325B69195685482641","shapeGroup":"GLP","shapeType":"ADM4","src_shape_id":"45945325B69195685482641"}},
{"type":"Feature","geometry":{"type":"Polygon","coordinates":[[[-61.712486,15.996606],[-61.71856,16.001472],[-61.722459,16.003696],[-61.72401,16.003603],[-61.729138,16.008705],[-61.730639,16.011663],[-61.736865,16.010992],[-61.73826,16.010039],[-61.742175,16.011199],[-61.745356,16.010584],[-61.743551,16.006052],[-61.738641,16.002561],[-61.733647,15.997724],[-61.730733,15.992816],[-61.726285,15.988362],[-61.722941,15.98566],[-61.721121,15.98919],[-61.719084,15.989602],[-61.717438,15.992759],[-61.714705,15.993324],[-61.714357,15.995489],[-61.712486,15.996606]]]},"properties":{"shapeName":"Basse-Terre","shapeISO":"45945325B36877944825297","shapeGroup":"GLP","shapeType":"ADM4","src_shape_id":"45945325B36877944825297"}},
{"type":"Feature","geometry":{"type":"MultiPolygon","coordinates":[[[[-61.441601,16.287593],[-61.437934,16.286303],[-61.4368,16.281928],[-61.437405,16.280362],[-61.433981,16.280942],[-61.430604,16.278145],[-61.428953,16.279109],[-61.422127,16.278689],[-61.421811,16.280456],[-61.415882,16.282323],[-61.414894,16.283269],[-61.406153,16.284725],[-61.40329,16.286718],[-61.395787,16.288743],[-61.395241,16.286995],[-61.390728,16.288097],[-61.390936,16.290992],[-61.386212,16.292277],[-61.385865,16.290408],[-61.373334,16.29437],[-61.371028,16.295487],[-61.37217,16.298451],[-61.37029,16.300111],[-61.368552,16.300158],[-61.364739,16.302776],[-61.359185,16.30283],[-61.356385,16.296328],[-61.363634,16.296042],[-61.361269,16.287846],[-61.359284,16.287376],[-61.345365,16.287541],[-61.337668,16.290345],[-61.336057,16.286084],[-61.334667,16.285858],[-61.33267,16.287716],[-61.329403,16.288082],[-61.319105,16.291909],[-61.321205,16.295196],[-61.319644,16.297481],[-61.321118,16.300092],[-61.318456,16.300323],[-61.311758,16.298526],[-61.31099,16.302677],[-61.30823,16.301812],[-61.307324,16.306707],[-61.297318,16.303319],[-61.294505,16.301411],[-61.293569,16.304739],[-61.289985,16.30311],[-61.281533,16.3016],[-61.280017,16.311147],[-61.27796,16.316509],[-61.279007,16.317414],[-61.282077,16.316589],[-61.282436,16.319132],[-61.285902,16.321576],[-61.28757,16.322015],[-61.289543,16.320669],[-61.29407,16.321946],[-61.297862,16.324191],[-61.296963,16.327334],[-61.299754,16.327779],[-61.302008,16.325385],[-61.305581,16.325456],[-61.307307,16.327686],[-61.308892,16.328103],[-61.309938,16.330729],[-61.313043,16.331703],[-61.317165,16.329807],[-61.322416,16.330663],[-61.325808,16.332515],[-61.334238,16.333702],[-61.340348,16.332983],[-61.340658,16.329934],[-61.343019,16.332186],[-61.344966,16.332768],[-61.345495,16.335104],[-61.34819,16.335776],[-61.351643,16.33354],[-61.353134,16.333479],[-61.357564,16.33541],[-61.361715,16.336018],[-61.364381,16.334882],[-61.367743,16.334834],[-61.368621,16.335998],[-61.367883,16.338681],[-61.369932,16.339579],[-61.375594,16.340803],[-61.381171,16.345775],[-61.382037,16.348559],[-61.386081,16.35158],[-61.390914,16.359298],[-61.39257,16.360076],[-61.393254,16.363633],[-61.397429,16.367457],[-61.398712,16.370149],[-61.401889,16.374882],[-61.403121,16.378503],[-61.403241,16.381941],[-61.405826,16.384744],[-61.405993,16.38726],[-61.405313,16.393329],[-61.408883,16.392878],[-61.416256,16.390611],[-61.417836,16.389608],[-61.412739,16.374371],[-61.421239,16.371517],[-61.419676,16.367004],[-61.418692,16.367178],[-61.41632,16.364484],[-61.419868,16.363423],[-61.417553,16.356416],[-61.424165,16.35443],[-61.42352,16.345591],[-61.426971,16.344418],[-61.429727,16.342793],[-61.427023,16.340337],[-61.424685,16.339347],[-61.422039,16.330934],[-61.419609,16.329185],[-61.415722,16.32901],[-61.414934,16.33001],[-61.411006,16.330649],[-61.407298,16.332075],[-61.406117,16.32939],[-61.40366,16.329973],[-61.405788,16.325888],[-61.404151,16.319216],[-61.40191,16.318612],[-61.401221,16.315986],[-61.400611,16.309171],[-61.41156,16.305581],[-61.421644,16.302539],[-61.423493,16.305354],[-61.425448,16.306724],[-61.427945,16.310358],[-61.429767,16.309868],[-61.430653,16.306596],[-61.433524,16.303124],[-61.433453,16.300232],[-61.435979,16.299053],[-61.435446,16.296722],[-61.438166,16.295929],[-61.440236,16.294278],[-61.439376,16.291867],[-61.442087,16.291258],[-61.441601,16.287593]]],[[[-61.366952,16.336831],[-61.364688,16.335017],[-61.363691,16.336997],[-61.366952,16.336831]]]]},"properties":{"shapeName":"Le Moule","shapeISO":"45945325B59001493068327","shapeGroup":"GLP","shapeType":"ADM4","src_shape_id":"45945325B59001493068327"}},
{"type":"Feature","geometry":{"type":"Polygon","coordinates":[[[-61.683992,15.972693],[-61.68657,15.974925],[-61.690091,15.973882],[-61.691054,15.971333],[-61.696064,15.970236],[-61.698172,15.971255],[-61.703019,15.969222],[-61.707365,15.969022],[-61.710028,15.970579],[-61.708412,15.96466],[-61.708026,15.961203],[-61.709171,15.95896],[-61.709452,15.95525],[-61.707441,15.951761],[-61.707646,15.948417],[-61.705052,15.949441],[-61.700101,15.946569],[-61.696715,15.94669],[-61.69564,15.94803],[-61.691057,15.949219],[-61.685395,15.949629],[-61.680232,15.950533],[-61.679084,15.951824],[-61.675696,15.952946],[-61.677038,15.952861],[-61.679007,15.956508],[-61.681426,15.95916],[-61.683418,15.965166],[-61.684402,15.966168],[-61.682745,15.970753],[-61.683992,15.972693]]]},"properties":{"shapeName":"Vieux-Fort","shapeISO":"45945325B30328780688309","shapeGroup":"GLP","shapeType":"ADM4","src_shape_id":"45945325B30328780688309"}},
{"type":"Feature","geometry":{"type":"Polygon","coordinates":[[[-61.669638,16.102714],[-61.668351,16.10393],[-61.666209,16.109661],[-61.663282,16.112584],[-61.65998,16.117533],[-61.658073,16.118978],[-61.657007,16.121794],[-61.657177,16.12485],[-61.654952,16.128994],[-61.65096,16.131635],[-61.650015,16.133193],[-61.643524,16.134809],[-61.639363,16.136279],[-61.638222,16.138894],[-61.635979,16.139986],[-61.636125,16.142706],[-61.632536,16.145753],[-61.628255,16.147658],[-61.626033,16.149481],[-61.622617,16.150195],[-61.619453,16.153382],[-61.616271,16.153688],[-61.614507,16.15635],[-61.611577,16.156085],[-61.609263,16.158113],[-61.607128,16.158454],[-61.604342,16.160579],[-61.600781,16.159821],[-61.597532,16.161415],[-61.596137,16.160004],[-61.590756,16.162533],[-61.588574,16.160551],[-61.585018,16.162456],[-61.583052,16.161796],[-61.584461,16.163997],[-61.585184,16.16765],[-61.583702,16.170978],[-61.579601,16.173514],[-61.580518,16.176397],[-61.579999,16.178526],[-61.581238,16.179473],[-61.585644,16.180131],[-61.586432,16.182937],[-61.589145,16.186154],[-61.5904,16.192119],[-61.589033,16.197659],[-61.584947,16.201638],[-61.583217,16.20428],[-61.583561,16.205384],[-61.586868,16.207782],[-61.587563,16.211199],[-61.585619,16.214334],[-61.58831,16.217259],[-61.587795,16.221946],[-61.585891,16.226686],[-61.583516,16.23454],[-61.58802,16.235928],[-61.589818,16.235129],[-61.592107,16.2362],[-61.594958,16.235194],[-61.597598,16.235167],[-61.599293,16.233749],[-61.602584,16.232817],[-61.606354,16.230178],[-61.607842,16.227494],[-61.610389,16.225287],[-61.614633,16.225622],[-61.616298,16.22283],[-61.620059,16.223142],[-61.621434,16.222325],[-61.629051,16.220745],[-61.644118,16.215773],[-61.648448,16.212843],[-61.649362,16.212007],[-61.657529,16.211478],[-61.658256,16.208682],[-61.66185,16.208573],[-61.667377,16.206732],[-61.668714,16.201114],[-61.67554,16.201128],[-61.678321,16.202529],[-61.683787,16.201602],[-61.687134,16.201719],[-61.690196,16.202982],[-61.692101,16.201808],[-61.699107,16.198787],[-61.701374,16.194688],[-61.702691,16.19428],[-61.705821,16.191121],[-61.710279,16.190932],[-61.715233,16.192455],[-61.719672,16.191915],[-61.723251,16.189808],[-61.726268,16.189327],[-61.728383,16.186592],[-61.732324,16.185493],[-61.732764,16.183936],[-61.736463,16.18069],[-61.735481,16.177119],[-61.73192,16.170816],[-61.731352,16.167746],[-61.729729,16.164378],[-61.73049,16.160647],[-61.7293,16.158562],[-61.7302,16.154161],[-61.728812,16.15116],[-61.724745,16.148633],[-61.724781,16.144257],[-61.723564,16.139597],[-61.724108,16.135251],[-61.716591,16.133258],[-61.715368,16.130038],[-61.716682,16.1269],[-61.714835,16.12392],[-61.714144,16.120113],[-61.710363,16.116936],[-61.706519,16.11873],[-61.699794,16.120252],[-61.695038,16.115699],[-61.691828,16.11619],[-61.689547,16.114884],[-61.685893,16.116081],[-61.679631,16.114612],[-61.677361,16.111758],[-61.673376,16.11036],[-61.671362,16.107902],[-61.671467,16.106233],[-61.669638,16.102714]]]},"properties":{"shapeName":"Petit-Bourg","shapeISO":"45945325B98680665696965","shapeGroup":"GLP","shapeType":"ADM4","src_shape_id":"45945325B98680665696965"}},
{"type":"Feature","geometry":{"type":"Polygon","coordinates":[[[-61.434505,16.43897],[-61.434715,16.441216],[-61.443673,16.44009],[-61.445424,16.451269],[-61.453816,16.450215],[-61.453127,16.445883],[-61.462314,16.444685],[-61.462593,16.447905],[-61.466686,16.44733],[-61.466723,16.44495],[-61.472201,16.443622],[-61.471844,16.441708],[-61.474856,16.441378],[-61.474624,16.438525],[-61.479869,16.439892],[-61.488528,16.438923],[-61.492976,16.43948],[-61.493966,16.444638],[-61.496485,16.445076],[-61.497152,16.448217],[-61.500531,16.447338],[-61.502856,16.445515],[-61.506918,16.448122],[-61.510314,16.448359],[-61.511235,16.451991],[-61.514568,16.451171],[-61.516439,16.453369],[-61.516698,16.455217],[-61.535628,16.452928],[-61.535602,16.450455],[-61.537573,16.443688],[-61.540948,16.438953],[-61.538306,16.437865],[-61.537015,16.435907],[-61.537267,16.432136],[-61.536211,16.429118],[-61.533151,16.424231],[-61.534551,16.419644],[-61.533672,16.418299],[-61.533357,16.414576],[-61.529746,16.40978],[-61.529647,16.407367],[-61.528516,16.404065],[-61.528842,16.400643],[-61.527322,16.399379],[-61.526549,16.396228],[-61.523839,16.393243],[-61.520102,16.392559],[-61.515369,16.390421],[-61.511527,16.388122],[-61.50866,16.38514],[-61.507493,16.389416],[-61.51069,16.389614],[-61.511152,16.391385],[-61.508498,16.394967],[-61.50556,16.394073],[-61.502653,16.395222],[-61.50149,16.3982],[-61.5028,16.39998],[-61.501508,16.403139],[-61.4978,16.404333],[-61.497011,16.407096],[-61.494729,16.408498],[-61.495276,16.410848],[-61.493278,16.412415],[-61.481967,16.412428],[-61.481003,16.409845],[-61.478972,16.410868],[-61.4774,16.40974],[-61.471906,16.409504],[-61.47147,16.406839],[-61.458887,16.408405],[-61.458619,16.4111],[-61.454263,16.425666],[-61.451183,16.425695],[-61.451624,16.429034],[-61.446944,16.428657],[-61.446125,16.430236],[-61.437103,16.431922],[-61.438202,16.438537],[-61.434505,16.43897]]]},"properties":{"shapeName":"Port-Louis","shapeISO":"45945325B74832359483149","shapeGroup":"GLP","shapeType":"ADM4","src_shape_id":"45945325B74832359483149"}},
{"type":"Feature","geometry":{"type":"Polygon","coordinates":[[[-61.325439,16.243418],[-61.32406,16.244173],[-61.319652,16.240515],[-61.315919,16.240586],[-61.31496,16.241392],[-61.308435,16.242343],[-61.305155,16.241984],[-61.301886,16.243322],[-61.296698,16.243687],[-61.293666,16.244495],[-61.290287,16.244466],[-61.285326,16.246439],[-61.284191,16.248594],[-61.280907,16.250046],[-61.275962,16.251047],[-61.273745,16.250216],[-61.266927,16.250569],[-61.262669,16.252425],[-61.258845,16.254968],[-61.255149,16.256401],[-61.248875,16.255209],[-61.243449,16.255331],[-61.23279,16.253342],[-61.226637,16.253065],[-61.222282,16.253559],[-61.21794,16.252743],[-61.213271,16.251008],[-61.211088,16.251258],[-61.205314,16.249707],[-61.197515,16.24944],[-61.192099,16.250218],[-61.184994,16.247156],[-61.181106,16.245062],[-61.178885,16.244806],[-61.176537,16.241633],[-61.174941,16.242669],[-61.174129,16.245753],[-61.176604,16.247121],[-61.18012,16.247683],[-61.181408,16.249463],[-61.185882,16.253485],[-61.189875,16.254902],[-61.192507,16.253484],[-61.195077,16.254419],[-61.198938,16.258115],[-61.198737,16.2555],[-61.202085,16.254186],[-61.206568,16.25536],[-61.209243,16.257916],[-61.21447,16.25903],[-61.216794,16.260261],[-61.218148,16.262799],[-61.22047,16.263987],[-61.223573,16.264069],[-61.225189,16.265171],[-61.230202,16.266617],[-61.232457,16.266795],[-61.236287,16.268716],[-61.239859,16.271904],[-61.24333,16.273791],[-61.242859,16.274808],[-61.245588,16.276642],[-61.249057,16.285091],[-61.252792,16.291033],[-61.256317,16.295132],[-61.25626,16.298246],[-61.260332,16.304757],[-61.262766,16.305816],[-61.266342,16.304878],[-61.267427,16.306298],[-61.266117,16.308666],[-61.269303,16.31119],[-61.271094,16.311377],[-61.272699,16.313694],[-61.274214,16.31295],[-61.27796,16.316509],[-61.280017,16.311147],[-61.281533,16.3016],[-61.289985,16.30311],[-61.293569,16.304739],[-61.294505,16.301411],[-61.297318,16.303319],[-61.307324,16.306707],[-61.30823,16.301812],[-61.31099,16.302677],[-61.311758,16.298526],[-61.318456,16.300323],[-61.321118,16.300092],[-61.319644,16.297481],[-61.321205,16.295196],[-61.319105,16.291909],[-61.329403,16.288082],[-61.33267,16.287716],[-61.334667,16.285858],[-61.336057,16.286084],[-61.333091,16.276853],[-61.324724,16.25219],[-61.325616,16.247562],[-61.327053,16.245767],[-61.325439,16.243418]]]},"properties":{"shapeName":"Saint-François","shapeISO":"45945325B48306038355391","shapeGroup":"GLP","shapeType":"ADM4","src_shape_id":"45945325B48306038355391"}},
{"type":"Feature","geometry":{"type":"MultiPolygon","coordinates":[[[[-61.585136,15.834254],[-61.584807,15.835644],[-61.587222,15.839392],[-61.591557,15.843043],[-61.592853,15.840307],[-61.595428,15.838683],[-61.596671,15.836326],[-61.596108,15.834993],[-61.592939,15.835228],[-61.589893,15.833519],[-61.584754,15.832834],[-61.585136,15.834254]]],[[[-61.568364,15.87865],[-61.571666,15.881206],[-61.573719,15.883932],[-61.575869,15.874728],[-61.578494,15.874983],[-61.579903,15.876363],[-61.579232,15.878265],[-61.582032,15.880129],[-61.582402,15.877642],[-61.584864,15.876161],[-61.585307,15.874565],[-61.583328,15.872839],[-61.582192,15.869218],[-61.584625,15.864277],[-61.587783,15.864476],[-61.598759,15.863497],[-61.600968,15.859597],[-61.603995,15.85979],[-61.601479,15.855946],[-61.597501,15.853303],[-61.593843,15.853157],[-61.591187,15.853823],[-61.589689,15.855865],[-61.589119,15.858752],[-61.587386,15.858846],[-61.586243,15.85697],[-61.579263,15.8575],[-61.577521,15.856175],[-61.576181,15.858206],[-61.57885,15.860195],[-61.57857,15.862385],[-61.576646,15.866809],[-61.575477,15.867683],[-61.572114,15.867428],[-61.57153,15.869129],[-61.568982,15.869937],[-61.569345,15.871439],[-61.571703,15.873253],[-61.569251,15.87552],[-61.570113,15.876681],[-61.568364,15.87865]]],[[[-61.593613,15.871945],[-61.591074,15.875843],[-61.591647,15.877844],[-61.596269,15.877741],[-61.597703,15.877036],[-61.599655,15.878397],[-61.601121,15.876388],[-61.597141,15.875176],[-61.595018,15.872173],[-61.593613,15.871945]]]]},"properties":{"shapeName":"Terre-de-Haut","shapeISO":"45945325B91298320499237","shapeGroup":"GLP","shapeType":"ADM4","src_shape_id":"45945325B91298320499237"}},
{"type":"Feature","geometry":{"type":"Polygon","coordinates":[[[-61.530525,16.217793],[-61.528753,16.217088],[-61.522151,16.212733],[-61.518732,16.215198],[-61.515199,16.214777],[-61.511813,16.216546],[-61.509679,16.215733],[-61.507422,16.212159],[-61.508324,16.206979],[-61.507655,16.206198],[-61.50359,16.206228],[-61.500974,16.205255],[-61.497349,16.205366],[-61.493097,16.204425],[-61.485892,16.20502],[-61.481339,16.201974],[-61.476776,16.201806],[-61.470033,16.199311],[-61.467381,16.198846],[-61.464014,16.196613],[-61.461296,16.198359],[-61.460295,16.200579],[-61.456266,16.202161],[-61.455044,16.200281],[-61.450003,16.200574],[-61.442836,16.203984],[-61.442376,16.207424],[-61.438172,16.208967],[-61.432527,16.209423],[-61.429922,16.21045],[-61.42716,16.210618],[-61.424468,16.209207],[-61.419362,16.210124],[-61.4241,16.22339],[-61.425986,16.227381],[-61.428411,16.228834],[-61.432061,16.239942],[-61.43666,16.243953],[-61.438835,16.246816],[-61.441555,16.245977],[-61.442842,16.248833],[-61.444951,16.248307],[-61.449407,16.252722],[-61.449345,16.254799],[-61.454289,16.256809],[-61.455126,16.258029],[-61.456721,16.25804],[-61.462587,16.253565],[-61.465298,16.254101],[-61.468449,16.253193],[-61.469691,16.251489],[-61.472862,16.252025],[-61.474494,16.250968],[-61.477181,16.250946],[-61.478239,16.248607],[-61.481586,16.246536],[-61.484168,16.247055],[-61.487278,16.246618],[-61.490666,16.241938],[-61.494935,16.241177],[-61.497842,16.239936],[-61.501624,16.239406],[-61.501942,16.236658],[-61.505521,16.235759],[-61.508355,16.23839],[-61.512544,16.236688],[-61.513292,16.232715],[-61.517631,16.231264],[-61.517145,16.228785],[-61.519242,16.225272],[-61.525526,16.22332],[-61.52669,16.222134],[-61.527228,16.219245],[-61.523038,16.218983],[-61.524173,16.217138],[-61.527952,16.218195],[-61.530525,16.217793]]]},"properties":{"shapeName":"Le Gosier","shapeISO":"45945325B5491972235379","shapeGroup":"GLP","shapeType":"ADM4","src_shape_id":"45945325B5491972235379"}},
{"type":"Feature","geometry":{"type":"Polygon","coordinates":[[[-61.525526,16.22332],[-61.519242,16.225272],[-61.517145,16.228785],[-61.517631,16.231264],[-61.513292,16.232715],[-61.512544,16.236688],[-61.508355,16.23839],[-61.505521,16.235759],[-61.501942,16.236658],[-61.501624,16.239406],[-61.497842,16.239936],[-61.494935,16.241177],[-61.490666,16.241938],[-61.487278,16.246618],[-61.484168,16.247055],[-61.481586,16.246536],[-61.478239,16.248607],[-61.477181,16.250946],[-61.474494,16.250968],[-61.472862,16.252025],[-61.469691,16.251489],[-61.468449,16.253193],[-61.465298,16.254101],[-61.462587,16.253565],[-61.456721,16.25804],[-61.455126,16.258029],[-61.453643,16.257967],[-61.452348,16.261456],[-61.448518,16.262868],[-61.444963,16.261405],[-61.444764,16.265831],[-61.445734,16.26837],[-61.443906,16.268977],[-61.444985,16.273072],[-61.446472,16.272588],[-61.446201,16.276582],[-61.445118,16.279347],[-61.442393,16.2801],[-61.44051,16.278277],[-61.437405,16.280362],[-61.4368,16.281928],[-61.437934,16.286303],[-61.441601,16.287593],[-61.442907,16.285571],[-61.446323,16.28453],[-61.447784,16.287079],[-61.452158,16.287928],[-61.453677,16.289585],[-61.455905,16.28991],[-61.457129,16.29132],[-61.456667,16.293951],[-61.460629,16.296493],[-61.461787,16.30019],[-61.465747,16.302288],[-61.468548,16.299856],[-61.472615,16.300292],[-61.474612,16.302205],[-61.476825,16.300458],[-61.477886,16.302454],[-61.476143,16.303888],[-61.477411,16.305332],[-61.482446,16.303694],[-61.483588,16.302047],[-61.486681,16.30122],[-61.4893,16.30205],[-61.491149,16.303813],[-61.496406,16.304068],[-61.498994,16.305872],[-61.502965,16.30582],[-61.504218,16.300419],[-61.511338,16.300768],[-61.511704,16.303793],[-61.514352,16.304116],[-61.517172,16.303384],[-61.517741,16.304907],[-61.523557,16.307585],[-61.525875,16.310221],[-61.530783,16.311348],[-61.533771,16.311545],[-61.534555,16.312558],[-61.536863,16.31103],[-61.537622,16.307774],[-61.541248,16.30247],[-61.543684,16.300867],[-61.547005,16.301243],[-61.54709,16.298929],[-61.543999,16.295267],[-61.542482,16.29609],[-61.541465,16.293556],[-61.541157,16.289561],[-61.54203,16.28786],[-61.544138,16.291974],[-61.546245,16.292862],[-61.549956,16.289158],[-61.550564,16.284873],[-61.54787,16.279948],[-61.548683,16.27731],[-61.547931,16.275676],[-61.548819,16.272136],[-61.547468,16.270203],[-61.548348,16.268082],[-61.54662,16.267148],[-61.547567,16.264806],[-61.54728,16.260403],[-61.546593,16.25855],[-61.546613,16.25446],[-61.54898,16.253079],[-61.533646,16.246664],[-61.529071,16.23842],[-61.531308,16.230342],[-61.531572,16.228167],[-61.527825,16.226086],[-61.525526,16.22332]]]},"properties":{"shapeName":"Les Abymes","shapeISO":"45945325B26637480893996","shapeGroup":"GLP","shapeType":"ADM4","src_shape_id":"45945325B26637480893996"}},
{"type":"Feature","geometry":{"type":"Polygon","coordinates":[[[-61.680632,16.08455],[-61.683273,16.082835],[-61.684099,16.080662],[-61.683301,16.075313],[-61.685541,16.0723],[-61.685062,16.067547],[-61.686554,16.066308],[-61.691182,16.064243],[-61.692189,16.06212],[-61.697392,16.05744],[-61.698413,16.053358],[-61.702244,16.047356],[-61.709664,16.044611],[-61.711073,16.041607],[-61.710076,16.040169],[-61.711351,16.038289],[-61.713747,16.037681],[-61.713054,16.031726],[-61.714806,16.029638],[-61.714129,16.026925],[-61.715385,16.024109],[-61.715633,16.021404],[-61.718926,16.02009],[-61.720526,16.017505],[-61.728942,16.011626],[-61.730639,16.011663],[-61.729138,16.008705],[-61.72401,16.003603],[-61.722459,16.003696],[-61.71856,16.001472],[-61.712486,15.996606],[-61.70807,15.998369],[-61.703559,16.001951],[-61.701327,16.002751],[-61.697518,16.005373],[-61.693911,16.005747],[-61.689397,16.011561],[-61.687426,16.011959],[-61.684977,16.011094],[-61.68314,16.00897],[-61.681106,16.008893],[-61.67807,16.010663],[-61.676375,16.010423],[-61.673497,16.013347],[-61.670705,16.013796],[-61.669519,16.015627],[-61.666751,16.017104],[-61.66431,16.021318],[-61.662026,16.02224],[-61.660893,16.025615],[-61.661691,16.029046],[-61.663502,16.033392],[-61.662752,16.038352],[-61.659699,16.042311],[-61.663001,16.043949],[-61.660919,16.047778],[-61.663337,16.052333],[-61.662893,16.054679],[-61.663874,16.057539],[-61.671679,16.060092],[-61.673628,16.063792],[-61.675109,16.069404],[-61.674806,16.073327],[-61.674045,16.075267],[-61.679023,16.080428],[-61.680632,16.08455]]]},"properties":{"shapeName":"Saint-Claude","shapeISO":"45945325B18257045293934","shapeGroup":"GLP","shapeType":"ADM4","src_shape_id":"45945325B18257045293934"}}
]}