{"type":"FeatureCollection","bbox":[23.990955,40.116895,24.398657,40.438867],"features":[
{"type":"Feature","id":"GRC:ADM3:GR-MA.mount-anthos","properties":{"shapeName":"Mount Anthos","shapeISO":"","shapeGroup":"GRC","shapeType":"ADM3","adm1ISO":"GR-MA","parentISO":"GR-MA","parentID":"GRC:ADM1:GR-MA","src_shape_id":"53547021B80449020436996"},"geometry":{"type":"Polygon","coordinates":[[[24.011872,40.305565],[24.012637,40.305243],[24.025027,40.294022],[24.037417,40.284571],[24.047483,40.280731],[24.059099,40.283389],[24.068004,40.287524],[24.080781,40.285161],[24.090848,40.280731],[24.098204,40.277186],[24.10982,40.282799],[24.126468,40.283094],[24.151248,40.280731],[24.164025,40.277186],[24.169833,40.270687],[24.179512,40.259165],[24.187643,40.247345],[24.199646,40.236114],[24.215133,40.224291],[24.225587,40.211578],[24.231395,40.190581],[24.238364,40.189102],[24.247656,40.185849],[24.25811,40.177566],[24.269726,40.172833],[24.277082,40.169283],[24.285213,40.162182],[24.290634,40.153304],[24.294505,40.140874],[24.297603,40.131994],[24.299926,40.121928],[24.307282,40.118079],[24.316188,40.116895],[24.331288,40.118967],[24.349485,40.130218],[24.366134,40.133474],[24.373103,40.136434],[24.38317,40.137914],[24.390526,40.142354],[24.398657,40.148865],[24.396721,40.156855],[24.392462,40.166028],[24.387816,40.17727],[24.379298,40.188511],[24.373103,40.195313],[24.364585,40.20182],[24.349485,40.208029],[24.339806,40.214239],[24.329352,40.22163],[24.322382,40.22902],[24.30767,40.236706],[24.284826,40.248232],[24.281341,40.253551],[24.276308,40.263006],[24.272436,40.273346],[24.267015,40.282503],[24.261982,40.289592],[24.2554,40.297565],[24.249205,40.305833],[24.243397,40.312033],[24.238751,40.318824],[24.23062,40.320595],[24.208938,40.320595],[24.199646,40.32089],[24.18261,40.327089],[24.181835,40.332697],[24.187643,40.33919],[24.188418,40.345387],[24.1799,40.347748],[24.169058,40.350109],[24.158217,40.353354],[24.150861,40.351584],[24.141181,40.350994],[24.129179,40.35483],[24.121048,40.359845],[24.107884,40.35719],[24.096655,40.35896],[24.083878,40.35896],[24.068778,40.361615],[24.062971,40.366336],[24.059099,40.37489],[24.04245,40.389932],[24.031222,40.400252],[24.025801,40.408213],[24.022704,40.417351],[24.009539,40.436509],[23.999473,40.438867],[23.992503,40.432973],[23.990955,40.420299],[23.995214,40.41175],[24.001021,40.397598],[24.007991,40.388162],[24.013411,40.381969],[24.011178,40.377911],[24.012889,40.368681],[24.012889,40.319921],[24.011872,40.305565]]]}}
]}