{"type":"FeatureCollection","bbox":[19.6769,34.9316,28.2398,41.7458],"features":[
{"type":"Feature","id":"GRC:ADM0:GRC","properties":{"shapeName":"Greece","shapeISO":"GRC","shapeType":"ADM0"},"geometry":{"type":"MultiPolygon","coordinates":[[[[20.9653,40.8494],[20.9635,40.7361],[21.0367,40.6397],[20.9119,40.4595],[20.8267,40.4648],[20.707,40.2881],[20.6402,40.0901],[20.4328,40.0638],[20.318,39.9184],[20.2827,39.7044],[20.1413,39.5378],[20.2928,39.3334],[20.4483,39.2895],[20.4883,39.2166],[20.6865,39.0725],[20.8939,39.0772],[21.1599,38.9977],[21.0852,38.8643],[20.9754,38.9468],[20.7645,38.8918],[20.7293,38.8035],[20.8831,38.7794],[21.0247,38.6085],[21.1556,38.3039],[21.3699,38.4082],[21.5354,38.314],[21.7625,38.3284],[21.9876,38.4106],[22.3675,38.3419],[22.4631,38.4261],[22.5457,38.3026],[22.6914,38.3222],[22.895,38.2412],[23.1096,38.2101],[23.2166,38.1033],[23.0686,38.0589],[22.9429,38.0835],[22.8672,37.9395],[22.6804,38.0666],[22.3312,38.1789],[22.2266,38.1859],[21.9559,38.3367],[21.7642,38.2958],[21.603,38.1518],[21.3757,38.2043],[21.3259,38.0214],[21.1221,37.8374],[21.2953,37.7717],[21.2987,37.6726],[21.55,37.5615],[21.6748,37.396],[21.6823,37.2839],[21.5676,37.1563],[21.5993,37.0457],[21.7026,36.9573],[21.7074,36.818],[21.9451,36.7899],[21.9373,36.98],[22.1532,37.0212],[22.3706,36.6736],[22.3545,36.5119],[22.4699,36.4523],[22.5335,36.7072],[22.6226,36.8035],[22.7651,36.8042],[22.9724,36.5202],[23.0806,36.5793],[23.0256,36.7156],[23.0956,36.807],[22.9998,37.0333],[22.758,37.3983],[22.7232,37.5417],[22.9639,37.5218],[23.132,37.4486],[23.0731,37.3552],[23.4465,37.4146],[23.3743,37.5559],[23.1686,37.6142],[23.1824,37.8091],[23.0941,37.911],[23.45,38.0214],[23.6802,37.9459],[23.7645,37.816],[23.9025,37.7819],[23.9497,37.6774],[24.0721,37.6895],[24.0669,37.8644],[23.989,38.1226],[24.069,38.2047],[23.951,38.2909],[23.71,38.3367],[23.594,38.4261],[23.6013,38.4739],[23.4185,38.5043],[23.2049,38.6827],[22.7695,38.7848],[22.8465,38.9264],[23.0233,39.0085],[22.9611,39.119],[22.8262,39.2213],[22.8425,39.2885],[23.0205,39.3175],[23.1514,39.2849],[23.2136,39.1681],[23.3423,39.1926],[23.2713,39.3229],[23.1018,39.4974],[22.9251,39.5995],[22.8587,39.7733],[22.7101,39.9573],[22.5713,40.0543],[22.5525,40.1666],[22.6611,40.369],[22.6029,40.4813],[22.7109,40.5116],[22.9105,40.6446],[22.9832,40.5527],[22.8309,40.4858],[23.0291,40.3258],[23.2991,40.2354],[23.3059,40.1045],[23.3784,40.011],[23.6165,39.9233],[23.3377,40.2084],[23.3983,40.2777],[23.6755,40.2179],[23.8241,40.0219],[23.9728,39.9619],[23.9912,40.1187],[23.7786,40.2027],[23.6997,40.3264],[23.9226,40.3693],[24.169,40.2753],[24.3,40.1281],[24.3833,40.1791],[24.1869,40.3466],[23.8682,40.4135],[23.8776,40.5602],[23.6917,40.6954],[23.8093,40.7804],[24.1101,40.7279],[24.3407,40.8313],[24.4155,40.9455],[24.5667,40.9517],[24.6287,40.8586],[24.802,40.8535],[24.9898,40.9421],[25.2997,40.9519],[25.5378,40.8704],[25.9186,40.853],[26.1345,40.7671],[26.2604,40.9204],[26.3591,40.9647],[26.3317,41.2541],[26.6366,41.3785],[26.5963,41.5975],[26.2345,41.7458],[26.0481,41.6891],[26.1645,41.5177],[26.1209,41.3578],[25.882,41.304],[25.5515,41.3157],[25.2857,41.2394],[24.8864,41.4006],[24.5958,41.4298],[24.5309,41.5475],[24.2868,41.5176],[24.0473,41.5257],[23.6124,41.371],[23.2877,41.3982],[23.1152,41.3127],[22.826,41.341],[22.7513,41.3152],[22.7272,41.1658],[22.4218,41.1146],[22.1832,41.1599],[21.9091,41.0975],[21.737,40.9192],[21.5816,40.8663],[21.3813,40.9005],[21.2954,40.8609],[20.9653,40.8494]]],[[[26.3211,35.3153],[26.1551,35.1979],[26.0674,35.2333],[25.8303,35.1224],[25.7127,35.1828],[25.7664,35.3357],[25.6388,35.3459],[25.4819,35.2974],[25.376,35.3432],[25.0553,35.3552],[24.9712,35.4245],[24.721,35.4272],[24.3401,35.3483],[24.1867,35.4518],[24.183,35.5856],[24.0447,35.5277],[23.8171,35.5348],[23.5735,35.4348],[23.5182,35.3078],[23.5872,35.2395],[23.8267,35.2526],[24.0846,35.2045],[24.4021,35.1911],[24.5646,35.1061],[24.7075,35.0961],[24.7385,34.9316],[25.0974,34.9379],[25.304,34.9848],[25.6012,35.0136],[25.8081,35.0058],[25.9849,35.0391],[26.1472,35.0023],[26.241,35.039],[26.3118,35.1824],[26.3211,35.3153]]],[[[28.2398,36.4325],[28.1184,36.4277],[27.8997,36.3402],[27.7007,36.1634],[27.7571,36.0844],[27.7123,35.9527],[27.7804,35.89],[28.1305,36.1855],[28.2398,36.4325]]],[[[27.2809,36.9079],[27.0612,36.8393],[27.1299,36.7608],[27.2809,36.9079]]],[[[25.5261,37.1962],[25.3418,37.0767],[25.4476,36.9248],[25.5525,36.9689],[25.5951,37.0997],[25.5261,37.1962]]],[[[26.3622,37.6863],[26.0742,37.6379],[26.0579,37.5192],[26.2306,37.5714],[26.3622,37.6863]]],[[[27.0475,37.7272],[27.021,37.7772],[26.7718,37.8141],[26.6581,37.7928],[26.7874,37.6472],[27.0475,37.7272]]],[[[20.9014,37.7924],[20.742,37.8623],[20.7044,37.7383],[20.8151,37.6515],[20.9014,37.7924]]],[[[24.9917,37.7682],[24.9539,37.906],[24.6955,37.9246],[24.9575,37.7067],[24.9917,37.7682]]],[[[20.7336,38.0624],[20.7977,38.1313],[20.6258,38.3518],[20.3982,38.3327],[20.339,38.2002],[20.4729,38.1821],[20.7336,38.0624]]],[[[26.1636,38.5428],[25.9954,38.6042],[25.8433,38.5153],[25.989,38.3793],[25.8675,38.2597],[25.9749,38.166],[26.1636,38.3026],[26.1636,38.5428]]],[[[20.5855,38.6179],[20.7207,38.6384],[20.7178,38.8227],[20.6026,38.7817],[20.5855,38.6179]]],[[[24.5877,38.1592],[24.327,38.1859],[24.1851,38.4076],[24.2161,38.5395],[24.0731,38.6794],[23.8576,38.6825],[23.62,38.7655],[23.4507,38.8746],[23.2991,39.0425],[23.138,39.009],[22.9694,38.8891],[23.2023,38.8299],[23.6355,38.5286],[23.6385,38.4155],[24.0491,38.3945],[24.3718,37.9719],[24.5521,37.9782],[24.5877,38.1592]]],[[[26.6123,39.0493],[26.343,39.383],[25.8587,39.2592],[25.8889,39.1447],[26.1657,39.0224],[26.4242,38.9674],[26.6123,39.0493]]],[[[20.0921,39.4335],[19.9325,39.4787],[19.8587,39.6588],[19.948,39.7904],[19.8518,39.8245],[19.6769,39.7952],[19.6897,39.6741],[19.8408,39.552],[19.8656,39.4686],[19.9993,39.3994],[20.0921,39.4335]]],[[[25.4499,40.0362],[25.2871,39.9611],[25.2251,40.0089],[25.0454,39.9847],[25.0674,39.8581],[25.2953,39.8077],[25.4499,40.0362]]],[[[24.7864,40.7351],[24.6423,40.8039],[24.512,40.6668],[24.6423,40.5706],[24.7824,40.6202],[24.7864,40.7351]]]]}}
]}