{"type":"FeatureCollection","bbox":[19.6395,34.923,28.2466,41.7487],"features":[
{"type":"Feature","id":"GRC:ADM1:GR-MA","properties":{"shapeName":"Agion Oros","shapeISO":"GR-MA","shapeType":"ADM1"},"geometry":{"type":"Polygon","coordinates":[[[24.005,40.3146],[24.0397,40.2935],[24.1627,40.2798],[24.2808,40.1613],[24.3064,40.1129],[24.3948,40.1368],[24.3738,40.193],[24.289,40.2446],[24.2634,40.2906],[24.1838,40.3486],[24.011,40.3894],[24.005,40.3146]]]}},
{"type":"Feature","id":"GRC:ADM1:GR-CR","properties":{"shapeName":"Crete","shapeISO":"GR-CR","shapeType":"ADM1"},"geometry":{"type":"Polygon","coordinates":[[[23.8132,35.5353],[23.7783,35.5475],[23.7623,35.6483],[23.708,35.6065],[23.7177,35.5081],[23.6439,35.5022],[23.568,35.5276],[23.5678,35.4247],[23.534,35.3811],[23.5176,35.301],[23.576,35.2402],[23.6267,35.2324],[23.8049,35.2465],[23.9226,35.2215],[23.9936,35.2276],[24.0489,35.194],[24.1866,35.2007],[24.2841,35.175],[24.3818,35.1948],[24.4642,35.1491],[24.5264,35.1396],[24.5887,35.0973],[24.7225,35.0925],[24.7521,35.0573],[24.7548,34.923],[24.8399,34.9411],[24.9224,34.9286],[25.1031,34.9348],[25.1978,34.9467],[25.3719,34.9979],[25.5058,34.9824],[25.5956,35.0069],[25.6939,35.0141],[25.8118,35.0012],[25.9744,35.0387],[26.0959,34.9963],[26.2311,35.0374],[26.2811,35.1116],[26.2802,35.1944],[26.2544,35.2719],[26.169,35.2017],[26.1358,35.1963],[26.029,35.2301],[25.946,35.1809],[25.8964,35.1877],[25.8131,35.1096],[25.7473,35.1287],[25.7097,35.1757],[25.7287,35.3049],[25.6642,35.3481],[25.4256,35.2954],[25.3851,35.3382],[25.2303,35.3318],[25.1847,35.3456],[25.0471,35.3443],[25.0408,35.4001],[24.7877,35.4067],[24.7355,35.4253],[24.6519,35.4202],[24.5351,35.3729],[24.263,35.3626],[24.2582,35.4554],[24.1872,35.4494],[24.1489,35.4727],[24.2016,35.5382],[24.1654,35.5905],[24.0792,35.5898],[24.0851,35.5528],[23.993,35.5117],[23.8132,35.5353]]]}},
{"type":"Feature","id":"GRC:ADM1:GR-AT","properties":{"shapeName":"Attica","shapeISO":"GR-AT","shapeType":"ADM1"},"geometry":{"type":"MultiPolygon","coordinates":[[[[22.952,36.3831],[22.8921,36.3226],[22.9215,36.2916],[22.9011,36.2325],[22.9445,36.1555],[23.0509,36.1495],[23.0553,36.2199],[23.1002,36.2475],[22.9801,36.328],[22.952,36.3831]]],[[[23.576,37.3657],[23.5177,37.3706],[23.3799,37.3127],[23.4002,37.2941],[23.576,37.3657]]],[[[23.5282,37.9883],[23.4496,37.9734],[23.4065,37.892],[23.4524,37.8762],[23.5497,37.9518],[23.5282,37.9883]]],[[[23.487,37.7729],[23.4178,37.7615],[23.4786,37.6735],[23.5554,37.75],[23.487,37.7729]]],[[[23.1797,37.9516],[23.2426,37.9757],[23.3951,37.9764],[23.4512,38.0236],[23.5742,38.0453],[23.5531,37.98],[23.629,37.9281],[23.6821,37.9424],[23.7665,37.8173],[23.8699,37.7994],[23.9475,37.6687],[24.0317,37.6519],[24.0663,37.6771],[24.0529,37.7264],[24.0845,37.7961],[24.0065,37.9651],[24.0301,37.9913],[23.9814,38.1077],[24.0696,38.163],[24.0521,38.2067],[23.9576,38.2826],[23.7696,38.3383],[23.6904,38.3403],[23.6352,38.2732],[23.6274,38.1756],[23.5576,38.1385],[23.4613,38.1645],[23.4576,38.2017],[23.3744,38.2133],[23.3934,38.2635],[23.2918,38.2393],[23.2866,38.1845],[23.1262,38.1684],[23.2217,38.157],[23.2153,38.0993],[23.1175,38.0606],[23.1149,37.9845],[23.1797,37.9516]]],[[[23.4244,37.4117],[23.5207,37.4515],[23.3733,37.5514],[23.4148,37.6126],[23.3836,37.6405],[23.3102,37.6195],[23.3655,37.5509],[23.3167,37.5333],[23.2004,37.5967],[23.1765,37.5252],[23.3097,37.471],[23.4052,37.4566],[23.4244,37.4117]]]]}},
{"type":"Feature","id":"GRC:ADM1:GR-MH","properties":{"shapeName":"Macedonia-Thrace","shapeISO":"GR-MH","shapeType":"ADM1"},"geometry":{"type":"MultiPolygon","coordinates":[[[[24.6684,40.7835],[24.5985,40.7772],[24.5339,40.7143],[24.5111,40.6637],[24.6612,40.5741],[24.7465,40.6048],[24.7816,40.6851],[24.7188,40.7833],[24.6684,40.7835]]],[[[23.3749,40.1406],[23.3068,40.1019],[23.3796,40.008],[23.3826,39.9624],[23.4932,39.9614],[23.5931,39.9211],[23.6855,39.9172],[23.6678,39.9809],[23.5298,40.0176],[23.4719,40.0499],[23.4173,40.1263],[23.3749,40.1406]]],[[[25.5681,40.51],[25.5011,40.497],[25.4605,40.4576],[25.5636,40.3965],[25.6968,40.4226],[25.662,40.4881],[25.5681,40.51]]],[[[24.011,40.3894],[23.8923,40.394],[23.8383,40.4404],[23.8288,40.5164],[23.907,40.537],[23.7841,40.5924],[23.7426,40.656],[23.6973,40.6663],[23.7434,40.7583],[23.8451,40.784],[24.0496,40.7189],[24.1464,40.7401],[24.3077,40.8184],[24.3151,40.8728],[24.3944,40.9335],[24.512,40.9586],[24.5542,40.9507],[24.6267,40.859],[24.7987,40.8457],[24.8716,40.9051],[24.9885,40.9308],[25.0591,40.9999],[25.1319,40.9981],[25.174,40.94],[25.3036,40.9442],[25.5525,40.8589],[25.5886,40.8688],[25.7072,40.848],[25.9543,40.8398],[26.0243,40.7949],[26.0328,40.7303],[26.1253,40.7441],[26.1551,40.8084],[26.2187,40.8434],[26.2232,40.8896],[26.3587,40.9519],[26.3643,41.0105],[26.3294,41.0431],[26.3326,41.1464],[26.3102,41.1795],[26.3288,41.2564],[26.411,41.2574],[26.5338,41.3424],[26.5963,41.3226],[26.6347,41.3921],[26.5922,41.5295],[26.6001,41.6012],[26.5298,41.6216],[26.4456,41.6856],[26.308,41.7092],[26.1694,41.7487],[26.0811,41.7154],[26.0642,41.6625],[26.1539,41.6056],[26.1474,41.5545],[26.1849,41.5201],[26.175,41.4337],[26.1332,41.3578],[26.0103,41.3445],[25.8816,41.3056],[25.8246,41.3472],[25.7815,41.3225],[25.6213,41.3041],[25.5595,41.3175],[25.5314,41.2777],[25.4739,41.2866],[25.3331,41.2421],[25.2329,41.2472],[25.1815,41.3074],[25.0518,41.365],[24.8189,41.3997],[24.767,41.3665],[24.7306,41.4162],[24.6079,41.4276],[24.5339,41.5652],[24.4632,41.5289],[24.3016,41.5388],[24.2605,41.5727],[24.1729,41.5167],[24.1012,41.5505],[24.0637,41.527],[24.0735,41.4668],[23.9803,41.4402],[23.9059,41.4571],[23.8004,41.4374],[23.7551,41.4037],[23.6742,41.4107],[23.6357,41.3754],[23.5251,41.4052],[23.3222,41.3997],[23.2321,41.3753],[23.1976,41.3227],[23.0766,41.3201],[23.0292,41.3337],[22.8053,41.3402],[22.7681,41.3255],[22.7474,41.163],[22.6632,41.1851],[22.6177,41.1336],[22.462,41.1188],[22.3494,41.1356],[22.258,41.1655],[22.172,41.1567],[22.1466,41.1269],[22.0669,41.1576],[21.9125,41.0904],[21.912,41.0494],[21.8015,40.9761],[21.7872,40.9311],[21.8291,40.8974],[21.7295,40.8585],[21.7494,40.774],[21.8695,40.6898],[21.8924,40.5562],[21.9285,40.488],[21.9858,40.4775],[22.0324,40.435],[22.1054,40.4311],[22.0928,40.3804],[22.1333,40.3187],[22.1949,40.2855],[22.1152,40.1899],[22.1831,40.1967],[22.2169,40.1114],[22.3178,40.182],[22.3717,40.1349],[22.3467,40.0682],[22.3789,40.0391],[22.4959,40.0072],[22.4978,39.9691],[22.5821,39.9519],[22.6624,39.9755],[22.5943,40.0124],[22.5493,40.1575],[22.5882,40.2075],[22.5995,40.2709],[22.6601,40.3555],[22.6116,40.4059],[22.6787,40.5295],[22.8568,40.5944],[22.8932,40.6438],[22.9517,40.6217],[22.9346,40.5794],[22.9812,40.5503],[22.9113,40.5057],[22.8274,40.5072],[22.9028,40.3978],[23.013,40.3459],[23.0203,40.324],[23.1447,40.2731],[23.2933,40.2364],[23.3486,40.239],[23.4009,40.2795],[23.5843,40.2251],[23.6505,40.225],[23.7246,40.1671],[23.7912,40.09],[23.787,40.0648],[23.9039,39.98],[23.935,39.94],[23.9941,39.9539],[24.0211,40.0088],[23.9929,40.1131],[23.9111,40.1582],[23.7746,40.1929],[23.6942,40.2854],[23.7349,40.3537],[23.7837,40.3377],[23.8526,40.3703],[23.9334,40.3603],[24.005,40.3146],[24.011,40.3894]]]]}},
{"type":"Feature","id":"GRC:ADM1:GR-EM","properties":{"shapeName":"Epirus-Western Macedonia","shapeISO":"GR-EM","shapeType":"ADM1"},"geometry":{"type":"Polygon","coordinates":[[[21.7872,40.9311],[21.7079,40.943],[21.5932,40.866],[21.5319,40.9064],[21.4162,40.9169],[21.3658,40.882],[21.253,40.8619],[21.2066,40.8839],[21.1524,40.8569],[20.9802,40.8557],[20.9835,40.7409],[21.0572,40.6677],[21.0421,40.5593],[20.9691,40.52],[20.9684,40.4883],[20.8398,40.4767],[20.7852,40.4241],[20.791,40.3641],[20.7135,40.2826],[20.7247,40.2245],[20.6799,40.1862],[20.6782,40.0993],[20.5491,40.0639],[20.4493,40.0731],[20.3923,39.9954],[20.3122,39.991],[20.4171,39.8395],[20.3885,39.788],[20.3051,39.8144],[20.3207,39.7362],[20.2336,39.6853],[20.1848,39.6217],[20.164,39.5598],[20.1854,39.5192],[20.2726,39.4441],[20.2863,39.3292],[20.348,39.2836],[20.4424,39.2816],[20.4761,39.2208],[20.6969,39.0577],[20.7429,39.0082],[20.7873,39.0569],[20.9298,39.0592],[20.9423,39.0304],[21.0409,39.0022],[21.1086,39.0461],[21.0872,39.0804],[21.1312,39.1253],[21.1843,39.1346],[21.2711,39.1173],[21.3735,39.1747],[21.3513,39.2136],[21.4287,39.2958],[21.3898,39.3545],[21.3061,39.3577],[21.2672,39.4163],[21.1944,39.4746],[21.2154,39.4989],[21.181,39.6165],[21.1231,39.684],[21.2349,39.7334],[21.2263,39.8042],[21.2634,39.8522],[21.341,39.8304],[21.421,39.8511],[21.4324,39.8958],[21.5833,39.8937],[21.6783,39.855],[21.7192,39.8733],[21.7892,39.846],[21.8326,39.8619],[21.9182,39.8526],[21.9094,39.9238],[21.9616,40.0288],[22.102,40.1449],[22.1152,40.1899],[22.1949,40.2855],[22.1333,40.3187],[22.0928,40.3804],[22.1054,40.4311],[22.0324,40.435],[21.9858,40.4775],[21.9285,40.488],[21.8924,40.5562],[21.8695,40.6898],[21.7494,40.774],[21.7295,40.8585],[21.8291,40.8974],[21.7872,40.9311]]]}},
{"type":"Feature","id":"GRC:ADM1:GR-PW","properties":{"shapeName":"Peloponisos-W. Greece & Ionian","shapeISO":"GR-PW","shapeType":"ADM1"},"geometry":{"type":"MultiPolygon","coordinates":[[[[20.7751,37.8403],[20.6961,37.931],[20.6326,37.8844],[20.6268,37.8198],[20.7114,37.7261],[20.8142,37.6522],[20.9013,37.7751],[20.9023,37.8049],[20.7751,37.8403]]],[[[23.1175,38.0606],[23.0203,38.0561],[22.964,38.0794],[22.9099,38.0174],[22.9759,37.9783],[22.998,37.924],[23.1394,37.9218],[23.1797,37.9516],[23.1149,37.9845],[23.1175,38.0606]]],[[[19.8679,39.8159],[19.7954,39.7904],[19.6938,39.7987],[19.6395,39.7509],[19.6737,39.6848],[19.8196,39.5838],[19.8726,39.4536],[20.0858,39.3657],[20.1222,39.38],[20.0684,39.4557],[20.0333,39.4359],[19.9358,39.4756],[19.9093,39.5682],[19.9257,39.6274],[19.8631,39.6412],[19.8386,39.6986],[19.9254,39.7328],[19.9567,39.7759],[19.8679,39.8159]]],[[[20.6837,38.8345],[20.6052,38.7864],[20.5564,38.6809],[20.6164,38.6019],[20.6849,38.6061],[20.7234,38.6422],[20.729,38.7232],[20.7097,38.8362],[20.6837,38.8345]]],[[[23.2004,37.5967],[23.16,37.6168],[23.1268,37.732],[23.1784,37.8036],[23.1079,37.8481],[23.0043,37.8492],[23.0094,37.916],[22.9642,37.9476],[22.8977,37.9319],[22.7988,37.9655],[22.7745,37.9995],[22.6319,38.0796],[22.4907,38.1362],[22.4153,38.1305],[22.3352,38.1766],[22.2134,38.1818],[22.1266,38.2547],[22.0271,38.2851],[22.0175,38.3112],[21.848,38.3365],[21.7386,38.271],[21.7186,38.2168],[21.6685,38.1661],[21.6052,38.1429],[21.5305,38.1554],[21.3892,38.2143],[21.3661,38.1217],[21.2555,37.9735],[21.1756,37.9281],[21.1284,37.9368],[21.1064,37.8482],[21.2558,37.7976],[21.3036,37.7578],[21.3053,37.6724],[21.3875,37.654],[21.5336,37.5671],[21.6532,37.4322],[21.6983,37.3119],[21.6661,37.2558],[21.5993,37.2161],[21.5662,37.1602],[21.5762,37.0613],[21.6587,36.9728],[21.7104,36.9416],[21.68,36.8886],[21.7279,36.7998],[21.8085,36.8072],[21.879,36.7206],[21.9342,36.7605],[21.9216,36.8651],[21.9301,36.9812],[22.0205,37.0218],[22.1495,37.0181],[22.131,36.9109],[22.2242,36.8948],[22.2969,36.8024],[22.3663,36.6785],[22.3642,36.6015],[22.3856,36.5381],[22.3687,36.4774],[22.4588,36.4516],[22.5023,36.4954],[22.4725,36.5321],[22.4761,36.6131],[22.5647,36.7746],[22.6208,36.8059],[22.7856,36.797],[22.8202,36.7031],[22.8828,36.6484],[22.9849,36.5185],[23.0336,36.5271],[23.087,36.4419],[23.1968,36.4347],[23.1296,36.4961],[23.1466,36.5354],[23.0319,36.6274],[23.0279,36.7288],[23.109,36.7706],[23.0502,36.8656],[23.0021,37.0253],[22.9549,37.1193],[22.8924,37.133],[22.9089,37.1932],[22.8594,37.249],[22.7689,37.4247],[22.7277,37.4862],[22.7172,37.5604],[22.7807,37.5893],[22.8478,37.516],[22.903,37.539],[22.9767,37.5171],[23.0149,37.4678],[23.1316,37.4384],[23.0737,37.3613],[23.1484,37.296],[23.2721,37.407],[23.4244,37.4117],[23.4052,37.4566],[23.3097,37.471],[23.1765,37.5252],[23.2004,37.5967]]],[[[20.5643,38.4745],[20.5365,38.4301],[20.5322,38.341],[20.4772,38.3096],[20.3999,38.3295],[20.3376,38.1892],[20.3881,38.1535],[20.4753,38.1592],[20.5138,38.1023],[20.6189,38.1174],[20.7028,38.069],[20.7951,38.0648],[20.8143,38.108],[20.7105,38.2264],[20.6953,38.2624],[20.6262,38.2588],[20.6109,38.4021],[20.5643,38.4745]]],[[[20.6732,38.4738],[20.6151,38.4655],[20.7147,38.3034],[20.7639,38.318],[20.7079,38.4367],[20.6732,38.4738]]],[[[21.1086,39.0461],[21.1639,38.9776],[21.1415,38.9186],[21.0915,38.8781],[21.0185,38.8982],[20.9727,38.9453],[20.9019,38.9208],[20.7602,38.9324],[20.7305,38.7932],[20.7661,38.7576],[20.8719,38.7949],[20.9222,38.6699],[20.9887,38.6687],[21.0199,38.6115],[21.0128,38.5356],[21.0931,38.4612],[21.1294,38.4006],[21.0949,38.3457],[21.1608,38.2992],[21.2656,38.3389],[21.2681,38.3624],[21.364,38.4066],[21.4628,38.363],[21.4914,38.3013],[21.6354,38.3552],[21.7688,38.3303],[21.7921,38.3746],[21.8517,38.3745],[21.8871,38.4686],[22.0013,38.5141],[22.0155,38.5875],[21.9784,38.6204],[21.9952,38.7742],[21.8988,38.7238],[21.8409,38.7376],[21.8192,38.6945],[21.7625,38.715],[21.6856,38.7027],[21.5712,38.7368],[21.5743,38.8487],[21.5076,38.8891],[21.5111,38.9662],[21.3752,39.0172],[21.4362,39.1059],[21.3735,39.1747],[21.2711,39.1173],[21.1843,39.1346],[21.1312,39.1253],[21.0872,39.0804],[21.1086,39.0461]]]]}},
{"type":"Feature","id":"GRC:ADM1:GR-AI","properties":{"shapeName":"Egean","shapeISO":"GR-AI","shapeType":"ADM1"},"geometry":{"type":"MultiPolygon","coordinates":[[[[27.015,35.4331],[26.9025,35.4214],[26.8457,35.3639],[26.8814,35.3434],[26.9972,35.4082],[27.015,35.4331]]],[[[27.2149,35.83],[27.1654,35.8027],[27.1666,35.7366],[27.1212,35.6451],[27.063,35.5982],[27.1131,35.5457],[27.1201,35.4864],[27.1583,35.4434],[27.237,35.5049],[27.1589,35.6208],[27.1613,35.6554],[27.2171,35.7268],[27.2149,35.83]]],[[[28.2285,36.4456],[28.1178,36.4194],[27.8781,36.323],[27.8063,36.2708],[27.7682,36.1893],[27.6863,36.157],[27.7566,36.0993],[27.755,36.0133],[27.7201,35.9434],[27.7779,35.8892],[27.8632,35.9297],[27.9495,36.0427],[28.0671,36.1113],[28.0998,36.1768],[28.1367,36.1853],[28.2052,36.344],[28.2466,36.3864],[28.2285,36.4456]]],[[[25.4282,36.461],[25.4431,36.3319],[25.487,36.362],[25.4856,36.4086],[25.4282,36.461]]],[[[27.3705,36.4619],[27.2918,36.4265],[27.4342,36.3912],[27.3705,36.4619]]],[[[24.4682,36.7424],[24.4081,36.7525],[24.3373,36.733],[24.3406,36.6527],[24.4718,36.6597],[24.5476,36.7025],[24.5323,36.7459],[24.4682,36.7424]]],[[[26.9056,37.0714],[26.9459,37.0406],[26.925,36.9854],[26.9397,36.9292],[27.047,36.9546],[27.0484,36.9942],[26.9056,37.0714]]],[[[27.2974,36.8924],[27.1726,36.8901],[27.0756,36.8502],[26.9991,36.7749],[26.9226,36.7601],[26.9411,36.6873],[27.0292,36.7665],[27.1019,36.7563],[27.1634,36.8027],[27.3511,36.8581],[27.2974,36.8924]]],[[[24.6397,37.0418],[24.698,36.9031],[24.7652,36.9502],[24.7048,37.0211],[24.6397,37.0418]]],[[[26.019,36.9333],[25.908,36.8669],[25.7823,36.8113],[25.8032,36.7676],[25.8708,36.7904],[26.019,36.9333]]],[[[26.3814,36.6443],[26.3937,36.6052],[26.3401,36.5707],[26.2636,36.5814],[26.2928,36.5204],[26.3631,36.5115],[26.3645,36.5753],[26.4537,36.6063],[26.3814,36.6443]]],[[[27.8151,36.6239],[27.774,36.6032],[27.8775,36.556],[27.8786,36.6172],[27.8151,36.6239]]],[[[25.3113,36.7889],[25.2712,36.7831],[25.2575,36.7273],[25.3567,36.6424],[25.4004,36.7179],[25.3113,36.7889]]],[[[26.0082,38.6045],[25.8572,38.5804],[25.8309,38.5404],[25.8611,38.4947],[25.9426,38.4598],[25.9886,38.3916],[25.9955,38.342],[25.96,38.2953],[25.8795,38.273],[25.9228,38.1978],[26.0213,38.1563],[26.0373,38.1985],[26.0974,38.2083],[26.104,38.2736],[26.1587,38.3099],[26.1339,38.4174],[26.1584,38.5525],[26.087,38.556],[26.0082,38.6045]]],[[[25.0293,37.6758],[24.9907,37.6434],[25.1955,37.5257],[25.2536,37.6078],[25.1894,37.6397],[25.0567,37.6505],[25.0293,37.6758]]],[[[24.3921,37.6719],[24.2953,37.6594],[24.2674,37.6065],[24.2932,37.5242],[24.3875,37.6081],[24.3921,37.6719]]],[[[26.7521,37.8123],[26.6599,37.7894],[26.5691,37.7342],[26.5904,37.6763],[26.6418,37.7024],[26.7218,37.7096],[26.7936,37.6427],[26.8698,37.6374],[26.8873,37.67],[26.9768,37.7047],[27.0631,37.7094],[27.0298,37.7741],[26.8796,37.7803],[26.848,37.8062],[26.7521,37.8123]]],[[[24.837,37.9251],[24.8326,37.957],[24.758,37.9947],[24.6853,37.9464],[24.7117,37.8711],[24.7664,37.8755],[24.9164,37.7136],[24.9582,37.7072],[25.0004,37.7697],[24.9525,37.8391],[24.9412,37.9022],[24.837,37.9251]]],[[[26.3511,39.3797],[26.2247,39.3835],[26.1243,39.3075],[26.0024,39.2806],[25.8861,39.28],[25.8454,39.2292],[25.8438,39.1752],[25.9583,39.1039],[26.0672,39.0877],[26.2006,39.2065],[26.2835,39.1952],[26.2818,39.1565],[26.1887,39.1262],[26.1203,39.0613],[26.2013,39.0194],[26.3325,38.976],[26.4199,38.9626],[26.5418,38.9891],[26.5319,39.0198],[26.4417,39.1025],[26.4899,39.1182],[26.5289,39.0824],[26.5414,39.0114],[26.6074,39.0089],[26.5938,39.0697],[26.5572,39.0961],[26.4753,39.2244],[26.3843,39.285],[26.4225,39.3364],[26.3511,39.3797]]],[[[24.9884,39.4643],[25.0574,39.5304],[24.9774,39.5325],[24.9884,39.4643]]],[[[25.437,40.0053],[25.3706,40.0012],[25.2921,39.9399],[25.2353,40.0049],[25.1425,40.0067],[25.046,39.9867],[25.0723,39.9149],[25.0511,39.8606],[25.1213,39.8512],[25.1687,39.8003],[25.2442,39.8511],[25.3535,39.8033],[25.3406,39.8785],[25.437,40.0053]]],[[[24.4314,37.4392],[24.3752,37.4379],[24.3999,37.3666],[24.4841,37.3961],[24.4314,37.4392]]],[[[24.9463,37.4465],[24.9308,37.5013],[24.8576,37.4121],[24.905,37.3734],[24.9729,37.401],[24.9463,37.4465]]],[[[25.3604,37.4953],[25.3286,37.4636],[25.3321,37.4111],[25.4278,37.443],[25.4016,37.4962],[25.3604,37.4953]]],[[[26.3625,37.6863],[26.2978,37.6806],[26.2206,37.6354],[26.0763,37.6333],[26.0047,37.5708],[25.9801,37.5114],[26.0755,37.5218],[26.1088,37.554],[26.202,37.5647],[26.2922,37.6097],[26.3625,37.6863]]],[[[25.2311,37.1503],[25.1593,37.1218],[25.1081,37.0645],[25.0992,37.0174],[25.1809,36.9747],[25.2479,37.0131],[25.2788,37.1197],[25.2311,37.1503]]],[[[25.5892,37.1384],[25.5332,37.2031],[25.4109,37.1337],[25.3664,37.0865],[25.3857,36.9823],[25.4599,36.9237],[25.555,36.9655],[25.5987,37.1089],[25.5892,37.1384]]],[[[26.8112,37.1991],[26.8115,37.1223],[26.8623,37.1407],[26.8112,37.1991]]],[[[24.499,37.206],[24.4218,37.1618],[24.4573,37.1238],[24.5155,37.1196],[24.5329,37.1931],[24.499,37.206]]]]}},
{"type":"Feature","id":"GRC:ADM1:GR-TC","properties":{"shapeName":"Thessalia-Central Greece","shapeISO":"GR-TC","shapeType":"ADM1"},"geometry":{"type":"MultiPolygon","coordinates":[[[[24.5764,38.8841],[24.5809,38.9251],[24.4847,38.9786],[24.4686,38.9161],[24.4329,38.8829],[24.5667,38.8388],[24.5561,38.7682],[24.6716,38.7747],[24.6658,38.8239],[24.5764,38.8841]]],[[[23.6904,38.3403],[23.6303,38.406],[23.4634,38.4999],[23.3662,38.5102],[23.2965,38.5678],[23.3244,38.6355],[23.1888,38.649],[23.1112,38.6245],[23.0657,38.679],[23.0393,38.7479],[22.9718,38.7449],[22.8247,38.7879],[22.7741,38.7775],[22.6843,38.8404],[22.5768,38.8242],[22.5502,38.8839],[22.6202,38.9118],[22.7554,38.8697],[22.8382,38.8926],[23.0105,38.9761],[23.0267,39.0346],[22.9588,39.1201],[22.9279,39.1099],[22.8228,39.2072],[22.8191,39.2738],[23.02,39.3164],[23.1083,39.3095],[23.1634,39.2729],[23.222,39.1761],[23.1781,39.1283],[23.0693,39.1399],[23.0737,39.0847],[23.1589,39.0935],[23.2237,39.1291],[23.3242,39.1519],[23.3513,39.1864],[23.2741,39.3148],[23.1151,39.4622],[23.0956,39.4993],[22.9279,39.5845],[22.9091,39.6135],[22.8489,39.8016],[22.7343,39.8713],[22.7097,39.9517],[22.6624,39.9755],[22.5821,39.9519],[22.4978,39.9691],[22.4959,40.0072],[22.3789,40.0391],[22.3467,40.0682],[22.3717,40.1349],[22.3178,40.182],[22.2169,40.1114],[22.1831,40.1967],[22.1152,40.1899],[22.102,40.1449],[21.9616,40.0288],[21.9094,39.9238],[21.9182,39.8526],[21.8326,39.8619],[21.7892,39.846],[21.7192,39.8733],[21.6783,39.855],[21.5833,39.8937],[21.4324,39.8958],[21.421,39.8511],[21.341,39.8304],[21.2634,39.8522],[21.2263,39.8042],[21.2349,39.7334],[21.1231,39.684],[21.181,39.6165],[21.2154,39.4989],[21.1944,39.4746],[21.2672,39.4163],[21.3061,39.3577],[21.3898,39.3545],[21.4287,39.2958],[21.3513,39.2136],[21.3735,39.1747],[21.4362,39.1059],[21.3752,39.0172],[21.5111,38.9662],[21.5076,38.8891],[21.5743,38.8487],[21.5712,38.7368],[21.6856,38.7027],[21.7625,38.715],[21.8192,38.6945],[21.8409,38.7376],[21.8988,38.7238],[21.9952,38.7742],[21.9784,38.6204],[22.0155,38.5875],[22.0013,38.5141],[21.8871,38.4686],[21.8517,38.3745],[21.9321,38.4032],[22.0513,38.3949],[22.1914,38.3347],[22.2268,38.3573],[22.3588,38.3369],[22.4197,38.4317],[22.4994,38.3859],[22.5543,38.2835],[22.5936,38.3485],[22.6883,38.3555],[22.6973,38.3142],[22.7969,38.2759],[22.7792,38.2332],[22.8709,38.2316],[22.9396,38.1831],[23.0242,38.2137],[23.0721,38.1707],[23.1262,38.1684],[23.2866,38.1845],[23.2918,38.2393],[23.3934,38.2635],[23.3744,38.2133],[23.4576,38.2017],[23.4613,38.1645],[23.5576,38.1385],[23.6274,38.1756],[23.6352,38.2732],[23.6904,38.3403]]],[[[23.2962,39.0388],[23.2042,39.0042],[23.1292,39.0076],[23.0873,38.951],[22.8519,38.8674],[22.96,38.8361],[22.9901,38.8812],[23.0823,38.8386],[23.1419,38.8514],[23.1981,38.8337],[23.3248,38.7589],[23.3859,38.6982],[23.4869,38.6358],[23.5084,38.59],[23.5948,38.5737],[23.6343,38.5047],[23.6205,38.4479],[23.6921,38.413],[23.7986,38.3897],[23.8911,38.3855],[23.991,38.4018],[24.0526,38.3921],[24.0594,38.3412],[24.1078,38.3156],[24.1132,38.2533],[24.1858,38.2152],[24.2095,38.1604],[24.2085,38.0887],[24.3038,38.0709],[24.3114,38.0177],[24.3865,37.96],[24.4278,38.013],[24.5107,37.9491],[24.5569,37.9785],[24.588,38.0668],[24.5899,38.1361],[24.35,38.1553],[24.2724,38.1981],[24.2564,38.2821],[24.1818,38.3947],[24.1867,38.4841],[24.2295,38.5234],[24.1227,38.5966],[24.1538,38.6521],[24.047,38.6871],[23.9401,38.6624],[23.7722,38.6988],[23.7048,38.7687],[23.6299,38.7547],[23.4755,38.8338],[23.3862,38.9608],[23.3768,39.0073],[23.2962,39.0388]]],[[[23.6802,39.1593],[23.6639,39.0866],[23.7254,39.0706],[23.7813,39.1301],[23.6802,39.1593]]],[[[23.8859,39.16],[23.9825,39.2682],[23.9456,39.2871],[23.8865,39.219],[23.8859,39.16]]]]}}
]}