{"type":"FeatureCollection","bbox":[-90.099,13.1586,-87.7126,14.4415],"features":[
{"type":"Feature","id":"SLV:ADM0:SLV","properties":{"shapeName":"El Salvador","shapeISO":"SLV","shapeType":"ADM0"},"geometry":{"type":"Polygon","coordinates":[[[-90.0983,13.7314],[-89.808,13.5269],[-89.2515,13.4723],[-88.7857,13.2453],[-88.2083,13.1604],[-87.9282,13.1586],[-87.7126,13.8005],[-87.8329,13.9153],[-88.0875,13.9805],[-88.488,13.8653],[-88.4954,13.9751],[-88.7466,14.0525],[-88.9572,14.1852],[-89.0266,14.3113],[-89.4084,14.4415],[-89.5699,14.412],[-89.5309,14.2256],[-89.8801,14.0427],[-90.099,13.8585],[-90.0983,13.7314]]]}}
]}