{"type":"FeatureCollection","bbox":[9.5212,46.4184,17.0802,49.0079],"features":[
{"type":"Feature","id":"AUT:ADM0:AUT","properties":{"shapeName":"Austria","shapeISO":"AUT","shapeType":"ADM0"},"geometry":{"type":"Polygon","coordinates":[[[16.945,48.6042],[16.873,48.719],[16.4357,48.7945],[16.0323,48.7581],[15.2629,48.9826],[14.9821,49.0079],[14.9193,48.7616],[14.6957,48.5895],[14.4436,48.6365],[14.0748,48.5917],[13.9823,48.7065],[13.7143,48.5232],[13.5207,48.5846],[13.4056,48.3766],[12.745,48.1206],[12.9912,47.8471],[13.0373,47.493],[12.7789,47.5548],[12.7448,47.6654],[12.4241,47.6916],[12.1656,47.604],[11.6205,47.5897],[11.2588,47.4007],[11.0837,47.3895],[10.6079,47.5623],[10.3059,47.3022],[9.9487,47.5242],[9.6126,47.5219],[9.5212,47.2628],[9.6691,47.0562],[10.1113,46.8471],[10.3679,46.9955],[10.4538,46.8644],[10.9969,46.7691],[11.0919,46.9124],[11.3138,46.9873],[12.1112,46.993],[12.405,46.6901],[13.2311,46.5522],[13.478,46.5636],[14.1499,46.4401],[14.5022,46.4184],[15.062,46.6496],[15.4627,46.6146],[15.6521,46.7108],[15.9705,46.743],[16.2749,47.0043],[16.4372,47.0318],[16.425,47.3511],[16.7975,47.6755],[17.0548,47.702],[17.0802,48.0976],[16.8445,48.3656],[16.945,48.6042]]]}}
]}