{"type":"FeatureCollection","bbox":[-88.636301,17.078834,-87.490325,18.185661],"features":[
{"type":"Feature","id":"BLZ:ADM2:BZ-BZ.freetown-2","properties":{"shapeName":"Freetown","shapeISO":"","shapeGroup":"BLZ","shapeType":"ADM2","adm1ISO":"BZ-BZ","parentISO":"BZ-BZ","parentID":"BLZ:ADM1:BZ-BZ","src_shape_id":"1456440B85935550107059"},"geometry":{"type":"Polygon","coordinates":[[[-88.218083,17.515214],[-88.221877,17.517031],[-88.225987,17.517833],[-88.231936,17.519928],[-88.23471,17.526282],[-88.237961,17.529669],[-88.237982,17.533331],[-88.241962,17.535408],[-88.242234,17.536371],[-88.235291,17.534891],[-88.234368,17.536078],[-88.237377,17.538123],[-88.238359,17.540896],[-88.240235,17.541176],[-88.241396,17.53973],[-88.245451,17.539341],[-88.248016,17.541019],[-88.251951,17.544932],[-88.259302,17.546635],[-88.262785,17.54789],[-88.26772,17.548725],[-88.270621,17.550697],[-88.273582,17.553782],[-88.27832,17.557252],[-88.279831,17.561057],[-88.285375,17.555787],[-88.285306,17.553513],[-88.285305,17.546319],[-88.284156,17.54425],[-88.280105,17.545933],[-88.273352,17.544312],[-88.27112,17.54428],[-88.265796,17.542592],[-88.262096,17.542462],[-88.259499,17.544442],[-88.25807,17.544345],[-88.25437,17.541456],[-88.25161,17.541553],[-88.244737,17.537716],[-88.243754,17.536294],[-88.243332,17.52873],[-88.247909,17.525679],[-88.246806,17.520972],[-88.244176,17.51844],[-88.241742,17.518375],[-88.240378,17.516557],[-88.241612,17.51211],[-88.239307,17.510941],[-88.233496,17.513505],[-88.224829,17.508052],[-88.217817,17.50737],[-88.216031,17.507597],[-88.212233,17.510162],[-88.217784,17.512012],[-88.218083,17.515214]]]}},
{"type":"Feature","id":"BLZ:ADM2:BZ-BZ.port-loyola","properties":{"shapeName":"Port Loyola","shapeISO":"","shapeGroup":"BLZ","shapeType":"ADM2","adm1ISO":"BZ-BZ","parentISO":"BZ-BZ","parentID":"BLZ:ADM1:BZ-BZ","src_shape_id":"1456440B62290110422722"},"geometry":{"type":"MultiPolygon","coordinates":[[[[-88.250513,17.472953],[-88.254932,17.466315],[-88.257316,17.46459],[-88.259801,17.464033],[-88.261525,17.46525],[-88.265938,17.460837],[-88.276184,17.44912],[-88.268728,17.449069],[-88.256806,17.449373],[-88.254324,17.458469],[-88.252796,17.462735],[-88.249131,17.470971],[-88.250513,17.472953]]],[[[-88.250513,17.472953],[-88.248187,17.472969],[-88.244012,17.478651],[-88.244044,17.479347],[-88.236598,17.486449],[-88.230246,17.489846],[-88.226524,17.490061],[-88.222284,17.487832],[-88.221298,17.486388],[-88.217372,17.484515],[-88.214861,17.481906],[-88.209212,17.480112],[-88.209146,17.474781],[-88.206679,17.475789],[-88.206649,17.480526],[-88.200955,17.481004],[-88.200226,17.480087],[-88.196853,17.48355],[-88.19426,17.484819],[-88.200376,17.488398],[-88.19864,17.491778],[-88.200514,17.49195],[-88.202981,17.493573],[-88.209674,17.496237],[-88.21331,17.495447],[-88.217891,17.498147],[-88.222488,17.499811],[-88.2255,17.499494],[-88.229958,17.497242],[-88.236787,17.491375],[-88.243061,17.483418],[-88.248338,17.475192],[-88.250513,17.472953]]]]}},
{"type":"Feature","id":"BLZ:ADM2:BZ-BZ.lake-independence","properties":{"shapeName":"Lake Independence","shapeISO":"","shapeGroup":"BLZ","shapeType":"ADM2","adm1ISO":"BZ-BZ","parentISO":"BZ-BZ","parentID":"BLZ:ADM1:BZ-BZ","src_shape_id":"1456440B59769308078565"},"geometry":{"type":"Polygon","coordinates":[[[-88.224829,17.508052],[-88.237071,17.494263],[-88.24674,17.482217],[-88.261525,17.46525],[-88.259801,17.464033],[-88.257316,17.46459],[-88.254932,17.466315],[-88.250513,17.472953],[-88.248338,17.475192],[-88.243061,17.483418],[-88.236787,17.491375],[-88.229958,17.497242],[-88.2255,17.499494],[-88.222488,17.499811],[-88.220427,17.500762],[-88.212343,17.501158],[-88.205686,17.499256],[-88.203388,17.499415],[-88.200303,17.498423],[-88.201318,17.502075],[-88.201307,17.505302],[-88.207331,17.508506],[-88.212233,17.510162],[-88.216031,17.507597],[-88.217817,17.50737],[-88.224829,17.508052]]]}},
{"type":"Feature","id":"BLZ:ADM2:BZ-BZ.fort-george","properties":{"shapeName":"Fort George","shapeISO":"","shapeGroup":"BLZ","shapeType":"ADM2","adm1ISO":"BZ-BZ","parentISO":"BZ-BZ","parentID":"BLZ:ADM1:BZ-BZ","src_shape_id":"1456440B38299420542047"},"geometry":{"type":"Polygon","coordinates":[[[-88.184931,17.494245],[-88.182185,17.491419],[-88.180871,17.492499],[-88.181496,17.500233],[-88.185769,17.501482],[-88.189246,17.499031],[-88.188485,17.497966],[-88.185746,17.495988],[-88.184931,17.494245]]]}},
{"type":"Feature","id":"BLZ:ADM2:BZ-BZ.albert","properties":{"shapeName":"Albert","shapeISO":"","shapeGroup":"BLZ","shapeType":"ADM2","adm1ISO":"BZ-BZ","parentISO":"BZ-BZ","parentID":"BLZ:ADM1:BZ-BZ","src_shape_id":"1456440B69828690893614"},"geometry":{"type":"Polygon","coordinates":[[[-88.188485,17.497966],[-88.192137,17.498879],[-88.194825,17.501111],[-88.194977,17.497307],[-88.190717,17.496394],[-88.187521,17.494821],[-88.189093,17.491372],[-88.189601,17.488988],[-88.192188,17.487264],[-88.192052,17.486099],[-88.189987,17.486907],[-88.188121,17.484975],[-88.186378,17.487055],[-88.185644,17.493371],[-88.184931,17.494245],[-88.185746,17.495988],[-88.188485,17.497966]]]}},
{"type":"Feature","id":"BLZ:ADM2:BZ-BZ.queen-square","properties":{"shapeName":"Queen Square","shapeISO":"","shapeGroup":"BLZ","shapeType":"ADM2","adm1ISO":"BZ-BZ","parentISO":"BZ-BZ","parentID":"BLZ:ADM1:BZ-BZ","src_shape_id":"1456440B41515061278311"},"geometry":{"type":"Polygon","coordinates":[[[-88.19426,17.484819],[-88.192052,17.486099],[-88.192188,17.487264],[-88.189601,17.488988],[-88.189093,17.491372],[-88.192441,17.492437],[-88.193151,17.489445],[-88.195525,17.490276],[-88.19864,17.491778],[-88.200376,17.488398],[-88.19426,17.484819]]]}},
{"type":"Feature","id":"BLZ:ADM2:BZ-BZ.mesopotamia","properties":{"shapeName":"Mesopotamia","shapeISO":"","shapeGroup":"BLZ","shapeType":"ADM2","adm1ISO":"BZ-BZ","parentISO":"BZ-BZ","parentID":"BLZ:ADM1:BZ-BZ","src_shape_id":"1456440B30022647812570"},"geometry":{"type":"Polygon","coordinates":[[[-88.190717,17.496394],[-88.193456,17.493857],[-88.195637,17.494162],[-88.195525,17.490276],[-88.193151,17.489445],[-88.192441,17.492437],[-88.189093,17.491372],[-88.187521,17.494821],[-88.190717,17.496394]]]}},
{"type":"Feature","id":"BLZ:ADM2:BZ-BZ.freetown","properties":{"shapeName":"Freetown","shapeISO":"","shapeGroup":"BLZ","shapeType":"ADM2","adm1ISO":"BZ-BZ","parentISO":"BZ-BZ","parentID":"BLZ:ADM1:BZ-BZ","src_shape_id":"1456440B45455972514267"},"geometry":{"type":"Polygon","coordinates":[[[-88.195969,17.504676],[-88.191883,17.502633],[-88.1911,17.505295],[-88.192783,17.505877],[-88.190996,17.509824],[-88.192348,17.512547],[-88.198209,17.511785],[-88.198794,17.50974],[-88.196164,17.506753],[-88.195969,17.504676]]]}},
{"type":"Feature","id":"BLZ:ADM2:BZ-BZ.pickstock","properties":{"shapeName":"Pickstock","shapeISO":"","shapeGroup":"BLZ","shapeType":"ADM2","adm1ISO":"BZ-BZ","parentISO":"BZ-BZ","parentID":"BLZ:ADM1:BZ-BZ","src_shape_id":"1456440B85489993561805"},"geometry":{"type":"Polygon","coordinates":[[[-88.200303,17.498423],[-88.194977,17.497307],[-88.194825,17.501111],[-88.192137,17.498879],[-88.188485,17.497966],[-88.189246,17.499031],[-88.185769,17.501482],[-88.190564,17.501922],[-88.191883,17.502633],[-88.195969,17.504676],[-88.198566,17.503734],[-88.201307,17.505302],[-88.201318,17.502075],[-88.200303,17.498423]]]}},
{"type":"Feature","id":"BLZ:ADM2:BZ-BZ.caribbean-shores","properties":{"shapeName":"Caribbean Shores","shapeISO":"","shapeGroup":"BLZ","shapeType":"ADM2","adm1ISO":"BZ-BZ","parentISO":"BZ-BZ","parentID":"BLZ:ADM1:BZ-BZ","src_shape_id":"1456440B59944424745172"},"geometry":{"type":"Polygon","coordinates":[[[-88.212233,17.510162],[-88.207331,17.508506],[-88.201307,17.505302],[-88.198566,17.503734],[-88.195969,17.504676],[-88.196164,17.506753],[-88.198794,17.50974],[-88.198209,17.511785],[-88.192348,17.512547],[-88.190996,17.509824],[-88.192783,17.505877],[-88.1911,17.505295],[-88.191883,17.502633],[-88.190564,17.501922],[-88.185769,17.501482],[-88.187612,17.503247],[-88.187425,17.507664],[-88.186554,17.509555],[-88.18731,17.511776],[-88.192214,17.515313],[-88.197381,17.518284],[-88.199183,17.520445],[-88.202882,17.517261],[-88.208158,17.516181],[-88.211362,17.514494],[-88.218083,17.515214],[-88.217784,17.512012],[-88.212233,17.510162]]]}},
{"type":"Feature","id":"BLZ:ADM2:BZ-BZ.collet","properties":{"shapeName":"Collet","shapeISO":"","shapeGroup":"BLZ","shapeType":"ADM2","adm1ISO":"BZ-BZ","parentISO":"BZ-BZ","parentID":"BLZ:ADM1:BZ-BZ","src_shape_id":"1456440B30822357340136"},"geometry":{"type":"Polygon","coordinates":[[[-88.19864,17.491778],[-88.195525,17.490276],[-88.195637,17.494162],[-88.193456,17.493857],[-88.190717,17.496394],[-88.194977,17.497307],[-88.200303,17.498423],[-88.203388,17.499415],[-88.205686,17.499256],[-88.212343,17.501158],[-88.220427,17.500762],[-88.222488,17.499811],[-88.217891,17.498147],[-88.21331,17.495447],[-88.209674,17.496237],[-88.202981,17.493573],[-88.200514,17.49195],[-88.19864,17.491778]]]}},
{"type":"Feature","id":"BLZ:ADM2:BZ-BZ.belize-rural-north","properties":{"shapeName":"Belize Rural North","shapeISO":"","shapeGroup":"BLZ","shapeType":"ADM2","adm1ISO":"BZ-BZ","parentISO":"BZ-BZ","parentID":"BLZ:ADM1:BZ-BZ","src_shape_id":"1456440B3381431616278"},"geometry":{"type":"MultiPolygon","coordinates":[[[[-88.098276,17.627129],[-88.099937,17.628429],[-88.105777,17.627853],[-88.105468,17.625868],[-88.1028,17.62379],[-88.099957,17.62294],[-88.099681,17.62087],[-88.094905,17.616457],[-88.092255,17.612755],[-88.089097,17.610973],[-88.085911,17.608176],[-88.083479,17.60788],[-88.080055,17.609341],[-88.078941,17.611447],[-88.080981,17.616476],[-88.081111,17.619717],[-88.084509,17.621714],[-88.08754,17.625016],[-88.091804,17.627559],[-88.098276,17.627129]]],[[[-88.13131,17.643995],[-88.133031,17.646053],[-88.134321,17.645115],[-88.134583,17.64065],[-88.13427,17.636507],[-88.128185,17.637618],[-88.126599,17.638362],[-88.11999,17.637629],[-88.117652,17.635054],[-88.116864,17.632484],[-88.117245,17.629962],[-88.113612,17.628961],[-88.110051,17.629562],[-88.112329,17.63274],[-88.115096,17.637772],[-88.116094,17.640948],[-88.121744,17.64094],[-88.127294,17.641808],[-88.1291,17.64348],[-88.13131,17.643995]]],[[[-88.1912,17.650234],[-88.191033,17.65532],[-88.191629,17.656205],[-88.195663,17.655551],[-88.19882,17.650357],[-88.199107,17.649016],[-88.20216,17.64812],[-88.20313,17.646881],[-88.202796,17.642894],[-88.19944,17.643282],[-88.199054,17.646216],[-88.196693,17.646063],[-88.195071,17.648374],[-88.193183,17.646002],[-88.190608,17.646247],[-88.1912,17.650234]]],[[[-88.039405,17.698062],[-88.039747,17.706393],[-88.039014,17.712854],[-88.040754,17.712861],[-88.040279,17.70984],[-88.042612,17.703646],[-88.042732,17.701934],[-88.044605,17.697039],[-88.044227,17.691499],[-88.045508,17.682036],[-88.046917,17.679888],[-88.045015,17.679192],[-88.042813,17.68687],[-88.039874,17.690884],[-88.039405,17.698062]]],[[[-88.096966,17.705414],[-88.096233,17.714021],[-88.096623,17.717188],[-88.099837,17.719254],[-88.102159,17.718455],[-88.102842,17.717047],[-88.103314,17.71165],[-88.105374,17.709075],[-88.108077,17.708134],[-88.114298,17.697873],[-88.11889,17.69452],[-88.119411,17.693435],[-88.126572,17.690023],[-88.134279,17.687422],[-88.14009,17.686956],[-88.141764,17.68618],[-88.141549,17.682704],[-88.142922,17.677716],[-88.146218,17.676526],[-88.148332,17.676716],[-88.152492,17.679229],[-88.157642,17.678288],[-88.16099,17.676489],[-88.161633,17.673995],[-88.160346,17.672482],[-88.157599,17.673341],[-88.153008,17.671214],[-88.148201,17.669579],[-88.144725,17.671419],[-88.141807,17.669497],[-88.135755,17.67559],[-88.129275,17.677961],[-88.125327,17.682295],[-88.124083,17.68528],[-88.118933,17.689246],[-88.116572,17.690105],[-88.113225,17.696442],[-88.110607,17.698609],[-88.107223,17.699854],[-88.102842,17.702942],[-88.098722,17.703883],[-88.097391,17.701184],[-88.095632,17.702247],[-88.096966,17.705414]]],[[[-88.023605,17.748037],[-88.027847,17.741787],[-88.030136,17.739256],[-88.034395,17.74197],[-88.037257,17.738709],[-88.037987,17.734588],[-88.037935,17.728796],[-88.032422,17.729243],[-88.028923,17.731942],[-88.025731,17.737273],[-88.023586,17.74178],[-88.023605,17.748037]]],[[[-88.020787,17.788727],[-88.018193,17.793614],[-88.017864,17.795313],[-88.020938,17.795854],[-88.021725,17.791656],[-88.025719,17.787399],[-88.025867,17.782384],[-88.029794,17.774704],[-88.029319,17.771089],[-88.029962,17.763074],[-88.030918,17.758994],[-88.031901,17.757783],[-88.030728,17.755941],[-88.028898,17.756668],[-88.0247,17.755544],[-88.024727,17.771769],[-88.023928,17.773061],[-88.02395,17.776925],[-88.021298,17.783378],[-88.020787,17.788727]]],[[[-88.056384,17.851963],[-88.058531,17.851179],[-88.066332,17.851394],[-88.070106,17.852919],[-88.069408,17.848544],[-88.067646,17.846235],[-88.06361,17.846],[-88.059043,17.846798],[-88.056897,17.84771],[-88.04856,17.847755],[-88.046144,17.848541],[-88.042125,17.851267],[-88.046704,17.852401],[-88.05396,17.851332],[-88.056384,17.851963]]],[[[-87.956974,17.929054],[-87.961055,17.927886],[-87.962283,17.922272],[-87.963806,17.91994],[-87.967388,17.917312],[-87.969383,17.917319],[-87.969861,17.919899],[-87.972555,17.919057],[-87.972704,17.91733],[-87.975213,17.91658],[-87.976676,17.915021],[-87.97651,17.91062],[-87.980216,17.909052],[-87.982881,17.906714],[-87.986784,17.906683],[-87.987457,17.904193],[-87.996672,17.899671],[-87.997485,17.900697],[-87.998048,17.905073],[-88.000728,17.903256],[-88.001906,17.897326],[-87.997666,17.893261],[-87.995057,17.892245],[-87.993115,17.888871],[-87.994355,17.88468],[-87.997928,17.883565],[-88.003038,17.883539],[-88.004389,17.884434],[-88.005348,17.88752],[-88.007637,17.888024],[-88.00846,17.886299],[-88.0115,17.887356],[-88.013666,17.88644],[-88.016998,17.88694],[-88.020357,17.884591],[-88.020789,17.882804],[-88.0267,17.881613],[-88.02696,17.880066],[-88.024296,17.878866],[-88.019935,17.874694],[-88.014472,17.876338],[-88.011322,17.876308],[-88.007906,17.878439],[-88.003617,17.879413],[-87.999679,17.878756],[-87.994566,17.878937],[-87.991419,17.880754],[-87.983757,17.88647],[-87.978391,17.892478],[-87.975905,17.896647],[-87.975072,17.904336],[-87.970093,17.910493],[-87.965055,17.915634],[-87.962593,17.917514],[-87.959965,17.921308],[-87.956974,17.929054]]],[[[-87.979721,17.934458],[-87.981105,17.935336],[-87.984516,17.933441],[-87.985188,17.93077],[-87.984631,17.929214],[-87.987156,17.927004],[-87.987252,17.924365],[-87.983094,17.926862],[-87.982924,17.923766],[-87.984537,17.92068],[-87.984578,17.918789],[-87.987456,17.915124],[-87.989631,17.91503],[-87.990049,17.918315],[-87.986926,17.920922],[-87.986735,17.923514],[-87.990198,17.92414],[-87.992111,17.918899],[-87.993802,17.916712],[-87.992921,17.913851],[-87.990568,17.914769],[-87.986987,17.914307],[-87.984385,17.915703],[-87.983571,17.918703],[-87.981298,17.921908],[-87.982162,17.927019],[-87.980767,17.929761],[-87.979721,17.934458]]],[[[-88.628643,17.45765],[-88.626204,17.457438],[-88.623277,17.459478],[-88.621082,17.459276],[-88.618349,17.463341],[-88.614951,17.461034],[-88.60995,17.464814],[-88.608812,17.463961],[-88.610723,17.460517],[-88.609031,17.457461],[-88.606368,17.456612],[-88.601917,17.456205],[-88.601356,17.459889],[-88.600136,17.463666],[-88.600478,17.471128],[-88.602086,17.472078],[-88.604901,17.471632],[-88.605162,17.475037],[-88.602405,17.476945],[-88.60404,17.477953],[-88.608812,17.477713],[-88.609438,17.480598],[-88.612227,17.481994],[-88.611268,17.483266],[-88.606178,17.482847],[-88.604584,17.480078],[-88.601492,17.481571],[-88.602762,17.483772],[-88.600801,17.485874],[-88.600913,17.487718],[-88.604069,17.490292],[-88.600829,17.49276],[-88.597326,17.491575],[-88.596178,17.494195],[-88.590567,17.493746],[-88.58877,17.491047],[-88.587169,17.491722],[-88.58712,17.494064],[-88.592177,17.496315],[-88.591019,17.498613],[-88.588102,17.498528],[-88.586621,17.497445],[-88.582042,17.498356],[-88.571999,17.498326],[-88.569223,17.42942],[-88.563296,17.429137],[-88.559644,17.427677],[-88.550588,17.42775],[-88.547593,17.432497],[-88.544745,17.436222],[-88.542001,17.442918],[-88.541773,17.449309],[-88.540404,17.453645],[-88.533214,17.460492],[-88.527052,17.464372],[-88.523058,17.46848],[-88.523172,17.47236],[-88.521803,17.473958],[-88.521917,17.477267],[-88.520319,17.480234],[-88.535953,17.487652],[-88.533214,17.492445],[-88.528536,17.495754],[-88.520433,17.495983],[-88.520433,17.498607],[-88.518817,17.504802],[-88.513121,17.514734],[-88.51239,17.523937],[-88.503699,17.523937],[-88.500266,17.525324],[-88.490306,17.525197],[-88.487339,17.529647],[-88.487111,17.537179],[-88.479922,17.546879],[-88.471477,17.546651],[-88.468738,17.547792],[-88.471363,17.552242],[-88.471363,17.558861],[-88.465543,17.562969],[-88.457212,17.557264],[-88.449795,17.562513],[-88.439068,17.562513],[-88.436215,17.560801],[-88.427998,17.556921],[-88.425602,17.555209],[-88.428683,17.550987],[-88.437014,17.551101],[-88.437128,17.548591],[-88.438497,17.545738],[-88.438497,17.543912],[-88.434389,17.53638],[-88.424461,17.526338],[-88.424461,17.520404],[-88.425944,17.518121],[-88.425602,17.514356],[-88.408827,17.514127],[-88.408827,17.516706],[-88.40722,17.521892],[-88.399989,17.528611],[-88.395534,17.5281],[-88.393708,17.526931],[-88.386232,17.526794],[-88.383493,17.525425],[-88.360327,17.524968],[-88.35741,17.529634],[-88.360258,17.535476],[-88.3615,17.539274],[-88.364641,17.54446],[-88.3615,17.548038],[-88.361573,17.553297],[-88.365444,17.556218],[-88.370264,17.556876],[-88.369899,17.551325],[-88.371433,17.551325],[-88.373989,17.549426],[-88.379905,17.555269],[-88.382899,17.561112],[-88.379976,17.566906],[-88.377837,17.568868],[-88.373201,17.569046],[-88.371061,17.569938],[-88.360719,17.569759],[-88.357866,17.571008],[-88.353052,17.571008],[-88.344671,17.576357],[-88.336648,17.579031],[-88.3206,17.578318],[-88.317747,17.576535],[-88.309901,17.576535],[-88.300986,17.572434],[-88.296183,17.569191],[-88.289096,17.565989],[-88.28989,17.570499],[-88.290083,17.576677],[-88.291156,17.581975],[-88.291585,17.586925],[-88.291414,17.595864],[-88.290341,17.601509],[-88.292036,17.603207],[-88.292615,17.612737],[-88.295101,17.612545],[-88.295921,17.6146],[-88.292697,17.614363],[-88.292709,17.616166],[-88.297004,17.615751],[-88.298225,17.617418],[-88.295977,17.622326],[-88.293556,17.621827],[-88.290638,17.626997],[-88.288504,17.629071],[-88.290123,17.630091],[-88.292532,17.628916],[-88.293903,17.6329],[-88.293393,17.636766],[-88.290165,17.636015],[-88.289366,17.63705],[-88.28877,17.647614],[-88.289048,17.6489],[-88.287875,17.654059],[-88.285197,17.655235],[-88.283037,17.653703],[-88.274709,17.653629],[-88.275525,17.65504],[-88.280901,17.65552],[-88.280919,17.657967],[-88.284415,17.65846],[-88.285205,17.656265],[-88.288152,17.655087],[-88.289054,17.649673],[-88.289988,17.648894],[-88.290099,17.645545],[-88.292934,17.647715],[-88.291355,17.652233],[-88.29259,17.655831],[-88.291671,17.658927],[-88.2906,17.65945],[-88.290357,17.663057],[-88.289045,17.667444],[-88.284764,17.66979],[-88.28313,17.66671],[-88.281927,17.66749],[-88.28211,17.674443],[-88.280768,17.67471],[-88.27784,17.678592],[-88.274614,17.678355],[-88.26989,17.675038],[-88.271084,17.672969],[-88.263803,17.669153],[-88.264701,17.662966],[-88.265631,17.661543],[-88.268042,17.660626],[-88.271238,17.656613],[-88.272317,17.65725],[-88.273492,17.652349],[-88.277653,17.652065],[-88.275756,17.649759],[-88.275327,17.645898],[-88.27733,17.64434],[-88.270884,17.64451],[-88.269547,17.645421],[-88.267427,17.649555],[-88.261939,17.671483],[-88.260067,17.672783],[-88.259281,17.675621],[-88.252039,17.67747],[-88.251247,17.679536],[-88.250366,17.688041],[-88.24944,17.690107],[-88.246759,17.691025],[-88.244621,17.692713],[-88.242504,17.697362],[-88.2393,17.700474],[-88.236656,17.706671],[-88.236536,17.708733],[-88.242288,17.705091],[-88.242819,17.704185],[-88.249815,17.705558],[-88.251714,17.708122],[-88.253582,17.706178],[-88.259495,17.706397],[-88.261102,17.705614],[-88.264868,17.706105],[-88.269323,17.709039],[-88.271106,17.714307],[-88.272997,17.715712],[-88.277563,17.715424],[-88.275977,17.719041],[-88.277874,17.721346],[-88.277649,17.727529],[-88.27363,17.729229],[-88.270945,17.729633],[-88.271362,17.731433],[-88.269382,17.736597],[-88.264288,17.738433],[-88.254892,17.740038],[-88.253584,17.745198],[-88.25239,17.747266],[-88.254158,17.750346],[-88.253912,17.753695],[-88.252853,17.75602],[-88.257961,17.756116],[-88.254798,17.765022],[-88.248621,17.765963],[-88.244046,17.765091],[-88.244057,17.766764],[-88.24809,17.766868],[-88.247316,17.771509],[-88.243302,17.774238],[-88.241151,17.774124],[-88.239796,17.772587],[-88.238787,17.782123],[-88.234763,17.783436],[-88.233577,17.786792],[-88.235913,17.794246],[-88.232689,17.794524],[-88.230255,17.792479],[-88.227031,17.792885],[-88.2223,17.788923],[-88.224684,17.783757],[-88.223859,17.780929],[-88.225329,17.77976],[-88.226384,17.776792],[-88.226343,17.770869],[-88.223909,17.768694],[-88.222566,17.768832],[-88.22591,17.746661],[-88.227088,17.742017],[-88.229099,17.74136],[-88.232576,17.738892],[-88.230414,17.737103],[-88.228265,17.737374],[-88.229358,17.739943],[-88.227212,17.740471],[-88.23045,17.722679],[-88.230811,17.716496],[-88.226887,17.732231],[-88.226349,17.732235],[-88.215299,17.827085],[-88.214767,17.827861],[-88.211512,17.843593],[-88.211697,17.85106],[-88.212919,17.852856],[-88.210375,17.854417],[-88.208593,17.869366],[-88.20221,17.900055],[-88.201672,17.900059],[-88.194269,17.919421],[-88.19827,17.914245],[-88.200779,17.907276],[-88.20387,17.90687],[-88.205769,17.909305],[-88.206729,17.911875],[-88.205749,17.926047],[-88.20053,17.9302],[-88.199093,17.930296],[-88.198683,17.93562],[-88.195721,17.935381],[-88.1944,17.938995],[-88.191445,17.939656],[-88.188374,17.943153],[-88.187898,17.946158],[-88.191488,17.946095],[-88.192054,17.950341],[-88.187744,17.949595],[-88.187489,17.951657],[-88.185631,17.955532],[-88.179992,17.957369],[-88.175147,17.957269],[-88.173542,17.958696],[-88.173825,17.960755],[-88.172238,17.962388],[-88.179063,17.963121],[-88.178791,17.958922],[-88.180946,17.959167],[-88.181935,17.963429],[-88.275904,17.973521],[-88.306831,17.966533],[-88.5078,17.921118],[-88.541626,17.913474],[-88.556459,17.877436],[-88.563401,17.850103],[-88.555512,17.831477],[-88.554565,17.809545],[-88.56277,17.790314],[-88.564348,17.77589],[-88.557721,17.747038],[-88.563717,17.733212],[-88.564032,17.719685],[-88.554565,17.701346],[-88.554565,17.689019],[-88.611686,17.674286],[-88.617997,17.667671],[-88.617997,17.656846],[-88.626203,17.634291],[-88.636301,17.616244],[-88.632514,17.566909],[-88.629601,17.492335],[-88.628643,17.45765]]],[[[-87.937727,18.030871],[-87.940188,18.030152],[-87.941819,18.02636],[-87.944601,18.023823],[-87.949431,18.020709],[-87.948055,18.015306],[-87.953438,18.015023],[-87.952887,18.012707],[-87.950449,18.009886],[-87.951253,18.009109],[-87.955295,18.009862],[-87.956636,18.009082],[-87.956885,18.005218],[-87.955925,18.001874],[-87.953515,18.004204],[-87.952148,18.000347],[-87.953873,17.995702],[-87.956567,17.996204],[-87.958058,18],[-87.959557,18.001599],[-87.960884,17.997986],[-87.959624,17.996792],[-87.960327,17.99464],[-87.958432,17.992589],[-87.955742,17.99286],[-87.956261,17.989251],[-87.958954,17.989624],[-87.958674,17.987565],[-87.961896,17.986133],[-87.961614,17.983816],[-87.96404,17.984319],[-87.966747,17.987139],[-87.9686,17.981463],[-87.972592,17.970709],[-87.973601,17.969357],[-87.973095,17.966759],[-87.974705,17.965978],[-87.97468,17.961342],[-87.9763,17.962235],[-87.978442,17.960293],[-87.978156,17.957203],[-87.979762,17.95565],[-87.983262,17.95589],[-87.985498,17.946606],[-87.987102,17.944537],[-87.987887,17.940669],[-87.986535,17.939388],[-87.987463,17.937066],[-87.990413,17.935248],[-87.989587,17.931903],[-87.992547,17.931888],[-87.991593,17.929575],[-87.986765,17.932433],[-87.985187,17.93888],[-87.982651,17.942756],[-87.981563,17.940702],[-87.979676,17.939938],[-87.980327,17.936071],[-87.978572,17.934921],[-87.976692,17.935574],[-87.976408,17.933],[-87.974927,17.93275],[-87.973059,17.935593],[-87.970684,17.937285],[-87.965243,17.945695],[-87.963743,17.948994],[-87.96175,17.950006],[-87.960086,17.954242],[-87.959056,17.958586],[-87.955583,17.963368],[-87.952625,17.96377],[-87.951833,17.966607],[-87.94996,17.968677],[-87.94781,17.969331],[-87.943665,17.9733],[-87.942153,17.975359],[-87.936691,17.978786],[-87.935504,17.983428],[-87.932957,17.985244],[-87.932449,17.99117],[-87.93124,17.991691],[-87.931796,17.995037],[-87.93342,17.996703],[-87.931545,17.998387],[-87.931752,18.001911],[-87.928965,18.003082],[-87.926933,18.002659],[-87.926118,18.004774],[-87.928364,18.007932],[-87.929424,18.004579],[-87.932152,18.003646],[-87.932394,18.006367],[-87.931069,18.010238],[-87.927572,18.01077],[-87.927868,18.018676],[-87.9231,18.019925],[-87.923025,18.021108],[-87.929573,18.021228],[-87.929367,18.019261],[-87.93193,18.016899],[-87.934584,18.016871],[-87.933685,18.021301],[-87.930759,18.021778],[-87.930803,18.024527],[-87.932849,18.024499],[-87.93577,18.022539],[-87.935874,18.025119],[-87.937727,18.030871]]],[[[-87.928583,18.040647],[-87.9323,18.039595],[-87.933094,18.037015],[-87.937683,18.032944],[-87.935978,18.030533],[-87.932345,18.030533],[-87.933516,18.027629],[-87.927552,18.028974],[-87.926031,18.032232],[-87.928509,18.035492],[-87.927081,18.038301],[-87.928583,18.040647]]],[[[-87.918175,18.057746],[-87.921737,18.054227],[-87.925631,18.054094],[-87.929268,18.050667],[-87.931258,18.046297],[-87.929611,18.046005],[-87.928399,18.049015],[-87.925781,18.050534],[-87.927637,18.045169],[-87.925932,18.042649],[-87.927973,18.040638],[-87.924708,18.036447],[-87.922584,18.03914],[-87.922241,18.041241],[-87.920385,18.043975],[-87.922639,18.045823],[-87.922831,18.050065],[-87.921286,18.052044],[-87.916576,18.056114],[-87.918175,18.057746]]],[[[-87.960609,18.096122],[-87.960631,18.100243],[-87.961979,18.100494],[-87.962636,18.097399],[-87.961943,18.093797],[-87.966512,18.092099],[-87.969205,18.092086],[-87.971906,18.09349],[-87.971922,18.096323],[-87.974356,18.098242],[-87.975158,18.097079],[-87.975132,18.092443],[-87.977009,18.090888],[-87.980771,18.089323],[-87.976453,18.0878],[-87.978058,18.085731],[-87.978581,18.082895],[-87.98132,18.085583],[-87.984236,18.082867],[-87.984445,18.078373],[-87.978181,18.079229],[-87.974762,18.077821],[-87.971313,18.077355],[-87.971912,18.07917],[-87.970758,18.081981],[-87.966994,18.081794],[-87.962965,18.083747],[-87.964528,18.08748],[-87.963268,18.089927],[-87.959921,18.093292],[-87.960609,18.096122]]],[[[-87.946674,18.109327],[-87.945321,18.108045],[-87.942087,18.107804],[-87.946114,18.105208],[-87.949893,18.106735],[-87.950172,18.108537],[-87.952691,18.108747],[-87.954378,18.106366],[-87.954725,18.103878],[-87.952959,18.100796],[-87.948525,18.102878],[-87.948191,18.101565],[-87.951188,18.097199],[-87.954407,18.094865],[-87.954651,18.090098],[-87.952765,18.089979],[-87.953323,18.093582],[-87.951168,18.093464],[-87.948496,18.09747],[-87.946814,18.098398],[-87.944403,18.09798],[-87.942088,18.099362],[-87.939324,18.103831],[-87.939938,18.108845],[-87.944786,18.108821],[-87.946674,18.109327]]],[[[-87.84752,18.185661],[-87.849017,18.184903],[-87.847749,18.178302],[-87.845586,18.176766],[-87.844082,18.172136],[-87.843522,18.16776],[-87.843632,18.162608],[-87.842809,18.159521],[-87.841324,18.159012],[-87.840364,18.15541],[-87.836839,18.150532],[-87.836149,18.147186],[-87.836782,18.138684],[-87.835425,18.136629],[-87.836488,18.133533],[-87.834998,18.131737],[-87.832569,18.130975],[-87.832022,18.129174],[-87.830134,18.128667],[-87.829844,18.124289],[-87.83281,18.12492],[-87.833603,18.121697],[-87.83872,18.121418],[-87.840864,18.11909],[-87.844362,18.118302],[-87.845967,18.115977],[-87.848926,18.115062],[-87.849892,18.119823],[-87.849366,18.122401],[-87.850458,18.125487],[-87.849399,18.129356],[-87.850783,18.137077],[-87.850394,18.140169],[-87.853085,18.139513],[-87.856323,18.140658],[-87.856086,18.147356],[-87.85286,18.148658],[-87.852066,18.151753],[-87.854095,18.153289],[-87.854782,18.156119],[-87.854265,18.160758],[-87.855892,18.162811],[-87.859677,18.16537],[-87.859974,18.171036],[-87.862155,18.176177],[-87.866612,18.178218],[-87.870304,18.181557],[-87.87231,18.177416],[-87.87723,18.173625],[-87.880205,18.16945],[-87.884301,18.165148],[-87.887668,18.159238],[-87.88799,18.155807],[-87.887497,18.153371],[-87.889725,18.150018],[-87.887688,18.146097],[-87.882904,18.146585],[-87.883972,18.142253],[-87.888948,18.142905],[-87.88883,18.137433],[-87.887594,18.137855],[-87.885101,18.136234],[-87.886192,18.133688],[-87.888065,18.133089],[-87.891887,18.130497],[-87.893239,18.130843],[-87.894958,18.135588],[-87.894982,18.140482],[-87.896859,18.13867],[-87.895623,18.13404],[-87.896993,18.130231],[-87.896636,18.128268],[-87.899227,18.124673],[-87.900445,18.121029],[-87.900328,18.118373],[-87.903379,18.114683],[-87.906966,18.112253],[-87.907572,18.10788],[-87.91063,18.102053],[-87.912942,18.099411],[-87.917691,18.098109],[-87.921093,18.096087],[-87.922212,18.088463],[-87.919139,18.089508],[-87.917044,18.091128],[-87.913444,18.088854],[-87.914012,18.094365],[-87.915145,18.096014],[-87.91258,18.096984],[-87.909701,18.102007],[-87.907309,18.099028],[-87.90759,18.096989],[-87.910566,18.094883],[-87.909424,18.091607],[-87.909683,18.088822],[-87.908379,18.085807],[-87.906521,18.085716],[-87.907388,18.081714],[-87.909617,18.078566],[-87.91518,18.07723],[-87.918981,18.076787],[-87.921361,18.08067],[-87.92409,18.08049],[-87.924664,18.077616],[-87.930297,18.072593],[-87.932298,18.070182],[-87.93221,18.068849],[-87.937301,18.061399],[-87.936057,18.059144],[-87.935902,18.056413],[-87.93806,18.051172],[-87.936523,18.051305],[-87.936057,18.054095],[-87.934799,18.056059],[-87.933977,18.060106],[-87.930514,18.060812],[-87.9296,18.058948],[-87.928321,18.053215],[-87.924505,18.055125],[-87.922477,18.054829],[-87.92084,18.055964],[-87.916619,18.061051],[-87.913571,18.062608],[-87.914022,18.05949],[-87.909956,18.059032],[-87.906738,18.06201],[-87.904763,18.061745],[-87.902532,18.059644],[-87.901985,18.056043],[-87.900837,18.054931],[-87.902403,18.052881],[-87.904613,18.051738],[-87.907035,18.048215],[-87.907456,18.043536],[-87.909162,18.040905],[-87.909409,18.038674],[-87.908288,18.036955],[-87.91082,18.031056],[-87.91638,18.029448],[-87.91236,18.026281],[-87.914839,18.023241],[-87.918765,18.021731],[-87.9178,18.019843],[-87.914183,18.019014],[-87.91844,18.014934],[-87.917221,18.013394],[-87.917613,18.011074],[-87.912238,18.012903],[-87.913031,18.010066],[-87.915165,18.007117],[-87.915795,18.002638],[-87.918052,17.998848],[-87.918483,17.993253],[-87.921518,17.985556],[-87.9242,17.98374],[-87.924997,17.981676],[-87.927687,17.981405],[-87.929427,17.979336],[-87.930339,17.973665],[-87.929395,17.973412],[-87.932436,17.964379],[-87.937848,17.958675],[-87.941288,17.957643],[-87.941411,17.955324],[-87.943355,17.950812],[-87.945758,17.948787],[-87.946472,17.945288],[-87.948417,17.942037],[-87.954891,17.934653],[-87.95691,17.931961],[-87.959933,17.933475],[-87.962258,17.931441],[-87.96365,17.929134],[-87.959587,17.928497],[-87.957731,17.93081],[-87.956433,17.930267],[-87.952663,17.934161],[-87.950844,17.936878],[-87.944963,17.944123],[-87.942476,17.946694],[-87.940923,17.950013],[-87.939865,17.954479],[-87.937715,17.956986],[-87.933736,17.959089],[-87.931805,17.961258],[-87.929549,17.96783],[-87.92726,17.972681],[-87.925419,17.974978],[-87.918604,17.989367],[-87.915686,17.997874],[-87.912392,18.00272],[-87.908324,18.0139],[-87.904999,18.020947],[-87.902595,18.02441],[-87.899218,18.027911],[-87.895054,18.035671],[-87.892947,18.041823],[-87.892573,18.049322],[-87.89207,18.051778],[-87.889755,18.05597],[-87.886485,18.059845],[-87.884967,18.064917],[-87.883504,18.067423],[-87.88283,18.07437],[-87.879569,18.081478],[-87.874008,18.089465],[-87.870828,18.090455],[-87.869121,18.092872],[-87.866495,18.094702],[-87.864156,18.097613],[-87.860495,18.100813],[-87.856842,18.108378],[-87.85424,18.108352],[-87.852247,18.110615],[-87.84693,18.114717],[-87.841398,18.115834],[-87.838435,18.118132],[-87.834441,18.120316],[-87.829285,18.120355],[-87.827752,18.123461],[-87.828363,18.128813],[-87.831513,18.131977],[-87.832978,18.134707],[-87.834749,18.142986],[-87.834907,18.148921],[-87.835554,18.152441],[-87.837502,18.155889],[-87.839775,18.161641],[-87.840429,18.170409],[-87.841226,18.173599],[-87.84476,18.178951],[-87.84752,18.185661]]]]}},
{"type":"Feature","id":"BLZ:ADM2:BZ-BZ.belize-rural-north-2","properties":{"shapeName":"Belize Rural North","shapeISO":"","shapeGroup":"BLZ","shapeType":"ADM2","adm1ISO":"BZ-BZ","parentISO":"BZ-BZ","parentID":"BLZ:ADM1:BZ-BZ","src_shape_id":"1456440B76393603142959"},"geometry":{"type":"MultiPolygon","coordinates":[[[[-88.028753,17.082671],[-88.028529,17.085239],[-88.031654,17.092369],[-88.03616,17.096224],[-88.039835,17.096654],[-88.042592,17.096078],[-88.045564,17.093836],[-88.04518,17.091359],[-88.046448,17.086192],[-88.049534,17.083142],[-88.050609,17.079899],[-88.045136,17.078834],[-88.042733,17.079992],[-88.039423,17.078964],[-88.036573,17.080133],[-88.033181,17.079439],[-88.029808,17.079783],[-88.028753,17.082671]]],[[[-87.874041,17.187588],[-87.870586,17.189338],[-87.868835,17.193611],[-87.865215,17.195676],[-87.864007,17.20149],[-87.865524,17.204544],[-87.866567,17.208528],[-87.871121,17.21238],[-87.875284,17.212423],[-87.876292,17.211314],[-87.87609,17.202908],[-87.873717,17.201657],[-87.872455,17.198189],[-87.877947,17.186277],[-87.874041,17.187588]]],[[[-87.592668,17.221646],[-87.595172,17.221487],[-87.595206,17.216734],[-87.595774,17.212108],[-87.598044,17.20761],[-87.597878,17.205504],[-87.601451,17.197847],[-87.604423,17.19421],[-87.605192,17.190892],[-87.602954,17.189839],[-87.600215,17.190988],[-87.600249,17.193094],[-87.60242,17.1937],[-87.597544,17.19906],[-87.591298,17.202856],[-87.587825,17.205664],[-87.584519,17.211087],[-87.584652,17.214405],[-87.588526,17.216223],[-87.58886,17.219094],[-87.592668,17.221646]]],[[[-87.861714,17.232369],[-87.856339,17.236532],[-87.856169,17.240214],[-87.859023,17.243698],[-87.863366,17.24662],[-87.866765,17.244042],[-87.86731,17.242026],[-87.868717,17.231471],[-87.866822,17.227453],[-87.87199,17.223115],[-87.875679,17.224971],[-87.883531,17.224832],[-87.882333,17.231154],[-87.877794,17.230301],[-87.876883,17.232731],[-87.882236,17.23389],[-87.884815,17.238234],[-87.886789,17.235636],[-87.889143,17.235954],[-87.892321,17.233906],[-87.885746,17.218395],[-87.874894,17.217022],[-87.875171,17.214669],[-87.874051,17.213126],[-87.868468,17.212308],[-87.865509,17.215168],[-87.866074,17.217287],[-87.86314,17.217394],[-87.864566,17.22075],[-87.861714,17.232369]]],[[[-87.926645,17.249374],[-87.932816,17.24594],[-87.93606,17.24812],[-87.941141,17.247194],[-87.938704,17.229307],[-87.936412,17.220642],[-87.934944,17.216165],[-87.932215,17.212927],[-87.930009,17.211656],[-87.926233,17.213156],[-87.926825,17.219978],[-87.923254,17.220765],[-87.919045,17.224839],[-87.916826,17.223919],[-87.915447,17.225302],[-87.916926,17.227272],[-87.924156,17.22661],[-87.929183,17.222814],[-87.931332,17.223834],[-87.930678,17.226928],[-87.9311,17.231048],[-87.932712,17.231813],[-87.934558,17.237333],[-87.935579,17.241948],[-87.930953,17.244448],[-87.926645,17.249374]]],[[[-87.940629,17.260112],[-87.939124,17.268915],[-87.942832,17.27012],[-87.945484,17.264415],[-87.943297,17.257523],[-87.943313,17.249252],[-87.935751,17.249268],[-87.933151,17.249645],[-87.938871,17.257029],[-87.940629,17.260112]]],[[[-87.821214,17.264757],[-87.821106,17.270682],[-87.823245,17.269385],[-87.825633,17.263708],[-87.827241,17.263702],[-87.831244,17.266575],[-87.830235,17.269345],[-87.83287,17.27119],[-87.837424,17.262629],[-87.844479,17.265399],[-87.860164,17.265321],[-87.861521,17.260137],[-87.854959,17.257977],[-87.853182,17.251657],[-87.842474,17.252819],[-87.84035,17.25444],[-87.839543,17.256953],[-87.835545,17.262122],[-87.832331,17.262779],[-87.82803,17.260092],[-87.827236,17.262542],[-87.825086,17.261392],[-87.822547,17.262948],[-87.821214,17.264757]]],[[[-87.807194,17.285077],[-87.810979,17.291056],[-87.814747,17.28963],[-87.817743,17.286782],[-87.820253,17.283451],[-87.81936,17.280418],[-87.820317,17.274587],[-87.817228,17.272758],[-87.814947,17.27251],[-87.812705,17.280763],[-87.811504,17.282184],[-87.807194,17.285077]]],[[[-87.849341,17.301316],[-87.850028,17.300496],[-87.847968,17.296399],[-87.84814,17.291072],[-87.842646,17.290089],[-87.845221,17.287712],[-87.848654,17.289761],[-87.848607,17.282053],[-87.852603,17.283614],[-87.85513,17.289511],[-87.857838,17.287876],[-87.858313,17.286386],[-87.856561,17.284424],[-87.856723,17.280254],[-87.843934,17.275665],[-87.845221,17.27255],[-87.848654,17.270501],[-87.854272,17.271972],[-87.856465,17.271731],[-87.860499,17.268698],[-87.856379,17.269108],[-87.853804,17.270747],[-87.850714,17.26919],[-87.846251,17.269764],[-87.843161,17.271239],[-87.841016,17.273124],[-87.830458,17.290253],[-87.829858,17.297218],[-87.836896,17.298693],[-87.845994,17.298038],[-87.849341,17.301316]]],[[[-87.893258,17.386897],[-87.89925,17.386141],[-87.902076,17.384432],[-87.904593,17.380705],[-87.906375,17.38152],[-87.911187,17.380056],[-87.917341,17.381765],[-87.917715,17.378666],[-87.9156,17.379316],[-87.912853,17.378608],[-87.909524,17.376818],[-87.904424,17.378655],[-87.903878,17.375244],[-87.906643,17.371733],[-87.907446,17.369516],[-87.905987,17.368035],[-87.904411,17.369492],[-87.902652,17.366713],[-87.902979,17.36233],[-87.90137,17.36123],[-87.901557,17.359087],[-87.904869,17.358913],[-87.905705,17.357369],[-87.913422,17.356699],[-87.914449,17.354639],[-87.908406,17.35468],[-87.907083,17.350918],[-87.905522,17.350388],[-87.905678,17.346192],[-87.909945,17.345651],[-87.913731,17.343461],[-87.917971,17.343161],[-87.92116,17.331892],[-87.926705,17.321929],[-87.932713,17.309957],[-87.934052,17.290158],[-87.931756,17.281533],[-87.932676,17.277923],[-87.934678,17.27611],[-87.933456,17.273025],[-87.931846,17.272903],[-87.930496,17.270848],[-87.927005,17.269834],[-87.925256,17.268426],[-87.922957,17.264573],[-87.924829,17.263534],[-87.925212,17.259668],[-87.921321,17.258913],[-87.920165,17.268965],[-87.921007,17.276689],[-87.922222,17.278486],[-87.92545,17.280532],[-87.925337,17.284654],[-87.923619,17.289814],[-87.924482,17.292969],[-87.915547,17.293863],[-87.922925,17.300893],[-87.927417,17.304426],[-87.918619,17.306696],[-87.922379,17.315111],[-87.920242,17.32056],[-87.917993,17.329237],[-87.911948,17.33381],[-87.914033,17.335355],[-87.913493,17.339147],[-87.91109,17.339405],[-87.908147,17.338679],[-87.905597,17.337228],[-87.905278,17.342846],[-87.903218,17.344344],[-87.902286,17.347574],[-87.902106,17.351272],[-87.90009,17.354394],[-87.897801,17.356712],[-87.895685,17.362636],[-87.89735,17.369223],[-87.898148,17.370944],[-87.900749,17.373526],[-87.898078,17.375677],[-87.896656,17.381602],[-87.894922,17.383025],[-87.893258,17.386897]]],[[[-88.058707,17.373232],[-88.057369,17.377336],[-88.061463,17.385011],[-88.060021,17.388943],[-88.062647,17.39027],[-88.067522,17.389696],[-88.070423,17.387796],[-88.069505,17.377672],[-88.068621,17.371979],[-88.060948,17.371405],[-88.058707,17.373232]]],[[[-87.822606,17.426908],[-87.823942,17.425486],[-87.825796,17.420068],[-87.829537,17.416704],[-87.828179,17.412974],[-87.829248,17.412069],[-87.830039,17.408974],[-87.834327,17.407926],[-87.834053,17.406639],[-87.830557,17.404979],[-87.827336,17.404477],[-87.824126,17.406809],[-87.821709,17.406175],[-87.819956,17.404122],[-87.819543,17.401805],[-87.820875,17.399739],[-87.817655,17.399752],[-87.81776,17.393054],[-87.818829,17.392019],[-87.8184,17.386096],[-87.814635,17.38418],[-87.811534,17.380457],[-87.81125,17.376852],[-87.813641,17.371691],[-87.812287,17.368605],[-87.813209,17.364995],[-87.815618,17.363825],[-87.817499,17.364462],[-87.822326,17.364313],[-87.823248,17.360317],[-87.82042,17.357881],[-87.818891,17.355094],[-87.818642,17.350032],[-87.819841,17.348224],[-87.822482,17.33894],[-87.822985,17.331467],[-87.820691,17.328128],[-87.81987,17.324525],[-87.820531,17.322461],[-87.823199,17.319359],[-87.824538,17.318839],[-87.825594,17.315228],[-87.830411,17.304606],[-87.827296,17.303532],[-87.820514,17.318598],[-87.817031,17.319513],[-87.815151,17.318748],[-87.810615,17.324047],[-87.806055,17.323808],[-87.804168,17.321626],[-87.799865,17.318939],[-87.803031,17.312284],[-87.806516,17.312284],[-87.808675,17.305835],[-87.802469,17.306831],[-87.800116,17.314816],[-87.796771,17.316375],[-87.795584,17.321274],[-87.793849,17.323084],[-87.792813,17.331589],[-87.793366,17.335451],[-87.79837,17.34522],[-87.801328,17.347011],[-87.800957,17.354225],[-87.80883,17.375574],[-87.809399,17.383042],[-87.811687,17.384836],[-87.814791,17.388945],[-87.814027,17.398221],[-87.818079,17.404387],[-87.819033,17.407989],[-87.818104,17.410054],[-87.819318,17.411594],[-87.81826,17.414948],[-87.816251,17.415729],[-87.816128,17.418305],[-87.80999,17.425801],[-87.813213,17.42656],[-87.815348,17.423975],[-87.81857,17.424348],[-87.822606,17.426908]]],[[[-87.501468,17.45425],[-87.503619,17.455533],[-87.506299,17.45411],[-87.506831,17.452563],[-87.514601,17.447648],[-87.515419,17.443342],[-87.516754,17.441957],[-87.515621,17.440419],[-87.513646,17.440925],[-87.508614,17.4394],[-87.50565,17.437249],[-87.502352,17.437328],[-87.500014,17.43474],[-87.496132,17.4347],[-87.490705,17.442586],[-87.490325,17.446132],[-87.493678,17.451823],[-87.494753,17.452336],[-87.49503,17.455426],[-87.499589,17.453997],[-87.501468,17.45425]]],[[[-88.078245,17.504121],[-88.080106,17.50102],[-88.076739,17.498978],[-88.078738,17.496649],[-88.080619,17.497024],[-88.083923,17.495502],[-88.085244,17.491888],[-88.080327,17.493034],[-88.075227,17.493062],[-88.072801,17.491272],[-88.071971,17.487155],[-88.0733,17.48483],[-88.068869,17.484338],[-88.065789,17.485643],[-88.064732,17.488482],[-88.063259,17.489005],[-88.062608,17.492485],[-88.065323,17.497751],[-88.067478,17.499028],[-88.071511,17.500165],[-88.077971,17.503092],[-88.078245,17.504121]]],[[[-88.157026,17.519466],[-88.160949,17.519171],[-88.160769,17.51602],[-88.157481,17.514014],[-88.153662,17.510224],[-88.151413,17.50722],[-88.151027,17.505502],[-88.147791,17.501728],[-88.145139,17.503021],[-88.144255,17.505583],[-88.14216,17.508555],[-88.144298,17.510756],[-88.143568,17.5125],[-88.145508,17.514358],[-88.146358,17.518066],[-88.147267,17.51904],[-88.152941,17.518639],[-88.157026,17.519466]]],[[[-87.812345,17.547581],[-87.812541,17.54643],[-87.811505,17.536878],[-87.812351,17.532067],[-87.813458,17.529565],[-87.816667,17.526946],[-87.818945,17.526373],[-87.822764,17.521462],[-87.823776,17.519358],[-87.823595,17.515239],[-87.824476,17.510464],[-87.826747,17.506826],[-87.821535,17.508928],[-87.81991,17.512176],[-87.820033,17.516549],[-87.818537,17.517613],[-87.817321,17.523434],[-87.812882,17.525133],[-87.81352,17.527828],[-87.81045,17.530432],[-87.808743,17.529994],[-87.805881,17.526286],[-87.802815,17.52713],[-87.798337,17.525896],[-87.797491,17.524288],[-87.796887,17.520068],[-87.799903,17.516995],[-87.800154,17.508528],[-87.797737,17.50828],[-87.792639,17.508944],[-87.791289,17.507276],[-87.790875,17.504444],[-87.78938,17.500328],[-87.790984,17.498776],[-87.79474,17.498246],[-87.79661,17.496178],[-87.804126,17.496147],[-87.805989,17.492534],[-87.809479,17.492519],[-87.812963,17.491346],[-87.815919,17.491978],[-87.817507,17.48682],[-87.821777,17.48242],[-87.819699,17.481495],[-87.81706,17.478085],[-87.815996,17.475449],[-87.81743,17.469689],[-87.819835,17.467233],[-87.823047,17.465416],[-87.828419,17.466295],[-87.827069,17.464369],[-87.827051,17.460506],[-87.83295,17.459321],[-87.83537,17.460213],[-87.834935,17.462363],[-87.840478,17.461995],[-87.840733,17.45916],[-87.842336,17.457608],[-87.850104,17.454354],[-87.867273,17.452735],[-87.871039,17.454651],[-87.871725,17.457739],[-87.868654,17.461101],[-87.867197,17.464971],[-87.863991,17.468076],[-87.860105,17.469381],[-87.857967,17.471322],[-87.853679,17.472886],[-87.857991,17.476473],[-87.860951,17.478136],[-87.864171,17.477864],[-87.865773,17.476054],[-87.872685,17.462114],[-87.875363,17.460942],[-87.879106,17.457964],[-87.880553,17.451775],[-87.883881,17.446351],[-87.884539,17.443515],[-87.886006,17.441705],[-87.888953,17.440662],[-87.890016,17.438596],[-87.892692,17.437039],[-87.89307,17.431885],[-87.897045,17.422723],[-87.899767,17.420118],[-87.902671,17.415237],[-87.905472,17.412358],[-87.906061,17.410687],[-87.908272,17.408635],[-87.913307,17.400368],[-87.913962,17.397273],[-87.918083,17.393659],[-87.917589,17.388684],[-87.923555,17.382692],[-87.921495,17.377318],[-87.923065,17.368299],[-87.91977,17.361082],[-87.917984,17.382649],[-87.912491,17.381248],[-87.910969,17.381315],[-87.907467,17.383226],[-87.906126,17.385975],[-87.902919,17.386718],[-87.900457,17.389175],[-87.90141,17.393457],[-87.901361,17.397227],[-87.899834,17.40282],[-87.895813,17.406558],[-87.898302,17.409325],[-87.895665,17.410776],[-87.893011,17.414801],[-87.892533,17.418187],[-87.894116,17.420831],[-87.892607,17.423942],[-87.888593,17.425414],[-87.886426,17.429087],[-87.88379,17.429674],[-87.881419,17.427511],[-87.879039,17.42905],[-87.875997,17.427233],[-87.872616,17.427804],[-87.870839,17.424487],[-87.869226,17.425306],[-87.866211,17.430826],[-87.868921,17.433022],[-87.868344,17.437096],[-87.867334,17.438068],[-87.862366,17.439288],[-87.860819,17.441178],[-87.855261,17.442539],[-87.853388,17.440748],[-87.851594,17.442084],[-87.852166,17.443817],[-87.850896,17.446178],[-87.848789,17.447034],[-87.846079,17.446497],[-87.843578,17.443871],[-87.843782,17.441501],[-87.846019,17.439979],[-87.847161,17.437609],[-87.845322,17.434871],[-87.844635,17.428005],[-87.843397,17.426343],[-87.842565,17.422255],[-87.838507,17.421187],[-87.833792,17.421579],[-87.827754,17.42558],[-87.823986,17.432008],[-87.822592,17.433143],[-87.816443,17.435386],[-87.812954,17.439708],[-87.810643,17.440875],[-87.809371,17.443428],[-87.813049,17.44504],[-87.81476,17.443297],[-87.815624,17.440226],[-87.81741,17.443152],[-87.819384,17.442547],[-87.82103,17.445012],[-87.821189,17.446901],[-87.817113,17.447173],[-87.814936,17.444892],[-87.810746,17.445773],[-87.810497,17.451093],[-87.808882,17.456632],[-87.806697,17.459994],[-87.805899,17.463918],[-87.804176,17.46763],[-87.798991,17.475275],[-87.795323,17.482052],[-87.793981,17.483402],[-87.788252,17.486586],[-87.784495,17.487983],[-87.785081,17.493408],[-87.783666,17.496054],[-87.781407,17.49694],[-87.778042,17.497087],[-87.774704,17.499927],[-87.772324,17.499406],[-87.769476,17.500684],[-87.76792,17.50352],[-87.762206,17.50495],[-87.761396,17.507419],[-87.762562,17.510978],[-87.765731,17.509324],[-87.768188,17.506728],[-87.77258,17.505112],[-87.774999,17.502751],[-87.776954,17.505397],[-87.777483,17.509113],[-87.780066,17.50989],[-87.786734,17.509225],[-87.789638,17.511151],[-87.794327,17.517431],[-87.794399,17.519116],[-87.79095,17.519274],[-87.787823,17.522577],[-87.786461,17.527234],[-87.784176,17.529213],[-87.780497,17.529751],[-87.780703,17.533358],[-87.784396,17.534133],[-87.785751,17.531619],[-87.79152,17.528035],[-87.795517,17.527071],[-87.800195,17.526954],[-87.801029,17.529567],[-87.804091,17.532548],[-87.801126,17.534734],[-87.800922,17.537186],[-87.801997,17.540521],[-87.804511,17.53986],[-87.809063,17.541995],[-87.809815,17.545927],[-87.812345,17.547581]]],[[[-88.301361,17.124389],[-88.302231,17.12854],[-88.303815,17.142729],[-88.304879,17.167847],[-88.304238,17.184582],[-88.303636,17.192575],[-88.304303,17.210575],[-88.303334,17.232357],[-88.303918,17.240269],[-88.298108,17.278726],[-88.295391,17.292652],[-88.291871,17.307098],[-88.288469,17.318968],[-88.287456,17.321437],[-88.281908,17.339615],[-88.278756,17.349165],[-88.27393,17.368771],[-88.27329,17.373154],[-88.269593,17.391735],[-88.264019,17.409787],[-88.262845,17.41411],[-88.260283,17.4214],[-88.260176,17.424245],[-88.261121,17.425472],[-88.259735,17.42924],[-88.259611,17.435103],[-88.258538,17.44149],[-88.256806,17.449373],[-88.268728,17.449069],[-88.276184,17.44912],[-88.265938,17.460837],[-88.261525,17.46525],[-88.24674,17.482217],[-88.237071,17.494263],[-88.224829,17.508052],[-88.233496,17.513505],[-88.239307,17.510941],[-88.241612,17.51211],[-88.240378,17.516557],[-88.241742,17.518375],[-88.244176,17.51844],[-88.246806,17.520972],[-88.247909,17.525679],[-88.243332,17.52873],[-88.243754,17.536294],[-88.244737,17.537716],[-88.25161,17.541553],[-88.25437,17.541456],[-88.25807,17.544345],[-88.259499,17.544442],[-88.262096,17.542462],[-88.265796,17.542592],[-88.27112,17.54428],[-88.273352,17.544312],[-88.280105,17.545933],[-88.284156,17.54425],[-88.285305,17.546319],[-88.285306,17.553513],[-88.285856,17.555984],[-88.280063,17.561581],[-88.28244,17.563209],[-88.285427,17.56245],[-88.288216,17.563738],[-88.289096,17.565989],[-88.296183,17.569191],[-88.300986,17.572434],[-88.309901,17.576535],[-88.317747,17.576535],[-88.3206,17.578318],[-88.336648,17.579031],[-88.344671,17.576357],[-88.353052,17.571008],[-88.357866,17.571008],[-88.360719,17.569759],[-88.371061,17.569938],[-88.373201,17.569046],[-88.377837,17.568868],[-88.379976,17.566906],[-88.382899,17.561112],[-88.379905,17.555269],[-88.373989,17.549426],[-88.371433,17.551325],[-88.369899,17.551325],[-88.370264,17.556876],[-88.365444,17.556218],[-88.361573,17.553297],[-88.3615,17.548038],[-88.364641,17.54446],[-88.3615,17.539274],[-88.360258,17.535476],[-88.35741,17.529634],[-88.360327,17.524968],[-88.383493,17.525425],[-88.386232,17.526794],[-88.393708,17.526931],[-88.395534,17.5281],[-88.399989,17.528611],[-88.40722,17.521892],[-88.408827,17.516706],[-88.408827,17.514127],[-88.425602,17.514356],[-88.425944,17.518121],[-88.424461,17.520404],[-88.424461,17.526338],[-88.434389,17.53638],[-88.438497,17.543912],[-88.438497,17.545738],[-88.437128,17.548591],[-88.437014,17.551101],[-88.428683,17.550987],[-88.425602,17.555209],[-88.427998,17.556921],[-88.436215,17.560801],[-88.439068,17.562513],[-88.449795,17.562513],[-88.457212,17.557264],[-88.465543,17.562969],[-88.471363,17.558861],[-88.471363,17.552242],[-88.468738,17.547792],[-88.471477,17.546651],[-88.479922,17.546879],[-88.487111,17.537179],[-88.487339,17.529647],[-88.490306,17.525197],[-88.500266,17.525324],[-88.503699,17.523937],[-88.51239,17.523937],[-88.513121,17.514734],[-88.518817,17.504802],[-88.520433,17.498607],[-88.520433,17.495983],[-88.528536,17.495754],[-88.533214,17.492445],[-88.535953,17.487652],[-88.520319,17.480234],[-88.521917,17.477267],[-88.521803,17.473958],[-88.523172,17.47236],[-88.523058,17.46848],[-88.527052,17.464372],[-88.533214,17.460492],[-88.540404,17.453645],[-88.541773,17.449309],[-88.542001,17.442918],[-88.544745,17.436222],[-88.547593,17.432497],[-88.550588,17.42775],[-88.559644,17.427677],[-88.563296,17.429137],[-88.569223,17.42942],[-88.565358,17.333527],[-88.561571,17.315933],[-88.564348,17.275195],[-88.559804,17.263864],[-88.561571,17.255908],[-88.563161,17.237035],[-88.55685,17.224496],[-88.545993,17.215574],[-88.537662,17.199657],[-88.534632,17.187356],[-88.538419,17.175779],[-88.545741,17.165648],[-88.546751,17.155516],[-88.552558,17.141765],[-88.560637,17.131632],[-88.560637,17.12367],[-88.570874,17.113392],[-88.589505,17.106515],[-88.569055,17.106515],[-88.335872,17.104596],[-88.327036,17.112137],[-88.315675,17.111835],[-88.31031,17.119375],[-88.301361,17.124389]]]]}}
]}