{"type":"FeatureCollection","bbox":[-88.606523,17.963429,-88.089507,18.496001],"features":[
{"type":"Feature","id":"BLZ:ADM2:BZ-CZL.corozal-south-east","properties":{"shapeName":"Corozal South East","shapeISO":"","shapeGroup":"BLZ","shapeType":"ADM2","adm1ISO":"BZ-CZL","parentISO":"BZ-CZL","parentID":"BLZ:ADM1:BZ-CZL","src_shape_id":"1456440B92384260503294"},"geometry":{"type":"Polygon","coordinates":[[[-88.504299,18.204484],[-88.499569,18.202428],[-88.481404,18.194533],[-88.440723,18.111364],[-88.275904,17.973521],[-88.181935,17.963429],[-88.179243,17.966131],[-88.181675,17.967661],[-88.177374,17.96846],[-88.178204,17.971803],[-88.176342,17.975163],[-88.173121,17.97647],[-88.172335,17.979694],[-88.174365,17.981356],[-88.174658,17.98496],[-88.175476,17.986501],[-88.174829,17.990626],[-88.172431,17.994246],[-88.167319,17.994534],[-88.166792,17.99634],[-88.161142,17.996632],[-88.15859,17.99742],[-88.158741,18],[-88.163326,18],[-88.162528,18.002805],[-88.164421,18.004081],[-88.165114,18.007168],[-88.164184,18.009105],[-88.157988,18.008369],[-88.155695,18.007482],[-88.155306,18.009802],[-88.158538,18.01004],[-88.158287,18.012875],[-88.160452,18.014665],[-88.159948,18.019819],[-88.161297,18.020326],[-88.161857,18.023671],[-88.164798,18.020563],[-88.166446,18.025575],[-88.165924,18.028025],[-88.161894,18.029337],[-88.162719,18.031908],[-88.159493,18.032571],[-88.158259,18.029101],[-88.156766,18.027307],[-88.155171,18.030408],[-88.150323,18.03005],[-88.148449,18.031736],[-88.149268,18.033404],[-88.148207,18.035858],[-88.150111,18.038937],[-88.158186,18.038632],[-88.157396,18.041212],[-88.159159,18.043262],[-88.159586,18.046865],[-88.157724,18.050224],[-88.155394,18.050407],[-88.153408,18.049091],[-88.15217,18.051457],[-88.149262,18.053108],[-88.148563,18.049249],[-88.147218,18.049514],[-88.143971,18.046958],[-88.143036,18.047994],[-88.142921,18.051085],[-88.144034,18.056745],[-88.143922,18.060094],[-88.146215,18.060853],[-88.146233,18.063686],[-88.14354,18.063572],[-88.141903,18.060363],[-88.142965,18.058039],[-88.141604,18.055729],[-88.137848,18.057812],[-88.136781,18.059363],[-88.134485,18.058089],[-88.135947,18.055247],[-88.135133,18.05435],[-88.131644,18.056045],[-88.131381,18.057077],[-88.12734,18.056714],[-88.128718,18.061729],[-88.124936,18.059818],[-88.122424,18.066917],[-88.119759,18.07131],[-88.116821,18.075191],[-88.114226,18.090659],[-88.112245,18.096852],[-88.112664,18.099168],[-88.11067,18.103428],[-88.109056,18.103696],[-88.108533,18.106146],[-88.106656,18.107573],[-88.108289,18.110268],[-88.106005,18.111054],[-88.105841,18.106419],[-88.107181,18.105381],[-88.105947,18.101782],[-88.10413,18.11261],[-88.101591,18.115973],[-88.100949,18.12087],[-88.101672,18.12885],[-88.100759,18.133492],[-88.098897,18.137365],[-88.097101,18.151799],[-88.095602,18.170609],[-88.095623,18.173958],[-88.094343,18.184782],[-88.093545,18.186332],[-88.091453,18.196646],[-88.089507,18.208763],[-88.089805,18.213397],[-88.092237,18.214414],[-88.092133,18.219308],[-88.093622,18.22033],[-88.09487,18.225989],[-88.094407,18.238096],[-88.095222,18.239122],[-88.095529,18.245044],[-88.095171,18.252515],[-88.093842,18.255613],[-88.094434,18.26411],[-88.095782,18.264102],[-88.095697,18.271829],[-88.094238,18.275701],[-88.097206,18.276199],[-88.096963,18.280321],[-88.094294,18.284715],[-88.099144,18.284172],[-88.10007,18.281333],[-88.103711,18.28157],[-88.10282,18.283208],[-88.103609,18.286721],[-88.102687,18.290203],[-88.102045,18.29523],[-88.1022,18.298577],[-88.10087,18.301418],[-88.097355,18.299893],[-88.098457,18.303492],[-88.100624,18.305025],[-88.098756,18.308127],[-88.095921,18.329005],[-88.097435,18.33389],[-88.096462,18.343851],[-88.09897,18.342123],[-88.098772,18.332079],[-88.096602,18.330031],[-88.097248,18.325649],[-88.098869,18.326155],[-88.100747,18.324599],[-88.102908,18.325101],[-88.104511,18.322774],[-88.108017,18.322754],[-88.107422,18.320485],[-88.110976,18.321706],[-88.111534,18.324536],[-88.109376,18.324549],[-88.109659,18.326607],[-88.114499,18.32439],[-88.118009,18.325013],[-88.119618,18.323587],[-88.117451,18.322183],[-88.118651,18.319859],[-88.11716,18.318708],[-88.117412,18.316003],[-88.122535,18.315972],[-88.123641,18.320215],[-88.126615,18.321357],[-88.127126,18.316976],[-88.128472,18.31671],[-88.128591,18.314134],[-88.131683,18.312828],[-88.133006,18.308957],[-88.140002,18.306597],[-88.141123,18.305369],[-88.147037,18.305929],[-88.147792,18.302172],[-88.151005,18.298805],[-88.152915,18.302141],[-88.149016,18.30371],[-88.149439,18.30654],[-88.148581,18.311837],[-88.146787,18.313381],[-88.143558,18.314431],[-88.139112,18.314844],[-88.136833,18.316918],[-88.130364,18.317342],[-88.130107,18.319276],[-88.130557,18.326227],[-88.129577,18.329747],[-88.127223,18.332041],[-88.125207,18.332955],[-88.122819,18.338893],[-88.119725,18.340327],[-88.115538,18.339193],[-88.114044,18.337527],[-88.10892,18.337557],[-88.104889,18.33977],[-88.102885,18.342615],[-88.101832,18.346742],[-88.10266,18.349828],[-88.102002,18.352407],[-88.103236,18.355491],[-88.102571,18.35704],[-88.099329,18.356286],[-88.100425,18.358855],[-88.099489,18.360148],[-88.098977,18.36453],[-88.097773,18.366082],[-88.098904,18.374317],[-88.102916,18.368885],[-88.113142,18.365091],[-88.122321,18.366325],[-88.130939,18.364213],[-88.135513,18.362512],[-88.140765,18.359534],[-88.144691,18.357858],[-88.145188,18.356701],[-88.148917,18.353872],[-88.152558,18.353063],[-88.156698,18.350349],[-88.162589,18.347412],[-88.165692,18.346638],[-88.168657,18.342682],[-88.171623,18.340518],[-88.174792,18.339417],[-88.185629,18.338855],[-88.188037,18.339222],[-88.197657,18.338823],[-88.201157,18.3379],[-88.203569,18.335825],[-88.206243,18.33246],[-88.2092,18.331153],[-88.211872,18.327531],[-88.214293,18.326743],[-88.220743,18.323611],[-88.22536,18.328217],[-88.219325,18.332892],[-88.217722,18.334962],[-88.218144,18.337535],[-88.214656,18.340133],[-88.21531,18.337038],[-88.212471,18.336154],[-88.210601,18.338613],[-88.206962,18.338894],[-88.207377,18.340436],[-88.212767,18.339887],[-88.210894,18.342088],[-88.208904,18.346608],[-88.204708,18.350443],[-88.206278,18.351501],[-88.21166,18.349464],[-88.220084,18.344992],[-88.222796,18.342735],[-88.22616,18.341062],[-88.229762,18.340551],[-88.233796,18.33898],[-88.236502,18.34025],[-88.238053,18.343921],[-88.23817,18.347193],[-88.235214,18.348757],[-88.230872,18.352064],[-88.236873,18.354412],[-88.239339,18.359805],[-88.244184,18.358486],[-88.247121,18.354346],[-88.252507,18.353151],[-88.25333,18.355077],[-88.256033,18.355961],[-88.258804,18.353326],[-88.261134,18.352708],[-88.263034,18.354369],[-88.268414,18.352402],[-88.269478,18.350335],[-88.2727,18.348381],[-88.278906,18.348855],[-88.281054,18.347553],[-88.284024,18.348048],[-88.285098,18.347268],[-88.291834,18.34645],[-88.293186,18.346956],[-88.29721,18.344095],[-88.299636,18.343951],[-88.304193,18.340314],[-88.309036,18.338735],[-88.30903,18.337963],[-88.313608,18.33703],[-88.315497,18.337274],[-88.318721,18.335578],[-88.319784,18.333511],[-88.32409,18.333063],[-88.32758,18.330743],[-88.331085,18.330342],[-88.333491,18.327492],[-88.341328,18.329755],[-88.345068,18.32886],[-88.344737,18.334624],[-88.345157,18.336681],[-88.341151,18.341731],[-88.339296,18.345994],[-88.337694,18.348065],[-88.335544,18.349111],[-88.335017,18.35066],[-88.332326,18.351451],[-88.331265,18.353776],[-88.324289,18.358589],[-88.316768,18.362633],[-88.319493,18.36622],[-88.325697,18.366305],[-88.33297,18.365096],[-88.333497,18.363547],[-88.337542,18.363389],[-88.346994,18.359063],[-88.349767,18.35832],[-88.352708,18.359079],[-88.35335,18.356932],[-88.3564,18.354746],[-88.358823,18.354214],[-88.363649,18.351201],[-88.368213,18.348931],[-88.370726,18.348257],[-88.380576,18.34656],[-88.383126,18.344956],[-88.387896,18.347438],[-88.389545,18.351289],[-88.393063,18.352808],[-88.395509,18.355108],[-88.397722,18.362045],[-88.398872,18.369557],[-88.397909,18.37115],[-88.398164,18.374422],[-88.402254,18.372822],[-88.408023,18.372676],[-88.417591,18.368659],[-88.421243,18.365811],[-88.425552,18.363109],[-88.429788,18.359019],[-88.434243,18.356316],[-88.435558,18.354783],[-88.443153,18.350693],[-88.445271,18.350693],[-88.45126,18.348136],[-88.454181,18.342294],[-88.454181,18.339883],[-88.455642,18.338131],[-88.455642,18.330243],[-88.449142,18.327541],[-88.445636,18.324619],[-88.449945,18.317535],[-88.449945,18.297523],[-88.447097,18.294529],[-88.44403,18.293141],[-88.441181,18.290293],[-88.447024,18.284888],[-88.44705,18.282059],[-88.445824,18.280712],[-88.445614,18.27787],[-88.44699,18.276584],[-88.449952,18.270541],[-88.445687,18.266958],[-88.444203,18.26479],[-88.44717,18.258285],[-88.447056,18.234435],[-88.45199,18.233764],[-88.458271,18.231792],[-88.458564,18.225876],[-88.464187,18.22573],[-88.466013,18.229966],[-88.47003,18.230039],[-88.472878,18.227264],[-88.484053,18.227264],[-88.492598,18.230185],[-88.501654,18.232668],[-88.507299,18.216425],[-88.507419,18.213822],[-88.508885,18.211309],[-88.506086,18.206577],[-88.504299,18.204484]]]}},
{"type":"Feature","id":"BLZ:ADM2:BZ-CZL.corozal-bay","properties":{"shapeName":"Corozal Bay","shapeISO":"","shapeGroup":"BLZ","shapeType":"ADM2","adm1ISO":"BZ-CZL","parentISO":"BZ-CZL","parentID":"BLZ:ADM1:BZ-CZL","src_shape_id":"1456440B17189259529244"},"geometry":{"type":"Polygon","coordinates":[[[-88.398164,18.374422],[-88.397738,18.379731],[-88.394882,18.38387],[-88.390265,18.385801],[-88.387914,18.389386],[-88.385786,18.389811],[-88.383894,18.392006],[-88.390933,18.398823],[-88.393928,18.396047],[-88.395315,18.396047],[-88.401158,18.390497],[-88.405394,18.387794],[-88.408242,18.385092],[-88.405248,18.380272],[-88.402546,18.374575],[-88.402254,18.372822],[-88.398164,18.374422]]]}},
{"type":"Feature","id":"BLZ:ADM2:BZ-CZL.corozal-north","properties":{"shapeName":"Corozal North","shapeISO":"","shapeGroup":"BLZ","shapeType":"ADM2","adm1ISO":"BZ-CZL","parentISO":"BZ-CZL","parentID":"BLZ:ADM1:BZ-CZL","src_shape_id":"1456440B5266372606878"},"geometry":{"type":"MultiPolygon","coordinates":[[[[-88.138975,18.023807],[-88.138946,18.019171],[-88.137861,18.01789],[-88.141069,18.014394],[-88.141889,18.016321],[-88.145908,18.013464],[-88.14779,18.013195],[-88.148442,18.009843],[-88.150991,18.00854],[-88.152057,18.006988],[-88.151507,18.005189],[-88.154995,18.003365],[-88.154299,17.999763],[-88.15738,17.997685],[-88.15897,17.993812],[-88.155608,17.994089],[-88.155593,17.991771],[-88.157608,17.991244],[-88.156511,17.98816],[-88.155522,17.980954],[-88.151622,18.002098],[-88.148808,18.004045],[-88.14761,18.005985],[-88.143191,18.009617],[-88.141733,18.012973],[-88.135315,18.019708],[-88.138156,18.022009],[-88.138975,18.023807]]],[[[-88.402254,18.372822],[-88.402546,18.374575],[-88.405248,18.380272],[-88.408242,18.385092],[-88.405394,18.387794],[-88.401158,18.390497],[-88.395315,18.396047],[-88.393928,18.396047],[-88.390933,18.398823],[-88.383894,18.392006],[-88.379677,18.39346],[-88.376126,18.393235],[-88.370627,18.396925],[-88.367068,18.400629],[-88.359435,18.403667],[-88.354609,18.407564],[-88.351111,18.408749],[-88.350178,18.410043],[-88.345189,18.410464],[-88.341561,18.412164],[-88.341434,18.413195],[-88.336874,18.416704],[-88.332564,18.417507],[-88.33029,18.41997],[-88.326932,18.421924],[-88.32184,18.426467],[-88.32065,18.429566],[-88.318104,18.431901],[-88.318001,18.436022],[-88.316971,18.442468],[-88.31442,18.444159],[-88.310367,18.443544],[-88.30878,18.447675],[-88.303532,18.449514],[-88.301388,18.451589],[-88.298051,18.456376],[-88.299158,18.460103],[-88.298642,18.463197],[-88.301622,18.464722],[-88.302754,18.471667],[-88.307099,18.475243],[-88.313326,18.477775],[-88.314701,18.481114],[-88.31768,18.482381],[-88.317165,18.485732],[-88.319089,18.488214],[-88.32407,18.489188],[-88.326816,18.490429],[-88.333147,18.488028],[-88.346386,18.485749],[-88.351729,18.484263],[-88.353767,18.484263],[-88.361342,18.48638],[-88.366106,18.486212],[-88.370551,18.484268],[-88.373401,18.481083],[-88.377285,18.478906],[-88.382585,18.479394],[-88.387134,18.481592],[-88.389709,18.485968],[-88.393958,18.488735],[-88.39606,18.491462],[-88.399644,18.494677],[-88.401988,18.496001],[-88.405384,18.495538],[-88.410716,18.492968],[-88.413312,18.492215],[-88.417368,18.492215],[-88.421273,18.489549],[-88.423655,18.487066],[-88.428011,18.485337],[-88.432612,18.484581],[-88.434877,18.48261],[-88.443096,18.480452],[-88.445713,18.476138],[-88.447752,18.475466],[-88.452601,18.481124],[-88.453631,18.48554],[-88.455563,18.488349],[-88.459403,18.489285],[-88.464446,18.486863],[-88.466828,18.487636],[-88.468351,18.490017],[-88.472729,18.489305],[-88.474338,18.49366],[-88.477922,18.493721],[-88.481247,18.49134],[-88.487523,18.484445],[-88.489668,18.48505],[-88.492234,18.48322],[-88.495667,18.477746],[-88.503199,18.47278],[-88.507319,18.47046],[-88.513584,18.465087],[-88.517082,18.463764],[-88.519442,18.461118],[-88.521373,18.457312],[-88.523777,18.44514],[-88.527811,18.435145],[-88.528154,18.428427],[-88.529913,18.416721],[-88.532102,18.407621],[-88.536329,18.400434],[-88.540664,18.395527],[-88.541479,18.393776],[-88.544826,18.391576],[-88.545942,18.389133],[-88.546779,18.384348],[-88.54783,18.381782],[-88.550899,18.37775],[-88.551736,18.374818],[-88.550878,18.372904],[-88.545234,18.367935],[-88.544033,18.36099],[-88.547788,18.354881],[-88.550666,18.352407],[-88.524514,18.352372],[-88.52298,18.34967],[-88.514581,18.341198],[-88.506133,18.341289],[-88.500009,18.338437],[-88.500009,18.33582],[-88.49426,18.327406],[-88.491362,18.321844],[-88.491502,18.315066],[-88.482808,18.315253],[-88.482808,18.331566],[-88.481593,18.332875],[-88.481496,18.335647],[-88.479305,18.337035],[-88.468131,18.342513],[-88.46112,18.345215],[-88.455861,18.346457],[-88.45126,18.348136],[-88.445271,18.350693],[-88.443153,18.350693],[-88.435558,18.354783],[-88.434243,18.356316],[-88.429788,18.359019],[-88.425552,18.363109],[-88.421243,18.365811],[-88.417591,18.368659],[-88.408023,18.372676],[-88.402254,18.372822]]]]}},
{"type":"Feature","id":"BLZ:ADM2:BZ-CZL.corozal-south-west","properties":{"shapeName":"Corozal South West","shapeISO":"","shapeGroup":"BLZ","shapeType":"ADM2","adm1ISO":"BZ-CZL","parentISO":"BZ-CZL","parentID":"BLZ:ADM1:BZ-CZL","src_shape_id":"1456440B54087410472023"},"geometry":{"type":"Polygon","coordinates":[[[-88.45126,18.348136],[-88.455861,18.346457],[-88.46112,18.345215],[-88.468131,18.342513],[-88.479305,18.337035],[-88.481496,18.335647],[-88.481593,18.332875],[-88.482808,18.331566],[-88.482808,18.315253],[-88.491502,18.315066],[-88.491362,18.321844],[-88.49426,18.327406],[-88.500009,18.33582],[-88.500009,18.338437],[-88.506133,18.341289],[-88.514581,18.341198],[-88.52298,18.34967],[-88.524514,18.352372],[-88.550666,18.352407],[-88.551886,18.351357],[-88.555534,18.345838],[-88.563173,18.335328],[-88.569653,18.32987],[-88.571434,18.327629],[-88.572614,18.323698],[-88.575266,18.320225],[-88.578836,18.320413],[-88.579844,18.317956],[-88.58517,18.313329],[-88.586563,18.310949],[-88.596292,18.300911],[-88.598657,18.296839],[-88.602089,18.29583],[-88.605832,18.291741],[-88.603022,18.291641],[-88.60073,18.29044],[-88.598723,18.291237],[-88.597254,18.288878],[-88.598614,18.2865],[-88.600984,18.279282],[-88.599972,18.276825],[-88.60074,18.273244],[-88.602721,18.270514],[-88.602375,18.268266],[-88.603885,18.266175],[-88.606523,18.264198],[-88.605558,18.259517],[-88.605492,18.252635],[-88.603204,18.25116],[-88.595044,18.243925],[-88.504299,18.204484],[-88.506086,18.206577],[-88.508885,18.211309],[-88.507419,18.213822],[-88.507299,18.216425],[-88.501654,18.232668],[-88.492598,18.230185],[-88.484053,18.227264],[-88.472878,18.227264],[-88.47003,18.230039],[-88.466013,18.229966],[-88.464187,18.22573],[-88.458564,18.225876],[-88.458271,18.231792],[-88.45199,18.233764],[-88.447056,18.234435],[-88.44717,18.258285],[-88.444203,18.26479],[-88.445687,18.266958],[-88.449952,18.270541],[-88.44699,18.276584],[-88.445614,18.27787],[-88.445824,18.280712],[-88.44705,18.282059],[-88.447024,18.284888],[-88.441181,18.290293],[-88.44403,18.293141],[-88.447097,18.294529],[-88.449945,18.297523],[-88.449945,18.317535],[-88.445636,18.324619],[-88.449142,18.327541],[-88.455642,18.330243],[-88.455642,18.338131],[-88.454181,18.339883],[-88.454181,18.342294],[-88.45126,18.348136]]]}}
]}