{"type":"FeatureCollection","bbox":[20.2832,43.6543,29.6503,48.2583],"features":[
{"type":"Feature","id":"ROU:ADM0:ROU","properties":{"shapeName":"Romania","shapeISO":"ROU","shapeType":"ADM0"},"geometry":{"type":"Polygon","coordinates":[[[22.8776,47.9467],[22.7458,47.825],[22.2617,47.7158],[21.6328,47.0227],[21.4836,46.6849],[21.3162,46.6166],[21.1645,46.3183],[20.8196,46.2717],[20.664,46.1378],[20.2832,46.1438],[20.3386,45.9928],[20.7134,45.7333],[20.7607,45.4933],[20.9815,45.3328],[21.4933,45.1451],[21.3685,44.8649],[21.6563,44.6877],[22.3197,44.6853],[22.8859,43.9945],[22.9196,43.8342],[23.3252,43.8866],[24.1594,43.7529],[24.5001,43.7995],[25.3596,43.6543],[25.7811,43.732],[26.1507,44.0124],[27.0275,44.177],[27.3838,44.0151],[27.9358,43.9644],[28.2213,43.762],[28.5784,43.7413],[28.6712,44.0033],[28.6409,44.3286],[28.844,44.4937],[28.7888,44.7062],[29.6112,44.8493],[29.6503,45.3461],[29.3221,45.4438],[28.7101,45.227],[28.3302,45.3229],[28.1659,45.4946],[28.0861,46.0006],[28.2461,46.4279],[28.2341,46.6624],[28.037,47.0165],[27.8066,47.1446],[27.5632,47.4683],[27.272,47.715],[27.048,48.1222],[26.8049,48.2583],[26.3035,48.212],[26.1731,47.9931],[25.2617,47.8986],[24.8966,47.7101],[24.5616,47.9405],[24.231,47.897],[23.9773,47.9623],[23.3601,47.9931],[23.2314,48.0797],[22.8776,47.9467]]]}}
]}