{"type":"FeatureCollection","bbox":[20.829072,40.854683,21.932148,41.605521],"features":[
{"type":"Feature","id":"MKD:ADM2:pelagonia.bitola","properties":{"shapeName":"Bitola","shapeISO":"","shapeGroup":"MKD","shapeType":"ADM2","adm1ISO":"pelagonia","parentISO":"pelagonia","parentID":"MKD:ADM1:pelagonia","src_shape_id":"65306769B29228652763838"},"geometry":{"type":"Polygon","coordinates":[[[21.428982,41.098012],[21.414643,41.096248],[21.408089,41.090482],[21.401196,41.089509],[21.399045,41.085082],[21.390735,41.087566],[21.388519,41.083324],[21.386244,41.083317],[21.385739,41.086073],[21.369868,41.088882],[21.366706,41.096535],[21.358736,41.097724],[21.362086,41.106957],[21.361185,41.124811],[21.364436,41.136236],[21.356733,41.137552],[21.35855,41.138724],[21.351991,41.145374],[21.344685,41.143548],[21.339479,41.14758],[21.332636,41.148027],[21.330906,41.156153],[21.322578,41.160543],[21.316064,41.175586],[21.306944,41.183862],[21.315517,41.185974],[21.319622,41.194268],[21.327664,41.197908],[21.32159,41.206474],[21.314354,41.209005],[21.315911,41.217893],[21.306721,41.215681],[21.30029,41.220351],[21.301325,41.223023],[21.297394,41.226742],[21.290665,41.22815],[21.289016,41.226724],[21.272089,41.219155],[21.270137,41.207445],[21.257361,41.203566],[21.25641,41.199646],[21.247741,41.194137],[21.242298,41.195168],[21.232641,41.19225],[21.227748,41.180032],[21.220629,41.176621],[21.218292,41.171026],[21.214405,41.169027],[21.201238,41.168685],[21.186858,41.161351],[21.183938,41.156424],[21.152061,41.14586],[21.126207,41.14805],[21.115696,41.135667],[21.095278,41.124553],[21.100543,41.118085],[21.104192,41.117037],[21.10143,41.087352],[21.089627,41.075966],[21.072881,41.070502],[21.068324,41.065531],[21.074157,41.057771],[21.074456,41.052822],[21.086026,41.050823],[21.091978,41.046821],[21.108229,41.04412],[21.103244,41.038666],[21.103981,41.033987],[21.09892,41.027884],[21.099152,41.024036],[21.10418,41.016182],[21.110406,41.014259],[21.126575,40.984761],[21.150032,40.981352],[21.166592,40.982586],[21.178206,40.985847],[21.184061,40.974246],[21.19813,40.96321],[21.197814,40.95618],[21.202757,40.949804],[21.224803,40.949552],[21.240145,40.944561],[21.242295,40.938572],[21.249269,40.932688],[21.247472,40.92265],[21.255476,40.91186],[21.251583,40.902906],[21.251211,40.888464],[21.242827,40.874186],[21.246184,40.87195],[21.248123,40.868012],[21.252979,40.861918],[21.259723,40.859411],[21.268588,40.863903],[21.27571,40.864639],[21.286966,40.864557],[21.302752,40.865843],[21.311302,40.867001],[21.316184,40.868186],[21.322728,40.870485],[21.332136,40.87117],[21.344231,40.873874],[21.35671,40.878135],[21.365784,40.882],[21.416159,40.916939],[21.425184,40.917416],[21.44098,40.916859],[21.464719,40.906829],[21.490607,40.912269],[21.502939,40.910608],[21.508385,40.916545],[21.506234,40.919738],[21.510273,40.926235],[21.506102,40.929108],[21.508596,40.933223],[21.504226,40.937252],[21.502418,40.940773],[21.511796,40.943542],[21.513731,40.950323],[21.504889,40.952223],[21.505445,40.95707],[21.500615,40.963537],[21.477245,40.979534],[21.45545,41.022769],[21.439781,41.04155],[21.433014,41.066275],[21.439328,41.079752],[21.438741,41.084552],[21.435868,41.091875],[21.428982,41.098012]]]}},
{"type":"Feature","id":"MKD:ADM2:pelagonia.demir-hisar","properties":{"shapeName":"Demir Hisar","shapeISO":"","shapeGroup":"MKD","shapeType":"ADM2","adm1ISO":"pelagonia","parentISO":"pelagonia","parentID":"MKD:ADM1:pelagonia","src_shape_id":"65306769B51033238442002"},"geometry":{"type":"Polygon","coordinates":[[[21.017893,41.242117],[21.017877,41.239588],[21.037907,41.220918],[21.039127,41.215006],[21.051919,41.206453],[21.060456,41.205374],[21.065732,41.198642],[21.072338,41.187345],[21.07107,41.184945],[21.077576,41.177871],[21.073588,41.169433],[21.077872,41.156557],[21.083918,41.14789],[21.089769,41.127387],[21.095278,41.124553],[21.115696,41.135667],[21.126207,41.14805],[21.152061,41.14586],[21.183938,41.156424],[21.186858,41.161351],[21.201238,41.168685],[21.214405,41.169027],[21.218292,41.171026],[21.220629,41.176621],[21.227748,41.180032],[21.232641,41.19225],[21.242298,41.195168],[21.247741,41.194137],[21.25641,41.199646],[21.257361,41.203566],[21.270137,41.207445],[21.272089,41.219155],[21.289016,41.226724],[21.285142,41.230654],[21.297608,41.252305],[21.295424,41.255646],[21.297097,41.257508],[21.291589,41.261747],[21.282077,41.272682],[21.281346,41.282447],[21.26815,41.289616],[21.268702,41.29945],[21.255391,41.305346],[21.258305,41.314127],[21.253324,41.322365],[21.250227,41.319005],[21.241651,41.31799],[21.234741,41.312873],[21.227324,41.31426],[21.224981,41.311712],[21.223681,41.315439],[21.213998,41.317908],[21.21718,41.325569],[21.21455,41.337244],[21.219123,41.34134],[21.219279,41.347374],[21.214472,41.362845],[21.209385,41.365253],[21.205811,41.363796],[21.1999,41.368156],[21.187078,41.363786],[21.177894,41.365015],[21.166581,41.377759],[21.169231,41.381793],[21.162775,41.391157],[21.15242,41.389694],[21.134504,41.393783],[21.12832,41.392882],[21.111564,41.382125],[21.10636,41.370235],[21.093844,41.360289],[21.085547,41.361628],[21.082585,41.358977],[21.074224,41.360097],[21.07066,41.355295],[21.067388,41.355341],[21.061715,41.359879],[21.030267,41.360113],[21.020163,41.362064],[21.005757,41.353497],[21.000078,41.353492],[20.995928,41.348833],[20.985536,41.34678],[20.979131,41.336326],[20.967385,41.33365],[20.95476,41.323896],[20.954244,41.316896],[20.965455,41.304049],[20.964959,41.296025],[20.980294,41.292605],[20.993165,41.28676],[20.997974,41.281689],[20.996844,41.275623],[21.013513,41.262193],[21.017703,41.254528],[21.017893,41.242117]]]}},
{"type":"Feature","id":"MKD:ADM2:pelagonia.dolneni","properties":{"shapeName":"Dolneni","shapeISO":"","shapeGroup":"MKD","shapeType":"ADM2","adm1ISO":"pelagonia","parentISO":"pelagonia","parentID":"MKD:ADM1:pelagonia","src_shape_id":"65306769B25269203277023"},"geometry":{"type":"Polygon","coordinates":[[[21.373881,41.605521],[21.366384,41.57609],[21.358323,41.568146],[21.353631,41.558226],[21.346422,41.556718],[21.342238,41.552988],[21.340209,41.53814],[21.342718,41.532751],[21.332653,41.516353],[21.33666,41.501677],[21.333837,41.498757],[21.331149,41.499354],[21.312587,41.509984],[21.296617,41.512172],[21.289022,41.508586],[21.284666,41.495665],[21.274584,41.499172],[21.274916,41.495903],[21.270422,41.492071],[21.262826,41.494231],[21.260863,41.492657],[21.255811,41.482988],[21.264429,41.472098],[21.279052,41.458657],[21.298163,41.446412],[21.297028,41.444427],[21.300791,41.442146],[21.298905,41.439229],[21.304993,41.434612],[21.283626,41.428186],[21.266554,41.429491],[21.261149,41.42056],[21.288405,41.404495],[21.294928,41.393481],[21.304776,41.388615],[21.326974,41.396721],[21.346321,41.394965],[21.349955,41.387961],[21.346063,41.380934],[21.349994,41.366692],[21.362133,41.365169],[21.365608,41.359598],[21.368451,41.357578],[21.374495,41.359681],[21.395871,41.360666],[21.404519,41.365396],[21.419096,41.364951],[21.431199,41.368007],[21.433203,41.370647],[21.437193,41.369465],[21.441511,41.378362],[21.439343,41.378825],[21.440572,41.383286],[21.442896,41.382995],[21.448272,41.392023],[21.454725,41.391963],[21.45963,41.398073],[21.471221,41.391298],[21.482574,41.39177],[21.485814,41.39636],[21.488039,41.394435],[21.495577,41.399449],[21.49753,41.402931],[21.502003,41.401684],[21.50589,41.405092],[21.536437,41.399846],[21.537285,41.403962],[21.552689,41.406104],[21.560846,41.410965],[21.561523,41.414424],[21.576798,41.415078],[21.58271,41.417848],[21.576035,41.430621],[21.580674,41.432793],[21.580656,41.44086],[21.58527,41.442717],[21.585951,41.449202],[21.589243,41.450817],[21.600063,41.450206],[21.607868,41.452957],[21.601512,41.460526],[21.583837,41.471245],[21.53916,41.484966],[21.538625,41.49552],[21.531335,41.499173],[21.517098,41.501081],[21.512234,41.498653],[21.492567,41.505347],[21.484474,41.501693],[21.478277,41.504725],[21.469188,41.521006],[21.45954,41.531251],[21.464622,41.535062],[21.467014,41.541334],[21.463784,41.555987],[21.443602,41.567552],[21.44381,41.571485],[21.429067,41.583105],[21.43001,41.590584],[21.424591,41.596324],[21.407093,41.597026],[21.38982,41.604517],[21.373881,41.605521]]]}},
{"type":"Feature","id":"MKD:ADM2:pelagonia.krivogashtani","properties":{"shapeName":"Krivogashtani","shapeISO":"","shapeGroup":"MKD","shapeType":"ADM2","adm1ISO":"pelagonia","parentISO":"pelagonia","parentID":"MKD:ADM1:pelagonia","src_shape_id":"65306769B57810703972123"},"geometry":{"type":"Polygon","coordinates":[[[21.304776,41.388615],[21.309567,41.379997],[21.307593,41.3595],[21.312447,41.356522],[21.304892,41.352719],[21.3047,41.349897],[21.316915,41.340205],[21.325609,41.328062],[21.334763,41.322793],[21.340294,41.30666],[21.335582,41.305341],[21.335838,41.302357],[21.331996,41.299865],[21.335142,41.291381],[21.328697,41.283089],[21.330059,41.278897],[21.335322,41.278506],[21.337218,41.272591],[21.336376,41.268613],[21.347361,41.267518],[21.348678,41.263984],[21.354123,41.260917],[21.353534,41.257771],[21.360692,41.251606],[21.365633,41.250738],[21.366502,41.25308],[21.377092,41.253724],[21.37592,41.255474],[21.387827,41.26002],[21.39953,41.260141],[21.396973,41.264774],[21.399105,41.264745],[21.399322,41.267857],[21.396432,41.270883],[21.402199,41.275837],[21.406379,41.274249],[21.4123,41.277483],[21.417616,41.275],[21.425588,41.284314],[21.417635,41.288793],[21.416515,41.291489],[21.422753,41.296513],[21.418232,41.299157],[21.418055,41.308602],[21.412061,41.308682],[21.412135,41.312363],[21.430115,41.312186],[21.432075,41.316739],[21.428663,41.322786],[21.430339,41.32538],[21.419336,41.320849],[21.412394,41.323383],[21.411733,41.3406],[21.40095,41.341462],[21.396912,41.346932],[21.386727,41.349512],[21.370881,41.348189],[21.365608,41.359598],[21.362133,41.365169],[21.349994,41.366692],[21.346063,41.380934],[21.349955,41.387961],[21.346321,41.394965],[21.326974,41.396721],[21.304776,41.388615]]]}},
{"type":"Feature","id":"MKD:ADM2:pelagonia.krushevo","properties":{"shapeName":"Krushevo","shapeISO":"","shapeGroup":"MKD","shapeType":"ADM2","adm1ISO":"pelagonia","parentISO":"pelagonia","parentID":"MKD:ADM1:pelagonia","src_shape_id":"65306769B95473368394754"},"geometry":{"type":"Polygon","coordinates":[[[21.134504,41.393783],[21.15242,41.389694],[21.162775,41.391157],[21.169231,41.381793],[21.166581,41.377759],[21.177894,41.365015],[21.187078,41.363786],[21.1999,41.368156],[21.205811,41.363796],[21.209385,41.365253],[21.214472,41.362845],[21.219279,41.347374],[21.219123,41.34134],[21.21455,41.337244],[21.21718,41.325569],[21.213998,41.317908],[21.223681,41.315439],[21.224981,41.311712],[21.227324,41.31426],[21.234741,41.312873],[21.241651,41.31799],[21.250227,41.319005],[21.253324,41.322365],[21.258305,41.314127],[21.255391,41.305346],[21.268702,41.29945],[21.26815,41.289616],[21.281346,41.282447],[21.282077,41.272682],[21.291589,41.261747],[21.297097,41.257508],[21.295424,41.255646],[21.297608,41.252305],[21.285142,41.230654],[21.289016,41.226724],[21.290665,41.22815],[21.294921,41.230235],[21.295975,41.234034],[21.30726,41.238411],[21.311973,41.252592],[21.318218,41.259653],[21.327165,41.263707],[21.324362,41.268397],[21.337218,41.272591],[21.335322,41.278506],[21.330059,41.278897],[21.328697,41.283089],[21.335142,41.291381],[21.331996,41.299865],[21.335838,41.302357],[21.335582,41.305341],[21.340294,41.30666],[21.334763,41.322793],[21.325609,41.328062],[21.316915,41.340205],[21.3047,41.349897],[21.304892,41.352719],[21.312447,41.356522],[21.307593,41.3595],[21.309567,41.379997],[21.304776,41.388615],[21.294928,41.393481],[21.288405,41.404495],[21.261149,41.42056],[21.266554,41.429491],[21.283626,41.428186],[21.304993,41.434612],[21.298905,41.439229],[21.300791,41.442146],[21.297028,41.444427],[21.298163,41.446412],[21.279052,41.458657],[21.264429,41.472098],[21.253556,41.473542],[21.252529,41.462675],[21.241618,41.452176],[21.228523,41.449284],[21.228145,41.442049],[21.202241,41.435109],[21.187384,41.438166],[21.182364,41.434875],[21.162278,41.431481],[21.156705,41.432251],[21.153014,41.436444],[21.149807,41.430436],[21.143558,41.428485],[21.142819,41.426181],[21.136869,41.426528],[21.138065,41.421672],[21.134522,41.417176],[21.127432,41.418163],[21.131491,41.411546],[21.129486,41.403643],[21.134504,41.393783]]]}},
{"type":"Feature","id":"MKD:ADM2:pelagonia.mogila","properties":{"shapeName":"Mogila","shapeISO":"","shapeGroup":"MKD","shapeType":"ADM2","adm1ISO":"pelagonia","parentISO":"pelagonia","parentID":"MKD:ADM1:pelagonia","src_shape_id":"65306769B16932285740052"},"geometry":{"type":"Polygon","coordinates":[[[21.428982,41.098012],[21.444863,41.099252],[21.443406,41.104626],[21.454765,41.104305],[21.458771,41.111048],[21.466937,41.110595],[21.472275,41.113514],[21.481171,41.108267],[21.506113,41.106315],[21.513744,41.10821],[21.522445,41.103413],[21.525253,41.104507],[21.528614,41.102649],[21.536747,41.105243],[21.54395,41.100743],[21.551183,41.102911],[21.560747,41.107577],[21.562786,41.117737],[21.583713,41.136046],[21.597707,41.140421],[21.591038,41.14612],[21.594497,41.148131],[21.597275,41.161899],[21.587502,41.169043],[21.569689,41.168589],[21.558296,41.174399],[21.556724,41.180796],[21.553507,41.18218],[21.550996,41.179823],[21.544841,41.182901],[21.533718,41.180064],[21.53083,41.185175],[21.528125,41.184247],[21.528728,41.181477],[21.520344,41.181301],[21.52044,41.178798],[21.516152,41.176793],[21.506265,41.17626],[21.505496,41.179898],[21.50052,41.183377],[21.482729,41.183323],[21.482177,41.187348],[21.471098,41.186105],[21.468145,41.197835],[21.453976,41.198093],[21.434315,41.194812],[21.435512,41.200966],[21.432604,41.212416],[21.426491,41.217556],[21.424746,41.218022],[21.419654,41.221574],[21.414694,41.219208],[21.408007,41.235906],[21.39897,41.236766],[21.389206,41.243254],[21.371878,41.243677],[21.363723,41.24917],[21.365633,41.250738],[21.360692,41.251606],[21.353534,41.257771],[21.354123,41.260917],[21.348678,41.263984],[21.347361,41.267518],[21.336376,41.268613],[21.337218,41.272591],[21.324362,41.268397],[21.327165,41.263707],[21.318218,41.259653],[21.311973,41.252592],[21.30726,41.238411],[21.295975,41.234034],[21.294921,41.230235],[21.290665,41.22815],[21.297394,41.226742],[21.301325,41.223023],[21.30029,41.220351],[21.306721,41.215681],[21.315911,41.217893],[21.314354,41.209005],[21.32159,41.206474],[21.327664,41.197908],[21.319622,41.194268],[21.315517,41.185974],[21.306944,41.183862],[21.316064,41.175586],[21.322578,41.160543],[21.330906,41.156153],[21.332636,41.148027],[21.339479,41.14758],[21.344685,41.143548],[21.351991,41.145374],[21.35855,41.138724],[21.356733,41.137552],[21.364436,41.136236],[21.361185,41.124811],[21.362086,41.106957],[21.358736,41.097724],[21.366706,41.096535],[21.369868,41.088882],[21.385739,41.086073],[21.386244,41.083317],[21.388519,41.083324],[21.390735,41.087566],[21.399045,41.085082],[21.401196,41.089509],[21.408089,41.090482],[21.414643,41.096248],[21.428982,41.098012]]]}},
{"type":"Feature","id":"MKD:ADM2:pelagonia.novatsi","properties":{"shapeName":"Novatsi","shapeISO":"","shapeGroup":"MKD","shapeType":"ADM2","adm1ISO":"pelagonia","parentISO":"pelagonia","parentID":"MKD:ADM1:pelagonia","src_shape_id":"65306769B28760853140319"},"geometry":{"type":"Polygon","coordinates":[[[21.502939,40.910608],[21.518764,40.908475],[21.525559,40.91016],[21.53195,40.906409],[21.536762,40.898639],[21.540962,40.893808],[21.544681,40.891188],[21.549024,40.885393],[21.551214,40.881724],[21.558086,40.878878],[21.56201,40.877695],[21.564423,40.875289],[21.565764,40.870976],[21.565366,40.868241],[21.56652,40.86642],[21.570554,40.866151],[21.584567,40.86927],[21.587495,40.86901],[21.593236,40.866002],[21.596756,40.86843],[21.599326,40.871457],[21.603668,40.880157],[21.606587,40.880206],[21.608283,40.879038],[21.615043,40.883818],[21.618202,40.886863],[21.621176,40.888536],[21.625501,40.888734],[21.628787,40.887926],[21.632148,40.890837],[21.634329,40.896413],[21.645403,40.900162],[21.653969,40.900996],[21.659278,40.899637],[21.670638,40.898379],[21.671597,40.901563],[21.67092,40.907855],[21.669473,40.911886],[21.665748,40.917098],[21.670419,40.926112],[21.672028,40.927614],[21.677329,40.930461],[21.682087,40.933907],[21.683636,40.937955],[21.689897,40.940651],[21.702954,40.943353],[21.707883,40.943015],[21.720305,40.937784],[21.725814,40.93427],[21.735391,40.930858],[21.742242,40.930958],[21.746461,40.930519],[21.752959,40.927511],[21.760051,40.926294],[21.769987,40.92858],[21.776994,40.929815],[21.783301,40.928749],[21.784972,40.929199],[21.788978,40.932808],[21.790046,40.937862],[21.793187,40.939668],[21.804148,40.944733],[21.806108,40.951179],[21.805755,40.952896],[21.800861,40.957103],[21.800205,40.960482],[21.800979,40.969526],[21.800191,40.972682],[21.801512,40.976065],[21.814782,40.985882],[21.821422,40.988426],[21.830377,40.992417],[21.839844,40.994855],[21.843626,40.995476],[21.84632,40.997493],[21.849087,41.002679],[21.849281,41.008126],[21.851461,41.011268],[21.855159,41.013778],[21.860996,41.018728],[21.869611,41.022374],[21.877126,41.025117],[21.883805,41.028501],[21.884184,41.031213],[21.883455,41.034648],[21.884057,41.040735],[21.895277,41.039129],[21.898645,41.03953],[21.905423,41.042726],[21.91203,41.049393],[21.910443,41.053852],[21.909749,41.059803],[21.908197,41.064884],[21.904199,41.06823],[21.90349,41.070353],[21.906601,41.074797],[21.90994,41.081981],[21.903764,41.082229],[21.897923,41.078736],[21.888343,41.080578],[21.866619,41.080284],[21.855921,41.086773],[21.848024,41.08754],[21.847683,41.092559],[21.836089,41.099108],[21.829947,41.099197],[21.816243,41.092998],[21.805039,41.097537],[21.802378,41.101062],[21.795271,41.101866],[21.790319,41.106784],[21.783771,41.105438],[21.783171,41.108444],[21.776972,41.108356],[21.77509,41.113361],[21.769974,41.113951],[21.768466,41.117383],[21.748108,41.118016],[21.743891,41.122342],[21.732487,41.12419],[21.723902,41.131485],[21.710404,41.132651],[21.706207,41.136013],[21.696665,41.137439],[21.700313,41.1405],[21.698753,41.14136],[21.678317,41.135094],[21.678596,41.131704],[21.65457,41.135514],[21.645894,41.138866],[21.646362,41.14335],[21.639911,41.147302],[21.640872,41.149588],[21.623775,41.160039],[21.621874,41.162418],[21.626726,41.166397],[21.620694,41.171152],[21.612708,41.171211],[21.604837,41.164698],[21.597275,41.161899],[21.594497,41.148131],[21.591038,41.14612],[21.597707,41.140421],[21.583713,41.136046],[21.562786,41.117737],[21.560747,41.107577],[21.551183,41.102911],[21.54395,41.100743],[21.536747,41.105243],[21.528614,41.102649],[21.525253,41.104507],[21.522445,41.103413],[21.513744,41.10821],[21.506113,41.106315],[21.481171,41.108267],[21.472275,41.113514],[21.466937,41.110595],[21.458771,41.111048],[21.454765,41.104305],[21.443406,41.104626],[21.444863,41.099252],[21.428982,41.098012],[21.435868,41.091875],[21.438741,41.084552],[21.439328,41.079752],[21.433014,41.066275],[21.439781,41.04155],[21.45545,41.022769],[21.477245,40.979534],[21.500615,40.963537],[21.505445,40.95707],[21.504889,40.952223],[21.513731,40.950323],[21.511796,40.943542],[21.502418,40.940773],[21.504226,40.937252],[21.508596,40.933223],[21.506102,40.929108],[21.510273,40.926235],[21.506234,40.919738],[21.508385,40.916545],[21.502939,40.910608]]]}},
{"type":"Feature","id":"MKD:ADM2:pelagonia.prilep","properties":{"shapeName":"Prilep","shapeISO":"","shapeGroup":"MKD","shapeType":"ADM2","adm1ISO":"pelagonia","parentISO":"pelagonia","parentID":"MKD:ADM1:pelagonia","src_shape_id":"65306769B638558710054"},"geometry":{"type":"Polygon","coordinates":[[[21.776066,41.456859],[21.768741,41.460943],[21.757012,41.478354],[21.750096,41.483578],[21.733811,41.486566],[21.729441,41.48061],[21.721132,41.484257],[21.714193,41.484567],[21.709561,41.478671],[21.698947,41.474844],[21.693097,41.468092],[21.679189,41.464343],[21.671253,41.458603],[21.67434,41.446138],[21.664374,41.438123],[21.653295,41.439558],[21.649446,41.43522],[21.645105,41.448268],[21.63734,41.449138],[21.62963,41.458286],[21.615556,41.456852],[21.607868,41.452957],[21.600063,41.450206],[21.589243,41.450817],[21.585951,41.449202],[21.58527,41.442717],[21.580656,41.44086],[21.580674,41.432793],[21.576035,41.430621],[21.58271,41.417848],[21.576798,41.415078],[21.561523,41.414424],[21.560846,41.410965],[21.552689,41.406104],[21.537285,41.403962],[21.536437,41.399846],[21.50589,41.405092],[21.502003,41.401684],[21.49753,41.402931],[21.495577,41.399449],[21.488039,41.394435],[21.485814,41.39636],[21.482574,41.39177],[21.471221,41.391298],[21.45963,41.398073],[21.454725,41.391963],[21.448272,41.392023],[21.442896,41.382995],[21.440572,41.383286],[21.439343,41.378825],[21.441511,41.378362],[21.437193,41.369465],[21.433203,41.370647],[21.431199,41.368007],[21.419096,41.364951],[21.404519,41.365396],[21.395871,41.360666],[21.374495,41.359681],[21.368451,41.357578],[21.365608,41.359598],[21.370881,41.348189],[21.386727,41.349512],[21.396912,41.346932],[21.40095,41.341462],[21.411733,41.3406],[21.412394,41.323383],[21.419336,41.320849],[21.430339,41.32538],[21.428663,41.322786],[21.432075,41.316739],[21.430115,41.312186],[21.412135,41.312363],[21.412061,41.308682],[21.418055,41.308602],[21.418232,41.299157],[21.422753,41.296513],[21.416515,41.291489],[21.417635,41.288793],[21.425588,41.284314],[21.417616,41.275],[21.4123,41.277483],[21.406379,41.274249],[21.402199,41.275837],[21.396432,41.270883],[21.399322,41.267857],[21.399105,41.264745],[21.396973,41.264774],[21.39953,41.260141],[21.387827,41.26002],[21.37592,41.255474],[21.377092,41.253724],[21.366502,41.25308],[21.365633,41.250738],[21.363723,41.24917],[21.371878,41.243677],[21.389206,41.243254],[21.39897,41.236766],[21.408007,41.235906],[21.414694,41.219208],[21.419654,41.221574],[21.424746,41.218022],[21.426491,41.217556],[21.432604,41.212416],[21.435512,41.200966],[21.434315,41.194812],[21.453976,41.198093],[21.468145,41.197835],[21.471098,41.186105],[21.482177,41.187348],[21.482729,41.183323],[21.50052,41.183377],[21.505496,41.179898],[21.506265,41.17626],[21.516152,41.176793],[21.52044,41.178798],[21.520344,41.181301],[21.528728,41.181477],[21.528125,41.184247],[21.53083,41.185175],[21.533718,41.180064],[21.544841,41.182901],[21.550996,41.179823],[21.553507,41.18218],[21.556724,41.180796],[21.558296,41.174399],[21.569689,41.168589],[21.587502,41.169043],[21.597275,41.161899],[21.604837,41.164698],[21.612708,41.171211],[21.620694,41.171152],[21.626726,41.166397],[21.621874,41.162418],[21.623775,41.160039],[21.640872,41.149588],[21.639911,41.147302],[21.646362,41.14335],[21.645894,41.138866],[21.65457,41.135514],[21.678596,41.131704],[21.678317,41.135094],[21.698753,41.14136],[21.700313,41.1405],[21.696665,41.137439],[21.706207,41.136013],[21.710404,41.132651],[21.723902,41.131485],[21.732487,41.12419],[21.743891,41.122342],[21.748108,41.118016],[21.768466,41.117383],[21.769974,41.113951],[21.77509,41.113361],[21.776972,41.108356],[21.783171,41.108444],[21.783771,41.105438],[21.790319,41.106784],[21.795271,41.101866],[21.802378,41.101062],[21.805039,41.097537],[21.816243,41.092998],[21.829947,41.099197],[21.836089,41.099108],[21.847683,41.092559],[21.848024,41.08754],[21.855921,41.086773],[21.866619,41.080284],[21.888343,41.080578],[21.897923,41.078736],[21.903764,41.082229],[21.90994,41.081981],[21.912516,41.090433],[21.915325,41.093083],[21.921752,41.094232],[21.929598,41.100244],[21.917841,41.123025],[21.92238,41.124097],[21.927531,41.122262],[21.929144,41.128733],[21.923219,41.131435],[21.927625,41.133835],[21.925982,41.136427],[21.931691,41.136748],[21.932148,41.138618],[21.926913,41.140297],[21.918903,41.138453],[21.903614,41.14283],[21.895774,41.149999],[21.893037,41.157374],[21.884481,41.15695],[21.883452,41.160646],[21.878024,41.162913],[21.88678,41.165579],[21.889771,41.174777],[21.887507,41.175907],[21.89437,41.180279],[21.888087,41.186909],[21.88887,41.194652],[21.892987,41.197426],[21.885421,41.197454],[21.881537,41.199596],[21.879734,41.2073],[21.87231,41.211696],[21.865819,41.229531],[21.870932,41.241088],[21.874949,41.244293],[21.874332,41.254005],[21.881525,41.261583],[21.881946,41.269774],[21.887633,41.271295],[21.895558,41.279184],[21.891062,41.282296],[21.880034,41.280758],[21.873199,41.284928],[21.859939,41.277383],[21.85001,41.280031],[21.84593,41.2768],[21.841464,41.280468],[21.834399,41.278153],[21.832623,41.284731],[21.834924,41.286064],[21.825137,41.292239],[21.816539,41.306899],[21.809596,41.309617],[21.821544,41.321656],[21.821234,41.330589],[21.824857,41.334621],[21.823455,41.339843],[21.826319,41.346902],[21.831378,41.351384],[21.836483,41.3511],[21.841396,41.353658],[21.843067,41.356564],[21.840133,41.364639],[21.828144,41.375279],[21.82305,41.383738],[21.822959,41.3929],[21.817942,41.40818],[21.819488,41.41256],[21.82803,41.419656],[21.824119,41.43388],[21.82144,41.43537],[21.822517,41.440499],[21.808482,41.42852],[21.788592,41.426866],[21.783779,41.432799],[21.782276,41.444781],[21.776651,41.451829],[21.772809,41.453103],[21.776066,41.456859]]]}},
{"type":"Feature","id":"MKD:ADM2:pelagonia.resen","properties":{"shapeName":"Resen","shapeISO":"","shapeGroup":"MKD","shapeType":"ADM2","adm1ISO":"pelagonia","parentISO":"pelagonia","parentID":"MKD:ADM1:pelagonia","src_shape_id":"65306769B70601166108403"},"geometry":{"type":"Polygon","coordinates":[[[20.837714,40.92773],[20.843409,40.934584],[20.848028,40.937759],[20.857096,40.935036],[20.862786,40.9327],[20.886178,40.925029],[20.892363,40.922509],[20.895049,40.920558],[20.899294,40.918672],[20.906662,40.919979],[20.915147,40.922614],[20.92521,40.922346],[20.929833,40.922556],[20.931271,40.923464],[20.937357,40.924124],[20.949338,40.920817],[20.952993,40.918629],[20.963132,40.911273],[20.970351,40.906439],[20.976813,40.900001],[20.978753,40.896051],[20.977664,40.889661],[20.984867,40.894851],[20.98616,40.901955],[20.982873,40.907554],[20.991432,40.913387],[20.967088,40.919509],[20.956817,40.925096],[20.944568,40.936097],[20.927977,40.933316],[20.915573,40.937661],[20.901559,40.947275],[20.897143,40.954586],[20.89925,40.961624],[20.910621,40.968822],[20.916366,40.980327],[20.932967,40.994144],[20.936566,41.001991],[20.94764,41.007812],[20.964103,41.010452],[20.989738,41.006976],[20.994439,41.003928],[21.008847,41.001094],[21.03837,40.997508],[21.048573,40.988575],[21.052027,40.977178],[21.068034,40.966697],[21.069937,40.955716],[21.07638,40.950719],[21.079536,40.944105],[21.083007,40.924497],[21.102194,40.910581],[21.098981,40.89615],[21.109582,40.879718],[21.110928,40.873293],[21.117703,40.867056],[21.119297,40.861181],[21.117373,40.857433],[21.119612,40.854683],[21.133584,40.855321],[21.136791,40.855072],[21.152443,40.856944],[21.170257,40.867819],[21.177174,40.875193],[21.186691,40.876155],[21.193482,40.877193],[21.197535,40.878487],[21.201283,40.881762],[21.206557,40.883933],[21.214055,40.883108],[21.225633,40.878588],[21.228682,40.878425],[21.235367,40.876903],[21.242827,40.874186],[21.251211,40.888464],[21.251583,40.902906],[21.255476,40.91186],[21.247472,40.92265],[21.249269,40.932688],[21.242295,40.938572],[21.240145,40.944561],[21.224803,40.949552],[21.202757,40.949804],[21.197814,40.95618],[21.19813,40.96321],[21.184061,40.974246],[21.178206,40.985847],[21.166592,40.982586],[21.150032,40.981352],[21.126575,40.984761],[21.110406,41.014259],[21.10418,41.016182],[21.099152,41.024036],[21.09892,41.027884],[21.103981,41.033987],[21.103244,41.038666],[21.108229,41.04412],[21.091978,41.046821],[21.086026,41.050823],[21.074456,41.052822],[21.074157,41.057771],[21.068324,41.065531],[21.072881,41.070502],[21.089627,41.075966],[21.10143,41.087352],[21.104192,41.117037],[21.100543,41.118085],[21.095278,41.124553],[21.089769,41.127387],[21.083918,41.14789],[21.077872,41.156557],[21.073588,41.169433],[21.077576,41.177871],[21.07107,41.184945],[21.072338,41.187345],[21.065732,41.198642],[21.060456,41.205374],[21.051919,41.206453],[21.039127,41.215006],[21.028977,41.210184],[21.026366,41.204253],[21.014706,41.201513],[21.004763,41.190346],[20.999648,41.190247],[20.993554,41.185195],[20.988493,41.185536],[20.984798,41.18306],[20.98061,41.173437],[20.96482,41.171319],[20.958732,41.167299],[20.943934,41.16887],[20.948038,41.160757],[20.95363,41.15981],[20.953438,41.157725],[20.940708,41.158044],[20.934457,41.153727],[20.927955,41.140123],[20.918058,41.137818],[20.913817,41.132789],[20.908745,41.131944],[20.903026,41.124861],[20.910183,41.109598],[20.898569,41.104794],[20.892482,41.083402],[20.894955,41.078026],[20.892176,41.069536],[20.895186,41.058598],[20.891992,41.055054],[20.885278,41.053401],[20.873588,41.042742],[20.873028,41.039564],[20.881561,41.028153],[20.869601,41.002528],[20.863061,40.989883],[20.832763,40.960976],[20.829072,40.953891],[20.829543,40.943032],[20.837714,40.92773]]]}}
]}