{"type":"FeatureCollection","bbox":[21.369408,41.100244,22.37047,42.021736],"features":[
{"type":"Feature","id":"MKD:ADM2:vardar.veles","properties":{"shapeName":"Veles","shapeISO":"","shapeGroup":"MKD","shapeType":"ADM2","adm1ISO":"vardar","parentISO":"vardar","parentID":"MKD:ADM1:vardar","src_shape_id":"65306769B79358437937603"},"geometry":{"type":"Polygon","coordinates":[[[21.80588,41.918517],[21.789826,41.9197],[21.78601,41.915455],[21.771921,41.911633],[21.767326,41.903813],[21.757853,41.903123],[21.750599,41.905854],[21.74407,41.899413],[21.747381,41.894004],[21.748436,41.877791],[21.750902,41.8778],[21.753574,41.873291],[21.747631,41.86852],[21.745888,41.862818],[21.733154,41.851722],[21.736326,41.826373],[21.735786,41.822452],[21.730922,41.818391],[21.714939,41.820513],[21.701276,41.836003],[21.69778,41.836595],[21.696739,41.831901],[21.692333,41.832751],[21.687465,41.830615],[21.682221,41.821354],[21.672562,41.818505],[21.673829,41.822532],[21.680736,41.827686],[21.674722,41.834514],[21.670371,41.83207],[21.660653,41.832022],[21.657408,41.828109],[21.651232,41.828804],[21.646579,41.826534],[21.635625,41.835237],[21.631195,41.818857],[21.640914,41.798101],[21.629458,41.789098],[21.622066,41.771954],[21.614114,41.768179],[21.611381,41.759244],[21.604237,41.759745],[21.578629,41.74932],[21.60042,41.721282],[21.621597,41.723675],[21.632662,41.718233],[21.642953,41.719555],[21.656556,41.71131],[21.670515,41.716033],[21.670783,41.712704],[21.679183,41.712773],[21.686195,41.705622],[21.691022,41.676824],[21.703686,41.67121],[21.701979,41.658138],[21.705966,41.654263],[21.705083,41.650954],[21.710853,41.649182],[21.714515,41.652197],[21.718603,41.650464],[21.724005,41.654557],[21.733955,41.655329],[21.733058,41.648855],[21.733971,41.646474],[21.734476,41.639754],[21.73146,41.638138],[21.736234,41.636189],[21.737232,41.628326],[21.762153,41.613902],[21.767572,41.615354],[21.780359,41.612075],[21.784738,41.614086],[21.78176,41.628936],[21.783557,41.632083],[21.786887,41.630298],[21.797272,41.630722],[21.807356,41.633883],[21.812253,41.641833],[21.840409,41.661329],[21.841288,41.662893],[21.832878,41.665427],[21.829658,41.670119],[21.833293,41.678044],[21.837305,41.677276],[21.842719,41.679546],[21.850651,41.683681],[21.856168,41.690236],[21.863592,41.693158],[21.865699,41.699267],[21.868802,41.700112],[21.866842,41.703149],[21.870089,41.703924],[21.88054,41.715869],[21.878893,41.721803],[21.871017,41.730536],[21.868003,41.731761],[21.848686,41.747379],[21.845659,41.747435],[21.846259,41.754645],[21.836831,41.752291],[21.841547,41.747366],[21.837941,41.745484],[21.829803,41.759058],[21.843863,41.772739],[21.850844,41.776233],[21.848005,41.779687],[21.85095,41.78162],[21.850265,41.788734],[21.82873,41.810727],[21.832377,41.812409],[21.834456,41.820682],[21.840998,41.825378],[21.841452,41.828747],[21.849922,41.832483],[21.861476,41.842725],[21.86016,41.844018],[21.863575,41.846444],[21.861883,41.852602],[21.854763,41.858037],[21.852865,41.863187],[21.835288,41.870068],[21.834473,41.873695],[21.819814,41.886673],[21.822859,41.896121],[21.80588,41.918517]]]}},
{"type":"Feature","id":"MKD:ADM2:vardar.gradsko","properties":{"shapeName":"Gradsko","shapeISO":"","shapeGroup":"MKD","shapeType":"ADM2","adm1ISO":"vardar","parentISO":"vardar","parentID":"MKD:ADM1:vardar","src_shape_id":"65306769B37555850097023"},"geometry":{"type":"Polygon","coordinates":[[[21.780359,41.612075],[21.780583,41.596645],[21.802341,41.573909],[21.810696,41.573557],[21.813843,41.566002],[21.80795,41.552808],[21.802185,41.547641],[21.793089,41.545265],[21.787055,41.536512],[21.788126,41.53455],[21.784645,41.532859],[21.789457,41.531521],[21.792505,41.514717],[21.806748,41.499057],[21.810857,41.498209],[21.813793,41.492211],[21.819711,41.496284],[21.824044,41.507403],[21.830345,41.510772],[21.83941,41.508832],[21.862157,41.513827],[21.858106,41.517428],[21.861054,41.521067],[21.856076,41.53024],[21.849574,41.532307],[21.849301,41.536525],[21.881483,41.537082],[21.883986,41.540041],[21.888044,41.537727],[21.894174,41.537809],[21.894827,41.534249],[21.899819,41.537503],[21.903134,41.535985],[21.90174,41.53424],[21.911903,41.53445],[21.915916,41.532342],[21.920267,41.537345],[21.920289,41.544124],[21.933695,41.550044],[21.936409,41.558464],[21.940758,41.558978],[21.945516,41.554816],[21.951143,41.555208],[21.950675,41.552102],[21.954092,41.552282],[21.953844,41.550158],[21.959547,41.548941],[21.968327,41.550572],[21.968397,41.545457],[21.97451,41.547936],[21.980242,41.555061],[21.971001,41.555324],[21.965491,41.562586],[21.969865,41.567761],[21.969554,41.572647],[21.961802,41.582412],[21.966967,41.585355],[21.965689,41.5927],[21.97084,41.603207],[21.960642,41.613792],[21.977453,41.620623],[21.973964,41.632315],[21.975982,41.635131],[21.971498,41.642174],[21.976686,41.657157],[21.953987,41.668531],[21.944353,41.657887],[21.938725,41.655841],[21.934632,41.658275],[21.930412,41.656179],[21.926625,41.657327],[21.920401,41.662816],[21.918065,41.661353],[21.908768,41.662796],[21.903618,41.677989],[21.904493,41.689669],[21.900598,41.695583],[21.900806,41.704547],[21.897058,41.711672],[21.89818,41.719939],[21.893535,41.721102],[21.880664,41.734498],[21.871017,41.730536],[21.878893,41.721803],[21.88054,41.715869],[21.870089,41.703924],[21.866842,41.703149],[21.868802,41.700112],[21.865699,41.699267],[21.863592,41.693158],[21.856168,41.690236],[21.850651,41.683681],[21.842719,41.679546],[21.837305,41.677276],[21.833293,41.678044],[21.829658,41.670119],[21.832878,41.665427],[21.841288,41.662893],[21.840409,41.661329],[21.812253,41.641833],[21.807356,41.633883],[21.797272,41.630722],[21.786887,41.630298],[21.783557,41.632083],[21.78176,41.628936],[21.784738,41.614086],[21.780359,41.612075]]]}},
{"type":"Feature","id":"MKD:ADM2:vardar.demir-kapija","properties":{"shapeName":"Demir Kapija","shapeISO":"","shapeGroup":"MKD","shapeType":"ADM2","adm1ISO":"vardar","parentISO":"vardar","parentID":"MKD:ADM1:vardar","src_shape_id":"65306769B1402835444879"},"geometry":{"type":"Polygon","coordinates":[[[22.344129,41.430029],[22.333252,41.445487],[22.348853,41.474834],[22.346786,41.484723],[22.321805,41.489921],[22.314205,41.496945],[22.297464,41.491461],[22.276491,41.480365],[22.263881,41.462634],[22.254296,41.46355],[22.239433,41.470244],[22.226445,41.481134],[22.217329,41.481849],[22.212574,41.488111],[22.205334,41.486655],[22.203763,41.481071],[22.183013,41.472241],[22.169359,41.460069],[22.176324,41.456899],[22.172849,41.453221],[22.166439,41.452166],[22.168414,41.447854],[22.166382,41.445317],[22.164181,41.446701],[22.161481,41.442615],[22.162253,41.431972],[22.155071,41.430718],[22.146335,41.418664],[22.142996,41.421583],[22.141739,41.417137],[22.130465,41.408535],[22.141762,41.40381],[22.14714,41.407119],[22.149473,41.4046],[22.158174,41.402506],[22.160941,41.39347],[22.159454,41.385051],[22.14934,41.372689],[22.151845,41.369714],[22.147652,41.35966],[22.1255,41.356378],[22.121116,41.357844],[22.114738,41.353914],[22.102373,41.354786],[22.112636,41.339983],[22.120911,41.336925],[22.1369,41.32257],[22.140426,41.316099],[22.152066,41.321266],[22.162898,41.314005],[22.171199,41.313572],[22.170295,41.309856],[22.181282,41.295407],[22.188393,41.291475],[22.191605,41.29417],[22.198869,41.289994],[22.211037,41.296257],[22.226563,41.293437],[22.24933,41.296275],[22.256753,41.305182],[22.261404,41.305458],[22.267556,41.310381],[22.27279,41.309167],[22.281834,41.315631],[22.292512,41.309885],[22.30319,41.315308],[22.295682,41.321772],[22.295784,41.329946],[22.300901,41.331027],[22.306668,41.328751],[22.3195,41.334276],[22.320988,41.337301],[22.318431,41.340268],[22.320366,41.341249],[22.329561,41.336607],[22.336773,41.34247],[22.34473,41.342172],[22.346771,41.345832],[22.356061,41.345239],[22.349436,41.353887],[22.357523,41.352517],[22.360247,41.356732],[22.367033,41.356809],[22.356841,41.370055],[22.37047,41.378327],[22.369446,41.385254],[22.368288,41.385439],[22.364486,41.383397],[22.353862,41.390644],[22.344082,41.389143],[22.337307,41.393356],[22.339564,41.40272],[22.334274,41.416515],[22.344129,41.430029]]]}},
{"type":"Feature","id":"MKD:ADM2:vardar.kavadartsi","properties":{"shapeName":"Kavadartsi","shapeISO":"","shapeGroup":"MKD","shapeType":"ADM2","adm1ISO":"vardar","parentISO":"vardar","parentID":"MKD:ADM1:vardar","src_shape_id":"65306769B96152204239158"},"geometry":{"type":"Polygon","coordinates":[[[22.102373,41.354786],[22.099355,41.357753],[22.091774,41.356691],[22.077405,41.366698],[22.07902,41.372088],[22.064173,41.405846],[22.069114,41.412392],[22.063908,41.415186],[22.058327,41.425093],[22.06489,41.42713],[22.058457,41.440698],[22.062584,41.445644],[22.050225,41.448952],[22.051766,41.455199],[22.055686,41.456465],[22.046665,41.478085],[22.050399,41.481335],[22.048287,41.497327],[22.053008,41.50161],[22.049556,41.504651],[22.051803,41.51073],[22.043524,41.517094],[22.034055,41.51753],[22.032595,41.513416],[22.02148,41.516585],[22.014064,41.512293],[22.005934,41.51325],[21.997358,41.507955],[21.994053,41.508127],[21.986277,41.503896],[21.991139,41.50129],[21.983411,41.498339],[21.986155,41.491276],[21.983803,41.487713],[21.97588,41.487031],[21.9859,41.478658],[21.982654,41.478764],[21.981441,41.473273],[21.97815,41.473752],[21.972922,41.467937],[21.96366,41.464332],[21.951921,41.452772],[21.933244,41.455072],[21.921714,41.462566],[21.916189,41.45764],[21.916464,41.454213],[21.910289,41.449867],[21.908883,41.443493],[21.90293,41.442931],[21.893943,41.447831],[21.882496,41.44114],[21.874106,41.443672],[21.868136,41.442319],[21.864991,41.440655],[21.865586,41.436873],[21.845485,41.451971],[21.839508,41.45042],[21.836381,41.450233],[21.828259,41.454038],[21.826569,41.45995],[21.819227,41.466321],[21.815261,41.465221],[21.811535,41.467313],[21.810865,41.470864],[21.809323,41.469274],[21.80054,41.474432],[21.794606,41.473644],[21.794706,41.470333],[21.789194,41.464399],[21.791074,41.453115],[21.776066,41.456859],[21.772809,41.453103],[21.776651,41.451829],[21.782276,41.444781],[21.783779,41.432799],[21.788592,41.426866],[21.808482,41.42852],[21.822517,41.440499],[21.82144,41.43537],[21.824119,41.43388],[21.82803,41.419656],[21.819488,41.41256],[21.817942,41.40818],[21.822959,41.3929],[21.82305,41.383738],[21.828144,41.375279],[21.840133,41.364639],[21.843067,41.356564],[21.841396,41.353658],[21.836483,41.3511],[21.831378,41.351384],[21.826319,41.346902],[21.823455,41.339843],[21.824857,41.334621],[21.821234,41.330589],[21.821544,41.321656],[21.809596,41.309617],[21.816539,41.306899],[21.825137,41.292239],[21.834924,41.286064],[21.832623,41.284731],[21.834399,41.278153],[21.841464,41.280468],[21.84593,41.2768],[21.85001,41.280031],[21.859939,41.277383],[21.873199,41.284928],[21.880034,41.280758],[21.891062,41.282296],[21.895558,41.279184],[21.887633,41.271295],[21.881946,41.269774],[21.881525,41.261583],[21.874332,41.254005],[21.874949,41.244293],[21.870932,41.241088],[21.865819,41.229531],[21.87231,41.211696],[21.879734,41.2073],[21.881537,41.199596],[21.885421,41.197454],[21.892987,41.197426],[21.88887,41.194652],[21.888087,41.186909],[21.89437,41.180279],[21.887507,41.175907],[21.889771,41.174777],[21.88678,41.165579],[21.878024,41.162913],[21.883452,41.160646],[21.884481,41.15695],[21.893037,41.157374],[21.895774,41.149999],[21.903614,41.14283],[21.918903,41.138453],[21.926913,41.140297],[21.932148,41.138618],[21.931691,41.136748],[21.925982,41.136427],[21.927625,41.133835],[21.923219,41.131435],[21.929144,41.128733],[21.927531,41.122262],[21.92238,41.124097],[21.917841,41.123025],[21.929598,41.100244],[21.933862,41.104899],[21.943341,41.109057],[21.948707,41.110919],[21.959412,41.117305],[21.964135,41.119145],[21.967954,41.122246],[21.971316,41.12591],[21.974822,41.127702],[21.982813,41.127036],[21.996294,41.127335],[22.01077,41.130467],[22.017745,41.132676],[22.023234,41.133035],[22.033151,41.136852],[22.043254,41.14316],[22.046177,41.146521],[22.053311,41.147767],[22.057984,41.149812],[22.060622,41.151996],[22.06149,41.155367],[22.066896,41.157584],[22.076554,41.154614],[22.080303,41.15138],[22.08074,41.14561],[22.087093,41.139419],[22.10264,41.136817],[22.111982,41.134134],[22.115514,41.131575],[22.120923,41.126469],[22.12652,41.124815],[22.131361,41.125552],[22.140208,41.125172],[22.146591,41.126926],[22.15046,41.130715],[22.15386,41.136964],[22.155895,41.139213],[22.158991,41.141059],[22.163008,41.144567],[22.166363,41.150552],[22.172,41.156738],[22.177131,41.158628],[22.187148,41.160937],[22.192955,41.161818],[22.200839,41.161418],[22.203936,41.162149],[22.209741,41.166922],[22.21567,41.168604],[22.214016,41.185167],[22.21886,41.19908],[22.224472,41.202165],[22.24373,41.200471],[22.26948,41.217558],[22.268018,41.229745],[22.252791,41.233598],[22.24575,41.24383],[22.292728,41.251021],[22.299714,41.264939],[22.290112,41.278907],[22.292713,41.288195],[22.289941,41.302105],[22.292512,41.309885],[22.281834,41.315631],[22.27279,41.309167],[22.267556,41.310381],[22.261404,41.305458],[22.256753,41.305182],[22.24933,41.296275],[22.226563,41.293437],[22.211037,41.296257],[22.198869,41.289994],[22.191605,41.29417],[22.188393,41.291475],[22.181282,41.295407],[22.170295,41.309856],[22.171199,41.313572],[22.162898,41.314005],[22.152066,41.321266],[22.140426,41.316099],[22.1369,41.32257],[22.120911,41.336925],[22.112636,41.339983],[22.102373,41.354786]]]}},
{"type":"Feature","id":"MKD:ADM2:vardar.lozovo","properties":{"shapeName":"Lozovo","shapeISO":"","shapeGroup":"MKD","shapeType":"ADM2","adm1ISO":"vardar","parentISO":"vardar","parentID":"MKD:ADM1:vardar","src_shape_id":"65306769B81455536397038"},"geometry":{"type":"Polygon","coordinates":[[[21.871017,41.730536],[21.880664,41.734498],[21.893535,41.721102],[21.89818,41.719939],[21.897058,41.711672],[21.900806,41.704547],[21.900598,41.695583],[21.904493,41.689669],[21.903618,41.677989],[21.908768,41.662796],[21.918065,41.661353],[21.920401,41.662816],[21.926625,41.657327],[21.930412,41.656179],[21.934632,41.658275],[21.938725,41.655841],[21.944353,41.657887],[21.953987,41.668531],[21.958724,41.669453],[21.964189,41.6635],[21.965519,41.666318],[21.96212,41.672607],[21.967238,41.675902],[21.966512,41.682579],[21.973866,41.688497],[21.969037,41.692841],[21.961472,41.691594],[21.9564,41.694006],[21.958484,41.697463],[21.952908,41.701711],[21.94712,41.712528],[21.951805,41.715668],[21.954782,41.713439],[21.959522,41.724399],[21.973171,41.724147],[21.972779,41.727271],[21.978608,41.73404],[21.991084,41.723611],[21.998804,41.721481],[22.0024,41.72407],[22.008429,41.723571],[22.008905,41.725932],[22.002908,41.727289],[22.009185,41.738616],[22.014272,41.737354],[22.018458,41.733062],[22.02535,41.739023],[22.017074,41.741708],[22.019845,41.746789],[22.005496,41.756155],[22.001746,41.762473],[22.002942,41.767607],[21.99497,41.766557],[21.984993,41.775596],[21.961453,41.786507],[21.961956,41.788433],[21.968775,41.790252],[21.967813,41.79294],[21.96371,41.792456],[21.951021,41.803585],[21.930476,41.816106],[21.918226,41.817739],[21.911477,41.822582],[21.904255,41.823096],[21.890886,41.841255],[21.881232,41.848644],[21.865747,41.855852],[21.861883,41.852602],[21.863575,41.846444],[21.86016,41.844018],[21.861476,41.842725],[21.849922,41.832483],[21.841452,41.828747],[21.840998,41.825378],[21.834456,41.820682],[21.832377,41.812409],[21.82873,41.810727],[21.850265,41.788734],[21.85095,41.78162],[21.848005,41.779687],[21.850844,41.776233],[21.843863,41.772739],[21.829803,41.759058],[21.837941,41.745484],[21.841547,41.747366],[21.836831,41.752291],[21.846259,41.754645],[21.845659,41.747435],[21.848686,41.747379],[21.868003,41.731761],[21.871017,41.730536]]]}},
{"type":"Feature","id":"MKD:ADM2:vardar.negotino","properties":{"shapeName":"Negotino","shapeISO":"","shapeGroup":"MKD","shapeType":"ADM2","adm1ISO":"vardar","parentISO":"vardar","parentID":"MKD:ADM1:vardar","src_shape_id":"65306769B63258214258120"},"geometry":{"type":"Polygon","coordinates":[[[21.980242,41.555061],[22.000094,41.562898],[21.999541,41.552681],[21.995176,41.549523],[21.997156,41.541387],[21.992289,41.532907],[21.993514,41.525907],[21.9904,41.524545],[21.994053,41.508127],[21.997358,41.507955],[22.005934,41.51325],[22.014064,41.512293],[22.02148,41.516585],[22.032595,41.513416],[22.034055,41.51753],[22.043524,41.517094],[22.051803,41.51073],[22.049556,41.504651],[22.053008,41.50161],[22.048287,41.497327],[22.050399,41.481335],[22.046665,41.478085],[22.055686,41.456465],[22.051766,41.455199],[22.050225,41.448952],[22.062584,41.445644],[22.058457,41.440698],[22.06489,41.42713],[22.058327,41.425093],[22.063908,41.415186],[22.069114,41.412392],[22.064173,41.405846],[22.07902,41.372088],[22.077405,41.366698],[22.091774,41.356691],[22.099355,41.357753],[22.102373,41.354786],[22.114738,41.353914],[22.121116,41.357844],[22.1255,41.356378],[22.147652,41.35966],[22.151845,41.369714],[22.14934,41.372689],[22.159454,41.385051],[22.160941,41.39347],[22.158174,41.402506],[22.149473,41.4046],[22.14714,41.407119],[22.141762,41.40381],[22.130465,41.408535],[22.141739,41.417137],[22.142996,41.421583],[22.146335,41.418664],[22.155071,41.430718],[22.162253,41.431972],[22.161481,41.442615],[22.164181,41.446701],[22.166382,41.445317],[22.168414,41.447854],[22.166439,41.452166],[22.172849,41.453221],[22.176324,41.456899],[22.169359,41.460069],[22.183013,41.472241],[22.203763,41.481071],[22.205334,41.486655],[22.212574,41.488111],[22.217329,41.481849],[22.226445,41.481134],[22.239433,41.470244],[22.254296,41.46355],[22.263881,41.462634],[22.276491,41.480365],[22.297464,41.491461],[22.314205,41.496945],[22.311187,41.51112],[22.305033,41.519181],[22.300515,41.521258],[22.299075,41.527236],[22.29103,41.532058],[22.288891,41.541254],[22.283774,41.539766],[22.27699,41.547628],[22.271401,41.546416],[22.270682,41.552782],[22.26638,41.556372],[22.254947,41.549825],[22.247423,41.54902],[22.216055,41.562706],[22.212666,41.567616],[22.205986,41.569454],[22.195645,41.578269],[22.185282,41.58253],[22.177514,41.600459],[22.172529,41.603122],[22.156783,41.606196],[22.152575,41.602939],[22.139142,41.599612],[22.127873,41.598435],[22.124398,41.600477],[22.118833,41.6096],[22.121358,41.632246],[22.110452,41.657619],[22.099526,41.660223],[22.085227,41.640064],[22.085153,41.63572],[22.073504,41.62966],[22.060067,41.644778],[22.051379,41.650081],[22.053224,41.656674],[22.034171,41.662593],[22.032142,41.666521],[22.005029,41.674171],[21.999146,41.671399],[21.991494,41.673101],[21.988403,41.67177],[21.984791,41.67404],[21.9819,41.672244],[21.975925,41.675268],[21.967238,41.675902],[21.96212,41.672607],[21.965519,41.666318],[21.964189,41.6635],[21.958724,41.669453],[21.953987,41.668531],[21.976686,41.657157],[21.971498,41.642174],[21.975982,41.635131],[21.973964,41.632315],[21.977453,41.620623],[21.960642,41.613792],[21.97084,41.603207],[21.965689,41.5927],[21.966967,41.585355],[21.961802,41.582412],[21.969554,41.572647],[21.969865,41.567761],[21.965491,41.562586],[21.971001,41.555324],[21.980242,41.555061]]]}},
{"type":"Feature","id":"MKD:ADM2:vardar.rosoman","properties":{"shapeName":"Rosoman","shapeISO":"","shapeGroup":"MKD","shapeType":"ADM2","adm1ISO":"vardar","parentISO":"vardar","parentID":"MKD:ADM1:vardar","src_shape_id":"65306769B19811324233496"},"geometry":{"type":"Polygon","coordinates":[[[21.813793,41.492211],[21.81812,41.486168],[21.817331,41.475823],[21.810865,41.470864],[21.811535,41.467313],[21.815261,41.465221],[21.819227,41.466321],[21.826569,41.45995],[21.828259,41.454038],[21.836381,41.450233],[21.839508,41.45042],[21.845485,41.451971],[21.865586,41.436873],[21.864991,41.440655],[21.868136,41.442319],[21.874106,41.443672],[21.882496,41.44114],[21.893943,41.447831],[21.90293,41.442931],[21.908883,41.443493],[21.910289,41.449867],[21.916464,41.454213],[21.916189,41.45764],[21.921714,41.462566],[21.933244,41.455072],[21.951921,41.452772],[21.96366,41.464332],[21.972922,41.467937],[21.97815,41.473752],[21.981441,41.473273],[21.982654,41.478764],[21.9859,41.478658],[21.97588,41.487031],[21.983803,41.487713],[21.986155,41.491276],[21.983411,41.498339],[21.991139,41.50129],[21.986277,41.503896],[21.994053,41.508127],[21.9904,41.524545],[21.993514,41.525907],[21.992289,41.532907],[21.997156,41.541387],[21.995176,41.549523],[21.999541,41.552681],[22.000094,41.562898],[21.980242,41.555061],[21.97451,41.547936],[21.968397,41.545457],[21.968327,41.550572],[21.959547,41.548941],[21.953844,41.550158],[21.954092,41.552282],[21.950675,41.552102],[21.951143,41.555208],[21.945516,41.554816],[21.940758,41.558978],[21.936409,41.558464],[21.933695,41.550044],[21.920289,41.544124],[21.920267,41.537345],[21.915916,41.532342],[21.911903,41.53445],[21.90174,41.53424],[21.903134,41.535985],[21.899819,41.537503],[21.894827,41.534249],[21.894174,41.537809],[21.888044,41.537727],[21.883986,41.540041],[21.881483,41.537082],[21.849301,41.536525],[21.849574,41.532307],[21.856076,41.53024],[21.861054,41.521067],[21.858106,41.517428],[21.862157,41.513827],[21.83941,41.508832],[21.830345,41.510772],[21.824044,41.507403],[21.819711,41.496284],[21.813793,41.492211]]]}},
{"type":"Feature","id":"MKD:ADM2:vardar.sveti-nikole","properties":{"shapeName":"Sveti Nikole","shapeISO":"","shapeGroup":"MKD","shapeType":"ADM2","adm1ISO":"vardar","parentISO":"vardar","parentID":"MKD:ADM1:vardar","src_shape_id":"65306769B91405117981087"},"geometry":{"type":"Polygon","coordinates":[[[21.861883,41.852602],[21.865747,41.855852],[21.881232,41.848644],[21.890886,41.841255],[21.904255,41.823096],[21.911477,41.822582],[21.918226,41.817739],[21.930476,41.816106],[21.951021,41.803585],[21.96371,41.792456],[21.967813,41.79294],[21.968775,41.790252],[21.961956,41.788433],[21.961453,41.786507],[21.984993,41.775596],[21.99497,41.766557],[22.002942,41.767607],[22.001746,41.762473],[22.005496,41.756155],[22.019845,41.746789],[22.026405,41.747292],[22.033982,41.740331],[22.038874,41.742981],[22.044631,41.742253],[22.047552,41.738499],[22.046056,41.734356],[22.049854,41.73131],[22.052073,41.732823],[22.053259,41.744723],[22.048956,41.75074],[22.057961,41.762192],[22.045459,41.787044],[22.053339,41.789742],[22.064961,41.787265],[22.07816,41.807789],[22.100679,41.821051],[22.112509,41.832621],[22.108831,41.833219],[22.105963,41.844618],[22.096762,41.858363],[22.098178,41.864746],[22.100647,41.863897],[22.103565,41.874228],[22.109589,41.878401],[22.111414,41.885372],[22.107931,41.893533],[22.10013,41.894616],[22.097995,41.898476],[22.125928,41.898699],[22.114829,41.901763],[22.106067,41.907817],[22.106798,41.917735],[22.095738,41.920984],[22.090485,41.927206],[22.085,41.928982],[22.087199,41.932881],[22.084494,41.935681],[22.085848,41.939984],[22.076854,41.945494],[22.076749,41.952554],[22.062957,41.963135],[22.045946,41.96714],[22.035572,41.974622],[22.032533,41.983133],[22.026258,41.988866],[22.024753,41.993237],[22.033127,41.996865],[22.035186,42.00142],[22.03154,42.006812],[22.034184,42.015946],[22.030401,42.015236],[22.024008,42.020162],[22.013684,42.021736],[22.007941,42.019331],[21.997187,42.013001],[21.990492,42.004354],[21.98544,42.005988],[21.976243,42.002672],[21.968314,42.002829],[21.960981,41.997691],[21.943827,41.992039],[21.936936,41.984642],[21.937364,41.994039],[21.932479,42.006349],[21.926557,42.015615],[21.924553,42.017688],[21.922235,42.016823],[21.919393,42.021147],[21.915501,42.02068],[21.91331,42.016802],[21.903044,42.018655],[21.894059,42.014866],[21.89285,42.011448],[21.885937,42.013023],[21.873605,42.010787],[21.867451,42.004048],[21.865769,41.997637],[21.858076,42.000098],[21.848748,41.994148],[21.85163,41.985911],[21.856876,41.982104],[21.850117,41.980446],[21.847333,41.97652],[21.834903,41.969847],[21.82975,41.961656],[21.821309,41.960567],[21.817073,41.945131],[21.80838,41.932405],[21.809852,41.91874],[21.80588,41.918517],[21.822859,41.896121],[21.819814,41.886673],[21.834473,41.873695],[21.835288,41.870068],[21.852865,41.863187],[21.854763,41.858037],[21.861883,41.852602]]]}},
{"type":"Feature","id":"MKD:ADM2:vardar.chashka","properties":{"shapeName":"Chashka","shapeISO":"","shapeGroup":"MKD","shapeType":"ADM2","adm1ISO":"vardar","parentISO":"vardar","parentID":"MKD:ADM1:vardar","src_shape_id":"65306769B55292490733903"},"geometry":{"type":"Polygon","coordinates":[[[21.578629,41.74932],[21.56876,41.759052],[21.526833,41.754083],[21.528931,41.757907],[21.525809,41.764211],[21.51996,41.768416],[21.520721,41.76432],[21.503237,41.765619],[21.498404,41.76048],[21.493007,41.760341],[21.484595,41.75932],[21.47115,41.762287],[21.452609,41.756454],[21.441938,41.72784],[21.435148,41.727983],[21.43047,41.717317],[21.420328,41.714763],[21.404025,41.703782],[21.393491,41.717966],[21.383448,41.710834],[21.3924,41.690385],[21.389688,41.685203],[21.390796,41.677245],[21.39745,41.666239],[21.389676,41.658508],[21.390495,41.654976],[21.369408,41.649537],[21.377106,41.638141],[21.379979,41.624804],[21.3729,41.612551],[21.373881,41.605521],[21.38982,41.604517],[21.407093,41.597026],[21.424591,41.596324],[21.43001,41.590584],[21.429067,41.583105],[21.44381,41.571485],[21.443602,41.567552],[21.463784,41.555987],[21.467014,41.541334],[21.464622,41.535062],[21.45954,41.531251],[21.469188,41.521006],[21.478277,41.504725],[21.484474,41.501693],[21.492567,41.505347],[21.512234,41.498653],[21.517098,41.501081],[21.531335,41.499173],[21.538625,41.49552],[21.53916,41.484966],[21.583837,41.471245],[21.601512,41.460526],[21.607868,41.452957],[21.615556,41.456852],[21.62963,41.458286],[21.63734,41.449138],[21.645105,41.448268],[21.649446,41.43522],[21.653295,41.439558],[21.664374,41.438123],[21.67434,41.446138],[21.671253,41.458603],[21.679189,41.464343],[21.693097,41.468092],[21.698947,41.474844],[21.709561,41.478671],[21.714193,41.484567],[21.721132,41.484257],[21.729441,41.48061],[21.733811,41.486566],[21.750096,41.483578],[21.757012,41.478354],[21.768741,41.460943],[21.776066,41.456859],[21.791074,41.453115],[21.789194,41.464399],[21.794706,41.470333],[21.794606,41.473644],[21.80054,41.474432],[21.809323,41.469274],[21.810865,41.470864],[21.817331,41.475823],[21.81812,41.486168],[21.813793,41.492211],[21.810857,41.498209],[21.806748,41.499057],[21.792505,41.514717],[21.789457,41.531521],[21.784645,41.532859],[21.788126,41.53455],[21.787055,41.536512],[21.793089,41.545265],[21.802185,41.547641],[21.80795,41.552808],[21.813843,41.566002],[21.810696,41.573557],[21.802341,41.573909],[21.780583,41.596645],[21.780359,41.612075],[21.767572,41.615354],[21.762153,41.613902],[21.737232,41.628326],[21.736234,41.636189],[21.73146,41.638138],[21.734476,41.639754],[21.733971,41.646474],[21.733058,41.648855],[21.733955,41.655329],[21.724005,41.654557],[21.718603,41.650464],[21.714515,41.652197],[21.710853,41.649182],[21.705083,41.650954],[21.705966,41.654263],[21.701979,41.658138],[21.703686,41.67121],[21.691022,41.676824],[21.686195,41.705622],[21.679183,41.712773],[21.670783,41.712704],[21.670515,41.716033],[21.656556,41.71131],[21.642953,41.719555],[21.632662,41.718233],[21.621597,41.723675],[21.60042,41.721282],[21.578629,41.74932]]]}}
]}