{"type":"FeatureCollection","bbox":[19.3072,39.6362,21.062,42.6619],"features":[
{"type":"Feature","id":"ALB:ADM1:AL-01","properties":{"shapeName":"Berat","shapeISO":"AL-01","shapeType":"ADM1"},"geometry":{"type":"Polygon","coordinates":[[[20.3076,40.7086],[20.1179,40.7493],[20.0171,40.8743],[19.8286,40.868],[19.7375,40.7768],[19.9286,40.5348],[20.276,40.3774],[20.4431,40.4421],[20.4657,40.5656],[20.3076,40.7086]]]}},
{"type":"Feature","id":"ALB:ADM1:AL-09","properties":{"shapeName":"Dibër","shapeISO":"AL-09","shapeType":"ADM1"},"geometry":{"type":"Polygon","coordinates":[[[20.5461,41.8212],[20.2064,41.8656],[20.0125,41.7013],[19.8181,41.659],[19.8243,41.5682],[19.9049,41.5062],[20.2239,41.3431],[20.4029,41.4028],[20.5175,41.3351],[20.4683,41.4997],[20.5616,41.5816],[20.5461,41.8212]]]}},
{"type":"Feature","id":"ALB:ADM1:AL-02","properties":{"shapeName":"Durrës","shapeISO":"AL-02","shapeType":"ADM1"},"geometry":{"type":"Polygon","coordinates":[[[19.8243,41.5682],[19.5579,41.5826],[19.4136,41.3683],[19.5181,41.2731],[19.9049,41.5062],[19.8243,41.5682]]]}},
{"type":"Feature","id":"ALB:ADM1:AL-03","properties":{"shapeName":"Elbasan","shapeISO":"AL-03","shapeType":"ADM1"},"geometry":{"type":"Polygon","coordinates":[[[20.3076,40.7086],[20.4507,40.7433],[20.4236,40.9811],[20.4787,40.996],[20.5943,41.0935],[20.5175,41.3351],[20.4029,41.4028],[20.2239,41.3431],[20.0758,41.2356],[19.6948,41.0865],[19.678,41.0371],[19.8286,40.868],[20.0171,40.8743],[20.1179,40.7493],[20.3076,40.7086]]]}},
{"type":"Feature","id":"ALB:ADM1:AL-04","properties":{"shapeName":"Fier","shapeISO":"AL-04","shapeType":"ADM1"},"geometry":{"type":"Polygon","coordinates":[[[19.8286,40.868],[19.678,41.0371],[19.446,40.9988],[19.3072,40.6525],[19.6969,40.5327],[19.7657,40.4203],[19.9286,40.5348],[19.7375,40.7768],[19.8286,40.868]]]}},
{"type":"Feature","id":"ALB:ADM1:AL-05","properties":{"shapeName":"Gjirokastër","shapeISO":"AL-05","shapeType":"ADM1"},"geometry":{"type":"Polygon","coordinates":[[[19.9286,40.5348],[19.7657,40.4203],[19.9481,40.058],[20.2369,39.9295],[20.314,39.8105],[20.3437,39.956],[20.465,40.0727],[20.6298,40.0838],[20.5004,40.2615],[20.4431,40.4421],[20.276,40.3774],[19.9286,40.5348]]]}},
{"type":"Feature","id":"ALB:ADM1:AL-06","properties":{"shapeName":"Korçë","shapeISO":"AL-06","shapeType":"ADM1"},"geometry":{"type":"Polygon","coordinates":[[[20.4431,40.4421],[20.5004,40.2615],[20.6298,40.0838],[20.8542,40.4813],[21.062,40.5671],[20.9174,40.9164],[20.6413,40.9357],[20.5943,41.0935],[20.4787,40.996],[20.4236,40.9811],[20.4507,40.7433],[20.3076,40.7086],[20.4657,40.5656],[20.4431,40.4421]]]}},
{"type":"Feature","id":"ALB:ADM1:AL-07","properties":{"shapeName":"Kukës","shapeISO":"AL-07","shapeType":"ADM1"},"geometry":{"type":"Polygon","coordinates":[[[20.5461,41.8212],[20.6212,41.9431],[20.5034,42.2405],[20.2682,42.3238],[20.238,42.4347],[20.0597,42.5574],[19.8264,42.4603],[19.8476,42.2763],[20.0268,42.2618],[20.2375,42.1625],[20.1721,42.0018],[20.2064,41.8656],[20.5461,41.8212]]]}},
{"type":"Feature","id":"ALB:ADM1:AL-08","properties":{"shapeName":"Lezhë","shapeISO":"AL-08","shapeType":"ADM1"},"geometry":{"type":"Polygon","coordinates":[[[20.2064,41.8656],[20.1721,42.0018],[19.9525,41.8654],[19.8437,41.9363],[19.534,41.8347],[19.6128,41.7591],[19.5579,41.5826],[19.8243,41.5682],[19.8181,41.659],[20.0125,41.7013],[20.2064,41.8656]]]}},
{"type":"Feature","id":"ALB:ADM1:AL-10","properties":{"shapeName":"Shkodër","shapeISO":"AL-10","shapeType":"ADM1"},"geometry":{"type":"Polygon","coordinates":[[[19.8264,42.4603],[19.7198,42.6619],[19.3578,42.2355],[19.3731,41.8508],[19.534,41.8347],[19.8437,41.9363],[19.9525,41.8654],[20.1721,42.0018],[20.2375,42.1625],[20.0268,42.2618],[19.8476,42.2763],[19.8264,42.4603]]]}},
{"type":"Feature","id":"ALB:ADM1:AL-11","properties":{"shapeName":"Tiranë","shapeISO":"AL-11","shapeType":"ADM1"},"geometry":{"type":"Polygon","coordinates":[[[19.9049,41.5062],[19.5181,41.2731],[19.446,40.9988],[19.678,41.0371],[19.6948,41.0865],[20.0758,41.2356],[20.2239,41.3431],[19.9049,41.5062]]]}},
{"type":"Feature","id":"ALB:ADM1:AL-12","properties":{"shapeName":"Vlorë","shapeISO":"AL-12","shapeType":"ADM1"},"geometry":{"type":"Polygon","coordinates":[[[19.3072,40.6525],[19.4544,40.554],[19.4649,40.2131],[19.855,40.05],[20.022,39.8501],[19.9867,39.6835],[20.2214,39.6362],[20.314,39.8105],[20.2369,39.9295],[19.9481,40.058],[19.7657,40.4203],[19.6969,40.5327],[19.3072,40.6525]]]}}
]}