{"type":"FeatureCollection","bbox":[18.522448,44.712269,19.005875,44.966768],"features":[
{"type":"Feature","id":"BIH:ADM3:BA-BRC.brcko-district","properties":{"shapeName":"Brcko District","shapeISO":"","shapeGroup":"BIH","shapeType":"ADM3","adm1ISO":"BA-BRC","parentISO":"BA-BRC","parentID":"BIH:ADM1:BA-BRC","src_shape_id":"43093233B82378099338701"},"geometry":{"type":"Polygon","coordinates":[[[18.785485,44.966562],[18.774677,44.966768],[18.765028,44.963055],[18.754532,44.957186],[18.746914,44.951555],[18.745017,44.949242],[18.737434,44.94209],[18.718643,44.940053],[18.704762,44.939573],[18.69816,44.936817],[18.68614,44.92735],[18.680046,44.924233],[18.670905,44.921237],[18.663625,44.917161],[18.6577,44.911167],[18.651744,44.908425],[18.639417,44.900016],[18.6318,44.888983],[18.627398,44.874709],[18.618934,44.865711],[18.614363,44.859832],[18.612332,44.854791],[18.605899,44.84543],[18.597942,44.838468],[18.58897,44.837148],[18.576612,44.834267],[18.575293,44.832521],[18.571202,44.827107],[18.566543,44.819499],[18.559393,44.813812],[18.550075,44.810045],[18.544875,44.811583],[18.541191,44.814734],[18.53664,44.817193],[18.530573,44.818961],[18.523531,44.817654],[18.522448,44.809507],[18.52689,44.804127],[18.533499,44.79936],[18.541191,44.79444],[18.543141,44.78998],[18.542166,44.786059],[18.538157,44.782906],[18.537653,44.781234],[18.546933,44.774139],[18.549858,44.768524],[18.548342,44.76437],[18.548992,44.758293],[18.551917,44.754292],[18.558309,44.748752],[18.574344,44.735439],[18.575861,44.730437],[18.579436,44.726665],[18.581928,44.726434],[18.58507,44.728358],[18.589295,44.728974],[18.596338,44.728897],[18.603813,44.72628],[18.60858,44.725048],[18.616164,44.72551],[18.62624,44.727896],[18.636966,44.72882],[18.64325,44.725356],[18.646717,44.718582],[18.650942,44.71481],[18.656468,44.712269],[18.658415,44.712509],[18.663944,44.713193],[18.667519,44.715425],[18.672069,44.71658],[18.677053,44.715271],[18.686371,44.716272],[18.693331,44.720682],[18.699502,44.725067],[18.704425,44.732604],[18.711844,44.739155],[18.717808,44.742701],[18.728278,44.745656],[18.738917,44.747829],[18.74921,44.749137],[18.754735,44.750676],[18.762103,44.750445],[18.766978,44.748906],[18.772287,44.745751],[18.778029,44.743212],[18.782363,44.741904],[18.787671,44.743366],[18.792655,44.746444],[18.801874,44.752874],[18.805873,44.755985],[18.818333,44.763216],[18.821739,44.770245],[18.824616,44.77385],[18.846793,44.777095],[18.866769,44.776494],[18.875741,44.775893],[18.89013,44.774211],[18.89724,44.770726],[18.90672,44.768322],[18.908349,44.768772],[18.912815,44.770005],[18.918232,44.772889],[18.923987,44.778657],[18.933637,44.793676],[18.939392,44.800763],[18.944132,44.815056],[18.948026,44.8219],[18.956321,44.827303],[18.962923,44.828384],[18.975958,44.827784],[18.982391,44.825022],[18.988485,44.819979],[18.992887,44.819018],[18.998291,44.820114],[19.002299,44.823879],[19.002516,44.830411],[18.998399,44.833714],[18.99634,44.836865],[18.999916,44.841167],[19.005441,44.846314],[19.005875,44.852421],[18.997965,44.854551],[18.993903,44.855151],[18.98747,44.852991],[18.973419,44.853111],[18.958522,44.849271],[18.927712,44.84579],[18.910053,44.846135],[18.900002,44.843697],[18.876989,44.846885],[18.855564,44.852699],[18.837842,44.861136],[18.822765,44.87126],[18.811127,44.880819],[18.795785,44.888878],[18.777269,44.893001],[18.770921,44.89806],[18.766382,44.90769],[18.765028,44.913684],[18.759103,44.921237],[18.755378,44.929747],[18.756902,44.93502],[18.760626,44.937656],[18.774508,44.930945],[18.782634,44.928428],[18.79296,44.932383],[18.800409,44.934421],[18.813613,44.939214],[18.811412,44.943168],[18.803456,44.947002],[18.796515,44.949758],[18.78822,44.957066],[18.785173,44.962696],[18.785485,44.966562]]]}}
]}