{"type":"FeatureCollection","bbox":[-68.296145,-39.330685,-63.383514,-35.000002],"features":[
{"type":"Feature","id":"ARG:ADM2:AR-L.rancul","properties":{"shapeName":"Rancul","shapeISO":"","shapeGroup":"ARG","shapeType":"ADM2","adm1ISO":"AR-L","parentISO":"AR-L","parentID":"ARG:ADM1:AR-L","src_shape_id":"61730980B63706771284544"},"geometry":{"type":"Polygon","coordinates":[[[-65.117054,-35.801066],[-65.105303,-35.801247],[-64.889255,-35.804574],[-64.719507,-35.807188],[-64.4932,-35.810673],[-64.492263,-35.749507],[-64.491273,-35.684887],[-64.48859,-35.509745],[-64.487673,-35.449911],[-64.485088,-35.281537],[-64.482281,-35.098685],[-64.480767,-35.000051],[-64.599221,-35.000042],[-64.935036,-35.000016],[-65.117493,-35.000002],[-65.117489,-35.007174],[-65.11737,-35.223524],[-65.117313,-35.328278],[-65.117054,-35.801066]]]}},
{"type":"Feature","id":"ARG:ADM2:AR-L.caleu-caleu","properties":{"shapeName":"Caleu Caleu","shapeISO":"","shapeGroup":"ARG","shapeType":"ADM2","adm1ISO":"AR-L","parentISO":"AR-L","parentID":"ARG:ADM1:AR-L","src_shape_id":"61730980B9086176864437"},"geometry":{"type":"Polygon","coordinates":[[[-63.383721,-38.252933],[-63.55757,-38.25194],[-63.835837,-38.250351],[-64.512871,-38.246485],[-64.528231,-38.246398],[-64.530732,-38.426535],[-64.532023,-38.519532],[-64.533222,-38.605907],[-64.534863,-38.724116],[-64.535764,-38.788999],[-64.536732,-38.85875],[-64.535095,-38.858398],[-64.53009,-38.860291],[-64.524292,-38.860718],[-64.522827,-38.861877],[-64.519881,-38.866357],[-64.515198,-38.868408],[-64.509277,-38.867187],[-64.505005,-38.867371],[-64.497192,-38.866516],[-64.490906,-38.86499],[-64.482117,-38.86499],[-64.479797,-38.864075],[-64.476379,-38.859985],[-64.473328,-38.861084],[-64.466614,-38.864685],[-64.462402,-38.868408],[-64.457825,-38.86908],[-64.453613,-38.866821],[-64.447205,-38.867798],[-64.44397,-38.869019],[-64.440186,-38.872498],[-64.436005,-38.873495],[-64.43422,-38.874923],[-64.432554,-38.878373],[-64.428034,-38.879325],[-64.424226,-38.872424],[-64.420657,-38.87183],[-64.416374,-38.87409],[-64.413876,-38.87873],[-64.413269,-38.883606],[-64.408691,-38.88269],[-64.403809,-38.877502],[-64.40271,-38.874695],[-64.399597,-38.872986],[-64.394592,-38.874084],[-64.393372,-38.875916],[-64.394226,-38.880005],[-64.398376,-38.884888],[-64.394287,-38.887695],[-64.391418,-38.888306],[-64.388,-38.887878],[-64.383484,-38.885925],[-64.3797,-38.88739],[-64.380188,-38.889893],[-64.379211,-38.891602],[-64.373108,-38.891479],[-64.368591,-38.887695],[-64.367676,-38.883606],[-64.36438,-38.883484],[-64.359802,-38.887878],[-64.35907,-38.890198],[-64.355896,-38.890991],[-64.35321,-38.889709],[-64.350525,-38.883179],[-64.346497,-38.884827],[-64.34552,-38.886597],[-64.345215,-38.891113],[-64.343506,-38.893677],[-64.336914,-38.896301],[-64.334106,-38.901001],[-64.331116,-38.904602],[-64.32536,-38.906451],[-64.319292,-38.906927],[-64.315247,-38.906094],[-64.308899,-38.9021],[-64.302307,-38.899902],[-64.295776,-38.897095],[-64.291809,-38.89955],[-64.292175,-38.905518],[-64.29053,-38.907468],[-64.281799,-38.911987],[-64.279602,-38.914001],[-64.276001,-38.915283],[-64.266724,-38.915771],[-64.262085,-38.915283],[-64.257202,-38.918396],[-64.250488,-38.920471],[-64.24408,-38.922913],[-64.236816,-38.924194],[-64.230896,-38.923706],[-64.22699,-38.92688],[-64.218506,-38.930603],[-64.214478,-38.931702],[-64.210083,-38.933777],[-64.205688,-38.940491],[-64.203308,-38.941772],[-64.193298,-38.943909],[-64.187622,-38.947998],[-64.181519,-38.949097],[-64.179016,-38.950073],[-64.168701,-38.955627],[-64.162415,-38.958191],[-64.152588,-38.963196],[-64.149902,-38.963928],[-64.145996,-38.962524],[-64.143188,-38.962402],[-64.139893,-38.963989],[-64.137329,-38.968384],[-64.135376,-38.969482],[-64.130493,-38.968201],[-64.127197,-38.968506],[-64.118408,-38.973206],[-64.113708,-38.974976],[-64.109192,-38.976013],[-64.103577,-38.97821],[-64.100098,-38.981812],[-64.090881,-38.987671],[-64.083374,-38.989807],[-64.072205,-38.990295],[-64.067505,-38.990784],[-64.064575,-38.991821],[-64.063782,-38.994873],[-64.065918,-38.99762],[-64.065979,-39.003723],[-64.065003,-39.007504],[-64.062683,-39.010376],[-64.058228,-39.009705],[-64.056824,-39.006775],[-64.05249,-39.001587],[-64.049377,-39],[-64.041809,-39.000488],[-64.034912,-39.00238],[-64.032104,-39.002502],[-64.0224,-39.000488],[-64.014526,-39.000977],[-64.009277,-39.004089],[-64.008484,-39.006897],[-64.010925,-39.009583],[-64.016724,-39.009705],[-64.018005,-39.013794],[-64.016602,-39.016174],[-64.013611,-39.018127],[-64.010315,-39.017517],[-64.002808,-39.013428],[-63.999878,-39.011292],[-63.996826,-39.010193],[-63.991699,-39.011292],[-63.990112,-39.013428],[-63.990295,-39.01532],[-63.993286,-39.020813],[-64.002197,-39.025513],[-64.00177,-39.030579],[-63.99823,-39.035278],[-63.996399,-39.036316],[-63.991882,-39.035889],[-63.987671,-39.038818],[-63.984009,-39.038025],[-63.979862,-39.038511],[-63.973794,-39.04089],[-63.967132,-39.042318],[-63.957852,-39.045887],[-63.958328,-39.052312],[-63.955354,-39.054215],[-63.946907,-39.057546],[-63.938459,-39.057903],[-63.933463,-39.061592],[-63.930603,-39.0672],[-63.926562,-39.073251],[-63.926205,-39.076701],[-63.927395,-39.079437],[-63.934387,-39.085815],[-63.935913,-39.088074],[-63.935486,-39.091492],[-63.9328,-39.093506],[-63.929077,-39.094177],[-63.924927,-39.09259],[-63.920227,-39.088684],[-63.916199,-39.086304],[-63.911499,-39.087097],[-63.90918,-39.089172],[-63.905212,-39.095093],[-63.901306,-39.10553],[-63.895508,-39.107727],[-63.892578,-39.107483],[-63.890381,-39.105591],[-63.885498,-39.104004],[-63.88269,-39.104126],[-63.877014,-39.107178],[-63.871704,-39.107788],[-63.869202,-39.106689],[-63.868286,-39.104919],[-63.869873,-39.10321],[-63.873596,-39.102295],[-63.877502,-39.103088],[-63.879578,-39.100403],[-63.877197,-39.096313],[-63.873901,-39.094788],[-63.871277,-39.095276],[-63.867004,-39.098083],[-63.863892,-39.101196],[-63.859104,-39.109657],[-63.856725,-39.110965],[-63.851847,-39.111084],[-63.84308,-39.108521],[-63.840576,-39.111206],[-63.840088,-39.11438],[-63.83783,-39.117004],[-63.832692,-39.121078],[-63.832335,-39.124052],[-63.834834,-39.127741],[-63.8365,-39.131667],[-63.8365,-39.135355],[-63.832573,-39.136426],[-63.829837,-39.133927],[-63.819397,-39.126526],[-63.808899,-39.124023],[-63.804377,-39.124528],[-63.798428,-39.12429],[-63.793193,-39.122982],[-63.791528,-39.120007],[-63.792242,-39.11501],[-63.797238,-39.113345],[-63.798071,-39.11156],[-63.796287,-39.108348],[-63.791077,-39.10791],[-63.788215,-39.109189],[-63.781982,-39.120605],[-63.780273,-39.125427],[-63.776917,-39.128906],[-63.7724,-39.129578],[-63.768799,-39.128906],[-63.766785,-39.129578],[-63.763489,-39.127991],[-63.758972,-39.127686],[-63.75708,-39.129211],[-63.756104,-39.135312],[-63.760315,-39.138306],[-63.762207,-39.1427],[-63.761108,-39.146301],[-63.761475,-39.148987],[-63.763184,-39.151306],[-63.763428,-39.153992],[-63.761902,-39.156372],[-63.756287,-39.158508],[-63.749768,-39.159863],[-63.745842,-39.1626],[-63.743106,-39.16724],[-63.742511,-39.1695],[-63.74025,-39.171523],[-63.738109,-39.175687],[-63.737157,-39.179375],[-63.738109,-39.182468],[-63.743582,-39.187941],[-63.74025,-39.18925],[-63.73561,-39.186632],[-63.733093,-39.18457],[-63.729614,-39.184387],[-63.724304,-39.186523],[-63.718597,-39.190558],[-63.716337,-39.19615],[-63.71015,-39.199838],[-63.706462,-39.200314],[-63.693494,-39.205668],[-63.690613,-39.206177],[-63.682678,-39.205811],[-63.675476,-39.203491],[-63.67077,-39.204478],[-63.669223,-39.206382],[-63.669461,-39.210903],[-63.671365,-39.213282],[-63.675053,-39.215186],[-63.676362,-39.218755],[-63.673031,-39.222681],[-63.668866,-39.223038],[-63.6604,-39.219299],[-63.658081,-39.219177],[-63.656677,-39.221069],[-63.659111,-39.225298],[-63.655779,-39.227797],[-63.650879,-39.228882],[-63.641907,-39.229187],[-63.634583,-39.22699],[-63.633423,-39.228394],[-63.63603,-39.237434],[-63.636149,-39.243501],[-63.635376,-39.2453],[-63.63172,-39.247799],[-63.628906,-39.248901],[-63.62556,-39.248379],[-63.622705,-39.246357],[-63.621039,-39.243263],[-63.620117,-39.236207],[-63.617187,-39.235901],[-63.615567,-39.240408],[-63.61747,-39.246476],[-63.617232,-39.249807],[-63.614377,-39.251829],[-63.608277,-39.252685],[-63.601501,-39.250488],[-63.596008,-39.246094],[-63.591797,-39.247192],[-63.590271,-39.252808],[-63.589111,-39.254883],[-63.580994,-39.258911],[-63.577209,-39.258911],[-63.574707,-39.25708],[-63.568115,-39.258179],[-63.567383,-39.263306],[-63.566101,-39.266296],[-63.563293,-39.266602],[-63.561096,-39.265198],[-63.559998,-39.261292],[-63.557678,-39.261902],[-63.548706,-39.268127],[-63.544678,-39.2724],[-63.53772,-39.280823],[-63.539614,-39.28952],[-63.54128,-39.293089],[-63.54122,-39.296658],[-63.5389,-39.298205],[-63.533813,-39.299805],[-63.52887,-39.30249],[-63.524802,-39.304094],[-63.520162,-39.305106],[-63.518556,-39.306355],[-63.513975,-39.307782],[-63.512012,-39.31266],[-63.505231,-39.314207],[-63.500175,-39.312839],[-63.494345,-39.308615],[-63.489467,-39.306533],[-63.486195,-39.307663],[-63.484768,-39.309151],[-63.480544,-39.311114],[-63.471324,-39.320929],[-63.46484,-39.32426],[-63.460021,-39.328305],[-63.457404,-39.328841],[-63.454192,-39.325866],[-63.454073,-39.322297],[-63.453002,-39.320394],[-63.444079,-39.322714],[-63.434858,-39.329198],[-63.430873,-39.330685],[-63.42772,-39.328186],[-63.419154,-39.326402],[-63.416061,-39.326521],[-63.400535,-39.329079],[-63.393694,-39.328246],[-63.386139,-39.329614],[-63.383514,-39.328493],[-63.383526,-39.263033],[-63.383551,-39.135107],[-63.383557,-39.10144],[-63.383575,-39.009963],[-63.383591,-38.924318],[-63.38361,-38.828766],[-63.383653,-38.605763],[-63.383687,-38.426535],[-63.383721,-38.252933]]]}},
{"type":"Feature","id":"ARG:ADM2:AR-L.limay-mahuida","properties":{"shapeName":"Limay Mahuida","shapeISO":"","shapeGroup":"ARG","shapeType":"ADM2","adm1ISO":"AR-L","parentISO":"AR-L","parentID":"ARG:ADM1:AR-L","src_shape_id":"61730980B5115619218657"},"geometry":{"type":"Polygon","coordinates":[[[-67.111685,-37.700194],[-66.871037,-37.696591],[-66.537082,-37.691591],[-66.477164,-37.690694],[-65.977724,-37.683216],[-65.985173,-37.439117],[-65.988737,-37.322306],[-65.996376,-37.071942],[-65.999749,-36.961395],[-66.005425,-36.781418],[-66.198036,-36.784521],[-67.111025,-36.799229],[-67.126857,-36.799484],[-67.122612,-37.051462],[-67.119687,-37.225163],[-67.117821,-37.335938],[-67.115278,-37.486898],[-67.114695,-37.521497],[-67.111685,-37.700194]]]}},
{"type":"Feature","id":"ARG:ADM2:AR-L.conhelo","properties":{"shapeName":"Conhelo","shapeISO":"","shapeGroup":"ARG","shapeType":"ADM2","adm1ISO":"AR-L","parentISO":"AR-L","parentID":"ARG:ADM1:AR-L","src_shape_id":"61730980B19911830788880"},"geometry":{"type":"Polygon","coordinates":[[[-65.116957,-35.978898],[-65.050417,-35.980454],[-65.052731,-36.084009],[-65.056547,-36.254714],[-64.877267,-36.256469],[-64.839109,-36.256842],[-64.734976,-36.257861],[-64.661157,-36.258584],[-64.61511,-36.259034],[-64.499617,-36.260164],[-64.167222,-36.263417],[-63.942925,-36.265613],[-63.942708,-36.236622],[-63.941757,-36.099327],[-63.940812,-35.962982],[-63.940406,-35.90445],[-63.939771,-35.814017],[-64.051102,-35.813345],[-64.11024,-35.812987],[-64.21834,-35.812334],[-64.4932,-35.810673],[-64.719507,-35.807188],[-64.889255,-35.804574],[-65.105303,-35.801247],[-65.117054,-35.801066],[-65.117026,-35.852068],[-65.116994,-35.910322],[-65.116957,-35.978898]]]}},
{"type":"Feature","id":"ARG:ADM2:AR-L.atreuco","properties":{"shapeName":"Atreuco","shapeISO":"","shapeGroup":"ARG","shapeType":"ADM2","adm1ISO":"AR-L","parentISO":"AR-L","parentID":"ARG:ADM1:AR-L","src_shape_id":"61730980B71031057558278"},"geometry":{"type":"Polygon","coordinates":[[[-63.383912,-37.258938],[-63.383994,-36.83186],[-63.383999,-36.807848],[-63.607916,-36.807194],[-63.937644,-36.806231],[-63.945801,-36.806208],[-64.05251,-36.805896],[-64.169899,-36.805552],[-64.170018,-36.815401],[-64.172098,-36.986759],[-64.174235,-37.25687],[-64.167371,-37.256888],[-63.835274,-37.257757],[-63.723738,-37.258049],[-63.638022,-37.258273],[-63.555988,-37.258488],[-63.383912,-37.258938]]]}},
{"type":"Feature","id":"ARG:ADM2:AR-L.chalileo","properties":{"shapeName":"Chalileo","shapeISO":"","shapeGroup":"ARG","shapeType":"ADM2","adm1ISO":"AR-L","parentISO":"AR-L","parentID":"ARG:ADM1:AR-L","src_shape_id":"61730980B72501201061130"},"geometry":{"type":"Polygon","coordinates":[[[-66.637875,-35.999504],[-66.853781,-35.99951],[-67.120227,-35.999518],[-67.132463,-35.999518],[-67.127884,-36.652849],[-67.127351,-36.728988],[-67.126857,-36.799484],[-67.111025,-36.799229],[-66.198036,-36.784521],[-66.005425,-36.781418],[-66.009153,-36.546071],[-66.011615,-36.39069],[-66.015458,-36.148097],[-66.017812,-35.999514],[-66.109339,-35.999513],[-66.151819,-35.999512],[-66.637875,-35.999504]]]}},
{"type":"Feature","id":"ARG:ADM2:AR-L.maraco","properties":{"shapeName":"Maracó","shapeISO":"","shapeGroup":"ARG","shapeType":"ADM2","adm1ISO":"AR-L","parentISO":"AR-L","parentID":"ARG:ADM1:AR-L","src_shape_id":"61730980B39039474647755"},"geometry":{"type":"Polygon","coordinates":[[[-63.940406,-35.90445],[-63.830596,-35.904652],[-63.488468,-35.905281],[-63.384172,-35.905473],[-63.384176,-35.88416],[-63.384194,-35.792888],[-63.384224,-35.638235],[-63.384259,-35.455492],[-63.710898,-35.453552],[-63.93738,-35.452207],[-63.937762,-35.510043],[-63.938359,-35.600306],[-63.938968,-35.692495],[-63.939771,-35.814017],[-63.940406,-35.90445]]]}},
{"type":"Feature","id":"ARG:ADM2:AR-L.curaco","properties":{"shapeName":"Curacó","shapeISO":"","shapeGroup":"ARG","shapeType":"ADM2","adm1ISO":"AR-L","parentISO":"AR-L","parentID":"ARG:ADM1:AR-L","src_shape_id":"61730980B59721877076450"},"geometry":{"type":"Polygon","coordinates":[[[-66.644778,-38.537944],[-66.634865,-38.543226],[-66.63308,-38.545962],[-66.633437,-38.550364],[-66.634746,-38.554647],[-66.633794,-38.556789],[-66.6238,-38.557622],[-66.621302,-38.556908],[-66.61571,-38.558692],[-66.60988,-38.557979],[-66.608453,-38.559763],[-66.609285,-38.564046],[-66.605478,-38.569043],[-66.603456,-38.573921],[-66.604051,-38.577014],[-66.605774,-38.580811],[-66.605103,-38.583496],[-66.602478,-38.585022],[-66.596912,-38.585818],[-66.595128,-38.588674],[-66.596317,-38.5926],[-66.599292,-38.597121],[-66.599768,-38.599738],[-66.594414,-38.604378],[-66.590845,-38.611992],[-66.590131,-38.615681],[-66.586324,-38.61806],[-66.578947,-38.620558],[-66.577995,-38.621391],[-66.578918,-38.625122],[-66.580732,-38.628054],[-66.582992,-38.634478],[-66.584658,-38.637215],[-66.589536,-38.643163],[-66.596555,-38.647684],[-66.598102,-38.652324],[-66.597983,-38.659463],[-66.59489,-38.663389],[-66.591915,-38.669813],[-66.595398,-38.674683],[-66.597983,-38.675524],[-66.603337,-38.675048],[-66.60643,-38.675643],[-66.60762,-38.678141],[-66.606668,-38.679688],[-66.600481,-38.682305],[-66.594771,-38.684209],[-66.589298,-38.689444],[-66.586607,-38.690613],[-66.579895,-38.690796],[-66.578186,-38.691528],[-66.578796,-38.69458],[-66.583313,-38.696899],[-66.583313,-38.698117],[-66.575928,-38.701599],[-66.572876,-38.701904],[-66.567993,-38.701111],[-66.56427,-38.699829],[-66.558127,-38.696701],[-66.553368,-38.698367],[-66.550275,-38.701698],[-66.543731,-38.710145],[-66.540876,-38.718711],[-66.538623,-38.720846],[-66.535879,-38.721091],[-66.530579,-38.718811],[-66.528625,-38.717224],[-66.523376,-38.716003],[-66.520691,-38.716309],[-66.51532,-38.718079],[-66.509399,-38.718872],[-66.498759,-38.717997],[-66.493763,-38.720258],[-66.492454,-38.721567],[-66.489361,-38.728229],[-66.486148,-38.730252],[-66.483582,-38.730286],[-66.479492,-38.727295],[-66.477112,-38.727295],[-66.474487,-38.729004],[-66.474304,-38.730896],[-66.47699,-38.735779],[-66.474976,-38.73877],[-66.469604,-38.736206],[-66.466675,-38.732727],[-66.464614,-38.732512],[-66.46045,-38.7362],[-66.455453,-38.736557],[-66.450932,-38.735843],[-66.446768,-38.736081],[-66.445697,-38.73858],[-66.446411,-38.741673],[-66.444508,-38.74548],[-66.435913,-38.745605],[-66.430481,-38.744995],[-66.417419,-38.744324],[-66.414429,-38.741882],[-66.41179,-38.738223],[-66.411552,-38.733107],[-66.409054,-38.730965],[-66.406372,-38.731689],[-66.404907,-38.733398],[-66.405212,-38.735779],[-66.406799,-38.73822],[-66.406982,-38.742981],[-66.404419,-38.74408],[-66.400574,-38.743225],[-66.397278,-38.741089],[-66.390381,-38.739014],[-66.388306,-38.738892],[-66.374878,-38.745789],[-66.371277,-38.745789],[-66.367981,-38.744873],[-66.360779,-38.744629],[-66.354564,-38.746313],[-66.351471,-38.751191],[-66.348496,-38.754879],[-66.346236,-38.756545],[-66.341834,-38.757734],[-66.337075,-38.756664],[-66.332275,-38.754089],[-66.327515,-38.74939],[-66.325076,-38.748231],[-66.321777,-38.748596],[-66.318481,-38.751404],[-66.319519,-38.758179],[-66.31781,-38.760803],[-66.315002,-38.761597],[-66.312378,-38.760681],[-66.311401,-38.758728],[-66.31189,-38.753113],[-66.314697,-38.748901],[-66.314514,-38.746399],[-66.312683,-38.744385],[-66.309082,-38.743103],[-66.301575,-38.743408],[-66.291992,-38.745178],[-66.289612,-38.746704],[-66.289429,-38.748779],[-66.291687,-38.751404],[-66.292725,-38.754089],[-66.291687,-38.755981],[-66.288513,-38.75592],[-66.279724,-38.75061],[-66.274475,-38.745483],[-66.272217,-38.74408],[-66.268616,-38.744995],[-66.260504,-38.744812],[-66.250793,-38.73999],[-66.249329,-38.736694],[-66.246826,-38.735596],[-66.235474,-38.736511],[-66.232727,-38.736084],[-66.227298,-38.736999],[-66.220276,-38.741089],[-66.215698,-38.740112],[-66.211182,-38.733582],[-66.208801,-38.731995],[-66.205134,-38.73156],[-66.202636,-38.732393],[-66.200494,-38.735724],[-66.196289,-38.737305],[-66.1922,-38.736084],[-66.185608,-38.731506],[-66.18042,-38.731384],[-66.175476,-38.736694],[-66.17511,-38.739502],[-66.179382,-38.74408],[-66.177185,-38.745422],[-66.169983,-38.740479],[-66.162903,-38.737183],[-66.160889,-38.732788],[-66.157898,-38.72937],[-66.155212,-38.729187],[-66.151611,-38.730286],[-66.148499,-38.733398],[-66.145386,-38.734985],[-66.138428,-38.737183],[-66.135986,-38.739319],[-66.131287,-38.738525],[-66.126404,-38.733704],[-66.121277,-38.733826],[-66.120117,-38.735291],[-66.122375,-38.739929],[-66.121704,-38.742676],[-66.117981,-38.742981],[-66.116821,-38.741699],[-66.116699,-38.73761],[-66.114197,-38.736023],[-66.110718,-38.736084],[-66.109985,-38.734802],[-66.111206,-38.732422],[-66.110779,-38.730286],[-66.108093,-38.727905],[-66.104919,-38.7276],[-66.100769,-38.729614],[-66.097107,-38.730591],[-66.091309,-38.730408],[-66.089722,-38.727783],[-66.084778,-38.725586],[-66.07926,-38.729181],[-66.076762,-38.732631],[-66.076405,-38.740245],[-66.074858,-38.744052],[-66.070575,-38.746075],[-66.065816,-38.749525],[-66.061296,-38.751667],[-66.05844,-38.750834],[-66.056537,-38.748692],[-66.057012,-38.74548],[-66.055176,-38.743103],[-66.047974,-38.745605],[-66.045899,-38.747802],[-66.041546,-38.74893],[-66.037739,-38.747622],[-66.032147,-38.740007],[-66.030482,-38.741911],[-66.032266,-38.748217],[-66.033875,-38.750916],[-66.028076,-38.751282],[-66.024292,-38.75061],[-66.021559,-38.749049],[-66.019774,-38.746789],[-66.019714,-38.741272],[-66.009094,-38.745178],[-66.004272,-38.745605],[-65.996887,-38.746887],[-65.986572,-38.746399],[-65.980286,-38.744202],[-65.967773,-38.746704],[-65.955688,-38.746582],[-65.947319,-38.748335],[-65.943869,-38.751072],[-65.944226,-38.754284],[-65.949461,-38.759043],[-65.950175,-38.762017],[-65.949104,-38.764397],[-65.946249,-38.76749],[-65.94375,-38.768799],[-65.938872,-38.769156],[-65.934589,-38.767966],[-65.928879,-38.763802],[-65.925547,-38.764159],[-65.922454,-38.766181],[-65.922811,-38.769156],[-65.928046,-38.772963],[-65.92638,-38.774985],[-65.924239,-38.774629],[-65.920788,-38.771297],[-65.915791,-38.768085],[-65.914721,-38.766776],[-65.910676,-38.765706],[-65.909367,-38.773677],[-65.909912,-38.776611],[-65.912598,-38.781189],[-65.909485,-38.782776],[-65.905579,-38.783325],[-65.901917,-38.782715],[-65.898682,-38.780579],[-65.891907,-38.77771],[-65.887573,-38.776672],[-65.882812,-38.776489],[-65.874878,-38.77771],[-65.874329,-38.78009],[-65.875427,-38.782227],[-65.880798,-38.784485],[-65.882507,-38.787415],[-65.882019,-38.789307],[-65.877991,-38.791687],[-65.873718,-38.79187],[-65.870605,-38.791016],[-65.869507,-38.789612],[-65.865784,-38.789185],[-65.861328,-38.791687],[-65.860107,-38.794006],[-65.863892,-38.7995],[-65.861694,-38.799988],[-65.858093,-38.798889],[-65.852478,-38.795593],[-65.84967,-38.793091],[-65.849121,-38.790894],[-65.844646,-38.787954],[-65.841076,-38.786645],[-65.834652,-38.787359],[-65.831202,-38.788786],[-65.829102,-38.790771],[-65.828613,-38.794312],[-65.827026,-38.796875],[-65.820679,-38.798889],[-65.818481,-38.798218],[-65.816101,-38.794495],[-65.819397,-38.790894],[-65.8172,-38.788818],[-65.810303,-38.792175],[-65.804382,-38.793579],[-65.804504,-38.797424],[-65.810181,-38.802185],[-65.809021,-38.804504],[-65.805969,-38.806091],[-65.802002,-38.805908],[-65.795594,-38.801697],[-65.790283,-38.796204],[-65.787598,-38.79541],[-65.785217,-38.796204],[-65.78717,-38.800903],[-65.783386,-38.807922],[-65.779602,-38.810181],[-65.766724,-38.8125],[-65.761597,-38.813721],[-65.75647,-38.815796],[-65.752322,-38.815004],[-65.75177,-38.812195],[-65.748596,-38.81012],[-65.741028,-38.816223],[-65.737427,-38.816895],[-65.734802,-38.816406],[-65.726318,-38.817993],[-65.721191,-38.81781],[-65.716187,-38.818787],[-65.714905,-38.820313],[-65.713806,-38.823975],[-65.711182,-38.824585],[-65.707886,-38.821472],[-65.706787,-38.817322],[-65.701782,-38.816528],[-65.698181,-38.819702],[-65.696716,-38.822693],[-65.695801,-38.831482],[-65.694092,-38.833191],[-65.689575,-38.833374],[-65.684913,-38.831339],[-65.68295,-38.757299],[-65.679934,-38.643566],[-65.673782,-38.411584],[-65.671399,-38.321716],[-65.670669,-38.294156],[-65.664154,-38.048476],[-65.658072,-37.819127],[-65.655579,-37.72511],[-65.654651,-37.690144],[-65.654886,-37.675961],[-65.956775,-37.682746],[-65.977724,-37.683216],[-66.477164,-37.690694],[-66.537082,-37.691591],[-66.871037,-37.696591],[-67.111685,-37.700194],[-67.108614,-37.932777],[-67.105925,-38.13649],[-67.102727,-38.378668],[-67.099573,-38.383207],[-67.096361,-38.389989],[-67.095528,-38.394986],[-67.09184,-38.399625],[-67.085534,-38.400815],[-67.081846,-38.398793],[-67.072923,-38.401886],[-67.06983,-38.402124],[-67.06638,-38.405336],[-67.060431,-38.408667],[-67.056981,-38.411642],[-67.049962,-38.412831],[-67.046035,-38.414259],[-67.037826,-38.414497],[-67.030579,-38.415588],[-67.021301,-38.418701],[-67.016296,-38.421326],[-67.009888,-38.423889],[-67.007019,-38.424316],[-67.00592,-38.427979],[-67.004089,-38.431396],[-67.003113,-38.435974],[-66.999207,-38.438782],[-66.997986,-38.440491],[-66.99707,-38.444519],[-66.994385,-38.446472],[-66.990295,-38.446777],[-66.982971,-38.448486],[-66.980408,-38.448486],[-66.974182,-38.444824],[-66.972778,-38.443176],[-66.966797,-38.44397],[-66.960876,-38.446106],[-66.953308,-38.451477],[-66.948792,-38.452881],[-66.944092,-38.452515],[-66.9422,-38.451111],[-66.934204,-38.451721],[-66.931885,-38.451172],[-66.927795,-38.448914],[-66.925415,-38.448486],[-66.919499,-38.449401],[-66.914307,-38.448303],[-66.908146,-38.445668],[-66.902197,-38.444716],[-66.900531,-38.443646],[-66.896973,-38.443726],[-66.895325,-38.445618],[-66.895081,-38.451721],[-66.893127,-38.460327],[-66.889709,-38.463623],[-66.886108,-38.463379],[-66.881775,-38.461304],[-66.877991,-38.461792],[-66.869202,-38.465088],[-66.859619,-38.471375],[-66.85437,-38.475586],[-66.846375,-38.477173],[-66.836304,-38.476379],[-66.831299,-38.477478],[-66.827209,-38.479797],[-66.824585,-38.47998],[-66.814697,-38.484314],[-66.809509,-38.484802],[-66.799194,-38.482178],[-66.791992,-38.479797],[-66.786072,-38.48053],[-66.78132,-38.483977],[-66.779536,-38.487666],[-66.776324,-38.492068],[-66.770494,-38.497897],[-66.768709,-38.502418],[-66.76633,-38.504322],[-66.758716,-38.506939],[-66.753479,-38.507385],[-66.750977,-38.508484],[-66.748413,-38.51178],[-66.746582,-38.517517],[-66.741516,-38.518677],[-66.728088,-38.52002],[-66.71698,-38.520203],[-66.712585,-38.522583],[-66.71228,-38.525513],[-66.713625,-38.530972],[-66.711364,-38.532518],[-66.705688,-38.529602],[-66.701782,-38.52948],[-66.697083,-38.530212],[-66.694275,-38.529297],[-66.690308,-38.52948],[-66.684714,-38.530734],[-66.680193,-38.53228],[-66.676386,-38.534422],[-66.671032,-38.535731],[-66.66318,-38.538229],[-66.658064,-38.538229],[-66.654614,-38.535136],[-66.649379,-38.535612],[-66.644778,-38.537944]]]}},
{"type":"Feature","id":"ARG:ADM2:AR-L.lihuel-calel","properties":{"shapeName":"Lihuel Calel","shapeISO":"","shapeGroup":"ARG","shapeType":"ADM2","adm1ISO":"AR-L","parentISO":"AR-L","parentID":"ARG:ADM1:AR-L","src_shape_id":"61730980B18005946349792"},"geometry":{"type":"Polygon","coordinates":[[[-64.528231,-38.246398],[-64.525757,-38.079297],[-64.524349,-37.984154],[-64.520222,-37.705344],[-64.550808,-37.704878],[-65.637906,-37.690368],[-65.654651,-37.690144],[-65.655579,-37.72511],[-65.658072,-37.819127],[-65.664154,-38.048476],[-65.670669,-38.294156],[-65.671399,-38.321716],[-65.673782,-38.411584],[-65.679934,-38.643566],[-65.68295,-38.757299],[-65.684913,-38.831339],[-65.6828,-38.830811],[-65.67511,-38.831604],[-65.671997,-38.830505],[-65.665405,-38.826599],[-65.659302,-38.827698],[-65.653503,-38.826904],[-65.648621,-38.824402],[-65.646912,-38.821228],[-65.649475,-38.814392],[-65.648499,-38.811218],[-65.646179,-38.809387],[-65.643311,-38.808411],[-65.640076,-38.809204],[-65.637207,-38.815002],[-65.634888,-38.817322],[-65.631775,-38.818115],[-65.629395,-38.816589],[-65.627197,-38.812805],[-65.627502,-38.809814],[-65.632996,-38.804504],[-65.63208,-38.80249],[-65.629822,-38.802002],[-65.625,-38.802795],[-65.623108,-38.804077],[-65.621582,-38.807312],[-65.617004,-38.808411],[-65.614075,-38.80719],[-65.613098,-38.804626],[-65.61322,-38.801697],[-65.609497,-38.799988],[-65.608704,-38.798401],[-65.609985,-38.795593],[-65.614502,-38.792297],[-65.621521,-38.791687],[-65.62439,-38.790405],[-65.624695,-38.788391],[-65.622986,-38.786316],[-65.619812,-38.78479],[-65.616577,-38.784485],[-65.611084,-38.784973],[-65.607788,-38.783813],[-65.60498,-38.780823],[-65.603394,-38.776978],[-65.599792,-38.776001],[-65.593811,-38.776489],[-65.586609,-38.774475],[-65.58252,-38.774292],[-65.577393,-38.775513],[-65.57428,-38.778381],[-65.573425,-38.781982],[-65.571594,-38.783997],[-65.567383,-38.784424],[-65.563293,-38.781372],[-65.560608,-38.781189],[-65.558289,-38.782471],[-65.553894,-38.782471],[-65.54248,-38.779785],[-65.536072,-38.781189],[-65.532898,-38.781189],[-65.526489,-38.778503],[-65.523193,-38.779175],[-65.519897,-38.781128],[-65.518372,-38.784973],[-65.511108,-38.788208],[-65.502502,-38.798096],[-65.490601,-38.80188],[-65.486206,-38.80249],[-65.479187,-38.805481],[-65.473694,-38.807129],[-65.470886,-38.805908],[-65.46637,-38.805603],[-65.461195,-38.80687],[-65.459411,-38.812819],[-65.456116,-38.815308],[-65.450989,-38.815002],[-65.447815,-38.815613],[-65.437805,-38.815491],[-65.433777,-38.816101],[-65.430603,-38.81781],[-65.429016,-38.820679],[-65.422729,-38.820984],[-65.414978,-38.822693],[-65.412781,-38.824524],[-65.409085,-38.829237],[-65.404683,-38.829356],[-65.400162,-38.828285],[-65.394287,-38.830017],[-65.390808,-38.830505],[-65.387512,-38.838013],[-65.385498,-38.845703],[-65.380798,-38.85321],[-65.377502,-38.855103],[-65.374512,-38.855713],[-65.370422,-38.855286],[-65.364206,-38.851933],[-65.359497,-38.848206],[-65.350891,-38.847107],[-65.344788,-38.846985],[-65.337582,-38.845655],[-65.333421,-38.840186],[-65.330087,-38.839231],[-65.324376,-38.836019],[-65.32045,-38.834472],[-65.314145,-38.833639],[-65.312241,-38.830903],[-65.299377,-38.828613],[-65.286316,-38.825684],[-65.284302,-38.824585],[-65.283081,-38.822388],[-65.280518,-38.821411],[-65.268988,-38.821716],[-65.266199,-38.822337],[-65.260131,-38.826858],[-65.256324,-38.832093],[-65.25335,-38.832093],[-65.251327,-38.831022],[-65.246092,-38.831736],[-65.241809,-38.831022],[-65.231221,-38.833758],[-65.221941,-38.833758],[-65.218728,-38.837089],[-65.216126,-38.838018],[-65.213928,-38.836975],[-65.208191,-38.831482],[-65.205505,-38.831299],[-65.198792,-38.832275],[-65.196361,-38.833401],[-65.194458,-38.836019],[-65.19184,-38.836613],[-65.187676,-38.833163],[-65.18613,-38.830784],[-65.185654,-38.827453],[-65.189699,-38.822694],[-65.189699,-38.817578],[-65.19303,-38.814128],[-65.192911,-38.811748],[-65.191365,-38.810439],[-65.188033,-38.809845],[-65.183393,-38.810201],[-65.178278,-38.809369],[-65.174351,-38.807822],[-65.172119,-38.805603],[-65.171204,-38.802612],[-65.168823,-38.802002],[-65.161194,-38.803284],[-65.158203,-38.805115],[-65.156372,-38.810913],[-65.151978,-38.812927],[-65.146606,-38.816711],[-65.140076,-38.818176],[-65.135681,-38.816284],[-65.131592,-38.811279],[-65.130981,-38.806885],[-65.128113,-38.804687],[-65.12439,-38.804687],[-65.119507,-38.805786],[-65.118225,-38.805176],[-65.116577,-38.800903],[-65.11438,-38.799683],[-65.111389,-38.7995],[-65.106384,-38.800781],[-65.097107,-38.800293],[-65.092712,-38.803101],[-65.09021,-38.808228],[-65.077576,-38.809204],[-65.070679,-38.810913],[-65.061523,-38.809875],[-65.059082,-38.810486],[-65.056702,-38.81311],[-65.052002,-38.811829],[-65.049988,-38.812012],[-65.04718,-38.813904],[-65.039001,-38.815796],[-65.033569,-38.817505],[-65.02771,-38.816772],[-65.021423,-38.813782],[-65.019592,-38.813782],[-65.013794,-38.816223],[-65.007206,-38.817321],[-65.004517,-38.818787],[-65.001709,-38.819092],[-64.990784,-38.817688],[-64.985779,-38.819519],[-64.97998,-38.820313],[-64.970703,-38.820679],[-64.967224,-38.82019],[-64.963379,-38.822021],[-64.957214,-38.82312],[-64.952209,-38.8255],[-64.947571,-38.826599],[-64.938721,-38.829773],[-64.934387,-38.829895],[-64.926412,-38.832925],[-64.920939,-38.833282],[-64.913087,-38.832925],[-64.909636,-38.831379],[-64.907019,-38.827691],[-64.901189,-38.826144],[-64.894408,-38.827453],[-64.889411,-38.82543],[-64.887032,-38.821623],[-64.882154,-38.816745],[-64.877319,-38.814392],[-64.869385,-38.817505],[-64.863098,-38.821411],[-64.855713,-38.824707],[-64.850708,-38.826111],[-64.845034,-38.826977],[-64.827902,-38.825668],[-64.821596,-38.823407],[-64.815796,-38.818787],[-64.809509,-38.815796],[-64.806885,-38.816223],[-64.802795,-38.819702],[-64.799805,-38.820984],[-64.795105,-38.821228],[-64.791626,-38.822388],[-64.784607,-38.826904],[-64.777893,-38.829102],[-64.773621,-38.829895],[-64.768982,-38.82959],[-64.765991,-38.830078],[-64.761597,-38.831909],[-64.752116,-38.835186],[-64.743774,-38.837524],[-64.73999,-38.840088],[-64.732605,-38.841372],[-64.723801,-38.841015],[-64.718209,-38.841372],[-64.707025,-38.837446],[-64.700806,-38.837891],[-64.696411,-38.840576],[-64.695312,-38.842896],[-64.691528,-38.843201],[-64.689209,-38.841187],[-64.684082,-38.838684],[-64.678711,-38.837402],[-64.675903,-38.835999],[-64.672791,-38.833191],[-64.663208,-38.836609],[-64.658508,-38.83728],[-64.650275,-38.840778],[-64.64397,-38.845893],[-64.639587,-38.845886],[-64.637573,-38.84491],[-64.632812,-38.845886],[-64.631002,-38.846964],[-64.629931,-38.849344],[-64.630412,-38.852669],[-64.628296,-38.853027],[-64.622009,-38.852417],[-64.617004,-38.851318],[-64.615295,-38.850098],[-64.608582,-38.848206],[-64.604675,-38.847717],[-64.604004,-38.849792],[-64.605225,-38.85199],[-64.60437,-38.856201],[-64.602478,-38.8573],[-64.596375,-38.859192],[-64.583496,-38.860413],[-64.578308,-38.860107],[-64.570984,-38.85907],[-64.561707,-38.861206],[-64.55719,-38.861389],[-64.553284,-38.859375],[-64.550293,-38.859192],[-64.545698,-38.860765],[-64.542367,-38.865167],[-64.538084,-38.865643],[-64.536299,-38.863263],[-64.537608,-38.859575],[-64.536732,-38.85875],[-64.535764,-38.788999],[-64.534863,-38.724116],[-64.533222,-38.605907],[-64.532023,-38.519532],[-64.530732,-38.426535],[-64.528231,-38.246398]]]}},
{"type":"Feature","id":"ARG:ADM2:AR-L.capital","properties":{"shapeName":"Capital","shapeISO":"","shapeGroup":"ARG","shapeType":"ADM2","adm1ISO":"AR-L","parentISO":"AR-L","parentID":"ARG:ADM1:AR-L","src_shape_id":"61730980B66206062383215"},"geometry":{"type":"Polygon","coordinates":[[[-64.499617,-36.260164],[-64.499817,-36.262336],[-64.500659,-36.316786],[-64.501988,-36.402748],[-64.503295,-36.487275],[-64.504275,-36.550681],[-64.505383,-36.622327],[-64.356967,-36.624948],[-64.28265,-36.686817],[-64.282981,-36.715189],[-64.170455,-36.716355],[-64.169899,-36.805552],[-64.05251,-36.805896],[-63.945801,-36.806208],[-63.943535,-36.37],[-63.943343,-36.35557],[-63.943074,-36.306842],[-63.942925,-36.265613],[-64.167222,-36.263417],[-64.499617,-36.260164]]]}},
{"type":"Feature","id":"ARG:ADM2:AR-L.chical-co","properties":{"shapeName":"Chical Có","shapeISO":"","shapeGroup":"ARG","shapeType":"ADM2","adm1ISO":"AR-L","parentISO":"AR-L","parentID":"ARG:ADM1:AR-L","src_shape_id":"61730980B98672472309924"},"geometry":{"type":"Polygon","coordinates":[[[-67.132463,-35.999518],[-67.194916,-35.99952],[-67.20112,-35.99952],[-68.269207,-35.999551],[-68.296145,-35.999552],[-68.296132,-36.172547],[-68.250183,-36.172485],[-68.250174,-36.238379],[-68.250132,-36.524667],[-68.250106,-36.699049],[-68.250091,-36.802768],[-68.248845,-36.802764],[-67.674555,-36.801085],[-67.126857,-36.799484],[-67.127351,-36.728988],[-67.127884,-36.652849],[-67.132463,-35.999518]]]}},
{"type":"Feature","id":"ARG:ADM2:AR-L.quemu-quemu","properties":{"shapeName":"Quemú Quemú","shapeISO":"","shapeGroup":"ARG","shapeType":"ADM2","adm1ISO":"AR-L","parentISO":"AR-L","parentID":"ARG:ADM1:AR-L","src_shape_id":"61730980B51204300351665"},"geometry":{"type":"Polygon","coordinates":[[[-63.942925,-36.265613],[-63.943074,-36.306842],[-63.943343,-36.35557],[-63.77824,-36.355791],[-63.719928,-36.355869],[-63.610504,-36.356015],[-63.507253,-36.356153],[-63.384085,-36.356318],[-63.384092,-36.321967],[-63.384116,-36.195718],[-63.384139,-36.076152],[-63.384164,-35.948254],[-63.384172,-35.905473],[-63.488468,-35.905281],[-63.830596,-35.904652],[-63.940406,-35.90445],[-63.940812,-35.962982],[-63.941757,-36.099327],[-63.942708,-36.236622],[-63.942925,-36.265613]]]}},
{"type":"Feature","id":"ARG:ADM2:AR-L.realico","properties":{"shapeName":"Realicó","shapeISO":"","shapeGroup":"ARG","shapeType":"ADM2","adm1ISO":"AR-L","parentISO":"AR-L","parentID":"ARG:ADM1:AR-L","src_shape_id":"61730980B60690576919105"},"geometry":{"type":"Polygon","coordinates":[[[-64.487673,-35.449911],[-64.373243,-35.450389],[-64.210623,-35.451068],[-64.044808,-35.451761],[-63.9385,-35.452205],[-63.937493,-35.326917],[-63.936458,-35.198154],[-63.934927,-35.007617],[-63.934867,-35.000093],[-63.999353,-35.000088],[-64.137226,-35.000077],[-64.251449,-35.000068],[-64.44476,-35.000054],[-64.480767,-35.000051],[-64.482281,-35.098685],[-64.485088,-35.281537],[-64.487673,-35.449911]]]}},
{"type":"Feature","id":"ARG:ADM2:AR-L.hucal","properties":{"shapeName":"Hucal","shapeISO":"","shapeGroup":"ARG","shapeType":"ADM2","adm1ISO":"AR-L","parentISO":"AR-L","parentID":"ARG:ADM1:AR-L","src_shape_id":"61730980B74223418294329"},"geometry":{"type":"Polygon","coordinates":[[[-63.383806,-37.809773],[-63.383825,-37.70989],[-63.488769,-37.709611],[-63.555979,-37.709432],[-63.645984,-37.709193],[-63.720766,-37.708994],[-63.951949,-37.708379],[-64.144076,-37.707868],[-64.180216,-37.707772],[-64.511998,-37.705403],[-64.520222,-37.705344],[-64.524349,-37.984154],[-64.525757,-38.079297],[-64.528231,-38.246398],[-64.512871,-38.246485],[-63.835837,-38.250351],[-63.55757,-38.25194],[-63.383721,-38.252933],[-63.38375,-38.100063],[-63.383763,-38.033439],[-63.383778,-37.954444],[-63.383806,-37.809773]]]}},
{"type":"Feature","id":"ARG:ADM2:AR-L.utracan","properties":{"shapeName":"Utracán","shapeISO":"","shapeGroup":"ARG","shapeType":"ADM2","adm1ISO":"AR-L","parentISO":"AR-L","parentID":"ARG:ADM1:AR-L","src_shape_id":"61730980B38803740288067"},"geometry":{"type":"Polygon","coordinates":[[[-65.977724,-37.683216],[-65.956775,-37.682746],[-65.654886,-37.675961],[-65.654651,-37.690144],[-65.637906,-37.690368],[-64.550808,-37.704878],[-64.520222,-37.705344],[-64.511998,-37.705403],[-64.180216,-37.707772],[-64.17953,-37.65601],[-64.178392,-37.570194],[-64.178035,-37.543288],[-64.174382,-37.267928],[-64.174235,-37.25687],[-64.172098,-36.986759],[-64.963052,-36.97837],[-65.071335,-36.977222],[-65.622982,-36.96605],[-65.634782,-36.965811],[-65.634373,-36.951567],[-65.97737,-36.960793],[-65.999749,-36.961395],[-65.996376,-37.071942],[-65.988737,-37.322306],[-65.985173,-37.439117],[-65.977724,-37.683216]]]}},
{"type":"Feature","id":"ARG:ADM2:AR-L.guatrache","properties":{"shapeName":"Guatraché","shapeISO":"","shapeGroup":"ARG","shapeType":"ADM2","adm1ISO":"AR-L","parentISO":"AR-L","parentID":"ARG:ADM1:AR-L","src_shape_id":"61730980B9884818603028"},"geometry":{"type":"Polygon","coordinates":[[[-64.174235,-37.25687],[-64.174382,-37.267928],[-64.178035,-37.543288],[-64.178392,-37.570194],[-64.17953,-37.65601],[-64.180216,-37.707772],[-64.144076,-37.707868],[-63.951949,-37.708379],[-63.720766,-37.708994],[-63.645984,-37.709193],[-63.555979,-37.709432],[-63.488769,-37.709611],[-63.383825,-37.70989],[-63.38391,-37.269927],[-63.383912,-37.258938],[-63.555988,-37.258488],[-63.638022,-37.258273],[-63.723738,-37.258049],[-63.835274,-37.257757],[-64.167371,-37.256888],[-64.174235,-37.25687]]]}},
{"type":"Feature","id":"ARG:ADM2:AR-L.catrilo","properties":{"shapeName":"Catriló","shapeISO":"","shapeGroup":"ARG","shapeType":"ADM2","adm1ISO":"AR-L","parentISO":"AR-L","parentID":"ARG:ADM1:AR-L","src_shape_id":"61730980B1153371895886"},"geometry":{"type":"Polygon","coordinates":[[[-63.383999,-36.807848],[-63.384024,-36.676634],[-63.384042,-36.579941],[-63.384053,-36.526194],[-63.384079,-36.391012],[-63.384085,-36.356318],[-63.507253,-36.356153],[-63.610504,-36.356015],[-63.719928,-36.355869],[-63.77824,-36.355791],[-63.943343,-36.35557],[-63.943535,-36.37],[-63.945801,-36.806208],[-63.937644,-36.806231],[-63.607916,-36.807194],[-63.383999,-36.807848]]]}},
{"type":"Feature","id":"ARG:ADM2:AR-L.puelen","properties":{"shapeName":"Puelén","shapeISO":"","shapeGroup":"ARG","shapeType":"ADM2","adm1ISO":"AR-L","parentISO":"AR-L","parentID":"ARG:ADM1:AR-L","src_shape_id":"61730980B41536985277959"},"geometry":{"type":"Polygon","coordinates":[[[-67.102727,-38.378668],[-67.105925,-38.13649],[-67.108614,-37.932777],[-67.111685,-37.700194],[-67.114695,-37.521497],[-67.115278,-37.486898],[-67.117821,-37.335938],[-67.119687,-37.225163],[-67.122612,-37.051462],[-67.126857,-36.799484],[-67.674555,-36.801085],[-68.248845,-36.802764],[-68.250091,-36.802768],[-68.25009,-36.810955],[-68.250063,-36.996222],[-68.250055,-37.051462],[-68.250045,-37.120663],[-68.250036,-37.183522],[-68.250028,-37.23945],[-68.25001,-37.363171],[-68.249979,-37.576686],[-68.245547,-37.577185],[-68.240352,-37.579764],[-68.239688,-37.584334],[-68.238288,-37.585218],[-68.235082,-37.584849],[-68.231913,-37.586508],[-68.229555,-37.585955],[-68.221596,-37.586987],[-68.219311,-37.58824],[-68.216695,-37.588055],[-68.213268,-37.585586],[-68.208072,-37.585771],[-68.201808,-37.588866],[-68.196649,-37.587834],[-68.193149,-37.586545],[-68.187658,-37.58625],[-68.183015,-37.586839],[-68.180178,-37.583891],[-68.177377,-37.583744],[-68.17244,-37.584997],[-68.166949,-37.583744],[-68.165217,-37.581128],[-68.157258,-37.581969],[-68.151414,-37.580496],[-68.147481,-37.582067],[-68.140647,-37.586207],[-68.134461,-37.586686],[-68.130334,-37.591108],[-68.125716,-37.590076],[-68.120655,-37.590469],[-68.115692,-37.592407],[-68.112854,-37.59436],[-68.109283,-37.594757],[-68.107178,-37.593201],[-68.102386,-37.593658],[-68.100098,-37.59552],[-68.096985,-37.594482],[-68.094788,-37.59491],[-68.092529,-37.592712],[-68.090027,-37.593079],[-68.08728,-37.590393],[-68.082397,-37.594727],[-68.076904,-37.596008],[-68.076721,-37.597992],[-68.07254,-37.599396],[-68.06897,-37.598328],[-68.067993,-37.601379],[-68.065674,-37.601807],[-68.056885,-37.597473],[-68.048096,-37.598022],[-68.045807,-37.595856],[-68.036804,-37.600586],[-68.032898,-37.597717],[-68.027283,-37.598389],[-68.023804,-37.599609],[-68.019104,-37.602783],[-68.015869,-37.603699],[-68.013794,-37.602295],[-68.009277,-37.602905],[-68.004482,-37.60084],[-68.002698,-37.601316],[-68.001709,-37.604187],[-67.997498,-37.604797],[-67.993896,-37.603516],[-67.990906,-37.604187],[-67.985474,-37.607178],[-67.980688,-37.60905],[-67.977951,-37.608931],[-67.972122,-37.606551],[-67.969742,-37.607146],[-67.965221,-37.604648],[-67.95499,-37.604172],[-67.949874,-37.602863],[-67.944163,-37.60322],[-67.938095,-37.605004],[-67.937263,-37.606194],[-67.93298,-37.608574],[-67.932266,-37.609882],[-67.927864,-37.611905],[-67.92572,-37.615906],[-67.923889,-37.617187],[-67.920593,-37.616089],[-67.918213,-37.618286],[-67.913513,-37.618469],[-67.904419,-37.614502],[-67.902222,-37.615784],[-67.896179,-37.616272],[-67.893616,-37.618408],[-67.889099,-37.617615],[-67.887817,-37.618896],[-67.884521,-37.619385],[-67.881287,-37.617981],[-67.879089,-37.619995],[-67.876404,-37.620117],[-67.874695,-37.618591],[-67.873108,-37.614685],[-67.870728,-37.61261],[-67.865784,-37.614624],[-67.862488,-37.617493],[-67.856079,-37.618103],[-67.8526,-37.619385],[-67.847107,-37.618286],[-67.84021,-37.621582],[-67.836487,-37.625183],[-67.831726,-37.63092],[-67.829354,-37.630941],[-67.824714,-37.636175],[-67.818909,-37.637817],[-67.813599,-37.643005],[-67.804993,-37.6427],[-67.799622,-37.64563],[-67.796387,-37.644714],[-67.793396,-37.646301],[-67.793213,-37.650513],[-67.78772,-37.651001],[-67.785583,-37.652283],[-67.78241,-37.659729],[-67.773682,-37.66571],[-67.770203,-37.670105],[-67.768494,-37.675415],[-67.771912,-37.684784],[-67.773651,-37.687714],[-67.771973,-37.691101],[-67.767883,-37.693909],[-67.76963,-37.696733],[-67.765941,-37.699469],[-67.763919,-37.703038],[-67.765822,-37.704823],[-67.765289,-37.706451],[-67.762207,-37.707275],[-67.760681,-37.710419],[-67.763916,-37.714081],[-67.763306,-37.719513],[-67.764893,-37.723511],[-67.761292,-37.729492],[-67.761169,-37.732788],[-67.757324,-37.736389],[-67.751404,-37.737793],[-67.752197,-37.740479],[-67.754578,-37.741882],[-67.757629,-37.745789],[-67.75708,-37.747986],[-67.755188,-37.749207],[-67.749695,-37.748108],[-67.747803,-37.750427],[-67.751404,-37.754578],[-67.749573,-37.757202],[-67.746704,-37.757996],[-67.740784,-37.763123],[-67.745911,-37.765625],[-67.744873,-37.768005],[-67.741272,-37.768188],[-67.739075,-37.7724],[-67.739624,-37.774414],[-67.744202,-37.776184],[-67.744324,-37.778503],[-67.741882,-37.784912],[-67.739291,-37.787747],[-67.737388,-37.791792],[-67.733105,-37.789294],[-67.729893,-37.789294],[-67.725491,-37.791911],[-67.727394,-37.798217],[-67.72229,-37.799927],[-67.72097,-37.806426],[-67.723944,-37.812137],[-67.72787,-37.817252],[-67.733105,-37.820227],[-67.732986,-37.822368],[-67.731201,-37.825224],[-67.726929,-37.827515],[-67.727173,-37.831299],[-67.729675,-37.833313],[-67.729797,-37.835022],[-67.72821,-37.83783],[-67.728941,-37.84069],[-67.727513,-37.843189],[-67.727513,-37.845568],[-67.729774,-37.848661],[-67.729417,-37.853539],[-67.732986,-37.855681],[-67.733704,-37.857483],[-67.732727,-37.859802],[-67.736328,-37.860413],[-67.738708,-37.859619],[-67.743336,-37.861867],[-67.748095,-37.865199],[-67.755829,-37.872456],[-67.75916,-37.873527],[-67.762512,-37.877014],[-67.765808,-37.877075],[-67.769409,-37.879272],[-67.7677,-37.881592],[-67.768188,-37.883972],[-67.77002,-37.885925],[-67.773193,-37.885803],[-67.777588,-37.888611],[-67.780456,-37.89399],[-67.784858,-37.894585],[-67.791382,-37.896606],[-67.798302,-37.897559],[-67.804489,-37.901009],[-67.81365,-37.900771],[-67.817219,-37.902794],[-67.819397,-37.908508],[-67.82312,-37.910278],[-67.827393,-37.90979],[-67.830811,-37.912109],[-67.835693,-37.912903],[-67.842224,-37.916016],[-67.845398,-37.91803],[-67.846069,-37.919983],[-67.844482,-37.922119],[-67.845886,-37.924805],[-67.852112,-37.9245],[-67.858398,-37.92688],[-67.860779,-37.930176],[-67.867798,-37.93219],[-67.865601,-37.934692],[-67.871826,-37.937927],[-67.873108,-37.940613],[-67.872986,-37.947571],[-67.873596,-37.9505],[-67.876709,-37.952393],[-67.874695,-37.954712],[-67.877991,-37.956787],[-67.882385,-37.951477],[-67.885681,-37.956604],[-67.884583,-37.962097],[-67.883179,-37.964294],[-67.884277,-37.966187],[-67.888977,-37.968018],[-67.891296,-37.969604],[-67.894551,-37.974178],[-67.89812,-37.9762],[-67.897169,-37.979889],[-67.897882,-37.980959],[-67.901809,-37.981554],[-67.90395,-37.983577],[-67.902998,-37.986313],[-67.89931,-37.989525],[-67.899548,-37.991429],[-67.901452,-37.993927],[-67.899667,-37.996069],[-67.891339,-37.999043],[-67.889435,-38.000471],[-67.889673,-38.002256],[-67.893599,-38.004159],[-67.893005,-38.007371],[-67.894075,-38.009275],[-67.893005,-38.012011],[-67.893243,-38.01451],[-67.895146,-38.015937],[-67.894908,-38.01796],[-67.891339,-38.018555],[-67.886699,-38.016651],[-67.88313,-38.018793],[-67.880869,-38.026526],[-67.877657,-38.029857],[-67.875991,-38.033902],[-67.868377,-38.036401],[-67.868408,-38.039795],[-67.86731,-38.041382],[-67.86438,-38.042725],[-67.865112,-38.047485],[-67.861389,-38.048828],[-67.861206,-38.050476],[-67.863708,-38.05188],[-67.862793,-38.053589],[-67.859375,-38.053894],[-67.854492,-38.052002],[-67.850769,-38.05188],[-67.848999,-38.054077],[-67.849792,-38.058289],[-67.851501,-38.061707],[-67.851196,-38.065796],[-67.846802,-38.066284],[-67.843384,-38.063782],[-67.838989,-38.05719],[-67.835876,-38.056519],[-67.833008,-38.0578],[-67.831909,-38.060181],[-67.829116,-38.062575],[-67.826618,-38.067096],[-67.824119,-38.066977],[-67.822454,-38.064359],[-67.819955,-38.062575],[-67.817457,-38.062575],[-67.814839,-38.064597],[-67.812103,-38.070665],[-67.809961,-38.071855],[-67.807939,-38.070546],[-67.808653,-38.068167],[-67.806511,-38.066144],[-67.804489,-38.065906],[-67.795804,-38.06662],[-67.793305,-38.064716],[-67.790093,-38.063527],[-67.789379,-38.060195],[-67.785215,-38.057935],[-67.784263,-38.053414],[-67.781765,-38.053295],[-67.776611,-38.056396],[-67.771179,-38.058105],[-67.770081,-38.060791],[-67.766724,-38.061584],[-67.765991,-38.063293],[-67.767578,-38.065918],[-67.766113,-38.068787],[-67.759705,-38.068604],[-67.756775,-38.066895],[-67.75708,-38.062683],[-67.758301,-38.060425],[-67.75769,-38.057007],[-67.754395,-38.055786],[-67.751282,-38.056702],[-67.746582,-38.059875],[-67.74469,-38.064087],[-67.746405,-38.069583],[-67.751404,-38.072205],[-67.751221,-38.07428],[-67.748413,-38.073975],[-67.742371,-38.075806],[-67.740479,-38.079102],[-67.737183,-38.080627],[-67.734009,-38.080505],[-67.731506,-38.078308],[-67.729919,-38.078796],[-67.731384,-38.083374],[-67.725769,-38.093079],[-67.728882,-38.095398],[-67.733093,-38.094788],[-67.734497,-38.095398],[-67.73407,-38.098694],[-67.726807,-38.105713],[-67.725892,-38.108274],[-67.727417,-38.110291],[-67.72998,-38.111511],[-67.730103,-38.114807],[-67.725891,-38.117493],[-67.724487,-38.119385],[-67.720276,-38.122498],[-67.720276,-38.12793],[-67.718628,-38.130371],[-67.715393,-38.130493],[-67.712524,-38.127808],[-67.710572,-38.124879],[-67.70752,-38.124023],[-67.697388,-38.12677],[-67.693481,-38.130981],[-67.689026,-38.133423],[-67.685608,-38.138123],[-67.684875,-38.141296],[-67.683411,-38.143616],[-67.6828,-38.148315],[-67.680176,-38.154724],[-67.679626,-38.15802],[-67.680481,-38.160828],[-67.682312,-38.162476],[-67.681824,-38.164795],[-67.679687,-38.167786],[-67.673401,-38.172485],[-67.671021,-38.176697],[-67.668396,-38.179504],[-67.666992,-38.182495],[-67.665405,-38.187927],[-67.656494,-38.201782],[-67.624512,-38.220886],[-67.614075,-38.227783],[-67.602112,-38.234497],[-67.593201,-38.240601],[-67.5802,-38.244507],[-67.547913,-38.256287],[-67.528687,-38.25769],[-67.500977,-38.256897],[-67.491577,-38.255188],[-67.488098,-38.254883],[-67.466675,-38.254822],[-67.456726,-38.254211],[-67.445801,-38.254028],[-67.430298,-38.25293],[-67.420288,-38.253296],[-67.390198,-38.253601],[-67.366882,-38.253601],[-67.364075,-38.253784],[-67.344177,-38.25177],[-67.322815,-38.248718],[-67.317078,-38.24762],[-67.305908,-38.242188],[-67.297607,-38.235901],[-67.290527,-38.231384],[-67.281189,-38.224976],[-67.272827,-38.221069],[-67.261108,-38.217102],[-67.253418,-38.216309],[-67.23053,-38.2146],[-67.223022,-38.214294],[-67.218323,-38.213074],[-67.208618,-38.213379],[-67.199097,-38.21228],[-67.192383,-38.213013],[-67.189517,-38.21486],[-67.187613,-38.214503],[-67.186067,-38.216526],[-67.186781,-38.221047],[-67.184401,-38.223188],[-67.185591,-38.226639],[-67.190469,-38.231279],[-67.192729,-38.234372],[-67.193787,-38.237793],[-67.194092,-38.24408],[-67.196594,-38.253784],[-67.196289,-38.255005],[-67.192383,-38.258484],[-67.184998,-38.260803],[-67.181213,-38.260376],[-67.177429,-38.261902],[-67.173584,-38.260193],[-67.170005,-38.261617],[-67.171909,-38.265067],[-67.172147,-38.267684],[-67.171195,-38.271729],[-67.172385,-38.279225],[-67.166504,-38.281982],[-67.162415,-38.28241],[-67.157898,-38.285217],[-67.155701,-38.289429],[-67.152771,-38.292603],[-67.152893,-38.295776],[-67.156982,-38.302185],[-67.158386,-38.3078],[-67.154114,-38.314026],[-67.153321,-38.316409],[-67.153809,-38.319397],[-67.15097,-38.326933],[-67.147757,-38.331573],[-67.149066,-38.335737],[-67.149292,-38.34082],[-67.155967,-38.349538],[-67.155372,-38.354297],[-67.152992,-38.356795],[-67.143799,-38.361389],[-67.139282,-38.361389],[-67.13739,-38.35968],[-67.136475,-38.357117],[-67.132996,-38.354187],[-67.126587,-38.353516],[-67.125034,-38.354773],[-67.121464,-38.355486],[-67.117776,-38.357509],[-67.117657,-38.362982],[-67.116705,-38.365123],[-67.113017,-38.36786],[-67.112541,-38.371429],[-67.110757,-38.373927],[-67.104213,-38.37714],[-67.102727,-38.378668]]]}},
{"type":"Feature","id":"ARG:ADM2:AR-L.chapaleufu","properties":{"shapeName":"Chapaleufú","shapeISO":"","shapeGroup":"ARG","shapeType":"ADM2","adm1ISO":"AR-L","parentISO":"AR-L","parentID":"ARG:ADM1:AR-L","src_shape_id":"61730980B17447660038504"},"geometry":{"type":"Polygon","coordinates":[[[-63.384275,-35.369001],[-63.384346,-35.000135],[-63.489646,-35.000127],[-63.527849,-35.000124],[-63.632781,-35.000116],[-63.780312,-35.000105],[-63.872325,-35.000097],[-63.934867,-35.000093],[-63.934927,-35.007617],[-63.936458,-35.198154],[-63.937493,-35.326917],[-63.9385,-35.452205],[-63.93738,-35.452207],[-63.710898,-35.453552],[-63.384259,-35.455492],[-63.384275,-35.369001]]]}},
{"type":"Feature","id":"ARG:ADM2:AR-L.trenel","properties":{"shapeName":"Trenel","shapeISO":"","shapeGroup":"ARG","shapeType":"ADM2","adm1ISO":"AR-L","parentISO":"AR-L","parentID":"ARG:ADM1:AR-L","src_shape_id":"61730980B26408179177195"},"geometry":{"type":"Polygon","coordinates":[[[-64.4932,-35.810673],[-64.21834,-35.812334],[-64.11024,-35.812987],[-64.051102,-35.813345],[-63.939771,-35.814017],[-63.938968,-35.692495],[-63.938359,-35.600306],[-63.937762,-35.510043],[-63.93738,-35.452207],[-63.9385,-35.452205],[-64.044808,-35.451761],[-64.210623,-35.451068],[-64.373243,-35.450389],[-64.487673,-35.449911],[-64.48859,-35.509745],[-64.491273,-35.684887],[-64.492263,-35.749507],[-64.4932,-35.810673]]]}},
{"type":"Feature","id":"ARG:ADM2:AR-L.toay","properties":{"shapeName":"Toay","shapeISO":"","shapeGroup":"ARG","shapeType":"ADM2","adm1ISO":"AR-L","parentISO":"AR-L","parentID":"ARG:ADM1:AR-L","src_shape_id":"61730980B2132713179088"},"geometry":{"type":"Polygon","coordinates":[[[-65.056547,-36.254714],[-65.060461,-36.445943],[-65.065872,-36.710321],[-65.068291,-36.828506],[-65.071335,-36.977222],[-64.963052,-36.97837],[-64.172098,-36.986759],[-64.170018,-36.815401],[-64.169899,-36.805552],[-64.170455,-36.716355],[-64.282981,-36.715189],[-64.28265,-36.686817],[-64.356967,-36.624948],[-64.505383,-36.622327],[-64.504275,-36.550681],[-64.503295,-36.487275],[-64.501988,-36.402748],[-64.500659,-36.316786],[-64.499817,-36.262336],[-64.499617,-36.260164],[-64.61511,-36.259034],[-64.661157,-36.258584],[-64.734976,-36.257861],[-64.839109,-36.256842],[-64.877267,-36.256469],[-65.056547,-36.254714]]]}},
{"type":"Feature","id":"ARG:ADM2:AR-L.loventue","properties":{"shapeName":"Loventué","shapeISO":"","shapeGroup":"ARG","shapeType":"ADM2","adm1ISO":"AR-L","parentISO":"AR-L","parentID":"ARG:ADM1:AR-L","src_shape_id":"61730980B54162974925510"},"geometry":{"type":"Polygon","coordinates":[[[-66.017812,-35.999514],[-66.015458,-36.148097],[-66.011615,-36.39069],[-66.009153,-36.546071],[-66.005425,-36.781418],[-65.999749,-36.961395],[-65.97737,-36.960793],[-65.634373,-36.951567],[-65.634782,-36.965811],[-65.622982,-36.96605],[-65.071335,-36.977222],[-65.068291,-36.828506],[-65.065872,-36.710321],[-65.060461,-36.445943],[-65.056547,-36.254714],[-65.052731,-36.084009],[-65.050417,-35.980454],[-65.116957,-35.978898],[-65.116945,-35.99953],[-65.193748,-35.999528],[-65.265761,-35.999527],[-66.003452,-35.999515],[-66.017812,-35.999514]]]}}
]}