{"type":"FeatureCollection","bbox":[-58.475866,-34.662607,-58.335231,-34.526526], "features": [
{"type":"Feature","geometry":{"type":"Polygon","coordinates":[[[-58.459413,-34.613904],[-58.451541,-34.630657],[-58.426722,-34.627016],[-58.429218,-34.615124],[-58.429994,-34.615467],[-58.430635,-34.60596],[-58.4333,-34.602692],[-58.439167,-34.605601],[-58.446213,-34.607634],[-58.458441,-34.60451],[-58.462669,-34.607391],[-58.459413,-34.613904]]]},"properties":{"shapeName":"Comuna 6","shapeISO":"61730980B491501502306","shapeGroup":"ARG","shapeType":"ADM2","src_shape_id":"61730980B491501502306","adm1ISO":"unassigned"}},
{"type":"Feature","geometry":{"type":"Polygon","coordinates":[[[-58.475866,-34.538719],[-58.468154,-34.54896],[-58.4744,-34.552441],[-58.466455,-34.56221],[-58.473333,-34.566681],[-58.468046,-34.572928],[-58.463152,-34.575124],[-58.46019,-34.578314],[-58.457709,-34.578457],[-58.450983,-34.580495],[-58.444414,-34.58319],[-58.439904,-34.578566],[-58.443937,-34.575383],[-58.44071,-34.572125],[-58.44901,-34.567873],[-58.442587,-34.563645],[-58.441128,-34.562153],[-58.438399,-34.562495],[-58.441351,-34.558835],[-58.440125,-34.557123],[-58.434077,-34.553977],[-58.431646,-34.551434],[-58.429364,-34.55097],[-58.425605,-34.552265],[-58.424208,-34.549268],[-58.42763,-34.549429],[-58.430685,-34.547867],[-58.431457,-34.544607],[-58.434355,-34.542751],[-58.435511,-34.540881],[-58.437724,-34.53991],[-58.440887,-34.539824],[-58.441965,-34.537511],[-58.446141,-34.535941],[-58.448539,-34.537369],[-58.45148,-34.531494],[-58.455685,-34.527389],[-58.457476,-34.526526],[-58.459564,-34.527784],[-58.463532,-34.533399],[-58.475866,-34.538719]]]},"properties":{"shapeName":"Comuna 13","shapeISO":"61730980B46645672865610","shapeGroup":"ARG","shapeType":"ADM2","src_shape_id":"61730980B46645672865610","adm1ISO":"unassigned"}},
{"type":"Feature","geometry":{"type":"Polygon","coordinates":[[[-58.373872,-34.578714],[-58.376128,-34.579969],[-58.379804,-34.58018],[-58.382825,-34.578467],[-58.389832,-34.57822],[-58.391612,-34.58085],[-58.38661,-34.583876],[-58.383653,-34.587519],[-58.387877,-34.591699],[-58.386831,-34.599311],[-58.392898,-34.599655],[-58.391774,-34.611298],[-58.391137,-34.627271],[-58.39032,-34.634142],[-58.383359,-34.632238],[-58.374528,-34.626817],[-58.367946,-34.627119],[-58.367939,-34.625213],[-58.363084,-34.625157],[-58.355966,-34.617656],[-58.355108,-34.619568],[-58.349406,-34.619752],[-58.347965,-34.618929],[-58.341012,-34.617009],[-58.339835,-34.614339],[-58.341384,-34.609885],[-58.345717,-34.606801],[-58.346823,-34.601768],[-58.348643,-34.600833],[-58.355282,-34.595451],[-58.359636,-34.594944],[-58.364405,-34.595494],[-58.363848,-34.597171],[-58.367924,-34.597535],[-58.36913,-34.594052],[-58.365911,-34.592802],[-58.367896,-34.590026],[-58.359638,-34.58838],[-58.363557,-34.58748],[-58.363692,-34.586231],[-58.359666,-34.585938],[-58.361636,-34.581156],[-58.365334,-34.58017],[-58.36789,-34.578229],[-58.373872,-34.578714]]]},"properties":{"shapeName":"Comuna 1","shapeISO":"61730980B33319795319357","shapeGroup":"ARG","shapeType":"ADM2","src_shape_id":"61730980B33319795319357","adm1ISO":"unassigned"}},
{"type":"Feature","geometry":{"type":"Polygon","coordinates":[[[-58.444414,-34.58319],[-58.444751,-34.584532],[-58.430248,-34.594182],[-58.423333,-34.597766],[-58.415967,-34.597873],[-58.41436,-34.594072],[-58.410048,-34.589076],[-58.406139,-34.583478],[-58.40191,-34.583445],[-58.400511,-34.58449],[-58.396527,-34.578525],[-58.401619,-34.575336],[-58.402613,-34.574159],[-58.399312,-34.569885],[-58.395173,-34.572209],[-58.392286,-34.572235],[-58.39655,-34.566865],[-58.396836,-34.565123],[-58.399027,-34.563702],[-58.405102,-34.562153],[-58.407222,-34.559955],[-58.414453,-34.555365],[-58.425605,-34.552265],[-58.429364,-34.55097],[-58.431646,-34.551434],[-58.434077,-34.553977],[-58.440125,-34.557123],[-58.441351,-34.558835],[-58.438399,-34.562495],[-58.441128,-34.562153],[-58.442587,-34.563645],[-58.44901,-34.567873],[-58.44071,-34.572125],[-58.443937,-34.575383],[-58.439904,-34.578566],[-58.444414,-34.58319]]]},"properties":{"shapeName":"Comuna 14","shapeISO":"61730980B11409583290546","shapeGroup":"ARG","shapeType":"ADM2","src_shape_id":"61730980B11409583290546","adm1ISO":"unassigned"}},
{"type":"Feature","geometry":{"type":"Polygon","coordinates":[[[-58.373872,-34.578714],[-58.370773,-34.576623],[-58.378155,-34.572782],[-58.380539,-34.571076],[-58.381417,-34.568342],[-58.39044,-34.569342],[-58.391268,-34.570662],[-58.382909,-34.575395],[-58.385814,-34.576009],[-58.392286,-34.572235],[-58.395173,-34.572209],[-58.399312,-34.569885],[-58.402613,-34.574159],[-58.401619,-34.575336],[-58.396527,-34.578525],[-58.400511,-34.58449],[-58.40191,-34.583445],[-58.406139,-34.583478],[-58.410048,-34.589076],[-58.41436,-34.594072],[-58.415967,-34.597873],[-58.411885,-34.598021],[-58.404473,-34.598054],[-58.401975,-34.599388],[-58.392898,-34.599655],[-58.386831,-34.599311],[-58.387877,-34.591699],[-58.383653,-34.587519],[-58.38661,-34.583876],[-58.391612,-34.58085],[-58.389832,-34.57822],[-58.382825,-34.578467],[-58.379804,-34.58018],[-58.376128,-34.579969],[-58.373872,-34.578714]]]},"properties":{"shapeName":"Comuna 2","shapeISO":"61730980B26508052382857","shapeGroup":"ARG","shapeType":"ADM2","src_shape_id":"61730980B26508052382857","adm1ISO":"unassigned"}},
{"type":"Feature","geometry":{"type":"Polygon","coordinates":[[[-58.426722,-34.627016],[-58.423458,-34.640218],[-58.411227,-34.638117],[-58.410455,-34.635255],[-58.411746,-34.630373],[-58.412836,-34.614134],[-58.414433,-34.610754],[-58.411885,-34.598021],[-58.415967,-34.597873],[-58.423333,-34.597766],[-58.426751,-34.597963],[-58.429128,-34.598977],[-58.4333,-34.602692],[-58.430635,-34.60596],[-58.429994,-34.615467],[-58.429218,-34.615124],[-58.426722,-34.627016]]]},"properties":{"shapeName":"Comuna 5","shapeISO":"61730980B98128397219365","shapeGroup":"ARG","shapeType":"ADM2","src_shape_id":"61730980B98128397219365","adm1ISO":"unassigned"}},
{"type":"Feature","geometry":{"type":"Polygon","coordinates":[[[-58.392898,-34.599655],[-58.401975,-34.599388],[-58.404473,-34.598054],[-58.411885,-34.598021],[-58.414433,-34.610754],[-58.412836,-34.614134],[-58.411746,-34.630373],[-58.408331,-34.629533],[-58.398561,-34.628423],[-58.391137,-34.627271],[-58.391774,-34.611298],[-58.392898,-34.599655]]]},"properties":{"shapeName":"Comuna 3","shapeISO":"61730980B39033896534626","shapeGroup":"ARG","shapeType":"ADM2","src_shape_id":"61730980B39033896534626","adm1ISO":"unassigned"}},
{"type":"Feature","geometry":{"type":"Polygon","coordinates":[[[-58.423832,-34.662277],[-58.421403,-34.66106],[-58.415097,-34.659097],[-58.412254,-34.658678],[-58.408375,-34.660168],[-58.402697,-34.659943],[-58.397668,-34.661774],[-58.391719,-34.662607],[-58.387389,-34.660343],[-58.385247,-34.658202],[-58.374052,-34.657194],[-58.369662,-34.654038],[-58.3684,-34.651067],[-58.364058,-34.648747],[-58.361619,-34.648211],[-58.356622,-34.644523],[-58.357527,-34.641783],[-58.357051,-34.639404],[-58.352054,-34.635478],[-58.349674,-34.634169],[-58.341887,-34.631097],[-58.342491,-34.629766],[-58.340214,-34.627981],[-58.33693,-34.628409],[-58.335231,-34.626411],[-58.338487,-34.624654],[-58.336973,-34.622349],[-58.338037,-34.619008],[-58.343141,-34.618558],[-58.347965,-34.618929],[-58.349406,-34.619752],[-58.355108,-34.619568],[-58.355966,-34.617656],[-58.363084,-34.625157],[-58.367939,-34.625213],[-58.367946,-34.627119],[-58.374528,-34.626817],[-58.383359,-34.632238],[-58.39032,-34.634142],[-58.391137,-34.627271],[-58.398561,-34.628423],[-58.408331,-34.629533],[-58.411746,-34.630373],[-58.410455,-34.635255],[-58.411227,-34.638117],[-58.423458,-34.640218],[-58.43231,-34.641759],[-58.432073,-34.645181],[-58.434888,-34.646254],[-58.430395,-34.649891],[-58.434399,-34.65313],[-58.426711,-34.658691],[-58.423832,-34.662277]]]},"properties":{"shapeName":"Comuna 4","shapeISO":"61730980B82066929031844","shapeGroup":"ARG","shapeType":"ADM2","src_shape_id":"61730980B82066929031844","adm1ISO":"unassigned"}}
]}