{"type":"FeatureCollection","bbox":[12.0906,48.5546,18.8592,51.0465],"features":[
{"type":"Feature","id":"CZE:ADM1:CZ-10","properties":{"shapeName":"Hlavní město Praha","shapeISO":"CZ-10","shapeType":"ADM1"},"geometry":{"type":"Polygon","coordinates":[[[14.3023,50.1298],[14.2461,50.1101],[14.2951,50.0022],[14.3396,49.9808],[14.3376,49.9484],[14.4622,49.9708],[14.4839,49.9924],[14.5763,50.0136],[14.6402,49.9944],[14.668,50.0189],[14.6539,50.0493],[14.7068,50.087],[14.5342,50.1616],[14.4669,50.1695],[14.4211,50.1494],[14.3023,50.1298]]]}},
{"type":"Feature","id":"CZE:ADM1:CZ-20","properties":{"shapeName":"Středočeský kraj","shapeISO":"CZ-20","shapeType":"ADM1"},"geometry":{"type":"Polygon","coordinates":[[[15.4971,49.8611],[15.5355,49.9274],[15.5333,49.9584],[15.461,49.9873],[15.4511,50.0081],[15.3791,50.026],[15.4374,50.1099],[15.363,50.1627],[15.3974,50.1979],[15.3724,50.2268],[15.3781,50.2847],[15.3542,50.298],[15.2367,50.2859],[15.1872,50.3396],[15.1298,50.3458],[15.1623,50.4273],[15.1296,50.4505],[15.1469,50.5227],[15.0976,50.5346],[15.0045,50.604],[14.8979,50.6033],[14.847,50.5719],[14.8269,50.5384],[14.7582,50.5296],[14.7191,50.4985],[14.5898,50.4737],[14.5662,50.5065],[14.4864,50.505],[14.4593,50.4931],[14.4724,50.4493],[14.3766,50.3928],[14.3671,50.352],[14.2745,50.3547],[14.1401,50.3323],[14.0198,50.3484],[13.9913,50.3037],[13.8779,50.2702],[13.8639,50.2443],[13.8052,50.2598],[13.7514,50.2237],[13.6725,50.2306],[13.5891,50.188],[13.5356,50.189],[13.4881,50.1631],[13.4672,50.1271],[13.4068,50.0896],[13.4279,50.0741],[13.3985,50.0327],[13.4719,50.039],[13.5754,49.9946],[13.6451,50.0028],[13.7096,49.9658],[13.8212,49.9238],[13.8343,49.8677],[13.797,49.8298],[13.7945,49.7689],[13.8404,49.6966],[13.7872,49.6815],[13.752,49.6325],[13.7392,49.5618],[13.7657,49.5139],[13.8815,49.5227],[13.9231,49.502],[13.9783,49.5117],[14.0098,49.5511],[14.1242,49.5284],[14.2157,49.5384],[14.2636,49.5678],[14.3678,49.531],[14.4167,49.5541],[14.4562,49.5383],[14.5891,49.5327],[14.6317,49.5193],[14.7377,49.5523],[14.723,49.5797],[14.7681,49.6157],[14.8405,49.5826],[14.868,49.5881],[14.9036,49.544],[14.932,49.5494],[14.9475,49.5797],[14.9974,49.608],[15.0559,49.5941],[15.1148,49.6054],[15.1636,49.5954],[15.2306,49.6152],[15.2349,49.6647],[15.1852,49.6674],[15.182,49.708],[15.2273,49.7424],[15.2982,49.768],[15.3463,49.7694],[15.4164,49.8277],[15.4971,49.8611]],[[14.3023,50.1298],[14.4211,50.1494],[14.4669,50.1695],[14.5342,50.1616],[14.7068,50.087],[14.6539,50.0493],[14.668,50.0189],[14.6402,49.9944],[14.5763,50.0136],[14.4839,49.9924],[14.4622,49.9708],[14.3376,49.9484],[14.3396,49.9808],[14.2951,50.0022],[14.2461,50.1101],[14.3023,50.1298]]]}},
{"type":"Feature","id":"CZE:ADM1:CZ-31","properties":{"shapeName":"Jihočeský kraj","shapeISO":"CZ-31","shapeType":"ADM1"},"geometry":{"type":"Polygon","coordinates":[[[13.7657,49.5139],[13.7478,49.4867],[13.7778,49.4335],[13.7585,49.4032],[13.7898,49.371],[13.736,49.3161],[13.6888,49.2282],[13.7152,49.2085],[13.6741,49.1631],[13.5895,49.1263],[13.6032,49.0545],[13.5432,49.0179],[13.5509,48.9676],[13.5801,48.9707],[13.638,48.9257],[13.6714,48.8801],[13.7372,48.8797],[13.7688,48.8314],[13.815,48.7973],[13.9555,48.7149],[14.0033,48.7086],[14.0529,48.6527],[14.023,48.6307],[14.0542,48.6041],[14.1953,48.5925],[14.342,48.5546],[14.3579,48.5735],[14.4304,48.5885],[14.4712,48.6456],[14.504,48.6172],[14.5643,48.6085],[14.6071,48.6285],[14.6635,48.582],[14.706,48.5909],[14.7124,48.6501],[14.7408,48.7013],[14.7947,48.73],[14.8255,48.7839],[14.9558,48.7581],[14.9729,48.8747],[14.9929,48.904],[14.9762,48.971],[15.0217,49.0205],[15.0644,48.9997],[15.1586,48.9899],[15.1893,48.943],[15.2691,48.9583],[15.291,48.9843],[15.367,48.9819],[15.4349,48.9499],[15.4664,48.9515],[15.5424,48.9077],[15.5868,48.947],[15.5208,48.9784],[15.5092,49.0174],[15.542,49.0605],[15.6031,49.0894],[15.5656,49.1091],[15.4222,49.1252],[15.3517,49.1539],[15.3455,49.2164],[15.2816,49.2111],[15.2074,49.2268],[15.1413,49.2214],[15.1037,49.2701],[15.0295,49.296],[14.9912,49.275],[14.9057,49.333],[14.9258,49.3625],[14.8925,49.3913],[14.9275,49.4564],[14.932,49.5494],[14.9036,49.544],[14.868,49.5881],[14.8405,49.5826],[14.7681,49.6157],[14.723,49.5797],[14.7377,49.5523],[14.6317,49.5193],[14.5891,49.5327],[14.4562,49.5383],[14.4167,49.5541],[14.3678,49.531],[14.2636,49.5678],[14.2157,49.5384],[14.1242,49.5284],[14.0098,49.5511],[13.9783,49.5117],[13.9231,49.502],[13.8815,49.5227],[13.7657,49.5139]]]}},
{"type":"Feature","id":"CZE:ADM1:CZ-32","properties":{"shapeName":"Plzeňský kraj","shapeISO":"CZ-32","shapeType":"ADM1"},"geometry":{"type":"Polygon","coordinates":[[[13.4068,50.0896],[13.3018,50.0993],[13.2929,50.0602],[13.2378,50.0488],[13.2059,50],[13.098,50.0351],[13.0009,49.979],[12.9574,49.9738],[12.9577,49.9371],[12.9216,49.9212],[12.8157,49.9384],[12.7424,49.9316],[12.6803,49.9087],[12.5507,49.9053],[12.4672,49.7857],[12.4031,49.7619],[12.4401,49.7058],[12.5214,49.6867],[12.5281,49.6181],[12.5607,49.6196],[12.574,49.5598],[12.6442,49.5214],[12.6559,49.4348],[12.7087,49.4248],[12.7577,49.3948],[12.8031,49.3416],[12.88,49.3504],[12.95,49.3429],[13.0291,49.3043],[13.034,49.2639],[13.0806,49.2475],[13.1769,49.1642],[13.1703,49.144],[13.2364,49.1137],[13.2892,49.1186],[13.3922,49.0543],[13.4027,48.9872],[13.4948,48.9417],[13.5509,48.9676],[13.5432,49.0179],[13.6032,49.0545],[13.5895,49.1263],[13.6741,49.1631],[13.7152,49.2085],[13.6888,49.2282],[13.736,49.3161],[13.7898,49.371],[13.7585,49.4032],[13.7778,49.4335],[13.7478,49.4867],[13.7657,49.5139],[13.7392,49.5618],[13.752,49.6325],[13.7872,49.6815],[13.8404,49.6966],[13.7945,49.7689],[13.797,49.8298],[13.8343,49.8677],[13.8212,49.9238],[13.7096,49.9658],[13.6451,50.0028],[13.5754,49.9946],[13.4719,50.039],[13.3985,50.0327],[13.4279,50.0741],[13.4068,50.0896]]]}},
{"type":"Feature","id":"CZE:ADM1:CZ-41","properties":{"shapeName":"Karlovarský kraj","shapeISO":"CZ-41","shapeType":"ADM1"},"geometry":{"type":"Polygon","coordinates":[[[13.3018,50.0993],[13.2529,50.1448],[13.2871,50.1681],[13.2188,50.2173],[13.237,50.2529],[13.2195,50.2858],[13.2374,50.3254],[13.2205,50.3527],[13.1335,50.36],[13.0986,50.3819],[12.9743,50.3893],[12.9482,50.4047],[12.8215,50.4591],[12.6761,50.4155],[12.5126,50.3965],[12.3355,50.2425],[12.3268,50.1728],[12.2747,50.1965],[12.2939,50.221],[12.2013,50.2728],[12.1995,50.3067],[12.1503,50.3221],[12.1383,50.275],[12.0906,50.2524],[12.1546,50.2287],[12.2012,50.1886],[12.1997,50.1106],[12.3675,50.0194],[12.4672,49.9928],[12.494,49.9699],[12.4783,49.9355],[12.5507,49.9053],[12.6803,49.9087],[12.7424,49.9316],[12.8157,49.9384],[12.9216,49.9212],[12.9577,49.9371],[12.9574,49.9738],[13.0009,49.979],[13.098,50.0351],[13.2059,50],[13.2378,50.0488],[13.2929,50.0602],[13.3018,50.0993]]]}},
{"type":"Feature","id":"CZE:ADM1:CZ-42","properties":{"shapeName":"Ústecký kraj","shapeISO":"CZ-42","shapeType":"ADM1"},"geometry":{"type":"Polygon","coordinates":[[[14.4864,50.505],[14.4398,50.5301],[14.4055,50.5874],[14.3426,50.6584],[14.3762,50.7208],[14.4041,50.7264],[14.4762,50.8163],[14.5607,50.7998],[14.5752,50.8392],[14.6189,50.8578],[14.6502,50.9315],[14.5605,50.9251],[14.5991,50.9872],[14.4538,51.0359],[14.4198,51.0191],[14.362,51.0453],[14.2922,51.0465],[14.2627,50.9854],[14.3106,50.9549],[14.397,50.9363],[14.3885,50.9004],[14.3049,50.884],[14.2674,50.8953],[14.2,50.8511],[14.0351,50.8052],[13.986,50.8163],[13.9069,50.7926],[13.9007,50.7519],[13.8575,50.7282],[13.8074,50.7333],[13.6928,50.7184],[13.6434,50.7296],[13.6027,50.7102],[13.5386,50.7059],[13.5443,50.6772],[13.4623,50.6018],[13.4023,50.635],[13.3195,50.6015],[13.2911,50.5749],[13.2484,50.5921],[13.2079,50.5221],[13.0561,50.5012],[13.0227,50.4872],[13.0179,50.4449],[12.9482,50.4047],[12.9743,50.3893],[13.0986,50.3819],[13.1335,50.36],[13.2205,50.3527],[13.2374,50.3254],[13.2195,50.2858],[13.237,50.2529],[13.2188,50.2173],[13.2871,50.1681],[13.2529,50.1448],[13.3018,50.0993],[13.4068,50.0896],[13.4672,50.1271],[13.4881,50.1631],[13.5356,50.189],[13.5891,50.188],[13.6725,50.2306],[13.7514,50.2237],[13.8052,50.2598],[13.8639,50.2443],[13.8779,50.2702],[13.9913,50.3037],[14.0198,50.3484],[14.1401,50.3323],[14.2745,50.3547],[14.3671,50.352],[14.3766,50.3928],[14.4724,50.4493],[14.4593,50.4931],[14.4864,50.505]]]}},
{"type":"Feature","id":"CZE:ADM1:CZ-51","properties":{"shapeName":"Liberecký kraj","shapeISO":"CZ-51","shapeType":"ADM1"},"geometry":{"type":"Polygon","coordinates":[[[15.1469,50.5227],[15.2228,50.4943],[15.263,50.5217],[15.3278,50.515],[15.3902,50.4808],[15.4444,50.496],[15.4801,50.5377],[15.5136,50.5176],[15.6322,50.5227],[15.5711,50.5812],[15.5946,50.6115],[15.5651,50.68],[15.5736,50.7359],[15.5352,50.7794],[15.4388,50.8091],[15.3921,50.7759],[15.3581,50.8473],[15.2771,50.891],[15.2679,50.9325],[15.292,50.9535],[15.2366,50.9987],[15.1052,50.9915],[15.0774,51.0136],[15.0165,51.0218],[14.9682,50.99],[15.0173,50.9668],[14.9895,50.9216],[15.0019,50.8688],[14.9002,50.876],[14.824,50.8707],[14.7997,50.8226],[14.6189,50.8578],[14.5752,50.8392],[14.5607,50.7998],[14.4762,50.8163],[14.4041,50.7264],[14.3762,50.7208],[14.3426,50.6584],[14.4055,50.5874],[14.4398,50.5301],[14.4864,50.505],[14.5662,50.5065],[14.5898,50.4737],[14.7191,50.4985],[14.7582,50.5296],[14.8269,50.5384],[14.847,50.5719],[14.8979,50.6033],[15.0045,50.604],[15.0976,50.5346],[15.1469,50.5227]]]}},
{"type":"Feature","id":"CZE:ADM1:CZ-52","properties":{"shapeName":"Královéhradecký kraj","shapeISO":"CZ-52","shapeType":"ADM1"},"geometry":{"type":"Polygon","coordinates":[[[15.4374,50.1099],[15.5082,50.1138],[15.5807,50.1475],[15.6906,50.1277],[15.7389,50.1416],[15.7762,50.1757],[15.8343,50.135],[15.8878,50.1625],[15.9922,50.1574],[16.0096,50.1126],[16.0634,50.1128],[16.0751,50.0865],[16.1751,50.0594],[16.1951,50.0389],[16.2862,50.0508],[16.3388,50.0896],[16.4743,50.1386],[16.4964,50.1676],[16.5801,50.1424],[16.5606,50.1647],[16.5483,50.2298],[16.5168,50.2435],[16.4304,50.3251],[16.3993,50.3192],[16.3608,50.3795],[16.2677,50.3794],[16.2209,50.407],[16.1988,50.4418],[16.3604,50.5012],[16.4449,50.5796],[16.3431,50.6615],[16.2348,50.6716],[16.188,50.6273],[16.1037,50.6634],[16.0292,50.6038],[15.9886,50.6849],[15.8633,50.6802],[15.8162,50.7553],[15.7057,50.7373],[15.6839,50.7526],[15.5788,50.779],[15.5352,50.7794],[15.5736,50.7359],[15.5651,50.68],[15.5946,50.6115],[15.5711,50.5812],[15.6322,50.5227],[15.5136,50.5176],[15.4801,50.5377],[15.4444,50.496],[15.3902,50.4808],[15.3278,50.515],[15.263,50.5217],[15.2228,50.4943],[15.1469,50.5227],[15.1296,50.4505],[15.1623,50.4273],[15.1298,50.3458],[15.1872,50.3396],[15.2367,50.2859],[15.3542,50.298],[15.3781,50.2847],[15.3724,50.2268],[15.3974,50.1979],[15.363,50.1627],[15.4374,50.1099]]]}},
{"type":"Feature","id":"CZE:ADM1:CZ-53","properties":{"shapeName":"Pardubický kraj","shapeISO":"CZ-53","shapeType":"ADM1"},"geometry":{"type":"Polygon","coordinates":[[[15.4971,49.8611],[15.6004,49.81],[15.6592,49.8143],[15.7118,49.8003],[15.7728,49.765],[15.8647,49.7318],[15.8701,49.7026],[15.9495,49.6861],[15.9723,49.7195],[16.0809,49.7089],[16.1033,49.6833],[16.1937,49.6783],[16.2448,49.6588],[16.2698,49.6297],[16.3481,49.6131],[16.392,49.5801],[16.4171,49.5949],[16.5412,49.5915],[16.5484,49.6283],[16.7155,49.6214],[16.8041,49.5988],[16.8038,49.6565],[16.8436,49.68],[16.8474,49.7162],[16.8058,49.7314],[16.8028,49.7672],[16.7361,49.8307],[16.7566,49.9201],[16.7345,49.9466],[16.7545,49.9974],[16.805,50.0291],[16.7982,50.0686],[16.8628,50.1982],[16.8099,50.1893],[16.7833,50.1456],[16.7448,50.1345],[16.706,50.0966],[16.6413,50.1122],[16.5801,50.1424],[16.4964,50.1676],[16.4743,50.1386],[16.3388,50.0896],[16.2862,50.0508],[16.1951,50.0389],[16.1751,50.0594],[16.0751,50.0865],[16.0634,50.1128],[16.0096,50.1126],[15.9922,50.1574],[15.8878,50.1625],[15.8343,50.135],[15.7762,50.1757],[15.7389,50.1416],[15.6906,50.1277],[15.5807,50.1475],[15.5082,50.1138],[15.4374,50.1099],[15.3791,50.026],[15.4511,50.0081],[15.461,49.9873],[15.5333,49.9584],[15.5355,49.9274],[15.4971,49.8611]]]}},
{"type":"Feature","id":"CZE:ADM1:CZ-63","properties":{"shapeName":"Kraj Vysočina","shapeISO":"CZ-63","shapeType":"ADM1"},"geometry":{"type":"Polygon","coordinates":[[[14.932,49.5494],[14.9275,49.4564],[14.8925,49.3913],[14.9258,49.3625],[14.9057,49.333],[14.9912,49.275],[15.0295,49.296],[15.1037,49.2701],[15.1413,49.2214],[15.2074,49.2268],[15.2816,49.2111],[15.3455,49.2164],[15.3517,49.1539],[15.4222,49.1252],[15.5656,49.1091],[15.6031,49.0894],[15.542,49.0605],[15.5092,49.0174],[15.5208,48.9784],[15.5868,48.947],[15.6492,48.9394],[15.6687,48.9657],[15.7333,48.9483],[15.7581,48.9809],[15.8186,49.0109],[15.8719,49.0123],[15.9606,49.0565],[16.0215,49.0294],[16.1459,49.0474],[16.211,49.0716],[16.2213,49.1234],[16.2744,49.2009],[16.2342,49.2122],[16.2581,49.2907],[16.286,49.3207],[16.2175,49.3557],[16.2618,49.4256],[16.3288,49.4709],[16.3857,49.4934],[16.4183,49.5252],[16.3777,49.5453],[16.392,49.5801],[16.3481,49.6131],[16.2698,49.6297],[16.2448,49.6588],[16.1937,49.6783],[16.1033,49.6833],[16.0809,49.7089],[15.9723,49.7195],[15.9495,49.6861],[15.8701,49.7026],[15.8647,49.7318],[15.7728,49.765],[15.7118,49.8003],[15.6592,49.8143],[15.6004,49.81],[15.4971,49.8611],[15.4164,49.8277],[15.3463,49.7694],[15.2982,49.768],[15.2273,49.7424],[15.182,49.708],[15.1852,49.6674],[15.2349,49.6647],[15.2306,49.6152],[15.1636,49.5954],[15.1148,49.6054],[15.0559,49.5941],[14.9974,49.608],[14.9475,49.5797],[14.932,49.5494]]]}},
{"type":"Feature","id":"CZE:ADM1:CZ-64","properties":{"shapeName":"Jihomoravský kraj","shapeISO":"CZ-64","shapeType":"ADM1"},"geometry":{"type":"Polygon","coordinates":[[[15.5424,48.9077],[15.6196,48.8956],[15.6865,48.857],[15.7537,48.8522],[15.7795,48.8749],[15.907,48.8355],[15.9944,48.7793],[16.0928,48.7469],[16.2683,48.7413],[16.3598,48.7281],[16.4095,48.7443],[16.4619,48.8046],[16.6747,48.7715],[16.7758,48.7119],[16.9056,48.714],[16.9229,48.6703],[16.9194,48.6219],[16.9534,48.6223],[16.9681,48.6689],[17.0433,48.7643],[17.0891,48.786],[17.1149,48.8333],[17.1923,48.8747],[17.2421,48.8684],[17.3542,48.822],[17.3963,48.8132],[17.4359,48.8406],[17.477,48.8415],[17.5199,48.8128],[17.6469,48.8543],[17.6013,48.9104],[17.5404,48.9246],[17.523,48.9568],[17.4343,48.9504],[17.362,49.0054],[17.2868,49.0177],[17.2214,49.0425],[17.2135,49.0929],[17.1243,49.0743],[17.1538,49.1353],[17.2025,49.1755],[17.1357,49.2151],[17.1597,49.2751],[17.1379,49.3271],[17.0466,49.3547],[16.9873,49.455],[16.915,49.5],[16.8679,49.4706],[16.9157,49.429],[16.8628,49.3872],[16.7963,49.4118],[16.7844,49.4969],[16.7932,49.5343],[16.7426,49.5731],[16.8041,49.5988],[16.7155,49.6214],[16.5484,49.6283],[16.5412,49.5915],[16.4171,49.5949],[16.392,49.5801],[16.3777,49.5453],[16.4183,49.5252],[16.3857,49.4934],[16.3288,49.4709],[16.2618,49.4256],[16.2175,49.3557],[16.286,49.3207],[16.2581,49.2907],[16.2342,49.2122],[16.2744,49.2009],[16.2213,49.1234],[16.211,49.0716],[16.1459,49.0474],[16.0215,49.0294],[15.9606,49.0565],[15.8719,49.0123],[15.8186,49.0109],[15.7581,48.9809],[15.7333,48.9483],[15.6687,48.9657],[15.6492,48.9394],[15.5868,48.947],[15.5424,48.9077]]]}},
{"type":"Feature","id":"CZE:ADM1:CZ-71","properties":{"shapeName":"Olomoucký kraj","shapeISO":"CZ-71","shapeType":"ADM1"},"geometry":{"type":"Polygon","coordinates":[[[16.8041,49.5988],[16.7426,49.5731],[16.7932,49.5343],[16.7844,49.4969],[16.7963,49.4118],[16.8628,49.3872],[16.9157,49.429],[16.8679,49.4706],[16.915,49.5],[16.9873,49.455],[17.0466,49.3547],[17.1379,49.3271],[17.1597,49.2751],[17.231,49.2985],[17.2912,49.3009],[17.3505,49.3428],[17.3353,49.3904],[17.4583,49.3749],[17.5325,49.401],[17.6202,49.397],[17.6763,49.4627],[17.7338,49.4348],[17.778,49.4432],[17.7869,49.4862],[17.8895,49.5096],[17.9168,49.5382],[17.7936,49.6293],[17.7375,49.68],[17.6898,49.6767],[17.6984,49.7329],[17.654,49.7602],[17.6106,49.746],[17.5337,49.7707],[17.4816,49.8306],[17.3941,49.8116],[17.3553,49.8632],[17.2222,49.8224],[17.1507,49.8843],[17.2035,49.9494],[17.1558,49.9823],[17.1675,50.0112],[17.2268,50.0528],[17.2588,50.1475],[17.3088,50.1866],[17.3383,50.1846],[17.4297,50.2542],[17.4207,50.2774],[17.3425,50.2811],[17.3537,50.308],[17.2899,50.3175],[17.1108,50.405],[16.9834,50.4201],[16.9079,50.4495],[16.8605,50.4112],[16.9082,50.3911],[16.9407,50.3198],[17.0009,50.303],[17.0199,50.2786],[16.9989,50.2159],[16.9174,50.2262],[16.8628,50.1982],[16.7982,50.0686],[16.805,50.0291],[16.7545,49.9974],[16.7345,49.9466],[16.7566,49.9201],[16.7361,49.8307],[16.8028,49.7672],[16.8058,49.7314],[16.8474,49.7162],[16.8436,49.68],[16.8038,49.6565],[16.8041,49.5988]]]}},
{"type":"Feature","id":"CZE:ADM1:CZ-80","properties":{"shapeName":"Moravskoslezský kraj","shapeISO":"CZ-80","shapeType":"ADM1"},"geometry":{"type":"Polygon","coordinates":[[[17.9168,49.5382],[17.9733,49.538],[17.9931,49.5055],[18.0837,49.5185],[18.1636,49.5171],[18.1917,49.4935],[18.3018,49.4893],[18.3661,49.4058],[18.4037,49.3967],[18.4499,49.3935],[18.5479,49.4679],[18.5457,49.5005],[18.7104,49.5025],[18.7545,49.4884],[18.8592,49.5506],[18.8372,49.5632],[18.8046,49.6789],[18.7192,49.6838],[18.7065,49.7044],[18.6362,49.715],[18.6292,49.7471],[18.5694,49.8344],[18.6039,49.8571],[18.5317,49.8995],[18.4851,49.9063],[18.4308,49.9382],[18.3554,49.9442],[18.3217,49.9159],[18.278,49.9635],[18.2206,49.9689],[18.2066,49.9979],[18.117,49.9942],[18.1032,50.0226],[17.954,50.0051],[17.9092,49.9765],[17.8616,49.9806],[17.8277,50.0113],[17.7776,50.0202],[17.7499,50.0776],[17.7051,50.1144],[17.6767,50.103],[17.5927,50.16],[17.7029,50.1849],[17.7585,50.2066],[17.765,50.2364],[17.726,50.2586],[17.7508,50.2996],[17.6891,50.3019],[17.6107,50.266],[17.4956,50.2751],[17.4297,50.2542],[17.3383,50.1846],[17.3088,50.1866],[17.2588,50.1475],[17.2268,50.0528],[17.1675,50.0112],[17.1558,49.9823],[17.2035,49.9494],[17.1507,49.8843],[17.2222,49.8224],[17.3553,49.8632],[17.3941,49.8116],[17.4816,49.8306],[17.5337,49.7707],[17.6106,49.746],[17.654,49.7602],[17.6984,49.7329],[17.6898,49.6767],[17.7375,49.68],[17.7936,49.6293],[17.9168,49.5382]]]}},
{"type":"Feature","id":"CZE:ADM1:CZ-72","properties":{"shapeName":"Zlínský kraj","shapeISO":"CZ-72","shapeType":"ADM1"},"geometry":{"type":"Polygon","coordinates":[[[17.6469,48.8543],[17.7038,48.861],[17.7813,48.9253],[17.8853,48.9277],[17.9243,49.02],[18.0245,49.0212],[18.0821,49.0463],[18.1159,49.0921],[18.1067,49.1342],[18.184,49.287],[18.297,49.3044],[18.3789,49.3305],[18.4148,49.37],[18.4037,49.3967],[18.3661,49.4058],[18.3018,49.4893],[18.1917,49.4935],[18.1636,49.5171],[18.0837,49.5185],[17.9931,49.5055],[17.9733,49.538],[17.9168,49.5382],[17.8895,49.5096],[17.7869,49.4862],[17.778,49.4432],[17.7338,49.4348],[17.6763,49.4627],[17.6202,49.397],[17.5325,49.401],[17.4583,49.3749],[17.3353,49.3904],[17.3505,49.3428],[17.2912,49.3009],[17.231,49.2985],[17.1597,49.2751],[17.1357,49.2151],[17.2025,49.1755],[17.1538,49.1353],[17.1243,49.0743],[17.2135,49.0929],[17.2214,49.0425],[17.2868,49.0177],[17.362,49.0054],[17.4343,48.9504],[17.523,48.9568],[17.5404,48.9246],[17.6013,48.9104],[17.6469,48.8543]]]}}
]}