{"type":"FeatureCollection","bbox":[-24.4818,63.3967,-13.5202,66.5366],"features":[
{"type":"Feature","id":"ISL:ADM0:ISL","properties":{"shapeName":"Iceland","shapeISO":"ISL","shapeType":"ADM0"},"geometry":{"type":"Polygon","coordinates":[[[-14.5636,66.3845],[-14.8398,66.3918],[-15.1088,66.2784],[-15.3022,66.2684],[-15.4197,66.1723],[-15.7751,66.2895],[-15.7067,66.3959],[-15.9241,66.4223],[-16.0229,66.5366],[-16.5433,66.507],[-16.5154,66.3673],[-16.4219,66.2871],[-16.487,66.1895],[-16.9197,66.1243],[-16.9924,66.1995],[-17.2174,66.1942],[-17.4193,65.994],[-17.673,66.0071],[-17.9127,66.1523],[-18.297,66.1796],[-18.3292,66.1039],[-18.2281,65.9394],[-18.54,65.9742],[-18.5445,66.0828],[-18.6922,66.17],[-18.9447,66.1907],[-19.1597,66.0976],[-19.3627,66.0884],[-19.4979,65.9775],[-19.4058,65.8602],[-19.418,65.7539],[-19.6504,65.765],[-19.7084,65.8711],[-19.8798,65.9052],[-20.0306,66.0834],[-20.1848,66.1312],[-20.4278,66.0834],[-20.4489,66.0294],[-20.2633,65.7445],[-20.3285,65.6278],[-20.5752,65.5357],[-20.6658,65.6909],[-20.9181,65.6014],[-21.1952,65.4081],[-21.3699,65.4871],[-21.2987,65.5589],[-21.443,65.6434],[-21.4179,65.7635],[-21.2782,65.8569],[-21.3185,65.9878],[-21.723,66.0822],[-21.7499,66.1858],[-21.9793,66.275],[-22.2141,66.2897],[-22.3767,66.4326],[-22.8503,66.467],[-23.0981,66.3183],[-22.866,66.1595],[-22.4494,66.0759],[-22.8555,66.0285],[-23.0277,66.1087],[-23.4614,66.2042],[-23.7926,66.0704],[-23.8666,65.8756],[-23.6281,65.706],[-24.0499,65.8035],[-24.0868,65.6514],[-24.2779,65.6364],[-24.4818,65.4885],[-24.1967,65.5012],[-23.9678,65.4649],[-23.8975,65.4046],[-23.373,65.4982],[-23.2474,65.4854],[-22.9258,65.5732],[-22.7852,65.508],[-22.5892,65.5356],[-22.1992,65.4323],[-22.0032,65.5039],[-21.8976,65.4465],[-22.2013,65.3177],[-22.4903,65.2336],[-22.5577,65.1689],[-22.0338,65.1149],[-21.7374,65.1592],[-21.8262,65.0351],[-22.1552,65.0276],[-22.38,65.0588],[-22.6744,65.0076],[-23.2102,65.0169],[-23.224,64.9494],[-23.5128,64.9464],[-23.638,64.8985],[-23.8498,64.9306],[-24.06,64.8911],[-23.9461,64.7609],[-23.8336,64.7259],[-23.2462,64.8305],[-23.1881,64.8041],[-22.7839,64.7927],[-22.5319,64.8091],[-22.3197,64.7539],[-22.391,64.6378],[-22.199,64.4719],[-22.0931,64.4727],[-21.9626,64.2973],[-21.8179,64.238],[-21.9634,64.0823],[-22.1992,64.0208],[-22.6859,63.9457],[-22.7175,63.8284],[-22.3364,63.8632],[-22.0658,63.8359],[-21.7932,63.8706],[-21.6599,63.8319],[-21.1683,63.8756],[-20.9488,63.8272],[-20.4421,63.6714],[-20.1857,63.5444],[-19.7699,63.5342],[-19.2873,63.4387],[-18.732,63.3967],[-18.1329,63.4793],[-17.965,63.5225],[-17.8239,63.6674],[-17.8603,63.737],[-16.8958,63.8078],[-16.6112,63.8694],[-16.3505,63.9656],[-15.9921,64.1445],[-15.733,64.1793],[-15.464,64.2513],[-15.3636,64.3368],[-14.9955,64.2626],[-14.7125,64.4141],[-14.5105,64.4423],[-14.4935,64.6583],[-14.0485,64.7197],[-13.8678,64.7947],[-13.527,65.0555],[-13.5202,65.1722],[-13.6877,65.3064],[-13.6096,65.5142],[-13.8213,65.5415],[-14.3976,65.73],[-14.6944,65.7508],[-14.823,65.8159],[-14.6047,65.9639],[-14.6773,66.0562],[-15.076,66.0496],[-15.1794,66.1113],[-14.9604,66.1858],[-14.9591,66.2965],[-14.5636,66.3845]]]}}
]}