{"type":"FeatureCollection","bbox":[-78.549073,0.356616,-77.531625,1.197772],"features":[
{"type":"Feature","id":"ECU:ADM2:EC-C.bolivar","properties":{"shapeName":"Bolivar","shapeISO":"","shapeGroup":"ECU","shapeType":"ADM2","adm1ISO":"EC-C","parentISO":"EC-C","parentID":"ECU:ADM1:EC-C","src_shape_id":"8360857B4480682421183"},"geometry":{"type":"Polygon","coordinates":[[[-77.807004,0.426948],[-77.81038,0.427626],[-77.816525,0.430623],[-77.818696,0.433056],[-77.820693,0.436409],[-77.822078,0.441715],[-77.825092,0.44441],[-77.828608,0.449638],[-77.831765,0.451097],[-77.835999,0.452038],[-77.84098,0.455347],[-77.842427,0.459161],[-77.848152,0.46297],[-77.850136,0.468947],[-77.851968,0.4695],[-77.854574,0.472494],[-77.857246,0.472002],[-77.85906,0.470346],[-77.859707,0.473222],[-77.861469,0.476987],[-77.8607,0.478921],[-77.85787,0.481856],[-77.857226,0.48649],[-77.856252,0.488574],[-77.856357,0.492173],[-77.85748,0.492474],[-77.8595,0.489511],[-77.859741,0.487218],[-77.863512,0.486397],[-77.866465,0.482482],[-77.869888,0.482509],[-77.871863,0.489397],[-77.871763,0.493231],[-77.87307,0.495452],[-77.872921,0.498918],[-77.871868,0.501327],[-77.873446,0.506109],[-77.872798,0.507807],[-77.873438,0.512498],[-77.875694,0.515166],[-77.876089,0.519008],[-77.880322,0.523985],[-77.880258,0.527634],[-77.879077,0.528995],[-77.879855,0.531195],[-77.878739,0.533927],[-77.879667,0.537944],[-77.881289,0.540777],[-77.883942,0.543412],[-77.885657,0.550437],[-77.884407,0.555854],[-77.885225,0.558618],[-77.885403,0.563214],[-77.891016,0.567768],[-77.893042,0.567838],[-77.897961,0.571805],[-77.899654,0.574672],[-77.903429,0.576022],[-77.904822,0.577803],[-77.909473,0.579578],[-77.913186,0.582839],[-77.914174,0.584687],[-77.916924,0.586643],[-77.918273,0.58854],[-77.918941,0.586135],[-77.917731,0.583439],[-77.919706,0.580885],[-77.922725,0.579079],[-77.92658,0.577756],[-77.930867,0.577455],[-77.93523,0.575641],[-77.937389,0.576814],[-77.943667,0.575469],[-77.949314,0.572606],[-77.950344,0.571535],[-77.953593,0.570713],[-77.963357,0.574462],[-77.967109,0.572963],[-77.967963,0.571762],[-77.973196,0.572412],[-77.976352,0.572372],[-77.977615,0.575298],[-77.980095,0.577984],[-77.98282,0.576483],[-77.982436,0.570931],[-77.983227,0.568148],[-77.98636,0.565806],[-77.990086,0.563847],[-77.990368,0.560905],[-77.995948,0.559284],[-77.999038,0.556393],[-78.000796,0.556257],[-78.003192,0.554329],[-78.005564,0.553546],[-78.006569,0.551968],[-78.01034,0.550386],[-78.010392,0.548359],[-78.012183,0.543568],[-78.013216,0.54319],[-78.014643,0.538564],[-78.017969,0.536893],[-78.020739,0.532529],[-78.023338,0.527503],[-78.026241,0.524981],[-78.030506,0.52465],[-78.033434,0.526083],[-78.035916,0.525004],[-78.038444,0.521268],[-78.038164,0.519603],[-78.039518,0.51748],[-78.041942,0.517675],[-78.043479,0.516092],[-78.04674,0.515053],[-78.047531,0.512009],[-78.049383,0.509524],[-78.051831,0.504507],[-78.052574,0.501191],[-78.051571,0.497598],[-78.054263,0.494002],[-78.05775,0.492586],[-78.061386,0.487868],[-78.063486,0.486381],[-78.067406,0.481182],[-78.069956,0.479738],[-78.073603,0.475289],[-78.071309,0.474387],[-78.068671,0.474658],[-78.062834,0.473801],[-78.061677,0.475105],[-78.058806,0.474025],[-78.053929,0.475055],[-78.051441,0.473205],[-78.049315,0.472941],[-78.04746,0.47126],[-78.037687,0.473247],[-78.034936,0.472796],[-78.032281,0.473682],[-78.029571,0.472405],[-78.028525,0.47304],[-78.024222,0.471327],[-78.020852,0.471008],[-78.01894,0.47205],[-78.015631,0.471611],[-78.014736,0.473516],[-78.011439,0.471825],[-78.009197,0.471417],[-78.006857,0.469337],[-78.002831,0.468601],[-78.002072,0.465541],[-77.999395,0.462125],[-77.998453,0.459623],[-77.99639,0.457995],[-77.996028,0.455648],[-77.994169,0.45028],[-77.989111,0.446518],[-77.987186,0.444486],[-77.985539,0.444914],[-77.983586,0.443474],[-77.978265,0.442868],[-77.975401,0.44119],[-77.973134,0.441359],[-77.968964,0.436137],[-77.9666,0.436209],[-77.963885,0.435308],[-77.962612,0.433345],[-77.960471,0.432171],[-77.952981,0.434089],[-77.950779,0.43387],[-77.949314,0.432616],[-77.945678,0.431201],[-77.942134,0.426803],[-77.940448,0.426416],[-77.937187,0.423114],[-77.936072,0.420673],[-77.932246,0.417348],[-77.929823,0.413863],[-77.930371,0.411305],[-77.92935,0.407537],[-77.927189,0.405479],[-77.92493,0.404794],[-77.923703,0.401279],[-77.92199,0.400763],[-77.917205,0.401239],[-77.913418,0.398769],[-77.909501,0.397887],[-77.907333,0.398606],[-77.902689,0.39408],[-77.898331,0.391908],[-77.897065,0.390259],[-77.890932,0.388713],[-77.888953,0.388999],[-77.886971,0.387215],[-77.881545,0.386454],[-77.880055,0.385712],[-77.879609,0.383259],[-77.876028,0.382743],[-77.873185,0.380027],[-77.871333,0.381339],[-77.867032,0.381757],[-77.863147,0.379768],[-77.863041,0.375983],[-77.859854,0.371094],[-77.855179,0.367279],[-77.853938,0.365722],[-77.847567,0.36182],[-77.839428,0.358093],[-77.837795,0.356616],[-77.832915,0.359335],[-77.825271,0.360361],[-77.821935,0.362252],[-77.817342,0.36409],[-77.813589,0.362198],[-77.812719,0.356768],[-77.807181,0.363293],[-77.801353,0.366702],[-77.797003,0.368306],[-77.79803,0.374071],[-77.798087,0.378157],[-77.795574,0.381418],[-77.797374,0.385352],[-77.800359,0.389352],[-77.801009,0.39357],[-77.803312,0.39916],[-77.807536,0.400617],[-77.808907,0.401936],[-77.813067,0.403411],[-77.813066,0.405746],[-77.811673,0.410037],[-77.807281,0.414202],[-77.804739,0.419812],[-77.804593,0.422526],[-77.807201,0.425797],[-77.807004,0.426948]]]}},
{"type":"Feature","id":"ECU:ADM2:EC-C.espejo","properties":{"shapeName":"Espejo","shapeISO":"","shapeGroup":"ECU","shapeType":"ADM2","adm1ISO":"EC-C","parentISO":"EC-C","parentID":"ECU:ADM1:EC-C","src_shape_id":"8360857B16708852637049"},"geometry":{"type":"Polygon","coordinates":[[[-77.918273,0.58854],[-77.91618,0.594423],[-77.916447,0.595949],[-77.914405,0.602728],[-77.914439,0.605453],[-77.910021,0.610125],[-77.903072,0.615409],[-77.900612,0.615653],[-77.895393,0.618442],[-77.893686,0.619954],[-77.891251,0.624437],[-77.88896,0.630301],[-77.893248,0.632537],[-77.893057,0.634792],[-77.888282,0.638876],[-77.885482,0.642341],[-77.885016,0.647224],[-77.884023,0.651396],[-77.88182,0.655358],[-77.881717,0.658137],[-77.880082,0.664068],[-77.880703,0.666032],[-77.879745,0.67021],[-77.880558,0.673387],[-77.878325,0.677239],[-77.88075,0.68063],[-77.886246,0.685157],[-77.889255,0.686841],[-77.890121,0.688656],[-77.890439,0.694121],[-77.89027,0.712693],[-77.888286,0.718007],[-77.888664,0.724356],[-77.889239,0.726464],[-77.892914,0.73389],[-77.896184,0.739497],[-77.900101,0.740925],[-77.912435,0.741755],[-77.924151,0.742913],[-77.939188,0.743665],[-77.941502,0.744086],[-77.943078,0.742854],[-77.946059,0.74226],[-77.953138,0.742729],[-77.954423,0.743604],[-77.95364,0.746052],[-77.957016,0.750435],[-77.962615,0.753995],[-77.965365,0.753012],[-77.967438,0.753648],[-77.974798,0.752994],[-77.979727,0.751057],[-77.981439,0.748459],[-77.984205,0.746397],[-77.989048,0.748818],[-77.991633,0.748939],[-77.99479,0.747482],[-77.994662,0.745722],[-77.997551,0.744275],[-78.002412,0.744378],[-78.005231,0.747086],[-78.014152,0.743622],[-78.019153,0.746368],[-78.020842,0.748153],[-78.023369,0.749143],[-78.028416,0.756553],[-78.032434,0.759202],[-78.037509,0.761265],[-78.042496,0.762592],[-78.04826,0.768205],[-78.051245,0.76987],[-78.058428,0.775345],[-78.063197,0.778247],[-78.065338,0.781715],[-78.065512,0.786545],[-78.064894,0.788938],[-78.066424,0.791531],[-78.067502,0.79581],[-78.065781,0.799544],[-78.066152,0.802548],[-78.065104,0.804436],[-78.062206,0.80573],[-78.061996,0.808405],[-78.06378,0.809887],[-78.066287,0.814062],[-78.064829,0.817087],[-78.066114,0.818504],[-78.065696,0.821652],[-78.063579,0.823535],[-78.063609,0.825941],[-78.066537,0.830228],[-78.066334,0.831787],[-78.068322,0.834146],[-78.07079,0.834667],[-78.075135,0.837141],[-78.077561,0.836494],[-78.079058,0.837154],[-78.087747,0.83228],[-78.092479,0.831684],[-78.100047,0.829744],[-78.104872,0.830445],[-78.105612,0.832568],[-78.107662,0.835171],[-78.109017,0.839351],[-78.107485,0.843146],[-78.108309,0.846713],[-78.110481,0.851162],[-78.114222,0.854014],[-78.116223,0.858309],[-78.119109,0.860358],[-78.126719,0.860278],[-78.128544,0.859533],[-78.133419,0.859158],[-78.134187,0.857347],[-78.137614,0.853819],[-78.139055,0.850381],[-78.141491,0.849738],[-78.146689,0.847047],[-78.149085,0.84351],[-78.152486,0.841831],[-78.155846,0.839072],[-78.161574,0.837679],[-78.165375,0.835397],[-78.170096,0.8344],[-78.178561,0.833365],[-78.18004,0.832998],[-78.185197,0.829975],[-78.18682,0.826313],[-78.188486,0.824868],[-78.191433,0.820753],[-78.193531,0.816091],[-78.195662,0.813634],[-78.197736,0.812854],[-78.200266,0.813789],[-78.204141,0.812894],[-78.208992,0.810758],[-78.211151,0.810349],[-78.215016,0.808289],[-78.216039,0.805632],[-78.21851,0.802188],[-78.218983,0.799771],[-78.218349,0.797437],[-78.214798,0.794476],[-78.217368,0.789093],[-78.217893,0.785808],[-78.219323,0.783673],[-78.218086,0.779623],[-78.21837,0.777347],[-78.219939,0.774803],[-78.22224,0.773036],[-78.22278,0.771493],[-78.216453,0.766461],[-78.2134,0.761643],[-78.203917,0.749755],[-78.195049,0.738058],[-78.191179,0.733255],[-78.172167,0.708885],[-78.1698,0.707567],[-78.167844,0.708131],[-78.164647,0.706268],[-78.161716,0.703411],[-78.158772,0.701964],[-78.155682,0.70202],[-78.150525,0.704235],[-78.146909,0.703616],[-78.139594,0.700468],[-78.136409,0.700992],[-78.133656,0.699474],[-78.131715,0.69708],[-78.127282,0.694805],[-78.126788,0.692861],[-78.124259,0.6899],[-78.119575,0.687019],[-78.115995,0.68578],[-78.110494,0.685469],[-78.106446,0.684498],[-78.104192,0.683029],[-78.097651,0.687016],[-78.090236,0.689189],[-78.085517,0.689358],[-78.083917,0.688683],[-78.081907,0.68505],[-78.08068,0.684303],[-78.07579,0.683619],[-78.07073,0.684631],[-78.068075,0.686173],[-78.063959,0.69105],[-78.060419,0.692647],[-78.060089,0.697139],[-78.061264,0.699719],[-78.066442,0.703557],[-78.068802,0.708636],[-78.065835,0.717769],[-78.063799,0.719992],[-78.05988,0.725446],[-78.060291,0.727578],[-78.058383,0.733028],[-78.058102,0.735419],[-78.055355,0.73694],[-78.05289,0.73103],[-78.049635,0.726811],[-78.048279,0.723358],[-78.047863,0.719667],[-78.046449,0.717629],[-78.046109,0.715028],[-78.047243,0.709435],[-78.04564,0.705924],[-78.044405,0.70491],[-78.04303,0.701323],[-78.04308,0.698636],[-78.042034,0.693752],[-78.040327,0.689714],[-78.041554,0.685714],[-78.041376,0.682529],[-78.0387,0.678884],[-78.037889,0.676393],[-78.038227,0.670601],[-78.040751,0.667304],[-78.041423,0.664789],[-78.043571,0.664182],[-78.04504,0.660644],[-78.044857,0.658972],[-78.04675,0.657933],[-78.048441,0.655696],[-78.048764,0.653852],[-78.051059,0.651566],[-78.052366,0.647363],[-78.050891,0.64226],[-78.05349,0.638945],[-78.053444,0.632732],[-78.048727,0.634941],[-78.044244,0.640651],[-78.040286,0.642265],[-78.035978,0.643426],[-78.024059,0.636444],[-78.021624,0.636021],[-78.019501,0.63663],[-78.014472,0.633739],[-78.014787,0.631402],[-78.011943,0.627623],[-78.010038,0.626265],[-78.007279,0.625761],[-78.00578,0.624497],[-78.005843,0.62109],[-78.006672,0.619135],[-78.009428,0.617854],[-78.017487,0.610268],[-78.018161,0.605805],[-78.019008,0.604104],[-78.022203,0.601538],[-78.023548,0.596836],[-78.02385,0.593187],[-78.022591,0.588221],[-78.023466,0.58663],[-78.024514,0.58183],[-78.027984,0.575242],[-78.030955,0.571838],[-78.030477,0.565787],[-78.030669,0.562667],[-78.031516,0.561297],[-78.031755,0.556517],[-78.030059,0.556644],[-78.028223,0.558522],[-78.026617,0.557978],[-78.022892,0.558428],[-78.020636,0.560874],[-78.017401,0.565632],[-78.002161,0.565586],[-78.000196,0.565812],[-77.98636,0.565806],[-77.983227,0.568148],[-77.982436,0.570931],[-77.98282,0.576483],[-77.980095,0.577984],[-77.977615,0.575298],[-77.976352,0.572372],[-77.973196,0.572412],[-77.967963,0.571762],[-77.967109,0.572963],[-77.963357,0.574462],[-77.953593,0.570713],[-77.950344,0.571535],[-77.949314,0.572606],[-77.943667,0.575469],[-77.937389,0.576814],[-77.93523,0.575641],[-77.930867,0.577455],[-77.92658,0.577756],[-77.922725,0.579079],[-77.919706,0.580885],[-77.917731,0.583439],[-77.918941,0.586135],[-77.918273,0.58854]]]}},
{"type":"Feature","id":"ECU:ADM2:EC-C.mira","properties":{"shapeName":"Mira","shapeISO":"","shapeGroup":"ECU","shapeType":"ADM2","adm1ISO":"EC-C","parentISO":"EC-C","parentID":"ECU:ADM1:EC-C","src_shape_id":"8360857B23467138047954"},"geometry":{"type":"Polygon","coordinates":[[[-77.98636,0.565806],[-78.000196,0.565812],[-78.002161,0.565586],[-78.017401,0.565632],[-78.020636,0.560874],[-78.022892,0.558428],[-78.026617,0.557978],[-78.028223,0.558522],[-78.030059,0.556644],[-78.031755,0.556517],[-78.031516,0.561297],[-78.030669,0.562667],[-78.030477,0.565787],[-78.030955,0.571838],[-78.027984,0.575242],[-78.024514,0.58183],[-78.023466,0.58663],[-78.022591,0.588221],[-78.02385,0.593187],[-78.023548,0.596836],[-78.022203,0.601538],[-78.019008,0.604104],[-78.018161,0.605805],[-78.017487,0.610268],[-78.009428,0.617854],[-78.006672,0.619135],[-78.005843,0.62109],[-78.00578,0.624497],[-78.007279,0.625761],[-78.010038,0.626265],[-78.011943,0.627623],[-78.014787,0.631402],[-78.014472,0.633739],[-78.019501,0.63663],[-78.021624,0.636021],[-78.024059,0.636444],[-78.035978,0.643426],[-78.040286,0.642265],[-78.044244,0.640651],[-78.048727,0.634941],[-78.053444,0.632732],[-78.05349,0.638945],[-78.050891,0.64226],[-78.052366,0.647363],[-78.051059,0.651566],[-78.048764,0.653852],[-78.048441,0.655696],[-78.04675,0.657933],[-78.044857,0.658972],[-78.04504,0.660644],[-78.043571,0.664182],[-78.041423,0.664789],[-78.040751,0.667304],[-78.038227,0.670601],[-78.037889,0.676393],[-78.0387,0.678884],[-78.041376,0.682529],[-78.041554,0.685714],[-78.040327,0.689714],[-78.042034,0.693752],[-78.04308,0.698636],[-78.04303,0.701323],[-78.044405,0.70491],[-78.04564,0.705924],[-78.047243,0.709435],[-78.046109,0.715028],[-78.046449,0.717629],[-78.047863,0.719667],[-78.048279,0.723358],[-78.049635,0.726811],[-78.05289,0.73103],[-78.055355,0.73694],[-78.058102,0.735419],[-78.058383,0.733028],[-78.060291,0.727578],[-78.05988,0.725446],[-78.063799,0.719992],[-78.065835,0.717769],[-78.068802,0.708636],[-78.066442,0.703557],[-78.061264,0.699719],[-78.060089,0.697139],[-78.060419,0.692647],[-78.063959,0.69105],[-78.068075,0.686173],[-78.07073,0.684631],[-78.07579,0.683619],[-78.08068,0.684303],[-78.081907,0.68505],[-78.083917,0.688683],[-78.085517,0.689358],[-78.090236,0.689189],[-78.097651,0.687016],[-78.104192,0.683029],[-78.106446,0.684498],[-78.110494,0.685469],[-78.115995,0.68578],[-78.119575,0.687019],[-78.124259,0.6899],[-78.126788,0.692861],[-78.127282,0.694805],[-78.131715,0.69708],[-78.133656,0.699474],[-78.136409,0.700992],[-78.139594,0.700468],[-78.146909,0.703616],[-78.150525,0.704235],[-78.155682,0.70202],[-78.158772,0.701964],[-78.161716,0.703411],[-78.164647,0.706268],[-78.167844,0.708131],[-78.1698,0.707567],[-78.172167,0.708885],[-78.191179,0.733255],[-78.195049,0.738058],[-78.203917,0.749755],[-78.2134,0.761643],[-78.216453,0.766461],[-78.22278,0.771493],[-78.22224,0.773036],[-78.219939,0.774803],[-78.21837,0.777347],[-78.218086,0.779623],[-78.219323,0.783673],[-78.217893,0.785808],[-78.217368,0.789093],[-78.214798,0.794476],[-78.218349,0.797437],[-78.218983,0.799771],[-78.21851,0.802188],[-78.216039,0.805632],[-78.215016,0.808289],[-78.211151,0.810349],[-78.208992,0.810758],[-78.204141,0.812894],[-78.200266,0.813789],[-78.197736,0.812854],[-78.195662,0.813634],[-78.193531,0.816091],[-78.191433,0.820753],[-78.188486,0.824868],[-78.18682,0.826313],[-78.185197,0.829975],[-78.18004,0.832998],[-78.178561,0.833365],[-78.179183,0.83498],[-78.183663,0.838619],[-78.186765,0.84252],[-78.189269,0.842571],[-78.195254,0.839313],[-78.201767,0.838034],[-78.203394,0.84088],[-78.207623,0.84444],[-78.212622,0.845409],[-78.217549,0.843794],[-78.226425,0.836244],[-78.230138,0.839402],[-78.232972,0.840868],[-78.235065,0.843062],[-78.236803,0.84604],[-78.239141,0.852552],[-78.244654,0.861371],[-78.248151,0.865014],[-78.259383,0.865482],[-78.263198,0.866313],[-78.270053,0.865512],[-78.274429,0.863161],[-78.276024,0.861426],[-78.285047,0.862924],[-78.29186,0.865761],[-78.294705,0.867881],[-78.295395,0.871815],[-78.294551,0.873476],[-78.295886,0.878145],[-78.297681,0.881336],[-78.299814,0.882635],[-78.305191,0.883734],[-78.308359,0.885842],[-78.312796,0.886484],[-78.314312,0.888373],[-78.316587,0.889262],[-78.320391,0.889669],[-78.325272,0.89109],[-78.329255,0.889538],[-78.330954,0.892357],[-78.328955,0.895663],[-78.328594,0.898471],[-78.333314,0.902527],[-78.336082,0.902656],[-78.337836,0.901786],[-78.341478,0.902941],[-78.347125,0.900676],[-78.350265,0.901328],[-78.351599,0.908124],[-78.352886,0.910507],[-78.352383,0.915665],[-78.354265,0.918049],[-78.354966,0.92246],[-78.357037,0.92693],[-78.356476,0.928665],[-78.357053,0.933931],[-78.358488,0.936506],[-78.358454,0.93943],[-78.360131,0.944463],[-78.362135,0.948676],[-78.366136,0.953284],[-78.370356,0.955762],[-78.373964,0.955279],[-78.376182,0.956706],[-78.379774,0.957964],[-78.385022,0.958002],[-78.38739,0.955849],[-78.388262,0.953807],[-78.393132,0.948076],[-78.404308,0.941451],[-78.405373,0.938113],[-78.408379,0.937084],[-78.408915,0.935385],[-78.407205,0.933068],[-78.408729,0.931294],[-78.410182,0.932341],[-78.412997,0.932238],[-78.413303,0.930194],[-78.415051,0.929501],[-78.414815,0.926481],[-78.418599,0.926349],[-78.422724,0.924791],[-78.424038,0.925543],[-78.430459,0.923355],[-78.433698,0.920128],[-78.429903,0.915347],[-78.428185,0.914464],[-78.427606,0.912189],[-78.428734,0.909526],[-78.4307,0.908279],[-78.431237,0.906305],[-78.433502,0.906092],[-78.433955,0.902863],[-78.435336,0.900378],[-78.4352,0.896574],[-78.434346,0.894798],[-78.435041,0.893149],[-78.438417,0.893254],[-78.439992,0.891911],[-78.444581,0.892976],[-78.449261,0.891177],[-78.448869,0.888883],[-78.450728,0.885756],[-78.454985,0.8862],[-78.456022,0.885186],[-78.460115,0.884545],[-78.459953,0.883589],[-78.458595,0.879903],[-78.4548,0.879528],[-78.453019,0.878062],[-78.453598,0.875927],[-78.450859,0.874438],[-78.448785,0.875378],[-78.443721,0.874754],[-78.441517,0.873993],[-78.440636,0.871683],[-78.43795,0.874032],[-78.435393,0.87197],[-78.436722,0.869762],[-78.432653,0.869333],[-78.431777,0.868586],[-78.431698,0.86472],[-78.428149,0.863317],[-78.42817,0.861418],[-78.426792,0.859409],[-78.423812,0.857713],[-78.422085,0.855822],[-78.423289,0.853224],[-78.41853,0.852775],[-78.417747,0.851296],[-78.418818,0.848476],[-78.417504,0.847271],[-78.415668,0.848576],[-78.412972,0.846552],[-78.409343,0.845188],[-78.411017,0.842956],[-78.406461,0.838815],[-78.404825,0.840768],[-78.400647,0.837049],[-78.395537,0.83321],[-78.392517,0.831934],[-78.39178,0.828848],[-78.38842,0.828291],[-78.387172,0.825436],[-78.384872,0.826598],[-78.3819,0.829234],[-78.373784,0.825529],[-78.371879,0.827401],[-78.364218,0.825536],[-78.36416,0.823547],[-78.36095,0.822433],[-78.362569,0.820462],[-78.359785,0.818302],[-78.35702,0.819046],[-78.354856,0.818157],[-78.352934,0.815292],[-78.348304,0.818214],[-78.345659,0.816921],[-78.342922,0.823274],[-78.339617,0.823377],[-78.33919,0.821429],[-78.336334,0.822501],[-78.334016,0.822176],[-78.332979,0.820601],[-78.330723,0.821935],[-78.325767,0.819077],[-78.32421,0.816205],[-78.320811,0.815625],[-78.320624,0.813741],[-78.317734,0.811934],[-78.318401,0.810464],[-78.314937,0.80672],[-78.313306,0.804252],[-78.311042,0.804989],[-78.309419,0.801915],[-78.308459,0.798198],[-78.304311,0.797099],[-78.302886,0.792548],[-78.3007,0.792997],[-78.298192,0.794662],[-78.294004,0.794395],[-78.289511,0.791751],[-78.287412,0.792773],[-78.285227,0.788539],[-78.28202,0.788513],[-78.282495,0.786143],[-78.278742,0.783991],[-78.276156,0.783329],[-78.274482,0.785029],[-78.271287,0.784274],[-78.26668,0.779473],[-78.266663,0.777306],[-78.26516,0.771948],[-78.267822,0.770159],[-78.267637,0.767857],[-78.265159,0.767323],[-78.264135,0.765183],[-78.261753,0.763619],[-78.260368,0.761667],[-78.256475,0.761966],[-78.253578,0.757529],[-78.252752,0.753865],[-78.250882,0.750858],[-78.248086,0.750171],[-78.246359,0.747151],[-78.240726,0.744346],[-78.23672,0.745405],[-78.233407,0.744183],[-78.230811,0.740802],[-78.230448,0.738225],[-78.226966,0.736213],[-78.225447,0.733604],[-78.220875,0.731208],[-78.219081,0.730882],[-78.219056,0.727877],[-78.216929,0.728195],[-78.214347,0.723933],[-78.211633,0.724064],[-78.21061,0.719475],[-78.204344,0.718009],[-78.203303,0.715844],[-78.205565,0.713681],[-78.204411,0.707361],[-78.204149,0.703389],[-78.200996,0.701907],[-78.201177,0.695317],[-78.200123,0.691442],[-78.198396,0.690744],[-78.197249,0.688641],[-78.197631,0.68606],[-78.193607,0.684354],[-78.19094,0.681686],[-78.187472,0.669446],[-78.18565,0.668738],[-78.182838,0.666158],[-78.177426,0.663757],[-78.17355,0.663663],[-78.171866,0.661002],[-78.170261,0.660921],[-78.166769,0.657891],[-78.166856,0.655272],[-78.165879,0.652999],[-78.163052,0.650369],[-78.16028,0.643425],[-78.160116,0.640182],[-78.15773,0.637468],[-78.154321,0.631787],[-78.153813,0.628791],[-78.152133,0.625689],[-78.145762,0.626949],[-78.140414,0.625031],[-78.138515,0.62299],[-78.138577,0.621682],[-78.136454,0.619549],[-78.135502,0.615736],[-78.133136,0.615034],[-78.132901,0.610489],[-78.138141,0.605192],[-78.138795,0.60213],[-78.138168,0.597511],[-78.137032,0.595313],[-78.139315,0.593864],[-78.141804,0.590539],[-78.139428,0.582777],[-78.136833,0.579653],[-78.133347,0.579506],[-78.131265,0.578464],[-78.128208,0.575609],[-78.127225,0.573146],[-78.125327,0.570808],[-78.124947,0.565416],[-78.125664,0.559996],[-78.127623,0.554907],[-78.129985,0.552853],[-78.130581,0.549094],[-78.129305,0.547134],[-78.130449,0.545776],[-78.129771,0.542262],[-78.127886,0.542189],[-78.126971,0.540488],[-78.127602,0.534528],[-78.129261,0.530528],[-78.127872,0.529128],[-78.127389,0.526599],[-78.123147,0.525384],[-78.122901,0.523549],[-78.119782,0.521433],[-78.116137,0.522333],[-78.111957,0.520787],[-78.112588,0.515739],[-78.111116,0.513437],[-78.111231,0.510463],[-78.107979,0.506864],[-78.105242,0.50252],[-78.105467,0.500063],[-78.104049,0.498791],[-78.104527,0.495575],[-78.100905,0.492423],[-78.09935,0.489368],[-78.097333,0.490881],[-78.09693,0.485855],[-78.096129,0.48426],[-78.092664,0.481051],[-78.086649,0.478891],[-78.076434,0.4777],[-78.073603,0.475289],[-78.069956,0.479738],[-78.067406,0.481182],[-78.063486,0.486381],[-78.061386,0.487868],[-78.05775,0.492586],[-78.054263,0.494002],[-78.051571,0.497598],[-78.052574,0.501191],[-78.051831,0.504507],[-78.049383,0.509524],[-78.047531,0.512009],[-78.04674,0.515053],[-78.043479,0.516092],[-78.041942,0.517675],[-78.039518,0.51748],[-78.038164,0.519603],[-78.038444,0.521268],[-78.035916,0.525004],[-78.033434,0.526083],[-78.030506,0.52465],[-78.026241,0.524981],[-78.023338,0.527503],[-78.020739,0.532529],[-78.017969,0.536893],[-78.014643,0.538564],[-78.013216,0.54319],[-78.012183,0.543568],[-78.010392,0.548359],[-78.01034,0.550386],[-78.006569,0.551968],[-78.005564,0.553546],[-78.003192,0.554329],[-78.000796,0.556257],[-77.999038,0.556393],[-77.995948,0.559284],[-77.990368,0.560905],[-77.990086,0.563847],[-77.98636,0.565806]]]}},
{"type":"Feature","id":"ECU:ADM2:EC-C.montufar","properties":{"shapeName":"Montufar","shapeISO":"","shapeGroup":"ECU","shapeType":"ADM2","adm1ISO":"EC-C","parentISO":"EC-C","parentID":"ECU:ADM1:EC-C","src_shape_id":"8360857B57734122630891"},"geometry":{"type":"Polygon","coordinates":[[[-77.807004,0.426948],[-77.804668,0.428985],[-77.801305,0.430704],[-77.797887,0.431479],[-77.794484,0.434741],[-77.793942,0.436513],[-77.79473,0.441148],[-77.792363,0.445707],[-77.78709,0.447492],[-77.784041,0.451999],[-77.781513,0.453961],[-77.7823,0.458229],[-77.780443,0.460659],[-77.776716,0.46193],[-77.771752,0.46491],[-77.77422,0.466978],[-77.773638,0.470467],[-77.771072,0.473495],[-77.76577,0.476283],[-77.760363,0.480326],[-77.75864,0.483827],[-77.756915,0.485748],[-77.753765,0.491835],[-77.755937,0.495263],[-77.75081,0.506131],[-77.746891,0.50765],[-77.740985,0.51312],[-77.74056,0.514613],[-77.737816,0.517739],[-77.735806,0.521424],[-77.731115,0.523956],[-77.729519,0.52648],[-77.727863,0.534079],[-77.726207,0.534961],[-77.721989,0.53269],[-77.719799,0.532689],[-77.716325,0.536517],[-77.714286,0.54124],[-77.710092,0.547892],[-77.706875,0.54991],[-77.699997,0.552936],[-77.696013,0.553766],[-77.692051,0.555371],[-77.689284,0.555634],[-77.686568,0.557355],[-77.683508,0.560415],[-77.679159,0.561124],[-77.678096,0.562519],[-77.675228,0.568615],[-77.673458,0.571102],[-77.672305,0.574725],[-77.67234,0.578124],[-77.668416,0.583178],[-77.663513,0.59445],[-77.666876,0.594116],[-77.667694,0.592792],[-77.672932,0.589638],[-77.677252,0.584814],[-77.680607,0.583462],[-77.688209,0.576257],[-77.691546,0.571399],[-77.702112,0.566454],[-77.706514,0.568169],[-77.710536,0.568331],[-77.714334,0.569494],[-77.716191,0.571736],[-77.718573,0.570488],[-77.719045,0.567985],[-77.724194,0.56883],[-77.726011,0.567519],[-77.731164,0.569595],[-77.731225,0.573262],[-77.732928,0.57559],[-77.733422,0.577985],[-77.736674,0.579849],[-77.73664,0.581626],[-77.742009,0.584905],[-77.742206,0.58744],[-77.743768,0.588253],[-77.746439,0.586531],[-77.74548,0.591393],[-77.742638,0.591945],[-77.737075,0.593997],[-77.737091,0.596892],[-77.740045,0.604505],[-77.743158,0.606355],[-77.746229,0.607214],[-77.748158,0.60625],[-77.755634,0.604071],[-77.758267,0.604729],[-77.760778,0.603448],[-77.762695,0.599805],[-77.765212,0.59845],[-77.765984,0.603973],[-77.767852,0.604339],[-77.76983,0.607722],[-77.770015,0.609863],[-77.773668,0.616824],[-77.775127,0.618627],[-77.779947,0.619457],[-77.782053,0.620326],[-77.789632,0.626553],[-77.792081,0.629395],[-77.792413,0.631474],[-77.791401,0.636598],[-77.791492,0.63976],[-77.789696,0.644692],[-77.787892,0.647182],[-77.788338,0.648443],[-77.79108,0.650731],[-77.794345,0.65124],[-77.796366,0.656088],[-77.796147,0.657844],[-77.79798,0.660327],[-77.800525,0.662209],[-77.800856,0.667028],[-77.799142,0.676081],[-77.799477,0.680158],[-77.801816,0.682295],[-77.805581,0.684414],[-77.807006,0.686182],[-77.807449,0.688553],[-77.807346,0.693278],[-77.809051,0.69602],[-77.811283,0.701199],[-77.813567,0.702899],[-77.820331,0.706363],[-77.820615,0.709327],[-77.823468,0.709751],[-77.828028,0.706617],[-77.829524,0.706681],[-77.832152,0.703815],[-77.833179,0.701171],[-77.837123,0.700431],[-77.841857,0.701848],[-77.84306,0.700924],[-77.844242,0.697032],[-77.849048,0.694794],[-77.850414,0.690754],[-77.849901,0.687669],[-77.851248,0.685165],[-77.853633,0.685736],[-77.855451,0.68792],[-77.860938,0.686728],[-77.863516,0.687655],[-77.864826,0.685746],[-77.866885,0.684723],[-77.867717,0.681628],[-77.868836,0.681411],[-77.871514,0.677734],[-77.876546,0.67701],[-77.878325,0.677239],[-77.880558,0.673387],[-77.879745,0.67021],[-77.880703,0.666032],[-77.880082,0.664068],[-77.881717,0.658137],[-77.88182,0.655358],[-77.884023,0.651396],[-77.885016,0.647224],[-77.885482,0.642341],[-77.888282,0.638876],[-77.893057,0.634792],[-77.893248,0.632537],[-77.88896,0.630301],[-77.891251,0.624437],[-77.893686,0.619954],[-77.895393,0.618442],[-77.900612,0.615653],[-77.903072,0.615409],[-77.910021,0.610125],[-77.914439,0.605453],[-77.914405,0.602728],[-77.916447,0.595949],[-77.91618,0.594423],[-77.918273,0.58854],[-77.916924,0.586643],[-77.914174,0.584687],[-77.913186,0.582839],[-77.909473,0.579578],[-77.904822,0.577803],[-77.903429,0.576022],[-77.899654,0.574672],[-77.897961,0.571805],[-77.893042,0.567838],[-77.891016,0.567768],[-77.885403,0.563214],[-77.885225,0.558618],[-77.884407,0.555854],[-77.885657,0.550437],[-77.883942,0.543412],[-77.881289,0.540777],[-77.879667,0.537944],[-77.878739,0.533927],[-77.879855,0.531195],[-77.879077,0.528995],[-77.880258,0.527634],[-77.880322,0.523985],[-77.876089,0.519008],[-77.875694,0.515166],[-77.873438,0.512498],[-77.872798,0.507807],[-77.873446,0.506109],[-77.871868,0.501327],[-77.872921,0.498918],[-77.87307,0.495452],[-77.871763,0.493231],[-77.871863,0.489397],[-77.869888,0.482509],[-77.866465,0.482482],[-77.863512,0.486397],[-77.859741,0.487218],[-77.8595,0.489511],[-77.85748,0.492474],[-77.856357,0.492173],[-77.856252,0.488574],[-77.857226,0.48649],[-77.85787,0.481856],[-77.8607,0.478921],[-77.861469,0.476987],[-77.859707,0.473222],[-77.85906,0.470346],[-77.857246,0.472002],[-77.854574,0.472494],[-77.851968,0.4695],[-77.850136,0.468947],[-77.848152,0.46297],[-77.842427,0.459161],[-77.84098,0.455347],[-77.835999,0.452038],[-77.831765,0.451097],[-77.828608,0.449638],[-77.825092,0.44441],[-77.822078,0.441715],[-77.820693,0.436409],[-77.818696,0.433056],[-77.816525,0.430623],[-77.81038,0.427626],[-77.807004,0.426948]]]}},
{"type":"Feature","id":"ECU:ADM2:EC-C.san-pedro-de-huaca","properties":{"shapeName":"San Pedro de Huaca","shapeISO":"","shapeGroup":"ECU","shapeType":"ADM2","adm1ISO":"EC-C","parentISO":"EC-C","parentID":"ECU:ADM1:EC-C","src_shape_id":"8360857B26572966022177"},"geometry":{"type":"Polygon","coordinates":[[[-77.663513,0.59445],[-77.659852,0.599915],[-77.656153,0.604137],[-77.668147,0.610821],[-77.671611,0.613661],[-77.673378,0.612704],[-77.676297,0.615406],[-77.680777,0.616213],[-77.6857,0.616005],[-77.687953,0.617948],[-77.689784,0.621392],[-77.689806,0.625268],[-77.687597,0.62817],[-77.687311,0.633069],[-77.686343,0.640736],[-77.682402,0.641943],[-77.680672,0.6435],[-77.685468,0.645633],[-77.685776,0.647486],[-77.688978,0.646432],[-77.693104,0.647507],[-77.69759,0.647991],[-77.699102,0.646502],[-77.701482,0.646988],[-77.707596,0.651339],[-77.709459,0.652009],[-77.711816,0.649458],[-77.719677,0.649017],[-77.731324,0.64937],[-77.732986,0.652211],[-77.736329,0.655367],[-77.736432,0.660168],[-77.735223,0.663144],[-77.735961,0.664899],[-77.739294,0.667549],[-77.742132,0.668168],[-77.747113,0.665547],[-77.750533,0.667731],[-77.753946,0.672725],[-77.757381,0.674964],[-77.758636,0.67382],[-77.760793,0.676667],[-77.763656,0.676971],[-77.761105,0.672492],[-77.760338,0.668393],[-77.759167,0.666564],[-77.755496,0.664324],[-77.749435,0.663343],[-77.748413,0.662686],[-77.750501,0.658521],[-77.749359,0.65382],[-77.749696,0.650489],[-77.747861,0.648537],[-77.747559,0.643798],[-77.746672,0.641696],[-77.747353,0.640139],[-77.746272,0.638174],[-77.746469,0.633522],[-77.747513,0.629285],[-77.749658,0.625154],[-77.752099,0.622858],[-77.753148,0.620155],[-77.752874,0.618217],[-77.756562,0.616291],[-77.761363,0.609642],[-77.764245,0.609428],[-77.767206,0.608063],[-77.767556,0.606124],[-77.765984,0.603973],[-77.765212,0.59845],[-77.762695,0.599805],[-77.760778,0.603448],[-77.758267,0.604729],[-77.755634,0.604071],[-77.748158,0.60625],[-77.746229,0.607214],[-77.743158,0.606355],[-77.740045,0.604505],[-77.737091,0.596892],[-77.737075,0.593997],[-77.742638,0.591945],[-77.74548,0.591393],[-77.746439,0.586531],[-77.743768,0.588253],[-77.742206,0.58744],[-77.742009,0.584905],[-77.73664,0.581626],[-77.736674,0.579849],[-77.733422,0.577985],[-77.732928,0.57559],[-77.731225,0.573262],[-77.731164,0.569595],[-77.726011,0.567519],[-77.724194,0.56883],[-77.719045,0.567985],[-77.718573,0.570488],[-77.716191,0.571736],[-77.714334,0.569494],[-77.710536,0.568331],[-77.706514,0.568169],[-77.702112,0.566454],[-77.691546,0.571399],[-77.688209,0.576257],[-77.680607,0.583462],[-77.677252,0.584814],[-77.672932,0.589638],[-77.667694,0.592792],[-77.666876,0.594116],[-77.663513,0.59445]]]}},
{"type":"Feature","id":"ECU:ADM2:EC-C.tulcan","properties":{"shapeName":"Tulcan","shapeISO":"","shapeGroup":"ECU","shapeType":"ADM2","adm1ISO":"EC-C","parentISO":"EC-C","parentID":"ECU:ADM1:EC-C","src_shape_id":"8360857B85617002422218"},"geometry":{"type":"Polygon","coordinates":[[[-77.878325,0.677239],[-77.876546,0.67701],[-77.871514,0.677734],[-77.868836,0.681411],[-77.867717,0.681628],[-77.866885,0.684723],[-77.864826,0.685746],[-77.863516,0.687655],[-77.860938,0.686728],[-77.855451,0.68792],[-77.853633,0.685736],[-77.851248,0.685165],[-77.849901,0.687669],[-77.850414,0.690754],[-77.849048,0.694794],[-77.844242,0.697032],[-77.84306,0.700924],[-77.841857,0.701848],[-77.837123,0.700431],[-77.833179,0.701171],[-77.832152,0.703815],[-77.829524,0.706681],[-77.828028,0.706617],[-77.823468,0.709751],[-77.820615,0.709327],[-77.820331,0.706363],[-77.813567,0.702899],[-77.811283,0.701199],[-77.809051,0.69602],[-77.807346,0.693278],[-77.807449,0.688553],[-77.807006,0.686182],[-77.805581,0.684414],[-77.801816,0.682295],[-77.799477,0.680158],[-77.799142,0.676081],[-77.800856,0.667028],[-77.800525,0.662209],[-77.79798,0.660327],[-77.796147,0.657844],[-77.796366,0.656088],[-77.794345,0.65124],[-77.79108,0.650731],[-77.788338,0.648443],[-77.787892,0.647182],[-77.789696,0.644692],[-77.791492,0.63976],[-77.791401,0.636598],[-77.792413,0.631474],[-77.792081,0.629395],[-77.789632,0.626553],[-77.782053,0.620326],[-77.779947,0.619457],[-77.775127,0.618627],[-77.773668,0.616824],[-77.770015,0.609863],[-77.76983,0.607722],[-77.767852,0.604339],[-77.765984,0.603973],[-77.767556,0.606124],[-77.767206,0.608063],[-77.764245,0.609428],[-77.761363,0.609642],[-77.756562,0.616291],[-77.752874,0.618217],[-77.753148,0.620155],[-77.752099,0.622858],[-77.749658,0.625154],[-77.747513,0.629285],[-77.746469,0.633522],[-77.746272,0.638174],[-77.747353,0.640139],[-77.746672,0.641696],[-77.747559,0.643798],[-77.747861,0.648537],[-77.749696,0.650489],[-77.749359,0.65382],[-77.750501,0.658521],[-77.748413,0.662686],[-77.749435,0.663343],[-77.755496,0.664324],[-77.759167,0.666564],[-77.760338,0.668393],[-77.761105,0.672492],[-77.763656,0.676971],[-77.760793,0.676667],[-77.758636,0.67382],[-77.757381,0.674964],[-77.753946,0.672725],[-77.750533,0.667731],[-77.747113,0.665547],[-77.742132,0.668168],[-77.739294,0.667549],[-77.735961,0.664899],[-77.735223,0.663144],[-77.736432,0.660168],[-77.736329,0.655367],[-77.732986,0.652211],[-77.731324,0.64937],[-77.719677,0.649017],[-77.711816,0.649458],[-77.709459,0.652009],[-77.707596,0.651339],[-77.701482,0.646988],[-77.699102,0.646502],[-77.69759,0.647991],[-77.693104,0.647507],[-77.688978,0.646432],[-77.685776,0.647486],[-77.685468,0.645633],[-77.680672,0.6435],[-77.678025,0.644614],[-77.673643,0.647612],[-77.672727,0.649133],[-77.668196,0.644942],[-77.665966,0.645504],[-77.663512,0.647536],[-77.656426,0.647553],[-77.654611,0.646665],[-77.65214,0.64394],[-77.64921,0.64324],[-77.648346,0.641928],[-77.644324,0.640079],[-77.63962,0.636605],[-77.637187,0.636046],[-77.63157,0.639096],[-77.621845,0.640914],[-77.616111,0.641693],[-77.608253,0.637598],[-77.604386,0.635941],[-77.601763,0.636268],[-77.598516,0.640099],[-77.594002,0.640593],[-77.593614,0.639196],[-77.591378,0.638384],[-77.5855,0.638952],[-77.584004,0.636769],[-77.581841,0.636918],[-77.579871,0.638267],[-77.577595,0.638182],[-77.576128,0.635531],[-77.57356,0.637707],[-77.571295,0.635641],[-77.566463,0.634521],[-77.565606,0.63583],[-77.563224,0.635858],[-77.557024,0.640101],[-77.556372,0.641294],[-77.549894,0.641581],[-77.544271,0.642829],[-77.539912,0.644653],[-77.538876,0.647098],[-77.53748,0.647954],[-77.534387,0.647763],[-77.531625,0.64886],[-77.531867,0.652364],[-77.535564,0.652863],[-77.543776,0.650053],[-77.549975,0.650379],[-77.5584,0.649338],[-77.563543,0.650742],[-77.567556,0.655371],[-77.567725,0.656608],[-77.570683,0.657274],[-77.573651,0.659252],[-77.578235,0.660379],[-77.581147,0.663831],[-77.581839,0.666843],[-77.584084,0.667018],[-77.585964,0.668715],[-77.58793,0.669231],[-77.588249,0.673015],[-77.591826,0.673349],[-77.59563,0.673001],[-77.598182,0.675342],[-77.601384,0.675503],[-77.604625,0.678277],[-77.606844,0.68152],[-77.607538,0.685882],[-77.609831,0.687025],[-77.610931,0.68902],[-77.612439,0.689341],[-77.613896,0.68778],[-77.616199,0.688155],[-77.618011,0.69082],[-77.619761,0.691197],[-77.625342,0.695734],[-77.627839,0.695192],[-77.630113,0.695784],[-77.631391,0.697317],[-77.634939,0.698655],[-77.635998,0.698357],[-77.640111,0.70284],[-77.644608,0.703667],[-77.646062,0.703271],[-77.649275,0.704655],[-77.651211,0.703774],[-77.653622,0.706003],[-77.657126,0.705536],[-77.662774,0.705929],[-77.664721,0.707476],[-77.666002,0.710919],[-77.664914,0.71236],[-77.664917,0.715184],[-77.663897,0.717485],[-77.663596,0.721481],[-77.666715,0.725927],[-77.668332,0.726405],[-77.673009,0.729719],[-77.67293,0.734989],[-77.675889,0.736881],[-77.686011,0.739868],[-77.688699,0.739382],[-77.69119,0.740493],[-77.6964,0.740191],[-77.697936,0.741771],[-77.697423,0.745134],[-77.695994,0.750011],[-77.691733,0.751164],[-77.692042,0.757213],[-77.690081,0.763522],[-77.690544,0.76505],[-77.688202,0.769283],[-77.684335,0.771583],[-77.68263,0.775614],[-77.677907,0.777009],[-77.674771,0.779602],[-77.671877,0.779728],[-77.670171,0.781836],[-77.664779,0.784892],[-77.662991,0.788942],[-77.661619,0.789996],[-77.6765,0.790973],[-77.676255,0.794759],[-77.676926,0.796931],[-77.675008,0.798369],[-77.674581,0.801176],[-77.672856,0.801693],[-77.671612,0.803508],[-77.66874,0.803488],[-77.666265,0.808381],[-77.66466,0.809573],[-77.663705,0.811849],[-77.664152,0.814699],[-77.666462,0.817696],[-77.67002,0.818835],[-77.669781,0.821243],[-77.67314,0.823935],[-77.676146,0.824264],[-77.676678,0.822738],[-77.680716,0.824297],[-77.683616,0.826152],[-77.68465,0.828448],[-77.686228,0.828442],[-77.68719,0.83029],[-77.693389,0.832819],[-77.694261,0.836743],[-77.695658,0.837857],[-77.695112,0.840074],[-77.697592,0.840124],[-77.701766,0.8416],[-77.706862,0.843953],[-77.706247,0.845316],[-77.70864,0.846537],[-77.709207,0.848488],[-77.712628,0.849045],[-77.715142,0.850532],[-77.715697,0.84902],[-77.720848,0.849945],[-77.722854,0.846574],[-77.725723,0.847039],[-77.729081,0.842132],[-77.7341,0.839888],[-77.736903,0.836988],[-77.7413,0.836285],[-77.74377,0.833936],[-77.745265,0.834611],[-77.747012,0.833072],[-77.749588,0.834463],[-77.7512,0.836782],[-77.753718,0.836396],[-77.7619,0.839883],[-77.76434,0.841913],[-77.767887,0.838614],[-77.76901,0.840255],[-77.773385,0.839631],[-77.776789,0.837937],[-77.778698,0.835673],[-77.784445,0.833914],[-77.788398,0.835679],[-77.794675,0.834201],[-77.797192,0.833016],[-77.799016,0.830487],[-77.80251,0.831269],[-77.8044,0.830819],[-77.804547,0.827856],[-77.807149,0.826843],[-77.810832,0.822052],[-77.811763,0.819911],[-77.814135,0.81908],[-77.813085,0.816032],[-77.815227,0.815727],[-77.818146,0.811221],[-77.819717,0.807838],[-77.825803,0.806398],[-77.827954,0.806598],[-77.83413,0.805391],[-77.835334,0.804018],[-77.839793,0.804076],[-77.84239,0.802429],[-77.845394,0.803259],[-77.846806,0.802187],[-77.85068,0.803015],[-77.858653,0.801634],[-77.862324,0.802758],[-77.865187,0.801434],[-77.866984,0.801549],[-77.871468,0.804338],[-77.874035,0.805301],[-77.875658,0.804261],[-77.881427,0.807791],[-77.891329,0.810406],[-77.900329,0.811817],[-77.903798,0.81104],[-77.906097,0.812071],[-77.910807,0.810847],[-77.912276,0.811816],[-77.921804,0.813489],[-77.926136,0.816458],[-77.931739,0.817394],[-77.936134,0.816308],[-77.940094,0.820072],[-77.944213,0.821997],[-77.950373,0.822133],[-77.955188,0.823443],[-77.962845,0.823626],[-77.966111,0.824356],[-77.966962,0.830158],[-77.969246,0.832496],[-77.974383,0.833529],[-77.978465,0.839953],[-77.982246,0.844106],[-77.984029,0.84903],[-77.985068,0.853302],[-77.989745,0.856826],[-77.995173,0.857756],[-77.998916,0.860405],[-78.001663,0.858862],[-78.010186,0.864377],[-78.012356,0.866514],[-78.012709,0.869003],[-78.014513,0.868524],[-78.016049,0.870079],[-78.018404,0.869933],[-78.020104,0.871073],[-78.021159,0.873344],[-78.024845,0.874328],[-78.026716,0.87686],[-78.031127,0.878079],[-78.03415,0.880384],[-78.042255,0.880343],[-78.045635,0.881685],[-78.049379,0.884798],[-78.050355,0.887164],[-78.054341,0.888544],[-78.062042,0.888339],[-78.066321,0.889603],[-78.065739,0.893257],[-78.06725,0.895227],[-78.071535,0.897232],[-78.073777,0.895543],[-78.075926,0.897355],[-78.079111,0.89791],[-78.081974,0.897486],[-78.084959,0.896155],[-78.08928,0.897217],[-78.092441,0.901686],[-78.095482,0.902649],[-78.098979,0.905222],[-78.099738,0.908867],[-78.101986,0.909402],[-78.104831,0.91115],[-78.106081,0.913151],[-78.10664,0.917971],[-78.105853,0.920659],[-78.106213,0.923424],[-78.10745,0.925177],[-78.107263,0.927883],[-78.110155,0.929951],[-78.112015,0.932175],[-78.113659,0.931597],[-78.117436,0.934196],[-78.119242,0.933836],[-78.121226,0.935891],[-78.124596,0.936398],[-78.126436,0.935678],[-78.129501,0.936098],[-78.133585,0.935275],[-78.134771,0.935876],[-78.1398,0.933206],[-78.142923,0.931027],[-78.145541,0.926273],[-78.148794,0.92481],[-78.151413,0.925318],[-78.154105,0.924031],[-78.155967,0.92527],[-78.159047,0.925628],[-78.166187,0.931258],[-78.170357,0.933199],[-78.172879,0.933206],[-78.175115,0.934596],[-78.177251,0.936979],[-78.179465,0.936157],[-78.182433,0.937828],[-78.185848,0.938223],[-78.189639,0.942283],[-78.191277,0.942785],[-78.194527,0.945719],[-78.19626,0.944793],[-78.198089,0.949844],[-78.200083,0.949652],[-78.19923,0.953907],[-78.197541,0.954005],[-78.193847,0.957104],[-78.191233,0.960627],[-78.193718,0.967763],[-78.192172,0.96936],[-78.192715,0.97119],[-78.194561,0.972458],[-78.195267,0.975464],[-78.195417,0.980909],[-78.195103,0.984757],[-78.198104,0.986448],[-78.198889,0.989041],[-78.202597,0.991854],[-78.202112,0.99649],[-78.204339,0.997493],[-78.204467,0.99915],[-78.206403,1.002221],[-78.207807,1.00199],[-78.209216,1.004847],[-78.213936,1.004908],[-78.219168,1.009258],[-78.220621,1.008744],[-78.223229,1.011272],[-78.22837,1.013431],[-78.230479,1.012907],[-78.231796,1.014653],[-78.234142,1.015179],[-78.235607,1.017279],[-78.23802,1.018678],[-78.236966,1.020737],[-78.238273,1.022812],[-78.236699,1.02396],[-78.243503,1.029304],[-78.245056,1.028096],[-78.250777,1.028532],[-78.25306,1.033285],[-78.253704,1.036998],[-78.257732,1.037458],[-78.257902,1.040594],[-78.260702,1.040647],[-78.262692,1.042427],[-78.265036,1.042062],[-78.266878,1.043363],[-78.267393,1.046187],[-78.271214,1.047048],[-78.275,1.050676],[-78.275584,1.052836],[-78.28149,1.055428],[-78.282118,1.057422],[-78.279361,1.060192],[-78.276898,1.061787],[-78.276693,1.063202],[-78.278621,1.065269],[-78.279998,1.06848],[-78.278066,1.069714],[-78.278165,1.071533],[-78.275863,1.072658],[-78.27308,1.075339],[-78.271161,1.074984],[-78.268766,1.077229],[-78.267107,1.077432],[-78.263948,1.081046],[-78.261751,1.082538],[-78.25827,1.080553],[-78.255056,1.080354],[-78.253668,1.077889],[-78.251889,1.080303],[-78.251829,1.083385],[-78.25006,1.083703],[-78.250927,1.087676],[-78.253492,1.089152],[-78.255579,1.086792],[-78.256238,1.089979],[-78.253288,1.092625],[-78.252996,1.095308],[-78.251421,1.096914],[-78.251123,1.099483],[-78.252877,1.10154],[-78.254334,1.100305],[-78.25442,1.098297],[-78.258872,1.097168],[-78.262553,1.099832],[-78.26539,1.100526],[-78.266383,1.103433],[-78.267873,1.105049],[-78.262832,1.107582],[-78.263,1.109252],[-78.265198,1.111678],[-78.270699,1.112558],[-78.274267,1.114088],[-78.274622,1.111851],[-78.277136,1.108471],[-78.278839,1.110188],[-78.281984,1.111066],[-78.27989,1.11487],[-78.280926,1.116879],[-78.27982,1.120106],[-78.28336,1.120635],[-78.282355,1.12313],[-78.285038,1.122991],[-78.285616,1.124758],[-78.288606,1.126851],[-78.28763,1.128201],[-78.290891,1.133452],[-78.290414,1.136111],[-78.291401,1.140022],[-78.293198,1.143471],[-78.293164,1.145361],[-78.295276,1.145988],[-78.29514,1.147716],[-78.297856,1.148261],[-78.296809,1.150577],[-78.297124,1.153944],[-78.298162,1.156438],[-78.29563,1.157141],[-78.296379,1.1593],[-78.295863,1.161889],[-78.296698,1.163761],[-78.295059,1.164703],[-78.294633,1.168331],[-78.296793,1.172443],[-78.299899,1.170969],[-78.305197,1.172599],[-78.303704,1.17511],[-78.305386,1.177092],[-78.305379,1.178827],[-78.308322,1.17958],[-78.311902,1.184548],[-78.310925,1.190433],[-78.314183,1.190652],[-78.315706,1.192326],[-78.319683,1.194492],[-78.322151,1.19147],[-78.322636,1.193996],[-78.324024,1.19578],[-78.327026,1.193967],[-78.326827,1.19206],[-78.32813,1.189292],[-78.327518,1.185611],[-78.329842,1.183832],[-78.337984,1.182468],[-78.33806,1.178529],[-78.341438,1.17893],[-78.341114,1.18145],[-78.343064,1.183153],[-78.346104,1.18335],[-78.347667,1.182314],[-78.351706,1.182013],[-78.354781,1.180319],[-78.356021,1.18179],[-78.357159,1.177629],[-78.360506,1.174504],[-78.362768,1.177173],[-78.365342,1.174296],[-78.367745,1.17573],[-78.371846,1.174447],[-78.374713,1.17441],[-78.377544,1.171798],[-78.37972,1.171722],[-78.381018,1.170093],[-78.379931,1.166742],[-78.381284,1.164094],[-78.38262,1.163309],[-78.382732,1.159167],[-78.387413,1.15922],[-78.387652,1.15808],[-78.392945,1.154561],[-78.395097,1.152375],[-78.398745,1.152847],[-78.402082,1.152497],[-78.403131,1.153696],[-78.402907,1.157006],[-78.405708,1.158048],[-78.407493,1.160096],[-78.413505,1.159561],[-78.418338,1.159808],[-78.421395,1.155856],[-78.425137,1.153977],[-78.424675,1.151563],[-78.417564,1.148787],[-78.416216,1.144607],[-78.416754,1.142076],[-78.41566,1.139668],[-78.418509,1.13832],[-78.42601,1.138653],[-78.430646,1.140117],[-78.433692,1.144579],[-78.433392,1.148383],[-78.434156,1.15144],[-78.437975,1.157111],[-78.438428,1.159297],[-78.435204,1.159095],[-78.435257,1.161942],[-78.433453,1.164082],[-78.432445,1.167267],[-78.433537,1.170746],[-78.431712,1.171666],[-78.429422,1.169813],[-78.427141,1.170408],[-78.426835,1.171772],[-78.427968,1.175451],[-78.425926,1.177391],[-78.426363,1.179216],[-78.428948,1.180702],[-78.429806,1.183311],[-78.429867,1.1866],[-78.432129,1.189366],[-78.437862,1.190893],[-78.437951,1.193535],[-78.439551,1.194103],[-78.442842,1.188237],[-78.442734,1.184396],[-78.445592,1.18248],[-78.447864,1.183532],[-78.45053,1.183685],[-78.451843,1.182682],[-78.45344,1.178126],[-78.455334,1.175908],[-78.457445,1.177708],[-78.460851,1.176389],[-78.463372,1.176195],[-78.463892,1.180776],[-78.46538,1.1812],[-78.468439,1.179915],[-78.469942,1.180857],[-78.471049,1.183956],[-78.469821,1.187562],[-78.470355,1.188629],[-78.474136,1.189625],[-78.477335,1.191629],[-78.478606,1.193171],[-78.483781,1.189208],[-78.486057,1.188649],[-78.488992,1.185587],[-78.490564,1.185514],[-78.492406,1.189128],[-78.49469,1.191033],[-78.494878,1.193375],[-78.492917,1.195578],[-78.493243,1.196892],[-78.496534,1.197772],[-78.500317,1.195899],[-78.502657,1.195737],[-78.503717,1.197176],[-78.506276,1.196398],[-78.507748,1.192442],[-78.508583,1.188649],[-78.507209,1.183093],[-78.504781,1.186068],[-78.503079,1.187174],[-78.49715,1.185869],[-78.49588,1.184066],[-78.498213,1.181297],[-78.49773,1.178449],[-78.500301,1.176794],[-78.501794,1.179471],[-78.502949,1.17952],[-78.504517,1.176138],[-78.508742,1.17313],[-78.511871,1.172603],[-78.512727,1.170575],[-78.511082,1.16882],[-78.513516,1.159043],[-78.511679,1.157735],[-78.509115,1.160642],[-78.507242,1.160915],[-78.506116,1.15867],[-78.506039,1.151993],[-78.50863,1.151424],[-78.509037,1.149909],[-78.507548,1.14818],[-78.507567,1.145718],[-78.504166,1.145079],[-78.504073,1.140809],[-78.503281,1.136574],[-78.500325,1.133833],[-78.501917,1.132103],[-78.503755,1.131706],[-78.504406,1.129171],[-78.504092,1.126317],[-78.50476,1.122762],[-78.506346,1.120835],[-78.50543,1.11747],[-78.505937,1.112746],[-78.507363,1.109485],[-78.507032,1.105765],[-78.505247,1.106349],[-78.503398,1.104471],[-78.50544,1.09928],[-78.507854,1.097352],[-78.507949,1.096007],[-78.505839,1.093388],[-78.501143,1.091528],[-78.500425,1.086934],[-78.502457,1.085987],[-78.501214,1.083407],[-78.501691,1.078376],[-78.499853,1.0758],[-78.503893,1.074529],[-78.504416,1.072061],[-78.508838,1.071096],[-78.511854,1.071341],[-78.519024,1.068259],[-78.524862,1.061726],[-78.523502,1.058789],[-78.524194,1.057862],[-78.530329,1.056636],[-78.532265,1.054811],[-78.539763,1.051342],[-78.544137,1.045698],[-78.542431,1.042865],[-78.542502,1.038439],[-78.546288,1.034877],[-78.547538,1.02947],[-78.545231,1.027493],[-78.546139,1.025542],[-78.545043,1.0233],[-78.548869,1.02116],[-78.549073,1.018646],[-78.546145,1.017082],[-78.547666,1.01451],[-78.547838,1.011227],[-78.546954,1.010231],[-78.54227,1.009017],[-78.544574,1.006291],[-78.541422,1.000169],[-78.541346,0.996913],[-78.537926,0.993673],[-78.539887,0.990718],[-78.538003,0.986704],[-78.537433,0.983105],[-78.536376,0.980797],[-78.537863,0.978618],[-78.536729,0.975538],[-78.536809,0.972751],[-78.538396,0.968959],[-78.539364,0.961866],[-78.542992,0.955613],[-78.545598,0.956474],[-78.547319,0.954496],[-78.547587,0.951997],[-78.545471,0.948003],[-78.544481,0.94382],[-78.546731,0.941382],[-78.543182,0.937916],[-78.54073,0.936467],[-78.537885,0.933699],[-78.533608,0.932387],[-78.530474,0.929784],[-78.532464,0.928416],[-78.533181,0.925771],[-78.532238,0.923021],[-78.529514,0.920132],[-78.525613,0.919734],[-78.520297,0.918042],[-78.516519,0.913104],[-78.515836,0.91119],[-78.511138,0.910229],[-78.50922,0.905594],[-78.506147,0.903529],[-78.504945,0.900786],[-78.499222,0.894108],[-78.494707,0.890735],[-78.492308,0.89051],[-78.487716,0.886381],[-78.484207,0.885089],[-78.48226,0.886111],[-78.479327,0.884765],[-78.475608,0.884579],[-78.472723,0.885463],[-78.461928,0.88553],[-78.459953,0.883589],[-78.460115,0.884545],[-78.456022,0.885186],[-78.454985,0.8862],[-78.450728,0.885756],[-78.448869,0.888883],[-78.449261,0.891177],[-78.444581,0.892976],[-78.439992,0.891911],[-78.438417,0.893254],[-78.435041,0.893149],[-78.434346,0.894798],[-78.4352,0.896574],[-78.435336,0.900378],[-78.433955,0.902863],[-78.433502,0.906092],[-78.431237,0.906305],[-78.4307,0.908279],[-78.428734,0.909526],[-78.427606,0.912189],[-78.428185,0.914464],[-78.429903,0.915347],[-78.433698,0.920128],[-78.430459,0.923355],[-78.424038,0.925543],[-78.422724,0.924791],[-78.418599,0.926349],[-78.414815,0.926481],[-78.415051,0.929501],[-78.413303,0.930194],[-78.412997,0.932238],[-78.410182,0.932341],[-78.408729,0.931294],[-78.407205,0.933068],[-78.408915,0.935385],[-78.408379,0.937084],[-78.405373,0.938113],[-78.404308,0.941451],[-78.393132,0.948076],[-78.388262,0.953807],[-78.38739,0.955849],[-78.385022,0.958002],[-78.379774,0.957964],[-78.376182,0.956706],[-78.373964,0.955279],[-78.370356,0.955762],[-78.366136,0.953284],[-78.362135,0.948676],[-78.360131,0.944463],[-78.358454,0.93943],[-78.358488,0.936506],[-78.357053,0.933931],[-78.356476,0.928665],[-78.357037,0.92693],[-78.354966,0.92246],[-78.354265,0.918049],[-78.352383,0.915665],[-78.352886,0.910507],[-78.351599,0.908124],[-78.350265,0.901328],[-78.347125,0.900676],[-78.341478,0.902941],[-78.337836,0.901786],[-78.336082,0.902656],[-78.333314,0.902527],[-78.328594,0.898471],[-78.328955,0.895663],[-78.330954,0.892357],[-78.329255,0.889538],[-78.325272,0.89109],[-78.320391,0.889669],[-78.316587,0.889262],[-78.314312,0.888373],[-78.312796,0.886484],[-78.308359,0.885842],[-78.305191,0.883734],[-78.299814,0.882635],[-78.297681,0.881336],[-78.295886,0.878145],[-78.294551,0.873476],[-78.295395,0.871815],[-78.294705,0.867881],[-78.29186,0.865761],[-78.285047,0.862924],[-78.276024,0.861426],[-78.274429,0.863161],[-78.270053,0.865512],[-78.263198,0.866313],[-78.259383,0.865482],[-78.248151,0.865014],[-78.244654,0.861371],[-78.239141,0.852552],[-78.236803,0.84604],[-78.235065,0.843062],[-78.232972,0.840868],[-78.230138,0.839402],[-78.226425,0.836244],[-78.217549,0.843794],[-78.212622,0.845409],[-78.207623,0.84444],[-78.203394,0.84088],[-78.201767,0.838034],[-78.195254,0.839313],[-78.189269,0.842571],[-78.186765,0.84252],[-78.183663,0.838619],[-78.179183,0.83498],[-78.178561,0.833365],[-78.170096,0.8344],[-78.165375,0.835397],[-78.161574,0.837679],[-78.155846,0.839072],[-78.152486,0.841831],[-78.149085,0.84351],[-78.146689,0.847047],[-78.141491,0.849738],[-78.139055,0.850381],[-78.137614,0.853819],[-78.134187,0.857347],[-78.133419,0.859158],[-78.128544,0.859533],[-78.126719,0.860278],[-78.119109,0.860358],[-78.116223,0.858309],[-78.114222,0.854014],[-78.110481,0.851162],[-78.108309,0.846713],[-78.107485,0.843146],[-78.109017,0.839351],[-78.107662,0.835171],[-78.105612,0.832568],[-78.104872,0.830445],[-78.100047,0.829744],[-78.092479,0.831684],[-78.087747,0.83228],[-78.079058,0.837154],[-78.077561,0.836494],[-78.075135,0.837141],[-78.07079,0.834667],[-78.068322,0.834146],[-78.066334,0.831787],[-78.066537,0.830228],[-78.063609,0.825941],[-78.063579,0.823535],[-78.065696,0.821652],[-78.066114,0.818504],[-78.064829,0.817087],[-78.066287,0.814062],[-78.06378,0.809887],[-78.061996,0.808405],[-78.062206,0.80573],[-78.065104,0.804436],[-78.066152,0.802548],[-78.065781,0.799544],[-78.067502,0.79581],[-78.066424,0.791531],[-78.064894,0.788938],[-78.065512,0.786545],[-78.065338,0.781715],[-78.063197,0.778247],[-78.058428,0.775345],[-78.051245,0.76987],[-78.04826,0.768205],[-78.042496,0.762592],[-78.037509,0.761265],[-78.032434,0.759202],[-78.028416,0.756553],[-78.023369,0.749143],[-78.020842,0.748153],[-78.019153,0.746368],[-78.014152,0.743622],[-78.005231,0.747086],[-78.002412,0.744378],[-77.997551,0.744275],[-77.994662,0.745722],[-77.99479,0.747482],[-77.991633,0.748939],[-77.989048,0.748818],[-77.984205,0.746397],[-77.981439,0.748459],[-77.979727,0.751057],[-77.974798,0.752994],[-77.967438,0.753648],[-77.965365,0.753012],[-77.962615,0.753995],[-77.957016,0.750435],[-77.95364,0.746052],[-77.954423,0.743604],[-77.953138,0.742729],[-77.946059,0.74226],[-77.943078,0.742854],[-77.941502,0.744086],[-77.939188,0.743665],[-77.924151,0.742913],[-77.912435,0.741755],[-77.900101,0.740925],[-77.896184,0.739497],[-77.892914,0.73389],[-77.889239,0.726464],[-77.888664,0.724356],[-77.888286,0.718007],[-77.89027,0.712693],[-77.890439,0.694121],[-77.890121,0.688656],[-77.889255,0.686841],[-77.886246,0.685157],[-77.88075,0.68063],[-77.878325,0.677239]]]}}
]}