{"type":"FeatureCollection","bbox":[-79.274715,0.122874,-77.81031,0.875927], "features": [
{"type":"Feature","geometry":{"type":"Polygon","coordinates":[[[-78.244395,0.305276],[-78.24475,0.303033],[-78.243378,0.299099],[-78.243831,0.296741],[-78.241394,0.291069],[-78.235648,0.28804],[-78.234282,0.286478],[-78.231776,0.286304],[-78.228312,0.284113],[-78.225358,0.288836],[-78.219585,0.28329],[-78.215772,0.278349],[-78.212832,0.277521],[-78.211156,0.278125],[-78.207127,0.27675],[-78.205951,0.277288],[-78.197016,0.275179],[-78.194746,0.27087],[-78.18624,0.262606],[-78.183662,0.259004],[-78.181746,0.255285],[-78.180512,0.254277],[-78.181034,0.258337],[-78.178985,0.259978],[-78.177375,0.263765],[-78.177624,0.272522],[-78.176708,0.276219],[-78.178035,0.281268],[-78.179156,0.282464],[-78.1795,0.28613],[-78.181995,0.288969],[-78.183859,0.293741],[-78.184154,0.295969],[-78.186454,0.301917],[-78.186046,0.303008],[-78.190596,0.309204],[-78.19102,0.317147],[-78.190346,0.322462],[-78.187922,0.327234],[-78.185702,0.328707],[-78.182394,0.329109],[-78.180761,0.333576],[-78.181491,0.339425],[-78.180897,0.342031],[-78.184788,0.343408],[-78.187995,0.345517],[-78.183193,0.352501],[-78.178208,0.359071],[-78.174782,0.359926],[-78.166757,0.364494],[-78.166362,0.363292],[-78.168182,0.357015],[-78.151218,0.356882],[-78.146604,0.364731],[-78.147404,0.366967],[-78.14754,0.377885],[-78.146809,0.381164],[-78.144782,0.382618],[-78.143085,0.385986],[-78.140989,0.385924],[-78.13816,0.390036],[-78.137823,0.392745],[-78.136632,0.39312],[-78.134139,0.39594],[-78.133391,0.398853],[-78.134075,0.40192],[-78.134615,0.400217],[-78.137505,0.398309],[-78.137853,0.396748],[-78.141914,0.394755],[-78.148429,0.393202],[-78.150376,0.393705],[-78.152944,0.391781],[-78.154675,0.39306],[-78.161453,0.396218],[-78.163467,0.395254],[-78.167344,0.395709],[-78.170534,0.394934],[-78.172564,0.39197],[-78.176314,0.39018],[-78.179243,0.386516],[-78.183587,0.386382],[-78.188275,0.382197],[-78.189543,0.381914],[-78.189856,0.379176],[-78.192727,0.378109],[-78.198771,0.375014],[-78.203627,0.376904],[-78.20648,0.376559],[-78.207269,0.374844],[-78.212646,0.374428],[-78.213496,0.372261],[-78.215025,0.372269],[-78.216222,0.370828],[-78.218355,0.371298],[-78.219056,0.369459],[-78.227299,0.365114],[-78.229972,0.361282],[-78.234134,0.36026],[-78.234996,0.357859],[-78.232799,0.355067],[-78.231633,0.351197],[-78.233487,0.349277],[-78.237036,0.344233],[-78.235395,0.340493],[-78.235977,0.337924],[-78.239996,0.338498],[-78.241317,0.334459],[-78.240386,0.331653],[-78.244037,0.327769],[-78.244588,0.323572],[-78.245804,0.322219],[-78.244579,0.31955],[-78.24231,0.317235],[-78.242808,0.313288],[-78.241422,0.308093],[-78.242297,0.306127],[-78.244395,0.305276]]]},"properties":{"shapeName":"Antonio Ante","shapeISO":"8360857B41675882344987","shapeGroup":"ECU","shapeType":"ADM2","src_shape_id":"8360857B41675882344987","adm1ISO":"EC-I"}},
{"type":"Feature","geometry":{"type":"Polygon","coordinates":[[[-78.215025,0.372269],[-78.219975,0.373766],[-78.223412,0.374005],[-78.228808,0.378719],[-78.231824,0.380001],[-78.232538,0.382282],[-78.236161,0.384363],[-78.250003,0.390569],[-78.250406,0.391375],[-78.254889,0.392439],[-78.261709,0.39591],[-78.263078,0.397422],[-78.267441,0.397266],[-78.271325,0.400296],[-78.272772,0.400497],[-78.277612,0.405382],[-78.280294,0.406749],[-78.284669,0.406262],[-78.287258,0.407228],[-78.289489,0.406903],[-78.293493,0.407678],[-78.296786,0.40678],[-78.300419,0.408511],[-78.300885,0.411461],[-78.302143,0.412793],[-78.307121,0.413519],[-78.307223,0.414934],[-78.309631,0.416597],[-78.31017,0.419072],[-78.311911,0.422807],[-78.313897,0.425324],[-78.313775,0.427124],[-78.315468,0.429613],[-78.318442,0.432372],[-78.321111,0.433877],[-78.322478,0.437589],[-78.322622,0.440826],[-78.32138,0.44272],[-78.322143,0.448812],[-78.323596,0.452274],[-78.323931,0.456075],[-78.327926,0.461903],[-78.32713,0.465356],[-78.323794,0.468402],[-78.321453,0.472832],[-78.322141,0.475962],[-78.324588,0.478578],[-78.330404,0.482395],[-78.33662,0.48933],[-78.338241,0.492046],[-78.341393,0.49406],[-78.343219,0.496369],[-78.344226,0.499282],[-78.346922,0.501784],[-78.354711,0.508006],[-78.357885,0.509294],[-78.360346,0.511715],[-78.362699,0.512804],[-78.36675,0.516585],[-78.366969,0.522228],[-78.370162,0.525685],[-78.371021,0.529476],[-78.372826,0.530343],[-78.376179,0.538337],[-78.376654,0.542916],[-78.375955,0.545186],[-78.376303,0.548132],[-78.378465,0.552945],[-78.378506,0.555823],[-78.380881,0.558543],[-78.382192,0.56103],[-78.388478,0.561754],[-78.388179,0.565115],[-78.389123,0.5681],[-78.391108,0.568933],[-78.394961,0.569332],[-78.401744,0.57639],[-78.406097,0.577198],[-78.409086,0.578717],[-78.41081,0.58199],[-78.415368,0.584089],[-78.418526,0.586439],[-78.423049,0.587164],[-78.426543,0.585606],[-78.426475,0.583415],[-78.428142,0.580023],[-78.429372,0.574854],[-78.430397,0.573863],[-78.436335,0.570836],[-78.437548,0.569414],[-78.438943,0.565288],[-78.441913,0.561325],[-78.446741,0.557953],[-78.448137,0.551164],[-78.450158,0.54653],[-78.453977,0.539965],[-78.455028,0.539701],[-78.458317,0.541379],[-78.461145,0.54138],[-78.464519,0.539609],[-78.467455,0.534076],[-78.469077,0.533882],[-78.473824,0.535347],[-78.480236,0.540506],[-78.486841,0.542773],[-78.489144,0.544841],[-78.491811,0.541],[-78.504315,0.531959],[-78.509103,0.526716],[-78.514472,0.526114],[-78.517296,0.525007],[-78.520838,0.525539],[-78.523519,0.525251],[-78.526727,0.522312],[-78.534771,0.518268],[-78.537931,0.517305],[-78.540803,0.515379],[-78.543294,0.512392],[-78.546168,0.507718],[-78.546073,0.505694],[-78.543776,0.501742],[-78.543634,0.499863],[-78.545597,0.497213],[-78.552913,0.496993],[-78.555551,0.49768],[-78.55802,0.495926],[-78.558477,0.489282],[-78.560836,0.482542],[-78.563664,0.48065],[-78.565634,0.477189],[-78.569228,0.476025],[-78.571603,0.473791],[-78.583601,0.46916],[-78.585467,0.469297],[-78.59075,0.467561],[-78.598814,0.45987],[-78.602873,0.453973],[-78.606145,0.452727],[-78.60702,0.450006],[-78.60676,0.44621],[-78.609006,0.441629],[-78.608474,0.439801],[-78.611832,0.432673],[-78.614045,0.429664],[-78.613534,0.426301],[-78.615285,0.42126],[-78.613621,0.415596],[-78.615869,0.412392],[-78.623156,0.406021],[-78.627591,0.404798],[-78.630902,0.401692],[-78.631795,0.400061],[-78.634498,0.398249],[-78.637119,0.398213],[-78.641536,0.396407],[-78.644478,0.390268],[-78.656324,0.377437],[-78.659125,0.377031],[-78.663898,0.378578],[-78.665291,0.378443],[-78.671023,0.374873],[-78.677946,0.373244],[-78.686225,0.375514],[-78.690788,0.377855],[-78.699462,0.38315],[-78.702505,0.390723],[-78.702964,0.393999],[-78.704802,0.396584],[-78.70868,0.397345],[-78.719133,0.403104],[-78.722317,0.402519],[-78.731192,0.402443],[-78.734566,0.403449],[-78.736951,0.403383],[-78.74066,0.40166],[-78.746968,0.40154],[-78.749446,0.40225],[-78.756359,0.403125],[-78.760148,0.402963],[-78.762243,0.403512],[-78.767079,0.406333],[-78.771049,0.407897],[-78.772903,0.407857],[-78.77506,0.406376],[-78.779737,0.401955],[-78.78407,0.400657],[-78.790325,0.402157],[-78.797168,0.405924],[-78.802248,0.405712],[-78.809869,0.40266],[-78.812276,0.40213],[-78.813566,0.399665],[-78.816445,0.396043],[-78.819414,0.390068],[-78.823282,0.384728],[-78.82679,0.382013],[-78.832725,0.379027],[-78.845946,0.37369],[-78.850173,0.371699],[-78.859796,0.368261],[-78.862853,0.368986],[-78.873418,0.369768],[-78.878151,0.369531],[-78.885487,0.366436],[-78.894007,0.361673],[-78.902289,0.361675],[-78.908205,0.359533],[-78.916961,0.358344],[-78.920748,0.356915],[-78.922862,0.358335],[-78.92354,0.357108],[-78.926592,0.356251],[-78.927839,0.354424],[-78.92547,0.353589],[-78.924347,0.349261],[-78.925016,0.347225],[-78.924837,0.343783],[-78.931994,0.339617],[-78.932818,0.335506],[-78.936512,0.331867],[-78.941108,0.331127],[-78.944258,0.329053],[-78.94919,0.321467],[-78.952148,0.319517],[-78.953848,0.315083],[-78.954514,0.311627],[-78.956605,0.310766],[-78.960134,0.307836],[-78.957129,0.305203],[-78.957272,0.301853],[-78.955396,0.300321],[-78.955587,0.297457],[-78.956965,0.293152],[-78.963003,0.294354],[-78.965196,0.29305],[-78.966876,0.295071],[-78.969211,0.293036],[-78.970355,0.290254],[-78.972322,0.289522],[-78.974053,0.287254],[-78.976317,0.282206],[-78.978792,0.280793],[-78.981981,0.282332],[-78.98458,0.278209],[-78.984908,0.275413],[-78.983869,0.273147],[-78.984738,0.26963],[-78.984569,0.267383],[-78.989373,0.26244],[-78.992589,0.261278],[-78.993264,0.259232],[-78.997047,0.258981],[-79.000111,0.261141],[-79.002918,0.261475],[-79.004844,0.264283],[-79.007113,0.265983],[-79.006733,0.268153],[-79.009097,0.269577],[-79.008459,0.271278],[-79.01049,0.273084],[-79.016709,0.272371],[-79.014217,0.268881],[-79.016116,0.265914],[-79.016141,0.263793],[-79.014868,0.261194],[-79.014629,0.25861],[-79.016899,0.253194],[-79.016675,0.246269],[-79.014344,0.240652],[-79.016235,0.239395],[-79.013198,0.231149],[-79.010307,0.226798],[-79.007341,0.224559],[-79.002732,0.223691],[-79.000972,0.219918],[-78.998674,0.217762],[-78.995888,0.216988],[-78.994102,0.215586],[-78.991411,0.211756],[-78.987895,0.213227],[-78.986071,0.216622],[-78.984475,0.216207],[-78.980978,0.210454],[-78.976325,0.213157],[-78.971416,0.219682],[-78.969436,0.220374],[-78.967949,0.222184],[-78.966113,0.22275],[-78.963485,0.214211],[-78.959407,0.213771],[-78.957959,0.210067],[-78.955648,0.21008],[-78.954793,0.206666],[-78.951895,0.20664],[-78.949935,0.204389],[-78.948005,0.203413],[-78.943446,0.204074],[-78.939674,0.206287],[-78.937038,0.211077],[-78.933128,0.213711],[-78.931217,0.213566],[-78.929456,0.217797],[-78.92677,0.22021],[-78.923929,0.221178],[-78.919739,0.216827],[-78.918746,0.214513],[-78.913282,0.214286],[-78.909822,0.212953],[-78.903552,0.215259],[-78.8992,0.215982],[-78.894897,0.217383],[-78.893872,0.219873],[-78.886282,0.220914],[-78.882805,0.222335],[-78.880177,0.222087],[-78.877517,0.227519],[-78.873614,0.230011],[-78.870547,0.232957],[-78.863009,0.232595],[-78.855797,0.237336],[-78.849531,0.237459],[-78.843373,0.239837],[-78.840461,0.23878],[-78.83373,0.241176],[-78.831934,0.239059],[-78.828743,0.237701],[-78.824941,0.236808],[-78.822712,0.233375],[-78.82097,0.23345],[-78.817385,0.232111],[-78.811117,0.230439],[-78.807922,0.231627],[-78.80445,0.231439],[-78.80178,0.231965],[-78.794684,0.236702],[-78.791857,0.23643],[-78.789777,0.238873],[-78.786033,0.238904],[-78.780936,0.24053],[-78.778231,0.243118],[-78.775316,0.241993],[-78.769224,0.242201],[-78.765067,0.238564],[-78.763012,0.239695],[-78.760764,0.238266],[-78.755084,0.240553],[-78.75277,0.238657],[-78.751,0.235549],[-78.747386,0.235743],[-78.743991,0.234808],[-78.739633,0.230261],[-78.735634,0.227288],[-78.729838,0.224791],[-78.726452,0.224617],[-78.72387,0.221947],[-78.721736,0.221522],[-78.718439,0.219746],[-78.711404,0.219324],[-78.709462,0.215734],[-78.705621,0.218313],[-78.702195,0.218197],[-78.699116,0.21736],[-78.698463,0.220808],[-78.697524,0.221799],[-78.692015,0.22156],[-78.689235,0.222975],[-78.685523,0.221501],[-78.683324,0.223688],[-78.681023,0.222755],[-78.682157,0.219136],[-78.682251,0.21573],[-78.679465,0.214074],[-78.677838,0.212093],[-78.674805,0.210737],[-78.669164,0.212881],[-78.665995,0.214759],[-78.661769,0.213986],[-78.660899,0.21571],[-78.658463,0.215289],[-78.657176,0.216567],[-78.654586,0.214405],[-78.649571,0.214654],[-78.647556,0.212494],[-78.647588,0.210139],[-78.64525,0.210062],[-78.642649,0.207707],[-78.640879,0.208363],[-78.637902,0.206761],[-78.635007,0.207989],[-78.633128,0.210311],[-78.631128,0.209841],[-78.630213,0.213726],[-78.628137,0.214787],[-78.626897,0.21709],[-78.62507,0.218105],[-78.622596,0.219862],[-78.618979,0.22064],[-78.618864,0.222795],[-78.616972,0.224312],[-78.616756,0.226943],[-78.614921,0.228348],[-78.612313,0.232226],[-78.607269,0.236513],[-78.603553,0.236369],[-78.599916,0.233135],[-78.59732,0.234338],[-78.5954,0.2337],[-78.595255,0.236985],[-78.592809,0.238314],[-78.592919,0.241805],[-78.591249,0.246363],[-78.592905,0.252894],[-78.594195,0.2557],[-78.590313,0.254965],[-78.589769,0.256934],[-78.586447,0.259927],[-78.583939,0.265166],[-78.581939,0.26675],[-78.581744,0.269331],[-78.579981,0.270986],[-78.57474,0.272758],[-78.573689,0.274053],[-78.570366,0.275437],[-78.565434,0.276463],[-78.559744,0.281297],[-78.557046,0.284322],[-78.555676,0.284619],[-78.550827,0.28389],[-78.549219,0.283147],[-78.544332,0.284156],[-78.543798,0.285057],[-78.544889,0.288736],[-78.543326,0.288975],[-78.540125,0.293112],[-78.535563,0.296042],[-78.533006,0.296635],[-78.530867,0.299867],[-78.527711,0.30116],[-78.526399,0.30306],[-78.521525,0.306273],[-78.519072,0.306961],[-78.516591,0.309185],[-78.514405,0.313556],[-78.50957,0.316335],[-78.502765,0.3166],[-78.50122,0.3182],[-78.498543,0.319223],[-78.496423,0.321338],[-78.489909,0.322601],[-78.488799,0.313337],[-78.491979,0.307542],[-78.495199,0.306376],[-78.493959,0.30338],[-78.494167,0.300821],[-78.493152,0.300005],[-78.484375,0.298536],[-78.481034,0.295754],[-78.478654,0.290186],[-78.473143,0.288205],[-78.466032,0.289282],[-78.464062,0.290771],[-78.463167,0.293612],[-78.460966,0.295436],[-78.456776,0.297627],[-78.452772,0.301776],[-78.450955,0.306402],[-78.449388,0.306906],[-78.446366,0.306131],[-78.444097,0.309816],[-78.439754,0.310191],[-78.439014,0.308731],[-78.4356,0.308464],[-78.434809,0.309196],[-78.431288,0.306114],[-78.427319,0.30534],[-78.422149,0.309242],[-78.422571,0.306547],[-78.422583,0.300702],[-78.421431,0.29828],[-78.417234,0.29195],[-78.409637,0.292301],[-78.407168,0.291734],[-78.405019,0.292687],[-78.400891,0.292959],[-78.400167,0.29434],[-78.396946,0.293923],[-78.395936,0.297181],[-78.392887,0.299324],[-78.393213,0.301017],[-78.391811,0.305024],[-78.390571,0.304611],[-78.385365,0.30661],[-78.384935,0.301124],[-78.381782,0.296081],[-78.381574,0.29472],[-78.379034,0.292396],[-78.374116,0.285375],[-78.369354,0.281845],[-78.364958,0.282677],[-78.359656,0.280525],[-78.357013,0.280178],[-78.353134,0.277365],[-78.348879,0.276445],[-78.34429,0.272453],[-78.342079,0.272607],[-78.341474,0.27061],[-78.33886,0.27003],[-78.337605,0.268145],[-78.334421,0.267644],[-78.331936,0.266257],[-78.323961,0.263658],[-78.320078,0.26371],[-78.31859,0.260448],[-78.315798,0.260412],[-78.31349,0.259443],[-78.311053,0.264736],[-78.306901,0.267717],[-78.303579,0.267104],[-78.300609,0.268874],[-78.298793,0.269165],[-78.29397,0.268642],[-78.285774,0.266629],[-78.282452,0.259633],[-78.278209,0.260252],[-78.278256,0.258978],[-78.273694,0.260064],[-78.271363,0.262002],[-78.270137,0.264732],[-78.266634,0.270497],[-78.26666,0.273776],[-78.263633,0.274848],[-78.26317,0.276694],[-78.260806,0.279631],[-78.256832,0.280387],[-78.254551,0.284676],[-78.258232,0.289571],[-78.256682,0.291183],[-78.252612,0.291802],[-78.251927,0.29432],[-78.246606,0.301439],[-78.245602,0.304629],[-78.244395,0.305276],[-78.242297,0.306127],[-78.241422,0.308093],[-78.242808,0.313288],[-78.24231,0.317235],[-78.244579,0.31955],[-78.245804,0.322219],[-78.244588,0.323572],[-78.244037,0.327769],[-78.240386,0.331653],[-78.241317,0.334459],[-78.239996,0.338498],[-78.235977,0.337924],[-78.235395,0.340493],[-78.237036,0.344233],[-78.233487,0.349277],[-78.231633,0.351197],[-78.232799,0.355067],[-78.234996,0.357859],[-78.234134,0.36026],[-78.229972,0.361282],[-78.227299,0.365114],[-78.219056,0.369459],[-78.218355,0.371298],[-78.216222,0.370828],[-78.215025,0.372269]]]},"properties":{"shapeName":"Cotacachi","shapeISO":"8360857B15521483188159","shapeGroup":"ECU","shapeType":"ADM2","src_shape_id":"8360857B15521483188159","adm1ISO":"EC-I"}},
{"type":"Feature","geometry":{"type":"Polygon","coordinates":[[[-78.180512,0.254277],[-78.177811,0.254246],[-78.172711,0.251735],[-78.16863,0.251697],[-78.165752,0.253078],[-78.164144,0.248576],[-78.159159,0.243066],[-78.154401,0.240849],[-78.150158,0.238302],[-78.14605,0.234802],[-78.144651,0.232597],[-78.140881,0.231117],[-78.135733,0.230626],[-78.129773,0.230502],[-78.123777,0.231309],[-78.123212,0.228477],[-78.12023,0.224778],[-78.121029,0.222178],[-78.123368,0.22012],[-78.127016,0.219235],[-78.127597,0.214285],[-78.127046,0.212622],[-78.128989,0.205864],[-78.132336,0.198011],[-78.132705,0.194057],[-78.133548,0.191435],[-78.136555,0.188264],[-78.139142,0.181834],[-78.13876,0.176706],[-78.139258,0.175009],[-78.142841,0.167954],[-78.144234,0.163842],[-78.148269,0.158949],[-78.14547,0.157623],[-78.141558,0.157843],[-78.138226,0.157229],[-78.133749,0.158074],[-78.124862,0.157719],[-78.121278,0.159506],[-78.114552,0.160267],[-78.106717,0.163085],[-78.103392,0.167289],[-78.101864,0.167418],[-78.098537,0.170419],[-78.096963,0.173573],[-78.096854,0.176759],[-78.095022,0.182087],[-78.092391,0.186362],[-78.090803,0.184345],[-78.09166,0.181111],[-78.089838,0.181463],[-78.087519,0.179681],[-78.085137,0.180884],[-78.082647,0.179308],[-78.080061,0.179304],[-78.078719,0.180278],[-78.076001,0.179909],[-78.069802,0.17749],[-78.066825,0.178127],[-78.064126,0.1804],[-78.060562,0.182204],[-78.056874,0.183008],[-78.052725,0.182674],[-78.048908,0.181699],[-78.038504,0.178077],[-78.034698,0.175994],[-78.03173,0.180705],[-78.031092,0.183009],[-78.031432,0.188263],[-78.032447,0.192987],[-78.033964,0.195446],[-78.033378,0.197574],[-78.030982,0.200082],[-78.029998,0.202095],[-78.032027,0.208377],[-78.031262,0.211697],[-78.032538,0.219147],[-78.032652,0.222552],[-78.03393,0.231756],[-78.033103,0.23756],[-78.028522,0.24397],[-78.030878,0.252864],[-78.02817,0.261727],[-78.028315,0.267289],[-78.029211,0.269934],[-78.031351,0.27285],[-78.034287,0.275154],[-78.040603,0.276979],[-78.040211,0.277835],[-78.034132,0.280974],[-78.028853,0.292168],[-78.025674,0.29351],[-78.021912,0.293076],[-78.020206,0.29146],[-78.01629,0.292223],[-78.01288,0.298654],[-78.011068,0.305994],[-78.012133,0.312284],[-78.014017,0.314061],[-78.013997,0.319236],[-78.012006,0.324502],[-78.010264,0.32694],[-78.006089,0.329393],[-78.000138,0.32946],[-77.994744,0.333399],[-77.989632,0.338261],[-77.987316,0.342357],[-77.985467,0.348562],[-77.983661,0.351385],[-77.983756,0.355413],[-77.982493,0.358914],[-77.981789,0.362669],[-77.98004,0.363824],[-77.979176,0.366023],[-77.980086,0.370779],[-77.979546,0.372649],[-77.975832,0.374435],[-77.976758,0.376875],[-77.9763,0.379003],[-77.977245,0.381994],[-77.977295,0.3859],[-77.976417,0.38886],[-77.97277,0.395854],[-77.972042,0.398048],[-77.969494,0.399383],[-77.96916,0.406281],[-77.968336,0.411732],[-77.9669,0.414063],[-77.965894,0.417631],[-77.96614,0.421115],[-77.964569,0.426812],[-77.964612,0.429286],[-77.962612,0.433345],[-77.963885,0.435308],[-77.9666,0.436209],[-77.968964,0.436137],[-77.973134,0.441359],[-77.975401,0.44119],[-77.978265,0.442868],[-77.983586,0.443474],[-77.985539,0.444914],[-77.987186,0.444486],[-77.989111,0.446518],[-77.994169,0.45028],[-77.996028,0.455648],[-77.99639,0.457995],[-77.998453,0.459623],[-77.999395,0.462125],[-78.002072,0.465541],[-78.002831,0.468601],[-78.006857,0.469337],[-78.009197,0.471417],[-78.011439,0.471825],[-78.014736,0.473516],[-78.015631,0.471611],[-78.01894,0.47205],[-78.020852,0.471008],[-78.024222,0.471327],[-78.028525,0.47304],[-78.029571,0.472405],[-78.032281,0.473682],[-78.034936,0.472796],[-78.037687,0.473247],[-78.04746,0.47126],[-78.049315,0.472941],[-78.051441,0.473205],[-78.053929,0.475055],[-78.058806,0.474025],[-78.061677,0.475105],[-78.062834,0.473801],[-78.068671,0.474658],[-78.071309,0.474387],[-78.073603,0.475289],[-78.076434,0.4777],[-78.086649,0.478891],[-78.092664,0.481051],[-78.096129,0.48426],[-78.09693,0.485855],[-78.097333,0.490881],[-78.09935,0.489368],[-78.100905,0.492423],[-78.104527,0.495575],[-78.104049,0.498791],[-78.105467,0.500063],[-78.105242,0.50252],[-78.107979,0.506864],[-78.111231,0.510463],[-78.111116,0.513437],[-78.112588,0.515739],[-78.111957,0.520787],[-78.116137,0.522333],[-78.119782,0.521433],[-78.122901,0.523549],[-78.123147,0.525384],[-78.127389,0.526599],[-78.127872,0.529128],[-78.129261,0.530528],[-78.127602,0.534528],[-78.126971,0.540488],[-78.127886,0.542189],[-78.129771,0.542262],[-78.130449,0.545776],[-78.129305,0.547134],[-78.130581,0.549094],[-78.129985,0.552853],[-78.127623,0.554907],[-78.125664,0.559996],[-78.124947,0.565416],[-78.125327,0.570808],[-78.127225,0.573146],[-78.128208,0.575609],[-78.131265,0.578464],[-78.133347,0.579506],[-78.136833,0.579653],[-78.139428,0.582777],[-78.141804,0.590539],[-78.139315,0.593864],[-78.137032,0.595313],[-78.138168,0.597511],[-78.138795,0.60213],[-78.138141,0.605192],[-78.132901,0.610489],[-78.133136,0.615034],[-78.135502,0.615736],[-78.136454,0.619549],[-78.138577,0.621682],[-78.138515,0.62299],[-78.140414,0.625031],[-78.145762,0.626949],[-78.152133,0.625689],[-78.153813,0.628791],[-78.154321,0.631787],[-78.15773,0.637468],[-78.160116,0.640182],[-78.16028,0.643425],[-78.163052,0.650369],[-78.165879,0.652999],[-78.166856,0.655272],[-78.166769,0.657891],[-78.170261,0.660921],[-78.171866,0.661002],[-78.17355,0.663663],[-78.177426,0.663757],[-78.182838,0.666158],[-78.18565,0.668738],[-78.187472,0.669446],[-78.19094,0.681686],[-78.193607,0.684354],[-78.197631,0.68606],[-78.197249,0.688641],[-78.198396,0.690744],[-78.200123,0.691442],[-78.201177,0.695317],[-78.200996,0.701907],[-78.204149,0.703389],[-78.204411,0.707361],[-78.205565,0.713681],[-78.203303,0.715844],[-78.204344,0.718009],[-78.21061,0.719475],[-78.211633,0.724064],[-78.214347,0.723933],[-78.216929,0.728195],[-78.219056,0.727877],[-78.219081,0.730882],[-78.220875,0.731208],[-78.225447,0.733604],[-78.226966,0.736213],[-78.230448,0.738225],[-78.230811,0.740802],[-78.233407,0.744183],[-78.23672,0.745405],[-78.240726,0.744346],[-78.246359,0.747151],[-78.248086,0.750171],[-78.250882,0.750858],[-78.252752,0.753865],[-78.253578,0.757529],[-78.256475,0.761966],[-78.260368,0.761667],[-78.261753,0.763619],[-78.264135,0.765183],[-78.265159,0.767323],[-78.267637,0.767857],[-78.267822,0.770159],[-78.26516,0.771948],[-78.266663,0.777306],[-78.26668,0.779473],[-78.271287,0.784274],[-78.274482,0.785029],[-78.276156,0.783329],[-78.278742,0.783991],[-78.282495,0.786143],[-78.28202,0.788513],[-78.285227,0.788539],[-78.287412,0.792773],[-78.289511,0.791751],[-78.294004,0.794395],[-78.298192,0.794662],[-78.3007,0.792997],[-78.302886,0.792548],[-78.304311,0.797099],[-78.308459,0.798198],[-78.309419,0.801915],[-78.311042,0.804989],[-78.313306,0.804252],[-78.314937,0.80672],[-78.318401,0.810464],[-78.317734,0.811934],[-78.320624,0.813741],[-78.320811,0.815625],[-78.32421,0.816205],[-78.325767,0.819077],[-78.330723,0.821935],[-78.332979,0.820601],[-78.334016,0.822176],[-78.336334,0.822501],[-78.33919,0.821429],[-78.339617,0.823377],[-78.342922,0.823274],[-78.345659,0.816921],[-78.348304,0.818214],[-78.352934,0.815292],[-78.354856,0.818157],[-78.35702,0.819046],[-78.359785,0.818302],[-78.362569,0.820462],[-78.36095,0.822433],[-78.36416,0.823547],[-78.364218,0.825536],[-78.371879,0.827401],[-78.373784,0.825529],[-78.3819,0.829234],[-78.384872,0.826598],[-78.387172,0.825436],[-78.38842,0.828291],[-78.39178,0.828848],[-78.392517,0.831934],[-78.395537,0.83321],[-78.400647,0.837049],[-78.404825,0.840768],[-78.406461,0.838815],[-78.411017,0.842956],[-78.409343,0.845188],[-78.412972,0.846552],[-78.415668,0.848576],[-78.417504,0.847271],[-78.418818,0.848476],[-78.417747,0.851296],[-78.41853,0.852775],[-78.423289,0.853224],[-78.422085,0.855822],[-78.423812,0.857713],[-78.426792,0.859409],[-78.42817,0.861418],[-78.428149,0.863317],[-78.431698,0.86472],[-78.431777,0.868586],[-78.432653,0.869333],[-78.436722,0.869762],[-78.435393,0.87197],[-78.43795,0.874032],[-78.440636,0.871683],[-78.441517,0.873993],[-78.443721,0.874754],[-78.448785,0.875378],[-78.450859,0.874438],[-78.453598,0.875927],[-78.454436,0.874226],[-78.452986,0.871497],[-78.453439,0.869224],[-78.451957,0.86704],[-78.451939,0.864288],[-78.450622,0.863109],[-78.452255,0.860828],[-78.453188,0.85778],[-78.452249,0.85564],[-78.453005,0.853844],[-78.452348,0.850459],[-78.453167,0.84699],[-78.454525,0.845484],[-78.453972,0.840746],[-78.45197,0.83765],[-78.448469,0.83773],[-78.446806,0.834988],[-78.446749,0.82659],[-78.449932,0.826709],[-78.450854,0.823344],[-78.442882,0.818827],[-78.441904,0.816789],[-78.44188,0.813439],[-78.443411,0.813024],[-78.443906,0.809125],[-78.44279,0.805103],[-78.444496,0.801571],[-78.446103,0.799678],[-78.448585,0.800986],[-78.451004,0.798995],[-78.452255,0.796219],[-78.44945,0.792509],[-78.451415,0.789277],[-78.453671,0.789539],[-78.456983,0.785817],[-78.459141,0.785721],[-78.45918,0.783934],[-78.457765,0.78095],[-78.454,0.780915],[-78.451044,0.778728],[-78.452716,0.77243],[-78.454232,0.770269],[-78.453319,0.768304],[-78.448929,0.768516],[-78.445801,0.766884],[-78.443189,0.764603],[-78.442144,0.75933],[-78.438661,0.750226],[-78.428637,0.745285],[-78.41663,0.738682],[-78.412971,0.736155],[-78.400127,0.72897],[-78.384017,0.7164],[-78.378838,0.711294],[-78.374272,0.712514],[-78.370856,0.714241],[-78.367593,0.713266],[-78.364041,0.707636],[-78.357569,0.701703],[-78.353006,0.700064],[-78.349838,0.695859],[-78.341905,0.694098],[-78.335819,0.697919],[-78.328448,0.697429],[-78.322528,0.694506],[-78.315157,0.694258],[-78.307666,0.691334],[-78.304162,0.691332],[-78.29902,0.689524],[-78.294412,0.688739],[-78.290354,0.684441],[-78.289255,0.679868],[-78.289601,0.676265],[-78.291156,0.674579],[-78.285559,0.667352],[-78.284514,0.662327],[-78.285146,0.659754],[-78.286858,0.659223],[-78.288618,0.654737],[-78.287719,0.650832],[-78.285152,0.648619],[-78.285581,0.646889],[-78.284812,0.644208],[-78.286743,0.638859],[-78.285962,0.637415],[-78.28228,0.633723],[-78.283453,0.630596],[-78.28423,0.625828],[-78.2793,0.620687],[-78.278161,0.61747],[-78.26732,0.610605],[-78.261039,0.608038],[-78.255019,0.606933],[-78.245528,0.60253],[-78.244958,0.601783],[-78.246746,0.597844],[-78.244686,0.594696],[-78.250857,0.587577],[-78.255711,0.584413],[-78.260429,0.582868],[-78.263656,0.577569],[-78.263753,0.574719],[-78.265171,0.570253],[-78.266277,0.569242],[-78.267596,0.564679],[-78.268146,0.559315],[-78.267681,0.555842],[-78.265462,0.557189],[-78.257862,0.560322],[-78.25489,0.559791],[-78.252249,0.560548],[-78.250247,0.559707],[-78.250209,0.557591],[-78.245672,0.556278],[-78.241179,0.55687],[-78.238037,0.558359],[-78.234048,0.561646],[-78.232289,0.563739],[-78.229188,0.565599],[-78.226381,0.565888],[-78.223825,0.56208],[-78.221371,0.562688],[-78.22006,0.561181],[-78.214164,0.558448],[-78.213132,0.557472],[-78.209577,0.556695],[-78.208899,0.555654],[-78.208824,0.551602],[-78.208054,0.548617],[-78.203696,0.544556],[-78.202388,0.539671],[-78.195857,0.534941],[-78.192632,0.535108],[-78.188165,0.536946],[-78.182815,0.533754],[-78.178852,0.533002],[-78.176717,0.533813],[-78.170904,0.531475],[-78.168248,0.531111],[-78.167094,0.528683],[-78.171045,0.529624],[-78.172332,0.526562],[-78.170422,0.526484],[-78.168445,0.524029],[-78.162449,0.522246],[-78.154521,0.521519],[-78.152861,0.519151],[-78.153589,0.516994],[-78.151667,0.513774],[-78.151903,0.512706],[-78.15543,0.510674],[-78.15577,0.509138],[-78.158298,0.506153],[-78.161159,0.503797],[-78.1632,0.499865],[-78.162519,0.498824],[-78.162979,0.493058],[-78.165029,0.491544],[-78.1674,0.492601],[-78.169658,0.492127],[-78.168444,0.48334],[-78.166941,0.482145],[-78.166379,0.479755],[-78.162734,0.477935],[-78.16096,0.474907],[-78.162187,0.472583],[-78.157992,0.470912],[-78.156839,0.468666],[-78.156908,0.466583],[-78.154586,0.463068],[-78.152701,0.457777],[-78.152678,0.455373],[-78.153961,0.451407],[-78.151293,0.446395],[-78.143188,0.450628],[-78.139416,0.456328],[-78.136442,0.458236],[-78.133827,0.456132],[-78.131806,0.460243],[-78.128587,0.463186],[-78.124073,0.462478],[-78.120999,0.461473],[-78.121556,0.459434],[-78.120869,0.456482],[-78.123305,0.454375],[-78.122698,0.451984],[-78.123782,0.449725],[-78.12228,0.445149],[-78.124765,0.43592],[-78.122773,0.435424],[-78.12204,0.433563],[-78.124369,0.430533],[-78.12408,0.428471],[-78.126517,0.425986],[-78.129367,0.420515],[-78.131325,0.415277],[-78.132257,0.408329],[-78.133226,0.407261],[-78.132731,0.403708],[-78.134075,0.40192],[-78.133391,0.398853],[-78.134139,0.39594],[-78.136632,0.39312],[-78.137823,0.392745],[-78.13816,0.390036],[-78.140989,0.385924],[-78.143085,0.385986],[-78.144782,0.382618],[-78.146809,0.381164],[-78.14754,0.377885],[-78.147404,0.366967],[-78.146604,0.364731],[-78.151218,0.356882],[-78.168182,0.357015],[-78.166362,0.363292],[-78.166757,0.364494],[-78.174782,0.359926],[-78.178208,0.359071],[-78.183193,0.352501],[-78.187995,0.345517],[-78.184788,0.343408],[-78.180897,0.342031],[-78.181491,0.339425],[-78.180761,0.333576],[-78.182394,0.329109],[-78.185702,0.328707],[-78.187922,0.327234],[-78.190346,0.322462],[-78.19102,0.317147],[-78.190596,0.309204],[-78.186046,0.303008],[-78.186454,0.301917],[-78.184154,0.295969],[-78.183859,0.293741],[-78.181995,0.288969],[-78.1795,0.28613],[-78.179156,0.282464],[-78.178035,0.281268],[-78.176708,0.276219],[-78.177624,0.272522],[-78.177375,0.263765],[-78.178985,0.259978],[-78.181034,0.258337],[-78.180512,0.254277]]]},"properties":{"shapeName":"Ibarra","shapeISO":"8360857B37631210722611","shapeGroup":"ECU","shapeType":"ADM2","src_shape_id":"8360857B37631210722611","adm1ISO":"EC-I"}},
{"type":"Feature","geometry":{"type":"Polygon","coordinates":[[[-79.016709,0.272371],[-79.01049,0.273084],[-79.008459,0.271278],[-79.009097,0.269577],[-79.006733,0.268153],[-79.007113,0.265983],[-79.004844,0.264283],[-79.002918,0.261475],[-79.000111,0.261141],[-78.997047,0.258981],[-78.993264,0.259232],[-78.992589,0.261278],[-78.989373,0.26244],[-78.984569,0.267383],[-78.984738,0.26963],[-78.983869,0.273147],[-78.984908,0.275413],[-78.98458,0.278209],[-78.981981,0.282332],[-78.978792,0.280793],[-78.976317,0.282206],[-78.974053,0.287254],[-78.972322,0.289522],[-78.970355,0.290254],[-78.969211,0.293036],[-78.966876,0.295071],[-78.965196,0.29305],[-78.963003,0.294354],[-78.956965,0.293152],[-78.955587,0.297457],[-78.955396,0.300321],[-78.957272,0.301853],[-78.957129,0.305203],[-78.960134,0.307836],[-78.956605,0.310766],[-78.954514,0.311627],[-78.953848,0.315083],[-78.952148,0.319517],[-78.94919,0.321467],[-78.944258,0.329053],[-78.941108,0.331127],[-78.936512,0.331867],[-78.932818,0.335506],[-78.931994,0.339617],[-78.924837,0.343783],[-78.925016,0.347225],[-78.924347,0.349261],[-78.92547,0.353589],[-78.927839,0.354424],[-78.926592,0.356251],[-78.92354,0.357108],[-78.922862,0.358335],[-78.923498,0.359466],[-78.929193,0.357571],[-78.937802,0.359379],[-78.948653,0.358975],[-78.953855,0.357441],[-78.964035,0.35144],[-78.969237,0.347965],[-78.980718,0.338668],[-78.983858,0.334741],[-78.986235,0.33104],[-78.988967,0.330013],[-78.99218,0.327438],[-78.995565,0.323371],[-78.998399,0.321707],[-79.011735,0.316906],[-79.015387,0.312461],[-79.020245,0.310955],[-79.022516,0.308184],[-79.024862,0.306828],[-79.033329,0.305992],[-79.038045,0.306838],[-79.047251,0.3107],[-79.051619,0.314073],[-79.056816,0.319609],[-79.059852,0.321209],[-79.06698,0.322408],[-79.070123,0.323916],[-79.07271,0.326152],[-79.07704,0.331676],[-79.079727,0.333851],[-79.084964,0.333105],[-79.087122,0.334889],[-79.091357,0.336339],[-79.095735,0.335187],[-79.098622,0.33523],[-79.101671,0.332921],[-79.106159,0.334213],[-79.108652,0.336156],[-79.114592,0.33596],[-79.116068,0.334865],[-79.119492,0.337141],[-79.121313,0.336946],[-79.12413,0.33836],[-79.126913,0.338505],[-79.127455,0.340604],[-79.129662,0.341593],[-79.131745,0.340463],[-79.13398,0.341135],[-79.134635,0.342661],[-79.137226,0.341678],[-79.141166,0.342299],[-79.143533,0.341751],[-79.148098,0.344024],[-79.150789,0.343902],[-79.153207,0.345478],[-79.158169,0.346079],[-79.158386,0.347094],[-79.163361,0.347904],[-79.16743,0.346134],[-79.169085,0.346434],[-79.172298,0.345526],[-79.174872,0.347815],[-79.177594,0.345994],[-79.182337,0.346564],[-79.185239,0.345144],[-79.188506,0.341403],[-79.191669,0.341343],[-79.193441,0.340116],[-79.194907,0.342023],[-79.196999,0.341375],[-79.198424,0.343287],[-79.201643,0.344199],[-79.205966,0.344659],[-79.207595,0.346345],[-79.215289,0.344154],[-79.217948,0.341712],[-79.220238,0.341171],[-79.221557,0.342316],[-79.226875,0.342481],[-79.229366,0.341819],[-79.231769,0.339774],[-79.236246,0.340227],[-79.236498,0.34151],[-79.239837,0.342699],[-79.240596,0.340164],[-79.245788,0.339125],[-79.246623,0.341308],[-79.24933,0.34158],[-79.252836,0.339788],[-79.258418,0.341498],[-79.26227,0.339541],[-79.263474,0.340607],[-79.265179,0.338397],[-79.266998,0.338511],[-79.27195,0.337041],[-79.274657,0.333172],[-79.274715,0.330453],[-79.269992,0.330829],[-79.268569,0.329548],[-79.272155,0.3263],[-79.273204,0.323649],[-79.271751,0.320049],[-79.270122,0.318795],[-79.266897,0.317923],[-79.264655,0.318072],[-79.258628,0.319852],[-79.25204,0.320401],[-79.250133,0.322089],[-79.246887,0.323308],[-79.24333,0.320277],[-79.241373,0.320077],[-79.233829,0.326749],[-79.230152,0.326533],[-79.225996,0.324329],[-79.224706,0.321901],[-79.221969,0.321306],[-79.219926,0.322411],[-79.219882,0.324362],[-79.216733,0.324743],[-79.215391,0.320967],[-79.2132,0.319198],[-79.208521,0.319938],[-79.204854,0.322637],[-79.201043,0.320626],[-79.193614,0.31842],[-79.189192,0.317985],[-79.1779,0.312715],[-79.172672,0.315253],[-79.167442,0.31534],[-79.16562,0.316866],[-79.161613,0.31809],[-79.159945,0.31772],[-79.157137,0.319333],[-79.156427,0.320982],[-79.152077,0.321878],[-79.1495,0.316418],[-79.14757,0.316441],[-79.142754,0.319726],[-79.14032,0.321867],[-79.130987,0.320727],[-79.128458,0.319655],[-79.126868,0.315179],[-79.124783,0.313566],[-79.122171,0.31288],[-79.117447,0.309335],[-79.115836,0.303252],[-79.113156,0.299205],[-79.110454,0.29861],[-79.108863,0.300485],[-79.11177,0.30268],[-79.113291,0.305813],[-79.110702,0.307596],[-79.106591,0.305149],[-79.100572,0.306222],[-79.097552,0.303661],[-79.089444,0.299932],[-79.086946,0.299452],[-79.083335,0.30112],[-79.076879,0.306336],[-79.072045,0.308572],[-79.068593,0.309257],[-79.065699,0.306692],[-79.062478,0.305898],[-79.059691,0.307628],[-79.058535,0.306315],[-79.057324,0.298833],[-79.057472,0.296147],[-79.05608,0.293431],[-79.051336,0.293863],[-79.049528,0.291281],[-79.047735,0.290087],[-79.043006,0.294861],[-79.039285,0.295203],[-79.035106,0.294337],[-79.029904,0.291934],[-79.029222,0.28989],[-79.030201,0.285488],[-79.031343,0.283265],[-79.028542,0.280608],[-79.025148,0.279518],[-79.020494,0.279368],[-79.017441,0.277099],[-79.017752,0.274041],[-79.016709,0.272371]]]},"properties":{"shapeName":"Las Golondrinas","shapeISO":"8360857B1829680752404","shapeGroup":"ECU","shapeType":"ADM2","src_shape_id":"8360857B1829680752404","adm1ISO":"EC-I"}},
{"type":"Feature","geometry":{"type":"Polygon","coordinates":[[[-78.244395,0.305276],[-78.245602,0.304629],[-78.246606,0.301439],[-78.251927,0.29432],[-78.252612,0.291802],[-78.256682,0.291183],[-78.258232,0.289571],[-78.254551,0.284676],[-78.256832,0.280387],[-78.260806,0.279631],[-78.26317,0.276694],[-78.263633,0.274848],[-78.26666,0.273776],[-78.266634,0.270497],[-78.270137,0.264732],[-78.271363,0.262002],[-78.273694,0.260064],[-78.278256,0.258978],[-78.278209,0.260252],[-78.282452,0.259633],[-78.285774,0.266629],[-78.29397,0.268642],[-78.298793,0.269165],[-78.300609,0.268874],[-78.303579,0.267104],[-78.306901,0.267717],[-78.311053,0.264736],[-78.31349,0.259443],[-78.315798,0.260412],[-78.31859,0.260448],[-78.320078,0.26371],[-78.323961,0.263658],[-78.331936,0.266257],[-78.334421,0.267644],[-78.337605,0.268145],[-78.33886,0.27003],[-78.341474,0.27061],[-78.342079,0.272607],[-78.34429,0.272453],[-78.348879,0.276445],[-78.353134,0.277365],[-78.357013,0.280178],[-78.359656,0.280525],[-78.364958,0.282677],[-78.369354,0.281845],[-78.374116,0.285375],[-78.379034,0.292396],[-78.381574,0.29472],[-78.381782,0.296081],[-78.384935,0.301124],[-78.385365,0.30661],[-78.390571,0.304611],[-78.391811,0.305024],[-78.393213,0.301017],[-78.392887,0.299324],[-78.395936,0.297181],[-78.396946,0.293923],[-78.400167,0.29434],[-78.400891,0.292959],[-78.405019,0.292687],[-78.407168,0.291734],[-78.409637,0.292301],[-78.417234,0.29195],[-78.421431,0.29828],[-78.422583,0.300702],[-78.422571,0.306547],[-78.422149,0.309242],[-78.427319,0.30534],[-78.431288,0.306114],[-78.434809,0.309196],[-78.4356,0.308464],[-78.439014,0.308731],[-78.439754,0.310191],[-78.444097,0.309816],[-78.446366,0.306131],[-78.449388,0.306906],[-78.450955,0.306402],[-78.452772,0.301776],[-78.456776,0.297627],[-78.460966,0.295436],[-78.463167,0.293612],[-78.464062,0.290771],[-78.466032,0.289282],[-78.473143,0.288205],[-78.478654,0.290186],[-78.481034,0.295754],[-78.484375,0.298536],[-78.493152,0.300005],[-78.494167,0.300821],[-78.493959,0.30338],[-78.495199,0.306376],[-78.491979,0.307542],[-78.488799,0.313337],[-78.489909,0.322601],[-78.496423,0.321338],[-78.498543,0.319223],[-78.50122,0.3182],[-78.502765,0.3166],[-78.50957,0.316335],[-78.514405,0.313556],[-78.516591,0.309185],[-78.519072,0.306961],[-78.521525,0.306273],[-78.526399,0.30306],[-78.527711,0.30116],[-78.530867,0.299867],[-78.533006,0.296635],[-78.535563,0.296042],[-78.540125,0.293112],[-78.543326,0.288975],[-78.544889,0.288736],[-78.543798,0.285057],[-78.544332,0.284156],[-78.549219,0.283147],[-78.550827,0.28389],[-78.555676,0.284619],[-78.557046,0.284322],[-78.559744,0.281297],[-78.565434,0.276463],[-78.570366,0.275437],[-78.573689,0.274053],[-78.57474,0.272758],[-78.579981,0.270986],[-78.581744,0.269331],[-78.581939,0.26675],[-78.583939,0.265166],[-78.586447,0.259927],[-78.589769,0.256934],[-78.590313,0.254965],[-78.594195,0.2557],[-78.592905,0.252894],[-78.591249,0.246363],[-78.592919,0.241805],[-78.592809,0.238314],[-78.595255,0.236985],[-78.5954,0.2337],[-78.59732,0.234338],[-78.599916,0.233135],[-78.603553,0.236369],[-78.607269,0.236513],[-78.612313,0.232226],[-78.614921,0.228348],[-78.616756,0.226943],[-78.616972,0.224312],[-78.618864,0.222795],[-78.618979,0.22064],[-78.622596,0.219862],[-78.62507,0.218105],[-78.62135,0.216311],[-78.617474,0.21746],[-78.617454,0.219036],[-78.615088,0.220765],[-78.608982,0.217662],[-78.607066,0.218035],[-78.60515,0.216817],[-78.603002,0.218156],[-78.604804,0.219592],[-78.6019,0.22209],[-78.5994,0.22212],[-78.597686,0.223426],[-78.593006,0.222777],[-78.58917,0.222978],[-78.584316,0.224876],[-78.58145,0.22517],[-78.578779,0.224559],[-78.575171,0.225093],[-78.567103,0.222684],[-78.562649,0.224651],[-78.559808,0.223546],[-78.554978,0.224331],[-78.55283,0.22559],[-78.551228,0.228066],[-78.545504,0.231178],[-78.544449,0.234515],[-78.541604,0.237875],[-78.540338,0.235806],[-78.536801,0.234711],[-78.532466,0.232181],[-78.530309,0.231949],[-78.528634,0.229686],[-78.524664,0.228144],[-78.520655,0.229216],[-78.513479,0.226121],[-78.509597,0.22709],[-78.508179,0.228821],[-78.508369,0.231196],[-78.506905,0.233396],[-78.506685,0.235621],[-78.503977,0.237441],[-78.500873,0.241781],[-78.497015,0.243659],[-78.49612,0.248135],[-78.495034,0.249648],[-78.492179,0.251101],[-78.490339,0.253118],[-78.488748,0.253241],[-78.486352,0.25176],[-78.483885,0.251975],[-78.47983,0.249825],[-78.476785,0.247113],[-78.474955,0.246904],[-78.472439,0.248453],[-78.466581,0.255383],[-78.462309,0.24829],[-78.458126,0.245895],[-78.457,0.244041],[-78.456196,0.240549],[-78.454408,0.239703],[-78.443499,0.237914],[-78.441354,0.239086],[-78.436327,0.240072],[-78.434027,0.241606],[-78.431728,0.242134],[-78.429237,0.245213],[-78.426847,0.246175],[-78.419748,0.251635],[-78.416024,0.251645],[-78.414444,0.250445],[-78.409116,0.248733],[-78.405264,0.246841],[-78.404205,0.243092],[-78.402474,0.241211],[-78.398274,0.243044],[-78.398671,0.249921],[-78.394472,0.245668],[-78.390788,0.244637],[-78.387541,0.247491],[-78.384632,0.248681],[-78.384261,0.250663],[-78.381468,0.250121],[-78.380419,0.241528],[-78.379188,0.238743],[-78.380192,0.235546],[-78.378845,0.234638],[-78.377884,0.230551],[-78.374481,0.22898],[-78.373868,0.225039],[-78.372176,0.222615],[-78.367788,0.222227],[-78.36556,0.221381],[-78.363739,0.219254],[-78.359446,0.217653],[-78.356681,0.217189],[-78.360471,0.213707],[-78.361993,0.210232],[-78.363814,0.208622],[-78.362512,0.205538],[-78.359237,0.204189],[-78.358179,0.202784],[-78.360741,0.192686],[-78.361978,0.192041],[-78.363373,0.188228],[-78.365179,0.186221],[-78.366485,0.178793],[-78.369529,0.176219],[-78.372462,0.170625],[-78.376092,0.168005],[-78.374622,0.165128],[-78.374936,0.161567],[-78.373532,0.159497],[-78.371668,0.161714],[-78.368484,0.162937],[-78.366921,0.165787],[-78.365221,0.165639],[-78.364099,0.167464],[-78.362088,0.167313],[-78.357593,0.171332],[-78.355016,0.174668],[-78.346944,0.187646],[-78.34355,0.191102],[-78.343085,0.193715],[-78.339919,0.197994],[-78.340121,0.200322],[-78.337897,0.203266],[-78.332484,0.202046],[-78.332674,0.197741],[-78.332057,0.19139],[-78.323482,0.190371],[-78.320842,0.187532],[-78.317688,0.187712],[-78.313664,0.186524],[-78.310716,0.184976],[-78.307804,0.178566],[-78.305491,0.176115],[-78.301614,0.17309],[-78.302584,0.170217],[-78.301494,0.168245],[-78.301171,0.165301],[-78.299347,0.163885],[-78.297702,0.163991],[-78.297035,0.16114],[-78.29929,0.161056],[-78.298525,0.157926],[-78.296233,0.154831],[-78.291816,0.152535],[-78.288419,0.151459],[-78.286448,0.149904],[-78.28588,0.146938],[-78.288806,0.142336],[-78.291639,0.138846],[-78.29337,0.133633],[-78.291355,0.133992],[-78.288077,0.135833],[-78.280476,0.139347],[-78.272865,0.138672],[-78.258001,0.136132],[-78.255999,0.132052],[-78.252393,0.12852],[-78.248,0.127352],[-78.248038,0.124895],[-78.245197,0.122874],[-78.23946,0.123335],[-78.235507,0.122993],[-78.232244,0.123386],[-78.229872,0.124464],[-78.226531,0.127989],[-78.224032,0.129392],[-78.217446,0.127423],[-78.214293,0.127116],[-78.205547,0.128637],[-78.201102,0.128157],[-78.197422,0.13091],[-78.195799,0.135101],[-78.196513,0.138366],[-78.195031,0.14022],[-78.189378,0.138936],[-78.187597,0.139656],[-78.185879,0.136537],[-78.183345,0.135511],[-78.179859,0.135039],[-78.177804,0.135727],[-78.176041,0.137546],[-78.173131,0.13749],[-78.169385,0.138772],[-78.164323,0.141944],[-78.160045,0.142152],[-78.155444,0.141143],[-78.153045,0.142502],[-78.151123,0.145153],[-78.15016,0.147738],[-78.146018,0.151179],[-78.148462,0.1572],[-78.148269,0.158949],[-78.144234,0.163842],[-78.142841,0.167954],[-78.139258,0.175009],[-78.13876,0.176706],[-78.139142,0.181834],[-78.136555,0.188264],[-78.133548,0.191435],[-78.132705,0.194057],[-78.132336,0.198011],[-78.128989,0.205864],[-78.127046,0.212622],[-78.127597,0.214285],[-78.127016,0.219235],[-78.123368,0.22012],[-78.121029,0.222178],[-78.12023,0.224778],[-78.123212,0.228477],[-78.123777,0.231309],[-78.129773,0.230502],[-78.135733,0.230626],[-78.140881,0.231117],[-78.144651,0.232597],[-78.14605,0.234802],[-78.150158,0.238302],[-78.154401,0.240849],[-78.159159,0.243066],[-78.164144,0.248576],[-78.165752,0.253078],[-78.16863,0.251697],[-78.172711,0.251735],[-78.177811,0.254246],[-78.180512,0.254277],[-78.181746,0.255285],[-78.183662,0.259004],[-78.18624,0.262606],[-78.194746,0.27087],[-78.197016,0.275179],[-78.205951,0.277288],[-78.207127,0.27675],[-78.211156,0.278125],[-78.212832,0.277521],[-78.215772,0.278349],[-78.219585,0.28329],[-78.225358,0.288836],[-78.228312,0.284113],[-78.231776,0.286304],[-78.234282,0.286478],[-78.235648,0.28804],[-78.241394,0.291069],[-78.243831,0.296741],[-78.243378,0.299099],[-78.24475,0.303033],[-78.244395,0.305276]]]},"properties":{"shapeName":"Otavalo","shapeISO":"8360857B9675012556832","shapeGroup":"ECU","shapeType":"ADM2","src_shape_id":"8360857B9675012556832","adm1ISO":"EC-I"}},
{"type":"Feature","geometry":{"type":"Polygon","coordinates":[[[-77.962612,0.433345],[-77.964612,0.429286],[-77.964569,0.426812],[-77.96614,0.421115],[-77.965894,0.417631],[-77.9669,0.414063],[-77.968336,0.411732],[-77.96916,0.406281],[-77.969494,0.399383],[-77.972042,0.398048],[-77.97277,0.395854],[-77.976417,0.38886],[-77.977295,0.3859],[-77.977245,0.381994],[-77.9763,0.379003],[-77.976758,0.376875],[-77.975832,0.374435],[-77.979546,0.372649],[-77.980086,0.370779],[-77.979176,0.366023],[-77.98004,0.363824],[-77.981789,0.362669],[-77.982493,0.358914],[-77.983756,0.355413],[-77.983661,0.351385],[-77.985467,0.348562],[-77.987316,0.342357],[-77.989632,0.338261],[-77.994744,0.333399],[-78.000138,0.32946],[-78.006089,0.329393],[-78.010264,0.32694],[-78.012006,0.324502],[-78.013997,0.319236],[-78.014017,0.314061],[-78.012133,0.312284],[-78.011068,0.305994],[-78.01288,0.298654],[-78.01629,0.292223],[-78.020206,0.29146],[-78.021912,0.293076],[-78.025674,0.29351],[-78.028853,0.292168],[-78.034132,0.280974],[-78.040211,0.277835],[-78.040603,0.276979],[-78.034287,0.275154],[-78.031351,0.27285],[-78.029211,0.269934],[-78.028315,0.267289],[-78.02817,0.261727],[-78.030878,0.252864],[-78.028522,0.24397],[-78.033103,0.23756],[-78.03393,0.231756],[-78.032652,0.222552],[-78.032538,0.219147],[-78.031262,0.211697],[-78.032027,0.208377],[-78.029998,0.202095],[-78.030982,0.200082],[-78.033378,0.197574],[-78.033964,0.195446],[-78.032447,0.192987],[-78.031432,0.188263],[-78.026529,0.18821],[-78.024503,0.187387],[-78.020203,0.1843],[-78.018258,0.181753],[-78.01534,0.180901],[-78.011276,0.178924],[-78.008373,0.176585],[-78.007827,0.174674],[-78.004535,0.174095],[-78.002223,0.172478],[-77.998306,0.172866],[-77.990066,0.17194],[-77.984051,0.172743],[-77.979383,0.169905],[-77.974988,0.168846],[-77.966934,0.168616],[-77.966147,0.167398],[-77.966176,0.159687],[-77.965177,0.158031],[-77.961528,0.159414],[-77.956087,0.157848],[-77.953312,0.162176],[-77.94858,0.166577],[-77.94563,0.170136],[-77.942815,0.175615],[-77.941387,0.179972],[-77.937609,0.180334],[-77.93361,0.177436],[-77.928352,0.177699],[-77.925361,0.181206],[-77.924494,0.1846],[-77.92521,0.186519],[-77.923571,0.190248],[-77.925039,0.194848],[-77.924549,0.197888],[-77.920108,0.199257],[-77.913688,0.202919],[-77.911829,0.204915],[-77.905472,0.205796],[-77.900959,0.202438],[-77.898242,0.20231],[-77.895782,0.203845],[-77.893076,0.203597],[-77.887567,0.20008],[-77.882106,0.200475],[-77.871921,0.206812],[-77.870468,0.208978],[-77.872613,0.213596],[-77.873153,0.21585],[-77.872271,0.217844],[-77.869602,0.218903],[-77.86536,0.231221],[-77.860256,0.234098],[-77.858492,0.237433],[-77.856172,0.239011],[-77.851011,0.238651],[-77.848792,0.241833],[-77.851436,0.24715],[-77.847908,0.250718],[-77.848423,0.256887],[-77.847581,0.259255],[-77.846072,0.259343],[-77.84267,0.261585],[-77.840416,0.261771],[-77.834741,0.266112],[-77.831847,0.267435],[-77.828737,0.272876],[-77.831142,0.273823],[-77.838866,0.273847],[-77.843121,0.275815],[-77.846831,0.276012],[-77.847307,0.280489],[-77.847247,0.286711],[-77.844859,0.295247],[-77.850852,0.2994],[-77.851307,0.303163],[-77.850492,0.304395],[-77.839692,0.306961],[-77.836511,0.313945],[-77.833045,0.31788],[-77.825765,0.322578],[-77.825312,0.326574],[-77.826825,0.329874],[-77.823634,0.33105],[-77.823905,0.33388],[-77.820034,0.339526],[-77.818511,0.340272],[-77.819708,0.344603],[-77.81697,0.347632],[-77.814831,0.348496],[-77.812125,0.350797],[-77.81031,0.353657],[-77.812719,0.356768],[-77.813589,0.362198],[-77.817342,0.36409],[-77.821935,0.362252],[-77.825271,0.360361],[-77.832915,0.359335],[-77.837795,0.356616],[-77.839428,0.358093],[-77.847567,0.36182],[-77.853938,0.365722],[-77.855179,0.367279],[-77.859854,0.371094],[-77.863041,0.375983],[-77.863147,0.379768],[-77.867032,0.381757],[-77.871333,0.381339],[-77.873185,0.380027],[-77.876028,0.382743],[-77.879609,0.383259],[-77.880055,0.385712],[-77.881545,0.386454],[-77.886971,0.387215],[-77.888953,0.388999],[-77.890932,0.388713],[-77.897065,0.390259],[-77.898331,0.391908],[-77.902689,0.39408],[-77.907333,0.398606],[-77.909501,0.397887],[-77.913418,0.398769],[-77.917205,0.401239],[-77.92199,0.400763],[-77.923703,0.401279],[-77.92493,0.404794],[-77.927189,0.405479],[-77.92935,0.407537],[-77.930371,0.411305],[-77.929823,0.413863],[-77.932246,0.417348],[-77.936072,0.420673],[-77.937187,0.423114],[-77.940448,0.426416],[-77.942134,0.426803],[-77.945678,0.431201],[-77.949314,0.432616],[-77.950779,0.43387],[-77.952981,0.434089],[-77.960471,0.432171],[-77.962612,0.433345]]]},"properties":{"shapeName":"Pimampiro","shapeISO":"8360857B7887344691779","shapeGroup":"ECU","shapeType":"ADM2","src_shape_id":"8360857B7887344691779","adm1ISO":"EC-I"}},
{"type":"Feature","geometry":{"type":"Polygon","coordinates":[[[-78.134075,0.40192],[-78.132731,0.403708],[-78.133226,0.407261],[-78.132257,0.408329],[-78.131325,0.415277],[-78.129367,0.420515],[-78.126517,0.425986],[-78.12408,0.428471],[-78.124369,0.430533],[-78.12204,0.433563],[-78.122773,0.435424],[-78.124765,0.43592],[-78.12228,0.445149],[-78.123782,0.449725],[-78.122698,0.451984],[-78.123305,0.454375],[-78.120869,0.456482],[-78.121556,0.459434],[-78.120999,0.461473],[-78.124073,0.462478],[-78.128587,0.463186],[-78.131806,0.460243],[-78.133827,0.456132],[-78.136442,0.458236],[-78.139416,0.456328],[-78.143188,0.450628],[-78.151293,0.446395],[-78.153961,0.451407],[-78.152678,0.455373],[-78.152701,0.457777],[-78.154586,0.463068],[-78.156908,0.466583],[-78.156839,0.468666],[-78.157992,0.470912],[-78.162187,0.472583],[-78.16096,0.474907],[-78.162734,0.477935],[-78.166379,0.479755],[-78.166941,0.482145],[-78.168444,0.48334],[-78.169658,0.492127],[-78.1674,0.492601],[-78.165029,0.491544],[-78.162979,0.493058],[-78.162519,0.498824],[-78.1632,0.499865],[-78.161159,0.503797],[-78.158298,0.506153],[-78.15577,0.509138],[-78.15543,0.510674],[-78.151903,0.512706],[-78.151667,0.513774],[-78.153589,0.516994],[-78.152861,0.519151],[-78.154521,0.521519],[-78.162449,0.522246],[-78.168445,0.524029],[-78.170422,0.526484],[-78.172332,0.526562],[-78.171045,0.529624],[-78.167094,0.528683],[-78.168248,0.531111],[-78.170904,0.531475],[-78.176717,0.533813],[-78.178852,0.533002],[-78.182815,0.533754],[-78.188165,0.536946],[-78.192632,0.535108],[-78.195857,0.534941],[-78.202388,0.539671],[-78.203696,0.544556],[-78.208054,0.548617],[-78.208824,0.551602],[-78.208899,0.555654],[-78.209577,0.556695],[-78.213132,0.557472],[-78.214164,0.558448],[-78.22006,0.561181],[-78.221371,0.562688],[-78.223825,0.56208],[-78.226381,0.565888],[-78.229188,0.565599],[-78.232289,0.563739],[-78.234048,0.561646],[-78.238037,0.558359],[-78.241179,0.55687],[-78.245672,0.556278],[-78.250209,0.557591],[-78.250247,0.559707],[-78.252249,0.560548],[-78.25489,0.559791],[-78.257862,0.560322],[-78.265462,0.557189],[-78.267681,0.555842],[-78.268146,0.559315],[-78.267596,0.564679],[-78.266277,0.569242],[-78.265171,0.570253],[-78.263753,0.574719],[-78.263656,0.577569],[-78.260429,0.582868],[-78.255711,0.584413],[-78.250857,0.587577],[-78.244686,0.594696],[-78.246746,0.597844],[-78.244958,0.601783],[-78.245528,0.60253],[-78.255019,0.606933],[-78.261039,0.608038],[-78.26732,0.610605],[-78.278161,0.61747],[-78.2793,0.620687],[-78.28423,0.625828],[-78.283453,0.630596],[-78.28228,0.633723],[-78.285962,0.637415],[-78.286743,0.638859],[-78.284812,0.644208],[-78.285581,0.646889],[-78.285152,0.648619],[-78.287719,0.650832],[-78.288618,0.654737],[-78.286858,0.659223],[-78.285146,0.659754],[-78.284514,0.662327],[-78.285559,0.667352],[-78.291156,0.674579],[-78.289601,0.676265],[-78.289255,0.679868],[-78.290354,0.684441],[-78.294412,0.688739],[-78.29902,0.689524],[-78.304162,0.691332],[-78.307666,0.691334],[-78.315157,0.694258],[-78.322528,0.694506],[-78.328448,0.697429],[-78.335819,0.697919],[-78.341905,0.694098],[-78.349838,0.695859],[-78.353006,0.700064],[-78.357569,0.701703],[-78.364041,0.707636],[-78.367593,0.713266],[-78.370856,0.714241],[-78.374272,0.712514],[-78.378838,0.711294],[-78.384017,0.7164],[-78.400127,0.72897],[-78.412971,0.736155],[-78.41663,0.738682],[-78.428637,0.745285],[-78.438661,0.750226],[-78.442144,0.75933],[-78.443189,0.764603],[-78.445801,0.766884],[-78.448929,0.768516],[-78.453319,0.768304],[-78.454232,0.770269],[-78.452716,0.77243],[-78.451044,0.778728],[-78.454,0.780915],[-78.457765,0.78095],[-78.45918,0.783934],[-78.460578,0.779845],[-78.461669,0.778554],[-78.465641,0.777732],[-78.467068,0.776409],[-78.466977,0.774116],[-78.476745,0.77328],[-78.481178,0.770369],[-78.484576,0.770114],[-78.487774,0.768025],[-78.490249,0.768671],[-78.494437,0.767266],[-78.497182,0.767651],[-78.503287,0.771425],[-78.504985,0.774922],[-78.508112,0.776178],[-78.511759,0.776143],[-78.516784,0.771977],[-78.519006,0.771467],[-78.522935,0.771764],[-78.52493,0.771197],[-78.528517,0.771436],[-78.531826,0.772971],[-78.53607,0.773819],[-78.535316,0.768827],[-78.531998,0.765229],[-78.522462,0.760232],[-78.519774,0.757227],[-78.515347,0.74466],[-78.514593,0.741191],[-78.511048,0.730274],[-78.510336,0.725367],[-78.507127,0.714705],[-78.503557,0.711657],[-78.499812,0.706903],[-78.496641,0.706902],[-78.493657,0.704834],[-78.491733,0.702555],[-78.49049,0.697696],[-78.489699,0.690111],[-78.485552,0.687177],[-78.480423,0.684827],[-78.477661,0.68273],[-78.474491,0.673979],[-78.472156,0.671738],[-78.471547,0.669877],[-78.471846,0.663732],[-78.470731,0.662152],[-78.470678,0.65782],[-78.468961,0.653898],[-78.465855,0.65189],[-78.465414,0.64854],[-78.463737,0.644973],[-78.462953,0.64118],[-78.463081,0.637131],[-78.460562,0.628879],[-78.458056,0.627244],[-78.455254,0.626505],[-78.454118,0.623345],[-78.452687,0.621563],[-78.448242,0.620844],[-78.442998,0.61766],[-78.438959,0.614524],[-78.436411,0.613229],[-78.434285,0.610895],[-78.432616,0.60642],[-78.431975,0.602853],[-78.429913,0.599014],[-78.429833,0.594627],[-78.429117,0.590109],[-78.426543,0.585606],[-78.423049,0.587164],[-78.418526,0.586439],[-78.415368,0.584089],[-78.41081,0.58199],[-78.409086,0.578717],[-78.406097,0.577198],[-78.401744,0.57639],[-78.394961,0.569332],[-78.391108,0.568933],[-78.389123,0.5681],[-78.388179,0.565115],[-78.388478,0.561754],[-78.382192,0.56103],[-78.380881,0.558543],[-78.378506,0.555823],[-78.378465,0.552945],[-78.376303,0.548132],[-78.375955,0.545186],[-78.376654,0.542916],[-78.376179,0.538337],[-78.372826,0.530343],[-78.371021,0.529476],[-78.370162,0.525685],[-78.366969,0.522228],[-78.36675,0.516585],[-78.362699,0.512804],[-78.360346,0.511715],[-78.357885,0.509294],[-78.354711,0.508006],[-78.346922,0.501784],[-78.344226,0.499282],[-78.343219,0.496369],[-78.341393,0.49406],[-78.338241,0.492046],[-78.33662,0.48933],[-78.330404,0.482395],[-78.324588,0.478578],[-78.322141,0.475962],[-78.321453,0.472832],[-78.323794,0.468402],[-78.32713,0.465356],[-78.327926,0.461903],[-78.323931,0.456075],[-78.323596,0.452274],[-78.322143,0.448812],[-78.32138,0.44272],[-78.322622,0.440826],[-78.322478,0.437589],[-78.321111,0.433877],[-78.318442,0.432372],[-78.315468,0.429613],[-78.313775,0.427124],[-78.313897,0.425324],[-78.311911,0.422807],[-78.31017,0.419072],[-78.309631,0.416597],[-78.307223,0.414934],[-78.307121,0.413519],[-78.302143,0.412793],[-78.300885,0.411461],[-78.300419,0.408511],[-78.296786,0.40678],[-78.293493,0.407678],[-78.289489,0.406903],[-78.287258,0.407228],[-78.284669,0.406262],[-78.280294,0.406749],[-78.277612,0.405382],[-78.272772,0.400497],[-78.271325,0.400296],[-78.267441,0.397266],[-78.263078,0.397422],[-78.261709,0.39591],[-78.254889,0.392439],[-78.250406,0.391375],[-78.250003,0.390569],[-78.236161,0.384363],[-78.232538,0.382282],[-78.231824,0.380001],[-78.228808,0.378719],[-78.223412,0.374005],[-78.219975,0.373766],[-78.215025,0.372269],[-78.213496,0.372261],[-78.212646,0.374428],[-78.207269,0.374844],[-78.20648,0.376559],[-78.203627,0.376904],[-78.198771,0.375014],[-78.192727,0.378109],[-78.189856,0.379176],[-78.189543,0.381914],[-78.188275,0.382197],[-78.183587,0.386382],[-78.179243,0.386516],[-78.176314,0.39018],[-78.172564,0.39197],[-78.170534,0.394934],[-78.167344,0.395709],[-78.163467,0.395254],[-78.161453,0.396218],[-78.154675,0.39306],[-78.152944,0.391781],[-78.150376,0.393705],[-78.148429,0.393202],[-78.141914,0.394755],[-78.137853,0.396748],[-78.137505,0.398309],[-78.134615,0.400217],[-78.134075,0.40192]]]},"properties":{"shapeName":"San Miguel de Urcuqui","shapeISO":"8360857B34555635043771","shapeGroup":"ECU","shapeType":"ADM2","src_shape_id":"8360857B34555635043771","adm1ISO":"EC-I"}}
]}