{"type":"FeatureCollection","bbox":[-79.339855,-1.219827,-78.380924,-0.331365],"features":[
{"type":"Feature","id":"ECU:ADM2:EC-X.la-mana","properties":{"shapeName":"La Mana","shapeISO":"","shapeGroup":"ECU","shapeType":"ADM2","adm1ISO":"EC-X","parentISO":"EC-X","parentID":"ECU:ADM1:EC-X","src_shape_id":"8360857B47745613666531"},"geometry":{"type":"Polygon","coordinates":[[[-79.117312,-0.862162],[-79.112059,-0.862038],[-79.10987,-0.861462],[-79.10625,-0.858046],[-79.10407,-0.854996],[-79.103952,-0.851481],[-79.102078,-0.844767],[-79.098109,-0.839823],[-79.095354,-0.834684],[-79.092031,-0.834756],[-79.088414,-0.83322],[-79.087939,-0.830039],[-79.088216,-0.826823],[-79.08177,-0.820487],[-79.079202,-0.816981],[-79.080231,-0.814282],[-79.079148,-0.813061],[-79.074963,-0.810711],[-79.07445,-0.809084],[-79.071524,-0.807075],[-79.069567,-0.807215],[-79.064682,-0.808988],[-79.061966,-0.807249],[-79.057081,-0.808578],[-79.055087,-0.810437],[-79.05197,-0.809936],[-79.051564,-0.811747],[-79.045596,-0.81875],[-79.042183,-0.819486],[-79.035508,-0.820075],[-79.029282,-0.821575],[-79.026852,-0.82064],[-79.023948,-0.821235],[-79.020294,-0.81922],[-79.020157,-0.814653],[-79.022395,-0.812452],[-79.022035,-0.804506],[-79.021399,-0.802336],[-79.019461,-0.800874],[-79.01811,-0.796884],[-79.018465,-0.793799],[-79.021107,-0.786625],[-79.020369,-0.781665],[-79.02137,-0.779475],[-79.02114,-0.768701],[-79.019554,-0.766336],[-79.019672,-0.763885],[-79.022814,-0.759927],[-79.022355,-0.75759],[-79.014381,-0.758949],[-79.01257,-0.759895],[-79.008267,-0.759372],[-79.002715,-0.754021],[-79.001172,-0.751564],[-78.999383,-0.750465],[-78.997292,-0.750659],[-78.993364,-0.746096],[-78.993656,-0.741067],[-78.999196,-0.742488],[-79.002725,-0.741269],[-79.004504,-0.738728],[-79.006762,-0.736811],[-79.010432,-0.734804],[-79.012455,-0.731898],[-79.011751,-0.728795],[-79.010764,-0.727913],[-79.01166,-0.722325],[-79.013143,-0.719358],[-79.016929,-0.718081],[-79.013844,-0.700674],[-79.017133,-0.691085],[-79.015778,-0.6899],[-79.016459,-0.681479],[-79.014743,-0.677973],[-79.015038,-0.674832],[-79.016169,-0.672716],[-79.01617,-0.669848],[-79.014575,-0.660294],[-79.012499,-0.656582],[-79.012419,-0.651815],[-79.014099,-0.647786],[-79.015623,-0.647127],[-79.015884,-0.6422],[-79.017842,-0.638413],[-79.020249,-0.637108],[-79.014951,-0.631142],[-79.016194,-0.62715],[-79.018652,-0.625185],[-79.020197,-0.625083],[-79.025334,-0.620739],[-79.02641,-0.618414],[-79.025159,-0.614173],[-79.026803,-0.613079],[-79.027387,-0.611172],[-79.032548,-0.605858],[-79.032642,-0.603401],[-79.035049,-0.598951],[-79.039056,-0.597818],[-79.0407,-0.59599],[-79.040701,-0.593992],[-79.043376,-0.588595],[-79.046456,-0.587141],[-79.049957,-0.587147],[-79.055061,-0.584888],[-79.057304,-0.585515],[-79.061087,-0.582733],[-79.062412,-0.580881],[-79.067908,-0.579907],[-79.072765,-0.576307],[-79.071799,-0.574867],[-79.072095,-0.571228],[-79.073883,-0.569769],[-79.074379,-0.56758],[-79.0789,-0.565269],[-79.081655,-0.564971],[-79.083252,-0.566734],[-79.084373,-0.568821],[-79.083787,-0.570324],[-79.086808,-0.572364],[-79.09105,-0.579778],[-79.091932,-0.583546],[-79.091302,-0.587443],[-79.094869,-0.593019],[-79.0969,-0.599296],[-79.097097,-0.603649],[-79.100682,-0.607878],[-79.10267,-0.611575],[-79.106254,-0.616737],[-79.111386,-0.621906],[-79.112027,-0.624189],[-79.113746,-0.626247],[-79.117663,-0.629611],[-79.120561,-0.638102],[-79.128595,-0.649007],[-79.129606,-0.652309],[-79.1311,-0.66019],[-79.131525,-0.668172],[-79.133132,-0.67263],[-79.134613,-0.678827],[-79.135293,-0.683345],[-79.138208,-0.698423],[-79.139543,-0.707134],[-79.140396,-0.710476],[-79.143151,-0.715023],[-79.144707,-0.716459],[-79.151188,-0.720523],[-79.153475,-0.723935],[-79.157798,-0.73447],[-79.160168,-0.742914],[-79.161416,-0.744027],[-79.166452,-0.746458],[-79.168833,-0.748781],[-79.171909,-0.750574],[-79.17206,-0.753545],[-79.173559,-0.75649],[-79.173558,-0.758154],[-79.176532,-0.76046],[-79.177245,-0.759692],[-79.182304,-0.762306],[-79.184567,-0.762179],[-79.186832,-0.763974],[-79.187494,-0.766088],[-79.186095,-0.768488],[-79.182899,-0.776151],[-79.182474,-0.778589],[-79.183017,-0.784146],[-79.185934,-0.798206],[-79.195598,-0.806225],[-79.199627,-0.805798],[-79.201847,-0.807048],[-79.205511,-0.805408],[-79.208711,-0.808206],[-79.214355,-0.809112],[-79.215607,-0.809957],[-79.218525,-0.809435],[-79.222753,-0.816442],[-79.223214,-0.818938],[-79.22289,-0.822351],[-79.224216,-0.823379],[-79.224609,-0.826519],[-79.222954,-0.827914],[-79.226359,-0.831206],[-79.223861,-0.833037],[-79.224607,-0.83527],[-79.226075,-0.836069],[-79.229006,-0.835813],[-79.232751,-0.833163],[-79.234189,-0.833536],[-79.235984,-0.837692],[-79.235802,-0.839699],[-79.239208,-0.850573],[-79.238439,-0.852483],[-79.239632,-0.85622],[-79.239862,-0.861776],[-79.241181,-0.874693],[-79.242707,-0.876129],[-79.243522,-0.878613],[-79.249041,-0.878367],[-79.249381,-0.881309],[-79.264906,-0.880521],[-79.26591,-0.881653],[-79.271691,-0.885144],[-79.27577,-0.886707],[-79.279528,-0.88688],[-79.280455,-0.888618],[-79.286653,-0.890326],[-79.287417,-0.891702],[-79.287142,-0.896416],[-79.287246,-0.903067],[-79.287855,-0.908557],[-79.287156,-0.911816],[-79.291196,-0.913726],[-79.291631,-0.91638],[-79.295773,-0.917247],[-79.296472,-0.920611],[-79.298512,-0.923689],[-79.299099,-0.928562],[-79.301001,-0.927783],[-79.305289,-0.92837],[-79.30613,-0.930305],[-79.306601,-0.938088],[-79.306817,-0.948908],[-79.309845,-0.949145],[-79.314999,-0.957924],[-79.315344,-0.961558],[-79.316505,-0.96367],[-79.316279,-0.969781],[-79.317552,-0.974165],[-79.317134,-0.975947],[-79.317861,-0.981503],[-79.319446,-0.983544],[-79.320123,-0.997141],[-79.314034,-0.99586],[-79.306568,-0.992713],[-79.301736,-0.99277],[-79.300692,-0.992173],[-79.299185,-0.988397],[-79.295224,-0.988194],[-79.293203,-0.987467],[-79.291568,-0.988471],[-79.291815,-0.992724],[-79.291794,-1.00455],[-79.285487,-1.002629],[-79.284375,-1.003051],[-79.278421,-1.002642],[-79.273984,-1.000269],[-79.271987,-0.998257],[-79.267342,-0.996784],[-79.261812,-0.993831],[-79.257561,-0.996277],[-79.254389,-0.995467],[-79.251983,-0.996464],[-79.250195,-0.995509],[-79.246739,-0.996877],[-79.244469,-0.995424],[-79.240973,-0.994617],[-79.238238,-0.994672],[-79.232394,-0.992967],[-79.229826,-0.993321],[-79.224946,-0.992682],[-79.221631,-0.99112],[-79.217858,-0.988406],[-79.215284,-0.985649],[-79.211248,-0.985957],[-79.208213,-0.984838],[-79.205257,-0.985304],[-79.197137,-0.982082],[-79.19245,-0.981618],[-79.187722,-0.983123],[-79.178906,-0.984852],[-79.174438,-0.98521],[-79.170192,-0.987456],[-79.168145,-0.987815],[-79.164546,-0.990473],[-79.158397,-0.991982],[-79.154031,-0.9954],[-79.149258,-0.995395],[-79.147889,-0.992115],[-79.146103,-0.989996],[-79.144071,-0.990501],[-79.142295,-0.989475],[-79.139341,-0.985928],[-79.132775,-0.986336],[-79.128242,-0.987678],[-79.127268,-0.988559],[-79.122705,-0.976485],[-79.124028,-0.971658],[-79.123932,-0.97024],[-79.125968,-0.968922],[-79.129136,-0.964831],[-79.131231,-0.964257],[-79.132351,-0.965294],[-79.137038,-0.965587],[-79.137096,-0.9595],[-79.141773,-0.959537],[-79.145375,-0.956963],[-79.144463,-0.952019],[-79.146782,-0.948663],[-79.1486,-0.947921],[-79.162928,-0.956971],[-79.169543,-0.954764],[-79.173316,-0.950921],[-79.176139,-0.94948],[-79.178665,-0.945319],[-79.182128,-0.944585],[-79.186152,-0.944472],[-79.189164,-0.947404],[-79.193442,-0.945728],[-79.19546,-0.945475],[-79.197365,-0.94328],[-79.201779,-0.942489],[-79.207579,-0.942951],[-79.213399,-0.942192],[-79.204136,-0.939437],[-79.201549,-0.940228],[-79.198219,-0.938189],[-79.195117,-0.93813],[-79.180397,-0.925722],[-79.178217,-0.924199],[-79.177474,-0.921902],[-79.173956,-0.919308],[-79.169719,-0.915289],[-79.166797,-0.913528],[-79.164399,-0.910642],[-79.163565,-0.908495],[-79.165015,-0.904098],[-79.164779,-0.90002],[-79.163771,-0.895711],[-79.16427,-0.893474],[-79.164022,-0.888905],[-79.162811,-0.88538],[-79.1633,-0.881944],[-79.162915,-0.876733],[-79.161778,-0.875209],[-79.161729,-0.872805],[-79.159804,-0.871809],[-79.157343,-0.867554],[-79.15578,-0.866307],[-79.155682,-0.861851],[-79.153758,-0.859823],[-79.147981,-0.859582],[-79.146269,-0.860547],[-79.137131,-0.860786],[-79.136026,-0.861395],[-79.131365,-0.860288],[-79.128827,-0.86095],[-79.126813,-0.859813],[-79.122911,-0.860665],[-79.119495,-0.860686],[-79.117312,-0.862162]]]}},
{"type":"Feature","id":"ECU:ADM2:EC-X.latacunga","properties":{"shapeName":"Latacunga","shapeISO":"","shapeGroup":"ECU","shapeType":"ADM2","adm1ISO":"EC-X","parentISO":"EC-X","parentID":"ECU:ADM1:EC-X","src_shape_id":"8360857B97397633199247"},"geometry":{"type":"Polygon","coordinates":[[[-78.421854,-0.716912],[-78.423673,-0.714406],[-78.429123,-0.701298],[-78.430845,-0.69617],[-78.434038,-0.688137],[-78.435234,-0.684245],[-78.441295,-0.678133],[-78.450093,-0.669845],[-78.453161,-0.668521],[-78.453751,-0.667219],[-78.456998,-0.664707],[-78.461516,-0.660032],[-78.464337,-0.658222],[-78.471401,-0.657688],[-78.475025,-0.656112],[-78.479431,-0.655574],[-78.484073,-0.653522],[-78.487265,-0.649221],[-78.489925,-0.64776],[-78.492277,-0.645395],[-78.494854,-0.644265],[-78.499399,-0.63926],[-78.498488,-0.638253],[-78.496255,-0.632208],[-78.497631,-0.62839],[-78.501072,-0.623495],[-78.502455,-0.622515],[-78.504193,-0.618443],[-78.507439,-0.612996],[-78.508787,-0.61193],[-78.510958,-0.608122],[-78.5152,-0.606528],[-78.520642,-0.603613],[-78.526997,-0.602301],[-78.532461,-0.603953],[-78.535917,-0.60429],[-78.541596,-0.602092],[-78.543983,-0.601734],[-78.548829,-0.602693],[-78.550563,-0.603746],[-78.555599,-0.604729],[-78.563889,-0.608751],[-78.570873,-0.60806],[-78.577714,-0.611746],[-78.580207,-0.615024],[-78.581361,-0.615301],[-78.587562,-0.60935],[-78.591383,-0.610327],[-78.593793,-0.607896],[-78.59806,-0.607141],[-78.59976,-0.607394],[-78.610161,-0.599884],[-78.611259,-0.597303],[-78.614235,-0.599002],[-78.6177,-0.601757],[-78.618102,-0.606048],[-78.626403,-0.61163],[-78.630949,-0.614094],[-78.637905,-0.618486],[-78.641919,-0.622175],[-78.642998,-0.626528],[-78.640441,-0.632722],[-78.641462,-0.634994],[-78.644003,-0.637555],[-78.65252,-0.638802],[-78.656166,-0.641004],[-78.657201,-0.644839],[-78.659344,-0.648246],[-78.664848,-0.652367],[-78.667,-0.653364],[-78.669744,-0.656091],[-78.673215,-0.656094],[-78.676874,-0.657059],[-78.678071,-0.658739],[-78.681877,-0.659417],[-78.688099,-0.661308],[-78.69056,-0.661374],[-78.693341,-0.658745],[-78.697927,-0.658077],[-78.70522,-0.659874],[-78.708878,-0.661383],[-78.715189,-0.663055],[-78.718133,-0.654911],[-78.720503,-0.649167],[-78.725691,-0.648481],[-78.728972,-0.645827],[-78.738323,-0.642028],[-78.739392,-0.641933],[-78.742316,-0.644181],[-78.746275,-0.644683],[-78.748357,-0.643646],[-78.750771,-0.641107],[-78.757012,-0.639364],[-78.759421,-0.639523],[-78.76274,-0.6382],[-78.767633,-0.635544],[-78.770779,-0.637339],[-78.773982,-0.641853],[-78.775118,-0.647789],[-78.777033,-0.649919],[-78.77828,-0.653536],[-78.780343,-0.655827],[-78.782576,-0.656607],[-78.78419,-0.65905],[-78.784709,-0.662572],[-78.787592,-0.666038],[-78.78832,-0.668348],[-78.790506,-0.668038],[-78.792375,-0.670718],[-78.796103,-0.670831],[-78.79759,-0.672946],[-78.800597,-0.673575],[-78.80148,-0.67501],[-78.804361,-0.675891],[-78.805474,-0.678642],[-78.807523,-0.677951],[-78.808777,-0.679225],[-78.811691,-0.679626],[-78.813319,-0.680758],[-78.815614,-0.677826],[-78.817674,-0.67853],[-78.822679,-0.690628],[-78.821763,-0.694682],[-78.818883,-0.696133],[-78.820813,-0.699151],[-78.820533,-0.700342],[-78.82241,-0.70303],[-78.824578,-0.701809],[-78.829564,-0.702701],[-78.832662,-0.713594],[-78.830067,-0.717064],[-78.831144,-0.722726],[-78.83241,-0.725468],[-78.834106,-0.734109],[-78.835977,-0.736727],[-78.834951,-0.739311],[-78.83102,-0.743429],[-78.830256,-0.74582],[-78.830557,-0.75056],[-78.832897,-0.758023],[-78.830873,-0.762562],[-78.828153,-0.765178],[-78.82519,-0.765654],[-78.82324,-0.767879],[-78.822548,-0.770788],[-78.818116,-0.772754],[-78.817549,-0.77514],[-78.814114,-0.776217],[-78.811098,-0.775585],[-78.811039,-0.778585],[-78.807157,-0.7766],[-78.805935,-0.776824],[-78.802805,-0.775334],[-78.800812,-0.776986],[-78.798975,-0.77722],[-78.795373,-0.776415],[-78.795304,-0.77987],[-78.7915,-0.775375],[-78.790812,-0.773321],[-78.788247,-0.773642],[-78.785633,-0.775798],[-78.781556,-0.77804],[-78.778869,-0.780801],[-78.777207,-0.779927],[-78.775646,-0.777361],[-78.775672,-0.7718],[-78.775023,-0.764552],[-78.770453,-0.75662],[-78.767217,-0.755409],[-78.76546,-0.755974],[-78.756316,-0.754172],[-78.746177,-0.753217],[-78.734197,-0.752996],[-78.727741,-0.751866],[-78.72572,-0.752274],[-78.72196,-0.749784],[-78.720731,-0.747886],[-78.715458,-0.74855],[-78.711272,-0.747988],[-78.704212,-0.750762],[-78.699944,-0.753448],[-78.697488,-0.755937],[-78.693387,-0.761528],[-78.689831,-0.769774],[-78.691057,-0.771945],[-78.691161,-0.776708],[-78.689006,-0.777931],[-78.685963,-0.782787],[-78.684396,-0.7878],[-78.680185,-0.79101],[-78.676515,-0.797128],[-78.67467,-0.803239],[-78.673664,-0.803459],[-78.671327,-0.808499],[-78.669725,-0.810286],[-78.66463,-0.811286],[-78.661386,-0.812393],[-78.658709,-0.815007],[-78.660291,-0.816451],[-78.664112,-0.821484],[-78.664493,-0.827185],[-78.663521,-0.828246],[-78.660904,-0.833995],[-78.658984,-0.83423],[-78.655928,-0.838116],[-78.651919,-0.837942],[-78.648871,-0.840745],[-78.645561,-0.842364],[-78.644433,-0.841311],[-78.640603,-0.8436],[-78.642446,-0.84639],[-78.643862,-0.851391],[-78.643464,-0.85345],[-78.640159,-0.855781],[-78.639321,-0.859873],[-78.636165,-0.866345],[-78.635152,-0.871745],[-78.63786,-0.869955],[-78.643614,-0.863835],[-78.647796,-0.86062],[-78.651793,-0.856565],[-78.6569,-0.861412],[-78.662565,-0.85262],[-78.665647,-0.853712],[-78.668851,-0.854055],[-78.674845,-0.853431],[-78.684215,-0.854306],[-78.688628,-0.86033],[-78.692904,-0.862707],[-78.696369,-0.860987],[-78.699196,-0.863087],[-78.702298,-0.866282],[-78.709146,-0.863342],[-78.711499,-0.860432],[-78.714297,-0.859244],[-78.718842,-0.860624],[-78.721485,-0.859841],[-78.723347,-0.863791],[-78.726713,-0.866093],[-78.727964,-0.86903],[-78.731977,-0.868281],[-78.733356,-0.872161],[-78.733715,-0.875041],[-78.737102,-0.877155],[-78.737168,-0.88152],[-78.74018,-0.882],[-78.74383,-0.881303],[-78.745486,-0.884174],[-78.751409,-0.885612],[-78.753531,-0.882136],[-78.755293,-0.880677],[-78.755962,-0.878569],[-78.758623,-0.876536],[-78.76331,-0.875341],[-78.765308,-0.873982],[-78.772907,-0.875153],[-78.776294,-0.879424],[-78.776583,-0.882115],[-78.775735,-0.885371],[-78.776482,-0.887583],[-78.781025,-0.895557],[-78.781466,-0.898162],[-78.786367,-0.903413],[-78.784843,-0.91058],[-78.786011,-0.914156],[-78.786938,-0.920824],[-78.791835,-0.922545],[-78.795287,-0.924378],[-78.777703,-0.924164],[-78.77619,-0.923269],[-78.777445,-0.919198],[-78.769514,-0.914061],[-78.765347,-0.913157],[-78.759385,-0.910404],[-78.754706,-0.907486],[-78.751336,-0.909089],[-78.749143,-0.908504],[-78.74722,-0.90921],[-78.743943,-0.90779],[-78.742129,-0.906081],[-78.741635,-0.903777],[-78.739824,-0.902727],[-78.73754,-0.904124],[-78.735593,-0.903492],[-78.735085,-0.900974],[-78.731055,-0.899421],[-78.728911,-0.900592],[-78.725763,-0.898334],[-78.725443,-0.8965],[-78.720303,-0.895717],[-78.716198,-0.892722],[-78.713687,-0.892252],[-78.708702,-0.893696],[-78.703764,-0.891908],[-78.701264,-0.892286],[-78.69863,-0.889535],[-78.69321,-0.892788],[-78.688994,-0.894753],[-78.685701,-0.898224],[-78.680631,-0.900945],[-78.678675,-0.900601],[-78.678013,-0.903515],[-78.677277,-0.91993],[-78.677354,-0.923752],[-78.680064,-0.924344],[-78.680368,-0.92963],[-78.678507,-0.935152],[-78.676017,-0.934996],[-78.666926,-0.93584],[-78.667307,-0.939716],[-78.66667,-0.943844],[-78.664546,-0.946813],[-78.663249,-0.950402],[-78.660857,-0.95209],[-78.658951,-0.957226],[-78.658709,-0.962141],[-78.659865,-0.964807],[-78.658366,-0.970614],[-78.657055,-0.970759],[-78.65538,-0.975483],[-78.653807,-0.976529],[-78.652624,-0.979291],[-78.647519,-0.978912],[-78.645447,-0.977575],[-78.64297,-0.980257],[-78.641728,-0.980257],[-78.636204,-0.984112],[-78.63222,-0.988362],[-78.626039,-0.989933],[-78.622041,-0.992572],[-78.621998,-0.993731],[-78.619191,-0.996247],[-78.619067,-0.998096],[-78.615998,-1.001807],[-78.61266,-1.002946],[-78.612836,-1.005236],[-78.606517,-1.008417],[-78.601482,-1.006958],[-78.598704,-1.007788],[-78.595324,-1.006279],[-78.586359,-1.005605],[-78.583807,-1.011067],[-78.577719,-1.009676],[-78.573574,-1.012411],[-78.57197,-1.011101],[-78.570302,-1.007673],[-78.568644,-1.005996],[-78.56489,-1.003882],[-78.562616,-0.997157],[-78.560185,-0.996511],[-78.555525,-0.998405],[-78.554022,-0.997855],[-78.552998,-0.995501],[-78.547916,-0.992089],[-78.547643,-0.990659],[-78.53966,-0.98707],[-78.536661,-0.987171],[-78.531009,-0.986247],[-78.527084,-0.987991],[-78.524515,-0.986532],[-78.523573,-0.983233],[-78.522166,-0.982077],[-78.506299,-0.977413],[-78.496928,-0.977277],[-78.4918,-0.972616],[-78.475862,-0.968975],[-78.47575,-0.959463],[-78.453769,-0.959401],[-78.401534,-0.959408],[-78.401569,-0.95771],[-78.406871,-0.9517],[-78.409083,-0.948384],[-78.41069,-0.944171],[-78.410895,-0.940088],[-78.410221,-0.935281],[-78.41272,-0.929137],[-78.414016,-0.926859],[-78.41152,-0.923672],[-78.417034,-0.909376],[-78.424408,-0.89599],[-78.427144,-0.88975],[-78.426648,-0.885679],[-78.424999,-0.88285],[-78.419621,-0.877926],[-78.412389,-0.875494],[-78.40244,-0.869939],[-78.394839,-0.868589],[-78.388238,-0.864304],[-78.383691,-0.860708],[-78.382742,-0.859213],[-78.385013,-0.856327],[-78.391406,-0.851118],[-78.398848,-0.842085],[-78.395738,-0.838597],[-78.390833,-0.837368],[-78.383172,-0.837875],[-78.383033,-0.832928],[-78.386233,-0.830707],[-78.389167,-0.825705],[-78.38859,-0.82296],[-78.386009,-0.819354],[-78.380924,-0.816607],[-78.387742,-0.811285],[-78.388634,-0.81003],[-78.38861,-0.803995],[-78.392872,-0.799164],[-78.393604,-0.797048],[-78.393572,-0.790162],[-78.395009,-0.785266],[-78.394244,-0.783688],[-78.389214,-0.780008],[-78.393882,-0.778433],[-78.39554,-0.776622],[-78.397547,-0.772606],[-78.397932,-0.769863],[-78.397462,-0.765594],[-78.395415,-0.762042],[-78.391828,-0.758435],[-78.39111,-0.752605],[-78.391406,-0.748893],[-78.393823,-0.743371],[-78.397647,-0.73932],[-78.39928,-0.734371],[-78.401732,-0.731036],[-78.408549,-0.726234],[-78.413246,-0.722524],[-78.419518,-0.720609],[-78.421854,-0.716912]]]}},
{"type":"Feature","id":"ECU:ADM2:EC-X.pangua","properties":{"shapeName":"Pangua","shapeISO":"","shapeGroup":"ECU","shapeType":"ADM2","adm1ISO":"EC-X","parentISO":"EC-X","parentID":"ECU:ADM1:EC-X","src_shape_id":"8360857B45229230453028"},"geometry":{"type":"Polygon","coordinates":[[[-78.934642,-1.188196],[-78.933683,-1.185879],[-78.935345,-1.18287],[-78.940679,-1.179341],[-78.945424,-1.174273],[-78.948071,-1.172312],[-78.950047,-1.168679],[-78.952727,-1.167593],[-78.959299,-1.16827],[-78.963639,-1.164559],[-78.965293,-1.164016],[-78.966221,-1.16084],[-78.967892,-1.158206],[-78.968164,-1.155879],[-78.967253,-1.153966],[-78.968805,-1.150997],[-78.968414,-1.149335],[-78.964776,-1.144992],[-78.964211,-1.140489],[-78.966501,-1.138281],[-78.96979,-1.131565],[-78.969248,-1.128269],[-78.97241,-1.127919],[-78.976882,-1.129552],[-78.980483,-1.127438],[-78.987859,-1.129418],[-78.99166,-1.128556],[-78.994208,-1.128929],[-78.995712,-1.130256],[-78.9984,-1.130537],[-79.00014,-1.129663],[-79.002955,-1.131774],[-79.005441,-1.13117],[-79.00792,-1.132589],[-79.011169,-1.129683],[-79.012995,-1.129686],[-79.01396,-1.13143],[-79.016249,-1.129116],[-79.019848,-1.130298],[-79.022618,-1.1295],[-79.024207,-1.129908],[-79.026316,-1.127487],[-79.023721,-1.124179],[-79.023836,-1.120777],[-79.021814,-1.119699],[-79.019436,-1.120891],[-79.017097,-1.120612],[-79.015947,-1.114369],[-79.013577,-1.111107],[-79.011442,-1.111348],[-79.009813,-1.10819],[-79.004237,-1.105383],[-79.003375,-1.102713],[-79.003909,-1.100687],[-79.002697,-1.096744],[-79.001365,-1.096114],[-79.001073,-1.09315],[-79.00007,-1.091833],[-78.996769,-1.090793],[-78.991958,-1.086875],[-78.989841,-1.084169],[-78.988581,-1.081411],[-78.986537,-1.080234],[-78.983311,-1.071625],[-78.982477,-1.070483],[-78.976044,-1.066029],[-78.975562,-1.06501],[-78.967792,-1.060656],[-78.962318,-1.059827],[-78.96237,-1.058119],[-78.965727,-1.050427],[-78.968424,-1.048252],[-78.975136,-1.049959],[-78.981434,-1.053888],[-78.984237,-1.055003],[-78.985907,-1.054393],[-78.992575,-1.056036],[-78.993538,-1.057606],[-78.997686,-1.059716],[-79.005328,-1.059736],[-79.009187,-1.062522],[-79.012116,-1.063694],[-79.023417,-1.064225],[-79.030532,-1.068223],[-79.033368,-1.069083],[-79.036397,-1.064698],[-79.03946,-1.061882],[-79.042428,-1.056582],[-79.047159,-1.052327],[-79.049505,-1.049688],[-79.052444,-1.048999],[-79.053356,-1.047588],[-79.050736,-1.040625],[-79.049202,-1.03517],[-79.04901,-1.032005],[-79.049735,-1.025434],[-79.04686,-1.020396],[-79.046764,-1.019144],[-79.049219,-1.016533],[-79.051893,-1.015078],[-79.052145,-1.011122],[-79.055265,-1.011379],[-79.057617,-1.009999],[-79.061521,-1.01115],[-79.06473,-1.01022],[-79.066466,-1.01054],[-79.067255,-1.013396],[-79.066768,-1.015351],[-79.068001,-1.016851],[-79.070456,-1.017523],[-79.074272,-1.01727],[-79.076505,-1.015772],[-79.083475,-1.01483],[-79.084434,-1.010584],[-79.089166,-1.010466],[-79.09014,-1.009177],[-79.09348,-1.008449],[-79.095836,-1.009576],[-79.097453,-1.008367],[-79.09796,-1.006044],[-79.100767,-1.004851],[-79.102529,-1.002826],[-79.106674,-1.00255],[-79.107827,-1.004767],[-79.110844,-1.007281],[-79.11132,-1.00974],[-79.113181,-1.011392],[-79.117003,-1.013169],[-79.118587,-1.013195],[-79.122461,-1.010129],[-79.128716,-1.00909],[-79.132488,-1.007415],[-79.136864,-1.007123],[-79.144763,-1.003499],[-79.145931,-1.001612],[-79.148806,-0.999038],[-79.154031,-0.9954],[-79.158397,-0.991982],[-79.164546,-0.990473],[-79.168145,-0.987815],[-79.170192,-0.987456],[-79.174438,-0.98521],[-79.178906,-0.984852],[-79.187722,-0.983123],[-79.19245,-0.981618],[-79.197137,-0.982082],[-79.205257,-0.985304],[-79.208213,-0.984838],[-79.211248,-0.985957],[-79.215284,-0.985649],[-79.217858,-0.988406],[-79.221631,-0.99112],[-79.224946,-0.992682],[-79.229826,-0.993321],[-79.232394,-0.992967],[-79.238238,-0.994672],[-79.240973,-0.994617],[-79.244469,-0.995424],[-79.246739,-0.996877],[-79.250195,-0.995509],[-79.251983,-0.996464],[-79.254389,-0.995467],[-79.257561,-0.996277],[-79.261812,-0.993831],[-79.267342,-0.996784],[-79.271987,-0.998257],[-79.273984,-1.000269],[-79.278421,-1.002642],[-79.284375,-1.003051],[-79.285487,-1.002629],[-79.291794,-1.00455],[-79.294415,-1.007524],[-79.294835,-1.010647],[-79.30228,-1.015944],[-79.301591,-1.017923],[-79.304908,-1.020287],[-79.304659,-1.021852],[-79.30657,-1.023673],[-79.306077,-1.027391],[-79.308091,-1.030148],[-79.307909,-1.032436],[-79.311937,-1.034987],[-79.311213,-1.037015],[-79.312477,-1.040994],[-79.311699,-1.04557],[-79.313197,-1.046559],[-79.312034,-1.048508],[-79.310432,-1.048404],[-79.308302,-1.054472],[-79.308421,-1.060036],[-79.310018,-1.064283],[-79.31401,-1.066017],[-79.31485,-1.067588],[-79.312165,-1.071199],[-79.315754,-1.071188],[-79.316131,-1.07305],[-79.314095,-1.075252],[-79.314267,-1.077443],[-79.318004,-1.077226],[-79.320288,-1.079657],[-79.320793,-1.084443],[-79.319908,-1.086329],[-79.321623,-1.090459],[-79.320812,-1.093647],[-79.321487,-1.09716],[-79.325029,-1.101268],[-79.326616,-1.104901],[-79.326498,-1.107751],[-79.327579,-1.110244],[-79.326234,-1.113785],[-79.327704,-1.115484],[-79.329013,-1.113673],[-79.331645,-1.112603],[-79.333172,-1.114296],[-79.331532,-1.116795],[-79.33136,-1.120302],[-79.333211,-1.123566],[-79.334581,-1.122311],[-79.337112,-1.123958],[-79.339225,-1.123199],[-79.339855,-1.125701],[-79.335826,-1.126364],[-79.336266,-1.131209],[-79.33715,-1.133485],[-79.336167,-1.13853],[-79.332309,-1.139938],[-79.333299,-1.144585],[-79.332542,-1.146917],[-79.333452,-1.149403],[-79.331805,-1.151264],[-79.328908,-1.156279],[-79.327528,-1.159608],[-79.325934,-1.160005],[-79.325583,-1.161984],[-79.312412,-1.169299],[-79.301132,-1.175768],[-79.299665,-1.177268],[-79.297126,-1.182075],[-79.295328,-1.186368],[-79.290684,-1.20191],[-79.289853,-1.20531],[-79.280249,-1.206252],[-79.275504,-1.204411],[-79.273584,-1.20482],[-79.269096,-1.208696],[-79.267162,-1.209278],[-79.264177,-1.207952],[-79.260112,-1.207499],[-79.258891,-1.204858],[-79.255231,-1.202858],[-79.253168,-1.200871],[-79.248323,-1.20077],[-79.247153,-1.19911],[-79.243435,-1.19826],[-79.238308,-1.195029],[-79.235473,-1.190815],[-79.231962,-1.186978],[-79.228516,-1.186003],[-79.224449,-1.18204],[-79.223633,-1.179272],[-79.220486,-1.174594],[-79.216602,-1.174148],[-79.214709,-1.174794],[-79.210941,-1.174215],[-79.208112,-1.171224],[-79.200194,-1.1701],[-79.198162,-1.170588],[-79.191842,-1.168749],[-79.184218,-1.169862],[-79.179287,-1.168688],[-79.177204,-1.166467],[-79.17705,-1.164142],[-79.174324,-1.162323],[-79.170157,-1.161992],[-79.168694,-1.16065],[-79.166354,-1.160207],[-79.161744,-1.161873],[-79.159247,-1.161322],[-79.156265,-1.162012],[-79.15341,-1.16011],[-79.150544,-1.159749],[-79.144638,-1.155153],[-79.139779,-1.158567],[-79.138158,-1.158318],[-79.136019,-1.159607],[-79.135536,-1.161381],[-79.132478,-1.162434],[-79.131014,-1.159989],[-79.12888,-1.15808],[-79.127189,-1.158251],[-79.123348,-1.152891],[-79.121269,-1.151942],[-79.119386,-1.152406],[-79.115281,-1.155416],[-79.112724,-1.155559],[-79.11012,-1.153933],[-79.106611,-1.149803],[-79.105493,-1.150518],[-79.099501,-1.150923],[-79.095976,-1.15277],[-79.094529,-1.154946],[-79.092748,-1.154697],[-79.088903,-1.155568],[-79.087341,-1.158491],[-79.082449,-1.161605],[-79.081515,-1.163975],[-79.080055,-1.164668],[-79.079021,-1.168751],[-79.074779,-1.170727],[-79.071973,-1.173551],[-79.071082,-1.176342],[-79.069248,-1.177216],[-79.065578,-1.18081],[-79.060383,-1.181453],[-79.060419,-1.184232],[-79.057075,-1.186536],[-79.052306,-1.186269],[-79.047862,-1.188484],[-79.047245,-1.192576],[-79.047682,-1.193807],[-79.045446,-1.19683],[-79.042369,-1.196797],[-79.039845,-1.195626],[-79.034825,-1.197264],[-79.031039,-1.201559],[-79.030139,-1.204536],[-79.025818,-1.208232],[-79.021919,-1.208839],[-79.013284,-1.213534],[-79.004108,-1.215668],[-78.995939,-1.216472],[-78.992282,-1.218347],[-78.989053,-1.217403],[-78.987794,-1.219566],[-78.98533,-1.219827],[-78.983701,-1.217737],[-78.983154,-1.215572],[-78.979848,-1.216582],[-78.977822,-1.214013],[-78.975834,-1.214583],[-78.973819,-1.211746],[-78.971297,-1.212455],[-78.966636,-1.211973],[-78.965716,-1.211192],[-78.96248,-1.211318],[-78.961778,-1.213858],[-78.95871,-1.216071],[-78.95568,-1.213904],[-78.953108,-1.212912],[-78.952348,-1.211424],[-78.948221,-1.21148],[-78.946711,-1.210044],[-78.948138,-1.208298],[-78.948115,-1.205396],[-78.945346,-1.204005],[-78.943643,-1.202217],[-78.942136,-1.197686],[-78.936671,-1.194356],[-78.935947,-1.190658],[-78.934642,-1.188196]]]}},
{"type":"Feature","id":"ECU:ADM2:EC-X.pujili","properties":{"shapeName":"Pujili","shapeISO":"","shapeGroup":"ECU","shapeType":"ADM2","adm1ISO":"EC-X","parentISO":"EC-X","parentID":"ECU:ADM1:EC-X","src_shape_id":"8360857B69808227880519"},"geometry":{"type":"Polygon","coordinates":[[[-78.789515,-1.143296],[-78.790981,-1.13349],[-78.791754,-1.129899],[-78.793136,-1.127757],[-78.796424,-1.124654],[-78.799236,-1.123802],[-78.802324,-1.120347],[-78.803958,-1.117365],[-78.805397,-1.116222],[-78.813668,-1.113177],[-78.821186,-1.111947],[-78.822118,-1.111428],[-78.824509,-1.106951],[-78.826955,-1.105597],[-78.833017,-1.107301],[-78.837252,-1.106559],[-78.839515,-1.105238],[-78.839559,-1.101278],[-78.83839,-1.096262],[-78.838691,-1.094872],[-78.844468,-1.087861],[-78.844885,-1.086588],[-78.841215,-1.084199],[-78.840222,-1.081202],[-78.840332,-1.078598],[-78.842276,-1.071106],[-78.839174,-1.068198],[-78.837344,-1.064243],[-78.836676,-1.061415],[-78.836508,-1.056306],[-78.837332,-1.05053],[-78.837203,-1.047369],[-78.835306,-1.041996],[-78.831414,-1.03769],[-78.828528,-1.032061],[-78.824864,-1.030431],[-78.81933,-1.030394],[-78.813876,-1.029807],[-78.805139,-1.033133],[-78.801334,-1.035888],[-78.796626,-1.041797],[-78.793261,-1.043292],[-78.792643,-1.046367],[-78.788694,-1.04769],[-78.784914,-1.047371],[-78.782881,-1.048435],[-78.778935,-1.047702],[-78.773847,-1.047619],[-78.771419,-1.04871],[-78.766602,-1.047573],[-78.761479,-1.049324],[-78.757505,-1.049501],[-78.751671,-1.048171],[-78.74705,-1.046535],[-78.743494,-1.047597],[-78.74186,-1.048905],[-78.7392,-1.049465],[-78.737737,-1.050963],[-78.735275,-1.050106],[-78.734121,-1.047821],[-78.732502,-1.049206],[-78.72998,-1.049417],[-78.727363,-1.051113],[-78.725937,-1.050152],[-78.722224,-1.051883],[-78.721505,-1.054798],[-78.719396,-1.056308],[-78.715632,-1.060367],[-78.712449,-1.062002],[-78.710217,-1.065673],[-78.705558,-1.067539],[-78.701929,-1.066668],[-78.697372,-1.064522],[-78.693913,-1.064301],[-78.691354,-1.06347],[-78.687933,-1.063327],[-78.685753,-1.062432],[-78.681048,-1.06491],[-78.679954,-1.064169],[-78.672732,-1.063323],[-78.671172,-1.061363],[-78.670963,-1.058754],[-78.663764,-1.059097],[-78.661868,-1.058433],[-78.660206,-1.060115],[-78.65715,-1.060077],[-78.655039,-1.058363],[-78.65195,-1.057061],[-78.648304,-1.056857],[-78.647074,-1.057669],[-78.641684,-1.059221],[-78.639679,-1.060997],[-78.638329,-1.063887],[-78.636716,-1.064795],[-78.635291,-1.062149],[-78.635278,-1.059634],[-78.637043,-1.048251],[-78.636484,-1.039115],[-78.635669,-1.035625],[-78.626057,-1.017841],[-78.623392,-1.014458],[-78.617927,-1.011614],[-78.615663,-1.009486],[-78.614285,-1.006535],[-78.612836,-1.005236],[-78.61266,-1.002946],[-78.615998,-1.001807],[-78.619067,-0.998096],[-78.619191,-0.996247],[-78.621998,-0.993731],[-78.622041,-0.992572],[-78.626039,-0.989933],[-78.63222,-0.988362],[-78.636204,-0.984112],[-78.641728,-0.980257],[-78.64297,-0.980257],[-78.645447,-0.977575],[-78.647519,-0.978912],[-78.652624,-0.979291],[-78.653807,-0.976529],[-78.65538,-0.975483],[-78.657055,-0.970759],[-78.658366,-0.970614],[-78.659865,-0.964807],[-78.658709,-0.962141],[-78.658951,-0.957226],[-78.660857,-0.95209],[-78.663249,-0.950402],[-78.664546,-0.946813],[-78.66667,-0.943844],[-78.667307,-0.939716],[-78.666926,-0.93584],[-78.676017,-0.934996],[-78.678507,-0.935152],[-78.680368,-0.92963],[-78.680064,-0.924344],[-78.677354,-0.923752],[-78.677277,-0.91993],[-78.678013,-0.903515],[-78.678675,-0.900601],[-78.680631,-0.900945],[-78.685701,-0.898224],[-78.688994,-0.894753],[-78.69321,-0.892788],[-78.69863,-0.889535],[-78.701264,-0.892286],[-78.703764,-0.891908],[-78.708702,-0.893696],[-78.713687,-0.892252],[-78.716198,-0.892722],[-78.720303,-0.895717],[-78.725443,-0.8965],[-78.725763,-0.898334],[-78.728911,-0.900592],[-78.731055,-0.899421],[-78.735085,-0.900974],[-78.735593,-0.903492],[-78.73754,-0.904124],[-78.739824,-0.902727],[-78.741635,-0.903777],[-78.742129,-0.906081],[-78.743943,-0.90779],[-78.74722,-0.90921],[-78.749143,-0.908504],[-78.751336,-0.909089],[-78.754706,-0.907486],[-78.759385,-0.910404],[-78.765347,-0.913157],[-78.769514,-0.914061],[-78.777445,-0.919198],[-78.77619,-0.923269],[-78.777703,-0.924164],[-78.795287,-0.924378],[-78.796828,-0.924163],[-78.80052,-0.921409],[-78.804228,-0.920024],[-78.808511,-0.919686],[-78.809328,-0.915519],[-78.809428,-0.907326],[-78.811279,-0.903594],[-78.81378,-0.901456],[-78.816195,-0.895298],[-78.816215,-0.892458],[-78.812956,-0.887594],[-78.813524,-0.882049],[-78.811459,-0.879739],[-78.808311,-0.877587],[-78.806443,-0.875183],[-78.80541,-0.872149],[-78.806332,-0.868209],[-78.807622,-0.865932],[-78.810281,-0.86318],[-78.807949,-0.857893],[-78.807579,-0.849232],[-78.80657,-0.846909],[-78.806123,-0.842438],[-78.804702,-0.838691],[-78.804883,-0.835597],[-78.803659,-0.832868],[-78.803859,-0.83025],[-78.807805,-0.825421],[-78.808144,-0.819715],[-78.808794,-0.817881],[-78.81202,-0.818431],[-78.816886,-0.818058],[-78.823503,-0.818912],[-78.832588,-0.821494],[-78.834667,-0.822538],[-78.837115,-0.826852],[-78.838789,-0.827809],[-78.841125,-0.8317],[-78.843819,-0.834298],[-78.849337,-0.8359],[-78.854063,-0.841348],[-78.85559,-0.842333],[-78.85946,-0.839489],[-78.862935,-0.838423],[-78.864539,-0.836288],[-78.867897,-0.833964],[-78.870614,-0.833443],[-78.871684,-0.83197],[-78.874671,-0.835322],[-78.879833,-0.839477],[-78.881908,-0.839858],[-78.886707,-0.843728],[-78.889609,-0.847303],[-78.894488,-0.849087],[-78.904192,-0.859328],[-78.918692,-0.870405],[-78.921552,-0.872121],[-78.928612,-0.872928],[-78.932637,-0.872345],[-78.937693,-0.872895],[-78.940252,-0.870152],[-78.942912,-0.868822],[-78.947947,-0.864663],[-78.950564,-0.863535],[-78.952379,-0.865096],[-78.954866,-0.865031],[-78.959415,-0.868984],[-78.965709,-0.872912],[-78.968338,-0.873432],[-78.971282,-0.875018],[-78.974664,-0.878647],[-78.978627,-0.879053],[-78.981382,-0.882578],[-78.987088,-0.884309],[-78.989166,-0.887534],[-78.991033,-0.888439],[-78.995124,-0.886098],[-78.997769,-0.885756],[-79.001239,-0.887281],[-79.003576,-0.886032],[-79.008063,-0.886152],[-79.011895,-0.887568],[-79.016796,-0.890741],[-79.019548,-0.891418],[-79.021361,-0.895088],[-79.025038,-0.895819],[-79.027764,-0.894207],[-79.030901,-0.891314],[-79.0323,-0.888833],[-79.034724,-0.888435],[-79.03665,-0.890795],[-79.043713,-0.89197],[-79.047021,-0.891738],[-79.050415,-0.89297],[-79.056236,-0.890826],[-79.057359,-0.889921],[-79.057147,-0.885381],[-79.058262,-0.882816],[-79.059897,-0.882193],[-79.063683,-0.882642],[-79.066781,-0.887064],[-79.069798,-0.888667],[-79.073501,-0.888027],[-79.078545,-0.883379],[-79.081157,-0.882332],[-79.081821,-0.87973],[-79.083824,-0.876982],[-79.087716,-0.87589],[-79.089707,-0.872108],[-79.093095,-0.870161],[-79.097611,-0.869924],[-79.100006,-0.870631],[-79.104649,-0.869547],[-79.108328,-0.869184],[-79.109949,-0.867352],[-79.114356,-0.866826],[-79.117312,-0.862162],[-79.119495,-0.860686],[-79.122911,-0.860665],[-79.126813,-0.859813],[-79.128827,-0.86095],[-79.131365,-0.860288],[-79.136026,-0.861395],[-79.137131,-0.860786],[-79.146269,-0.860547],[-79.147981,-0.859582],[-79.153758,-0.859823],[-79.155682,-0.861851],[-79.15578,-0.866307],[-79.157343,-0.867554],[-79.159804,-0.871809],[-79.161729,-0.872805],[-79.161778,-0.875209],[-79.162915,-0.876733],[-79.1633,-0.881944],[-79.162811,-0.88538],[-79.164022,-0.888905],[-79.16427,-0.893474],[-79.163771,-0.895711],[-79.164779,-0.90002],[-79.165015,-0.904098],[-79.163565,-0.908495],[-79.164399,-0.910642],[-79.166797,-0.913528],[-79.169719,-0.915289],[-79.173956,-0.919308],[-79.177474,-0.921902],[-79.178217,-0.924199],[-79.180397,-0.925722],[-79.195117,-0.93813],[-79.198219,-0.938189],[-79.201549,-0.940228],[-79.204136,-0.939437],[-79.213399,-0.942192],[-79.207579,-0.942951],[-79.201779,-0.942489],[-79.197365,-0.94328],[-79.19546,-0.945475],[-79.193442,-0.945728],[-79.189164,-0.947404],[-79.186152,-0.944472],[-79.182128,-0.944585],[-79.178665,-0.945319],[-79.176139,-0.94948],[-79.173316,-0.950921],[-79.169543,-0.954764],[-79.162928,-0.956971],[-79.1486,-0.947921],[-79.146782,-0.948663],[-79.144463,-0.952019],[-79.145375,-0.956963],[-79.141773,-0.959537],[-79.137096,-0.9595],[-79.137038,-0.965587],[-79.132351,-0.965294],[-79.131231,-0.964257],[-79.129136,-0.964831],[-79.125968,-0.968922],[-79.123932,-0.97024],[-79.124028,-0.971658],[-79.122705,-0.976485],[-79.127268,-0.988559],[-79.128242,-0.987678],[-79.132775,-0.986336],[-79.139341,-0.985928],[-79.142295,-0.989475],[-79.144071,-0.990501],[-79.146103,-0.989996],[-79.147889,-0.992115],[-79.149258,-0.995395],[-79.154031,-0.9954],[-79.148806,-0.999038],[-79.145931,-1.001612],[-79.144763,-1.003499],[-79.136864,-1.007123],[-79.132488,-1.007415],[-79.128716,-1.00909],[-79.122461,-1.010129],[-79.118587,-1.013195],[-79.117003,-1.013169],[-79.113181,-1.011392],[-79.11132,-1.00974],[-79.110844,-1.007281],[-79.107827,-1.004767],[-79.106674,-1.00255],[-79.102529,-1.002826],[-79.100767,-1.004851],[-79.09796,-1.006044],[-79.097453,-1.008367],[-79.095836,-1.009576],[-79.09348,-1.008449],[-79.09014,-1.009177],[-79.089166,-1.010466],[-79.084434,-1.010584],[-79.083475,-1.01483],[-79.076505,-1.015772],[-79.074272,-1.01727],[-79.070456,-1.017523],[-79.068001,-1.016851],[-79.066768,-1.015351],[-79.067255,-1.013396],[-79.066466,-1.01054],[-79.06473,-1.01022],[-79.061521,-1.01115],[-79.057617,-1.009999],[-79.055265,-1.011379],[-79.052145,-1.011122],[-79.051893,-1.015078],[-79.049219,-1.016533],[-79.046764,-1.019144],[-79.04686,-1.020396],[-79.049735,-1.025434],[-79.04901,-1.032005],[-79.049202,-1.03517],[-79.050736,-1.040625],[-79.053356,-1.047588],[-79.052444,-1.048999],[-79.049505,-1.049688],[-79.047159,-1.052327],[-79.042428,-1.056582],[-79.03946,-1.061882],[-79.036397,-1.064698],[-79.033368,-1.069083],[-79.030532,-1.068223],[-79.023417,-1.064225],[-79.012116,-1.063694],[-79.009187,-1.062522],[-79.005328,-1.059736],[-78.997686,-1.059716],[-78.993538,-1.057606],[-78.992575,-1.056036],[-78.985907,-1.054393],[-78.984237,-1.055003],[-78.981434,-1.053888],[-78.975136,-1.049959],[-78.968424,-1.048252],[-78.965727,-1.050427],[-78.96237,-1.058119],[-78.962318,-1.059827],[-78.967792,-1.060656],[-78.975562,-1.06501],[-78.976044,-1.066029],[-78.982477,-1.070483],[-78.983311,-1.071625],[-78.986537,-1.080234],[-78.988581,-1.081411],[-78.989841,-1.084169],[-78.991958,-1.086875],[-78.996769,-1.090793],[-79.00007,-1.091833],[-79.001073,-1.09315],[-79.001365,-1.096114],[-79.002697,-1.096744],[-79.003909,-1.100687],[-79.003375,-1.102713],[-79.004237,-1.105383],[-79.009813,-1.10819],[-79.011442,-1.111348],[-79.013577,-1.111107],[-79.015947,-1.114369],[-79.017097,-1.120612],[-79.019436,-1.120891],[-79.021814,-1.119699],[-79.023836,-1.120777],[-79.023721,-1.124179],[-79.026316,-1.127487],[-79.024207,-1.129908],[-79.022618,-1.1295],[-79.019848,-1.130298],[-79.016249,-1.129116],[-79.01396,-1.13143],[-79.012995,-1.129686],[-79.011169,-1.129683],[-79.00792,-1.132589],[-79.005441,-1.13117],[-79.002955,-1.131774],[-79.00014,-1.129663],[-78.9984,-1.130537],[-78.995712,-1.130256],[-78.994208,-1.128929],[-78.99166,-1.128556],[-78.987859,-1.129418],[-78.980483,-1.127438],[-78.976882,-1.129552],[-78.97241,-1.127919],[-78.969248,-1.128269],[-78.96979,-1.131565],[-78.966501,-1.138281],[-78.964211,-1.140489],[-78.964776,-1.144992],[-78.968414,-1.149335],[-78.968805,-1.150997],[-78.967253,-1.153966],[-78.968164,-1.155879],[-78.967892,-1.158206],[-78.966221,-1.16084],[-78.965293,-1.164016],[-78.963639,-1.164559],[-78.959299,-1.16827],[-78.952727,-1.167593],[-78.950047,-1.168679],[-78.948071,-1.172312],[-78.945424,-1.174273],[-78.940679,-1.179341],[-78.935345,-1.18287],[-78.933683,-1.185879],[-78.934642,-1.188196],[-78.927532,-1.185025],[-78.924345,-1.182715],[-78.918495,-1.183864],[-78.91449,-1.185062],[-78.913188,-1.186673],[-78.908708,-1.189854],[-78.903023,-1.190677],[-78.89793,-1.191963],[-78.895557,-1.19197],[-78.892187,-1.193326],[-78.887829,-1.194161],[-78.882377,-1.196263],[-78.879708,-1.196194],[-78.877153,-1.197201],[-78.874272,-1.194814],[-78.868619,-1.190977],[-78.869363,-1.186734],[-78.865899,-1.186398],[-78.86209,-1.191404],[-78.859495,-1.187206],[-78.856028,-1.183855],[-78.850679,-1.180597],[-78.843521,-1.180247],[-78.839321,-1.17833],[-78.835531,-1.174366],[-78.831255,-1.171301],[-78.827737,-1.161983],[-78.824786,-1.158774],[-78.823574,-1.155575],[-78.823715,-1.148782],[-78.822999,-1.146885],[-78.820214,-1.145183],[-78.812753,-1.144633],[-78.79813,-1.145141],[-78.793698,-1.143706],[-78.789515,-1.143296]]]}},
{"type":"Feature","id":"ECU:ADM2:EC-X.salcedo","properties":{"shapeName":"Salcedo","shapeISO":"","shapeGroup":"ECU","shapeType":"ADM2","adm1ISO":"EC-X","parentISO":"EC-X","parentID":"ECU:ADM1:EC-X","src_shape_id":"8360857B66602561776891"},"geometry":{"type":"Polygon","coordinates":[[[-78.565784,-1.123],[-78.566706,-1.119503],[-78.568297,-1.117989],[-78.567233,-1.112076],[-78.567929,-1.109713],[-78.566536,-1.10688],[-78.566549,-1.103987],[-78.568494,-1.103008],[-78.56832,-1.099721],[-78.570439,-1.097165],[-78.569305,-1.093978],[-78.566944,-1.092336],[-78.563892,-1.087537],[-78.562679,-1.083964],[-78.565174,-1.080239],[-78.564888,-1.076491],[-78.568057,-1.074343],[-78.568947,-1.075796],[-78.572365,-1.074154],[-78.575736,-1.076271],[-78.577423,-1.075834],[-78.576344,-1.072057],[-78.574247,-1.070583],[-78.571622,-1.067088],[-78.572004,-1.065534],[-78.56741,-1.06319],[-78.56616,-1.063204],[-78.564347,-1.061078],[-78.562492,-1.061001],[-78.559511,-1.059002],[-78.552272,-1.058906],[-78.546742,-1.060529],[-78.54587,-1.06008],[-78.538718,-1.060061],[-78.5369,-1.060573],[-78.533069,-1.059451],[-78.528216,-1.060812],[-78.525979,-1.058253],[-78.522825,-1.059837],[-78.52293,-1.063047],[-78.520978,-1.066506],[-78.522034,-1.068307],[-78.520708,-1.070524],[-78.515587,-1.073728],[-78.516315,-1.078698],[-78.511697,-1.078392],[-78.509309,-1.080672],[-78.509757,-1.084402],[-78.508568,-1.086242],[-78.505583,-1.086498],[-78.503231,-1.09083],[-78.502366,-1.093835],[-78.499656,-1.094503],[-78.498106,-1.093362],[-78.491044,-1.09366],[-78.488438,-1.092572],[-78.482981,-1.09259],[-78.47528,-1.087835],[-78.469116,-1.086553],[-78.465712,-1.087908],[-78.462679,-1.084307],[-78.458871,-1.083969],[-78.456402,-1.08094],[-78.456394,-1.079336],[-78.459333,-1.077387],[-78.459952,-1.075339],[-78.459413,-1.072858],[-78.455252,-1.071232],[-78.453214,-1.067476],[-78.453193,-1.065042],[-78.451471,-1.063859],[-78.448496,-1.063678],[-78.446174,-1.061002],[-78.445764,-1.055947],[-78.447056,-1.055138],[-78.446252,-1.048852],[-78.445097,-1.047282],[-78.438484,-1.048116],[-78.436981,-1.046503],[-78.434902,-1.04652],[-78.434757,-1.043299],[-78.431857,-1.03857],[-78.429734,-1.037728],[-78.427651,-1.034517],[-78.422483,-1.029434],[-78.421096,-1.029208],[-78.421904,-1.025549],[-78.419434,-1.023319],[-78.415306,-1.024172],[-78.411797,-1.02148],[-78.410006,-1.019307],[-78.409726,-1.016747],[-78.408328,-1.015934],[-78.407155,-1.012062],[-78.40721,-1.009679],[-78.408448,-1.005532],[-78.407486,-1.001426],[-78.410095,-0.996956],[-78.413433,-0.993421],[-78.413317,-0.990521],[-78.412011,-0.989085],[-78.407664,-0.988645],[-78.404704,-0.989577],[-78.405475,-0.976365],[-78.403806,-0.968084],[-78.401791,-0.962386],[-78.401534,-0.959408],[-78.453769,-0.959401],[-78.47575,-0.959463],[-78.475862,-0.968975],[-78.4918,-0.972616],[-78.496928,-0.977277],[-78.506299,-0.977413],[-78.522166,-0.982077],[-78.523573,-0.983233],[-78.524515,-0.986532],[-78.527084,-0.987991],[-78.531009,-0.986247],[-78.536661,-0.987171],[-78.53966,-0.98707],[-78.547643,-0.990659],[-78.547916,-0.992089],[-78.552998,-0.995501],[-78.554022,-0.997855],[-78.555525,-0.998405],[-78.560185,-0.996511],[-78.562616,-0.997157],[-78.56489,-1.003882],[-78.568644,-1.005996],[-78.570302,-1.007673],[-78.57197,-1.011101],[-78.573574,-1.012411],[-78.577719,-1.009676],[-78.583807,-1.011067],[-78.586359,-1.005605],[-78.595324,-1.006279],[-78.598704,-1.007788],[-78.601482,-1.006958],[-78.606517,-1.008417],[-78.612836,-1.005236],[-78.614285,-1.006535],[-78.615663,-1.009486],[-78.617927,-1.011614],[-78.623392,-1.014458],[-78.626057,-1.017841],[-78.635669,-1.035625],[-78.636484,-1.039115],[-78.637043,-1.048251],[-78.635278,-1.059634],[-78.635291,-1.062149],[-78.636716,-1.064795],[-78.638329,-1.063887],[-78.639679,-1.060997],[-78.641684,-1.059221],[-78.647074,-1.057669],[-78.648304,-1.056857],[-78.65195,-1.057061],[-78.655039,-1.058363],[-78.65715,-1.060077],[-78.660206,-1.060115],[-78.661868,-1.058433],[-78.663764,-1.059097],[-78.670963,-1.058754],[-78.671172,-1.061363],[-78.672732,-1.063323],[-78.679954,-1.064169],[-78.681048,-1.06491],[-78.685753,-1.062432],[-78.687933,-1.063327],[-78.691354,-1.06347],[-78.693913,-1.064301],[-78.697372,-1.064522],[-78.701929,-1.066668],[-78.705558,-1.067539],[-78.710217,-1.065673],[-78.712449,-1.062002],[-78.715632,-1.060367],[-78.719396,-1.056308],[-78.721505,-1.054798],[-78.722224,-1.051883],[-78.725937,-1.050152],[-78.727363,-1.051113],[-78.72998,-1.049417],[-78.732502,-1.049206],[-78.734121,-1.047821],[-78.735275,-1.050106],[-78.737737,-1.050963],[-78.7392,-1.049465],[-78.74186,-1.048905],[-78.743494,-1.047597],[-78.74705,-1.046535],[-78.751671,-1.048171],[-78.757505,-1.049501],[-78.761479,-1.049324],[-78.766602,-1.047573],[-78.771419,-1.04871],[-78.773847,-1.047619],[-78.778935,-1.047702],[-78.782881,-1.048435],[-78.784914,-1.047371],[-78.788694,-1.04769],[-78.792643,-1.046367],[-78.793261,-1.043292],[-78.796626,-1.041797],[-78.801334,-1.035888],[-78.805139,-1.033133],[-78.813876,-1.029807],[-78.81933,-1.030394],[-78.824864,-1.030431],[-78.828528,-1.032061],[-78.831414,-1.03769],[-78.835306,-1.041996],[-78.837203,-1.047369],[-78.837332,-1.05053],[-78.836508,-1.056306],[-78.836676,-1.061415],[-78.837344,-1.064243],[-78.839174,-1.068198],[-78.842276,-1.071106],[-78.840332,-1.078598],[-78.840222,-1.081202],[-78.841215,-1.084199],[-78.844885,-1.086588],[-78.844468,-1.087861],[-78.838691,-1.094872],[-78.83839,-1.096262],[-78.839559,-1.101278],[-78.839515,-1.105238],[-78.837252,-1.106559],[-78.833017,-1.107301],[-78.826955,-1.105597],[-78.824509,-1.106951],[-78.822118,-1.111428],[-78.821186,-1.111947],[-78.813668,-1.113177],[-78.805397,-1.116222],[-78.803958,-1.117365],[-78.802324,-1.120347],[-78.799236,-1.123802],[-78.796424,-1.124654],[-78.793136,-1.127757],[-78.791754,-1.129899],[-78.790981,-1.13349],[-78.789515,-1.143296],[-78.786186,-1.145785],[-78.782558,-1.147289],[-78.779324,-1.146156],[-78.775291,-1.142564],[-78.771801,-1.140131],[-78.768666,-1.140244],[-78.764136,-1.137871],[-78.758817,-1.13616],[-78.75455,-1.137342],[-78.75142,-1.136398],[-78.749117,-1.134893],[-78.748008,-1.132864],[-78.743874,-1.132807],[-78.736404,-1.136928],[-78.732161,-1.139965],[-78.725864,-1.147224],[-78.718976,-1.149327],[-78.71461,-1.149531],[-78.710165,-1.148218],[-78.704908,-1.150544],[-78.701461,-1.15083],[-78.695736,-1.150196],[-78.691281,-1.151332],[-78.689216,-1.151012],[-78.687249,-1.148155],[-78.685897,-1.147547],[-78.677814,-1.146609],[-78.674375,-1.145541],[-78.672882,-1.150363],[-78.668269,-1.154768],[-78.664862,-1.153663],[-78.662844,-1.149186],[-78.660402,-1.145733],[-78.656948,-1.143138],[-78.652075,-1.138373],[-78.646324,-1.135858],[-78.642678,-1.131775],[-78.640601,-1.130831],[-78.632722,-1.130812],[-78.63181,-1.129509],[-78.62808,-1.126744],[-78.626312,-1.126408],[-78.620425,-1.121792],[-78.616237,-1.117006],[-78.615333,-1.112083],[-78.613402,-1.109961],[-78.611373,-1.110419],[-78.609635,-1.114482],[-78.60589,-1.115261],[-78.590946,-1.114225],[-78.589922,-1.119461],[-78.586802,-1.121221],[-78.581243,-1.120442],[-78.579759,-1.122995],[-78.579921,-1.125184],[-78.574679,-1.124555],[-78.573081,-1.127342],[-78.569398,-1.127108],[-78.57143,-1.119385],[-78.569476,-1.117806],[-78.566322,-1.123237],[-78.565784,-1.123]]]}},
{"type":"Feature","id":"ECU:ADM2:EC-X.saquisili","properties":{"shapeName":"Saquisili","shapeISO":"","shapeGroup":"ECU","shapeType":"ADM2","adm1ISO":"EC-X","parentISO":"EC-X","parentID":"ECU:ADM1:EC-X","src_shape_id":"8360857B28418888111721"},"geometry":{"type":"Polygon","coordinates":[[[-78.814114,-0.776217],[-78.812959,-0.777159],[-78.812701,-0.780028],[-78.809792,-0.783158],[-78.809537,-0.786845],[-78.808567,-0.791511],[-78.812553,-0.798325],[-78.811939,-0.802812],[-78.807431,-0.811703],[-78.806481,-0.815798],[-78.808794,-0.817881],[-78.808144,-0.819715],[-78.807805,-0.825421],[-78.803859,-0.83025],[-78.803659,-0.832868],[-78.804883,-0.835597],[-78.804702,-0.838691],[-78.806123,-0.842438],[-78.80657,-0.846909],[-78.807579,-0.849232],[-78.807949,-0.857893],[-78.810281,-0.86318],[-78.807622,-0.865932],[-78.806332,-0.868209],[-78.80541,-0.872149],[-78.806443,-0.875183],[-78.808311,-0.877587],[-78.811459,-0.879739],[-78.813524,-0.882049],[-78.812956,-0.887594],[-78.816215,-0.892458],[-78.816195,-0.895298],[-78.81378,-0.901456],[-78.811279,-0.903594],[-78.809428,-0.907326],[-78.809328,-0.915519],[-78.808511,-0.919686],[-78.804228,-0.920024],[-78.80052,-0.921409],[-78.796828,-0.924163],[-78.795287,-0.924378],[-78.791835,-0.922545],[-78.786938,-0.920824],[-78.786011,-0.914156],[-78.784843,-0.91058],[-78.786367,-0.903413],[-78.781466,-0.898162],[-78.781025,-0.895557],[-78.776482,-0.887583],[-78.775735,-0.885371],[-78.776583,-0.882115],[-78.776294,-0.879424],[-78.772907,-0.875153],[-78.765308,-0.873982],[-78.76331,-0.875341],[-78.758623,-0.876536],[-78.755962,-0.878569],[-78.755293,-0.880677],[-78.753531,-0.882136],[-78.751409,-0.885612],[-78.745486,-0.884174],[-78.74383,-0.881303],[-78.74018,-0.882],[-78.737168,-0.88152],[-78.737102,-0.877155],[-78.733715,-0.875041],[-78.733356,-0.872161],[-78.731977,-0.868281],[-78.727964,-0.86903],[-78.726713,-0.866093],[-78.723347,-0.863791],[-78.721485,-0.859841],[-78.718842,-0.860624],[-78.714297,-0.859244],[-78.711499,-0.860432],[-78.709146,-0.863342],[-78.702298,-0.866282],[-78.699196,-0.863087],[-78.696369,-0.860987],[-78.692904,-0.862707],[-78.688628,-0.86033],[-78.684215,-0.854306],[-78.674845,-0.853431],[-78.668851,-0.854055],[-78.665647,-0.853712],[-78.662565,-0.85262],[-78.6569,-0.861412],[-78.651793,-0.856565],[-78.647796,-0.86062],[-78.643614,-0.863835],[-78.63786,-0.869955],[-78.635152,-0.871745],[-78.636165,-0.866345],[-78.639321,-0.859873],[-78.640159,-0.855781],[-78.643464,-0.85345],[-78.643862,-0.851391],[-78.642446,-0.84639],[-78.640603,-0.8436],[-78.644433,-0.841311],[-78.645561,-0.842364],[-78.648871,-0.840745],[-78.651919,-0.837942],[-78.655928,-0.838116],[-78.658984,-0.83423],[-78.660904,-0.833995],[-78.663521,-0.828246],[-78.664493,-0.827185],[-78.664112,-0.821484],[-78.660291,-0.816451],[-78.658709,-0.815007],[-78.661386,-0.812393],[-78.66463,-0.811286],[-78.669725,-0.810286],[-78.671327,-0.808499],[-78.673664,-0.803459],[-78.67467,-0.803239],[-78.676515,-0.797128],[-78.680185,-0.79101],[-78.684396,-0.7878],[-78.685963,-0.782787],[-78.689006,-0.777931],[-78.691161,-0.776708],[-78.691057,-0.771945],[-78.689831,-0.769774],[-78.693387,-0.761528],[-78.697488,-0.755937],[-78.699944,-0.753448],[-78.704212,-0.750762],[-78.711272,-0.747988],[-78.715458,-0.74855],[-78.720731,-0.747886],[-78.72196,-0.749784],[-78.72572,-0.752274],[-78.727741,-0.751866],[-78.734197,-0.752996],[-78.746177,-0.753217],[-78.756316,-0.754172],[-78.76546,-0.755974],[-78.767217,-0.755409],[-78.770453,-0.75662],[-78.775023,-0.764552],[-78.775672,-0.7718],[-78.775646,-0.777361],[-78.777207,-0.779927],[-78.778869,-0.780801],[-78.781556,-0.77804],[-78.785633,-0.775798],[-78.788247,-0.773642],[-78.790812,-0.773321],[-78.7915,-0.775375],[-78.795304,-0.77987],[-78.795373,-0.776415],[-78.798975,-0.77722],[-78.800812,-0.776986],[-78.802805,-0.775334],[-78.805935,-0.776824],[-78.807157,-0.7766],[-78.811039,-0.778585],[-78.811098,-0.775585],[-78.814114,-0.776217]]]}},
{"type":"Feature","id":"ECU:ADM2:EC-X.sigchos","properties":{"shapeName":"Sigchos","shapeISO":"","shapeGroup":"ECU","shapeType":"ADM2","adm1ISO":"EC-X","parentISO":"EC-X","parentID":"ECU:ADM1:EC-X","src_shape_id":"8360857B12215357040494"},"geometry":{"type":"Polygon","coordinates":[[[-79.117312,-0.862162],[-79.114356,-0.866826],[-79.109949,-0.867352],[-79.108328,-0.869184],[-79.104649,-0.869547],[-79.100006,-0.870631],[-79.097611,-0.869924],[-79.093095,-0.870161],[-79.089707,-0.872108],[-79.087716,-0.87589],[-79.083824,-0.876982],[-79.081821,-0.87973],[-79.081157,-0.882332],[-79.078545,-0.883379],[-79.073501,-0.888027],[-79.069798,-0.888667],[-79.066781,-0.887064],[-79.063683,-0.882642],[-79.059897,-0.882193],[-79.058262,-0.882816],[-79.057147,-0.885381],[-79.057359,-0.889921],[-79.056236,-0.890826],[-79.050415,-0.89297],[-79.047021,-0.891738],[-79.043713,-0.89197],[-79.03665,-0.890795],[-79.034724,-0.888435],[-79.0323,-0.888833],[-79.030901,-0.891314],[-79.027764,-0.894207],[-79.025038,-0.895819],[-79.021361,-0.895088],[-79.019548,-0.891418],[-79.016796,-0.890741],[-79.011895,-0.887568],[-79.008063,-0.886152],[-79.003576,-0.886032],[-79.001239,-0.887281],[-78.997769,-0.885756],[-78.995124,-0.886098],[-78.991033,-0.888439],[-78.989166,-0.887534],[-78.987088,-0.884309],[-78.981382,-0.882578],[-78.978627,-0.879053],[-78.974664,-0.878647],[-78.971282,-0.875018],[-78.968338,-0.873432],[-78.965709,-0.872912],[-78.959415,-0.868984],[-78.954866,-0.865031],[-78.952379,-0.865096],[-78.950564,-0.863535],[-78.947947,-0.864663],[-78.942912,-0.868822],[-78.940252,-0.870152],[-78.937693,-0.872895],[-78.932637,-0.872345],[-78.928612,-0.872928],[-78.921552,-0.872121],[-78.918692,-0.870405],[-78.904192,-0.859328],[-78.894488,-0.849087],[-78.889609,-0.847303],[-78.886707,-0.843728],[-78.881908,-0.839858],[-78.879833,-0.839477],[-78.874671,-0.835322],[-78.871684,-0.83197],[-78.870614,-0.833443],[-78.867897,-0.833964],[-78.864539,-0.836288],[-78.862935,-0.838423],[-78.85946,-0.839489],[-78.85559,-0.842333],[-78.854063,-0.841348],[-78.849337,-0.8359],[-78.843819,-0.834298],[-78.841125,-0.8317],[-78.838789,-0.827809],[-78.837115,-0.826852],[-78.834667,-0.822538],[-78.832588,-0.821494],[-78.823503,-0.818912],[-78.816886,-0.818058],[-78.81202,-0.818431],[-78.808794,-0.817881],[-78.806481,-0.815798],[-78.807431,-0.811703],[-78.811939,-0.802812],[-78.812553,-0.798325],[-78.808567,-0.791511],[-78.809537,-0.786845],[-78.809792,-0.783158],[-78.812701,-0.780028],[-78.812959,-0.777159],[-78.814114,-0.776217],[-78.817549,-0.77514],[-78.818116,-0.772754],[-78.822548,-0.770788],[-78.82324,-0.767879],[-78.82519,-0.765654],[-78.828153,-0.765178],[-78.830873,-0.762562],[-78.832897,-0.758023],[-78.830557,-0.75056],[-78.830256,-0.74582],[-78.83102,-0.743429],[-78.834951,-0.739311],[-78.835977,-0.736727],[-78.834106,-0.734109],[-78.83241,-0.725468],[-78.831144,-0.722726],[-78.830067,-0.717064],[-78.832662,-0.713594],[-78.829564,-0.702701],[-78.824578,-0.701809],[-78.82241,-0.70303],[-78.820533,-0.700342],[-78.820813,-0.699151],[-78.818883,-0.696133],[-78.821763,-0.694682],[-78.822679,-0.690628],[-78.817674,-0.67853],[-78.815614,-0.677826],[-78.813319,-0.680758],[-78.811691,-0.679626],[-78.808777,-0.679225],[-78.807523,-0.677951],[-78.805474,-0.678642],[-78.804361,-0.675891],[-78.80148,-0.67501],[-78.800597,-0.673575],[-78.79759,-0.672946],[-78.796103,-0.670831],[-78.792375,-0.670718],[-78.790506,-0.668038],[-78.78832,-0.668348],[-78.787592,-0.666038],[-78.784709,-0.662572],[-78.78419,-0.65905],[-78.782576,-0.656607],[-78.780343,-0.655827],[-78.77828,-0.653536],[-78.777033,-0.649919],[-78.775118,-0.647789],[-78.773982,-0.641853],[-78.770779,-0.637339],[-78.767633,-0.635544],[-78.76274,-0.6382],[-78.759421,-0.639523],[-78.757012,-0.639364],[-78.750771,-0.641107],[-78.748357,-0.643646],[-78.746275,-0.644683],[-78.742316,-0.644181],[-78.739392,-0.641933],[-78.738323,-0.642028],[-78.728972,-0.645827],[-78.725691,-0.648481],[-78.720503,-0.649167],[-78.721902,-0.648623],[-78.727156,-0.644165],[-78.730107,-0.639357],[-78.734664,-0.634735],[-78.734065,-0.629503],[-78.736592,-0.624548],[-78.738968,-0.621482],[-78.738505,-0.617676],[-78.736895,-0.615102],[-78.735025,-0.607521],[-78.735996,-0.606362],[-78.736038,-0.6036],[-78.734258,-0.599225],[-78.730621,-0.596379],[-78.728144,-0.587325],[-78.73001,-0.58144],[-78.730543,-0.573065],[-78.730138,-0.567994],[-78.732446,-0.565126],[-78.732061,-0.561799],[-78.733433,-0.559103],[-78.736742,-0.559128],[-78.739037,-0.55735],[-78.744184,-0.556583],[-78.745647,-0.553819],[-78.747849,-0.553533],[-78.751093,-0.549931],[-78.755499,-0.547224],[-78.759344,-0.546967],[-78.765222,-0.543973],[-78.769158,-0.54516],[-78.770691,-0.544657],[-78.772315,-0.542276],[-78.775222,-0.542217],[-78.775798,-0.540445],[-78.777997,-0.538296],[-78.780521,-0.538749],[-78.782494,-0.54044],[-78.785892,-0.539664],[-78.788267,-0.540513],[-78.790577,-0.542474],[-78.795904,-0.543122],[-78.796702,-0.541545],[-78.803985,-0.539814],[-78.806334,-0.53828],[-78.808246,-0.535918],[-78.811938,-0.536618],[-78.82155,-0.528858],[-78.825128,-0.528401],[-78.831871,-0.524323],[-78.834225,-0.520885],[-78.833614,-0.516321],[-78.833776,-0.512908],[-78.835105,-0.509977],[-78.834357,-0.506465],[-78.835786,-0.503605],[-78.833198,-0.500307],[-78.83337,-0.498725],[-78.836595,-0.49373],[-78.837631,-0.488809],[-78.83826,-0.480519],[-78.839144,-0.476904],[-78.840616,-0.474699],[-78.843395,-0.472119],[-78.84615,-0.470413],[-78.84832,-0.470009],[-78.855802,-0.466212],[-78.856607,-0.464894],[-78.859377,-0.456493],[-78.85942,-0.452514],[-78.862379,-0.448341],[-78.86257,-0.441958],[-78.863917,-0.440683],[-78.863808,-0.438218],[-78.862209,-0.435291],[-78.862443,-0.433279],[-78.86537,-0.42889],[-78.86809,-0.429512],[-78.869427,-0.426585],[-78.871157,-0.426553],[-78.871895,-0.423584],[-78.870166,-0.420889],[-78.871196,-0.417172],[-78.873614,-0.416993],[-78.875636,-0.414252],[-78.877689,-0.416474],[-78.879661,-0.413467],[-78.88245,-0.415643],[-78.884753,-0.412844],[-78.888413,-0.41291],[-78.890557,-0.414386],[-78.892897,-0.412673],[-78.893414,-0.410688],[-78.890172,-0.411041],[-78.889011,-0.410359],[-78.890308,-0.404282],[-78.896872,-0.393628],[-78.899499,-0.391754],[-78.899209,-0.386375],[-78.90085,-0.384619],[-78.903674,-0.383808],[-78.908105,-0.377935],[-78.913597,-0.372584],[-78.916075,-0.371543],[-78.916582,-0.368616],[-78.915468,-0.366723],[-78.90645,-0.360855],[-78.906678,-0.359298],[-78.908935,-0.35697],[-78.912781,-0.354699],[-78.914243,-0.353206],[-78.91511,-0.349721],[-78.914621,-0.346877],[-78.917765,-0.342849],[-78.918176,-0.340463],[-78.922671,-0.34042],[-78.92608,-0.337021],[-78.932961,-0.336641],[-78.934376,-0.334024],[-78.94061,-0.331365],[-78.940207,-0.334265],[-78.938381,-0.337296],[-78.937478,-0.344199],[-78.934103,-0.347554],[-78.935188,-0.349475],[-78.934936,-0.354284],[-78.933367,-0.357058],[-78.933473,-0.360237],[-78.944781,-0.360632],[-78.946986,-0.360296],[-78.951815,-0.361622],[-78.955607,-0.362089],[-78.957557,-0.366609],[-78.962121,-0.369599],[-78.96833,-0.380915],[-78.966122,-0.388032],[-78.964497,-0.390828],[-78.963562,-0.393921],[-78.963718,-0.399942],[-78.966368,-0.401736],[-78.967845,-0.404373],[-78.976975,-0.410085],[-78.982634,-0.409683],[-78.986323,-0.410688],[-78.989504,-0.413084],[-78.99078,-0.414806],[-78.995798,-0.416993],[-79.001212,-0.41725],[-79.003514,-0.415681],[-79.008084,-0.41554],[-79.010222,-0.416875],[-79.013194,-0.421419],[-79.014977,-0.422555],[-79.014536,-0.438599],[-79.014585,-0.443855],[-79.016779,-0.451879],[-79.020178,-0.457887],[-79.024704,-0.462015],[-79.027176,-0.466013],[-79.02945,-0.468676],[-79.031053,-0.4721],[-79.030986,-0.47779],[-79.029706,-0.479163],[-79.032866,-0.48441],[-79.037316,-0.485214],[-79.03857,-0.487681],[-79.044908,-0.487935],[-79.048201,-0.491323],[-79.048341,-0.495565],[-79.055881,-0.504837],[-79.059031,-0.51211],[-79.060376,-0.514178],[-79.064023,-0.516853],[-79.066678,-0.520348],[-79.069688,-0.520527],[-79.071351,-0.523549],[-79.073066,-0.524924],[-79.07588,-0.525644],[-79.076895,-0.526963],[-79.080652,-0.527815],[-79.082725,-0.526998],[-79.086145,-0.526885],[-79.092856,-0.524187],[-79.093856,-0.524715],[-79.101052,-0.524718],[-79.102128,-0.527585],[-79.103896,-0.529723],[-79.106444,-0.531433],[-79.106866,-0.532951],[-79.112604,-0.54127],[-79.112692,-0.541976],[-79.106634,-0.545689],[-79.101969,-0.550656],[-79.096437,-0.551915],[-79.091598,-0.555278],[-79.08817,-0.556907],[-79.087315,-0.56299],[-79.083252,-0.566734],[-79.081655,-0.564971],[-79.0789,-0.565269],[-79.074379,-0.56758],[-79.073883,-0.569769],[-79.072095,-0.571228],[-79.071799,-0.574867],[-79.072765,-0.576307],[-79.067908,-0.579907],[-79.062412,-0.580881],[-79.061087,-0.582733],[-79.057304,-0.585515],[-79.055061,-0.584888],[-79.049957,-0.587147],[-79.046456,-0.587141],[-79.043376,-0.588595],[-79.040701,-0.593992],[-79.0407,-0.59599],[-79.039056,-0.597818],[-79.035049,-0.598951],[-79.032642,-0.603401],[-79.032548,-0.605858],[-79.027387,-0.611172],[-79.026803,-0.613079],[-79.025159,-0.614173],[-79.02641,-0.618414],[-79.025334,-0.620739],[-79.020197,-0.625083],[-79.018652,-0.625185],[-79.016194,-0.62715],[-79.014951,-0.631142],[-79.020249,-0.637108],[-79.017842,-0.638413],[-79.015884,-0.6422],[-79.015623,-0.647127],[-79.014099,-0.647786],[-79.012419,-0.651815],[-79.012499,-0.656582],[-79.014575,-0.660294],[-79.01617,-0.669848],[-79.016169,-0.672716],[-79.015038,-0.674832],[-79.014743,-0.677973],[-79.016459,-0.681479],[-79.015778,-0.6899],[-79.017133,-0.691085],[-79.013844,-0.700674],[-79.016929,-0.718081],[-79.013143,-0.719358],[-79.01166,-0.722325],[-79.010764,-0.727913],[-79.011751,-0.728795],[-79.012455,-0.731898],[-79.010432,-0.734804],[-79.006762,-0.736811],[-79.004504,-0.738728],[-79.002725,-0.741269],[-78.999196,-0.742488],[-78.993656,-0.741067],[-78.993364,-0.746096],[-78.997292,-0.750659],[-78.999383,-0.750465],[-79.001172,-0.751564],[-79.002715,-0.754021],[-79.008267,-0.759372],[-79.01257,-0.759895],[-79.014381,-0.758949],[-79.022355,-0.75759],[-79.022814,-0.759927],[-79.019672,-0.763885],[-79.019554,-0.766336],[-79.02114,-0.768701],[-79.02137,-0.779475],[-79.020369,-0.781665],[-79.021107,-0.786625],[-79.018465,-0.793799],[-79.01811,-0.796884],[-79.019461,-0.800874],[-79.021399,-0.802336],[-79.022035,-0.804506],[-79.022395,-0.812452],[-79.020157,-0.814653],[-79.020294,-0.81922],[-79.023948,-0.821235],[-79.026852,-0.82064],[-79.029282,-0.821575],[-79.035508,-0.820075],[-79.042183,-0.819486],[-79.045596,-0.81875],[-79.051564,-0.811747],[-79.05197,-0.809936],[-79.055087,-0.810437],[-79.057081,-0.808578],[-79.061966,-0.807249],[-79.064682,-0.808988],[-79.069567,-0.807215],[-79.071524,-0.807075],[-79.07445,-0.809084],[-79.074963,-0.810711],[-79.079148,-0.813061],[-79.080231,-0.814282],[-79.079202,-0.816981],[-79.08177,-0.820487],[-79.088216,-0.826823],[-79.087939,-0.830039],[-79.088414,-0.83322],[-79.092031,-0.834756],[-79.095354,-0.834684],[-79.098109,-0.839823],[-79.102078,-0.844767],[-79.103952,-0.851481],[-79.10407,-0.854996],[-79.10625,-0.858046],[-79.10987,-0.861462],[-79.112059,-0.862038],[-79.117312,-0.862162]]]}}
]}