{"type":"FeatureCollection","bbox":[-61.4764,15.2117,-61.2413,15.6394],"features":[
{"type":"Feature","id":"DMA:ADM1:DM-02","properties":{"shapeName":"Saint Andrew","shapeISO":"DM-02","shapeType":"ADM1"},"geometry":{"type":"Polygon","coordinates":[[[-61.2728,15.519],[-61.3054,15.5734],[-61.3431,15.5974],[-61.3952,15.6008],[-61.4234,15.6394],[-61.4444,15.6393],[-61.4147,15.5857],[-61.4002,15.5102],[-61.3988,15.5019],[-61.3798,15.4846],[-61.3617,15.4892],[-61.3192,15.468],[-61.3145,15.4532],[-61.275,15.4865],[-61.2728,15.519]]]}},
{"type":"Feature","id":"DMA:ADM1:DM-06","properties":{"shapeName":"Saint Joseph","shapeISO":"DM-06","shapeType":"ADM1"},"geometry":{"type":"Polygon","coordinates":[[[-61.3988,15.5019],[-61.4159,15.4998],[-61.4539,15.4618],[-61.4203,15.3897],[-61.388,15.4015],[-61.3647,15.3959],[-61.3283,15.4125],[-61.3145,15.4532],[-61.3192,15.468],[-61.3617,15.4892],[-61.3798,15.4846],[-61.3988,15.5019]]]}},
{"type":"Feature","id":"DMA:ADM1:DM-09","properties":{"shapeName":"Saint Patrick","shapeISO":"DM-09","shapeType":"ADM1"},"geometry":{"type":"Polygon","coordinates":[[[-61.3032,15.325],[-61.3137,15.2959],[-61.347,15.2604],[-61.346,15.2503],[-61.3342,15.2117],[-61.3051,15.2451],[-61.2595,15.2507],[-61.2413,15.3323],[-61.2466,15.3426],[-61.3032,15.325]]]}},
{"type":"Feature","id":"DMA:ADM1:DM-03","properties":{"shapeName":"Saint David","shapeISO":"DM-03","shapeType":"ADM1"},"geometry":{"type":"Polygon","coordinates":[[[-61.3145,15.4532],[-61.3283,15.4125],[-61.3224,15.3519],[-61.3032,15.325],[-61.2466,15.3426],[-61.2573,15.437],[-61.2439,15.474],[-61.2728,15.519],[-61.275,15.4865],[-61.3145,15.4532]]]}},
{"type":"Feature","id":"DMA:ADM1:DM-08","properties":{"shapeName":"Saint Mark","shapeISO":"DM-08","shapeType":"ADM1"},"geometry":{"type":"Polygon","coordinates":[[[-61.346,15.2503],[-61.3654,15.2341],[-61.3686,15.212],[-61.3342,15.2117],[-61.346,15.2503]]]}},
{"type":"Feature","id":"DMA:ADM1:DM-07","properties":{"shapeName":"Saint Luke","shapeISO":"DM-07","shapeType":"ADM1"},"geometry":{"type":"Polygon","coordinates":[[[-61.347,15.2604],[-61.3758,15.2698],[-61.3654,15.2341],[-61.346,15.2503],[-61.347,15.2604]]]}},
{"type":"Feature","id":"DMA:ADM1:DM-04","properties":{"shapeName":"Saint George","shapeISO":"DM-04","shapeType":"ADM1"},"geometry":{"type":"Polygon","coordinates":[[[-61.3032,15.325],[-61.3224,15.3519],[-61.3649,15.3203],[-61.3912,15.3179],[-61.3758,15.2698],[-61.347,15.2604],[-61.3137,15.2959],[-61.3032,15.325]]]}},
{"type":"Feature","id":"DMA:ADM1:DM-10","properties":{"shapeName":"Saint Paul","shapeISO":"DM-10","shapeType":"ADM1"},"geometry":{"type":"Polygon","coordinates":[[[-61.4203,15.3897],[-61.3957,15.3588],[-61.3912,15.3179],[-61.3649,15.3203],[-61.3224,15.3519],[-61.3283,15.4125],[-61.3647,15.3959],[-61.388,15.4015],[-61.4203,15.3897]]]}},
{"type":"Feature","id":"DMA:ADM1:DM-05","properties":{"shapeName":"Saint John","shapeISO":"DM-05","shapeType":"ADM1"},"geometry":{"type":"Polygon","coordinates":[[[-61.4444,15.6393],[-61.4662,15.6219],[-61.4564,15.574],[-61.4764,15.5325],[-61.4519,15.5371],[-61.4002,15.5102],[-61.4147,15.5857],[-61.4444,15.6393]]]}},
{"type":"Feature","id":"DMA:ADM1:DM-11","properties":{"shapeName":"Saint Peter","shapeISO":"DM-11","shapeType":"ADM1"},"geometry":{"type":"Polygon","coordinates":[[[-61.4002,15.5102],[-61.4519,15.5371],[-61.4764,15.5325],[-61.4539,15.4618],[-61.4159,15.4998],[-61.3988,15.5019],[-61.4002,15.5102]]]}}
]}