{"type":"FeatureCollection","bbox":[8.0783,54.5943,15.1548,57.7416],"features":[
{"type":"Feature","id":"DNK:ADM1:DK-81","properties":{"shapeName":"Nordjylland","shapeISO":"DK-81","shapeType":"ADM1"},"geometry":{"type":"MultiPolygon","coordinates":[[[[9.3211,56.6236],[9.4548,56.5856],[9.5141,56.6306],[9.5946,56.573],[9.662,56.5727],[9.7482,56.4989],[9.8807,56.5142],[10.0472,56.5489],[10.117,56.577],[10.1973,56.6389],[10.2426,56.6772],[10.3309,56.6807],[10.2754,56.786],[10.269,56.8767],[10.2919,56.9512],[10.1915,56.9635],[10.0021,57.0481],[9.9451,57.0129],[9.7097,57.0016],[9.621,56.9224],[9.5267,56.9693],[9.4241,56.9786],[9.2966,56.9589],[9.1872,56.8869],[9.1731,56.8543],[9.218,56.8107],[9.175,56.7718],[9.2395,56.6867],[9.3211,56.6236]]],[[[8.9308,56.9547],[8.8669,56.9348],[8.8306,56.8916],[8.7477,56.8764],[8.6635,56.8808],[8.6549,56.8478],[8.5765,56.7867],[8.5404,56.7325],[8.6352,56.6817],[8.6451,56.6568],[8.7615,56.6684],[8.8843,56.7797],[8.8344,56.8466],[8.9297,56.9018],[8.9308,56.9547]]],[[[11.1902,57.3246],[11.0494,57.3276],[10.9286,57.3166],[10.8769,57.2797],[10.9702,57.2376],[11.0663,57.2525],[11.0964,57.3064],[11.1902,57.3246]]],[[[8.4013,56.6665],[8.4048,56.6714],[8.4848,56.7116],[8.4678,56.7776],[8.5787,56.8123],[8.6347,56.8566],[8.6782,56.9439],[8.7609,56.9336],[8.8971,56.9735],[9.0517,56.9834],[9.1398,57.0117],[9.2378,56.9572],[9.4858,57.0057],[9.573,56.9993],[9.6195,57.037],[9.7017,57.0215],[9.7649,57.0314],[9.7918,57.0696],[9.8922,57.0271],[9.9556,57.0212],[10.0138,57.0608],[10.2049,56.9768],[10.2664,56.9741],[10.3449,57.009],[10.4524,57.2046],[10.5623,57.2706],[10.5349,57.3779],[10.5413,57.455],[10.5709,57.4652],[10.4719,57.5374],[10.4385,57.6123],[10.544,57.7018],[10.5591,57.7416],[10.3253,57.6397],[10.1839,57.5992],[9.9497,57.5826],[9.8694,57.5016],[9.7997,57.46],[9.7306,57.3662],[9.5614,57.2038],[9.4072,57.1326],[9.2909,57.1168],[9.1182,57.1198],[8.9801,57.1402],[8.856,57.0994],[8.7544,57.0909],[8.601,57.1221],[8.5171,57.0507],[8.4806,57.0457],[8.3625,56.9622],[8.2532,56.8506],[8.2214,56.793],[8.2151,56.7321],[8.2941,56.7607],[8.3495,56.6764],[8.4013,56.6665]]]]}},
{"type":"Feature","id":"DNK:ADM1:DK-82","properties":{"shapeName":"Midtjylland","shapeISO":"DK-82","shapeType":"ADM1"},"geometry":{"type":"MultiPolygon","coordinates":[[[[10.5601,55.9786],[10.5232,55.955],[10.5373,55.9133],[10.6035,55.888],[10.5844,55.8464],[10.5307,55.8282],[10.5473,55.7508],[10.619,55.7468],[10.6435,55.779],[10.6397,55.8574],[10.5601,55.9786]]],[[[9.3211,56.6236],[9.2561,56.5835],[9.0462,56.5665],[9.1019,56.6304],[9.1815,56.67],[9.1172,56.7505],[9.0755,56.7708],[8.9636,56.7747],[8.8903,56.7415],[8.7013,56.5686],[8.7649,56.531],[8.7431,56.465],[8.6592,56.447],[8.6126,56.4676],[8.5676,56.5472],[8.5068,56.5307],[8.3885,56.5727],[8.3103,56.5739],[8.2275,56.6044],[8.1579,56.6559],[8.1126,56.5383],[8.1298,56.4347],[8.2381,56.3141],[8.1238,56.3181],[8.1392,56.2233],[8.1067,56.0488],[8.1762,56.0989],[8.2361,56.0903],[8.3078,56.0493],[8.3342,55.9691],[8.3816,55.9374],[8.3863,55.8871],[8.2748,55.8294],[8.1902,55.8595],[8.179,55.8038],[8.2837,55.7849],[8.5147,55.789],[8.6762,55.823],[8.755,55.7789],[8.8212,55.7915],[8.8365,55.8486],[8.8772,55.864],[8.9578,55.853],[8.9551,55.8137],[9.0067,55.7963],[9.1463,55.8452],[9.2193,55.9125],[9.3792,55.8811],[9.4955,55.7829],[9.5337,55.7323],[9.6744,55.706],[9.6625,55.6705],[9.7433,55.6407],[9.8351,55.6308],[9.8884,55.6497],[10.0174,55.6622],[10.05,55.7078],[10.0161,55.7398],[10.0613,55.7688],[9.8894,55.798],[9.9636,55.8352],[10.0822,55.8438],[10.1848,55.802],[10.2055,55.8511],[10.2543,55.8839],[10.2512,55.9552],[10.2781,55.9849],[10.2208,56.1288],[10.3362,56.1987],[10.3451,56.2258],[10.4347,56.2675],[10.5046,56.2516],[10.4432,56.1519],[10.5302,56.1438],[10.6117,56.211],[10.6698,56.2091],[10.6518,56.1497],[10.7164,56.1289],[10.7575,56.226],[10.814,56.2502],[10.918,56.3457],[10.9294,56.4314],[10.9548,56.4635],[10.8759,56.5011],[10.8405,56.5384],[10.7815,56.5447],[10.5391,56.4997],[10.4251,56.5035],[10.3423,56.567],[10.3671,56.6379],[10.3555,56.6755],[10.2585,56.6635],[10.1973,56.6389],[10.117,56.577],[10.0472,56.5489],[9.8807,56.5142],[9.7482,56.4989],[9.662,56.5727],[9.5946,56.573],[9.5141,56.6306],[9.4548,56.5856],[9.3211,56.6236]]],[[[8.4013,56.6665],[8.493,56.6165],[8.514,56.5786],[8.59,56.5883],[8.6434,56.6451],[8.5599,56.6779],[8.4048,56.6714],[8.4013,56.6665]]]]}},
{"type":"Feature","id":"DNK:ADM1:DK-85","properties":{"shapeName":"Sjælland","shapeISO":"DK-85","shapeType":"ADM1"},"geometry":{"type":"MultiPolygon","coordinates":[[[[12.2371,55.0631],[12.2879,55.0363],[12.2651,55.002],[12.126,54.9795],[12.1116,54.9255],[12.1921,54.9025],[12.2916,54.964],[12.3629,54.9875],[12.5414,54.9659],[12.5266,55.0284],[12.4521,55.0444],[12.322,55.0488],[12.2371,55.0631]]],[[[11.979,54.5943],[11.966,54.6852],[11.9869,54.736],[12.1684,54.8596],[12.121,54.9111],[12.0087,54.9177],[11.9838,54.9565],[11.8451,54.9806],[11.7497,54.9806],[11.7608,54.8792],[11.8089,54.8687],[11.8361,54.8216],[11.8898,54.7789],[11.8771,54.7556],[11.9167,54.7464],[11.8773,54.6798],[11.9249,54.6054],[11.979,54.5943]]],[[[11.9807,55.7342],[11.8706,55.7394],[11.7904,55.7054],[11.751,55.7449],[11.7339,55.8312],[11.6736,55.9163],[11.5893,55.9659],[11.5374,55.9556],[11.5278,55.8902],[11.4921,55.8497],[11.3758,55.8322],[11.3754,55.7777],[11.2684,55.7312],[11.1508,55.7532],[11.0949,55.7326],[10.9881,55.721],[11.0823,55.6744],[11.0283,55.6501],[11.126,55.6175],[11.1606,55.5588],[11.1392,55.524],[11.18,55.4914],[11.2193,55.4026],[11.0975,55.3541],[11.2349,55.2962],[11.247,55.2163],[11.3748,55.2084],[11.4363,55.2288],[11.6514,55.1903],[11.7389,55.2085],[11.7241,55.1275],[11.8346,55.0733],[11.8218,55.0513],[11.9014,55.0144],[12.053,54.9834],[12.1677,55.0334],[12.1289,55.0811],[12.1898,55.1328],[12.1382,55.1485],[12.0376,55.1394],[12.0428,55.186],[12.1097,55.1879],[12.1502,55.2223],[12.2734,55.2571],[12.3568,55.25],[12.4564,55.3044],[12.4429,55.3631],[12.3671,55.4072],[12.3068,55.4106],[12.1953,55.4595],[12.2049,55.5157],[12.2519,55.5616],[12.3598,55.601],[12.2998,55.6221],[12.1589,55.6206],[12.1508,55.6763],[12.2472,55.7121],[12.0853,55.7845],[12.11,55.7151],[12.0694,55.6854],[11.9418,55.684],[11.9807,55.7342]]],[[[11.0229,54.9016],[11.0853,54.852],[10.9774,54.8115],[11.009,54.7795],[11.2665,54.7265],[11.3621,54.6754],[11.471,54.6395],[11.5754,54.6858],[11.7029,54.692],[11.8387,54.681],[11.8699,54.7627],[11.861,54.7988],[11.7881,54.8333],[11.7954,54.8544],[11.6612,54.923],[11.6534,54.8812],[11.4733,54.8615],[11.2698,54.9714],[11.1925,54.9745],[11.0864,54.9552],[11.0229,54.9016]]]]}},
{"type":"Feature","id":"DNK:ADM1:DK-84","properties":{"shapeName":"Hovedstaden","shapeISO":"DK-84","shapeType":"ADM1"},"geometry":{"type":"MultiPolygon","coordinates":[[[[14.7709,55.2964],[14.702,55.2056],[14.7008,55.092],[14.7766,55.0586],[14.8593,55.0453],[14.9637,55.0103],[15.0829,54.9962],[15.1548,55.0857],[15.152,55.1331],[14.8283,55.2493],[14.7709,55.2964]]],[[[12.6779,55.5935],[12.6064,55.6994],[12.5903,55.6797],[12.5618,55.6634],[12.5464,55.6424],[12.5058,55.611],[12.5928,55.5606],[12.6779,55.5935]]],[[[12.3598,55.601],[12.4068,55.6202],[12.49,55.6069],[12.5133,55.6412],[12.5477,55.6486],[12.5653,55.6712],[12.5879,55.6814],[12.5957,55.708],[12.5796,55.7384],[12.5908,55.7881],[12.5702,55.843],[12.5107,55.9262],[12.5532,55.9884],[12.6163,56.0331],[12.5191,56.0799],[12.3764,56.0983],[12.2704,56.1259],[12.1805,56.11],[11.9951,56.0283],[11.8471,55.9768],[11.8844,55.944],[11.9707,55.9701],[12.0139,55.9595],[12.0633,55.8797],[12.0507,55.8422],[12.0853,55.7845],[12.2472,55.7121],[12.1508,55.6763],[12.1589,55.6206],[12.2998,55.6221],[12.3598,55.601]]],[[[11.9807,55.7342],[12.0597,55.7386],[12.0631,55.7737],[12.0213,55.9017],[11.9485,55.9346],[11.8976,55.9233],[11.955,55.8554],[11.8777,55.8187],[11.8489,55.7601],[11.8706,55.7394],[11.9807,55.7342]]]]}},
{"type":"Feature","id":"DNK:ADM1:DK-83","properties":{"shapeName":"Syddanmark","shapeISO":"DK-83","shapeType":"ADM1"},"geometry":{"type":"MultiPolygon","coordinates":[[[[10.694,54.7355],[10.7409,54.7576],[10.8596,54.9729],[10.899,55.0006],[10.9591,55.1513],[10.9059,55.1404],[10.8538,55.0427],[10.7934,54.9879],[10.6917,54.9316],[10.6514,54.8394],[10.694,54.7355]]],[[[10.427,54.8195],[10.4664,54.8456],[10.2872,54.9346],[10.2449,54.9158],[10.3714,54.8404],[10.427,54.8195]]],[[[10.5161,55.0063],[10.554,54.9631],[10.6193,54.9523],[10.6628,55.0235],[10.6319,55.0545],[10.5358,55.0077],[10.5161,55.0063]]],[[[9.7455,54.9646],[9.7628,54.9083],[9.8384,54.882],[9.891,54.8988],[9.9966,54.8566],[10.0632,54.8713],[9.9939,54.9718],[9.8904,55.0062],[9.8003,55.0512],[9.691,55.0615],[9.6292,55.0312],[9.7455,54.9646]]],[[[8.5232,55.339],[8.4375,55.3805],[8.4428,55.4207],[8.3478,55.4378],[8.4136,55.3435],[8.5232,55.339]]],[[[9.6699,55.4785],[9.8161,55.4085],[9.8047,55.3772],[9.8665,55.3246],[9.875,55.2457],[9.919,55.1972],[10.014,55.1647],[10.109,55.1728],[10.17,55.1157],[10.0798,55.0891],[10.1857,55.0645],[10.2282,55.0884],[10.3181,55.0477],[10.514,55.0257],[10.6092,55.0513],[10.6198,55.0581],[10.6448,55.0559],[10.7118,55.0597],[10.7451,55.0704],[10.8096,55.1812],[10.8171,55.2307],[10.7888,55.272],[10.7928,55.358],[10.6684,55.4483],[10.7509,55.4732],[10.7072,55.5304],[10.6316,55.5459],[10.629,55.4753],[10.5263,55.4521],[10.4837,55.4664],[10.5001,55.5273],[10.4044,55.5694],[10.3059,55.5963],[10.0388,55.5259],[9.9329,55.4788],[9.8468,55.486],[9.8314,55.5197],[9.7517,55.5072],[9.7422,55.4722],[9.6699,55.4785]]],[[[8.179,55.8038],[8.1587,55.6848],[8.0783,55.5557],[8.1889,55.5222],[8.2521,55.517],[8.2928,55.553],[8.4577,55.4363],[8.5305,55.4387],[8.6092,55.4087],[8.6562,55.3118],[8.6294,55.2561],[8.6669,55.1475],[8.5975,55.1379],[8.5459,55.1436],[8.5763,55.1745],[8.4835,55.1944],[8.4475,55.0983],[8.4808,55.0617],[8.5372,55.0724],[8.5442,55.1418],[8.5868,55.1356],[8.6671,55.1336],[8.6156,55.0249],[8.6397,54.9782],[8.6192,54.9089],[8.7034,54.8896],[8.7893,54.9015],[8.9281,54.8952],[9.0272,54.8651],[9.1138,54.8667],[9.2281,54.839],[9.232,54.8086],[9.3235,54.7965],[9.3673,54.8309],[9.4478,54.8311],[9.6258,54.9228],[9.6447,54.8481],[9.7523,54.8442],[9.7644,54.8904],[9.7302,54.9715],[9.6821,54.9766],[9.5704,55.0265],[9.487,55.1327],[9.57,55.1655],[9.6339,55.156],[9.6865,55.1751],[9.7094,55.2318],[9.6316,55.2857],[9.6136,55.3561],[9.5836,55.386],[9.6807,55.4325],[9.6178,55.4631],[9.66,55.4913],[9.7622,55.5223],[9.7896,55.5561],[9.6938,55.6258],[9.6625,55.6705],[9.6744,55.706],[9.5337,55.7323],[9.4955,55.7829],[9.3792,55.8811],[9.2193,55.9125],[9.1463,55.8452],[9.0067,55.7963],[8.9551,55.8137],[8.9578,55.853],[8.8772,55.864],[8.8365,55.8486],[8.8212,55.7915],[8.755,55.7789],[8.6762,55.823],[8.5147,55.789],[8.2837,55.7849],[8.179,55.8038]]]]}}
]}