{"type":"FeatureCollection","bbox":[-31.2735,32.6545,-6.1969,42.1518],"features":[
{"type":"Feature","id":"PRT:ADM2:vila-do-bispo","properties":{"shapeName":"Vila do Bispo","shapeISO":"ADM 2","shapeType":"ADM2"},"geometry":{"type":"Polygon","coordinates":[[[-8.9214,37.1485],[-8.9889,37.029],[-8.77,37.0737],[-8.8445,37.1504],[-8.9214,37.1485]]]}},
{"type":"Feature","id":"PRT:ADM2:lagos","properties":{"shapeName":"Lagos","shapeISO":"ADM 2","shapeType":"ADM2"},"geometry":{"type":"Polygon","coordinates":[[[-8.77,37.0737],[-8.6284,37.1407],[-8.686,37.2194],[-8.7502,37.2325],[-8.8445,37.1504],[-8.77,37.0737]]]}},
{"type":"Feature","id":"PRT:ADM2:portimao","properties":{"shapeName":"Portimao","shapeISO":"ADM 2","shapeType":"ADM2"},"geometry":{"type":"Polygon","coordinates":[[[-8.6284,37.1407],[-8.5296,37.1341],[-8.4835,37.1879],[-8.5197,37.2469],[-8.686,37.2194],[-8.6284,37.1407]]]}},
{"type":"Feature","id":"PRT:ADM2:lagoa-2","properties":{"shapeName":"Lagoa","shapeISO":"ADM 2","shapeType":"ADM2"},"geometry":{"type":"Polygon","coordinates":[[[-8.5296,37.1341],[-8.3749,37.1197],[-8.4835,37.1879],[-8.5296,37.1341]]]}},
{"type":"Feature","id":"PRT:ADM2:alijezur","properties":{"shapeName":"Alijezur","shapeISO":"ADM 2","shapeType":"ADM2"},"geometry":{"type":"Polygon","coordinates":[[[-8.8445,37.1504],[-8.7502,37.2325],[-8.6663,37.4118],[-8.7634,37.4511],[-8.9214,37.1485],[-8.8445,37.1504]]]}},
{"type":"Feature","id":"PRT:ADM2:monchique","properties":{"shapeName":"Monchique","shapeISO":"ADM 2","shapeType":"ADM2"},"geometry":{"type":"Polygon","coordinates":[[[-8.686,37.2194],[-8.5197,37.2469],[-8.4275,37.3791],[-8.5741,37.4288],[-8.6663,37.4118],[-8.7502,37.2325],[-8.686,37.2194]]]}},
{"type":"Feature","id":"PRT:ADM2:silves","properties":{"shapeName":"Silves","shapeISO":"ADM 2","shapeType":"ADM2"},"geometry":{"type":"Polygon","coordinates":[[[-8.4835,37.1879],[-8.3749,37.1197],[-8.3485,37.1065],[-8.2432,37.1735],[-8.2312,37.2597],[-8.1757,37.3137],[-8.2695,37.4301],[-8.388,37.442],[-8.4275,37.3791],[-8.5197,37.2469],[-8.4835,37.1879]]]}},
{"type":"Feature","id":"PRT:ADM2:albufeira","properties":{"shapeName":"Albufeira","shapeISO":"ADM 2","shapeType":"ADM2"},"geometry":{"type":"Polygon","coordinates":[[[-8.3485,37.1065],[-8.151,37.1302],[-8.2312,37.2597],[-8.2432,37.1735],[-8.3485,37.1065]]]}},
{"type":"Feature","id":"PRT:ADM2:loule","properties":{"shapeName":"Loule","shapeISO":"ADM 2","shapeType":"ADM2"},"geometry":{"type":"Polygon","coordinates":[[[-8.2312,37.2597],[-8.151,37.1302],[-7.9756,37.0515],[-7.9361,37.165],[-7.8855,37.2858],[-7.8855,37.4072],[-7.8897,37.4248],[-7.9835,37.4215],[-8.0642,37.3309],[-8.1757,37.3137],[-8.2312,37.2597]]]}},
{"type":"Feature","id":"PRT:ADM2:faro","properties":{"shapeName":"Faro","shapeISO":"ADM 2","shapeType":"ADM2"},"geometry":{"type":"Polygon","coordinates":[[[-7.9756,37.0515],[-7.8686,37.0675],[-7.8413,37.1314],[-7.9361,37.165],[-7.9756,37.0515]]]}},
{"type":"Feature","id":"PRT:ADM2:olhao","properties":{"shapeName":"Olhao","shapeISO":"ADM 2","shapeType":"ADM2"},"geometry":{"type":"Polygon","coordinates":[[[-7.8686,37.0675],[-7.713,37.0895],[-7.8048,37.1377],[-7.8413,37.1314],[-7.8686,37.0675]]]}},
{"type":"Feature","id":"PRT:ADM2:sao-bras-de-alportel","properties":{"shapeName":"Sao Bras de Alportel","shapeISO":"ADM 2","shapeType":"ADM2"},"geometry":{"type":"Polygon","coordinates":[[[-7.9361,37.165],[-7.8413,37.1314],[-7.8048,37.1377],[-7.7772,37.2731],[-7.8855,37.2858],[-7.9361,37.165]]]}},
{"type":"Feature","id":"PRT:ADM2:tavira","properties":{"shapeName":"Tavira","shapeISO":"ADM 2","shapeType":"ADM2"},"geometry":{"type":"Polygon","coordinates":[[[-7.8855,37.2858],[-7.7772,37.2731],[-7.8048,37.1377],[-7.713,37.0895],[-7.5501,37.1643],[-7.5544,37.2806],[-7.5878,37.2947],[-7.7172,37.3221],[-7.7427,37.3896],[-7.8855,37.4072],[-7.8855,37.2858]]]}},
{"type":"Feature","id":"PRT:ADM2:vila-real-de-santo-antonio","properties":{"shapeName":"Vila Real de Santo Antonio","shapeISO":"ADM 2","shapeType":"ADM2"},"geometry":{"type":"Polygon","coordinates":[[[-7.5501,37.1643],[-7.3986,37.2076],[-7.5544,37.2806],[-7.5501,37.1643]]]}},
{"type":"Feature","id":"PRT:ADM2:castro-marim","properties":{"shapeName":"Castro Marim","shapeISO":"ADM 2","shapeType":"ADM2"},"geometry":{"type":"Polygon","coordinates":[[[-7.5544,37.2806],[-7.3986,37.2076],[-7.4019,37.3765],[-7.5023,37.4131],[-7.5878,37.2947],[-7.5544,37.2806]]]}},
{"type":"Feature","id":"PRT:ADM2:alcoutim","properties":{"shapeName":"Alcoutim","shapeISO":"ADM 2","shapeType":"ADM2"},"geometry":{"type":"Polygon","coordinates":[[[-7.8855,37.4072],[-7.7427,37.3896],[-7.7172,37.3221],[-7.5878,37.2947],[-7.5023,37.4131],[-7.4019,37.3765],[-7.4282,37.4916],[-7.5303,37.5464],[-7.8859,37.4563],[-7.8897,37.4248],[-7.8855,37.4072]]]}},
{"type":"Feature","id":"PRT:ADM2:almodovar","properties":{"shapeName":"Almodovar","shapeISO":"ADM 2","shapeType":"ADM2"},"geometry":{"type":"Polygon","coordinates":[[[-8.1757,37.3137],[-8.0642,37.3309],[-7.9835,37.4215],[-7.8897,37.4248],[-7.8859,37.4563],[-7.9106,37.6077],[-8.1361,37.6195],[-8.2629,37.5856],[-8.2036,37.4798],[-8.2695,37.4301],[-8.1757,37.3137]]]}},
{"type":"Feature","id":"PRT:ADM2:mertola","properties":{"shapeName":"Mertola","shapeISO":"ADM 2","shapeType":"ADM2"},"geometry":{"type":"Polygon","coordinates":[[[-7.5303,37.5464],[-7.4393,37.6728],[-7.4599,37.7725],[-7.5885,37.7786],[-7.658,37.8416],[-7.9255,37.8315],[-7.8638,37.7624],[-7.9106,37.6077],[-7.8859,37.4563],[-7.5303,37.5464]]]}},
{"type":"Feature","id":"PRT:ADM2:castro-verde","properties":{"shapeName":"Castro Verde","shapeISO":"ADM 2","shapeType":"ADM2"},"geometry":{"type":"Polygon","coordinates":[[[-7.9106,37.6077],[-7.8638,37.7624],[-7.9255,37.8315],[-8.01,37.8307],[-8.2008,37.7969],[-8.1361,37.6195],[-7.9106,37.6077]]]}},
{"type":"Feature","id":"PRT:ADM2:ourique","properties":{"shapeName":"Ourique","shapeISO":"ADM 2","shapeType":"ADM2"},"geometry":{"type":"Polygon","coordinates":[[[-8.2695,37.4301],[-8.2036,37.4798],[-8.2629,37.5856],[-8.1361,37.6195],[-8.2008,37.7969],[-8.3551,37.8782],[-8.4014,37.8701],[-8.4091,37.7746],[-8.331,37.6309],[-8.388,37.442],[-8.2695,37.4301]]]}},
{"type":"Feature","id":"PRT:ADM2:odemira","properties":{"shapeName":"Odemira","shapeISO":"ADM 2","shapeType":"ADM2"},"geometry":{"type":"Polygon","coordinates":[[[-8.6663,37.4118],[-8.5741,37.4288],[-8.4275,37.3791],[-8.388,37.442],[-8.331,37.6309],[-8.4091,37.7746],[-8.4014,37.8701],[-8.5557,37.8619],[-8.5918,37.7705],[-8.7204,37.8091],[-8.7898,37.8213],[-8.7634,37.4511],[-8.6663,37.4118]]]}},
{"type":"Feature","id":"PRT:ADM2:serpa","properties":{"shapeName":"Serpa","shapeISO":"ADM 2","shapeType":"ADM2"},"geometry":{"type":"Polygon","coordinates":[[[-7.4599,37.7725],[-7.2991,37.8418],[-7.2589,37.9528],[-7.2911,38.0161],[-7.5403,38.1553],[-7.6569,38.1111],[-7.658,37.8416],[-7.5885,37.7786],[-7.4599,37.7725]]]}},
{"type":"Feature","id":"PRT:ADM2:beja","properties":{"shapeName":"Beja","shapeISO":"ADM 2","shapeType":"ADM2"},"geometry":{"type":"Polygon","coordinates":[[[-7.658,37.8416],[-7.6569,38.1111],[-7.8355,38.17],[-7.9898,38.1376],[-8.0541,38.0283],[-8.0799,37.9208],[-8.01,37.8307],[-7.9255,37.8315],[-7.658,37.8416]]]}},
{"type":"Feature","id":"PRT:ADM2:aljustrel","properties":{"shapeName":"Aljustrel","shapeISO":"ADM 2","shapeType":"ADM2"},"geometry":{"type":"Polygon","coordinates":[[[-8.01,37.8307],[-8.0799,37.9208],[-8.0541,38.0283],[-8.3114,38.0182],[-8.3551,37.8782],[-8.2008,37.7969],[-8.01,37.8307]]]}},
{"type":"Feature","id":"PRT:ADM2:santiago-do-cacem","properties":{"shapeName":"Santiago do Cacem","shapeISO":"ADM 2","shapeType":"ADM2"},"geometry":{"type":"Polygon","coordinates":[[[-8.3551,37.8782],[-8.3114,38.0182],[-8.4117,38.087],[-8.4547,38.0483],[-8.6664,38.1457],[-8.795,38.1255],[-8.8093,38.0298],[-8.6921,37.9452],[-8.7204,37.8091],[-8.5918,37.7705],[-8.5557,37.8619],[-8.4014,37.8701],[-8.3551,37.8782]]]}},
{"type":"Feature","id":"PRT:ADM2:sines","properties":{"shapeName":"Sines","shapeISO":"ADM 2","shapeType":"ADM2"},"geometry":{"type":"Polygon","coordinates":[[[-8.7204,37.8091],[-8.6921,37.9452],[-8.8093,38.0298],[-8.7898,37.8213],[-8.7204,37.8091]]]}},
{"type":"Feature","id":"PRT:ADM2:ferriera-do-alentejo","properties":{"shapeName":"Ferriera do Alentejo","shapeISO":"ADM 2","shapeType":"ADM2"},"geometry":{"type":"Polygon","coordinates":[[[-7.9898,38.1376],[-7.9962,38.1949],[-8.1345,38.2311],[-8.253,38.2298],[-8.4117,38.087],[-8.3114,38.0182],[-8.0541,38.0283],[-7.9898,38.1376]]]}},
{"type":"Feature","id":"PRT:ADM2:moura","properties":{"shapeName":"Moura","shapeISO":"ADM 2","shapeType":"ADM2"},"geometry":{"type":"Polygon","coordinates":[[[-7.2589,37.9528],[-7.2307,37.9928],[-6.9919,38.0226],[-6.987,38.1056],[-7.149,38.1061],[-7.1763,38.1729],[-7.2932,38.3371],[-7.3986,38.3074],[-7.4517,38.2504],[-7.4862,38.2134],[-7.5403,38.1553],[-7.2911,38.0161],[-7.2589,37.9528]]]}},
{"type":"Feature","id":"PRT:ADM2:barrancos","properties":{"shapeName":"Barrancos","shapeISO":"ADM 2","shapeType":"ADM2"},"geometry":{"type":"Polygon","coordinates":[[[-6.987,38.1056],[-7.067,38.1952],[-7.1763,38.1729],[-7.149,38.1061],[-6.987,38.1056]]]}},
{"type":"Feature","id":"PRT:ADM2:mourao","properties":{"shapeName":"Mourao","shapeISO":"ADM 2","shapeType":"ADM2"},"geometry":{"type":"Polygon","coordinates":[[[-7.1763,38.1729],[-7.067,38.1952],[-7.3107,38.4626],[-7.3544,38.4626],[-7.3986,38.3074],[-7.2932,38.3371],[-7.1763,38.1729]]]}},
{"type":"Feature","id":"PRT:ADM2:vidigueira","properties":{"shapeName":"Vidigueira","shapeISO":"ADM 2","shapeType":"ADM2"},"geometry":{"type":"Polygon","coordinates":[[[-7.5403,38.1553],[-7.4862,38.2134],[-7.8509,38.2912],[-7.8355,38.17],[-7.6569,38.1111],[-7.5403,38.1553]]]}},
{"type":"Feature","id":"PRT:ADM2:cuba","properties":{"shapeName":"Cuba","shapeISO":"ADM 2","shapeType":"ADM2"},"geometry":{"type":"Polygon","coordinates":[[[-7.8355,38.17],[-7.8509,38.2912],[-7.9358,38.3356],[-7.9962,38.1949],[-7.9898,38.1376],[-7.8355,38.17]]]}},
{"type":"Feature","id":"PRT:ADM2:grandola","properties":{"shapeName":"Grandola","shapeISO":"ADM 2","shapeType":"ADM2"},"geometry":{"type":"Polygon","coordinates":[[[-8.4117,38.087],[-8.253,38.2298],[-8.7305,38.3096],[-8.789,38.431],[-8.9163,38.5212],[-8.8423,38.4485],[-8.7752,38.2704],[-8.795,38.1255],[-8.6664,38.1457],[-8.4547,38.0483],[-8.4117,38.087]]]}},
{"type":"Feature","id":"PRT:ADM2:alcacer-do-sal","properties":{"shapeName":"Alcacer do Sal","shapeISO":"ADM 2","shapeType":"ADM2"},"geometry":{"type":"Polygon","coordinates":[[[-8.1345,38.2311],[-8.1699,38.3498],[-8.3297,38.404],[-8.3377,38.4658],[-8.4036,38.5777],[-8.586,38.5737],[-8.6643,38.569],[-8.6909,38.5629],[-8.789,38.431],[-8.7305,38.3096],[-8.253,38.2298],[-8.1345,38.2311]]]}},
{"type":"Feature","id":"PRT:ADM2:portel","properties":{"shapeName":"Portel","shapeISO":"ADM 2","shapeType":"ADM2"},"geometry":{"type":"Polygon","coordinates":[[[-7.4517,38.2504],[-7.6495,38.4153],[-7.7069,38.4561],[-7.922,38.3973],[-7.9358,38.3356],[-7.8509,38.2912],[-7.4862,38.2134],[-7.4517,38.2504]]]}},
{"type":"Feature","id":"PRT:ADM2:reguengos-de-monsaraz","properties":{"shapeName":"Reguengos de Monsaraz","shapeISO":"ADM 2","shapeType":"ADM2"},"geometry":{"type":"Polygon","coordinates":[[[-7.3986,38.3074],[-7.3544,38.4626],[-7.5066,38.5514],[-7.5701,38.5071],[-7.6495,38.4153],[-7.4517,38.2504],[-7.3986,38.3074]]]}},
{"type":"Feature","id":"PRT:ADM2:evora","properties":{"shapeName":"Evora","shapeISO":"ADM 2","shapeType":"ADM2"},"geometry":{"type":"Polygon","coordinates":[[[-7.6495,38.4153],[-7.5701,38.5071],[-7.7069,38.624],[-7.7326,38.7241],[-7.8223,38.7816],[-8.061,38.6941],[-8.1716,38.6641],[-8.0931,38.5664],[-8.137,38.5077],[-8.0482,38.4103],[-7.922,38.3973],[-7.7069,38.4561],[-7.6495,38.4153]]]}},
{"type":"Feature","id":"PRT:ADM2:redondo","properties":{"shapeName":"Redondo","shapeISO":"ADM 2","shapeType":"ADM2"},"geometry":{"type":"Polygon","coordinates":[[[-7.5066,38.5514],[-7.5268,38.7112],[-7.5268,38.7448],[-7.5748,38.77],[-7.7326,38.7241],[-7.7069,38.624],[-7.5701,38.5071],[-7.5066,38.5514]]]}},
{"type":"Feature","id":"PRT:ADM2:alandroal","properties":{"shapeName":"Alandroal","shapeISO":"ADM 2","shapeType":"ADM2"},"geometry":{"type":"Polygon","coordinates":[[[-7.3107,38.4626],[-7.2759,38.7366],[-7.2407,38.7829],[-7.2711,38.7916],[-7.5268,38.7112],[-7.5066,38.5514],[-7.3544,38.4626],[-7.3107,38.4626]]]}},
{"type":"Feature","id":"PRT:ADM2:vila-vicosa","properties":{"shapeName":"Vila Vicosa","shapeISO":"ADM 2","shapeType":"ADM2"},"geometry":{"type":"Polygon","coordinates":[[[-7.5268,38.7112],[-7.2711,38.7916],[-7.4041,38.8428],[-7.5268,38.7448],[-7.5268,38.7112]]]}},
{"type":"Feature","id":"PRT:ADM2:montemor-o-novo","properties":{"shapeName":"Montemor-o-Novo","shapeISO":"ADM 2","shapeType":"ADM2"},"geometry":{"type":"Polygon","coordinates":[[[-8.3377,38.4658],[-8.137,38.5077],[-8.0931,38.5664],[-8.1716,38.6641],[-8.061,38.6941],[-8.2191,38.8536],[-8.3994,38.9004],[-8.5517,38.8137],[-8.5237,38.7995],[-8.4169,38.6838],[-8.5596,38.6701],[-8.586,38.5737],[-8.4036,38.5777],[-8.3377,38.4658]]]}},
{"type":"Feature","id":"PRT:ADM2:vendas-novas","properties":{"shapeName":"Vendas Novas","shapeISO":"ADM 2","shapeType":"ADM2"},"geometry":{"type":"Polygon","coordinates":[[[-8.586,38.5737],[-8.5596,38.6701],[-8.4169,38.6838],[-8.5237,38.7995],[-8.6422,38.6721],[-8.6643,38.569],[-8.586,38.5737]]]}},
{"type":"Feature","id":"PRT:ADM2:palmela","properties":{"shapeName":"Palmela","shapeISO":"ADM 2","shapeType":"ADM2"},"geometry":{"type":"Polygon","coordinates":[[[-8.6422,38.6721],[-8.7449,38.7756],[-8.8192,38.7719],[-8.9302,38.6936],[-8.9552,38.674],[-9.0024,38.6359],[-9.0153,38.586],[-8.7574,38.5606],[-8.6909,38.5629],[-8.6643,38.569],[-8.6422,38.6721]]]}},
{"type":"Feature","id":"PRT:ADM2:montijo","properties":{"shapeName":"Montijo","shapeISO":"ADM 2","shapeType":"ADM2"},"geometry":{"type":"Polygon","coordinates":[[[-8.5517,38.8137],[-8.6452,38.8627],[-8.7449,38.7756],[-8.6422,38.6721],[-8.5237,38.7995],[-8.5517,38.8137]]]}},
{"type":"Feature","id":"PRT:ADM2:setubul","properties":{"shapeName":"Setubul","shapeISO":"ADM 2","shapeType":"ADM2"},"geometry":{"type":"Polygon","coordinates":[[[-9.0153,38.586],[-9.0078,38.4724],[-8.9163,38.5212],[-8.7574,38.5606],[-9.0153,38.586]]]}},
{"type":"Feature","id":"PRT:ADM2:sesimbra","properties":{"shapeName":"Sesimbra","shapeISO":"ADM 2","shapeType":"ADM2"},"geometry":{"type":"Polygon","coordinates":[[[-9.0153,38.586],[-9.0748,38.5822],[-9.131,38.5786],[-9.1847,38.5701],[-9.1853,38.4508],[-9.0078,38.4724],[-9.0153,38.586]]]}},
{"type":"Feature","id":"PRT:ADM2:almada","properties":{"shapeName":"Almada","shapeISO":"ADM 2","shapeType":"ADM2"},"geometry":{"type":"Polygon","coordinates":[[[-9.131,38.5786],[-9.1587,38.6607],[-9.1847,38.5701],[-9.131,38.5786]]]}},
{"type":"Feature","id":"PRT:ADM2:seixal","properties":{"shapeName":"Seixal","shapeISO":"ADM 2","shapeType":"ADM2"},"geometry":{"type":"Polygon","coordinates":[[[-9.0748,38.5822],[-9.0993,38.6716],[-9.1587,38.6607],[-9.131,38.5786],[-9.0748,38.5822]]]}},
{"type":"Feature","id":"PRT:ADM2:barriero","properties":{"shapeName":"Barriero","shapeISO":"ADM 2","shapeType":"ADM2"},"geometry":{"type":"Polygon","coordinates":[[[-9.0024,38.6359],[-9.0576,38.6879],[-9.0993,38.6716],[-9.0748,38.5822],[-9.0153,38.586],[-9.0024,38.6359]]]}},
{"type":"Feature","id":"PRT:ADM2:moita","properties":{"shapeName":"Moita","shapeISO":"ADM 2","shapeType":"ADM2"},"geometry":{"type":"Polygon","coordinates":[[[-8.9552,38.674],[-9.048,38.7504],[-9.0576,38.6879],[-9.0024,38.6359],[-8.9552,38.674]]]}},
{"type":"Feature","id":"PRT:ADM2:montijo-2","properties":{"shapeName":"Montijo","shapeISO":"ADM 2","shapeType":"ADM2"},"geometry":{"type":"Polygon","coordinates":[[[-8.9302,38.6936],[-9.0207,38.7483],[-9.048,38.7504],[-8.9552,38.674],[-8.9302,38.6936]]]}},
{"type":"Feature","id":"PRT:ADM2:alcochete","properties":{"shapeName":"Alcochete","shapeISO":"ADM 2","shapeType":"ADM2"},"geometry":{"type":"Polygon","coordinates":[[[-8.8192,38.7719],[-8.9423,38.8091],[-9.0207,38.7483],[-8.9302,38.6936],[-8.8192,38.7719]]]}},
{"type":"Feature","id":"PRT:ADM2:benavente","properties":{"shapeName":"Benavente","shapeISO":"ADM 2","shapeType":"ADM2"},"geometry":{"type":"Polygon","coordinates":[[[-8.7449,38.7756],[-8.6452,38.8627],[-8.7249,38.9997],[-8.8651,39.0833],[-8.8705,39.064],[-8.945,38.8638],[-8.9423,38.8091],[-8.8192,38.7719],[-8.7449,38.7756]]]}},
{"type":"Feature","id":"PRT:ADM2:coruche","properties":{"shapeName":"Coruche","shapeISO":"ADM 2","shapeType":"ADM2"},"geometry":{"type":"Polygon","coordinates":[[[-8.2191,38.8536],[-8.1941,38.8751],[-8.2789,38.9277],[-8.2592,39.0308],[-8.3518,39.1455],[-8.4503,39.1542],[-8.5997,39.1591],[-8.5972,39.0619],[-8.7249,38.9997],[-8.6452,38.8627],[-8.5517,38.8137],[-8.3994,38.9004],[-8.2191,38.8536]]]}},
{"type":"Feature","id":"PRT:ADM2:vila-franca-de-xira","properties":{"shapeName":"Vila Franca de Xira","shapeISO":"ADM 2","shapeType":"ADM2"},"geometry":{"type":"Polygon","coordinates":[[[-8.8705,39.064],[-8.942,39.0698],[-9.0272,39.0596],[-9.0877,38.9521],[-9.0769,38.874],[-8.945,38.8638],[-8.8705,39.064]]]}},
{"type":"Feature","id":"PRT:ADM2:loures","properties":{"shapeName":"Loures","shapeISO":"ADM 2","shapeType":"ADM2"},"geometry":{"type":"Polygon","coordinates":[[[-9.0877,38.9521],[-9.1738,38.9376],[-9.2409,38.8976],[-9.2356,38.8341],[-9.1573,38.814],[-9.0929,38.8224],[-9.0769,38.874],[-9.0877,38.9521]]]}},
{"type":"Feature","id":"PRT:ADM2:lisboa","properties":{"shapeName":"Lisboa","shapeISO":"ADM 2","shapeType":"ADM2"},"geometry":{"type":"Polygon","coordinates":[[[-9.1573,38.814],[-9.1916,38.7802],[-9.2124,38.7569],[-9.2163,38.7116],[-9.0929,38.8224],[-9.1573,38.814]]]}},
{"type":"Feature","id":"PRT:ADM2:odivelas","properties":{"shapeName":"Odivelas","shapeISO":"ADM 2","shapeType":"ADM2"},"geometry":{"type":"Polygon","coordinates":[[[-9.2356,38.8341],[-9.1916,38.7802],[-9.1573,38.814],[-9.2356,38.8341]]]}},
{"type":"Feature","id":"PRT:ADM2:amadora","properties":{"shapeName":"Amadora","shapeISO":"ADM 2","shapeType":"ADM2"},"geometry":{"type":"Polygon","coordinates":[[[-9.1916,38.7802],[-9.2356,38.8341],[-9.2556,38.7582],[-9.2124,38.7569],[-9.1916,38.7802]]]}},
{"type":"Feature","id":"PRT:ADM2:oeiras","properties":{"shapeName":"Oeiras","shapeISO":"ADM 2","shapeType":"ADM2"},"geometry":{"type":"Polygon","coordinates":[[[-9.2124,38.7569],[-9.2556,38.7582],[-9.3028,38.7591],[-9.3252,38.7016],[-9.2163,38.7116],[-9.2124,38.7569]]]}},
{"type":"Feature","id":"PRT:ADM2:cascais","properties":{"shapeName":"Cascais","shapeISO":"ADM 2","shapeType":"ADM2"},"geometry":{"type":"Polygon","coordinates":[[[-9.3028,38.7591],[-9.4854,38.7729],[-9.4582,38.7041],[-9.3252,38.7016],[-9.3028,38.7591]]]}},
{"type":"Feature","id":"PRT:ADM2:sintra","properties":{"shapeName":"Sintra","shapeISO":"ADM 2","shapeType":"ADM2"},"geometry":{"type":"Polygon","coordinates":[[[-9.2409,38.8976],[-9.4165,38.9413],[-9.4854,38.7729],[-9.3028,38.7591],[-9.2556,38.7582],[-9.2356,38.8341],[-9.2409,38.8976]]]}},
{"type":"Feature","id":"PRT:ADM2:mafra","properties":{"shapeName":"Mafra","shapeISO":"ADM 2","shapeType":"ADM2"},"geometry":{"type":"Polygon","coordinates":[[[-9.1738,38.9376],[-9.18,38.9763],[-9.2307,39.0322],[-9.3354,38.9999],[-9.4085,39.0683],[-9.4165,38.9413],[-9.2409,38.8976],[-9.1738,38.9376]]]}},
{"type":"Feature","id":"PRT:ADM2:arruda-dos-vinhos","properties":{"shapeName":"Arruda dos Vinhos","shapeISO":"ADM 2","shapeType":"ADM2"},"geometry":{"type":"Polygon","coordinates":[[[-9.0272,39.0596],[-9.1057,39.0708],[-9.18,38.9763],[-9.1738,38.9376],[-9.0877,38.9521],[-9.0272,39.0596]]]}},
{"type":"Feature","id":"PRT:ADM2:sobral-de-monte-agraco","properties":{"shapeName":"Sobral de Monte Agraco","shapeISO":"ADM 2","shapeType":"ADM2"},"geometry":{"type":"Polygon","coordinates":[[[-9.18,38.9763],[-9.1057,39.0708],[-9.1268,39.0643],[-9.2307,39.0322],[-9.18,38.9763]]]}},
{"type":"Feature","id":"PRT:ADM2:arraiolos","properties":{"shapeName":"Arraiolos","shapeISO":"ADM 2","shapeType":"ADM2"},"geometry":{"type":"Polygon","coordinates":[[[-7.8223,38.7816],[-7.6934,38.8536],[-7.7895,38.9213],[-7.8987,38.9569],[-7.9963,38.8887],[-8.1941,38.8751],[-8.2191,38.8536],[-8.061,38.6941],[-7.8223,38.7816]]]}},
{"type":"Feature","id":"PRT:ADM2:estremoz","properties":{"shapeName":"Estremoz","shapeISO":"ADM 2","shapeType":"ADM2"},"geometry":{"type":"Polygon","coordinates":[[[-7.7326,38.7241],[-7.5748,38.77],[-7.4881,38.877],[-7.4881,38.9705],[-7.5407,39.023],[-7.7895,38.9213],[-7.6934,38.8536],[-7.8223,38.7816],[-7.7326,38.7241]]]}},
{"type":"Feature","id":"PRT:ADM2:borba","properties":{"shapeName":"Borba","shapeISO":"ADM 2","shapeType":"ADM2"},"geometry":{"type":"Polygon","coordinates":[[[-7.5268,38.7448],[-7.4041,38.8428],[-7.4456,38.9009],[-7.4881,38.9705],[-7.4881,38.877],[-7.5748,38.77],[-7.5268,38.7448]]]}},
{"type":"Feature","id":"PRT:ADM2:elvas","properties":{"shapeName":"Elvas","shapeISO":"ADM 2","shapeType":"ADM2"},"geometry":{"type":"Polygon","coordinates":[[[-7.2407,38.7829],[-7.0674,38.8638],[-7.0531,38.9269],[-7.1474,39.0178],[-7.3269,39.0656],[-7.4456,38.9009],[-7.4041,38.8428],[-7.2711,38.7916],[-7.2407,38.7829]]]}},
{"type":"Feature","id":"PRT:ADM2:campo-maior","properties":{"shapeName":"Campo Maior","shapeISO":"ADM 2","shapeType":"ADM2"},"geometry":{"type":"Polygon","coordinates":[[[-7.0531,38.9269],[-6.9874,39.0016],[-6.9899,39.1144],[-7.0976,39.1299],[-7.1474,39.0178],[-7.0531,38.9269]]]}},
{"type":"Feature","id":"PRT:ADM2:arronches","properties":{"shapeName":"Arronches","shapeISO":"ADM 2","shapeType":"ADM2"},"geometry":{"type":"Polygon","coordinates":[[[-7.1474,39.0178],[-7.0976,39.1299],[-7.2878,39.2386],[-7.413,39.1823],[-7.3269,39.0656],[-7.1474,39.0178]]]}},
{"type":"Feature","id":"PRT:ADM2:sousel","properties":{"shapeName":"Sousel","shapeISO":"ADM 2","shapeType":"ADM2"},"geometry":{"type":"Polygon","coordinates":[[[-7.7895,38.9213],[-7.5407,39.023],[-7.5697,39.0291],[-7.7385,39.06],[-7.9237,39.0308],[-7.8987,38.9569],[-7.7895,38.9213]]]}},
{"type":"Feature","id":"PRT:ADM2:avis","properties":{"shapeName":"Avis","shapeISO":"ADM 2","shapeType":"ADM2"},"geometry":{"type":"Polygon","coordinates":[[[-7.7385,39.06],[-7.8036,39.1765],[-7.8734,39.2739],[-8.099,39.1532],[-8.1566,39.0697],[-7.9237,39.0308],[-7.7385,39.06]]]}},
{"type":"Feature","id":"PRT:ADM2:portalegre","properties":{"shapeName":"Portalegre","shapeISO":"ADM 2","shapeType":"ADM2"},"geometry":{"type":"Polygon","coordinates":[[[-7.2878,39.2386],[-7.3269,39.3683],[-7.4522,39.4087],[-7.5678,39.4111],[-7.5427,39.2326],[-7.413,39.1823],[-7.2878,39.2386]]]}},
{"type":"Feature","id":"PRT:ADM2:marvao","properties":{"shapeName":"Marvao","shapeISO":"ADM 2","shapeType":"ADM2"},"geometry":{"type":"Polygon","coordinates":[[[-7.3269,39.3683],[-7.3254,39.5115],[-7.418,39.5192],[-7.4522,39.4087],[-7.3269,39.3683]]]}},
{"type":"Feature","id":"PRT:ADM2:alter-do-chao","properties":{"shapeName":"Alter do Chao","shapeISO":"ADM 2","shapeType":"ADM2"},"geometry":{"type":"Polygon","coordinates":[[[-7.8036,39.1765],[-7.6028,39.1795],[-7.5482,39.2347],[-7.8286,39.3723],[-7.8737,39.3587],[-7.8734,39.2739],[-7.8036,39.1765]]]}},
{"type":"Feature","id":"PRT:ADM2:crato","properties":{"shapeName":"Crato","shapeISO":"ADM 2","shapeType":"ADM2"},"geometry":{"type":"Polygon","coordinates":[[[-7.5678,39.4111],[-7.6412,39.4355],[-7.7785,39.4361],[-7.8962,39.3858],[-7.8737,39.3587],[-7.8286,39.3723],[-7.5482,39.2347],[-7.5427,39.2326],[-7.5678,39.4111]]]}},
{"type":"Feature","id":"PRT:ADM2:castelo-de-vide","properties":{"shapeName":"Castelo de Vide","shapeISO":"ADM 2","shapeType":"ADM2"},"geometry":{"type":"Polygon","coordinates":[[[-7.4522,39.4087],[-7.418,39.5192],[-7.4858,39.6317],[-7.5822,39.5812],[-7.6412,39.4355],[-7.5678,39.4111],[-7.4522,39.4087]]]}},
{"type":"Feature","id":"PRT:ADM2:nisa","properties":{"shapeName":"Nisa","shapeISO":"ADM 2","shapeType":"ADM2"},"geometry":{"type":"Polygon","coordinates":[[[-7.6412,39.4355],[-7.5822,39.5812],[-7.4858,39.6317],[-7.5432,39.7043],[-7.6934,39.6909],[-7.8286,39.6041],[-7.8837,39.5385],[-7.7785,39.4361],[-7.6412,39.4355]]]}},
{"type":"Feature","id":"PRT:ADM2:gaviao","properties":{"shapeName":"Gaviao","shapeISO":"ADM 2","shapeType":"ADM2"},"geometry":{"type":"Polygon","coordinates":[[[-7.7785,39.4361],[-7.8837,39.5385],[-8.0364,39.5269],[-7.9863,39.4206],[-7.8962,39.3858],[-7.7785,39.4361]]]}},
{"type":"Feature","id":"PRT:ADM2:mora","properties":{"shapeName":"Mora","shapeISO":"ADM 2","shapeType":"ADM2"},"geometry":{"type":"Polygon","coordinates":[[[-8.1941,38.8751],[-7.9963,38.8887],[-7.8987,38.9569],[-7.9237,39.0308],[-8.1566,39.0697],[-8.2592,39.0308],[-8.2789,38.9277],[-8.1941,38.8751]]]}},
{"type":"Feature","id":"PRT:ADM2:ponte-de-sor","properties":{"shapeName":"Ponte de Sor","shapeISO":"ADM 2","shapeType":"ADM2"},"geometry":{"type":"Polygon","coordinates":[[[-8.2592,39.0308],[-8.1566,39.0697],[-8.099,39.1532],[-7.8734,39.2739],[-7.8737,39.3587],[-7.8962,39.3858],[-7.9863,39.4206],[-8.2105,39.2756],[-8.3518,39.1455],[-8.2592,39.0308]]]}},
{"type":"Feature","id":"PRT:ADM2:torres-vedras","properties":{"shapeName":"Torres Vedras","shapeISO":"ADM 2","shapeType":"ADM2"},"geometry":{"type":"Polygon","coordinates":[[[-9.2307,39.0322],[-9.1268,39.0643],[-9.153,39.1959],[-9.198,39.2211],[-9.3072,39.1649],[-9.4085,39.0683],[-9.3354,38.9999],[-9.2307,39.0322]]]}},
{"type":"Feature","id":"PRT:ADM2:alenquer","properties":{"shapeName":"Alenquer","shapeISO":"ADM 2","shapeType":"ADM2"},"geometry":{"type":"Polygon","coordinates":[[[-8.942,39.0698],[-8.9952,39.2056],[-9.153,39.1959],[-9.1268,39.0643],[-9.1057,39.0708],[-9.0272,39.0596],[-8.942,39.0698]]]}},
{"type":"Feature","id":"PRT:ADM2:azambuja","properties":{"shapeName":"Azambuja","shapeISO":"ADM 2","shapeType":"ADM2"},"geometry":{"type":"Polygon","coordinates":[[[-8.8705,39.064],[-8.8651,39.0833],[-8.815,39.1396],[-8.845,39.2405],[-8.8751,39.2677],[-8.9827,39.2774],[-8.9952,39.2056],[-8.942,39.0698],[-8.8705,39.064]]]}},
{"type":"Feature","id":"PRT:ADM2:cadaval","properties":{"shapeName":"Cadaval","shapeISO":"ADM 2","shapeType":"ADM2"},"geometry":{"type":"Polygon","coordinates":[[[-9.153,39.1959],[-8.9952,39.2056],[-8.9827,39.2774],[-9.0032,39.3105],[-9.0817,39.339],[-9.1746,39.2534],[-9.198,39.2211],[-9.153,39.1959]]]}},
{"type":"Feature","id":"PRT:ADM2:lourinha","properties":{"shapeName":"Lourinha","shapeISO":"ADM 2","shapeType":"ADM2"},"geometry":{"type":"Polygon","coordinates":[[[-9.198,39.2211],[-9.1746,39.2534],[-9.2115,39.3278],[-9.2916,39.3278],[-9.3685,39.3055],[-9.3072,39.1649],[-9.198,39.2211]]]}},
{"type":"Feature","id":"PRT:ADM2:salvaterra-de-magos","properties":{"shapeName":"Salvaterra de Magos","shapeISO":"ADM 2","shapeType":"ADM2"},"geometry":{"type":"Polygon","coordinates":[[[-8.7249,38.9997],[-8.5972,39.0619],[-8.5997,39.1591],[-8.7256,39.1809],[-8.815,39.1396],[-8.8651,39.0833],[-8.7249,38.9997]]]}},
{"type":"Feature","id":"PRT:ADM2:cartaxo","properties":{"shapeName":"Cartaxo","shapeISO":"ADM 2","shapeType":"ADM2"},"geometry":{"type":"Polygon","coordinates":[[[-8.815,39.1396],[-8.7256,39.1809],[-8.726,39.2214],[-8.845,39.2405],[-8.815,39.1396]]]}},
{"type":"Feature","id":"PRT:ADM2:almeirim","properties":{"shapeName":"Almeirim","shapeISO":"ADM 2","shapeType":"ADM2"},"geometry":{"type":"Polygon","coordinates":[[[-8.4503,39.1542],[-8.5177,39.2596],[-8.6633,39.2851],[-8.726,39.2214],[-8.7256,39.1809],[-8.5997,39.1591],[-8.4503,39.1542]]]}},
{"type":"Feature","id":"PRT:ADM2:chamusca","properties":{"shapeName":"Chamusca","shapeISO":"ADM 2","shapeType":"ADM2"},"geometry":{"type":"Polygon","coordinates":[[[-8.3518,39.1455],[-8.2105,39.2756],[-8.3018,39.3645],[-8.3719,39.4999],[-8.4595,39.4922],[-8.5746,39.3529],[-8.5177,39.2596],[-8.4503,39.1542],[-8.3518,39.1455]]]}},
{"type":"Feature","id":"PRT:ADM2:alpiarca","properties":{"shapeName":"Alpiarca","shapeISO":"ADM 2","shapeType":"ADM2"},"geometry":{"type":"Polygon","coordinates":[[[-8.5177,39.2596],[-8.5746,39.3529],[-8.6633,39.2851],[-8.5177,39.2596]]]}},
{"type":"Feature","id":"PRT:ADM2:constancia","properties":{"shapeName":"Constancia","shapeISO":"ADM 2","shapeType":"ADM2"},"geometry":{"type":"Polygon","coordinates":[[[-8.3018,39.3645],[-8.2867,39.5346],[-8.3543,39.552],[-8.3719,39.4999],[-8.3018,39.3645]]]}},
{"type":"Feature","id":"PRT:ADM2:abrantes","properties":{"shapeName":"Abrantes","shapeISO":"ADM 2","shapeType":"ADM2"},"geometry":{"type":"Polygon","coordinates":[[[-8.0364,39.5269],[-8.1205,39.5855],[-8.2052,39.6529],[-8.2636,39.6844],[-8.3543,39.552],[-8.2867,39.5346],[-8.3018,39.3645],[-8.2105,39.2756],[-7.9863,39.4206],[-8.0364,39.5269]]]}},
{"type":"Feature","id":"PRT:ADM2:sardoal","properties":{"shapeName":"Sardoal","shapeISO":"ADM 2","shapeType":"ADM2"},"geometry":{"type":"Polygon","coordinates":[[[-8.1205,39.5855],[-8.1059,39.6417],[-8.2052,39.6529],[-8.1205,39.5855]]]}},
{"type":"Feature","id":"PRT:ADM2:macao","properties":{"shapeName":"Macao","shapeISO":"ADM 2","shapeType":"ADM2"},"geometry":{"type":"Polygon","coordinates":[[[-7.8286,39.6041],[-7.8383,39.6189],[-8.0329,39.7877],[-8.0901,39.7729],[-8.1059,39.6417],[-8.1205,39.5855],[-8.0364,39.5269],[-7.8837,39.5385],[-7.8286,39.6041]]]}},
{"type":"Feature","id":"PRT:ADM2:vila-nova-da-barquinha","properties":{"shapeName":"Vila Nova da Barquinha","shapeISO":"ADM 2","shapeType":"ADM2"},"geometry":{"type":"Polygon","coordinates":[[[-8.3719,39.4999],[-8.3543,39.552],[-8.4738,39.5359],[-8.4667,39.5142],[-8.4595,39.4922],[-8.3719,39.4999]]]}},
{"type":"Feature","id":"PRT:ADM2:golega","properties":{"shapeName":"Golega","shapeISO":"ADM 2","shapeType":"ADM2"},"geometry":{"type":"Polygon","coordinates":[[[-8.4595,39.4922],[-8.4667,39.5142],[-8.5264,39.4886],[-8.5848,39.4323],[-8.5746,39.3529],[-8.4595,39.4922]]]}},
{"type":"Feature","id":"PRT:ADM2:entroncamento","properties":{"shapeName":"Entroncamento","shapeISO":"ADM 2","shapeType":"ADM2"},"geometry":{"type":"Polygon","coordinates":[[[-8.4738,39.5359],[-8.5264,39.4886],[-8.4667,39.5142],[-8.4738,39.5359]]]}},
{"type":"Feature","id":"PRT:ADM2:santarem","properties":{"shapeName":"Santarem","shapeISO":"ADM 2","shapeType":"ADM2"},"geometry":{"type":"Polygon","coordinates":[[[-8.845,39.2405],[-8.726,39.2214],[-8.6633,39.2851],[-8.5746,39.3529],[-8.5848,39.4323],[-8.6607,39.4593],[-8.7979,39.5179],[-8.8954,39.504],[-8.906,39.4435],[-8.8184,39.3736],[-8.8751,39.2677],[-8.845,39.2405]]]}},
{"type":"Feature","id":"PRT:ADM2:rio-maior","properties":{"shapeName":"Rio Maior","shapeISO":"ADM 2","shapeType":"ADM2"},"geometry":{"type":"Polygon","coordinates":[[[-8.8751,39.2677],[-8.8184,39.3736],[-8.906,39.4435],[-8.9489,39.4382],[-9.0032,39.3105],[-8.9827,39.2774],[-8.8751,39.2677]]]}},
{"type":"Feature","id":"PRT:ADM2:alcanenena","properties":{"shapeName":"Alcanenena","shapeISO":"ADM 2","shapeType":"ADM2"},"geometry":{"type":"Polygon","coordinates":[[[-8.6607,39.4593],[-8.6753,39.581],[-8.741,39.5472],[-8.7979,39.5179],[-8.6607,39.4593]]]}},
{"type":"Feature","id":"PRT:ADM2:torres-novas","properties":{"shapeName":"Torres Novas","shapeISO":"ADM 2","shapeType":"ADM2"},"geometry":{"type":"Polygon","coordinates":[[[-8.5264,39.4886],[-8.4738,39.5359],[-8.5614,39.6687],[-8.6753,39.581],[-8.6607,39.4593],[-8.5848,39.4323],[-8.5264,39.4886]]]}},
{"type":"Feature","id":"PRT:ADM2:tomar","properties":{"shapeName":"Tomar","shapeISO":"ADM 2","shapeType":"ADM2"},"geometry":{"type":"Polygon","coordinates":[[[-8.2636,39.6844],[-8.4826,39.7585],[-8.5614,39.6687],[-8.4738,39.5359],[-8.3543,39.552],[-8.2636,39.6844]]]}},
{"type":"Feature","id":"PRT:ADM2:ourem","properties":{"shapeName":"Ourem","shapeISO":"ADM 2","shapeType":"ADM2"},"geometry":{"type":"Polygon","coordinates":[[[-8.5614,39.6687],[-8.4826,39.7585],[-8.4908,39.7804],[-8.5205,39.8595],[-8.6607,39.8348],[-8.6928,39.6709],[-8.6753,39.581],[-8.5614,39.6687]]]}},
{"type":"Feature","id":"PRT:ADM2:ferreira-do-zezere","properties":{"shapeName":"Ferreira do Zezere","shapeISO":"ADM 2","shapeType":"ADM2"},"geometry":{"type":"Polygon","coordinates":[[[-8.2636,39.6844],[-8.2636,39.7922],[-8.3047,39.8153],[-8.357,39.8303],[-8.4908,39.7804],[-8.4826,39.7585],[-8.2636,39.6844]]]}},
{"type":"Feature","id":"PRT:ADM2:bombarral","properties":{"shapeName":"Bombarral","shapeISO":"ADM 2","shapeType":"ADM2"},"geometry":{"type":"Polygon","coordinates":[[[-9.0817,39.339],[-9.2115,39.3278],[-9.1746,39.2534],[-9.0817,39.339]]]}},
{"type":"Feature","id":"PRT:ADM2:peniche","properties":{"shapeName":"Peniche","shapeISO":"ADM 2","shapeType":"ADM2"},"geometry":{"type":"Polygon","coordinates":[[[-9.2916,39.3278],[-9.3271,39.3899],[-9.3685,39.3055],[-9.2916,39.3278]]]}},
{"type":"Feature","id":"PRT:ADM2:obidos","properties":{"shapeName":"Obidos","shapeISO":"ADM 2","shapeType":"ADM2"},"geometry":{"type":"Polygon","coordinates":[[[-9.2115,39.3278],[-9.0817,39.339],[-9.2143,39.4266],[-9.3271,39.3899],[-9.2916,39.3278],[-9.2115,39.3278]]]}},
{"type":"Feature","id":"PRT:ADM2:caldas-da-rainha","properties":{"shapeName":"Caldas da Rainha","shapeISO":"ADM 2","shapeType":"ADM2"},"geometry":{"type":"Polygon","coordinates":[[[-9.0032,39.3105],[-8.9489,39.4382],[-9.1739,39.5112],[-9.2143,39.4266],[-9.0817,39.339],[-9.0032,39.3105]]]}},
{"type":"Feature","id":"PRT:ADM2:alcobaca","properties":{"shapeName":"Alcobaca","shapeISO":"ADM 2","shapeType":"ADM2"},"geometry":{"type":"Polygon","coordinates":[[[-8.8954,39.504],[-8.9366,39.6696],[-8.9552,39.7285],[-9.058,39.7587],[-9.0836,39.704],[-8.9982,39.6609],[-9.1122,39.5212],[-9.1739,39.5112],[-8.9489,39.4382],[-8.906,39.4435],[-8.8954,39.504]]]}},
{"type":"Feature","id":"PRT:ADM2:nazare","properties":{"shapeName":"Nazare","shapeISO":"ADM 2","shapeType":"ADM2"},"geometry":{"type":"Polygon","coordinates":[[[-9.0836,39.704],[-9.1739,39.5112],[-9.1122,39.5212],[-8.9982,39.6609],[-9.0836,39.704]]]}},
{"type":"Feature","id":"PRT:ADM2:porto-de-mos","properties":{"shapeName":"Porto de Mos","shapeISO":"ADM 2","shapeType":"ADM2"},"geometry":{"type":"Polygon","coordinates":[[[-8.7979,39.5179],[-8.741,39.5472],[-8.7534,39.6235],[-8.892,39.6643],[-8.9366,39.6696],[-8.8954,39.504],[-8.7979,39.5179]]]}},
{"type":"Feature","id":"PRT:ADM2:batalha","properties":{"shapeName":"Batalha","shapeISO":"ADM 2","shapeType":"ADM2"},"geometry":{"type":"Polygon","coordinates":[[[-8.6753,39.581],[-8.6928,39.6709],[-8.8693,39.7271],[-8.892,39.6643],[-8.7534,39.6235],[-8.741,39.5472],[-8.6753,39.581]]]}},
{"type":"Feature","id":"PRT:ADM2:leiria","properties":{"shapeName":"Leiria","shapeISO":"ADM 2","shapeType":"ADM2"},"geometry":{"type":"Polygon","coordinates":[[[-8.6607,39.8348],[-8.802,39.938],[-8.9739,39.9753],[-8.9695,39.9172],[-8.8898,39.7788],[-8.9552,39.7285],[-8.9366,39.6696],[-8.892,39.6643],[-8.8693,39.7271],[-8.6928,39.6709],[-8.6607,39.8348]]]}},
{"type":"Feature","id":"PRT:ADM2:marinha-grande","properties":{"shapeName":"Marinha Grande","shapeISO":"ADM 2","shapeType":"ADM2"},"geometry":{"type":"Polygon","coordinates":[[[-8.9552,39.7285],[-8.8898,39.7788],[-8.9695,39.9172],[-9.058,39.7587],[-8.9552,39.7285]]]}},
{"type":"Feature","id":"PRT:ADM2:alvaiazere","properties":{"shapeName":"Alvaiazere","shapeISO":"ADM 2","shapeType":"ADM2"},"geometry":{"type":"Polygon","coordinates":[[[-8.4908,39.7804],[-8.357,39.8303],[-8.3696,39.9284],[-8.5161,39.8907],[-8.5205,39.8595],[-8.4908,39.7804]]]}},
{"type":"Feature","id":"PRT:ADM2:pombal","properties":{"shapeName":"Pombal","shapeISO":"ADM 2","shapeType":"ADM2"},"geometry":{"type":"Polygon","coordinates":[[[-8.5205,39.8595],[-8.5161,39.8907],[-8.5759,39.9968],[-8.5908,40.0669],[-8.7814,40.0669],[-8.9067,40.0497],[-8.9739,39.9753],[-8.802,39.938],[-8.6607,39.8348],[-8.5205,39.8595]]]}},
{"type":"Feature","id":"PRT:ADM2:ansiao","properties":{"shapeName":"Ansiao","shapeISO":"ADM 2","shapeType":"ADM2"},"geometry":{"type":"Polygon","coordinates":[[[-8.3696,39.9284],[-8.3628,40.0039],[-8.4581,40.0597],[-8.5759,39.9968],[-8.5161,39.8907],[-8.3696,39.9284]]]}},
{"type":"Feature","id":"PRT:ADM2:figueiro-dos-vinhos","properties":{"shapeName":"Figueiro dos Vinhos","shapeISO":"ADM 2","shapeType":"ADM2"},"geometry":{"type":"Polygon","coordinates":[[[-8.3047,39.8153],[-8.255,39.9016],[-8.2713,39.9953],[-8.2451,40.0912],[-8.2693,40.1011],[-8.3107,40.0582],[-8.3628,40.0039],[-8.3696,39.9284],[-8.357,39.8303],[-8.3047,39.8153]]]}},
{"type":"Feature","id":"PRT:ADM2:pedrogao-grande","properties":{"shapeName":"Pedrogao Grande","shapeISO":"ADM 2","shapeType":"ADM2"},"geometry":{"type":"Polygon","coordinates":[[[-8.255,39.9016],[-8.1461,39.9767],[-8.1218,39.991],[-8.1285,40.0222],[-8.1666,40.0569],[-8.2713,39.9953],[-8.255,39.9016]]]}},
{"type":"Feature","id":"PRT:ADM2:castanheira-de-pera","properties":{"shapeName":"Castanheira de Pera","shapeISO":"ADM 2","shapeType":"ADM2"},"geometry":{"type":"Polygon","coordinates":[[[-8.2713,39.9953],[-8.1666,40.0569],[-8.2003,40.1298],[-8.2451,40.0912],[-8.2713,39.9953]]]}},
{"type":"Feature","id":"PRT:ADM2:vila-de-rei","properties":{"shapeName":"Vila de Rei","shapeISO":"ADM 2","shapeType":"ADM2"},"geometry":{"type":"Polygon","coordinates":[[[-8.2052,39.6529],[-8.1059,39.6417],[-8.0901,39.7729],[-8.2636,39.7922],[-8.2636,39.6844],[-8.2052,39.6529]]]}},
{"type":"Feature","id":"PRT:ADM2:proenca-a-nova","properties":{"shapeName":"Proenca-a-Nova","shapeISO":"ADM 2","shapeType":"ADM2"},"geometry":{"type":"Polygon","coordinates":[[[-7.8383,39.6189],[-7.7704,39.7845],[-7.8583,39.9022],[-7.9517,39.8549],[-8.0329,39.7877],[-7.8383,39.6189]]]}},
{"type":"Feature","id":"PRT:ADM2:vila-velha-de-rodao","properties":{"shapeName":"Vila Velha de Rodao","shapeISO":"ADM 2","shapeType":"ADM2"},"geometry":{"type":"Polygon","coordinates":[[[-7.5432,39.7043],[-7.5219,39.7774],[-7.7002,39.8154],[-7.7704,39.7845],[-7.8383,39.6189],[-7.8286,39.6041],[-7.6934,39.6909],[-7.5432,39.7043]]]}},
{"type":"Feature","id":"PRT:ADM2:serta","properties":{"shapeName":"Serta","shapeISO":"ADM 2","shapeType":"ADM2"},"geometry":{"type":"Polygon","coordinates":[[[-8.0329,39.7877],[-7.9517,39.8549],[-7.9517,39.9036],[-8.1461,39.9767],[-8.255,39.9016],[-8.3047,39.8153],[-8.2636,39.7922],[-8.0901,39.7729],[-8.0329,39.7877]]]}},
{"type":"Feature","id":"PRT:ADM2:oleiros","properties":{"shapeName":"Oleiros","shapeISO":"ADM 2","shapeType":"ADM2"},"geometry":{"type":"Polygon","coordinates":[[[-8.1461,39.9767],[-7.9517,39.9036],[-7.9517,39.8549],[-7.8583,39.9022],[-7.7368,39.9667],[-7.7181,40.0569],[-7.8302,40.0769],[-8.1218,39.991],[-8.1461,39.9767]]]}},
{"type":"Feature","id":"PRT:ADM2:castelo-branco","properties":{"shapeName":"Castelo Branco","shapeISO":"ADM 2","shapeType":"ADM2"},"geometry":{"type":"Polygon","coordinates":[[[-7.7704,39.7845],[-7.7002,39.8154],[-7.5219,39.7774],[-7.5432,39.7043],[-7.2801,39.7131],[-7.2154,39.7889],[-7.3556,39.8764],[-7.3948,40.0197],[-7.5256,40.1069],[-7.6733,40.1112],[-7.7181,40.0569],[-7.7368,39.9667],[-7.8583,39.9022],[-7.7704,39.7845]]]}},
{"type":"Feature","id":"PRT:ADM2:idanha-a-nova","properties":{"shapeName":"Idanha-a-Nova","shapeISO":"ADM 2","shapeType":"ADM2"},"geometry":{"type":"Polygon","coordinates":[[[-7.2801,39.7131],[-7.0528,39.6926],[-7.0173,39.8391],[-6.9295,39.8922],[-6.8996,40.0497],[-6.9743,40.1226],[-7.1276,40.0851],[-7.3313,40.0983],[-7.3948,40.0197],[-7.3556,39.8764],[-7.2154,39.7889],[-7.2801,39.7131]]]}},
{"type":"Feature","id":"PRT:ADM2:fundao","properties":{"shapeName":"Fundao","shapeISO":"ADM 2","shapeType":"ADM2"},"geometry":{"type":"Polygon","coordinates":[[[-7.7181,40.0569],[-7.6733,40.1112],[-7.5256,40.1069],[-7.3948,40.0197],[-7.3313,40.0983],[-7.2958,40.2868],[-7.3462,40.2939],[-7.4118,40.264],[-7.7181,40.1647],[-7.8302,40.0769],[-7.7181,40.0569]]]}},
{"type":"Feature","id":"PRT:ADM2:penamacor","properties":{"shapeName":"Penamacor","shapeISO":"ADM 2","shapeType":"ADM2"},"geometry":{"type":"Polygon","coordinates":[[[-6.9743,40.1226],[-7.051,40.1618],[-6.9669,40.2711],[-7.1593,40.3053],[-7.2958,40.2868],[-7.3313,40.0983],[-7.1276,40.0851],[-6.9743,40.1226]]]}},
{"type":"Feature","id":"PRT:ADM2:belmonte","properties":{"shapeName":"Belmonte","shapeISO":"ADM 2","shapeType":"ADM2"},"geometry":{"type":"Polygon","coordinates":[[[-7.3462,40.2939],[-7.3053,40.439],[-7.3723,40.4181],[-7.4118,40.264],[-7.3462,40.2939]]]}},
{"type":"Feature","id":"PRT:ADM2:covilha","properties":{"shapeName":"Covilha","shapeISO":"ADM 2","shapeType":"ADM2"},"geometry":{"type":"Polygon","coordinates":[[[-7.4118,40.264],[-7.3723,40.4181],[-7.4863,40.4104],[-7.6238,40.3361],[-7.8097,40.2654],[-7.8228,40.2212],[-7.7181,40.1647],[-7.4118,40.264]]]}},
{"type":"Feature","id":"PRT:ADM2:pampilhosa-da-serra","properties":{"shapeName":"Pampilhosa da Serra","shapeISO":"ADM 2","shapeType":"ADM2"},"geometry":{"type":"Polygon","coordinates":[[[-8.1218,39.991],[-7.8302,40.0769],[-7.7181,40.1647],[-7.8228,40.2212],[-7.9087,40.2525],[-8.004,40.1855],[-8.0919,40.1398],[-8.1285,40.0222],[-8.1218,39.991]]]}},
{"type":"Feature","id":"PRT:ADM2:gois","properties":{"shapeName":"Gois","shapeISO":"ADM 2","shapeType":"ADM2"},"geometry":{"type":"Polygon","coordinates":[[[-8.1285,40.0222],[-8.0919,40.1398],[-8.004,40.1855],[-8.1909,40.2525],[-8.2115,40.2426],[-8.2003,40.1298],[-8.1666,40.0569],[-8.1285,40.0222]]]}},
{"type":"Feature","id":"PRT:ADM2:lousa","properties":{"shapeName":"Lousa","shapeISO":"ADM 2","shapeType":"ADM2"},"geometry":{"type":"Polygon","coordinates":[[[-8.2003,40.1298],[-8.2115,40.2426],[-8.3199,40.2154],[-8.2693,40.1011],[-8.2451,40.0912],[-8.2003,40.1298]]]}},
{"type":"Feature","id":"PRT:ADM2:penela","properties":{"shapeName":"Penela","shapeISO":"ADM 2","shapeType":"ADM2"},"geometry":{"type":"Polygon","coordinates":[[[-8.3628,40.0039],[-8.3107,40.0582],[-8.4245,40.1112],[-8.4581,40.0597],[-8.3628,40.0039]]]}},
{"type":"Feature","id":"PRT:ADM2:miranda-do-corvo","properties":{"shapeName":"Miranda do Corvo","shapeISO":"ADM 2","shapeType":"ADM2"},"geometry":{"type":"Polygon","coordinates":[[[-8.2693,40.1011],[-8.3199,40.2154],[-8.3682,40.2247],[-8.4301,40.1412],[-8.4245,40.1112],[-8.3107,40.0582],[-8.2693,40.1011]]]}},
{"type":"Feature","id":"PRT:ADM2:soure","properties":{"shapeName":"Soure","shapeISO":"ADM 2","shapeType":"ADM2"},"geometry":{"type":"Polygon","coordinates":[[[-8.5759,39.9968],[-8.4581,40.0597],[-8.6151,40.1212],[-8.602,40.1769],[-8.774,40.1355],[-8.7814,40.0669],[-8.5908,40.0669],[-8.5759,39.9968]]]}},
{"type":"Feature","id":"PRT:ADM2:condeixa-a-nova","properties":{"shapeName":"Condeixa-a-Nova","shapeISO":"ADM 2","shapeType":"ADM2"},"geometry":{"type":"Polygon","coordinates":[[[-8.4245,40.1112],[-8.4301,40.1412],[-8.5834,40.2026],[-8.602,40.1769],[-8.6151,40.1212],[-8.4581,40.0597],[-8.4245,40.1112]]]}},
{"type":"Feature","id":"PRT:ADM2:figueira-da-foz","properties":{"shapeName":"Figueira da Foz","shapeISO":"ADM 2","shapeType":"ADM2"},"geometry":{"type":"Polygon","coordinates":[[[-8.7814,40.0669],[-8.774,40.1355],[-8.7329,40.2183],[-8.7702,40.3153],[-8.8469,40.3409],[-8.9309,40.234],[-8.8749,40.1555],[-8.9067,40.0497],[-8.7814,40.0669]]]}},
{"type":"Feature","id":"PRT:ADM2:montemor-o-velho","properties":{"shapeName":"Montemor-o-Velho","shapeISO":"ADM 2","shapeType":"ADM2"},"geometry":{"type":"Polygon","coordinates":[[[-8.602,40.1769],[-8.5834,40.2026],[-8.6301,40.3096],[-8.7702,40.3153],[-8.7329,40.2183],[-8.774,40.1355],[-8.602,40.1769]]]}},
{"type":"Feature","id":"PRT:ADM2:coimbra","properties":{"shapeName":"Coimbra","shapeISO":"ADM 2","shapeType":"ADM2"},"geometry":{"type":"Polygon","coordinates":[[[-8.3682,40.2247],[-8.3759,40.2625],[-8.3965,40.3609],[-8.4821,40.3278],[-8.6301,40.3096],[-8.5834,40.2026],[-8.4301,40.1412],[-8.3682,40.2247]]]}},
{"type":"Feature","id":"PRT:ADM2:vila-nova-de-poiares","properties":{"shapeName":"Vila Nova de Poiares","shapeISO":"ADM 2","shapeType":"ADM2"},"geometry":{"type":"Polygon","coordinates":[[[-8.1909,40.2525],[-8.2133,40.2967],[-8.3759,40.2625],[-8.3682,40.2247],[-8.3199,40.2154],[-8.2115,40.2426],[-8.1909,40.2525]]]}},
{"type":"Feature","id":"PRT:ADM2:arganil","properties":{"shapeName":"Arganil","shapeISO":"ADM 2","shapeType":"ADM2"},"geometry":{"type":"Polygon","coordinates":[[[-7.8097,40.2654],[-7.8358,40.3024],[-8.0115,40.3395],[-8.1367,40.3409],[-8.2133,40.2967],[-8.1909,40.2525],[-8.004,40.1855],[-7.9087,40.2525],[-7.8228,40.2212],[-7.8097,40.2654]]]}},
{"type":"Feature","id":"PRT:ADM2:oliveira-do-hospital","properties":{"shapeName":"Oliveira do Hospital","shapeISO":"ADM 2","shapeType":"ADM2"},"geometry":{"type":"Polygon","coordinates":[[[-7.8358,40.3024],[-7.7985,40.3452],[-7.8527,40.5415],[-7.9331,40.496],[-7.9779,40.4619],[-8.0115,40.3395],[-7.8358,40.3024]]]}},
{"type":"Feature","id":"PRT:ADM2:tabua","properties":{"shapeName":"Tabua","shapeISO":"ADM 2","shapeType":"ADM2"},"geometry":{"type":"Polygon","coordinates":[[[-8.0115,40.3395],[-7.9779,40.4619],[-8.0844,40.4173],[-8.1465,40.3876],[-8.1367,40.3409],[-8.0115,40.3395]]]}},
{"type":"Feature","id":"PRT:ADM2:penacova","properties":{"shapeName":"Penacova","shapeISO":"ADM 2","shapeType":"ADM2"},"geometry":{"type":"Polygon","coordinates":[[[-8.3759,40.2625],[-8.2133,40.2967],[-8.1367,40.3409],[-8.1465,40.3876],[-8.205,40.3814],[-8.3649,40.3833],[-8.3965,40.3609],[-8.3759,40.2625]]]}},
{"type":"Feature","id":"PRT:ADM2:cantanhede","properties":{"shapeName":"Cantanhede","shapeISO":"ADM 2","shapeType":"ADM2"},"geometry":{"type":"Polygon","coordinates":[[[-8.7702,40.3153],[-8.6301,40.3096],[-8.4821,40.3278],[-8.5105,40.4405],[-8.6095,40.4917],[-8.6525,40.5059],[-8.6675,40.469],[-8.8338,40.4178],[-8.8469,40.3409],[-8.7702,40.3153]]]}},
{"type":"Feature","id":"PRT:ADM2:mira","properties":{"shapeName":"Mira","shapeISO":"ADM 2","shapeType":"ADM2"},"geometry":{"type":"Polygon","coordinates":[[[-8.6675,40.469],[-8.8076,40.54],[-8.8338,40.4178],[-8.6675,40.469]]]}},
{"type":"Feature","id":"PRT:ADM2:sabugal","properties":{"shapeName":"Sabugal","shapeISO":"ADM 2","shapeType":"ADM2"},"geometry":{"type":"Polygon","coordinates":[[[-7.2958,40.2868],[-7.1593,40.3053],[-6.9669,40.2711],[-6.8057,40.368],[-6.8678,40.5064],[-7.0577,40.5718],[-7.0924,40.4772],[-7.3053,40.439],[-7.3462,40.2939],[-7.2958,40.2868]]]}},
{"type":"Feature","id":"PRT:ADM2:almeida","properties":{"shapeName":"Almeida","shapeISO":"ADM 2","shapeType":"ADM2"},"geometry":{"type":"Polygon","coordinates":[[[-6.8678,40.5064],[-6.8155,40.6422],[-6.8585,40.798],[-6.9742,40.7723],[-7.0451,40.6141],[-7.0577,40.5718],[-6.8678,40.5064]]]}},
{"type":"Feature","id":"PRT:ADM2:guarda","properties":{"shapeName":"Guarda","shapeISO":"ADM 2","shapeType":"ADM2"},"geometry":{"type":"Polygon","coordinates":[[[-7.3053,40.439],[-7.0924,40.4772],[-7.0577,40.5718],[-7.0451,40.6141],[-7.2822,40.6983],[-7.4789,40.5386],[-7.4779,40.4869],[-7.4863,40.4104],[-7.3723,40.4181],[-7.3053,40.439]]]}},
{"type":"Feature","id":"PRT:ADM2:seia","properties":{"shapeName":"Seia","shapeISO":"ADM 2","shapeType":"ADM2"},"geometry":{"type":"Polygon","coordinates":[[[-7.6238,40.3361],[-7.6359,40.4576],[-7.7573,40.5713],[-7.7737,40.5662],[-7.8527,40.5415],[-7.7985,40.3452],[-7.8358,40.3024],[-7.8097,40.2654],[-7.6238,40.3361]]]}},
{"type":"Feature","id":"PRT:ADM2:manteigas","properties":{"shapeName":"Manteigas","shapeISO":"ADM 2","shapeType":"ADM2"},"geometry":{"type":"Polygon","coordinates":[[[-7.4863,40.4104],[-7.4779,40.4869],[-7.6359,40.4576],[-7.6238,40.3361],[-7.4863,40.4104]]]}},
{"type":"Feature","id":"PRT:ADM2:gouveia","properties":{"shapeName":"Gouveia","shapeISO":"ADM 2","shapeType":"ADM2"},"geometry":{"type":"Polygon","coordinates":[[[-7.4789,40.5386],[-7.5667,40.6011],[-7.5873,40.6209],[-7.7573,40.5713],[-7.6359,40.4576],[-7.4779,40.4869],[-7.4789,40.5386]]]}},
{"type":"Feature","id":"PRT:ADM2:celorico-da-beira","properties":{"shapeName":"Celorico da Beira","shapeISO":"ADM 2","shapeType":"ADM2"},"geometry":{"type":"Polygon","coordinates":[[[-7.2822,40.6983],[-7.2883,40.7287],[-7.4565,40.7329],[-7.5667,40.6011],[-7.4789,40.5386],[-7.2822,40.6983]]]}},
{"type":"Feature","id":"PRT:ADM2:fornos-de-algodres","properties":{"shapeName":"Fornos de Algodres","shapeISO":"ADM 2","shapeType":"ADM2"},"geometry":{"type":"Polygon","coordinates":[[[-7.5667,40.6011],[-7.4565,40.7329],[-7.4789,40.7796],[-7.5518,40.723],[-7.5821,40.6625],[-7.5873,40.6209],[-7.5667,40.6011]]]}},
{"type":"Feature","id":"PRT:ADM2:pinhel","properties":{"shapeName":"Pinhel","shapeISO":"ADM 2","shapeType":"ADM2"},"geometry":{"type":"Polygon","coordinates":[[[-6.9742,40.7723],[-7.1332,40.8772],[-7.1164,40.9817],[-7.1606,40.9476],[-7.2565,40.8235],[-7.2883,40.7287],[-7.2822,40.6983],[-7.0451,40.6141],[-6.9742,40.7723]]]}},
{"type":"Feature","id":"PRT:ADM2:trancoso","properties":{"shapeName":"Trancoso","shapeISO":"ADM 2","shapeType":"ADM2"},"geometry":{"type":"Polygon","coordinates":[[[-7.2883,40.7287],[-7.2565,40.8235],[-7.4004,40.9238],[-7.4527,40.9436],[-7.4789,40.8404],[-7.4789,40.7796],[-7.4565,40.7329],[-7.2883,40.7287]]]}},
{"type":"Feature","id":"PRT:ADM2:aguiar-da-beira","properties":{"shapeName":"Aguiar da Beira","shapeISO":"ADM 2","shapeType":"ADM2"},"geometry":{"type":"Polygon","coordinates":[[[-7.4789,40.7796],[-7.4789,40.8404],[-7.634,40.8744],[-7.6265,40.7485],[-7.5518,40.723],[-7.4789,40.7796]]]}},
{"type":"Feature","id":"PRT:ADM2:figueira-de-castelo-rodrigo","properties":{"shapeName":"Figueira de Castelo Rodrigo","shapeISO":"ADM 2","shapeType":"ADM2"},"geometry":{"type":"Polygon","coordinates":[[[-6.8585,40.798],[-6.8117,40.8885],[-6.9407,41.0282],[-7.0119,41.0245],[-7.1164,40.9817],[-7.1332,40.8772],[-6.9742,40.7723],[-6.8585,40.798]]]}},
{"type":"Feature","id":"PRT:ADM2:meda","properties":{"shapeName":"Meda","shapeISO":"ADM 2","shapeType":"ADM2"},"geometry":{"type":"Polygon","coordinates":[[[-7.1606,40.9476],[-7.2285,41.0578],[-7.3593,41.0338],[-7.4004,40.9238],[-7.2565,40.8235],[-7.1606,40.9476]]]}},
{"type":"Feature","id":"PRT:ADM2:vila-nova-de-foz-coa","properties":{"shapeName":"Vila Nova de Foz Coa","shapeISO":"ADM 2","shapeType":"ADM2"},"geometry":{"type":"Polygon","coordinates":[[[-7.1164,40.9817],[-7.0119,41.0245],[-7.021,41.0508],[-7.2598,41.1486],[-7.3222,41.1506],[-7.3551,41.0761],[-7.3593,41.0338],[-7.2285,41.0578],[-7.1606,40.9476],[-7.1164,40.9817]]]}},
{"type":"Feature","id":"PRT:ADM2:mealhada","properties":{"shapeName":"Mealhada","shapeISO":"ADM 2","shapeType":"ADM2"},"geometry":{"type":"Polygon","coordinates":[[[-8.3965,40.3609],[-8.3649,40.3833],[-8.3834,40.4292],[-8.5105,40.4405],[-8.4821,40.3278],[-8.3965,40.3609]]]}},
{"type":"Feature","id":"PRT:ADM2:anadia","properties":{"shapeName":"Anadia","shapeISO":"ADM 2","shapeType":"ADM2"},"geometry":{"type":"Polygon","coordinates":[[[-8.5105,40.4405],[-8.3834,40.4292],[-8.3703,40.5471],[-8.4479,40.5292],[-8.6095,40.4917],[-8.5105,40.4405]]]}},
{"type":"Feature","id":"PRT:ADM2:oliveira-do-bairro","properties":{"shapeName":"Oliveira do Bairro","shapeISO":"ADM 2","shapeType":"ADM2"},"geometry":{"type":"Polygon","coordinates":[[[-8.6095,40.4917],[-8.4479,40.5292],[-8.5572,40.594],[-8.6469,40.5699],[-8.6525,40.5059],[-8.6095,40.4917]]]}},
{"type":"Feature","id":"PRT:ADM2:vagos","properties":{"shapeName":"Vagos","shapeISO":"ADM 2","shapeType":"ADM2"},"geometry":{"type":"Polygon","coordinates":[[[-8.6525,40.5059],[-8.6469,40.5699],[-8.6525,40.5926],[-8.716,40.5897],[-8.7235,40.5599],[-8.7796,40.5812],[-8.8076,40.54],[-8.6675,40.469],[-8.6525,40.5059]]]}},
{"type":"Feature","id":"PRT:ADM2:ilhavo","properties":{"shapeName":"Ilhavo","shapeISO":"ADM 2","shapeType":"ADM2"},"geometry":{"type":"Polygon","coordinates":[[[-8.7796,40.5812],[-8.7483,40.5737],[-8.7572,40.6096],[-8.8001,40.594],[-8.7796,40.5812]]]}},
{"type":"Feature","id":"PRT:ADM2:ilhavo-2","properties":{"shapeName":"Ilhavo","shapeISO":"ADM 2","shapeType":"ADM2"},"geometry":{"type":"Polygon","coordinates":[[[-8.6525,40.5926],[-8.7048,40.6536],[-8.716,40.5897],[-8.6525,40.5926]]]}},
{"type":"Feature","id":"PRT:ADM2:agueda","properties":{"shapeName":"Agueda","shapeISO":"ADM 2","shapeType":"ADM2"},"geometry":{"type":"Polygon","coordinates":[[[-8.3703,40.5471],[-8.3142,40.5699],[-8.2825,40.6536],[-8.3479,40.6748],[-8.4507,40.7131],[-8.5366,40.6323],[-8.5572,40.594],[-8.4479,40.5292],[-8.3703,40.5471]]]}},
{"type":"Feature","id":"PRT:ADM2:aveiro","properties":{"shapeName":"Aveiro","shapeISO":"ADM 2","shapeType":"ADM2"},"geometry":{"type":"Polygon","coordinates":[[[-8.5572,40.594],[-8.5366,40.6323],[-8.6675,40.7456],[-8.7291,40.7372],[-8.7048,40.6536],[-8.6525,40.5926],[-8.6469,40.5699],[-8.5572,40.594]]]}},
{"type":"Feature","id":"PRT:ADM2:albergaria-a-velha","properties":{"shapeName":"Albergaria-a-Velha","shapeISO":"ADM 2","shapeType":"ADM2"},"geometry":{"type":"Polygon","coordinates":[[[-8.4507,40.7131],[-8.4668,40.8019],[-8.5292,40.798],[-8.6408,40.7416],[-8.6675,40.7456],[-8.5366,40.6323],[-8.4507,40.7131]]]}},
{"type":"Feature","id":"PRT:ADM2:estarreja","properties":{"shapeName":"Estarreja","shapeISO":"ADM 2","shapeType":"ADM2"},"geometry":{"type":"Polygon","coordinates":[[[-8.5292,40.798],[-8.5871,40.856],[-8.6787,40.815],[-8.6408,40.7416],[-8.5292,40.798]]]}},
{"type":"Feature","id":"PRT:ADM2:murtosa","properties":{"shapeName":"Murtosa","shapeISO":"ADM 2","shapeType":"ADM2"},"geometry":{"type":"Polygon","coordinates":[[[-8.6675,40.7456],[-8.6408,40.7416],[-8.6787,40.815],[-8.7104,40.8305],[-8.7291,40.7372],[-8.6675,40.7456]]]}},
{"type":"Feature","id":"PRT:ADM2:ovar","properties":{"shapeName":"Ovar","shapeISO":"ADM 2","shapeType":"ADM2"},"geometry":{"type":"Polygon","coordinates":[[[-8.5871,40.856],[-8.5759,40.904],[-8.6637,40.9915],[-8.7104,40.8305],[-8.6787,40.815],[-8.5871,40.856]]]}},
{"type":"Feature","id":"PRT:ADM2:oliveira-de-azemeis","properties":{"shapeName":"Oliveira de Azemeis","shapeISO":"ADM 2","shapeType":"ADM2"},"geometry":{"type":"Polygon","coordinates":[[[-8.4668,40.8019],[-8.4469,40.8367],[-8.4357,40.9393],[-8.4525,40.952],[-8.5054,40.9315],[-8.5179,40.904],[-8.5759,40.904],[-8.5871,40.856],[-8.5292,40.798],[-8.4668,40.8019]]]}},
{"type":"Feature","id":"PRT:ADM2:sao-joao-da-madeira","properties":{"shapeName":"Sao Joao da Madeira","shapeISO":"ADM 2","shapeType":"ADM2"},"geometry":{"type":"Polygon","coordinates":[[[-8.5054,40.9315],[-8.5759,40.904],[-8.5179,40.904],[-8.5054,40.9315]]]}},
{"type":"Feature","id":"PRT:ADM2:server-do-vouga","properties":{"shapeName":"Server do Vouga","shapeISO":"ADM 2","shapeType":"ADM2"},"geometry":{"type":"Polygon","coordinates":[[[-8.3479,40.6748],[-8.2974,40.8037],[-8.4469,40.8367],[-8.4668,40.8019],[-8.4507,40.7131],[-8.3479,40.6748]]]}},
{"type":"Feature","id":"PRT:ADM2:vale-de-cambra","properties":{"shapeName":"Vale de Cambra","shapeISO":"ADM 2","shapeType":"ADM2"},"geometry":{"type":"Polygon","coordinates":[[[-8.4469,40.8367],[-8.2974,40.8037],[-8.2601,40.8814],[-8.4357,40.9393],[-8.4469,40.8367]]]}},
{"type":"Feature","id":"PRT:ADM2:arouca","properties":{"shapeName":"Arouca","shapeISO":"ADM 2","shapeType":"ADM2"},"geometry":{"type":"Polygon","coordinates":[[[-8.4357,40.9393],[-8.2601,40.8814],[-8.1517,40.9605],[-8.1068,41.031],[-8.2675,41.0367],[-8.4081,41.0266],[-8.4525,40.952],[-8.4357,40.9393]]]}},
{"type":"Feature","id":"PRT:ADM2:castelo-de-paiva","properties":{"shapeName":"Castelo de Paiva","shapeISO":"ADM 2","shapeType":"ADM2"},"geometry":{"type":"Polygon","coordinates":[[[-8.2675,41.0367],[-8.2544,41.0888],[-8.311,41.0905],[-8.4056,41.063],[-8.4078,41.0576],[-8.4081,41.0266],[-8.2675,41.0367]]]}},
{"type":"Feature","id":"PRT:ADM2:santa-maria-da-feira","properties":{"shapeName":"Santa Maria da Feira","shapeISO":"ADM 2","shapeType":"ADM2"},"geometry":{"type":"Polygon","coordinates":[[[-8.5759,40.904],[-8.5054,40.9315],[-8.4525,40.952],[-8.4081,41.0266],[-8.4078,41.0576],[-8.4974,41.0775],[-8.5945,41.0305],[-8.6637,40.9915],[-8.5759,40.904]]]}},
{"type":"Feature","id":"PRT:ADM2:espinho","properties":{"shapeName":"Espinho","shapeISO":"ADM 2","shapeType":"ADM2"},"geometry":{"type":"Polygon","coordinates":[[[-8.5945,41.0305],[-8.6432,41.0508],[-8.6637,40.9915],[-8.5945,41.0305]]]}},
{"type":"Feature","id":"PRT:ADM2:mortagua","properties":{"shapeName":"Mortagua","shapeISO":"ADM 2","shapeType":"ADM2"},"geometry":{"type":"Polygon","coordinates":[[[-8.205,40.3814],[-8.1965,40.5031],[-8.3142,40.5699],[-8.3703,40.5471],[-8.3834,40.4292],[-8.3649,40.3833],[-8.205,40.3814]]]}},
{"type":"Feature","id":"PRT:ADM2:santa-comba-dao","properties":{"shapeName":"Santa Comba Dao","shapeISO":"ADM 2","shapeType":"ADM2"},"geometry":{"type":"Polygon","coordinates":[[[-8.0844,40.4173],[-8.0875,40.5027],[-8.1965,40.5031],[-8.205,40.3814],[-8.1465,40.3876],[-8.0844,40.4173]]]}},
{"type":"Feature","id":"PRT:ADM2:carregal-do-sal","properties":{"shapeName":"Carregal do Sal","shapeISO":"ADM 2","shapeType":"ADM2"},"geometry":{"type":"Polygon","coordinates":[[[-7.9331,40.496],[-7.9584,40.5718],[-7.9871,40.5718],[-8.0875,40.5027],[-8.0844,40.4173],[-7.9779,40.4619],[-7.9331,40.496]]]}},
{"type":"Feature","id":"PRT:ADM2:nelas","properties":{"shapeName":"Nelas","shapeISO":"ADM 2","shapeType":"ADM2"},"geometry":{"type":"Polygon","coordinates":[[[-7.8527,40.5415],[-7.7737,40.5662],[-7.9177,40.6181],[-7.9584,40.5718],[-7.9331,40.496],[-7.8527,40.5415]]]}},
{"type":"Feature","id":"PRT:ADM2:mangualde","properties":{"shapeName":"Mangualde","shapeISO":"ADM 2","shapeType":"ADM2"},"geometry":{"type":"Polygon","coordinates":[[[-7.5873,40.6209],[-7.5821,40.6625],[-7.7861,40.6789],[-7.9177,40.6181],[-7.7737,40.5662],[-7.7573,40.5713],[-7.5873,40.6209]]]}},
{"type":"Feature","id":"PRT:ADM2:tondela","properties":{"shapeName":"Tondela","shapeISO":"ADM 2","shapeType":"ADM2"},"geometry":{"type":"Polygon","coordinates":[[[-8.3142,40.5699],[-8.1965,40.5031],[-8.0875,40.5027],[-7.9871,40.5718],[-8.1106,40.6677],[-8.1976,40.6421],[-8.2414,40.5968],[-8.2825,40.6536],[-8.3142,40.5699]]]}},
{"type":"Feature","id":"PRT:ADM2:oliveira-de-frades-2","properties":{"shapeName":"Oliveira de Frades","shapeISO":"ADM 2","shapeType":"ADM2"},"geometry":{"type":"Polygon","coordinates":[[[-8.1976,40.6421],[-8.2825,40.6536],[-8.2414,40.5968],[-8.1976,40.6421]]]}},
{"type":"Feature","id":"PRT:ADM2:oliveira-de-frades","properties":{"shapeName":"Oliveira de Frades","shapeISO":"ADM 2","shapeType":"ADM2"},"geometry":{"type":"Polygon","coordinates":[[[-8.2825,40.6536],[-8.1808,40.773],[-8.2601,40.8814],[-8.2974,40.8037],[-8.3479,40.6748],[-8.2825,40.6536]]]}},
{"type":"Feature","id":"PRT:ADM2:vouzela","properties":{"shapeName":"Vouzela","shapeISO":"ADM 2","shapeType":"ADM2"},"geometry":{"type":"Polygon","coordinates":[[[-8.1106,40.6677],[-8.075,40.7938],[-8.1808,40.773],[-8.2825,40.6536],[-8.1976,40.6421],[-8.1106,40.6677]]]}},
{"type":"Feature","id":"PRT:ADM2:viseu","properties":{"shapeName":"Viseu","shapeISO":"ADM 2","shapeType":"ADM2"},"geometry":{"type":"Polygon","coordinates":[[[-7.9584,40.5718],[-7.9177,40.6181],[-7.7861,40.6789],[-7.7985,40.7372],[-7.8097,40.8065],[-7.8358,40.8645],[-7.9629,40.8154],[-8.075,40.7938],[-8.1106,40.6677],[-7.9871,40.5718],[-7.9584,40.5718]]]}},
{"type":"Feature","id":"PRT:ADM2:penalva-do-castelo","properties":{"shapeName":"Penalva do Castelo","shapeISO":"ADM 2","shapeType":"ADM2"},"geometry":{"type":"Polygon","coordinates":[[[-7.5518,40.723],[-7.6265,40.7485],[-7.7985,40.7372],[-7.7861,40.6789],[-7.5821,40.6625],[-7.5518,40.723]]]}},
{"type":"Feature","id":"PRT:ADM2:satao","properties":{"shapeName":"Satao","shapeISO":"ADM 2","shapeType":"ADM2"},"geometry":{"type":"Polygon","coordinates":[[[-7.634,40.8744],[-7.6658,40.8885],[-7.7144,40.88],[-7.8097,40.8065],[-7.7985,40.7372],[-7.6265,40.7485],[-7.634,40.8744]]]}},
{"type":"Feature","id":"PRT:ADM2:vila-nova-de-paiva","properties":{"shapeName":"Vila Nova de Paiva","shapeISO":"ADM 2","shapeType":"ADM2"},"geometry":{"type":"Polygon","coordinates":[[[-7.8097,40.8065],[-7.7144,40.88],[-7.7742,40.9746],[-7.8358,40.8645],[-7.8097,40.8065]]]}},
{"type":"Feature","id":"PRT:ADM2:sao-pedro-do-sul","properties":{"shapeName":"Sao Pedro do Sul","shapeISO":"ADM 2","shapeType":"ADM2"},"geometry":{"type":"Polygon","coordinates":[[[-8.2601,40.8814],[-8.1808,40.773],[-8.075,40.7938],[-7.9629,40.8154],[-7.9909,40.8744],[-8.1517,40.9605],[-8.2601,40.8814]]]}},
{"type":"Feature","id":"PRT:ADM2:castro-daire","properties":{"shapeName":"Castro Daire","shapeISO":"ADM 2","shapeType":"ADM2"},"geometry":{"type":"Polygon","coordinates":[[[-8.1517,40.9605],[-7.9909,40.8744],[-7.9629,40.8154],[-7.8358,40.8645],[-7.7742,40.9746],[-7.9122,41.0375],[-7.9331,41.0514],[-7.9951,41.0441],[-8.1068,41.031],[-8.1517,40.9605]]]}},
{"type":"Feature","id":"PRT:ADM2:moimenta-da-beira","properties":{"shapeName":"Moimenta da Beira","shapeISO":"ADM 2","shapeType":"ADM2"},"geometry":{"type":"Polygon","coordinates":[[[-7.6658,40.8885],[-7.5611,41.0226],[-7.5662,41.0333],[-7.6658,41.0705],[-7.6863,41.0524],[-7.7742,40.9746],[-7.7144,40.88],[-7.6658,40.8885]]]}},
{"type":"Feature","id":"PRT:ADM2:sernancelhe","properties":{"shapeName":"Sernancelhe","shapeISO":"ADM 2","shapeType":"ADM2"},"geometry":{"type":"Polygon","coordinates":[[[-7.4527,40.9436],[-7.4957,41.0268],[-7.5611,41.0226],[-7.6658,40.8885],[-7.634,40.8744],[-7.4789,40.8404],[-7.4527,40.9436]]]}},
{"type":"Feature","id":"PRT:ADM2:penedono","properties":{"shapeName":"Penedono","shapeISO":"ADM 2","shapeType":"ADM2"},"geometry":{"type":"Polygon","coordinates":[[[-7.4004,40.9238],[-7.3593,41.0338],[-7.3551,41.0761],[-7.4957,41.0268],[-7.4527,40.9436],[-7.4004,40.9238]]]}},
{"type":"Feature","id":"PRT:ADM2:sao-joao-da-pesqueira","properties":{"shapeName":"Sao Joao da Pesqueira","shapeISO":"ADM 2","shapeType":"ADM2"},"geometry":{"type":"Polygon","coordinates":[[[-7.3222,41.1506],[-7.4602,41.2421],[-7.5397,41.2186],[-7.5836,41.2],[-7.5662,41.0333],[-7.5611,41.0226],[-7.4957,41.0268],[-7.3551,41.0761],[-7.3222,41.1506]]]}},
{"type":"Feature","id":"PRT:ADM2:tabuaco","properties":{"shapeName":"Tabuaco","shapeISO":"ADM 2","shapeType":"ADM2"},"geometry":{"type":"Polygon","coordinates":[[[-7.5662,41.0333],[-7.5836,41.2],[-7.6658,41.1915],[-7.6658,41.0705],[-7.5662,41.0333]]]}},
{"type":"Feature","id":"PRT:ADM2:tarouca","properties":{"shapeName":"Tarouca","shapeISO":"ADM 2","shapeType":"ADM2"},"geometry":{"type":"Polygon","coordinates":[[[-7.7742,40.9746],[-7.6863,41.0524],[-7.7913,41.0997],[-7.9122,41.0375],[-7.7742,40.9746]]]}},
{"type":"Feature","id":"PRT:ADM2:armamar","properties":{"shapeName":"Armamar","shapeISO":"ADM 2","shapeType":"ADM2"},"geometry":{"type":"Polygon","coordinates":[[[-7.6658,41.0705],[-7.6658,41.1915],[-7.6689,41.1892],[-7.7723,41.1704],[-7.7913,41.0997],[-7.6863,41.0524],[-7.6658,41.0705]]]}},
{"type":"Feature","id":"PRT:ADM2:lamego","properties":{"shapeName":"Lamego","shapeISO":"ADM 2","shapeType":"ADM2"},"geometry":{"type":"Polygon","coordinates":[[[-7.7913,41.0997],[-7.7723,41.1704],[-7.8437,41.1767],[-7.8844,41.1634],[-7.9331,41.0514],[-7.9122,41.0375],[-7.7913,41.0997]]]}},
{"type":"Feature","id":"PRT:ADM2:cinfaes","properties":{"shapeName":"Cinfaes","shapeISO":"ADM 2","shapeType":"ADM2"},"geometry":{"type":"Polygon","coordinates":[[[-8.1068,41.031],[-7.9951,41.0441],[-8.062,41.124],[-8.1194,41.1135],[-8.2544,41.0888],[-8.2675,41.0367],[-8.1068,41.031]]]}},
{"type":"Feature","id":"PRT:ADM2:resende","properties":{"shapeName":"Resende","shapeISO":"ADM 2","shapeType":"ADM2"},"geometry":{"type":"Polygon","coordinates":[[[-7.9331,41.0514],[-7.8844,41.1634],[-7.9288,41.1536],[-8.062,41.124],[-7.9951,41.0441],[-7.9331,41.0514]]]}},
{"type":"Feature","id":"PRT:ADM2:carrazeda-de-ansiaes","properties":{"shapeName":"Carrazeda de Ansiaes","shapeISO":"ADM 2","shapeType":"ADM2"},"geometry":{"type":"Polygon","coordinates":[[[-7.2598,41.1486],[-7.2084,41.2335],[-7.297,41.3485],[-7.3377,41.3616],[-7.3699,41.3342],[-7.4602,41.2421],[-7.3222,41.1506],[-7.2598,41.1486]]]}},
{"type":"Feature","id":"PRT:ADM2:torre-de-moncorvo","properties":{"shapeName":"Torre de Moncorvo","shapeISO":"ADM 2","shapeType":"ADM2"},"geometry":{"type":"Polygon","coordinates":[[[-7.021,41.0508],[-6.8389,41.2074],[-6.9501,41.2416],[-7.0972,41.3036],[-7.2084,41.2335],[-7.2598,41.1486],[-7.021,41.0508]]]}},
{"type":"Feature","id":"PRT:ADM2:freixo-de-espada-a-cinta","properties":{"shapeName":"Freixo de Espada a Cinta","shapeISO":"ADM 2","shapeType":"ADM2"},"geometry":{"type":"Polygon","coordinates":[[[-6.9407,41.0282],[-6.8389,41.0362],[-6.7169,41.2164],[-6.8389,41.2074],[-7.021,41.0508],[-7.0119,41.0245],[-6.9407,41.0282]]]}},
{"type":"Feature","id":"PRT:ADM2:mogadouro","properties":{"shapeName":"Mogadouro","shapeISO":"ADM 2","shapeType":"ADM2"},"geometry":{"type":"Polygon","coordinates":[[[-6.8389,41.2074],[-6.7169,41.2164],[-6.5817,41.2299],[-6.4334,41.3512],[-6.5423,41.4347],[-6.6726,41.4534],[-6.8806,41.4048],[-6.8377,41.3216],[-6.9501,41.2416],[-6.8389,41.2074]]]}},
{"type":"Feature","id":"PRT:ADM2:miranda-do-douro","properties":{"shapeName":"Miranda do Douro","shapeISO":"ADM 2","shapeType":"ADM2"},"geometry":{"type":"Polygon","coordinates":[[[-6.4334,41.3512],[-6.2604,41.4582],[-6.1969,41.5464],[-6.3838,41.6498],[-6.4268,41.4946],[-6.5423,41.4347],[-6.4334,41.3512]]]}},
{"type":"Feature","id":"PRT:ADM2:vimioso","properties":{"shapeName":"Vimioso","shapeISO":"ADM 2","shapeType":"ADM2"},"geometry":{"type":"Polygon","coordinates":[[[-6.5423,41.4347],[-6.4268,41.4946],[-6.3838,41.6498],[-6.5688,41.6679],[-6.6893,41.546],[-6.6726,41.4534],[-6.5423,41.4347]]]}},
{"type":"Feature","id":"PRT:ADM2:vila-flor","properties":{"shapeName":"Vila Flor","shapeISO":"ADM 2","shapeType":"ADM2"},"geometry":{"type":"Polygon","coordinates":[[[-7.2084,41.2335],[-7.0972,41.3036],[-7.0771,41.4218],[-7.297,41.3485],[-7.2084,41.2335]]]}},
{"type":"Feature","id":"PRT:ADM2:alfandega-da-fe","properties":{"shapeName":"Alfandega da Fe","shapeISO":"ADM 2","shapeType":"ADM2"},"geometry":{"type":"Polygon","coordinates":[[[-6.9501,41.2416],[-6.8377,41.3216],[-6.8806,41.4048],[-7.0316,41.4299],[-7.0771,41.4218],[-7.0972,41.3036],[-6.9501,41.2416]]]}},
{"type":"Feature","id":"PRT:ADM2:braganca","properties":{"shapeName":"Braganca","shapeISO":"ADM 2","shapeType":"ADM2"},"geometry":{"type":"Polygon","coordinates":[[[-6.5688,41.6679],[-6.5221,41.845],[-6.5725,41.9465],[-6.9201,41.9243],[-6.9519,41.7377],[-6.9089,41.6917],[-6.9388,41.5967],[-6.6893,41.546],[-6.5688,41.6679]]]}},
{"type":"Feature","id":"PRT:ADM2:macedo-de-cavaleiros","properties":{"shapeName":"Macedo de Cavaleiros","shapeISO":"ADM 2","shapeType":"ADM2"},"geometry":{"type":"Polygon","coordinates":[[[-6.6726,41.4534],[-6.6893,41.546],[-6.9388,41.5967],[-6.9089,41.6917],[-7.1575,41.7126],[-7.0551,41.55],[-7.0316,41.4299],[-6.8806,41.4048],[-6.6726,41.4534]]]}},
{"type":"Feature","id":"PRT:ADM2:vinhais","properties":{"shapeName":"Vinhais","shapeISO":"ADM 2","shapeType":"ADM2"},"geometry":{"type":"Polygon","coordinates":[[[-6.9201,41.9243],[-7.1836,41.9854],[-7.2154,41.8714],[-7.2191,41.7893],[-7.1885,41.732],[-7.1575,41.7126],[-6.9089,41.6917],[-6.9519,41.7377],[-6.9201,41.9243]]]}},
{"type":"Feature","id":"PRT:ADM2:vila-nova-de-gaia","properties":{"shapeName":"Vila Nova de Gaia","shapeISO":"ADM 2","shapeType":"ADM2"},"geometry":{"type":"Polygon","coordinates":[[[-8.4974,41.0775],[-8.5927,41.1634],[-8.6693,41.162],[-8.6432,41.0508],[-8.5945,41.0305],[-8.4974,41.0775]]]}},
{"type":"Feature","id":"PRT:ADM2:gondomar","properties":{"shapeName":"Gondomar","shapeISO":"ADM 2","shapeType":"ADM2"},"geometry":{"type":"Polygon","coordinates":[[[-8.4078,41.0576],[-8.4056,41.063],[-8.4236,41.1238],[-8.5123,41.1901],[-8.5834,41.2154],[-8.5927,41.1634],[-8.4974,41.0775],[-8.4078,41.0576]]]}},
{"type":"Feature","id":"PRT:ADM2:porto","properties":{"shapeName":"Porto","shapeISO":"ADM 2","shapeType":"ADM2"},"geometry":{"type":"Polygon","coordinates":[[[-8.5927,41.1634],[-8.5834,41.2154],[-8.6974,41.1859],[-8.6693,41.162],[-8.5927,41.1634]]]}},
{"type":"Feature","id":"PRT:ADM2:penafiel","properties":{"shapeName":"Penafiel","shapeISO":"ADM 2","shapeType":"ADM2"},"geometry":{"type":"Polygon","coordinates":[[[-8.311,41.0905],[-8.2115,41.1845],[-8.2171,41.266],[-8.3143,41.2536],[-8.4236,41.1238],[-8.4056,41.063],[-8.311,41.0905]]]}},
{"type":"Feature","id":"PRT:ADM2:marco-de-canaveses","properties":{"shapeName":"Marco de Canaveses","shapeISO":"ADM 2","shapeType":"ADM2"},"geometry":{"type":"Polygon","coordinates":[[[-8.2544,41.0888],[-8.1194,41.1135],[-8.0825,41.2323],[-8.2062,41.2684],[-8.2171,41.266],[-8.2115,41.1845],[-8.311,41.0905],[-8.2544,41.0888]]]}},
{"type":"Feature","id":"PRT:ADM2:baiao","properties":{"shapeName":"Baiao","shapeISO":"ADM 2","shapeType":"ADM2"},"geometry":{"type":"Polygon","coordinates":[[[-8.062,41.124],[-7.9288,41.1536],[-7.9199,41.2197],[-7.905,41.2674],[-7.9289,41.2627],[-8.0825,41.2323],[-8.1194,41.1135],[-8.062,41.124]]]}},
{"type":"Feature","id":"PRT:ADM2:amarante","properties":{"shapeName":"Amarante","shapeISO":"ADM 2","shapeType":"ADM2"},"geometry":{"type":"Polygon","coordinates":[[[-8.0825,41.2323],[-7.9289,41.2627],[-7.9545,41.3101],[-8.0022,41.3769],[-8.1143,41.3503],[-8.2171,41.3306],[-8.2062,41.2684],[-8.0825,41.2323]]]}},
{"type":"Feature","id":"PRT:ADM2:paredes","properties":{"shapeName":"Paredes","shapeISO":"ADM 2","shapeType":"ADM2"},"geometry":{"type":"Polygon","coordinates":[[[-8.4236,41.1238],[-8.3143,41.2536],[-8.3591,41.2913],[-8.4619,41.2688],[-8.4677,41.2635],[-8.5123,41.1901],[-8.4236,41.1238]]]}},
{"type":"Feature","id":"PRT:ADM2:felgueiras","properties":{"shapeName":"Felgueiras","shapeISO":"ADM 2","shapeType":"ADM2"},"geometry":{"type":"Polygon","coordinates":[[[-8.1143,41.3503],[-8.1666,41.4131],[-8.234,41.4313],[-8.2549,41.4174],[-8.275,41.3839],[-8.2171,41.3306],[-8.1143,41.3503]]]}},
{"type":"Feature","id":"PRT:ADM2:lousada","properties":{"shapeName":"Lousada","shapeISO":"ADM 2","shapeType":"ADM2"},"geometry":{"type":"Polygon","coordinates":[[[-8.2171,41.266],[-8.2062,41.2684],[-8.2171,41.3306],[-8.275,41.3839],[-8.3385,41.3713],[-8.3591,41.2913],[-8.3143,41.2536],[-8.2171,41.266]]]}},
{"type":"Feature","id":"PRT:ADM2:matosinhos","properties":{"shapeName":"Matosinhos","shapeISO":"ADM 2","shapeType":"ADM2"},"geometry":{"type":"Polygon","coordinates":[[[-8.5834,41.2154],[-8.5898,41.2186],[-8.6798,41.2752],[-8.7285,41.3002],[-8.6974,41.1859],[-8.5834,41.2154]]]}},
{"type":"Feature","id":"PRT:ADM2:vila-do-conde","properties":{"shapeName":"Vila do Conde","shapeISO":"ADM 2","shapeType":"ADM2"},"geometry":{"type":"Polygon","coordinates":[[[-8.6798,41.2752],[-8.6461,41.3377],[-8.6281,41.3772],[-8.6604,41.4311],[-8.7382,41.3907],[-8.7285,41.3002],[-8.6798,41.2752]]]}},
{"type":"Feature","id":"PRT:ADM2:povoa-de-varzim","properties":{"shapeName":"Povoa de Varzim","shapeISO":"ADM 2","shapeType":"ADM2"},"geometry":{"type":"Polygon","coordinates":[[[-8.6604,41.4311],[-8.6616,41.4526],[-8.725,41.4974],[-8.7896,41.4893],[-8.7382,41.3907],[-8.6604,41.4311]]]}},
{"type":"Feature","id":"PRT:ADM2:pacos-de-ferreira","properties":{"shapeName":"Pacos de Ferreira","shapeISO":"ADM 2","shapeType":"ADM2"},"geometry":{"type":"Polygon","coordinates":[[[-8.3591,41.2913],[-8.3385,41.3713],[-8.3406,41.3706],[-8.4619,41.2688],[-8.3591,41.2913]]]}},
{"type":"Feature","id":"PRT:ADM2:trofa","properties":{"shapeName":"Trofa","shapeISO":"ADM 2","shapeType":"ADM2"},"geometry":{"type":"Polygon","coordinates":[[[-8.6461,41.3377],[-8.5628,41.2926],[-8.5368,41.3697],[-8.6281,41.3772],[-8.6461,41.3377]]]}},
{"type":"Feature","id":"PRT:ADM2:santo-tirso","properties":{"shapeName":"Santo Tirso","shapeISO":"ADM 2","shapeType":"ADM2"},"geometry":{"type":"Polygon","coordinates":[[[-8.4619,41.2688],[-8.3406,41.3706],[-8.3531,41.3964],[-8.414,41.3964],[-8.5368,41.3697],[-8.5628,41.2926],[-8.554,41.2878],[-8.4677,41.2635],[-8.4619,41.2688]]]}},
{"type":"Feature","id":"PRT:ADM2:mesao-frio","properties":{"shapeName":"Mesao Frio","shapeISO":"ADM 2","shapeType":"ADM2"},"geometry":{"type":"Polygon","coordinates":[[[-7.8844,41.1634],[-7.8437,41.1767],[-7.9199,41.2197],[-7.9288,41.1536],[-7.8844,41.1634]]]}},
{"type":"Feature","id":"PRT:ADM2:peso-da-regua","properties":{"shapeName":"Peso da Regua","shapeISO":"ADM 2","shapeType":"ADM2"},"geometry":{"type":"Polygon","coordinates":[[[-7.6689,41.1892],[-7.6908,41.2145],[-7.7474,41.2224],[-7.905,41.2674],[-7.9199,41.2197],[-7.8437,41.1767],[-7.7723,41.1704],[-7.6689,41.1892]]]}},
{"type":"Feature","id":"PRT:ADM2:santa-marta-de-penaguiao","properties":{"shapeName":"Santa Marta de Penaguiao","shapeISO":"ADM 2","shapeType":"ADM2"},"geometry":{"type":"Polygon","coordinates":[[[-7.7474,41.2224],[-7.7734,41.2749],[-7.905,41.2674],[-7.7474,41.2224]]]}},
{"type":"Feature","id":"PRT:ADM2:alijo","properties":{"shapeName":"Alijo","shapeISO":"ADM 2","shapeType":"ADM2"},"geometry":{"type":"Polygon","coordinates":[[[-7.4602,41.2421],[-7.3699,41.3342],[-7.4274,41.3853],[-7.6219,41.4142],[-7.5397,41.2186],[-7.4602,41.2421]]]}},
{"type":"Feature","id":"PRT:ADM2:sabrosa","properties":{"shapeName":"Sabrosa","shapeISO":"ADM 2","shapeType":"ADM2"},"geometry":{"type":"Polygon","coordinates":[[[-7.5397,41.2186],[-7.6219,41.4142],[-7.6317,41.4255],[-7.6828,41.4332],[-7.6326,41.3589],[-7.6908,41.2145],[-7.6689,41.1892],[-7.6658,41.1915],[-7.5836,41.2],[-7.5397,41.2186]]]}},
{"type":"Feature","id":"PRT:ADM2:vila-real","properties":{"shapeName":"Vila Real","shapeISO":"ADM 2","shapeType":"ADM2"},"geometry":{"type":"Polygon","coordinates":[[[-7.905,41.2674],[-7.7734,41.2749],[-7.7474,41.2224],[-7.6908,41.2145],[-7.6326,41.3589],[-7.6828,41.4332],[-7.7382,41.4254],[-7.818,41.4142],[-7.9545,41.3101],[-7.9289,41.2627],[-7.905,41.2674]]]}},
{"type":"Feature","id":"PRT:ADM2:murca","properties":{"shapeName":"Murca","shapeISO":"ADM 2","shapeType":"ADM2"},"geometry":{"type":"Polygon","coordinates":[[[-7.3377,41.3616],[-7.3847,41.4562],[-7.4866,41.5108],[-7.6317,41.4255],[-7.6219,41.4142],[-7.4274,41.3853],[-7.3699,41.3342],[-7.3377,41.3616]]]}},
{"type":"Feature","id":"PRT:ADM2:mirandela","properties":{"shapeName":"Mirandela","shapeISO":"ADM 2","shapeType":"ADM2"},"geometry":{"type":"Polygon","coordinates":[[[-7.297,41.3485],[-7.0771,41.4218],[-7.0316,41.4299],[-7.0551,41.55],[-7.1575,41.7126],[-7.1885,41.732],[-7.2729,41.6477],[-7.252,41.5565],[-7.3847,41.4562],[-7.3377,41.3616],[-7.297,41.3485]]]}},
{"type":"Feature","id":"PRT:ADM2:valpacos","properties":{"shapeName":"Valpacos","shapeISO":"ADM 2","shapeType":"ADM2"},"geometry":{"type":"Polygon","coordinates":[[[-7.2191,41.7893],[-7.3012,41.7841],[-7.368,41.6766],[-7.5536,41.61],[-7.4866,41.5108],[-7.3847,41.4562],[-7.252,41.5565],[-7.2729,41.6477],[-7.1885,41.732],[-7.2191,41.7893]]]}},
{"type":"Feature","id":"PRT:ADM2:chaves","properties":{"shapeName":"Chaves","shapeISO":"ADM 2","shapeType":"ADM2"},"geometry":{"type":"Polygon","coordinates":[[[-7.2154,41.8714],[-7.3304,41.8356],[-7.5262,41.8766],[-7.6046,41.83],[-7.6046,41.8006],[-7.6324,41.6395],[-7.5536,41.61],[-7.368,41.6766],[-7.3012,41.7841],[-7.2191,41.7893],[-7.2154,41.8714]]]}},
{"type":"Feature","id":"PRT:ADM2:vila-pouca-de-aguiar","properties":{"shapeName":"Vila Pouca de Aguiar","shapeISO":"ADM 2","shapeType":"ADM2"},"geometry":{"type":"Polygon","coordinates":[[[-7.6317,41.4255],[-7.4866,41.5108],[-7.5536,41.61],[-7.6324,41.6395],[-7.7299,41.6014],[-7.7786,41.5059],[-7.7382,41.4254],[-7.6828,41.4332],[-7.6317,41.4255]]]}},
{"type":"Feature","id":"PRT:ADM2:mondim-de-basto","properties":{"shapeName":"Mondim de Basto","shapeISO":"ADM 2","shapeType":"ADM2"},"geometry":{"type":"Polygon","coordinates":[[[-7.9545,41.3101],[-7.818,41.4142],[-7.9318,41.5284],[-7.9596,41.4686],[-8.0022,41.3769],[-7.9545,41.3101]]]}},
{"type":"Feature","id":"PRT:ADM2:ribeira-de-pena","properties":{"shapeName":"Ribeira de Pena","shapeISO":"ADM 2","shapeType":"ADM2"},"geometry":{"type":"Polygon","coordinates":[[[-7.7382,41.4254],[-7.7786,41.5059],[-7.7299,41.6014],[-7.7973,41.61],[-7.9318,41.5284],[-7.818,41.4142],[-7.7382,41.4254]]]}},
{"type":"Feature","id":"PRT:ADM2:boticas","properties":{"shapeName":"Boticas","shapeISO":"ADM 2","shapeType":"ADM2"},"geometry":{"type":"Polygon","coordinates":[[[-7.6046,41.8006],[-7.7183,41.7279],[-7.9248,41.7141],[-7.8696,41.6234],[-7.7973,41.61],[-7.7299,41.6014],[-7.6324,41.6395],[-7.6046,41.8006]]]}},
{"type":"Feature","id":"PRT:ADM2:montalegre","properties":{"shapeName":"Montalegre","shapeISO":"ADM 2","shapeType":"ADM2"},"geometry":{"type":"Polygon","coordinates":[[[-7.6046,41.83],[-7.6278,41.8888],[-7.7902,41.9009],[-7.8807,41.8577],[-7.9968,41.8957],[-8.078,41.8127],[-8.1082,41.7348],[-8.0246,41.6257],[-7.8696,41.6234],[-7.9248,41.7141],[-7.7183,41.7279],[-7.6046,41.8006],[-7.6046,41.83]]]}},
{"type":"Feature","id":"PRT:ADM2:esposende","properties":{"shapeName":"Esposende","shapeISO":"ADM 2","shapeType":"ADM2"},"geometry":{"type":"Polygon","coordinates":[[[-8.725,41.4974],[-8.739,41.6256],[-8.8008,41.6292],[-8.7896,41.4893],[-8.725,41.4974]]]}},
{"type":"Feature","id":"PRT:ADM2:vila-nova-de-famalicao","properties":{"shapeName":"Vila Nova de Famalicao","shapeISO":"ADM 2","shapeType":"ADM2"},"geometry":{"type":"Polygon","coordinates":[[[-8.6281,41.3772],[-8.5368,41.3697],[-8.414,41.3964],[-8.4508,41.4906],[-8.5432,41.496],[-8.6616,41.4526],[-8.6604,41.4311],[-8.6281,41.3772]]]}},
{"type":"Feature","id":"PRT:ADM2:vizela","properties":{"shapeName":"Vizela","shapeISO":"ADM 2","shapeType":"ADM2"},"geometry":{"type":"Polygon","coordinates":[[[-8.275,41.3839],[-8.2549,41.4174],[-8.3531,41.3964],[-8.3406,41.3706],[-8.3385,41.3713],[-8.275,41.3839]]]}},
{"type":"Feature","id":"PRT:ADM2:celorico-de-basto","properties":{"shapeName":"Celorico de Basto","shapeISO":"ADM 2","shapeType":"ADM2"},"geometry":{"type":"Polygon","coordinates":[[[-8.0022,41.3769],[-7.9596,41.4686],[-8.0898,41.5022],[-8.1666,41.4131],[-8.1143,41.3503],[-8.0022,41.3769]]]}},
{"type":"Feature","id":"PRT:ADM2:cabeceiras-de-basto","properties":{"shapeName":"Cabeceiras de Basto","shapeISO":"ADM 2","shapeType":"ADM2"},"geometry":{"type":"Polygon","coordinates":[[[-7.9318,41.5284],[-7.7973,41.61],[-7.8696,41.6234],[-8.0246,41.6257],[-8.0779,41.5622],[-8.0898,41.5022],[-7.9596,41.4686],[-7.9318,41.5284]]]}},
{"type":"Feature","id":"PRT:ADM2:fafe","properties":{"shapeName":"Fafe","shapeISO":"ADM 2","shapeType":"ADM2"},"geometry":{"type":"Polygon","coordinates":[[[-8.1666,41.4131],[-8.0898,41.5022],[-8.0779,41.5622],[-8.1693,41.5563],[-8.2324,41.5522],[-8.234,41.4313],[-8.1666,41.4131]]]}},
{"type":"Feature","id":"PRT:ADM2:guimaraes","properties":{"shapeName":"Guimaraes","shapeISO":"ADM 2","shapeType":"ADM2"},"geometry":{"type":"Polygon","coordinates":[[[-8.3531,41.3964],[-8.2549,41.4174],[-8.234,41.4313],[-8.2324,41.5522],[-8.3282,41.5555],[-8.4508,41.4906],[-8.414,41.3964],[-8.3531,41.3964]]]}},
{"type":"Feature","id":"PRT:ADM2:vieira-do-minho","properties":{"shapeName":"Vieira do Minho","shapeISO":"ADM 2","shapeType":"ADM2"},"geometry":{"type":"Polygon","coordinates":[[[-8.1082,41.7348],[-8.2359,41.6752],[-8.266,41.6707],[-8.1693,41.5563],[-8.0779,41.5622],[-8.0246,41.6257],[-8.1082,41.7348]]]}},
{"type":"Feature","id":"PRT:ADM2:povoa-de-lanhosa","properties":{"shapeName":"Povoa de Lanhosa","shapeISO":"ADM 2","shapeType":"ADM2"},"geometry":{"type":"Polygon","coordinates":[[[-8.1693,41.5563],[-8.266,41.6707],[-8.3588,41.6277],[-8.3282,41.5555],[-8.2324,41.5522],[-8.1693,41.5563]]]}},
{"type":"Feature","id":"PRT:ADM2:barcelos","properties":{"shapeName":"Barcelos","shapeISO":"ADM 2","shapeType":"ADM2"},"geometry":{"type":"Polygon","coordinates":[[[-8.6616,41.4526],[-8.5432,41.496],[-8.5166,41.6066],[-8.556,41.6413],[-8.6514,41.6608],[-8.739,41.6256],[-8.725,41.4974],[-8.6616,41.4526]]]}},
{"type":"Feature","id":"PRT:ADM2:braga","properties":{"shapeName":"Braga","shapeISO":"ADM 2","shapeType":"ADM2"},"geometry":{"type":"Polygon","coordinates":[[[-8.4508,41.4906],[-8.3282,41.5555],[-8.3588,41.6277],[-8.4369,41.6173],[-8.5166,41.6066],[-8.5432,41.496],[-8.4508,41.4906]]]}},
{"type":"Feature","id":"PRT:ADM2:amares","properties":{"shapeName":"Amares","shapeISO":"ADM 2","shapeType":"ADM2"},"geometry":{"type":"Polygon","coordinates":[[[-8.266,41.6707],[-8.2359,41.6752],[-8.3519,41.7115],[-8.4369,41.6173],[-8.3588,41.6277],[-8.266,41.6707]]]}},
{"type":"Feature","id":"PRT:ADM2:terras-de-bouro","properties":{"shapeName":"Terras de Bouro","shapeISO":"ADM 2","shapeType":"ADM2"},"geometry":{"type":"Polygon","coordinates":[[[-8.078,41.8127],[-8.1925,41.8136],[-8.3155,41.7741],[-8.3519,41.7115],[-8.2359,41.6752],[-8.1082,41.7348],[-8.078,41.8127]]]}},
{"type":"Feature","id":"PRT:ADM2:vila-verde","properties":{"shapeName":"Vila Verde","shapeISO":"ADM 2","shapeType":"ADM2"},"geometry":{"type":"Polygon","coordinates":[[[-8.5166,41.6066],[-8.4369,41.6173],[-8.3519,41.7115],[-8.3155,41.7741],[-8.4796,41.7539],[-8.556,41.6413],[-8.5166,41.6066]]]}},
{"type":"Feature","id":"PRT:ADM2:ponte-de-lima","properties":{"shapeName":"Ponte de Lima","shapeISO":"ADM 2","shapeType":"ADM2"},"geometry":{"type":"Polygon","coordinates":[[[-8.556,41.6413],[-8.4796,41.7539],[-8.4744,41.8029],[-8.5353,41.8748],[-8.6571,41.8571],[-8.6708,41.8518],[-8.6878,41.834],[-8.6514,41.6608],[-8.556,41.6413]]]}},
{"type":"Feature","id":"PRT:ADM2:viana-do-castelo","properties":{"shapeName":"Viana do Castelo","shapeISO":"ADM 2","shapeType":"ADM2"},"geometry":{"type":"Polygon","coordinates":[[[-8.739,41.6256],[-8.6514,41.6608],[-8.6878,41.834],[-8.8547,41.7841],[-8.8008,41.6292],[-8.739,41.6256]]]}},
{"type":"Feature","id":"PRT:ADM2:ponte-da-barca","properties":{"shapeName":"Ponte da Barca","shapeISO":"ADM 2","shapeType":"ADM2"},"geometry":{"type":"Polygon","coordinates":[[[-8.1925,41.8136],[-8.2323,41.871],[-8.4744,41.8029],[-8.4796,41.7539],[-8.3155,41.7741],[-8.1925,41.8136]]]}},
{"type":"Feature","id":"PRT:ADM2:caminha","properties":{"shapeName":"Caminha","shapeISO":"ADM 2","shapeType":"ADM2"},"geometry":{"type":"Polygon","coordinates":[[[-8.6708,41.8518],[-8.8042,41.9157],[-8.8547,41.7841],[-8.6878,41.834],[-8.6708,41.8518]]]}},
{"type":"Feature","id":"PRT:ADM2:vila-nova-de-cerveira","properties":{"shapeName":"Vila Nova de Cerveira","shapeISO":"ADM 2","shapeType":"ADM2"},"geometry":{"type":"Polygon","coordinates":[[[-8.6708,41.8518],[-8.6571,41.8571],[-8.6438,41.94],[-8.6913,41.9908],[-8.8042,41.9157],[-8.6708,41.8518]]]}},
{"type":"Feature","id":"PRT:ADM2:paredes-de-coura","properties":{"shapeName":"Paredes de Coura","shapeISO":"ADM 2","shapeType":"ADM2"},"geometry":{"type":"Polygon","coordinates":[[[-8.5353,41.8748],[-8.5027,41.9688],[-8.5358,41.9838],[-8.6438,41.94],[-8.6571,41.8571],[-8.5353,41.8748]]]}},
{"type":"Feature","id":"PRT:ADM2:arcos-de-valdevez","properties":{"shapeName":"Arcos de Valdevez","shapeISO":"ADM 2","shapeType":"ADM2"},"geometry":{"type":"Polygon","coordinates":[[[-8.4744,41.8029],[-8.2323,41.871],[-8.2101,41.9643],[-8.3258,41.9978],[-8.5027,41.9688],[-8.5353,41.8748],[-8.4744,41.8029]]]}},
{"type":"Feature","id":"PRT:ADM2:valenca","properties":{"shapeName":"Valenca","shapeISO":"ADM 2","shapeType":"ADM2"},"geometry":{"type":"Polygon","coordinates":[[[-8.6438,41.94],[-8.5358,41.9838],[-8.5725,42.0581],[-8.6913,41.9908],[-8.6438,41.94]]]}},
{"type":"Feature","id":"PRT:ADM2:moncao","properties":{"shapeName":"Moncao","shapeISO":"ADM 2","shapeType":"ADM2"},"geometry":{"type":"Polygon","coordinates":[[[-8.5027,41.9688],[-8.3258,41.9978],[-8.3675,42.0956],[-8.5725,42.0581],[-8.5358,41.9838],[-8.5027,41.9688]]]}},
{"type":"Feature","id":"PRT:ADM2:melgaco","properties":{"shapeName":"Melgaco","shapeISO":"ADM 2","shapeType":"ADM2"},"geometry":{"type":"Polygon","coordinates":[[[-8.2101,41.9643],[-8.1017,42.0129],[-8.2012,42.1518],[-8.3675,42.0956],[-8.3258,41.9978],[-8.2101,41.9643]]]}},
{"type":"Feature","id":"PRT:ADM2:lajes-das-flores","properties":{"shapeName":"Lajes das Flores","shapeISO":"ADM 2","shapeType":"ADM2"},"geometry":{"type":"Polygon","coordinates":[[[-31.2735,39.4336],[-31.2631,39.3556],[-31.1502,39.4348],[-31.2735,39.4336]]]}},
{"type":"Feature","id":"PRT:ADM2:santa-cruz-das-flores","properties":{"shapeName":"Santa Cruz das Flores","shapeISO":"ADM 2","shapeType":"ADM2"},"geometry":{"type":"Polygon","coordinates":[[[-31.1502,39.4348],[-31.1725,39.5185],[-31.2601,39.4956],[-31.2735,39.4336],[-31.1502,39.4348]]]}},
{"type":"Feature","id":"PRT:ADM2:corvo","properties":{"shapeName":"Corvo","shapeISO":"ADM 2","shapeType":"ADM2"},"geometry":{"type":"Polygon","coordinates":[[[-31.1104,39.7227],[-31.1323,39.711],[-31.1086,39.6783],[-31.0895,39.7007],[-31.1104,39.7227]]]}},
{"type":"Feature","id":"PRT:ADM2:horta","properties":{"shapeName":"Horta","shapeISO":"ADM 2","shapeType":"ADM2"},"geometry":{"type":"Polygon","coordinates":[[[-28.7406,38.6713],[-28.8218,38.6133],[-28.794,38.5262],[-28.6338,38.5353],[-28.6037,38.5897],[-28.7406,38.6713]]]}},
{"type":"Feature","id":"PRT:ADM2:lajes-do-pico","properties":{"shapeName":"Lajes do Pico","shapeISO":"ADM 2","shapeType":"ADM2"},"geometry":{"type":"Polygon","coordinates":[[[-28.3623,38.4117],[-28.244,38.3917],[-28.1699,38.4553],[-28.3716,38.4735],[-28.3623,38.4117]]]}},
{"type":"Feature","id":"PRT:ADM2:sao-roque-do-pico","properties":{"shapeName":"Sao Roque do Pico","shapeISO":"ADM 2","shapeType":"ADM2"},"geometry":{"type":"Polygon","coordinates":[[[-28.1699,38.4553],[-28.2695,38.5353],[-28.4273,38.5589],[-28.3716,38.4735],[-28.1699,38.4553]]]}},
{"type":"Feature","id":"PRT:ADM2:madalena","properties":{"shapeName":"Madalena","shapeISO":"ADM 2","shapeType":"ADM2"},"geometry":{"type":"Polygon","coordinates":[[[-28.3716,38.4735],[-28.4273,38.5589],[-28.5549,38.5389],[-28.5248,38.4299],[-28.3623,38.4117],[-28.3716,38.4735]]]}},
{"type":"Feature","id":"PRT:ADM2:calheta-2","properties":{"shapeName":"Calheta","shapeISO":"ADM 2","shapeType":"ADM2"},"geometry":{"type":"Polygon","coordinates":[[[-27.9933,38.6731],[-28.0258,38.6224],[-27.9237,38.5716],[-27.759,38.5371],[-27.7381,38.5734],[-27.9933,38.6731]]]}},
{"type":"Feature","id":"PRT:ADM2:velas","properties":{"shapeName":"Velas","shapeISO":"ADM 2","shapeType":"ADM2"},"geometry":{"type":"Polygon","coordinates":[[[-27.9933,38.6731],[-28.2092,38.7274],[-28.237,38.6876],[-28.0258,38.6224],[-27.9933,38.6731]]]}},
{"type":"Feature","id":"PRT:ADM2:santa-cruz-da-graciosa","properties":{"shapeName":"Santa Cruz da Graciosa","shapeISO":"ADM 2","shapeType":"ADM2"},"geometry":{"type":"Polygon","coordinates":[[[-28.1047,39.0724],[-27.9887,39.0057],[-27.9516,39.058],[-28.0142,39.0886],[-28.1047,39.0724]]]}},
{"type":"Feature","id":"PRT:ADM2:praia-da-vitoria","properties":{"shapeName":"Praia da Vitoria","shapeISO":"ADM 2","shapeType":"ADM2"},"geometry":{"type":"Polygon","coordinates":[[[-27.2392,38.7944],[-27.2484,38.7455],[-27.0744,38.6713],[-27.0651,38.789],[-27.2392,38.7944]]]}},
{"type":"Feature","id":"PRT:ADM2:angra-do-heroismo","properties":{"shapeName":"Angra do Heroismo","shapeISO":"ADM 2","shapeType":"ADM2"},"geometry":{"type":"Polygon","coordinates":[[[-27.2392,38.7944],[-27.3784,38.7636],[-27.3018,38.6731],[-27.0744,38.6713],[-27.2484,38.7455],[-27.2392,38.7944]]]}},
{"type":"Feature","id":"PRT:ADM2:nordeste","properties":{"shapeName":"Nordeste","shapeISO":"ADM 2","shapeType":"ADM2"},"geometry":{"type":"Polygon","coordinates":[[[-25.32,37.8642],[-25.2991,37.7945],[-25.1367,37.789],[-25.32,37.8642]]]}},
{"type":"Feature","id":"PRT:ADM2:povoacao","properties":{"shapeName":"Povoacao","shapeISO":"ADM 2","shapeType":"ADM2"},"geometry":{"type":"Polygon","coordinates":[[[-25.2991,37.7945],[-25.3595,37.7762],[-25.3399,37.7556],[-25.1367,37.789],[-25.2991,37.7945]]]}},
{"type":"Feature","id":"PRT:ADM2:vila-franca-do-campo","properties":{"shapeName":"Vila Franca do Campo","shapeISO":"ADM 2","shapeType":"ADM2"},"geometry":{"type":"Polygon","coordinates":[[[-25.3595,37.7762],[-25.4894,37.7725],[-25.4941,37.7248],[-25.3399,37.7556],[-25.3595,37.7762]]]}},
{"type":"Feature","id":"PRT:ADM2:ribeira-grande","properties":{"shapeName":"Ribeira Grande","shapeISO":"ADM 2","shapeType":"ADM2"},"geometry":{"type":"Polygon","coordinates":[[[-25.32,37.8642],[-25.696,37.8129],[-25.6379,37.7835],[-25.4894,37.7725],[-25.3595,37.7762],[-25.2991,37.7945],[-25.32,37.8642]]]}},
{"type":"Feature","id":"PRT:ADM2:lagoa","properties":{"shapeName":"Lagoa","shapeISO":"ADM 2","shapeType":"ADM2"},"geometry":{"type":"Polygon","coordinates":[[[-25.4894,37.7725],[-25.6379,37.7835],[-25.631,37.7377],[-25.4941,37.7248],[-25.4894,37.7725]]]}},
{"type":"Feature","id":"PRT:ADM2:ponta-delgada","properties":{"shapeName":"Ponta Delgada","shapeISO":"ADM 2","shapeType":"ADM2"},"geometry":{"type":"Polygon","coordinates":[[[-25.696,37.8129],[-25.7609,37.9118],[-25.8723,37.8587],[-25.7099,37.7377],[-25.631,37.7377],[-25.6379,37.7835],[-25.696,37.8129]]]}},
{"type":"Feature","id":"PRT:ADM2:vila-do-porto","properties":{"shapeName":"Vila do Porto","shapeISO":"ADM 2","shapeType":"ADM2"},"geometry":{"type":"Polygon","coordinates":[[[-25.0624,37.0203],[-25.1715,36.961],[-25.0183,36.9221],[-25.0624,37.0203]]]}},
{"type":"Feature","id":"PRT:ADM2:santa-cruz","properties":{"shapeName":"Santa Cruz","shapeISO":"ADM 2","shapeType":"ADM2"},"geometry":{"type":"Polygon","coordinates":[[[-16.8657,32.6645],[-16.8108,32.7108],[-16.8954,32.722],[-16.8657,32.6645]]]}},
{"type":"Feature","id":"PRT:ADM2:machico","properties":{"shapeName":"Machico","shapeISO":"ADM 2","shapeType":"ADM2"},"geometry":{"type":"Polygon","coordinates":[[[-16.8108,32.7108],[-16.8717,32.782],[-16.8954,32.722],[-16.8108,32.7108]]]}},
{"type":"Feature","id":"PRT:ADM2:funchal","properties":{"shapeName":"Funchal","shapeISO":"ADM 2","shapeType":"ADM2"},"geometry":{"type":"Polygon","coordinates":[[[-16.8954,32.722],[-16.9444,32.7308],[-16.9311,32.6545],[-16.8657,32.6645],[-16.8954,32.722]]]}},
{"type":"Feature","id":"PRT:ADM2:santana","properties":{"shapeName":"Santana","shapeISO":"ADM 2","shapeType":"ADM2"},"geometry":{"type":"Polygon","coordinates":[[[-16.8717,32.782],[-16.9741,32.8207],[-16.9459,32.757],[-16.9444,32.7308],[-16.8954,32.722],[-16.8717,32.782]]]}},
{"type":"Feature","id":"PRT:ADM2:camara-de-lobos","properties":{"shapeName":"Camara de Lobos","shapeISO":"ADM 2","shapeType":"ADM2"},"geometry":{"type":"Polygon","coordinates":[[[-16.9444,32.7308],[-16.9459,32.757],[-16.9801,32.7557],[-16.9801,32.6608],[-16.9311,32.6545],[-16.9444,32.7308]]]}},
{"type":"Feature","id":"PRT:ADM2:ribeira-brava","properties":{"shapeName":"Ribeira Brava","shapeISO":"ADM 2","shapeType":"ADM2"},"geometry":{"type":"Polygon","coordinates":[[[-16.9801,32.7557],[-17.0302,32.7476],[-17.0457,32.6829],[-16.9801,32.6608],[-16.9801,32.7557]]]}},
{"type":"Feature","id":"PRT:ADM2:sao-vicente","properties":{"shapeName":"Sao Vicente","shapeISO":"ADM 2","shapeType":"ADM2"},"geometry":{"type":"Polygon","coordinates":[[[-16.9741,32.8207],[-17.0732,32.799],[-17.0608,32.7591],[-17.0302,32.7476],[-16.9801,32.7557],[-16.9459,32.757],[-16.9741,32.8207]]]}},
{"type":"Feature","id":"PRT:ADM2:ponta-do-sol","properties":{"shapeName":"Ponta do Sol","shapeISO":"ADM 2","shapeType":"ADM2"},"geometry":{"type":"Polygon","coordinates":[[[-17.0302,32.7476],[-17.0608,32.7591],[-17.0927,32.7051],[-17.0457,32.6829],[-17.0302,32.7476]]]}},
{"type":"Feature","id":"PRT:ADM2:calheta","properties":{"shapeName":"Calheta","shapeISO":"ADM 2","shapeType":"ADM2"},"geometry":{"type":"Polygon","coordinates":[[[-17.0608,32.7591],[-17.1977,32.8206],[-17.0927,32.7051],[-17.0608,32.7591]]]}},
{"type":"Feature","id":"PRT:ADM2:porto-moniz","properties":{"shapeName":"Porto Moniz","shapeISO":"ADM 2","shapeType":"ADM2"},"geometry":{"type":"Polygon","coordinates":[[[-17.0732,32.799],[-17.1977,32.8206],[-17.0608,32.7591],[-17.0732,32.799]]]}},
{"type":"Feature","id":"PRT:ADM2:porto-santo","properties":{"shapeName":"Porto Santo","shapeISO":"ADM 2","shapeType":"ADM2"},"geometry":{"type":"Polygon","coordinates":[[[-16.3451,33.0145],[-16.2994,33.0958],[-16.3394,33.0942],[-16.3612,33.0567],[-16.3451,33.0145]]]}},
{"type":"Feature","id":"PRT:ADM2:viana-do-alentejo","properties":{"shapeName":"Viana do Alentejo","shapeISO":"ADM 2","shapeType":"ADM2"},"geometry":{"type":"Polygon","coordinates":[[[-8.1699,38.3498],[-7.9358,38.3356],[-7.922,38.3973],[-8.0482,38.4103],[-8.137,38.5077],[-8.3377,38.4658],[-8.3297,38.404],[-8.1699,38.3498]]]}},
{"type":"Feature","id":"PRT:ADM2:alvito","properties":{"shapeName":"Alvito","shapeISO":"ADM 2","shapeType":"ADM2"},"geometry":{"type":"Polygon","coordinates":[[[-7.9962,38.1949],[-7.9358,38.3356],[-8.1699,38.3498],[-8.1345,38.2311],[-7.9962,38.1949]]]}},
{"type":"Feature","id":"PRT:ADM2:monforte","properties":{"shapeName":"Monforte","shapeISO":"ADM 2","shapeType":"ADM2"},"geometry":{"type":"Polygon","coordinates":[[[-7.4881,38.9705],[-7.4456,38.9009],[-7.3269,39.0656],[-7.413,39.1823],[-7.5427,39.2326],[-7.5482,39.2347],[-7.6028,39.1795],[-7.5697,39.0291],[-7.5407,39.023],[-7.4881,38.9705]]]}},
{"type":"Feature","id":"PRT:ADM2:fronteira","properties":{"shapeName":"Fronteira","shapeISO":"ADM 2","shapeType":"ADM2"},"geometry":{"type":"Polygon","coordinates":[[[-7.5697,39.0291],[-7.6028,39.1795],[-7.8036,39.1765],[-7.7385,39.06],[-7.5697,39.0291]]]}},
{"type":"Feature","id":"PRT:ADM2:valongo","properties":{"shapeName":"Valongo","shapeISO":"ADM 2","shapeType":"ADM2"},"geometry":{"type":"Polygon","coordinates":[[[-8.5123,41.1901],[-8.4677,41.2635],[-8.554,41.2878],[-8.5898,41.2186],[-8.5834,41.2154],[-8.5123,41.1901]]]}},
{"type":"Feature","id":"PRT:ADM2:maia","properties":{"shapeName":"Maia","shapeISO":"ADM 2","shapeType":"ADM2"},"geometry":{"type":"Polygon","coordinates":[[[-8.5898,41.2186],[-8.554,41.2878],[-8.5628,41.2926],[-8.6461,41.3377],[-8.6798,41.2752],[-8.5898,41.2186]]]}}
]}