{"type":"FeatureCollection","bbox":[-28.4595,32.6472,-6.2059,42.1536],"features":[
{"type":"Feature","id":"PRT:ADM0:PRT","properties":{"shapeName":"Portugal","shapeISO":"PRT","shapeType":"ADM0"},"geometry":{"type":"MultiPolygon","coordinates":[[[[-7.4144,37.1928],[-7.5297,37.5672],[-7.2686,37.9492],[-7.024,38.0226],[-7.3592,38.4464],[-7.2704,38.7375],[-7.0561,38.8551],[-6.9733,39.014],[-7.1675,39.1135],[-7.3267,39.3413],[-7.3135,39.4574],[-7.5573,39.6798],[-7.0358,39.6893],[-6.8797,40.0092],[-7.0431,40.1814],[-6.7944,40.3564],[-6.8571,40.4421],[-6.818,41.0541],[-6.6466,41.2676],[-6.4959,41.2949],[-6.2059,41.5703],[-6.5553,41.6749],[-6.5242,41.8674],[-6.6568,41.9331],[-7.1454,41.9875],[-7.2515,41.8637],[-7.5884,41.8242],[-7.722,41.8993],[-8.0486,41.8164],[-8.2317,41.886],[-8.108,42.0109],[-8.2224,42.1536],[-8.6269,42.051],[-8.8675,41.8591],[-8.6551,40.9938],[-8.8654,40.2755],[-8.8682,40.1248],[-9.0904,39.5793],[-9.3529,39.3679],[-9.4917,38.7076],[-9.2527,38.6655],[-9.2004,38.4125],[-8.9058,38.5124],[-8.7744,38.1869],[-8.8675,37.9736],[-8.7972,37.8449],[-8.7979,37.4896],[-8.8814,37.2325],[-8.8789,37.0472],[-8.6268,37.1212],[-8.1792,37.0881],[-7.9814,37.0017],[-7.7866,37.0227],[-7.4144,37.1928]]],[[[-16.7887,32.6867],[-16.9197,32.8412],[-17.2521,32.8145],[-16.9768,32.6472],[-16.7887,32.6867]]],[[[-25.1978,37.8644],[-25.6807,37.8433],[-25.5057,37.7067],[-25.1947,37.7407],[-25.1978,37.8644]]],[[[-28.1095,38.4466],[-28.3745,38.5505],[-28.4595,38.4057],[-28.2419,38.3776],[-28.1095,38.4466]]]]}}
]}