{"type":"FeatureCollection","bbox":[-70.606651,19.301027,-70.080444,19.701529],"features":[
{"type":"Feature","id":"DOM:ADM2:DO-09.cayetano-germosen","properties":{"shapeName":"Cayetano Germosén","shapeISO":"","shapeGroup":"DOM","shapeType":"ADM2","adm1ISO":"DO-09","parentISO":"DO-09","parentID":"DOM:ADM1:DO-09","src_shape_id":"3306468B9406738878397"},"geometry":{"type":"Polygon","coordinates":[[[-70.450523,19.336388],[-70.451019,19.344444],[-70.45298,19.350306],[-70.452164,19.352741],[-70.448425,19.357618],[-70.447678,19.361235],[-70.447662,19.365814],[-70.452644,19.366337],[-70.457985,19.369814],[-70.461288,19.371397],[-70.468719,19.371635],[-70.471252,19.369654],[-70.471634,19.366392],[-70.471458,19.360596],[-70.472069,19.354906],[-70.478294,19.343061],[-70.481911,19.339466],[-70.489281,19.335037],[-70.486313,19.332199],[-70.487885,19.330177],[-70.489822,19.32469],[-70.494545,19.31789],[-70.495323,19.31439],[-70.495445,19.3078],[-70.494026,19.303232],[-70.491234,19.301359],[-70.484444,19.301027],[-70.481728,19.301699],[-70.477982,19.305305],[-70.472511,19.307653],[-70.471512,19.309973],[-70.470932,19.317041],[-70.469276,19.321146],[-70.468513,19.325966],[-70.467453,19.328291],[-70.464989,19.329229],[-70.459274,19.330236],[-70.450523,19.336388]]]}},
{"type":"Feature","id":"DOM:ADM2:DO-09.gaspar-hernandez","properties":{"shapeName":"Gaspar Hernández","shapeISO":"","shapeGroup":"DOM","shapeType":"ADM2","adm1ISO":"DO-09","parentISO":"DO-09","parentID":"DOM:ADM1:DO-09","src_shape_id":"3306468B76468188202077"},"geometry":{"type":"Polygon","coordinates":[[[-70.194939,19.51255],[-70.194939,19.532473],[-70.19574,19.538925],[-70.197678,19.542843],[-70.197571,19.547421],[-70.194786,19.549938],[-70.19207,19.549934],[-70.182877,19.545292],[-70.17791,19.544666],[-70.174385,19.545244],[-70.166344,19.549156],[-70.164047,19.549536],[-70.161156,19.546896],[-70.157562,19.546488],[-70.153763,19.54915],[-70.147942,19.550196],[-70.13945,19.550098],[-70.136475,19.550474],[-70.133873,19.551741],[-70.127441,19.556459],[-70.125252,19.559494],[-70.120514,19.564257],[-70.118118,19.566051],[-70.105537,19.571871],[-70.100136,19.573088],[-70.095924,19.574768],[-70.090553,19.575949],[-70.085884,19.578756],[-70.085014,19.581198],[-70.084473,19.588301],[-70.082672,19.592325],[-70.081955,19.59656],[-70.082069,19.603184],[-70.083511,19.607124],[-70.085999,19.610146],[-70.086243,19.612827],[-70.08287,19.615437],[-70.080444,19.619171],[-70.080559,19.621897],[-70.082764,19.626244],[-70.085869,19.628578],[-70.090912,19.630224],[-70.088631,19.634306],[-70.092087,19.63236],[-70.094582,19.629862],[-70.097641,19.629028],[-70.10347,19.629028],[-70.106529,19.628471],[-70.11097,19.626249],[-70.11792,19.625692],[-70.123192,19.624582],[-70.129585,19.623751],[-70.130692,19.622639],[-70.142639,19.62236],[-70.14653,19.620417],[-70.156525,19.620138],[-70.160698,19.620972],[-70.162086,19.62236],[-70.165695,19.622639],[-70.167641,19.621805],[-70.17347,19.621529],[-70.177917,19.623751],[-70.18264,19.628197],[-70.189026,19.62764],[-70.191803,19.629028],[-70.194305,19.628765],[-70.196526,19.630136],[-70.199303,19.630136],[-70.202919,19.63236],[-70.208191,19.632917],[-70.212082,19.634583],[-70.217087,19.634863],[-70.220413,19.636528],[-70.224586,19.639585],[-70.229584,19.640694],[-70.238747,19.641525],[-70.241249,19.642361],[-70.250694,19.641014],[-70.253471,19.641251],[-70.266808,19.641251],[-70.283752,19.646528],[-70.289307,19.647917],[-70.294861,19.64986],[-70.301247,19.652914],[-70.303474,19.653475],[-70.307083,19.65625],[-70.311249,19.658472],[-70.31292,19.660418],[-70.317917,19.663471],[-70.323753,19.669025],[-70.327637,19.671806],[-70.330414,19.674862],[-70.332916,19.67597],[-70.334587,19.678192],[-70.341805,19.68375],[-70.345413,19.685417],[-70.347084,19.687361],[-70.35125,19.69014],[-70.352638,19.690416],[-70.357086,19.69375],[-70.361526,19.69875],[-70.363197,19.701529],[-70.3666,19.699545],[-70.370773,19.698166],[-70.373024,19.696301],[-70.374023,19.693451],[-70.378052,19.688089],[-70.378593,19.685925],[-70.376404,19.684132],[-70.371483,19.683104],[-70.370377,19.680799],[-70.369705,19.676641],[-70.36792,19.672619],[-70.367554,19.668634],[-70.368584,19.666071],[-70.371635,19.663073],[-70.374298,19.661825],[-70.377304,19.66151],[-70.384995,19.66157],[-70.388641,19.660725],[-70.3927,19.657408],[-70.396416,19.652163],[-70.398987,19.651918],[-70.400444,19.648485],[-70.400932,19.643064],[-70.402924,19.63686],[-70.403084,19.634695],[-70.403191,19.614677],[-70.402496,19.611204],[-70.399864,19.608465],[-70.392548,19.605482],[-70.385506,19.604584],[-70.379501,19.601858],[-70.376419,19.59963],[-70.370209,19.593719],[-70.367821,19.590794],[-70.365448,19.586372],[-70.364861,19.583973],[-70.36618,19.581198],[-70.370087,19.579113],[-70.37355,19.576645],[-70.375641,19.57379],[-70.376312,19.567846],[-70.377022,19.56551],[-70.378792,19.564156],[-70.381615,19.565401],[-70.383125,19.567492],[-70.386307,19.568541],[-70.393166,19.568226],[-70.398071,19.566216],[-70.404434,19.56489],[-70.4039,19.563154],[-70.404808,19.560801],[-70.407822,19.559183],[-70.409004,19.555933],[-70.409607,19.549627],[-70.408516,19.546335],[-70.40554,19.54063],[-70.403275,19.537724],[-70.398811,19.533602],[-70.391563,19.529854],[-70.386505,19.529022],[-70.377266,19.528984],[-70.373604,19.528303],[-70.367073,19.523975],[-70.362785,19.522684],[-70.360123,19.520947],[-70.354263,19.51862],[-70.352448,19.512712],[-70.350494,19.510159],[-70.348,19.509045],[-70.345192,19.509027],[-70.342712,19.510126],[-70.341118,19.512102],[-70.339828,19.517139],[-70.338089,19.521183],[-70.337639,19.529907],[-70.337029,19.534161],[-70.335716,19.536961],[-70.334717,19.54258],[-70.333717,19.544714],[-70.332069,19.545502],[-70.327415,19.545954],[-70.320152,19.548809],[-70.318222,19.551771],[-70.318237,19.554813],[-70.316521,19.556337],[-70.312912,19.557005],[-70.305206,19.556263],[-70.29921,19.553473],[-70.296776,19.551752],[-70.293556,19.548037],[-70.290718,19.542326],[-70.289406,19.537191],[-70.287872,19.533798],[-70.286591,19.525946],[-70.284439,19.523605],[-70.280853,19.522671],[-70.271233,19.522753],[-70.265923,19.521715],[-70.258469,19.515499],[-70.253426,19.514076],[-70.240921,19.514408],[-70.237526,19.512402],[-70.23336,19.511278],[-70.225708,19.510687],[-70.219398,19.508501],[-70.214462,19.507856],[-70.210297,19.506281],[-70.206429,19.506254],[-70.201134,19.50861],[-70.194939,19.51255]]]}},
{"type":"Feature","id":"DOM:ADM2:DO-09.jamao-al-norte","properties":{"shapeName":"Jamao al Norte","shapeISO":"","shapeGroup":"DOM","shapeType":"ADM2","adm1ISO":"DO-09","parentISO":"DO-09","parentID":"DOM:ADM1:DO-09","src_shape_id":"3306468B95520457943603"},"geometry":{"type":"Polygon","coordinates":[[[-70.400932,19.643064],[-70.405823,19.651476],[-70.407211,19.652521],[-70.409706,19.65218],[-70.411438,19.650133],[-70.412567,19.646406],[-70.416359,19.644623],[-70.42099,19.64485],[-70.422943,19.645826],[-70.424667,19.650303],[-70.427101,19.655083],[-70.430992,19.65836],[-70.433357,19.657965],[-70.437851,19.653915],[-70.441628,19.653435],[-70.453033,19.653448],[-70.455551,19.652491],[-70.456581,19.650742],[-70.464584,19.650272],[-70.468018,19.648994],[-70.470695,19.649004],[-70.472664,19.650015],[-70.475471,19.64941],[-70.479179,19.646904],[-70.481522,19.646677],[-70.487381,19.648447],[-70.490601,19.650562],[-70.496086,19.650867],[-70.498032,19.64905],[-70.498428,19.645676],[-70.498245,19.626762],[-70.497658,19.620878],[-70.49559,19.616337],[-70.495483,19.613853],[-70.496635,19.611803],[-70.50322,19.607988],[-70.504227,19.605505],[-70.503616,19.600485],[-70.501373,19.597542],[-70.495804,19.591509],[-70.490196,19.58075],[-70.488579,19.572226],[-70.483917,19.563276],[-70.483498,19.559977],[-70.484138,19.557438],[-70.489983,19.546181],[-70.493034,19.541819],[-70.496124,19.540941],[-70.502785,19.541454],[-70.499054,19.535709],[-70.498276,19.532953],[-70.49868,19.5278],[-70.500656,19.523949],[-70.501038,19.52092],[-70.500244,19.519258],[-70.497688,19.518253],[-70.487434,19.518248],[-70.482513,19.519579],[-70.47937,19.523012],[-70.475754,19.525991],[-70.474846,19.527716],[-70.474266,19.534958],[-70.473549,19.538399],[-70.471069,19.544628],[-70.467484,19.547003],[-70.465477,19.55018],[-70.463737,19.551405],[-70.461525,19.550737],[-70.458984,19.546795],[-70.456848,19.544535],[-70.454124,19.543552],[-70.447258,19.543224],[-70.444435,19.54353],[-70.442276,19.544952],[-70.441338,19.550219],[-70.439842,19.553364],[-70.433434,19.558867],[-70.432671,19.563677],[-70.432838,19.586754],[-70.433044,19.588999],[-70.435287,19.595629],[-70.434738,19.598042],[-70.432121,19.601913],[-70.429413,19.602781],[-70.424858,19.60239],[-70.421532,19.600475],[-70.415329,19.594584],[-70.413391,19.592257],[-70.412254,19.589546],[-70.411339,19.583015],[-70.40876,19.577944],[-70.407173,19.575983],[-70.402969,19.573574],[-70.401596,19.571856],[-70.401794,19.569733],[-70.404434,19.56489],[-70.398071,19.566216],[-70.393166,19.568226],[-70.386307,19.568541],[-70.383125,19.567492],[-70.381615,19.565401],[-70.378792,19.564156],[-70.377022,19.56551],[-70.376312,19.567846],[-70.375641,19.57379],[-70.37355,19.576645],[-70.370087,19.579113],[-70.36618,19.581198],[-70.364861,19.583973],[-70.365448,19.586372],[-70.367821,19.590794],[-70.370209,19.593719],[-70.376419,19.59963],[-70.379501,19.601858],[-70.385506,19.604584],[-70.392548,19.605482],[-70.399864,19.608465],[-70.402496,19.611204],[-70.403191,19.614677],[-70.403084,19.634695],[-70.402924,19.63686],[-70.400932,19.643064]]]}},
{"type":"Feature","id":"DOM:ADM2:DO-09.moca","properties":{"shapeName":"Moca\r\n","shapeISO":"","shapeGroup":"DOM","shapeType":"ADM2","adm1ISO":"DO-09","parentISO":"DO-09","parentID":"DOM:ADM1:DO-09","src_shape_id":"3306468B60047889099268"},"geometry":{"type":"Polygon","coordinates":[[[-70.447662,19.365814],[-70.444885,19.368231],[-70.443695,19.371706],[-70.439552,19.378195],[-70.439575,19.379839],[-70.441383,19.384155],[-70.441315,19.387466],[-70.438301,19.393784],[-70.434387,19.400486],[-70.430214,19.406097],[-70.428322,19.412586],[-70.428368,19.414684],[-70.429741,19.419334],[-70.429749,19.425554],[-70.429016,19.428118],[-70.426285,19.433153],[-70.421555,19.439232],[-70.42083,19.442738],[-70.420807,19.448622],[-70.421799,19.453465],[-70.425652,19.460579],[-70.425873,19.463739],[-70.424088,19.466734],[-70.424477,19.472593],[-70.42923,19.478765],[-70.432159,19.484447],[-70.434319,19.4907],[-70.43737,19.495495],[-70.436432,19.497721],[-70.433479,19.501368],[-70.427475,19.512596],[-70.426956,19.515404],[-70.42688,19.522633],[-70.425911,19.5257],[-70.418709,19.529951],[-70.415855,19.534431],[-70.415955,19.53804],[-70.417358,19.542496],[-70.415771,19.545452],[-70.413651,19.547386],[-70.409607,19.549627],[-70.409004,19.555933],[-70.407822,19.559183],[-70.404808,19.560801],[-70.4039,19.563154],[-70.404434,19.56489],[-70.401794,19.569733],[-70.401596,19.571856],[-70.402969,19.573574],[-70.407173,19.575983],[-70.40876,19.577944],[-70.411339,19.583015],[-70.412254,19.589546],[-70.413391,19.592257],[-70.415329,19.594584],[-70.421532,19.600475],[-70.424858,19.60239],[-70.429413,19.602781],[-70.432121,19.601913],[-70.434738,19.598042],[-70.435287,19.595629],[-70.433044,19.588999],[-70.432838,19.586754],[-70.432671,19.563677],[-70.433434,19.558867],[-70.439842,19.553364],[-70.441338,19.550219],[-70.442276,19.544952],[-70.444435,19.54353],[-70.447258,19.543224],[-70.454124,19.543552],[-70.456848,19.544535],[-70.458984,19.546795],[-70.461525,19.550737],[-70.463737,19.551405],[-70.465477,19.55018],[-70.467484,19.547003],[-70.471069,19.544628],[-70.473549,19.538399],[-70.474266,19.534958],[-70.474846,19.527716],[-70.475754,19.525991],[-70.47937,19.523012],[-70.482513,19.519579],[-70.487434,19.518248],[-70.497688,19.518253],[-70.500244,19.519258],[-70.501038,19.52092],[-70.500656,19.523949],[-70.49868,19.5278],[-70.498276,19.532953],[-70.499054,19.535709],[-70.502785,19.541454],[-70.503304,19.546455],[-70.501778,19.549719],[-70.501099,19.554804],[-70.501778,19.55765],[-70.503967,19.559877],[-70.508018,19.561182],[-70.509796,19.563349],[-70.510094,19.566446],[-70.514519,19.568707],[-70.517395,19.567635],[-70.519569,19.565144],[-70.521782,19.564081],[-70.5261,19.563583],[-70.529175,19.562155],[-70.530846,19.559286],[-70.531113,19.555662],[-70.530228,19.549896],[-70.528618,19.546568],[-70.528343,19.54266],[-70.53006,19.538202],[-70.529976,19.535721],[-70.526741,19.530962],[-70.526459,19.528757],[-70.528107,19.521238],[-70.529434,19.519245],[-70.532341,19.517981],[-70.533371,19.5166],[-70.533913,19.510666],[-70.534904,19.508345],[-70.539818,19.507395],[-70.542473,19.502876],[-70.543098,19.498701],[-70.54528,19.494186],[-70.5467,19.48749],[-70.549591,19.485012],[-70.554916,19.482651],[-70.559677,19.481663],[-70.563889,19.479996],[-70.569923,19.478592],[-70.575256,19.476206],[-70.578201,19.472818],[-70.578423,19.467693],[-70.575684,19.460154],[-70.575455,19.454252],[-70.575966,19.448814],[-70.575462,19.444845],[-70.575508,19.439297],[-70.576767,19.436314],[-70.582359,19.433044],[-70.586792,19.429487],[-70.589172,19.426914],[-70.590263,19.422377],[-70.589027,19.419245],[-70.586487,19.416166],[-70.585854,19.414024],[-70.586655,19.411572],[-70.586098,19.407991],[-70.582336,19.402552],[-70.581688,19.400038],[-70.582916,19.395172],[-70.581116,19.389198],[-70.579185,19.386642],[-70.576218,19.381386],[-70.576134,19.37911],[-70.578156,19.377766],[-70.581429,19.37781],[-70.588188,19.380131],[-70.59079,19.37991],[-70.594299,19.378561],[-70.599014,19.37748],[-70.601463,19.37595],[-70.603951,19.373375],[-70.606651,19.36697],[-70.602798,19.360865],[-70.600067,19.355148],[-70.598999,19.351721],[-70.597237,19.350145],[-70.58976,19.34951],[-70.587059,19.348877],[-70.58168,19.346315],[-70.576508,19.34251],[-70.574501,19.341593],[-70.569046,19.341064],[-70.54969,19.341042],[-70.535164,19.340847],[-70.529961,19.341311],[-70.525146,19.345535],[-70.522408,19.34642],[-70.517113,19.347048],[-70.513084,19.34808],[-70.507332,19.345951],[-70.500298,19.34104],[-70.492516,19.337301],[-70.489281,19.335037],[-70.481911,19.339466],[-70.478294,19.343061],[-70.472069,19.354906],[-70.471458,19.360596],[-70.471634,19.366392],[-70.471252,19.369654],[-70.468719,19.371635],[-70.461288,19.371397],[-70.457985,19.369814],[-70.452644,19.366337],[-70.447662,19.365814]]]}}
]}