{"type":"FeatureCollection","bbox":[-70.367432,19.040915,-69.664108,19.514408],"features":[
{"type":"Feature","id":"DOM:ADM2:DO-06.arenoso","properties":{"shapeName":"Arenoso","shapeISO":"","shapeGroup":"DOM","shapeType":"ADM2","adm1ISO":"DO-06","parentISO":"DO-06","parentID":"DOM:ADM1:DO-06","src_shape_id":"3306468B79017025460716"},"geometry":{"type":"Polygon","coordinates":[[[-69.881523,19.227346],[-69.877174,19.221619],[-69.873688,19.219007],[-69.868279,19.21661],[-69.864639,19.215607],[-69.862625,19.214214],[-69.861893,19.211622],[-69.861862,19.204123],[-69.862755,19.20014],[-69.866913,19.197847],[-69.867744,19.195742],[-69.867432,19.193283],[-69.865829,19.190006],[-69.864632,19.181309],[-69.863342,19.177382],[-69.863609,19.175295],[-69.865433,19.173922],[-69.86795,19.173998],[-69.871101,19.1756],[-69.874275,19.176064],[-69.87606,19.175362],[-69.877182,19.172987],[-69.877197,19.168846],[-69.875633,19.165247],[-69.870842,19.162437],[-69.864799,19.159756],[-69.862564,19.159245],[-69.856354,19.159109],[-69.852867,19.160145],[-69.848167,19.165886],[-69.845337,19.165678],[-69.842194,19.163363],[-69.839478,19.162197],[-69.832962,19.161774],[-69.828903,19.162079],[-69.824112,19.163822],[-69.820839,19.163002],[-69.820305,19.159782],[-69.820374,19.153257],[-69.818306,19.15069],[-69.81469,19.150204],[-69.805328,19.15061],[-69.803047,19.151758],[-69.801285,19.153913],[-69.798576,19.155602],[-69.79303,19.156147],[-69.785751,19.155558],[-69.781479,19.15374],[-69.776794,19.152521],[-69.773315,19.151096],[-69.770699,19.1509],[-69.765137,19.154436],[-69.762848,19.155005],[-69.761192,19.153831],[-69.75946,19.150852],[-69.75679,19.150164],[-69.749084,19.150078],[-69.746117,19.14724],[-69.743141,19.150042],[-69.737518,19.149403],[-69.734688,19.146881],[-69.731224,19.140343],[-69.726402,19.136831],[-69.723854,19.136246],[-69.721222,19.137058],[-69.716103,19.140799],[-69.710716,19.143263],[-69.707054,19.144245],[-69.705124,19.145584],[-69.704498,19.149811],[-69.703087,19.153248],[-69.697037,19.157705],[-69.695389,19.161978],[-69.693687,19.163471],[-69.691345,19.163445],[-69.688095,19.160109],[-69.6866,19.159437],[-69.681892,19.16124],[-69.679657,19.163918],[-69.676132,19.166887],[-69.67514,19.168428],[-69.674698,19.177626],[-69.674179,19.180431],[-69.671364,19.185078],[-69.668068,19.187513],[-69.666161,19.189938],[-69.664108,19.194624],[-69.667519,19.200487],[-69.669762,19.201639],[-69.675133,19.206347],[-69.684509,19.215357],[-69.687576,19.21707],[-69.691124,19.217503],[-69.705048,19.217455],[-69.71312,19.218233],[-69.717453,19.219936],[-69.725082,19.220501],[-69.74337,19.220564],[-69.750641,19.220882],[-69.754089,19.218946],[-69.758072,19.217928],[-69.765289,19.217667],[-69.769096,19.215883],[-69.773254,19.212008],[-69.77536,19.20927],[-69.778122,19.203529],[-69.779228,19.198545],[-69.782524,19.196539],[-69.789734,19.199879],[-69.792831,19.200487],[-69.796021,19.1996],[-69.799355,19.200918],[-69.805199,19.20594],[-69.811699,19.209248],[-69.818367,19.212214],[-69.824898,19.212589],[-69.832268,19.21104],[-69.835052,19.212421],[-69.839142,19.216171],[-69.84288,19.218048],[-69.84922,19.21874],[-69.851639,19.219921],[-69.854919,19.223158],[-69.857063,19.227158],[-69.859077,19.229713],[-69.870422,19.229839],[-69.877304,19.229059],[-69.881523,19.227346]]]}},
{"type":"Feature","id":"DOM:ADM2:DO-06.castillo","properties":{"shapeName":"Castillo","shapeISO":"","shapeGroup":"DOM","shapeType":"ADM2","adm1ISO":"DO-06","parentISO":"DO-06","parentID":"DOM:ADM1:DO-06","src_shape_id":"3306468B31891639272972"},"geometry":{"type":"Polygon","coordinates":[[[-69.953979,19.256536],[-69.959,19.260345],[-69.965652,19.266176],[-69.968407,19.266893],[-69.971825,19.266481],[-69.975822,19.264915],[-69.981224,19.266438],[-69.985428,19.267073],[-69.99205,19.26725],[-69.99556,19.267834],[-69.999069,19.269392],[-70.00351,19.27001],[-70.009689,19.270102],[-70.01339,19.270742],[-70.019966,19.275494],[-70.028915,19.279581],[-70.035217,19.284962],[-70.039055,19.286993],[-70.043114,19.287893],[-70.046661,19.289413],[-70.051323,19.290565],[-70.057083,19.295502],[-70.059677,19.295715],[-70.062119,19.294706],[-70.063713,19.292747],[-70.064964,19.287676],[-70.066528,19.284309],[-70.067612,19.2798],[-70.069466,19.275839],[-70.070763,19.270697],[-70.073174,19.264385],[-70.07489,19.262041],[-70.079262,19.259739],[-70.085625,19.25878],[-70.085068,19.255045],[-70.086044,19.250565],[-70.089996,19.246815],[-70.089905,19.24468],[-70.088638,19.242172],[-70.088173,19.238955],[-70.088921,19.236334],[-70.094513,19.230387],[-70.096191,19.228029],[-70.097603,19.222958],[-70.102417,19.213385],[-70.102837,19.205791],[-70.099861,19.202953],[-70.095886,19.203382],[-70.091278,19.207666],[-70.088684,19.208447],[-70.085205,19.207993],[-70.080521,19.204638],[-70.070961,19.19932],[-70.070389,19.195093],[-70.072212,19.192266],[-70.078125,19.186243],[-70.082848,19.177616],[-70.062622,19.177395],[-70.05555,19.176641],[-70.05127,19.174906],[-70.048088,19.174473],[-70.032234,19.174231],[-70.026558,19.174664],[-70.023834,19.176022],[-70.018539,19.18125],[-70.016724,19.183847],[-70.014786,19.185255],[-70.010887,19.184999],[-70.008087,19.181728],[-70.007057,19.177433],[-70.003685,19.174494],[-69.999763,19.173994],[-69.986702,19.174156],[-69.987335,19.181669],[-69.99202,19.190544],[-69.992195,19.193708],[-69.991142,19.195477],[-69.987328,19.198622],[-69.983704,19.20031],[-69.981842,19.201998],[-69.978836,19.207525],[-69.977356,19.213264],[-69.974449,19.218866],[-69.969543,19.22315],[-69.964264,19.231804],[-69.958572,19.236359],[-69.957581,19.237795],[-69.956192,19.244652],[-69.954842,19.247435],[-69.954239,19.250763],[-69.953979,19.256536]]]}},
{"type":"Feature","id":"DOM:ADM2:DO-06.hostos","properties":{"shapeName":"Hostos","shapeISO":"","shapeGroup":"DOM","shapeType":"ADM2","adm1ISO":"DO-06","parentISO":"DO-06","parentID":"DOM:ADM1:DO-06","src_shape_id":"3306468B93342772649109"},"geometry":{"type":"Polygon","coordinates":[[[-70.082848,19.177616],[-70.081871,19.173389],[-70.080643,19.171127],[-70.078659,19.169626],[-70.075073,19.168579],[-70.073196,19.16721],[-70.070442,19.162397],[-70.070091,19.160191],[-70.070015,19.151764],[-70.071159,19.146074],[-70.073112,19.143562],[-70.072128,19.141785],[-70.069893,19.141024],[-70.064285,19.142662],[-70.062126,19.142319],[-70.060471,19.139326],[-70.05867,19.138098],[-70.053757,19.136082],[-70.049629,19.133186],[-70.046089,19.131353],[-70.044006,19.128979],[-70.043243,19.122971],[-70.043427,19.111156],[-70.043022,19.107601],[-70.039925,19.101248],[-70.037193,19.097916],[-70.029503,19.090963],[-70.025208,19.088718],[-70.019318,19.084648],[-70.013931,19.083315],[-70.009727,19.081577],[-70.003792,19.080009],[-69.999222,19.076988],[-69.996422,19.073044],[-69.994034,19.071154],[-69.991035,19.071451],[-69.985321,19.076361],[-69.982254,19.07847],[-69.981667,19.081007],[-69.982857,19.083467],[-69.98317,19.086374],[-69.9823,19.089397],[-69.983391,19.092489],[-69.983948,19.096767],[-69.983543,19.099901],[-69.981339,19.103476],[-69.981071,19.107193],[-69.98172,19.111744],[-69.983383,19.115072],[-69.983994,19.119385],[-69.982826,19.122364],[-69.978073,19.123667],[-69.975845,19.124838],[-69.973419,19.12817],[-69.967903,19.128954],[-69.957176,19.128763],[-69.957176,19.131582],[-69.960457,19.133709],[-69.966721,19.134743],[-69.972298,19.136723],[-69.976845,19.137354],[-69.982918,19.136887],[-69.986862,19.135746],[-69.989288,19.136707],[-69.992195,19.140411],[-69.991898,19.14353],[-69.990349,19.146688],[-69.990959,19.150629],[-69.994804,19.152439],[-69.995682,19.153975],[-69.995834,19.15782],[-69.995247,19.159729],[-69.991325,19.1633],[-69.987488,19.171486],[-69.986702,19.174156],[-69.999763,19.173994],[-70.003685,19.174494],[-70.007057,19.177433],[-70.008087,19.181728],[-70.010887,19.184999],[-70.014786,19.185255],[-70.016724,19.183847],[-70.018539,19.18125],[-70.023834,19.176022],[-70.026558,19.174664],[-70.032234,19.174231],[-70.048088,19.174473],[-70.05127,19.174906],[-70.05555,19.176641],[-70.062622,19.177395],[-70.082848,19.177616]]]}},
{"type":"Feature","id":"DOM:ADM2:DO-06.las-guaranas","properties":{"shapeName":"Las Guaranas","shapeISO":"","shapeGroup":"DOM","shapeType":"ADM2","adm1ISO":"DO-06","parentISO":"DO-06","parentID":"DOM:ADM1:DO-06","src_shape_id":"3306468B34554561821271"},"geometry":{"type":"Polygon","coordinates":[[[-70.241066,19.151623],[-70.238365,19.149391],[-70.235443,19.148869],[-70.231392,19.149977],[-70.226906,19.148853],[-70.225647,19.147486],[-70.223694,19.142675],[-70.221481,19.14172],[-70.216118,19.140856],[-70.208633,19.137417],[-70.206924,19.137037],[-70.204506,19.138027],[-70.20182,19.14115],[-70.200829,19.147507],[-70.199524,19.149399],[-70.197235,19.149733],[-70.19381,19.147888],[-70.190971,19.148188],[-70.187851,19.149895],[-70.1828,19.155664],[-70.179832,19.157631],[-70.177155,19.158289],[-70.177902,19.163605],[-70.181709,19.167183],[-70.182922,19.169325],[-70.183197,19.1721],[-70.182686,19.177107],[-70.181519,19.180346],[-70.181885,19.182444],[-70.185478,19.190119],[-70.185165,19.19261],[-70.180496,19.201502],[-70.178513,19.209023],[-70.182388,19.214973],[-70.183212,19.219255],[-70.182518,19.225798],[-70.178154,19.234186],[-70.176865,19.238253],[-70.175308,19.239998],[-70.172096,19.241547],[-70.166481,19.243465],[-70.176331,19.246126],[-70.185051,19.250284],[-70.188225,19.250835],[-70.192291,19.249338],[-70.199135,19.24865],[-70.211029,19.248795],[-70.215569,19.248226],[-70.221535,19.245523],[-70.225677,19.24235],[-70.235199,19.233459],[-70.238235,19.230188],[-70.239212,19.228237],[-70.239662,19.223082],[-70.23938,19.214788],[-70.239777,19.211422],[-70.242294,19.209465],[-70.244392,19.20927],[-70.259262,19.209505],[-70.265366,19.210089],[-70.269516,19.211948],[-70.273643,19.2124],[-70.277115,19.210539],[-70.278282,19.207485],[-70.277534,19.2036],[-70.274338,19.197992],[-70.269806,19.191778],[-70.268806,19.187958],[-70.264748,19.182285],[-70.260902,19.175507],[-70.256607,19.166866],[-70.253578,19.162376],[-70.249908,19.159388],[-70.248497,19.155897],[-70.245522,19.153059],[-70.241066,19.151623]]]}},
{"type":"Feature","id":"DOM:ADM2:DO-06.pimentel","properties":{"shapeName":"Pimentel","shapeISO":"","shapeGroup":"DOM","shapeType":"ADM2","adm1ISO":"DO-06","parentISO":"DO-06","parentID":"DOM:ADM1:DO-06","src_shape_id":"3306468B52155686963809"},"geometry":{"type":"Polygon","coordinates":[[[-70.085625,19.25878],[-70.089912,19.267517],[-70.091179,19.271511],[-70.093681,19.27334],[-70.095833,19.273581],[-70.108498,19.273642],[-70.111481,19.274235],[-70.115623,19.275974],[-70.121078,19.275639],[-70.132294,19.270367],[-70.135033,19.26778],[-70.137573,19.262711],[-70.139107,19.25712],[-70.140747,19.255232],[-70.144051,19.254093],[-70.150002,19.253332],[-70.152473,19.25139],[-70.154327,19.248009],[-70.15712,19.244886],[-70.160034,19.243464],[-70.163025,19.244604],[-70.166481,19.243465],[-70.172096,19.241547],[-70.175308,19.239998],[-70.176865,19.238253],[-70.178154,19.234186],[-70.182518,19.225798],[-70.183212,19.219255],[-70.182388,19.214973],[-70.178513,19.209023],[-70.180496,19.201502],[-70.185165,19.19261],[-70.185478,19.190119],[-70.181885,19.182444],[-70.181519,19.180346],[-70.182686,19.177107],[-70.183197,19.1721],[-70.182922,19.169325],[-70.181709,19.167183],[-70.177902,19.163605],[-70.177155,19.158289],[-70.172508,19.158335],[-70.169266,19.1572],[-70.168304,19.154676],[-70.168091,19.149797],[-70.166618,19.147587],[-70.162491,19.147448],[-70.159378,19.148405],[-70.155716,19.147076],[-70.154015,19.14543],[-70.152451,19.139303],[-70.147949,19.138073],[-70.145538,19.139154],[-70.145195,19.141371],[-70.147141,19.146208],[-70.146103,19.149319],[-70.141296,19.151958],[-70.137421,19.152451],[-70.132561,19.15238],[-70.132629,19.155073],[-70.130707,19.157377],[-70.12822,19.156591],[-70.12513,19.150925],[-70.120934,19.151543],[-70.117714,19.150862],[-70.113716,19.151947],[-70.106262,19.152237],[-70.103767,19.151213],[-70.10215,19.147589],[-70.09687,19.144979],[-70.092148,19.146078],[-70.085388,19.146591],[-70.082504,19.147884],[-70.080116,19.15078],[-70.07795,19.151417],[-70.075966,19.14959],[-70.074944,19.14621],[-70.073112,19.143562],[-70.071159,19.146074],[-70.070015,19.151764],[-70.070091,19.160191],[-70.070442,19.162397],[-70.073196,19.16721],[-70.075073,19.168579],[-70.078659,19.169626],[-70.080643,19.171127],[-70.081871,19.173389],[-70.082848,19.177616],[-70.078125,19.186243],[-70.072212,19.192266],[-70.070389,19.195093],[-70.070961,19.19932],[-70.080521,19.204638],[-70.085205,19.207993],[-70.088684,19.208447],[-70.091278,19.207666],[-70.095886,19.203382],[-70.099861,19.202953],[-70.102837,19.205791],[-70.102417,19.213385],[-70.097603,19.222958],[-70.096191,19.228029],[-70.094513,19.230387],[-70.088921,19.236334],[-70.088173,19.238955],[-70.088638,19.242172],[-70.089905,19.24468],[-70.089996,19.246815],[-70.086044,19.250565],[-70.085068,19.255045],[-70.085625,19.25878]]]}},
{"type":"Feature","id":"DOM:ADM2:DO-06.san-francisco-de-macoris","properties":{"shapeName":"San Francisco de Macorís","shapeISO":"","shapeGroup":"DOM","shapeType":"ADM2","adm1ISO":"DO-06","parentISO":"DO-06","parentID":"DOM:ADM1:DO-06","src_shape_id":"3306468B54253052941239"},"geometry":{"type":"Polygon","coordinates":[[[-70.019966,19.275494],[-70.018906,19.281179],[-70.014145,19.287258],[-70.012321,19.291059],[-70.012115,19.293251],[-70.015549,19.297987],[-70.016701,19.303528],[-70.016273,19.316019],[-70.02121,19.317844],[-70.030563,19.318617],[-70.03476,19.320362],[-70.040138,19.32168],[-70.043655,19.323271],[-70.048393,19.324352],[-70.052582,19.32613],[-70.057976,19.327415],[-70.069908,19.333038],[-70.07869,19.337376],[-70.081383,19.338051],[-70.090729,19.338823],[-70.096695,19.341478],[-70.099342,19.344213],[-70.099586,19.348812],[-70.097496,19.353342],[-70.09623,19.357784],[-70.094528,19.360138],[-70.088959,19.366087],[-70.087967,19.370237],[-70.087944,19.377539],[-70.087357,19.380341],[-70.084091,19.38434],[-70.077026,19.389769],[-70.076279,19.391405],[-70.075401,19.399912],[-70.074638,19.404112],[-70.075592,19.406836],[-70.076363,19.419146],[-70.07975,19.424667],[-70.0821,19.424955],[-70.087463,19.423056],[-70.092133,19.423138],[-70.094902,19.424246],[-70.098297,19.426865],[-70.101608,19.428448],[-70.106194,19.42886],[-70.110329,19.428085],[-70.112579,19.423815],[-70.114944,19.421436],[-70.117683,19.420933],[-70.120979,19.422276],[-70.129158,19.423136],[-70.13176,19.423986],[-70.134224,19.427311],[-70.135574,19.43111],[-70.135696,19.435547],[-70.135155,19.439163],[-70.133759,19.44162],[-70.130615,19.445395],[-70.12796,19.450392],[-70.124542,19.456606],[-70.123589,19.461525],[-70.123474,19.469866],[-70.123802,19.475029],[-70.124603,19.476954],[-70.126953,19.479065],[-70.129944,19.480352],[-70.134567,19.483185],[-70.135551,19.486256],[-70.13559,19.492733],[-70.13633,19.496891],[-70.139229,19.502491],[-70.142426,19.504688],[-70.145195,19.504885],[-70.152657,19.502558],[-70.156097,19.502897],[-70.159607,19.504381],[-70.170197,19.505661],[-70.174454,19.507359],[-70.178909,19.50798],[-70.188065,19.508505],[-70.194939,19.51255],[-70.201134,19.50861],[-70.206429,19.506254],[-70.210297,19.506281],[-70.214462,19.507856],[-70.219398,19.508501],[-70.225708,19.510687],[-70.23336,19.511278],[-70.237526,19.512402],[-70.240921,19.514408],[-70.245102,19.508259],[-70.246819,19.504389],[-70.246979,19.502235],[-70.244583,19.498821],[-70.244537,19.495461],[-70.250565,19.487938],[-70.251511,19.482529],[-70.253609,19.478668],[-70.256134,19.477566],[-70.259872,19.477312],[-70.267601,19.477474],[-70.271317,19.478031],[-70.276543,19.481562],[-70.27903,19.482695],[-70.282356,19.48204],[-70.291786,19.475779],[-70.292557,19.472778],[-70.291344,19.470444],[-70.288567,19.467348],[-70.287216,19.464203],[-70.287567,19.458773],[-70.291794,19.453545],[-70.292046,19.450172],[-70.289124,19.449261],[-70.285095,19.449844],[-70.281326,19.451532],[-70.279083,19.451075],[-70.278084,19.446268],[-70.276344,19.444092],[-70.273987,19.443996],[-70.266823,19.448536],[-70.262848,19.448629],[-70.259064,19.446648],[-70.257271,19.444124],[-70.257736,19.439415],[-70.261032,19.438822],[-70.264786,19.440245],[-70.267303,19.439789],[-70.27211,19.437738],[-70.276505,19.434032],[-70.277832,19.431519],[-70.278244,19.424465],[-70.279228,19.422148],[-70.280869,19.421373],[-70.285469,19.420944],[-70.288124,19.419991],[-70.291344,19.417139],[-70.294067,19.410912],[-70.297974,19.408058],[-70.30146,19.404202],[-70.302986,19.401291],[-70.306946,19.396315],[-70.309715,19.391678],[-70.312973,19.388891],[-70.31884,19.386715],[-70.319893,19.383753],[-70.319893,19.376528],[-70.320404,19.373697],[-70.323303,19.369154],[-70.327209,19.367502],[-70.32785,19.364492],[-70.324326,19.357744],[-70.32515,19.354446],[-70.327652,19.351305],[-70.329224,19.346258],[-70.331078,19.342287],[-70.33213,19.337746],[-70.334534,19.33091],[-70.336578,19.328997],[-70.339005,19.329716],[-70.341408,19.332092],[-70.343796,19.335594],[-70.347252,19.336102],[-70.352539,19.331396],[-70.351089,19.327927],[-70.34584,19.324545],[-70.343773,19.320677],[-70.344208,19.317453],[-70.345879,19.31366],[-70.345619,19.311216],[-70.34391,19.306576],[-70.343391,19.302538],[-70.341003,19.296623],[-70.340576,19.29258],[-70.341209,19.289246],[-70.342842,19.286919],[-70.350243,19.279778],[-70.35302,19.276228],[-70.355988,19.274158],[-70.36055,19.269781],[-70.3666,19.258516],[-70.367432,19.253231],[-70.367065,19.250532],[-70.36525,19.246523],[-70.364273,19.242739],[-70.36161,19.239321],[-70.358109,19.23823],[-70.355858,19.236387],[-70.355362,19.233067],[-70.355492,19.224228],[-70.35553,19.213009],[-70.354935,19.210346],[-70.35244,19.20701],[-70.346375,19.202103],[-70.337288,19.197851],[-70.332634,19.194431],[-70.327545,19.191404],[-70.326187,19.189278],[-70.325279,19.18549],[-70.320862,19.179209],[-70.31897,19.175669],[-70.316597,19.172979],[-70.313683,19.170845],[-70.307678,19.168144],[-70.30246,19.166195],[-70.299294,19.162722],[-70.292847,19.159594],[-70.288765,19.158737],[-70.285065,19.15683],[-70.28083,19.153019],[-70.277275,19.150854],[-70.275253,19.150417],[-70.274223,19.152254],[-70.270287,19.154268],[-70.268234,19.156811],[-70.266312,19.157999],[-70.263634,19.157385],[-70.260727,19.154257],[-70.257561,19.153812],[-70.251472,19.155914],[-70.248497,19.155897],[-70.249908,19.159388],[-70.253578,19.162376],[-70.256607,19.166866],[-70.260902,19.175507],[-70.264748,19.182285],[-70.268806,19.187958],[-70.269806,19.191778],[-70.274338,19.197992],[-70.277534,19.2036],[-70.278282,19.207485],[-70.277115,19.210539],[-70.273643,19.2124],[-70.269516,19.211948],[-70.265366,19.210089],[-70.259262,19.209505],[-70.244392,19.20927],[-70.242294,19.209465],[-70.239777,19.211422],[-70.23938,19.214788],[-70.239662,19.223082],[-70.239212,19.228237],[-70.238235,19.230188],[-70.235199,19.233459],[-70.225677,19.24235],[-70.221535,19.245523],[-70.215569,19.248226],[-70.211029,19.248795],[-70.199135,19.24865],[-70.192291,19.249338],[-70.188225,19.250835],[-70.185051,19.250284],[-70.176331,19.246126],[-70.166481,19.243465],[-70.163025,19.244604],[-70.160034,19.243464],[-70.15712,19.244886],[-70.154327,19.248009],[-70.152473,19.25139],[-70.150002,19.253332],[-70.144051,19.254093],[-70.140747,19.255232],[-70.139107,19.25712],[-70.137573,19.262711],[-70.135033,19.26778],[-70.132294,19.270367],[-70.121078,19.275639],[-70.115623,19.275974],[-70.111481,19.274235],[-70.108498,19.273642],[-70.095833,19.273581],[-70.093681,19.27334],[-70.091179,19.271511],[-70.089912,19.267517],[-70.085625,19.25878],[-70.079262,19.259739],[-70.07489,19.262041],[-70.073174,19.264385],[-70.070763,19.270697],[-70.069466,19.275839],[-70.067612,19.2798],[-70.066528,19.284309],[-70.064964,19.287676],[-70.063713,19.292747],[-70.062119,19.294706],[-70.059677,19.295715],[-70.057083,19.295502],[-70.051323,19.290565],[-70.046661,19.289413],[-70.043114,19.287893],[-70.039055,19.286993],[-70.035217,19.284962],[-70.028915,19.279581],[-70.019966,19.275494]]]}},
{"type":"Feature","id":"DOM:ADM2:DO-06.villa-rivas","properties":{"shapeName":"Villa Rivas","shapeISO":"","shapeGroup":"DOM","shapeType":"ADM2","adm1ISO":"DO-06","parentISO":"DO-06","parentID":"DOM:ADM1:DO-06","src_shape_id":"3306468B95722442714869"},"geometry":{"type":"Polygon","coordinates":[[[-69.881523,19.227346],[-69.884811,19.22753],[-69.887093,19.228746],[-69.890625,19.23419],[-69.895088,19.239941],[-69.899483,19.241304],[-69.907127,19.24118],[-69.911583,19.241613],[-69.914268,19.243471],[-69.915909,19.248856],[-69.917664,19.25145],[-69.920822,19.252642],[-69.924278,19.252127],[-69.928818,19.248777],[-69.931313,19.247473],[-69.93679,19.247839],[-69.948608,19.253622],[-69.953979,19.256536],[-69.954239,19.250763],[-69.954842,19.247435],[-69.956192,19.244652],[-69.957581,19.237795],[-69.958572,19.236359],[-69.964264,19.231804],[-69.969543,19.22315],[-69.974449,19.218866],[-69.977356,19.213264],[-69.978836,19.207525],[-69.981842,19.201998],[-69.983704,19.20031],[-69.987328,19.198622],[-69.991142,19.195477],[-69.992195,19.193708],[-69.99202,19.190544],[-69.987335,19.181669],[-69.986702,19.174156],[-69.987488,19.171486],[-69.991325,19.1633],[-69.995247,19.159729],[-69.995834,19.15782],[-69.995682,19.153975],[-69.994804,19.152439],[-69.990959,19.150629],[-69.990349,19.146688],[-69.991898,19.14353],[-69.992195,19.140411],[-69.989288,19.136707],[-69.986862,19.135746],[-69.982918,19.136887],[-69.976845,19.137354],[-69.972298,19.136723],[-69.966721,19.134743],[-69.960457,19.133709],[-69.957176,19.131582],[-69.957176,19.128763],[-69.967903,19.128954],[-69.973419,19.12817],[-69.975845,19.124838],[-69.978073,19.123667],[-69.982826,19.122364],[-69.983994,19.119385],[-69.983383,19.115072],[-69.98172,19.111744],[-69.981071,19.107193],[-69.981339,19.103476],[-69.972824,19.103516],[-69.96637,19.102768],[-69.96209,19.101038],[-69.958908,19.10059],[-69.948166,19.100241],[-69.944588,19.100569],[-69.942932,19.102373],[-69.94606,19.111464],[-69.947762,19.114717],[-69.948051,19.117805],[-69.946243,19.120134],[-69.93856,19.122566],[-69.935837,19.12224],[-69.928436,19.119265],[-69.927406,19.116241],[-69.927467,19.109818],[-69.926842,19.106333],[-69.92424,19.103559],[-69.919525,19.101355],[-69.915298,19.100372],[-69.907616,19.099806],[-69.903305,19.098188],[-69.897552,19.09734],[-69.895294,19.095963],[-69.894562,19.093485],[-69.894814,19.085583],[-69.895599,19.082916],[-69.900215,19.074621],[-69.902878,19.069016],[-69.902145,19.063576],[-69.903549,19.056995],[-69.903885,19.050322],[-69.904648,19.046804],[-69.886269,19.046604],[-69.879517,19.045633],[-69.870171,19.041079],[-69.867523,19.040915],[-69.864845,19.042419],[-69.862457,19.046532],[-69.862114,19.049881],[-69.862801,19.052464],[-69.865639,19.057428],[-69.869446,19.060837],[-69.870117,19.063395],[-69.868156,19.069241],[-69.868103,19.073772],[-69.86869,19.077379],[-69.870224,19.080065],[-69.869827,19.082308],[-69.868279,19.083183],[-69.861359,19.08457],[-69.85569,19.083008],[-69.854126,19.082087],[-69.85305,19.077015],[-69.85128,19.074839],[-69.848915,19.07481],[-69.84388,19.079412],[-69.8386,19.080849],[-69.83506,19.082348],[-69.830223,19.082523],[-69.82637,19.081341],[-69.823921,19.081566],[-69.819168,19.079115],[-69.816887,19.078541],[-69.812912,19.07958],[-69.808823,19.07921],[-69.80471,19.077415],[-69.800552,19.077341],[-69.797028,19.080059],[-69.794357,19.085745],[-69.793159,19.090816],[-69.79155,19.092756],[-69.788368,19.093815],[-69.784988,19.093304],[-69.78167,19.09178],[-69.779007,19.091784],[-69.7771,19.092779],[-69.772202,19.097254],[-69.769737,19.09874],[-69.766426,19.098595],[-69.758377,19.094578],[-69.751678,19.093616],[-69.739021,19.093603],[-69.732803,19.094154],[-69.724876,19.097017],[-69.720177,19.099861],[-69.71933,19.10166],[-69.719368,19.107832],[-69.72081,19.109903],[-69.724983,19.111149],[-69.7295,19.114594],[-69.731056,19.116903],[-69.73777,19.130035],[-69.74292,19.136732],[-69.74527,19.141239],[-69.746117,19.14724],[-69.749084,19.150078],[-69.75679,19.150164],[-69.75946,19.150852],[-69.761192,19.153831],[-69.762848,19.155005],[-69.765137,19.154436],[-69.770699,19.1509],[-69.773315,19.151096],[-69.776794,19.152521],[-69.781479,19.15374],[-69.785751,19.155558],[-69.79303,19.156147],[-69.798576,19.155602],[-69.801285,19.153913],[-69.803047,19.151758],[-69.805328,19.15061],[-69.81469,19.150204],[-69.818306,19.15069],[-69.820374,19.153257],[-69.820305,19.159782],[-69.820839,19.163002],[-69.824112,19.163822],[-69.828903,19.162079],[-69.832962,19.161774],[-69.839478,19.162197],[-69.842194,19.163363],[-69.845337,19.165678],[-69.848167,19.165886],[-69.852867,19.160145],[-69.856354,19.159109],[-69.862564,19.159245],[-69.864799,19.159756],[-69.870842,19.162437],[-69.875633,19.165247],[-69.877197,19.168846],[-69.877182,19.172987],[-69.87606,19.175362],[-69.874275,19.176064],[-69.871101,19.1756],[-69.86795,19.173998],[-69.865433,19.173922],[-69.863609,19.175295],[-69.863342,19.177382],[-69.864632,19.181309],[-69.865829,19.190006],[-69.867432,19.193283],[-69.867744,19.195742],[-69.866913,19.197847],[-69.862755,19.20014],[-69.861862,19.204123],[-69.861893,19.211622],[-69.862625,19.214214],[-69.864639,19.215607],[-69.868279,19.21661],[-69.873688,19.219007],[-69.877174,19.221619],[-69.881523,19.227346]]]}}
]}