{"type":"FeatureCollection","bbox":[-71.879333,18.652674,-71.30677,19.27688],"features":[
{"type":"Feature","id":"DOM:ADM2:DO-07.banica","properties":{"shapeName":"Banica","shapeISO":"","shapeGroup":"DOM","shapeType":"ADM2","adm1ISO":"DO-07","parentISO":"DO-07","parentID":"DOM:ADM1:DO-07","src_shape_id":"3306468B73916150464178"},"geometry":{"type":"Polygon","coordinates":[[[-71.636742,18.938591],[-71.633774,18.941393],[-71.628036,18.941935],[-71.62088,18.944448],[-71.619263,18.946033],[-71.618141,18.949385],[-71.615608,18.951967],[-71.610931,18.955133],[-71.606468,18.963556],[-71.603271,18.967413],[-71.59552,18.974161],[-71.582977,18.979967],[-71.580193,18.980431],[-71.572983,18.980732],[-71.569016,18.982601],[-71.564201,18.987343],[-71.562737,18.990503],[-71.562233,18.994955],[-71.560638,18.997385],[-71.556915,18.999481],[-71.553482,19.000206],[-71.54763,19.000072],[-71.544853,18.999491],[-71.541351,18.99789],[-71.535484,18.997175],[-71.524727,18.997177],[-71.518791,18.996599],[-71.515335,18.995115],[-71.51207,18.994946],[-71.508987,18.996826],[-71.497337,19.007769],[-71.49543,19.010496],[-71.495689,19.012724],[-71.499603,19.020412],[-71.500092,19.027279],[-71.499374,19.030605],[-71.494629,19.036682],[-71.49192,19.041716],[-71.491035,19.046494],[-71.490921,19.062851],[-71.503563,19.060471],[-71.506393,19.06233],[-71.511429,19.066648],[-71.514183,19.067417],[-71.517624,19.067019],[-71.521713,19.065252],[-71.525887,19.065184],[-71.531418,19.068117],[-71.53537,19.072493],[-71.538673,19.073481],[-71.542969,19.073301],[-71.545029,19.072557],[-71.553108,19.065979],[-71.556763,19.065083],[-71.565109,19.064381],[-71.568016,19.063097],[-71.572113,19.062334],[-71.577042,19.062901],[-71.582603,19.06489],[-71.587524,19.065462],[-71.592545,19.068359],[-71.600716,19.076271],[-71.603638,19.078571],[-71.610252,19.081682],[-71.615646,19.082964],[-71.624481,19.087172],[-71.631218,19.088112],[-71.661491,19.088175],[-71.668457,19.088703],[-71.672684,19.090464],[-71.67617,19.091074],[-71.685905,19.091642],[-71.691734,19.092617],[-71.692909,19.093372],[-71.693245,19.092186],[-71.697998,19.089067],[-71.700691,19.089064],[-71.705406,19.090221],[-71.708145,19.087494],[-71.708138,19.082829],[-71.704605,19.080893],[-71.698715,19.080906],[-71.697144,19.078962],[-71.701843,19.073513],[-71.706177,19.069372],[-71.710129,19.067223],[-71.711205,19.070635],[-71.716225,19.071112],[-71.716751,19.068817],[-71.714783,19.067656],[-71.712029,19.067659],[-71.712029,19.06501],[-71.713989,19.062996],[-71.716446,19.063084],[-71.71666,19.060036],[-71.71933,19.059061],[-71.723389,19.056368],[-71.725548,19.055649],[-71.723335,19.053602],[-71.732491,19.049965],[-71.73761,19.046652],[-71.740509,19.043301],[-71.742805,19.044163],[-71.746735,19.047102],[-71.749481,19.047272],[-71.750443,19.045431],[-71.754356,19.043482],[-71.759842,19.038803],[-71.756302,19.034147],[-71.757088,19.031424],[-71.76033,19.029903],[-71.761116,19.027336],[-71.764725,19.026207],[-71.765762,19.026812],[-71.768005,19.031788],[-71.77047,19.031725],[-71.778641,19.022057],[-71.777069,19.020115],[-71.773148,19.020123],[-71.771179,19.017406],[-71.773918,19.015457],[-71.778625,19.014282],[-71.780594,19.016224],[-71.786469,19.011547],[-71.787247,19.008047],[-71.787239,19.004936],[-71.782524,19.001446],[-71.783302,18.997557],[-71.786751,18.996775],[-71.787819,18.994133],[-71.791656,18.992855],[-71.794464,18.994663],[-71.796059,18.994511],[-71.79818,18.99637],[-71.796463,18.992735],[-71.791176,18.987289],[-71.789101,18.984291],[-71.78833,18.979256],[-71.787399,18.977098],[-71.783783,18.975992],[-71.774628,18.976082],[-71.767822,18.975353],[-71.764397,18.97394],[-71.761749,18.97389],[-71.751663,18.97718],[-71.748444,18.980045],[-71.742958,18.990253],[-71.741608,18.991583],[-71.73674,18.99288],[-71.726387,18.992546],[-71.722725,18.992743],[-71.720505,18.994144],[-71.719864,19.000713],[-71.719063,19.003153],[-71.714394,19.005978],[-71.708336,19.007263],[-71.703972,19.009542],[-71.702301,19.012577],[-71.701653,19.017639],[-71.698326,19.02037],[-71.695198,19.019571],[-71.691872,19.015619],[-71.689232,19.013741],[-71.684219,19.009201],[-71.681107,19.007336],[-71.679115,19.007208],[-71.675301,19.008682],[-71.672104,19.00843],[-71.670227,19.006767],[-71.669235,19.002775],[-71.669403,18.992685],[-71.670326,18.990295],[-71.674492,18.987844],[-71.680374,18.986589],[-71.68264,18.985388],[-71.684013,18.982574],[-71.683136,18.980169],[-71.68119,18.978559],[-71.676476,18.976521],[-71.673233,18.976067],[-71.668549,18.977774],[-71.66375,18.977615],[-71.66024,18.976114],[-71.651871,18.97526],[-71.64827,18.974487],[-71.636444,18.968927],[-71.634491,18.966564],[-71.634293,18.964666],[-71.635918,18.960855],[-71.636841,18.952942],[-71.637634,18.949556],[-71.639427,18.94581],[-71.639099,18.940613],[-71.636742,18.938591]]]}},
{"type":"Feature","id":"DOM:ADM2:DO-07.comendador","properties":{"shapeName":"Comendador\r\n","shapeISO":"","shapeGroup":"DOM","shapeType":"ADM2","adm1ISO":"DO-07","parentISO":"DO-07","parentID":"DOM:ADM1:DO-07","src_shape_id":"3306468B70878351440693"},"geometry":{"type":"MultiPolygon","coordinates":[[[[-71.79818,18.99637],[-71.796227,18.999641],[-71.797195,19.003567],[-71.79911,19.005079],[-71.802139,19.002188],[-71.805351,19.001545],[-71.804634,18.999264],[-71.806152,18.998287],[-71.81031,18.997908],[-71.814392,18.996019],[-71.819183,18.996851],[-71.826149,18.99345],[-71.829033,18.995495],[-71.830521,19.004078],[-71.834641,19.003111],[-71.834961,19.000759],[-71.839012,18.999397],[-71.840965,18.994728],[-71.846458,18.996662],[-71.848419,18.996658],[-71.847626,18.990829],[-71.852325,18.986155],[-71.852318,18.983435],[-71.851135,18.981493],[-71.853874,18.979933],[-71.85836,18.976471],[-71.862282,18.977629],[-71.862442,18.978758],[-71.871918,18.975231],[-71.871902,18.97135],[-71.869949,18.96863],[-71.869934,18.963964],[-71.871109,18.961243],[-71.874634,18.96007],[-71.874817,18.958162],[-71.878555,18.956562],[-71.879333,18.954618],[-71.879318,18.950731],[-71.878532,18.946066],[-71.876343,18.945513],[-71.876183,18.948372],[-71.872772,18.947994],[-71.871872,18.948801],[-71.871086,18.952686],[-71.864418,18.949982],[-71.856972,18.950773],[-71.856979,18.956602],[-71.858551,18.958155],[-71.857773,18.962044],[-71.855812,18.962826],[-71.856995,18.966711],[-71.855034,18.966713],[-71.850319,18.961281],[-71.848495,18.963438],[-71.846176,18.962532],[-71.844437,18.964014],[-71.845619,18.96673],[-71.842407,18.96616],[-71.840012,18.966906],[-71.839531,18.969234],[-71.836212,18.970634],[-71.835037,18.973358],[-71.832291,18.974142],[-71.828751,18.966763],[-71.824829,18.96949],[-71.822876,18.972216],[-71.820129,18.971441],[-71.820122,18.96678],[-71.813454,18.966789],[-71.811493,18.96874],[-71.809929,18.96874],[-71.807961,18.966803],[-71.807953,18.962915],[-71.804031,18.964087],[-71.801285,18.962151],[-71.798531,18.961378],[-71.799316,18.958263],[-71.797356,18.958269],[-71.794609,18.960217],[-71.79187,18.960224],[-71.791855,18.957502],[-71.789894,18.95673],[-71.787949,18.961397],[-71.786377,18.962179],[-71.784409,18.960238],[-71.779709,18.959471],[-71.776955,18.958309],[-71.778519,18.952085],[-71.773788,18.941599],[-71.772209,18.934217],[-71.769066,18.92878],[-71.767479,18.922951],[-71.763535,18.910912],[-71.756081,18.910145],[-71.742729,18.900841],[-71.739189,18.896959],[-71.734474,18.895025],[-71.731331,18.889589],[-71.732491,18.882204],[-71.728577,18.881044],[-71.721901,18.881058],[-71.718376,18.884951],[-71.717201,18.883011],[-71.720329,18.879114],[-71.720322,18.873672],[-71.721092,18.868229],[-71.721069,18.853069],[-71.720284,18.851128],[-71.721054,18.845682],[-71.720268,18.84374],[-71.715546,18.837143],[-71.717102,18.829754],[-71.717079,18.818901],[-71.711105,18.821983],[-71.706207,18.825106],[-71.703674,18.825729],[-71.700768,18.824459],[-71.697884,18.819866],[-71.696457,18.818624],[-71.691383,18.817507],[-71.681023,18.817375],[-71.677483,18.817804],[-71.675423,18.820644],[-71.674614,18.825594],[-71.672607,18.827906],[-71.669281,18.829691],[-71.666962,18.832546],[-71.665771,18.836924],[-71.661522,18.842024],[-71.65728,18.845093],[-71.654175,18.846336],[-71.649452,18.849127],[-71.648453,18.853718],[-71.649551,18.857117],[-71.656593,18.862331],[-71.657753,18.865646],[-71.657661,18.871248],[-71.655457,18.873716],[-71.652596,18.874018],[-71.648254,18.87307],[-71.639465,18.868654],[-71.635712,18.86797],[-71.6297,18.86834],[-71.626152,18.870853],[-71.633606,18.874146],[-71.637131,18.876692],[-71.63929,18.879492],[-71.639725,18.88142],[-71.638908,18.884384],[-71.632889,18.887501],[-71.628082,18.888395],[-71.620895,18.890837],[-71.619019,18.892969],[-71.617943,18.896441],[-71.615364,18.901541],[-71.608002,18.909815],[-71.606926,18.914743],[-71.606796,18.927464],[-71.607948,18.931898],[-71.611115,18.932915],[-71.620888,18.933308],[-71.627197,18.935434],[-71.633461,18.936466],[-71.636742,18.938591],[-71.639099,18.940613],[-71.639427,18.94581],[-71.637634,18.949556],[-71.636841,18.952942],[-71.635918,18.960855],[-71.634293,18.964666],[-71.634491,18.966564],[-71.636444,18.968927],[-71.64827,18.974487],[-71.651871,18.97526],[-71.66024,18.976114],[-71.66375,18.977615],[-71.668549,18.977774],[-71.673233,18.976067],[-71.676476,18.976521],[-71.68119,18.978559],[-71.683136,18.980169],[-71.684013,18.982574],[-71.68264,18.985388],[-71.680374,18.986589],[-71.674492,18.987844],[-71.670326,18.990295],[-71.669403,18.992685],[-71.669235,19.002775],[-71.670227,19.006767],[-71.672104,19.00843],[-71.675301,19.008682],[-71.679115,19.007208],[-71.681107,19.007336],[-71.684219,19.009201],[-71.689232,19.013741],[-71.691872,19.015619],[-71.695198,19.019571],[-71.698326,19.02037],[-71.701653,19.017639],[-71.702301,19.012577],[-71.703972,19.009542],[-71.708336,19.007263],[-71.714394,19.005978],[-71.719063,19.003153],[-71.719864,19.000713],[-71.720505,18.994144],[-71.722725,18.992743],[-71.726387,18.992546],[-71.73674,18.99288],[-71.741608,18.991583],[-71.742958,18.990253],[-71.748444,18.980045],[-71.751663,18.97718],[-71.761749,18.97389],[-71.764397,18.97394],[-71.767822,18.975353],[-71.774628,18.976082],[-71.783783,18.975992],[-71.787399,18.977098],[-71.78833,18.979256],[-71.789101,18.984291],[-71.791176,18.987289],[-71.796463,18.992735],[-71.79818,18.99637]]],[[[-71.862442,18.978758],[-71.863022,18.983084],[-71.864479,18.982634],[-71.862442,18.978758]]]]}},
{"type":"Feature","id":"DOM:ADM2:DO-07.el-llano","properties":{"shapeName":"El Llano","shapeISO":"","shapeGroup":"DOM","shapeType":"ADM2","adm1ISO":"DO-07","parentISO":"DO-07","parentID":"DOM:ADM1:DO-07","src_shape_id":"3306468B67891946517614"},"geometry":{"type":"Polygon","coordinates":[[[-71.717079,18.818901],[-71.717064,18.808372],[-71.723671,18.775709],[-71.726768,18.758564],[-71.70163,18.75852],[-71.697136,18.758062],[-71.678581,18.749353],[-71.66925,18.744591],[-71.664604,18.742758],[-71.662926,18.742626],[-71.658226,18.743919],[-71.653946,18.743938],[-71.642136,18.739689],[-71.642616,18.743317],[-71.642693,18.749599],[-71.640892,18.753956],[-71.636421,18.758215],[-71.635109,18.760204],[-71.635757,18.762333],[-71.640633,18.764124],[-71.642609,18.766136],[-71.645187,18.77293],[-71.643517,18.777111],[-71.637688,18.783131],[-71.632835,18.792265],[-71.62928,18.796667],[-71.626175,18.801514],[-71.623901,18.802811],[-71.619652,18.803228],[-71.612961,18.803062],[-71.612625,18.807158],[-71.611458,18.811529],[-71.612396,18.816347],[-71.611214,18.818741],[-71.609177,18.820694],[-71.602097,18.823645],[-71.601189,18.825335],[-71.600876,18.829552],[-71.600952,18.8379],[-71.601707,18.842257],[-71.603859,18.84506],[-71.609016,18.848963],[-71.610176,18.854082],[-71.610023,18.85848],[-71.609077,18.862579],[-71.607018,18.868294],[-71.606705,18.874401],[-71.607811,18.878342],[-71.610229,18.879219],[-71.6147,18.877605],[-71.619102,18.873562],[-71.6222,18.871536],[-71.626152,18.870853],[-71.6297,18.86834],[-71.635712,18.86797],[-71.639465,18.868654],[-71.648254,18.87307],[-71.652596,18.874018],[-71.655457,18.873716],[-71.657661,18.871248],[-71.657753,18.865646],[-71.656593,18.862331],[-71.649551,18.857117],[-71.648453,18.853718],[-71.649452,18.849127],[-71.654175,18.846336],[-71.65728,18.845093],[-71.661522,18.842024],[-71.665771,18.836924],[-71.666962,18.832546],[-71.669281,18.829691],[-71.672607,18.827906],[-71.674614,18.825594],[-71.675423,18.820644],[-71.677483,18.817804],[-71.681023,18.817375],[-71.691383,18.817507],[-71.696457,18.818624],[-71.697884,18.819866],[-71.700768,18.824459],[-71.703674,18.825729],[-71.706207,18.825106],[-71.711105,18.821983],[-71.717079,18.818901]]]}},
{"type":"Feature","id":"DOM:ADM2:DO-07.hondo-valle","properties":{"shapeName":"Hondo Valle","shapeISO":"","shapeGroup":"DOM","shapeType":"ADM2","adm1ISO":"DO-07","parentISO":"DO-07","parentID":"DOM:ADM1:DO-07","src_shape_id":"3306468B67030502759571"},"geometry":{"type":"Polygon","coordinates":[[[-71.678917,18.660934],[-71.672775,18.664349],[-71.669075,18.665159],[-71.654381,18.665134],[-71.648911,18.664398],[-71.643188,18.662346],[-71.637779,18.66217],[-71.634064,18.662834],[-71.626961,18.666117],[-71.624855,18.667747],[-71.627823,18.670586],[-71.627312,18.67532],[-71.625565,18.679306],[-71.624161,18.690046],[-71.622841,18.692833],[-71.620949,18.701883],[-71.616821,18.70966],[-71.615875,18.714581],[-71.615761,18.725115],[-71.616005,18.727158],[-71.61792,18.729609],[-71.624306,18.731871],[-71.62764,18.731926],[-71.629555,18.730888],[-71.634438,18.726389],[-71.636909,18.724857],[-71.640869,18.725149],[-71.64431,18.727238],[-71.644821,18.730509],[-71.643127,18.734259],[-71.642136,18.739689],[-71.653946,18.743938],[-71.658226,18.743919],[-71.662926,18.742626],[-71.664604,18.742758],[-71.66925,18.744591],[-71.678581,18.749353],[-71.697136,18.758062],[-71.70163,18.75852],[-71.726768,18.758564],[-71.730278,18.739155],[-71.732224,18.726322],[-71.767883,18.713037],[-71.769852,18.714205],[-71.778084,18.709522],[-71.780037,18.705631],[-71.780014,18.695522],[-71.781609,18.694256],[-71.78476,18.688215],[-71.785378,18.682814],[-71.779259,18.685114],[-71.776016,18.685322],[-71.774384,18.684591],[-71.771507,18.680313],[-71.764381,18.677572],[-71.759804,18.676924],[-71.755898,18.677002],[-71.752304,18.677834],[-71.744331,18.681288],[-71.742096,18.68095],[-71.733894,18.677305],[-71.724709,18.676762],[-71.720238,18.676149],[-71.714661,18.674206],[-71.710434,18.673712],[-71.707138,18.672506],[-71.703117,18.669575],[-71.698891,18.668293],[-71.690514,18.667538],[-71.683937,18.664495],[-71.678917,18.660934]]]}},
{"type":"Feature","id":"DOM:ADM2:DO-07.juan-santiago","properties":{"shapeName":"Juan Santiago","shapeISO":"","shapeGroup":"DOM","shapeType":"ADM2","adm1ISO":"DO-07","parentISO":"DO-07","parentID":"DOM:ADM1:DO-07","src_shape_id":"3306468B19325324705004"},"geometry":{"type":"Polygon","coordinates":[[[-71.563972,18.652674],[-71.560074,18.661926],[-71.559921,18.666504],[-71.561684,18.670452],[-71.562477,18.677107],[-71.562386,18.691698],[-71.561729,18.695313],[-71.56015,18.698647],[-71.559547,18.701591],[-71.559341,18.71261],[-71.560028,18.717941],[-71.562553,18.722042],[-71.567291,18.724773],[-71.568375,18.727739],[-71.569191,18.734791],[-71.570358,18.737429],[-71.570358,18.740089],[-71.569046,18.742079],[-71.56752,18.746681],[-71.564354,18.752306],[-71.560814,18.756584],[-71.560043,18.759735],[-71.562881,18.76483],[-71.564758,18.766361],[-71.565315,18.768238],[-71.56337,18.770555],[-71.559341,18.772562],[-71.557274,18.774864],[-71.556854,18.779617],[-71.561485,18.780607],[-71.565094,18.782116],[-71.572556,18.783268],[-71.57534,18.784349],[-71.578995,18.787811],[-71.58107,18.791943],[-71.584084,18.796347],[-71.586662,18.797251],[-71.591087,18.797834],[-71.595383,18.799496],[-71.606033,18.80064],[-71.612961,18.803062],[-71.619652,18.803228],[-71.623901,18.802811],[-71.626175,18.801514],[-71.62928,18.796667],[-71.632835,18.792265],[-71.637688,18.783131],[-71.643517,18.777111],[-71.645187,18.77293],[-71.642609,18.766136],[-71.640633,18.764124],[-71.635757,18.762333],[-71.635109,18.760204],[-71.636421,18.758215],[-71.640892,18.753956],[-71.642693,18.749599],[-71.642616,18.743317],[-71.642136,18.739689],[-71.643127,18.734259],[-71.644821,18.730509],[-71.64431,18.727238],[-71.640869,18.725149],[-71.636909,18.724857],[-71.634438,18.726389],[-71.629555,18.730888],[-71.62764,18.731926],[-71.624306,18.731871],[-71.61792,18.729609],[-71.616005,18.727158],[-71.615761,18.725115],[-71.615875,18.714581],[-71.616821,18.70966],[-71.620949,18.701883],[-71.622841,18.692833],[-71.624161,18.690046],[-71.625565,18.679306],[-71.627312,18.67532],[-71.627823,18.670586],[-71.624855,18.667747],[-71.619858,18.667202],[-71.615097,18.665524],[-71.612549,18.665829],[-71.6091,18.667213],[-71.603661,18.666819],[-71.594872,18.662556],[-71.586296,18.661774],[-71.582253,18.660517],[-71.576988,18.65686],[-71.567215,18.654442],[-71.563972,18.652674]]]}},
{"type":"Feature","id":"DOM:ADM2:DO-07.pedro-santana","properties":{"shapeName":"Pedro Santana","shapeISO":"","shapeGroup":"DOM","shapeType":"ADM2","adm1ISO":"DO-07","parentISO":"DO-07","parentID":"DOM:ADM1:DO-07","src_shape_id":"3306468B44690790041357"},"geometry":{"type":"Polygon","coordinates":[[[-71.631889,19.226576],[-71.630325,19.221752],[-71.627571,19.219812],[-71.626785,19.217093],[-71.624825,19.216316],[-71.62365,19.214378],[-71.62011,19.21244],[-71.620888,19.210493],[-71.620102,19.208941],[-71.622063,19.207769],[-71.623634,19.209711],[-71.628342,19.21048],[-71.631477,19.209698],[-71.631477,19.207754],[-71.634216,19.206972],[-71.634995,19.201139],[-71.633034,19.200365],[-71.633018,19.194923],[-71.630272,19.194929],[-71.629494,19.192986],[-71.626747,19.194935],[-71.625565,19.191828],[-71.62281,19.191055],[-71.624771,19.18911],[-71.624771,19.186386],[-71.628304,19.187157],[-71.632225,19.187151],[-71.632217,19.185596],[-71.634178,19.183647],[-71.639671,19.183638],[-71.643593,19.18091],[-71.639664,19.180916],[-71.638885,19.179752],[-71.634956,19.179756],[-71.634956,19.177816],[-71.632202,19.176266],[-71.632195,19.171602],[-71.636902,19.173147],[-71.637688,19.172104],[-71.63372,19.168865],[-71.63649,19.168762],[-71.636131,19.166718],[-71.639641,19.166922],[-71.639633,19.161091],[-71.641586,19.157587],[-71.639618,19.154484],[-71.636086,19.15177],[-71.63765,19.149822],[-71.639618,19.150986],[-71.640785,19.149817],[-71.644318,19.149811],[-71.646278,19.148251],[-71.652946,19.148239],[-71.650192,19.144356],[-71.647057,19.143587],[-71.642342,19.138929],[-71.642334,19.136986],[-71.644295,19.135817],[-71.643509,19.133097],[-71.644318,19.130402],[-71.647018,19.127647],[-71.647026,19.125704],[-71.650162,19.123755],[-71.651619,19.120808],[-71.65815,19.114906],[-71.663116,19.112947],[-71.667274,19.114386],[-71.668076,19.116043],[-71.670563,19.117407],[-71.672478,19.115671],[-71.672966,19.112803],[-71.675293,19.11363],[-71.677208,19.111654],[-71.679939,19.106981],[-71.682137,19.107426],[-71.684906,19.102953],[-71.687286,19.103447],[-71.689056,19.105339],[-71.690826,19.105064],[-71.696968,19.108622],[-71.70118,19.107393],[-71.702682,19.104219],[-71.699928,19.101503],[-71.695221,19.100346],[-71.695229,19.0984],[-71.692474,19.09491],[-71.692909,19.093372],[-71.691734,19.092617],[-71.685905,19.091642],[-71.67617,19.091074],[-71.672684,19.090464],[-71.668457,19.088703],[-71.661491,19.088175],[-71.631218,19.088112],[-71.624481,19.087172],[-71.615646,19.082964],[-71.610252,19.081682],[-71.603638,19.078571],[-71.600716,19.076271],[-71.592545,19.068359],[-71.587524,19.065462],[-71.582603,19.06489],[-71.577042,19.062901],[-71.572113,19.062334],[-71.568016,19.063097],[-71.565109,19.064381],[-71.556763,19.065083],[-71.553108,19.065979],[-71.545029,19.072557],[-71.542969,19.073301],[-71.538673,19.073481],[-71.53537,19.072493],[-71.531418,19.068117],[-71.525887,19.065184],[-71.521713,19.065252],[-71.517624,19.067019],[-71.514183,19.067417],[-71.511429,19.066648],[-71.506393,19.06233],[-71.503563,19.060471],[-71.490921,19.062851],[-71.48542,19.066574],[-71.480003,19.069492],[-71.477058,19.072592],[-71.473854,19.078875],[-71.473274,19.08634],[-71.472618,19.089605],[-71.470009,19.092293],[-71.466408,19.094084],[-71.461731,19.097412],[-71.452667,19.101542],[-71.450233,19.10358],[-71.448067,19.107918],[-71.447975,19.110607],[-71.450851,19.116253],[-71.450912,19.118891],[-71.44912,19.120426],[-71.446358,19.120935],[-71.424377,19.120621],[-71.422112,19.123812],[-71.419533,19.125801],[-71.415359,19.126188],[-71.411552,19.123703],[-71.407326,19.115177],[-71.40403,19.112204],[-71.399338,19.109966],[-71.395752,19.10918],[-71.388779,19.109098],[-71.384315,19.109732],[-71.378754,19.111692],[-71.37381,19.112272],[-71.369003,19.114185],[-71.365562,19.114569],[-71.361916,19.113022],[-71.358879,19.108036],[-71.353729,19.102589],[-71.351196,19.101145],[-71.348495,19.101093],[-71.345078,19.102472],[-71.336258,19.103306],[-71.333755,19.105066],[-71.330894,19.112478],[-71.329041,19.119015],[-71.329041,19.121132],[-71.330986,19.127642],[-71.332855,19.13163],[-71.33358,19.137821],[-71.333694,19.154751],[-71.332932,19.159271],[-71.330879,19.161497],[-71.319023,19.165016],[-71.309746,19.165091],[-71.30677,19.167894],[-71.311813,19.175425],[-71.315331,19.17844],[-71.318939,19.180225],[-71.322586,19.182991],[-71.325516,19.184334],[-71.330559,19.182911],[-71.332672,19.183289],[-71.334816,19.186972],[-71.337059,19.18693],[-71.339706,19.185635],[-71.344521,19.184996],[-71.347084,19.185539],[-71.353165,19.192425],[-71.361221,19.199978],[-71.364845,19.202581],[-71.367386,19.203947],[-71.371384,19.209282],[-71.374664,19.21051],[-71.381577,19.210844],[-71.38501,19.211781],[-71.396362,19.217211],[-71.400116,19.220568],[-71.404121,19.226933],[-71.407501,19.22963],[-71.414207,19.23086],[-71.416672,19.23245],[-71.420448,19.238022],[-71.422745,19.238371],[-71.425949,19.236992],[-71.431541,19.23637],[-71.434364,19.236864],[-71.440948,19.24007],[-71.445534,19.24357],[-71.449791,19.24589],[-71.454346,19.24934],[-71.458397,19.250456],[-71.460472,19.25024],[-71.4646,19.248507],[-71.468246,19.24786],[-71.477409,19.247688],[-71.480705,19.248404],[-71.482246,19.25185],[-71.482468,19.257536],[-71.483803,19.260597],[-71.488464,19.266562],[-71.49308,19.269358],[-71.495453,19.270029],[-71.502815,19.267363],[-71.50795,19.264137],[-71.509041,19.259043],[-71.510307,19.25708],[-71.512779,19.25642],[-71.517609,19.257015],[-71.52356,19.259954],[-71.528755,19.263826],[-71.535851,19.267572],[-71.542473,19.270533],[-71.54528,19.27071],[-71.548584,19.269579],[-71.554382,19.265661],[-71.557892,19.265511],[-71.560547,19.266544],[-71.563965,19.26914],[-71.570625,19.272484],[-71.571846,19.275368],[-71.575104,19.27688],[-71.579391,19.275902],[-71.580322,19.273684],[-71.581009,19.268581],[-71.585541,19.259577],[-71.585999,19.257479],[-71.586525,19.249464],[-71.588806,19.245869],[-71.591682,19.243711],[-71.59446,19.24308],[-71.597221,19.243391],[-71.600616,19.244904],[-71.603195,19.245234],[-71.607307,19.24276],[-71.610924,19.238405],[-71.616341,19.23719],[-71.618805,19.235678],[-71.622719,19.229843],[-71.627823,19.226233],[-71.631889,19.226576]]]}}
]}