{"type":"FeatureCollection","bbox":[-71.152229,18.247917,-70.457863,18.99604], "features": [
{"type":"Feature","geometry":{"type":"Polygon","coordinates":[[[-70.64386,18.427917],[-70.643883,18.435459],[-70.644577,18.438778],[-70.649063,18.445002],[-70.650497,18.452913],[-70.652031,18.456299],[-70.653358,18.461416],[-70.65654,18.465239],[-70.65966,18.466995],[-70.663727,18.467842],[-70.670448,18.470644],[-70.676323,18.473473],[-70.679306,18.476868],[-70.679726,18.483332],[-70.678162,18.486847],[-70.672478,18.489973],[-70.670723,18.49234],[-70.671082,18.498241],[-70.674561,18.504322],[-70.678177,18.507298],[-70.67923,18.509338],[-70.678207,18.516382],[-70.679108,18.519072],[-70.678864,18.523598],[-70.676697,18.528992],[-70.676544,18.53488],[-70.677223,18.537708],[-70.681908,18.544582],[-70.682854,18.548334],[-70.68528,18.551197],[-70.687866,18.551992],[-70.694038,18.552792],[-70.696556,18.554739],[-70.702415,18.56599],[-70.703323,18.569136],[-70.706635,18.568296],[-70.715416,18.563999],[-70.720284,18.562048],[-70.727379,18.563602],[-70.732033,18.563318],[-70.735054,18.56167],[-70.740829,18.556818],[-70.743134,18.556648],[-70.745895,18.557636],[-70.75161,18.558205],[-70.756042,18.558163],[-70.759552,18.557585],[-70.764404,18.555721],[-70.771622,18.555376],[-70.774406,18.554838],[-70.780327,18.550789],[-70.783966,18.549023],[-70.788422,18.545364],[-70.806129,18.528751],[-70.80941,18.524998],[-70.810249,18.521723],[-70.810471,18.51576],[-70.8116,18.513643],[-70.816422,18.510963],[-70.819939,18.510643],[-70.822639,18.511368],[-70.828003,18.515051],[-70.833588,18.504807],[-70.834297,18.501238],[-70.834229,18.496979],[-70.833145,18.494631],[-70.826111,18.492783],[-70.820168,18.485624],[-70.813873,18.473684],[-70.813347,18.471571],[-70.813202,18.465675],[-70.814232,18.462231],[-70.818871,18.45853],[-70.814117,18.448896],[-70.813713,18.443716],[-70.81562,18.439821],[-70.816376,18.435827],[-70.816261,18.430992],[-70.814087,18.426674],[-70.80571,18.418383],[-70.801086,18.409649],[-70.795753,18.408297],[-70.789909,18.404097],[-70.783455,18.400778],[-70.780807,18.400412],[-70.778473,18.401239],[-70.777054,18.40505],[-70.774864,18.408371],[-70.770897,18.412363],[-70.769501,18.4146],[-70.769493,18.417095],[-70.770943,18.420176],[-70.770958,18.422686],[-70.768661,18.425978],[-70.762596,18.430855],[-70.755241,18.433977],[-70.751076,18.434053],[-70.74868,18.433184],[-70.744553,18.428249],[-70.739281,18.425058],[-70.736351,18.421736],[-70.735878,18.417543],[-70.736107,18.405893],[-70.736679,18.403166],[-70.738655,18.398565],[-70.739098,18.391718],[-70.739868,18.388493],[-70.748779,18.371599],[-70.752052,18.367952],[-70.756447,18.364395],[-70.760155,18.362633],[-70.765991,18.358511],[-70.780373,18.351868],[-70.783585,18.349613],[-70.783585,18.346794],[-70.782143,18.345415],[-70.778748,18.345972],[-70.776802,18.347084],[-70.767365,18.347637],[-70.765694,18.349028],[-70.763191,18.348473],[-70.75486,18.349028],[-70.751251,18.347084],[-70.746529,18.345972],[-70.744026,18.346251],[-70.740974,18.347637],[-70.739586,18.349583],[-70.729309,18.35375],[-70.724586,18.356251],[-70.723473,18.36125],[-70.720139,18.36125],[-70.717918,18.362638],[-70.71125,18.369305],[-70.709862,18.371529],[-70.708748,18.375137],[-70.707642,18.375416],[-70.704865,18.380695],[-70.702919,18.383196],[-70.703476,18.387362],[-70.706253,18.387917],[-70.705971,18.392639],[-70.708191,18.397083],[-70.706802,18.399584],[-70.709862,18.401251],[-70.709305,18.406252],[-70.710693,18.407364],[-70.710419,18.409586],[-70.705971,18.413195],[-70.703751,18.412083],[-70.701248,18.414026],[-70.697639,18.414862],[-70.693192,18.417358],[-70.692085,18.420139],[-70.689583,18.420139],[-70.69014,18.422361],[-70.69236,18.423471],[-70.692085,18.425694],[-70.688469,18.429583],[-70.684586,18.429583],[-70.681252,18.430416],[-70.676529,18.430416],[-70.672081,18.431805],[-70.665695,18.431805],[-70.66375,18.431252],[-70.660973,18.429028],[-70.656525,18.428747],[-70.655693,18.427084],[-70.652641,18.427917],[-70.64386,18.427917]]]},"properties":{"shapeName":"Azua de Compostela","shapeISO":"3306468B66909438647260","shapeGroup":"DOM","shapeType":"ADM2","src_shape_id":"3306468B66909438647260","adm1ISO":"DO-02"}},
{"type":"Feature","geometry":{"type":"Polygon","coordinates":[[[-70.64386,18.427917],[-70.640137,18.427361],[-70.638191,18.425694],[-70.635414,18.425694],[-70.62764,18.421806],[-70.62455,18.42207],[-70.621986,18.427925],[-70.618942,18.431751],[-70.617455,18.434797],[-70.616913,18.439468],[-70.616089,18.44203],[-70.611732,18.447521],[-70.609001,18.452557],[-70.608101,18.457174],[-70.608353,18.462011],[-70.610764,18.467884],[-70.610367,18.473068],[-70.60437,18.484325],[-70.600883,18.487911],[-70.599075,18.489071],[-70.587769,18.494289],[-70.584175,18.495047],[-70.569946,18.495073],[-70.563225,18.494175],[-70.55603,18.490366],[-70.549133,18.484501],[-70.540047,18.480217],[-70.53698,18.478073],[-70.533699,18.474913],[-70.531372,18.471291],[-70.530251,18.466824],[-70.528679,18.464487],[-70.524796,18.461294],[-70.519409,18.458801],[-70.514282,18.457951],[-70.492264,18.457867],[-70.492538,18.460991],[-70.494255,18.463213],[-70.49736,18.464365],[-70.501549,18.467096],[-70.503288,18.468893],[-70.504311,18.472332],[-70.503532,18.477404],[-70.501938,18.479303],[-70.498604,18.481636],[-70.496391,18.486046],[-70.497421,18.488375],[-70.501366,18.491287],[-70.503716,18.491791],[-70.519829,18.492212],[-70.522446,18.492886],[-70.524879,18.494602],[-70.53228,18.501427],[-70.535988,18.504133],[-70.539803,18.510012],[-70.541702,18.511332],[-70.545044,18.510935],[-70.546471,18.509739],[-70.549171,18.509266],[-70.551453,18.511038],[-70.552658,18.516573],[-70.556091,18.518988],[-70.558586,18.520025],[-70.562469,18.520405],[-70.573578,18.520279],[-70.575722,18.520542],[-70.578186,18.522406],[-70.579369,18.526405],[-70.582176,18.530867],[-70.585258,18.531635],[-70.595352,18.528481],[-70.599358,18.52676],[-70.601372,18.526678],[-70.604858,18.529272],[-70.608963,18.537916],[-70.611633,18.541897],[-70.617355,18.544067],[-70.619507,18.546347],[-70.619957,18.549585],[-70.618507,18.553967],[-70.62027,18.559389],[-70.628273,18.570204],[-70.633949,18.572092],[-70.641228,18.576481],[-70.649445,18.577938],[-70.651901,18.579906],[-70.653801,18.583248],[-70.658409,18.587639],[-70.661957,18.589418],[-70.664574,18.593143],[-70.66465,18.597557],[-70.661964,18.605141],[-70.661072,18.610958],[-70.658455,18.615978],[-70.653419,18.620934],[-70.652763,18.62355],[-70.652725,18.646536],[-70.653419,18.653234],[-70.657265,18.662704],[-70.665077,18.66123],[-70.670921,18.658472],[-70.673485,18.654764],[-70.673767,18.648972],[-70.673058,18.643173],[-70.671074,18.639303],[-70.670662,18.636351],[-70.671478,18.634806],[-70.67379,18.634432],[-70.676849,18.635918],[-70.68058,18.636625],[-70.684494,18.636354],[-70.693375,18.632244],[-70.69783,18.632029],[-70.705917,18.635988],[-70.710342,18.636889],[-70.715935,18.636784],[-70.719711,18.636284],[-70.713127,18.628809],[-70.710159,18.623079],[-70.709167,18.61718],[-70.708206,18.61409],[-70.703789,18.609589],[-70.702606,18.603273],[-70.701004,18.599897],[-70.699585,18.594791],[-70.697716,18.590855],[-70.697517,18.588194],[-70.698334,18.585581],[-70.703995,18.579773],[-70.705475,18.577551],[-70.704254,18.573898],[-70.703323,18.569136],[-70.702415,18.56599],[-70.696556,18.554739],[-70.694038,18.552792],[-70.687866,18.551992],[-70.68528,18.551197],[-70.682854,18.548334],[-70.681908,18.544582],[-70.677223,18.537708],[-70.676544,18.53488],[-70.676697,18.528992],[-70.678864,18.523598],[-70.679108,18.519072],[-70.678207,18.516382],[-70.67923,18.509338],[-70.678177,18.507298],[-70.674561,18.504322],[-70.671082,18.498241],[-70.670723,18.49234],[-70.672478,18.489973],[-70.678162,18.486847],[-70.679726,18.483332],[-70.679306,18.476868],[-70.676323,18.473473],[-70.670448,18.470644],[-70.663727,18.467842],[-70.65966,18.466995],[-70.65654,18.465239],[-70.653358,18.461416],[-70.652031,18.456299],[-70.650497,18.452913],[-70.649063,18.445002],[-70.644577,18.438778],[-70.643883,18.435459],[-70.64386,18.427917]]]},"properties":{"shapeName":"Estebania","shapeISO":"3306468B97025454858192","shapeGroup":"DOM","shapeType":"ADM2","src_shape_id":"3306468B97025454858192","adm1ISO":"DO-02"}},
{"type":"Feature","geometry":{"type":"Polygon","coordinates":[[[-70.657265,18.662704],[-70.661232,18.667124],[-70.671532,18.677071],[-70.673592,18.681778],[-70.67968,18.679377],[-70.682297,18.678946],[-70.684723,18.679752],[-70.685265,18.683914],[-70.683411,18.686333],[-70.680038,18.689314],[-70.67926,18.694384],[-70.678391,18.696798],[-70.675209,18.700966],[-70.671005,18.702736],[-70.668098,18.707863],[-70.668449,18.710394],[-70.67112,18.715406],[-70.676079,18.721478],[-70.678452,18.725916],[-70.678986,18.728977],[-70.677795,18.731358],[-70.674194,18.735596],[-70.671402,18.740618],[-70.670578,18.74386],[-70.670624,18.747293],[-70.671661,18.75042],[-70.674858,18.75477],[-70.680702,18.75806],[-70.682411,18.75967],[-70.685974,18.766254],[-70.688652,18.769573],[-70.690994,18.771292],[-70.694626,18.772169],[-70.704605,18.772491],[-70.710213,18.774628],[-70.714912,18.77577],[-70.719093,18.777588],[-70.724861,18.778091],[-70.729851,18.77747],[-70.739174,18.772825],[-70.743729,18.770954],[-70.746704,18.771393],[-70.75174,18.776064],[-70.753677,18.779669],[-70.75457,18.783531],[-70.756371,18.787521],[-70.757439,18.792036],[-70.760307,18.797729],[-70.762558,18.800552],[-70.766983,18.804688],[-70.76857,18.799391],[-70.770256,18.796743],[-70.771896,18.795776],[-70.774567,18.795765],[-70.77993,18.797861],[-70.789467,18.798159],[-70.792923,18.797316],[-70.798332,18.79277],[-70.800568,18.7901],[-70.807884,18.775883],[-70.810936,18.772257],[-70.817635,18.766008],[-70.82164,18.761393],[-70.824753,18.75651],[-70.82782,18.754038],[-70.832634,18.751558],[-70.839706,18.745701],[-70.843353,18.743963],[-70.848694,18.74015],[-70.851791,18.738823],[-70.856766,18.73469],[-70.857513,18.731579],[-70.855385,18.728163],[-70.851074,18.7244],[-70.845734,18.721525],[-70.843948,18.719732],[-70.843018,18.715893],[-70.842964,18.711084],[-70.842407,18.708429],[-70.840851,18.70616],[-70.836815,18.70216],[-70.834755,18.699404],[-70.833427,18.694283],[-70.831589,18.690308],[-70.830261,18.685213],[-70.824364,18.673885],[-70.820564,18.668425],[-70.817352,18.670252],[-70.814819,18.670887],[-70.812172,18.670055],[-70.805389,18.663254],[-70.800056,18.662537],[-70.797508,18.661736],[-70.793846,18.659569],[-70.792725,18.65748],[-70.791512,18.651276],[-70.788574,18.648952],[-70.784134,18.647209],[-70.780266,18.643557],[-70.771255,18.640583],[-70.769562,18.641127],[-70.768684,18.643164],[-70.767769,18.64868],[-70.764931,18.651239],[-70.760292,18.653311],[-70.756371,18.653246],[-70.752907,18.651747],[-70.748199,18.650583],[-70.744659,18.649029],[-70.736313,18.647644],[-70.730408,18.643604],[-70.726128,18.641325],[-70.719711,18.636284],[-70.715935,18.636784],[-70.710342,18.636889],[-70.705917,18.635988],[-70.69783,18.632029],[-70.693375,18.632244],[-70.684494,18.636354],[-70.68058,18.636625],[-70.676849,18.635918],[-70.67379,18.634432],[-70.671478,18.634806],[-70.670662,18.636351],[-70.671074,18.639303],[-70.673058,18.643173],[-70.673767,18.648972],[-70.673485,18.654764],[-70.670921,18.658472],[-70.665077,18.66123],[-70.657265,18.662704]]]},"properties":{"shapeName":"Guayabal","shapeISO":"3306468B24687357743066","shapeGroup":"DOM","shapeType":"ADM2","src_shape_id":"3306468B24687357743066","adm1ISO":"DO-02"}},
{"type":"Feature","geometry":{"type":"Polygon","coordinates":[[[-70.62455,18.42207],[-70.624031,18.419027],[-70.621529,18.419584],[-70.62014,18.422085],[-70.612083,18.422085],[-70.604858,18.419584],[-70.601524,18.419584],[-70.597641,18.417358],[-70.59153,18.415138],[-70.587082,18.41264],[-70.584862,18.409586],[-70.581528,18.406805],[-70.580971,18.400417],[-70.579865,18.399027],[-70.578751,18.39097],[-70.577919,18.380138],[-70.572365,18.374306],[-70.570419,18.370972],[-70.570419,18.360416],[-70.569305,18.358473],[-70.570969,18.356251],[-70.570419,18.351805],[-70.573196,18.352083],[-70.574303,18.350416],[-70.575417,18.344584],[-70.575691,18.339581],[-70.574585,18.336805],[-70.57486,18.33264],[-70.572083,18.328751],[-70.570969,18.323195],[-70.570969,18.318195],[-70.572083,18.313473],[-70.574585,18.310141],[-70.579025,18.310417],[-70.580696,18.309584],[-70.582916,18.304861],[-70.582916,18.301527],[-70.584587,18.299864],[-70.586525,18.295973],[-70.58847,18.294027],[-70.589584,18.290695],[-70.590973,18.289583],[-70.592361,18.285139],[-70.591805,18.28264],[-70.592361,18.277361],[-70.590141,18.274305],[-70.58625,18.27153],[-70.582916,18.270969],[-70.580414,18.268194],[-70.580414,18.265972],[-70.57769,18.262638],[-70.574883,18.267809],[-70.572464,18.273266],[-70.570625,18.274773],[-70.564034,18.277039],[-70.561333,18.277557],[-70.557915,18.277094],[-70.554558,18.275635],[-70.551918,18.275677],[-70.544884,18.280045],[-70.540047,18.279881],[-70.534393,18.277763],[-70.527428,18.277645],[-70.524612,18.278358],[-70.515762,18.282507],[-70.509445,18.283379],[-70.503311,18.285219],[-70.496735,18.283558],[-70.494202,18.284067],[-70.489525,18.2862],[-70.487152,18.288313],[-70.483788,18.294378],[-70.48101,18.300089],[-70.480293,18.307564],[-70.479607,18.310858],[-70.476463,18.315126],[-70.475822,18.31678],[-70.477119,18.321871],[-70.477463,18.329912],[-70.478317,18.333992],[-70.479706,18.336758],[-70.480415,18.342482],[-70.480484,18.355923],[-70.480186,18.360277],[-70.479439,18.362293],[-70.476028,18.366119],[-70.469337,18.37225],[-70.466003,18.37611],[-70.463379,18.381189],[-70.4627,18.383741],[-70.461853,18.392555],[-70.459755,18.39785],[-70.459152,18.402521],[-70.457863,18.407438],[-70.459976,18.412329],[-70.462753,18.414938],[-70.468109,18.4175],[-70.471992,18.41872],[-70.476456,18.418762],[-70.479042,18.419966],[-70.488022,18.426023],[-70.489433,18.430399],[-70.488853,18.437244],[-70.487289,18.440575],[-70.486992,18.44359],[-70.487877,18.44656],[-70.487625,18.449286],[-70.491547,18.45352],[-70.492264,18.457867],[-70.514282,18.457951],[-70.519409,18.458801],[-70.524796,18.461294],[-70.528679,18.464487],[-70.530251,18.466824],[-70.531372,18.471291],[-70.533699,18.474913],[-70.53698,18.478073],[-70.540047,18.480217],[-70.549133,18.484501],[-70.55603,18.490366],[-70.563225,18.494175],[-70.569946,18.495073],[-70.584175,18.495047],[-70.587769,18.494289],[-70.599075,18.489071],[-70.600883,18.487911],[-70.60437,18.484325],[-70.610367,18.473068],[-70.610764,18.467884],[-70.608353,18.462011],[-70.608101,18.457174],[-70.609001,18.452557],[-70.611732,18.447521],[-70.616089,18.44203],[-70.616913,18.439468],[-70.617455,18.434797],[-70.618942,18.431751],[-70.621986,18.427925],[-70.62455,18.42207]]]},"properties":{"shapeName":"Las Charcas","shapeISO":"3306468B70810914734022","shapeGroup":"DOM","shapeType":"ADM2","src_shape_id":"3306468B70810914734022","adm1ISO":"DO-02"}},
{"type":"Feature","geometry":{"type":"Polygon","coordinates":[[[-70.980286,18.507233],[-70.979187,18.503328],[-70.977592,18.499958],[-70.976517,18.495543],[-70.975098,18.49342],[-70.97216,18.491896],[-70.965919,18.491154],[-70.962524,18.49016],[-70.960297,18.490507],[-70.953362,18.493546],[-70.946457,18.494621],[-70.942535,18.496147],[-70.937927,18.499504],[-70.932632,18.502064],[-70.928543,18.502617],[-70.920959,18.500181],[-70.916695,18.49962],[-70.910591,18.49725],[-70.906265,18.497726],[-70.905708,18.501059],[-70.910622,18.505833],[-70.912125,18.510857],[-70.914383,18.516811],[-70.916985,18.520491],[-70.915268,18.52211],[-70.913147,18.521288],[-70.909286,18.518093],[-70.907402,18.517246],[-70.899223,18.515778],[-70.89492,18.514137],[-70.886902,18.513645],[-70.881912,18.514292],[-70.879807,18.515802],[-70.877319,18.520664],[-70.877007,18.522783],[-70.877892,18.525295],[-70.877121,18.531754],[-70.878662,18.535604],[-70.880623,18.538076],[-70.882469,18.538853],[-70.885612,18.538013],[-70.889854,18.532063],[-70.89312,18.53083],[-70.90435,18.530813],[-70.908218,18.531452],[-70.914253,18.534082],[-70.918968,18.536919],[-70.920425,18.541288],[-70.920372,18.548092],[-70.921051,18.553251],[-70.922897,18.557323],[-70.9235,18.561836],[-70.923378,18.565409],[-70.922073,18.568424],[-70.917778,18.570362],[-70.911217,18.570518],[-70.909416,18.571316],[-70.908409,18.573444],[-70.907814,18.577862],[-70.906143,18.581873],[-70.905098,18.591974],[-70.904152,18.593889],[-70.900551,18.597334],[-70.896225,18.599483],[-70.890976,18.603203],[-70.881317,18.607796],[-70.875504,18.611992],[-70.870773,18.614159],[-70.86763,18.61471],[-70.863846,18.613806],[-70.86068,18.614517],[-70.857544,18.614235],[-70.853973,18.612804],[-70.846931,18.612263],[-70.828476,18.612177],[-70.82238,18.611307],[-70.822166,18.621687],[-70.822395,18.626785],[-70.824677,18.632832],[-70.825821,18.640137],[-70.828674,18.64584],[-70.831413,18.649155],[-70.83783,18.655359],[-70.84063,18.658726],[-70.845039,18.661936],[-70.848305,18.662903],[-70.851089,18.662676],[-70.855194,18.660862],[-70.860374,18.660246],[-70.862938,18.66128],[-70.863747,18.663038],[-70.863831,18.668301],[-70.864731,18.670507],[-70.866402,18.671034],[-70.870705,18.669462],[-70.874794,18.669407],[-70.878319,18.670708],[-70.881493,18.670912],[-70.88549,18.669668],[-70.890877,18.671116],[-70.895607,18.671337],[-70.90007,18.670547],[-70.905632,18.67388],[-70.908859,18.673826],[-70.911705,18.672657],[-70.916145,18.672075],[-70.922226,18.672024],[-70.925911,18.670687],[-70.930672,18.662638],[-70.932304,18.66202],[-70.9347,18.663019],[-70.938965,18.666948],[-70.942825,18.668913],[-70.948555,18.669994],[-70.949806,18.671869],[-70.950455,18.67581],[-70.95327,18.67778],[-70.958611,18.678602],[-70.961555,18.679861],[-70.966675,18.680725],[-70.984734,18.680971],[-70.988403,18.680353],[-70.990448,18.67878],[-70.991646,18.674917],[-70.991631,18.67],[-70.992516,18.667562],[-70.994217,18.666666],[-70.998047,18.666712],[-70.999725,18.667627],[-71.000618,18.669853],[-71.000984,18.673658],[-71.002037,18.676205],[-71.008865,18.684061],[-71.010422,18.686993],[-71.01506,18.69142],[-71.018143,18.692911],[-71.027565,18.700314],[-71.033539,18.703133],[-71.039536,18.704615],[-71.039238,18.697966],[-71.039146,18.683407],[-71.039711,18.678493],[-71.042091,18.674355],[-71.044724,18.672901],[-71.047966,18.673326],[-71.051239,18.674868],[-71.053856,18.674845],[-71.056625,18.672628],[-71.058327,18.67034],[-71.061745,18.668119],[-71.065285,18.668081],[-71.066261,18.670277],[-71.06572,18.674786],[-71.060974,18.680908],[-71.060005,18.683495],[-71.06028,18.689438],[-71.063141,18.691532],[-71.065475,18.690607],[-71.070656,18.685139],[-71.072418,18.679422],[-71.075394,18.673101],[-71.078453,18.667515],[-71.082451,18.662579],[-71.084808,18.658512],[-71.088348,18.654123],[-71.091141,18.648048],[-71.09481,18.645447],[-71.101387,18.639505],[-71.104874,18.636946],[-71.107964,18.635504],[-71.11319,18.631756],[-71.11628,18.630301],[-71.125656,18.622929],[-71.13102,18.620453],[-71.13443,18.619759],[-71.143005,18.619081],[-71.145935,18.617807],[-71.151199,18.616888],[-71.152229,18.612011],[-71.151543,18.605913],[-71.147324,18.600315],[-71.146111,18.593767],[-71.144882,18.590811],[-71.140106,18.58777],[-71.138268,18.586075],[-71.135155,18.580559],[-71.130524,18.571308],[-71.125854,18.566868],[-71.122185,18.565077],[-71.117546,18.561644],[-71.105042,18.555393],[-71.099586,18.554985],[-71.096046,18.556469],[-71.091042,18.557344],[-71.081017,18.557425],[-71.076378,18.557718],[-71.068962,18.555777],[-71.063255,18.556387],[-71.056114,18.552011],[-71.050484,18.551243],[-71.044884,18.549303],[-71.039543,18.547901],[-71.03302,18.543571],[-71.029327,18.542904],[-71.020859,18.542688],[-71.018059,18.541994],[-70.997406,18.531902],[-70.990738,18.529001],[-70.986671,18.528097],[-70.97551,18.521276],[-70.974075,18.519104],[-70.97361,18.515081],[-70.974075,18.512407],[-70.975975,18.50976],[-70.980286,18.507233]]]},"properties":{"shapeName":"Las Yayas de Viajama","shapeISO":"3306468B57328361484840","shapeGroup":"DOM","shapeType":"ADM2","src_shape_id":"3306468B57328361484840","adm1ISO":"DO-02"}},
{"type":"Feature","geometry":{"type":"Polygon","coordinates":[[[-70.766983,18.804688],[-70.771011,18.812389],[-70.772484,18.818123],[-70.775459,18.822571],[-70.778038,18.823412],[-70.785545,18.823933],[-70.789825,18.825642],[-70.795227,18.826921],[-70.801872,18.829981],[-70.805176,18.832781],[-70.807266,18.837099],[-70.807663,18.841129],[-70.810097,18.848591],[-70.810989,18.85441],[-70.814041,18.860712],[-70.816345,18.864288],[-70.818092,18.865894],[-70.82547,18.869587],[-70.827576,18.871933],[-70.828056,18.873875],[-70.827599,18.877123],[-70.825676,18.881063],[-70.825279,18.885464],[-70.825836,18.888342],[-70.827461,18.89168],[-70.828217,18.897577],[-70.828133,18.908377],[-70.828781,18.915874],[-70.830528,18.920052],[-70.829964,18.92165],[-70.827637,18.922506],[-70.821983,18.922611],[-70.820045,18.923248],[-70.816917,18.927034],[-70.816475,18.930613],[-70.821472,18.935083],[-70.82251,18.940493],[-70.823692,18.943571],[-70.826515,18.947432],[-70.833122,18.951502],[-70.834084,18.953941],[-70.834709,18.958143],[-70.836716,18.962898],[-70.837151,18.970221],[-70.83609,18.97353],[-70.831932,18.976814],[-70.829552,18.980534],[-70.830437,18.983923],[-70.832458,18.985781],[-70.836746,18.988022],[-70.843735,18.99369],[-70.846268,18.995279],[-70.851547,18.99604],[-70.862465,18.995516],[-70.869461,18.992605],[-70.87468,18.988003],[-70.878014,18.987753],[-70.881973,18.988644],[-70.881683,18.97879],[-70.880913,18.973801],[-70.879257,18.97051],[-70.878891,18.9666],[-70.879967,18.964249],[-70.88192,18.962639],[-70.893829,18.957289],[-70.89856,18.956238],[-70.902725,18.954487],[-70.909927,18.953957],[-70.914131,18.954727],[-70.917427,18.956352],[-70.919998,18.956436],[-70.922188,18.95389],[-70.921158,18.951754],[-70.917229,18.947947],[-70.91375,18.943001],[-70.911537,18.940834],[-70.907112,18.937956],[-70.907043,18.935347],[-70.912109,18.925379],[-70.914711,18.921408],[-70.916336,18.920429],[-70.919846,18.920074],[-70.929054,18.920191],[-70.932602,18.919479],[-70.937347,18.917309],[-70.941368,18.914526],[-70.944862,18.91099],[-70.947922,18.906004],[-70.949799,18.904339],[-70.953827,18.903458],[-70.958878,18.903376],[-70.961662,18.902855],[-70.967567,18.898842],[-70.979347,18.892647],[-70.985367,18.891867],[-70.987465,18.890368],[-70.988853,18.88669],[-70.988815,18.881851],[-70.987839,18.877924],[-70.98391,18.870773],[-70.983665,18.866535],[-70.987488,18.859507],[-70.988098,18.856497],[-70.986153,18.851336],[-70.984833,18.844091],[-70.980331,18.835712],[-70.973274,18.822016],[-70.971619,18.81982],[-70.965431,18.813074],[-70.962517,18.807404],[-70.96196,18.804625],[-70.961807,18.795122],[-70.962502,18.790894],[-70.964149,18.788582],[-70.968185,18.78574],[-70.972351,18.784576],[-70.973892,18.781263],[-70.973938,18.774796],[-70.974487,18.771259],[-70.975815,18.768463],[-70.976952,18.762161],[-70.97863,18.759764],[-70.98243,18.757792],[-70.987732,18.756729],[-70.990944,18.753899],[-70.990913,18.751467],[-70.989426,18.74868],[-70.989754,18.746494],[-70.991348,18.745594],[-70.997314,18.745501],[-70.999535,18.74654],[-70.999901,18.748734],[-70.998306,18.75338],[-70.999374,18.755804],[-71.00576,18.764351],[-71.015175,18.7691],[-71.019073,18.771927],[-71.022575,18.772787],[-71.027145,18.770901],[-71.03289,18.766615],[-71.038864,18.76376],[-71.045181,18.762985],[-71.044571,18.754742],[-71.042946,18.751396],[-71.041496,18.746326],[-71.036949,18.740116],[-71.036293,18.736792],[-71.036209,18.729153],[-71.035271,18.725889],[-71.030487,18.720903],[-71.028595,18.71776],[-71.029236,18.715998],[-71.032852,18.712971],[-71.036461,18.711327],[-71.038582,18.709024],[-71.039536,18.704615],[-71.033539,18.703133],[-71.027565,18.700314],[-71.018143,18.692911],[-71.01506,18.69142],[-71.010422,18.686993],[-71.008865,18.684061],[-71.002037,18.676205],[-71.000984,18.673658],[-71.000618,18.669853],[-70.999725,18.667627],[-70.998047,18.666712],[-70.994217,18.666666],[-70.992516,18.667562],[-70.991631,18.67],[-70.991646,18.674917],[-70.990448,18.67878],[-70.988403,18.680353],[-70.984734,18.680971],[-70.966675,18.680725],[-70.961555,18.679861],[-70.958611,18.678602],[-70.95327,18.67778],[-70.950455,18.67581],[-70.949806,18.671869],[-70.948555,18.669994],[-70.942825,18.668913],[-70.938965,18.666948],[-70.9347,18.663019],[-70.932304,18.66202],[-70.930672,18.662638],[-70.925911,18.670687],[-70.922226,18.672024],[-70.916145,18.672075],[-70.911705,18.672657],[-70.908859,18.673826],[-70.905632,18.67388],[-70.90007,18.670547],[-70.895607,18.671337],[-70.890877,18.671116],[-70.88549,18.669668],[-70.881493,18.670912],[-70.878319,18.670708],[-70.874794,18.669407],[-70.870705,18.669462],[-70.866402,18.671034],[-70.864731,18.670507],[-70.863831,18.668301],[-70.863747,18.663038],[-70.862938,18.66128],[-70.860374,18.660246],[-70.855194,18.660862],[-70.851089,18.662676],[-70.848305,18.662903],[-70.845039,18.661936],[-70.84063,18.658726],[-70.830803,18.662245],[-70.825699,18.662994],[-70.823181,18.663948],[-70.820564,18.668425],[-70.824364,18.673885],[-70.830261,18.685213],[-70.831589,18.690308],[-70.833427,18.694283],[-70.834755,18.699404],[-70.836815,18.70216],[-70.840851,18.70616],[-70.842407,18.708429],[-70.842964,18.711084],[-70.843018,18.715893],[-70.843948,18.719732],[-70.845734,18.721525],[-70.851074,18.7244],[-70.855385,18.728163],[-70.857513,18.731579],[-70.856766,18.73469],[-70.851791,18.738823],[-70.848694,18.74015],[-70.843353,18.743963],[-70.839706,18.745701],[-70.832634,18.751558],[-70.82782,18.754038],[-70.824753,18.75651],[-70.82164,18.761393],[-70.817635,18.766008],[-70.810936,18.772257],[-70.807884,18.775883],[-70.800568,18.7901],[-70.798332,18.79277],[-70.792923,18.797316],[-70.789467,18.798159],[-70.77993,18.797861],[-70.774567,18.795765],[-70.771896,18.795776],[-70.770256,18.796743],[-70.76857,18.799391],[-70.766983,18.804688]]]},"properties":{"shapeName":"Padre Las Casas","shapeISO":"3306468B62510937127431","shapeGroup":"DOM","shapeType":"ADM2","src_shape_id":"3306468B62510937127431","adm1ISO":"DO-02"}},
{"type":"Feature","geometry":{"type":"Polygon","coordinates":[[[-70.703323,18.569136],[-70.704254,18.573898],[-70.705475,18.577551],[-70.703995,18.579773],[-70.698334,18.585581],[-70.697517,18.588194],[-70.697716,18.590855],[-70.699585,18.594791],[-70.701004,18.599897],[-70.702606,18.603273],[-70.703789,18.609589],[-70.708206,18.61409],[-70.709167,18.61718],[-70.710159,18.623079],[-70.713127,18.628809],[-70.719711,18.636284],[-70.726128,18.641325],[-70.730408,18.643604],[-70.736313,18.647644],[-70.744659,18.649029],[-70.748199,18.650583],[-70.752907,18.651747],[-70.756371,18.653246],[-70.760292,18.653311],[-70.764931,18.651239],[-70.767769,18.64868],[-70.768684,18.643164],[-70.769562,18.641127],[-70.771255,18.640583],[-70.780266,18.643557],[-70.784134,18.647209],[-70.788574,18.648952],[-70.791512,18.651276],[-70.792725,18.65748],[-70.793846,18.659569],[-70.797508,18.661736],[-70.800056,18.662537],[-70.805389,18.663254],[-70.812172,18.670055],[-70.814819,18.670887],[-70.817352,18.670252],[-70.820564,18.668425],[-70.823181,18.663948],[-70.825699,18.662994],[-70.830803,18.662245],[-70.84063,18.658726],[-70.83783,18.655359],[-70.831413,18.649155],[-70.828674,18.64584],[-70.825821,18.640137],[-70.824677,18.632832],[-70.822395,18.626785],[-70.822166,18.621687],[-70.82238,18.611307],[-70.816475,18.608862],[-70.811844,18.605091],[-70.810532,18.602779],[-70.810394,18.597523],[-70.811646,18.595488],[-70.8172,18.59149],[-70.818733,18.589386],[-70.819382,18.586727],[-70.818741,18.581318],[-70.81617,18.578079],[-70.809235,18.57136],[-70.808617,18.569151],[-70.810966,18.559931],[-70.813187,18.558702],[-70.817429,18.558365],[-70.820435,18.557014],[-70.821503,18.555511],[-70.821587,18.552999],[-70.819481,18.547766],[-70.819351,18.541147],[-70.820122,18.538464],[-70.824516,18.530107],[-70.825447,18.524319],[-70.827217,18.519417],[-70.828003,18.515051],[-70.822639,18.511368],[-70.819939,18.510643],[-70.816422,18.510963],[-70.8116,18.513643],[-70.810471,18.51576],[-70.810249,18.521723],[-70.80941,18.524998],[-70.806129,18.528751],[-70.788422,18.545364],[-70.783966,18.549023],[-70.780327,18.550789],[-70.774406,18.554838],[-70.771622,18.555376],[-70.764404,18.555721],[-70.759552,18.557585],[-70.756042,18.558163],[-70.75161,18.558205],[-70.745895,18.557636],[-70.743134,18.556648],[-70.740829,18.556818],[-70.735054,18.56167],[-70.732033,18.563318],[-70.727379,18.563602],[-70.720284,18.562048],[-70.715416,18.563999],[-70.706635,18.568296],[-70.703323,18.569136]]]},"properties":{"shapeName":"Peralta","shapeISO":"3306468B32455006078349","shapeGroup":"DOM","shapeType":"ADM2","src_shape_id":"3306468B32455006078349","adm1ISO":"DO-02"}},
{"type":"Feature","geometry":{"type":"MultiPolygon","coordinates":[[[[-70.801086,18.409649],[-70.801399,18.403688],[-70.801338,18.3911],[-70.801964,18.386589],[-70.804405,18.382421],[-70.806801,18.380613],[-70.810478,18.379244],[-70.816536,18.375683],[-70.821785,18.375216],[-70.82428,18.3762],[-70.82592,18.379446],[-70.827751,18.380724],[-70.834312,18.383198],[-70.839043,18.383827],[-70.852158,18.383955],[-70.855354,18.383757],[-70.858879,18.382528],[-70.864098,18.378967],[-70.867538,18.378525],[-70.875305,18.38096],[-70.880661,18.381758],[-70.884842,18.383289],[-70.887451,18.383266],[-70.893562,18.381533],[-70.896927,18.382124],[-70.900467,18.383675],[-70.905167,18.384855],[-70.909393,18.386681],[-70.917099,18.387053],[-70.920067,18.386501],[-70.925034,18.38464],[-70.931961,18.384277],[-70.93557,18.383574],[-70.942169,18.380356],[-70.944336,18.378483],[-70.94838,18.373604],[-70.956291,18.369499],[-70.958977,18.367592],[-70.956291,18.365669],[-70.950996,18.362839],[-70.948219,18.360022],[-70.947189,18.357571],[-70.947792,18.352995],[-70.950485,18.347944],[-70.953575,18.344547],[-70.955765,18.343119],[-70.959389,18.342299],[-70.961411,18.340508],[-70.960686,18.33836],[-70.955849,18.335651],[-70.953598,18.333454],[-70.949532,18.325439],[-70.945404,18.318218],[-70.942039,18.314211],[-70.935486,18.301739],[-70.935089,18.299044],[-70.935493,18.294977],[-70.936455,18.293158],[-70.94323,18.28607],[-70.946213,18.28039],[-70.947739,18.271873],[-70.950783,18.265602],[-70.953384,18.261547],[-70.958008,18.258627],[-70.960541,18.257746],[-70.967918,18.256664],[-70.968193,18.254026],[-70.965416,18.251249],[-70.958473,18.247917],[-70.955971,18.248194],[-70.950417,18.250139],[-70.949028,18.252083],[-70.945137,18.254026],[-70.940414,18.253195],[-70.938194,18.254583],[-70.936249,18.253471],[-70.931252,18.255419],[-70.925697,18.259027],[-70.923752,18.259027],[-70.92292,18.261806],[-70.918198,18.262083],[-70.915413,18.263193],[-70.913475,18.265972],[-70.90847,18.269306],[-70.905975,18.272083],[-70.903198,18.272362],[-70.900696,18.276527],[-70.896805,18.279306],[-70.896805,18.280695],[-70.894028,18.281805],[-70.892365,18.285694],[-70.888474,18.286249],[-70.885696,18.288473],[-70.882919,18.293472],[-70.880974,18.293751],[-70.880142,18.296247],[-70.87764,18.298195],[-70.876526,18.300694],[-70.876526,18.302917],[-70.869583,18.308195],[-70.868752,18.315695],[-70.866249,18.320972],[-70.866806,18.324581],[-70.864029,18.328472],[-70.86042,18.331804],[-70.858475,18.336527],[-70.856804,18.338194],[-70.854584,18.337917],[-70.852638,18.341249],[-70.846527,18.342916],[-70.842361,18.348194],[-70.83847,18.348473],[-70.836525,18.345694],[-70.834862,18.347361],[-70.833191,18.347361],[-70.832359,18.344028],[-70.828476,18.343193],[-70.828476,18.341806],[-70.830971,18.340694],[-70.832916,18.337358],[-70.835136,18.335417],[-70.834305,18.33375],[-70.832359,18.33375],[-70.830139,18.335417],[-70.827919,18.334862],[-70.831528,18.331804],[-70.830139,18.329861],[-70.82708,18.330416],[-70.824028,18.333258],[-70.822639,18.333471],[-70.819305,18.337358],[-70.818192,18.339863],[-70.813469,18.339863],[-70.810974,18.341528],[-70.810692,18.345415],[-70.812637,18.347084],[-70.812637,18.349859],[-70.810143,18.352362],[-70.804306,18.354584],[-70.795975,18.353195],[-70.794029,18.350695],[-70.793472,18.347919],[-70.794861,18.345415],[-70.784027,18.344862],[-70.782143,18.345415],[-70.783585,18.346794],[-70.783585,18.349613],[-70.780373,18.351868],[-70.765991,18.358511],[-70.760155,18.362633],[-70.756447,18.364395],[-70.752052,18.367952],[-70.748779,18.371599],[-70.739868,18.388493],[-70.739098,18.391718],[-70.738655,18.398565],[-70.736679,18.403166],[-70.736107,18.405893],[-70.735878,18.417543],[-70.736351,18.421736],[-70.739281,18.425058],[-70.744553,18.428249],[-70.74868,18.433184],[-70.751076,18.434053],[-70.755241,18.433977],[-70.762596,18.430855],[-70.768661,18.425978],[-70.770958,18.422686],[-70.770943,18.420176],[-70.769493,18.417095],[-70.769501,18.4146],[-70.770897,18.412363],[-70.774864,18.408371],[-70.777054,18.40505],[-70.778473,18.401239],[-70.780807,18.400412],[-70.783455,18.400778],[-70.789909,18.404097],[-70.795753,18.408297],[-70.801086,18.409649]]],[[[-70.841248,18.330416],[-70.842087,18.329584],[-70.846527,18.329861],[-70.854027,18.328472],[-70.856529,18.324306],[-70.86097,18.320419],[-70.862083,18.318472],[-70.864586,18.316528],[-70.865135,18.312916],[-70.862915,18.312363],[-70.862083,18.315695],[-70.855415,18.322083],[-70.854584,18.324581],[-70.851524,18.326805],[-70.848473,18.327362],[-70.847084,18.328751],[-70.841248,18.328472],[-70.841248,18.330416]]]]},"properties":{"shapeName":"Pueblo Viejo","shapeISO":"3306468B59626233413170","shapeGroup":"DOM","shapeType":"ADM2","src_shape_id":"3306468B59626233413170","adm1ISO":"DO-02"}},
{"type":"Feature","geometry":{"type":"Polygon","coordinates":[[[-70.818871,18.45853],[-70.824829,18.454979],[-70.830734,18.452183],[-70.832718,18.451656],[-70.837502,18.45225],[-70.846283,18.456535],[-70.851677,18.457853],[-70.855202,18.459415],[-70.860603,18.460722],[-70.864143,18.462339],[-70.868843,18.463564],[-70.872032,18.46509],[-70.874916,18.464849],[-70.875725,18.463282],[-70.875298,18.46032],[-70.873558,18.457111],[-70.872757,18.452078],[-70.872765,18.446049],[-70.870163,18.442369],[-70.87188,18.44075],[-70.87574,18.443247],[-70.881935,18.445511],[-70.887482,18.446281],[-70.894249,18.446245],[-70.896858,18.445408],[-70.898567,18.443623],[-70.898949,18.441271],[-70.897964,18.437431],[-70.899368,18.435703],[-70.90197,18.434914],[-70.908867,18.435049],[-70.91407,18.434477],[-70.916473,18.4324],[-70.917625,18.42621],[-70.918724,18.424156],[-70.922867,18.421633],[-70.930161,18.418535],[-70.934227,18.417625],[-70.938255,18.416014],[-70.940903,18.416162],[-70.943275,18.418062],[-70.945374,18.421774],[-70.948021,18.423656],[-70.950104,18.424101],[-70.955063,18.423767],[-70.958549,18.42095],[-70.962921,18.412409],[-70.96653,18.408045],[-70.970398,18.401329],[-70.972977,18.396238],[-70.973801,18.392895],[-70.973892,18.383396],[-70.973221,18.37919],[-70.969246,18.370085],[-70.964287,18.370226],[-70.962234,18.369726],[-70.958977,18.367592],[-70.956291,18.369499],[-70.94838,18.373604],[-70.944336,18.378483],[-70.942169,18.380356],[-70.93557,18.383574],[-70.931961,18.384277],[-70.925034,18.38464],[-70.920067,18.386501],[-70.917099,18.387053],[-70.909393,18.386681],[-70.905167,18.384855],[-70.900467,18.383675],[-70.896927,18.382124],[-70.893562,18.381533],[-70.887451,18.383266],[-70.884842,18.383289],[-70.880661,18.381758],[-70.875305,18.38096],[-70.867538,18.378525],[-70.864098,18.378967],[-70.858879,18.382528],[-70.855354,18.383757],[-70.852158,18.383955],[-70.839043,18.383827],[-70.834312,18.383198],[-70.827751,18.380724],[-70.82592,18.379446],[-70.82428,18.3762],[-70.821785,18.375216],[-70.816536,18.375683],[-70.810478,18.379244],[-70.806801,18.380613],[-70.804405,18.382421],[-70.801964,18.386589],[-70.801338,18.3911],[-70.801399,18.403688],[-70.801086,18.409649],[-70.80571,18.418383],[-70.814087,18.426674],[-70.816261,18.430992],[-70.816376,18.435827],[-70.81562,18.439821],[-70.813713,18.443716],[-70.814117,18.448896],[-70.818871,18.45853]]]},"properties":{"shapeName":"Sabana Yegua","shapeISO":"3306468B31402927654959","shapeGroup":"DOM","shapeType":"ADM2","src_shape_id":"3306468B31402927654959","adm1ISO":"DO-02"}},
{"type":"Feature","geometry":{"type":"Polygon","coordinates":[[[-70.828003,18.515051],[-70.827217,18.519417],[-70.825447,18.524319],[-70.824516,18.530107],[-70.820122,18.538464],[-70.819351,18.541147],[-70.819481,18.547766],[-70.821587,18.552999],[-70.821503,18.555511],[-70.820435,18.557014],[-70.817429,18.558365],[-70.813187,18.558702],[-70.810966,18.559931],[-70.808617,18.569151],[-70.809235,18.57136],[-70.81617,18.578079],[-70.818741,18.581318],[-70.819382,18.586727],[-70.818733,18.589386],[-70.8172,18.59149],[-70.811646,18.595488],[-70.810394,18.597523],[-70.810532,18.602779],[-70.811844,18.605091],[-70.816475,18.608862],[-70.82238,18.611307],[-70.828476,18.612177],[-70.846931,18.612263],[-70.853973,18.612804],[-70.857544,18.614235],[-70.86068,18.614517],[-70.863846,18.613806],[-70.86763,18.61471],[-70.870773,18.614159],[-70.875504,18.611992],[-70.881317,18.607796],[-70.890976,18.603203],[-70.896225,18.599483],[-70.900551,18.597334],[-70.904152,18.593889],[-70.905098,18.591974],[-70.906143,18.581873],[-70.907814,18.577862],[-70.908409,18.573444],[-70.909416,18.571316],[-70.911217,18.570518],[-70.917778,18.570362],[-70.922073,18.568424],[-70.923378,18.565409],[-70.9235,18.561836],[-70.922897,18.557323],[-70.921051,18.553251],[-70.920372,18.548092],[-70.920425,18.541288],[-70.918968,18.536919],[-70.914253,18.534082],[-70.908218,18.531452],[-70.90435,18.530813],[-70.89312,18.53083],[-70.889854,18.532063],[-70.885612,18.538013],[-70.882469,18.538853],[-70.880623,18.538076],[-70.878662,18.535604],[-70.877121,18.531754],[-70.877892,18.525295],[-70.877007,18.522783],[-70.877319,18.520664],[-70.879807,18.515802],[-70.881912,18.514292],[-70.886902,18.513645],[-70.89492,18.514137],[-70.899223,18.515778],[-70.907402,18.517246],[-70.909286,18.518093],[-70.913147,18.521288],[-70.915268,18.52211],[-70.916985,18.520491],[-70.914383,18.516811],[-70.912125,18.510857],[-70.910622,18.505833],[-70.905708,18.501059],[-70.906265,18.497726],[-70.910591,18.49725],[-70.916695,18.49962],[-70.920959,18.500181],[-70.928543,18.502617],[-70.932632,18.502064],[-70.937927,18.499504],[-70.942535,18.496147],[-70.946457,18.494621],[-70.953362,18.493546],[-70.960297,18.490507],[-70.962524,18.49016],[-70.965919,18.491154],[-70.97216,18.491896],[-70.975098,18.49342],[-70.976517,18.495543],[-70.977592,18.499958],[-70.979187,18.503328],[-70.980286,18.507233],[-70.982986,18.510241],[-70.986336,18.510763],[-70.989777,18.509485],[-70.996056,18.508211],[-70.99736,18.506126],[-70.997818,18.502441],[-71.000114,18.500441],[-71.002762,18.500511],[-71.005791,18.502926],[-71.006287,18.507406],[-71.005035,18.511541],[-71.006447,18.5138],[-71.009087,18.515274],[-71.011703,18.517759],[-71.013313,18.520441],[-71.015778,18.522457],[-71.018845,18.523211],[-71.025269,18.523415],[-71.029434,18.522301],[-71.030533,18.519896],[-71.030594,18.515673],[-71.029388,18.511625],[-71.027046,18.509527],[-71.024216,18.508064],[-71.021759,18.505257],[-71.019775,18.500906],[-71.01796,18.495056],[-71.015282,18.49173],[-71.01226,18.489717],[-71.007805,18.489038],[-70.998535,18.48918],[-70.995605,18.489626],[-70.990242,18.491449],[-70.98774,18.49066],[-70.986008,18.488855],[-70.984146,18.484489],[-70.985207,18.47963],[-70.986115,18.4674],[-70.988991,18.463348],[-70.994339,18.458397],[-70.996147,18.455755],[-70.995468,18.45219],[-70.995651,18.449238],[-70.997032,18.445879],[-70.998016,18.440199],[-70.999016,18.438757],[-71.003738,18.435253],[-71.00602,18.432562],[-71.008644,18.42746],[-71.01017,18.418921],[-71.015877,18.407663],[-71.017601,18.405827],[-71.020142,18.404766],[-71.023125,18.404558],[-71.033577,18.404682],[-71.035797,18.403347],[-71.036522,18.400175],[-71.035957,18.391499],[-71.03286,18.386133],[-71.029617,18.383614],[-71.027916,18.381168],[-71.026367,18.377445],[-71.024124,18.376505],[-71.019417,18.3759],[-71.015182,18.374247],[-71.009804,18.372879],[-71.003944,18.368755],[-70.998573,18.366098],[-70.995148,18.365139],[-70.985985,18.36434],[-70.979408,18.361296],[-70.974022,18.357643],[-70.97319,18.364607],[-70.969246,18.370085],[-70.973221,18.37919],[-70.973892,18.383396],[-70.973801,18.392895],[-70.972977,18.396238],[-70.970398,18.401329],[-70.96653,18.408045],[-70.962921,18.412409],[-70.958549,18.42095],[-70.955063,18.423767],[-70.950104,18.424101],[-70.948021,18.423656],[-70.945374,18.421774],[-70.943275,18.418062],[-70.940903,18.416162],[-70.938255,18.416014],[-70.934227,18.417625],[-70.930161,18.418535],[-70.922867,18.421633],[-70.918724,18.424156],[-70.917625,18.42621],[-70.916473,18.4324],[-70.91407,18.434477],[-70.908867,18.435049],[-70.90197,18.434914],[-70.899368,18.435703],[-70.897964,18.437431],[-70.898949,18.441271],[-70.898567,18.443623],[-70.896858,18.445408],[-70.894249,18.446245],[-70.887482,18.446281],[-70.881935,18.445511],[-70.87574,18.443247],[-70.87188,18.44075],[-70.870163,18.442369],[-70.872765,18.446049],[-70.872757,18.452078],[-70.873558,18.457111],[-70.875298,18.46032],[-70.875725,18.463282],[-70.874916,18.464849],[-70.872032,18.46509],[-70.868843,18.463564],[-70.864143,18.462339],[-70.860603,18.460722],[-70.855202,18.459415],[-70.851677,18.457853],[-70.846283,18.456535],[-70.837502,18.45225],[-70.832718,18.451656],[-70.830734,18.452183],[-70.824829,18.454979],[-70.818871,18.45853],[-70.814232,18.462231],[-70.813202,18.465675],[-70.813347,18.471571],[-70.813873,18.473684],[-70.820168,18.485624],[-70.826111,18.492783],[-70.833145,18.494631],[-70.834229,18.496979],[-70.834297,18.501238],[-70.833588,18.504807],[-70.828003,18.515051]]]},"properties":{"shapeName":"Villa Tabara Arriba","shapeISO":"3306468B57701305571020","shapeGroup":"DOM","shapeType":"ADM2","src_shape_id":"3306468B57701305571020","adm1ISO":"DO-02"}}
]}