{"type":"FeatureCollection","bbox":[-71.812927,19.517933,-71.12072,19.912109], "features": [
{"type":"Feature","geometry":{"type":"Polygon","coordinates":[[[-71.487343,19.796173],[-71.493118,19.794855],[-71.496811,19.792633],[-71.50219,19.787577],[-71.505379,19.783735],[-71.508659,19.778709],[-71.514343,19.772532],[-71.517197,19.766867],[-71.518448,19.758911],[-71.519958,19.756618],[-71.524605,19.752199],[-71.527573,19.750376],[-71.531616,19.748844],[-71.535889,19.749609],[-71.539078,19.749468],[-71.546623,19.746637],[-71.548157,19.742844],[-71.549889,19.74048],[-71.552155,19.738955],[-71.553009,19.736858],[-71.550491,19.733112],[-71.546913,19.731873],[-71.541901,19.733391],[-71.539658,19.732645],[-71.53923,19.730444],[-71.540825,19.727505],[-71.541466,19.723661],[-71.541245,19.71792],[-71.540268,19.715479],[-71.536758,19.711044],[-71.535309,19.708149],[-71.53199,19.705736],[-71.529961,19.706507],[-71.528625,19.708521],[-71.525497,19.709312],[-71.522827,19.707439],[-71.520065,19.704424],[-71.519218,19.701681],[-71.520073,19.696875],[-71.517578,19.694172],[-71.512238,19.691795],[-71.508469,19.690792],[-71.505981,19.689161],[-71.503517,19.685024],[-71.502411,19.680529],[-71.50061,19.676529],[-71.499962,19.669895],[-71.500511,19.663963],[-71.495041,19.667233],[-71.492531,19.668022],[-71.489014,19.667189],[-71.487564,19.664164],[-71.48452,19.663443],[-71.481216,19.664749],[-71.476494,19.665888],[-71.470451,19.668589],[-71.465584,19.671267],[-71.463058,19.673347],[-71.458183,19.676014],[-71.452118,19.67856],[-71.446846,19.679857],[-71.44487,19.681421],[-71.443802,19.683811],[-71.443192,19.688414],[-71.441383,19.690216],[-71.438583,19.690645],[-71.423782,19.690634],[-71.41774,19.690727],[-71.414131,19.693445],[-71.41243,19.696903],[-71.416084,19.696182],[-71.422447,19.695993],[-71.426689,19.697113],[-71.430283,19.69939],[-71.432549,19.703384],[-71.434669,19.703665],[-71.438065,19.701864],[-71.440369,19.703766],[-71.440788,19.708035],[-71.44368,19.709476],[-71.449135,19.707588],[-71.45134,19.708353],[-71.451889,19.709888],[-71.451027,19.714088],[-71.452599,19.717951],[-71.45578,19.722063],[-71.46685,19.732],[-71.46859,19.735495],[-71.471451,19.737408],[-71.474861,19.737957],[-71.476227,19.735968],[-71.47686,19.730522],[-71.478821,19.727583],[-71.483002,19.72485],[-71.487953,19.725079],[-71.494507,19.728109],[-71.498222,19.730265],[-71.499756,19.732124],[-71.500107,19.734636],[-71.499451,19.738562],[-71.498009,19.741301],[-71.497215,19.744495],[-71.496597,19.751986],[-71.494835,19.75489],[-71.49086,19.758894],[-71.487213,19.76445],[-71.484116,19.767729],[-71.479416,19.770205],[-71.476959,19.772205],[-71.474739,19.776484],[-71.47467,19.779194],[-71.476639,19.781553],[-71.482132,19.786625],[-71.48484,19.79018],[-71.487343,19.796173]]]},"properties":{"shapeName":"Castañuela\r\n","shapeISO":"3306468B38935954737927","shapeGroup":"DOM","shapeType":"ADM2","src_shape_id":"3306468B38935954737927","adm1ISO":"DO-15"}},
{"type":"Feature","geometry":{"type":"Polygon","coordinates":[[[-71.415688,19.526548],[-71.413445,19.526936],[-71.411163,19.528633],[-71.409348,19.532978],[-71.406212,19.535566],[-71.404984,19.537527],[-71.403275,19.543083],[-71.404686,19.549679],[-71.40313,19.55216],[-71.39875,19.554461],[-71.396637,19.554893],[-71.390884,19.554878],[-71.387428,19.553501],[-71.383713,19.549812],[-71.378456,19.548344],[-71.375557,19.547018],[-71.371475,19.546444],[-71.365959,19.54838],[-71.35955,19.549053],[-71.355255,19.548563],[-71.351051,19.546797],[-71.34333,19.546017],[-71.340828,19.545412],[-71.336258,19.540855],[-71.332329,19.539019],[-71.329964,19.538746],[-71.326675,19.540867],[-71.323235,19.544394],[-71.321754,19.546686],[-71.319962,19.551603],[-71.321312,19.555317],[-71.321815,19.55851],[-71.321281,19.561405],[-71.317963,19.562113],[-71.31337,19.56039],[-71.309135,19.559889],[-71.306023,19.558636],[-71.302887,19.554102],[-71.300476,19.552113],[-71.292168,19.550785],[-71.286224,19.548025],[-71.281197,19.542992],[-71.277428,19.540794],[-71.267769,19.53628],[-71.258965,19.529158],[-71.253075,19.526178],[-71.247139,19.523643],[-71.244514,19.523663],[-71.239243,19.525087],[-71.232651,19.522375],[-71.224174,19.517933],[-71.221222,19.518072],[-71.21801,19.522873],[-71.214111,19.530981],[-71.212494,19.533209],[-71.206795,19.538511],[-71.204147,19.539528],[-71.201324,19.539501],[-71.198364,19.537968],[-71.193741,19.530006],[-71.191322,19.528334],[-71.178444,19.523819],[-71.176559,19.528345],[-71.175522,19.532898],[-71.173721,19.536865],[-71.172318,19.541939],[-71.170631,19.544294],[-71.165108,19.550276],[-71.16375,19.556873],[-71.16172,19.562109],[-71.161415,19.566044],[-71.163765,19.57259],[-71.164825,19.578547],[-71.16861,19.583576],[-71.16993,19.587597],[-71.170189,19.59346],[-71.171173,19.596735],[-71.173279,19.600634],[-71.178612,19.606068],[-71.178581,19.609144],[-71.173447,19.615229],[-71.172829,19.619175],[-71.170471,19.620611],[-71.162804,19.617092],[-71.160545,19.616697],[-71.156334,19.618567],[-71.152145,19.62266],[-71.152153,19.627432],[-71.150803,19.636206],[-71.152107,19.641523],[-71.151489,19.646183],[-71.149612,19.650084],[-71.149834,19.654692],[-71.152023,19.657606],[-71.155792,19.661272],[-71.157501,19.663658],[-71.158249,19.667179],[-71.157951,19.675909],[-71.155922,19.679146],[-71.152596,19.681509],[-71.150314,19.684946],[-71.149666,19.687351],[-71.150368,19.689745],[-71.154617,19.695595],[-71.154526,19.69985],[-71.150688,19.70475],[-71.149315,19.708752],[-71.148521,19.716686],[-71.146515,19.721981],[-71.14534,19.728539],[-71.139481,19.73988],[-71.136589,19.743013],[-71.131889,19.74502],[-71.122459,19.744999],[-71.12072,19.75115],[-71.122383,19.754604],[-71.124489,19.756098],[-71.128227,19.756485],[-71.151253,19.756405],[-71.160095,19.75696],[-71.16436,19.758684],[-71.169777,19.759361],[-71.180161,19.759701],[-71.183578,19.761227],[-71.187546,19.764223],[-71.193481,19.767143],[-71.199486,19.768633],[-71.205475,19.771402],[-71.211342,19.775558],[-71.214867,19.777403],[-71.217361,19.781004],[-71.218216,19.784826],[-71.220322,19.788504],[-71.22258,19.790318],[-71.227341,19.790911],[-71.228813,19.793169],[-71.227661,19.795258],[-71.224922,19.797962],[-71.224625,19.80127],[-71.22683,19.802137],[-71.2323,19.802153],[-71.235657,19.802969],[-71.237953,19.805166],[-71.246941,19.822775],[-71.248512,19.829294],[-71.251808,19.829308],[-71.257637,19.830975],[-71.259583,19.830418],[-71.260696,19.832916],[-71.263191,19.83153],[-71.267639,19.831591],[-71.269859,19.832916],[-71.272919,19.832916],[-71.27375,19.834583],[-71.276802,19.835972],[-71.278473,19.834291],[-71.280418,19.83403],[-71.282364,19.83514],[-71.281494,19.837891],[-71.28347,19.837917],[-71.287598,19.840088],[-71.289581,19.840139],[-71.289024,19.844028],[-71.292084,19.846251],[-71.297363,19.845419],[-71.299583,19.848749],[-71.302361,19.848194],[-71.305672,19.848749],[-71.309029,19.848194],[-71.310692,19.849583],[-71.312363,19.847084],[-71.314308,19.846251],[-71.315094,19.848207],[-71.317627,19.847107],[-71.321808,19.847918],[-71.329025,19.847361],[-71.329865,19.848749],[-71.335419,19.848194],[-71.335968,19.849035],[-71.344864,19.849583],[-71.348473,19.85014],[-71.351524,19.852638],[-71.354858,19.852638],[-71.365303,19.855715],[-71.357651,19.851593],[-71.351646,19.850073],[-71.346062,19.84808],[-71.341797,19.847656],[-71.333527,19.844984],[-71.33416,19.839584],[-71.335815,19.836266],[-71.337135,19.831156],[-71.338806,19.827833],[-71.340065,19.822697],[-71.343246,19.816477],[-71.344933,19.814493],[-71.348602,19.811735],[-71.353409,19.8092],[-71.358223,19.805021],[-71.361435,19.801655],[-71.361893,19.798885],[-71.359795,19.794575],[-71.354897,19.788494],[-71.354248,19.785841],[-71.354866,19.780453],[-71.356956,19.777708],[-71.362373,19.772188],[-71.365616,19.765963],[-71.366882,19.757992],[-71.370972,19.750227],[-71.371559,19.747272],[-71.370522,19.744198],[-71.370834,19.742111],[-71.372993,19.73777],[-71.375404,19.735765],[-71.378349,19.734392],[-71.380569,19.732195],[-71.383461,19.726595],[-71.384468,19.722061],[-71.387497,19.715748],[-71.390503,19.712326],[-71.396828,19.708754],[-71.398872,19.707096],[-71.403175,19.701963],[-71.41243,19.696903],[-71.414131,19.693445],[-71.41774,19.690727],[-71.423782,19.690634],[-71.421898,19.685549],[-71.416512,19.680935],[-71.414368,19.678102],[-71.413475,19.675432],[-71.411278,19.674109],[-71.408493,19.6747],[-71.406189,19.673847],[-71.404022,19.671539],[-71.39994,19.670532],[-71.39595,19.670486],[-71.398071,19.675306],[-71.398155,19.677662],[-71.395943,19.67919],[-71.389954,19.679026],[-71.387314,19.676748],[-71.387032,19.673252],[-71.38443,19.669575],[-71.386147,19.667955],[-71.390007,19.67045],[-71.392975,19.670469],[-71.392273,19.665094],[-71.390434,19.661076],[-71.389816,19.653091],[-71.390327,19.648836],[-71.391731,19.646652],[-71.396843,19.643711],[-71.401505,19.640379],[-71.414062,19.63456],[-71.419464,19.633364],[-71.425446,19.630667],[-71.431892,19.625519],[-71.437294,19.622339],[-71.439224,19.620739],[-71.44062,19.616262],[-71.440536,19.607496],[-71.440971,19.603949],[-71.445625,19.59523],[-71.44545,19.592443],[-71.440964,19.589645],[-71.437912,19.588326],[-71.434021,19.584652],[-71.429543,19.582443],[-71.428566,19.580263],[-71.429108,19.576023],[-71.438271,19.568569],[-71.442207,19.566685],[-71.449226,19.565907],[-71.454102,19.563351],[-71.455299,19.56126],[-71.455887,19.554199],[-71.450256,19.555235],[-71.446785,19.554651],[-71.443832,19.551275],[-71.443489,19.544334],[-71.441353,19.541262],[-71.437752,19.540859],[-71.430672,19.541027],[-71.427208,19.540327],[-71.425987,19.538986],[-71.424881,19.535601],[-71.423294,19.533199],[-71.419464,19.52939],[-71.415688,19.526548]]]},"properties":{"shapeName":"Guayubín","shapeISO":"3306468B33320306044259","shapeGroup":"DOM","shapeType":"ADM2","src_shape_id":"3306468B33320306044259","adm1ISO":"DO-15"}},
{"type":"Feature","geometry":{"type":"Polygon","coordinates":[[[-71.503136,19.575439],[-71.497345,19.574602],[-71.494522,19.572071],[-71.490997,19.565578],[-71.489311,19.563919],[-71.479004,19.558575],[-71.473236,19.556547],[-71.469337,19.557713],[-71.465126,19.558077],[-71.460983,19.557251],[-71.455887,19.554199],[-71.455299,19.56126],[-71.454102,19.563351],[-71.449226,19.565907],[-71.442207,19.566685],[-71.438271,19.568569],[-71.429108,19.576023],[-71.428566,19.580263],[-71.429543,19.582443],[-71.434021,19.584652],[-71.437912,19.588326],[-71.440964,19.589645],[-71.44545,19.592443],[-71.445625,19.59523],[-71.440971,19.603949],[-71.440536,19.607496],[-71.44062,19.616262],[-71.439224,19.620739],[-71.437294,19.622339],[-71.431892,19.625519],[-71.425446,19.630667],[-71.419464,19.633364],[-71.414062,19.63456],[-71.401505,19.640379],[-71.396843,19.643711],[-71.391731,19.646652],[-71.390327,19.648836],[-71.389816,19.653091],[-71.390434,19.661076],[-71.392273,19.665094],[-71.392975,19.670469],[-71.390007,19.67045],[-71.386147,19.667955],[-71.38443,19.669575],[-71.387032,19.673252],[-71.387314,19.676748],[-71.389954,19.679026],[-71.395943,19.67919],[-71.398155,19.677662],[-71.398071,19.675306],[-71.39595,19.670486],[-71.39994,19.670532],[-71.404022,19.671539],[-71.406189,19.673847],[-71.408493,19.6747],[-71.411278,19.674109],[-71.413475,19.675432],[-71.414368,19.678102],[-71.416512,19.680935],[-71.421898,19.685549],[-71.423782,19.690634],[-71.438583,19.690645],[-71.441383,19.690216],[-71.443192,19.688414],[-71.443802,19.683811],[-71.44487,19.681421],[-71.446846,19.679857],[-71.452118,19.67856],[-71.458183,19.676014],[-71.463058,19.673347],[-71.465584,19.671267],[-71.470451,19.668589],[-71.476494,19.665888],[-71.481216,19.664749],[-71.48452,19.663443],[-71.487564,19.664164],[-71.489014,19.667189],[-71.492531,19.668022],[-71.495041,19.667233],[-71.500511,19.663963],[-71.501923,19.662483],[-71.501434,19.660168],[-71.498558,19.657537],[-71.49942,19.654755],[-71.504967,19.649006],[-71.505959,19.645712],[-71.505547,19.640984],[-71.503593,19.637041],[-71.502914,19.631657],[-71.503418,19.628983],[-71.506378,19.624443],[-71.508568,19.623484],[-71.512733,19.623154],[-71.514275,19.62092],[-71.51313,19.618986],[-71.508774,19.616745],[-71.506462,19.613817],[-71.50666,19.609438],[-71.50029,19.608515],[-71.497055,19.605436],[-71.49456,19.599804],[-71.494713,19.597879],[-71.496452,19.594023],[-71.49765,19.58956],[-71.502319,19.58062],[-71.503136,19.575439]]]},"properties":{"shapeName":"Las Matas de Santa Cruz","shapeISO":"3306468B23054065948148","shapeGroup":"DOM","shapeType":"ADM2","src_shape_id":"3306468B23054065948148","adm1ISO":"DO-15"}},
{"type":"Feature","geometry":{"type":"Polygon","coordinates":[[[-71.586868,19.613472],[-71.586388,19.616676],[-71.586136,19.624298],[-71.585625,19.62627],[-71.583511,19.629103],[-71.581284,19.630922],[-71.576302,19.633389],[-71.569717,19.638088],[-71.567772,19.642429],[-71.564117,19.647257],[-71.563103,19.64945],[-71.564461,19.651573],[-71.567337,19.652649],[-71.568199,19.654163],[-71.56794,19.66003],[-71.564949,19.66564],[-71.562172,19.668217],[-71.556198,19.670828],[-71.551414,19.671734],[-71.548874,19.672991],[-71.546165,19.675932],[-71.54586,19.677635],[-71.546768,19.681866],[-71.545387,19.685659],[-71.545387,19.688143],[-71.546791,19.692556],[-71.54583,19.696602],[-71.547928,19.69916],[-71.553131,19.700394],[-71.55806,19.702303],[-71.562416,19.70266],[-71.568138,19.701963],[-71.571053,19.699934],[-71.574944,19.696159],[-71.577202,19.69521],[-71.579803,19.697462],[-71.58017,19.702644],[-71.580879,19.704334],[-71.583359,19.704836],[-71.585213,19.703411],[-71.586189,19.700212],[-71.586449,19.693327],[-71.588295,19.691532],[-71.593399,19.691483],[-71.596169,19.692692],[-71.602112,19.696617],[-71.607468,19.697472],[-71.613754,19.699711],[-71.617989,19.699017],[-71.619202,19.694048],[-71.620247,19.691999],[-71.625824,19.689144],[-71.631866,19.688931],[-71.635773,19.687931],[-71.636742,19.685591],[-71.636894,19.67997],[-71.637665,19.677216],[-71.639412,19.674963],[-71.642838,19.672342],[-71.648209,19.669909],[-71.651604,19.669346],[-71.654358,19.669775],[-71.658516,19.671515],[-71.666222,19.672699],[-71.672142,19.675508],[-71.677353,19.680182],[-71.680954,19.68132],[-71.683685,19.683805],[-71.687553,19.689352],[-71.691185,19.691626],[-71.695915,19.692686],[-71.701897,19.695368],[-71.70459,19.697275],[-71.712036,19.704206],[-71.721992,19.706718],[-71.725578,19.708281],[-71.729584,19.709068],[-71.732361,19.705973],[-71.7323,19.702087],[-71.730438,19.703199],[-71.727364,19.703194],[-71.725098,19.706196],[-71.723198,19.706804],[-71.719582,19.704306],[-71.718475,19.702087],[-71.720413,19.70125],[-71.720093,19.69928],[-71.7229,19.69873],[-71.724304,19.697083],[-71.723206,19.695129],[-71.714027,19.69486],[-71.710136,19.695415],[-71.710388,19.693481],[-71.717102,19.692078],[-71.718193,19.693472],[-71.723206,19.693726],[-71.727913,19.696808],[-71.730141,19.699306],[-71.734024,19.700138],[-71.735138,19.702084],[-71.733505,19.704044],[-71.734024,19.707361],[-71.738747,19.707361],[-71.740417,19.706249],[-71.746803,19.705973],[-71.750656,19.705097],[-71.759445,19.701975],[-71.75827,19.700033],[-71.757477,19.696535],[-71.753555,19.696472],[-71.7547,19.694702],[-71.758255,19.69187],[-71.758255,19.690702],[-71.754723,19.69071],[-71.752754,19.689157],[-71.754669,19.686127],[-71.752747,19.683327],[-71.755493,19.681377],[-71.7547,19.679825],[-71.751564,19.679829],[-71.748032,19.675173],[-71.74527,19.670511],[-71.743286,19.670471],[-71.742134,19.668575],[-71.736633,19.668585],[-71.736641,19.666639],[-71.734062,19.665871],[-71.732712,19.661983],[-71.731117,19.65188],[-71.73111,19.649939],[-71.732765,19.648293],[-71.732437,19.646303],[-71.73484,19.644075],[-71.73484,19.632565],[-71.728462,19.632792],[-71.726303,19.631647],[-71.722206,19.626637],[-71.719147,19.625036],[-71.717133,19.625116],[-71.711639,19.627014],[-71.704018,19.627293],[-71.697098,19.627184],[-71.692833,19.62635],[-71.685631,19.622627],[-71.679001,19.61729],[-71.676498,19.613068],[-71.669785,19.609537],[-71.667809,19.607948],[-71.665871,19.60463],[-71.662659,19.600595],[-71.65995,19.598164],[-71.657494,19.597136],[-71.652145,19.598459],[-71.645203,19.59868],[-71.640678,19.598154],[-71.636566,19.596508],[-71.633919,19.59647],[-71.630478,19.597828],[-71.624504,19.599335],[-71.61853,19.602215],[-71.612663,19.60626],[-71.607307,19.607574],[-71.601715,19.609465],[-71.595398,19.610271],[-71.586868,19.613472]]]},"properties":{"shapeName":"Pepillo Salcedo\r\n","shapeISO":"3306468B50273300961313","shapeGroup":"DOM","shapeType":"ADM2","src_shape_id":"3306468B50273300961313","adm1ISO":"DO-15"}},
{"type":"Feature","geometry":{"type":"MultiPolygon","coordinates":[[[[-71.50666,19.609438],[-71.506462,19.613817],[-71.508774,19.616745],[-71.51313,19.618986],[-71.514275,19.62092],[-71.512733,19.623154],[-71.508568,19.623484],[-71.506378,19.624443],[-71.503418,19.628983],[-71.502914,19.631657],[-71.503593,19.637041],[-71.505547,19.640984],[-71.505959,19.645712],[-71.504967,19.649006],[-71.49942,19.654755],[-71.498558,19.657537],[-71.501434,19.660168],[-71.501923,19.662483],[-71.500511,19.663963],[-71.499962,19.669895],[-71.50061,19.676529],[-71.502411,19.680529],[-71.503517,19.685024],[-71.505981,19.689161],[-71.508469,19.690792],[-71.512238,19.691795],[-71.517578,19.694172],[-71.520073,19.696875],[-71.519218,19.701681],[-71.520065,19.704424],[-71.522827,19.707439],[-71.525497,19.709312],[-71.528625,19.708521],[-71.529961,19.706507],[-71.53199,19.705736],[-71.535309,19.708149],[-71.536758,19.711044],[-71.540268,19.715479],[-71.541245,19.71792],[-71.541466,19.723661],[-71.540825,19.727505],[-71.53923,19.730444],[-71.539658,19.732645],[-71.541901,19.733391],[-71.546913,19.731873],[-71.550491,19.733112],[-71.553009,19.736858],[-71.552155,19.738955],[-71.549889,19.74048],[-71.548157,19.742844],[-71.546623,19.746637],[-71.539078,19.749468],[-71.535889,19.749609],[-71.531616,19.748844],[-71.527573,19.750376],[-71.524605,19.752199],[-71.519958,19.756618],[-71.518448,19.758911],[-71.517197,19.766867],[-71.514343,19.772532],[-71.508659,19.778709],[-71.505379,19.783735],[-71.50219,19.787577],[-71.496811,19.792633],[-71.493118,19.794855],[-71.487343,19.796173],[-71.488846,19.806143],[-71.490387,19.809526],[-71.491028,19.812563],[-71.491348,19.820498],[-71.490868,19.824072],[-71.488182,19.82613],[-71.478882,19.826054],[-71.474266,19.826405],[-71.470657,19.829109],[-71.46804,19.83411],[-71.467178,19.839031],[-71.467682,19.844875],[-71.469543,19.848911],[-71.470757,19.853367],[-71.472588,19.85734],[-71.473228,19.861744],[-71.473251,19.868629],[-71.473938,19.873772],[-71.475517,19.877125],[-71.476227,19.882948],[-71.476151,19.892027],[-71.476891,19.896357],[-71.48127,19.901964],[-71.483536,19.90626],[-71.486008,19.907915],[-71.489883,19.909088],[-71.490692,19.908194],[-71.495659,19.906515],[-71.497643,19.904581],[-71.500694,19.904581],[-71.509026,19.90625],[-71.510414,19.907084],[-71.519028,19.907362],[-71.52179,19.908508],[-71.524307,19.908194],[-71.527084,19.909307],[-71.530418,19.909025],[-71.534027,19.909912],[-71.535095,19.911318],[-71.541199,19.912109],[-71.55349,19.909098],[-71.555138,19.907915],[-71.555115,19.905884],[-71.560692,19.904581],[-71.562637,19.90625],[-71.565697,19.907084],[-71.567917,19.909025],[-71.574303,19.908751],[-71.580147,19.910109],[-71.587082,19.907084],[-71.590393,19.907104],[-71.595093,19.903687],[-71.598694,19.903194],[-71.600418,19.900696],[-71.602638,19.900972],[-71.604027,19.902916],[-71.608475,19.901251],[-71.615417,19.900694],[-71.618752,19.897362],[-71.617989,19.894304],[-71.617981,19.887917],[-71.620697,19.884861],[-71.623474,19.882639],[-71.628197,19.881805],[-71.630417,19.880417],[-71.63208,19.882086],[-71.636253,19.882915],[-71.638191,19.884026],[-71.639305,19.887083],[-71.63958,19.891251],[-71.640686,19.894106],[-71.64595,19.898205],[-71.648766,19.899096],[-71.654305,19.899305],[-71.655396,19.894897],[-71.661247,19.893749],[-71.660698,19.890972],[-71.657669,19.888195],[-71.655396,19.884094],[-71.654587,19.879028],[-71.654861,19.875694],[-71.653503,19.872681],[-71.653748,19.869083],[-71.655418,19.863194],[-71.65847,19.860416],[-71.659027,19.857639],[-71.666252,19.851528],[-71.667084,19.849894],[-71.671814,19.845951],[-71.680115,19.842102],[-71.680695,19.841309],[-71.686806,19.840139],[-71.690651,19.840097],[-71.692078,19.839027],[-71.692627,19.830688],[-71.696251,19.828194],[-71.698669,19.828194],[-71.702919,19.825972],[-71.707359,19.822874],[-71.712914,19.820417],[-71.719864,19.818472],[-71.722359,19.817362],[-71.729309,19.815971],[-71.73542,19.815697],[-71.73597,19.81514],[-71.740974,19.815414],[-71.739914,19.813194],[-71.739586,19.809692],[-71.744026,19.810139],[-71.743408,19.812683],[-71.74514,19.812916],[-71.745697,19.807638],[-71.749306,19.804356],[-71.753197,19.802086],[-71.756775,19.799072],[-71.757919,19.796806],[-71.762917,19.79187],[-71.765976,19.789862],[-71.769775,19.786501],[-71.774628,19.783207],[-71.778748,19.778473],[-71.778748,19.777082],[-71.776527,19.774303],[-71.776527,19.772362],[-71.778473,19.768194],[-71.779305,19.764584],[-71.779305,19.760414],[-71.773682,19.75873],[-71.772087,19.760695],[-71.775139,19.764584],[-71.774864,19.768749],[-71.77375,19.769583],[-71.769028,19.769861],[-71.765976,19.772362],[-71.764282,19.772888],[-71.763474,19.777361],[-71.765137,19.777361],[-71.766808,19.780416],[-71.764862,19.780972],[-71.762642,19.779306],[-71.758751,19.77903],[-71.759026,19.782639],[-71.75708,19.785692],[-71.752357,19.787083],[-71.753197,19.789026],[-71.753471,19.792917],[-71.752357,19.794027],[-71.748474,19.794027],[-71.74736,19.792641],[-71.750389,19.790428],[-71.748474,19.78875],[-71.748123,19.785986],[-71.750137,19.782917],[-71.748505,19.780972],[-71.749031,19.777082],[-71.748192,19.775972],[-71.747643,19.77125],[-71.748749,19.769583],[-71.751526,19.767639],[-71.749077,19.764023],[-71.748192,19.765417],[-71.745117,19.767092],[-71.743469,19.765417],[-71.743469,19.762697],[-71.74231,19.761805],[-71.743469,19.757639],[-71.746246,19.756527],[-71.744308,19.75264],[-71.742981,19.751284],[-71.740692,19.74625],[-71.739014,19.744873],[-71.737297,19.740978],[-71.737358,19.73875],[-71.733749,19.740417],[-71.731804,19.740141],[-71.730087,19.738207],[-71.729858,19.73625],[-71.731247,19.733473],[-71.729027,19.730417],[-71.726196,19.729582],[-71.726807,19.723747],[-71.725693,19.722637],[-71.728195,19.717361],[-71.728195,19.714582],[-71.729797,19.712097],[-71.729584,19.709068],[-71.725578,19.708281],[-71.721992,19.706718],[-71.712036,19.704206],[-71.70459,19.697275],[-71.701897,19.695368],[-71.695915,19.692686],[-71.691185,19.691626],[-71.687553,19.689352],[-71.683685,19.683805],[-71.680954,19.68132],[-71.677353,19.680182],[-71.672142,19.675508],[-71.666222,19.672699],[-71.658516,19.671515],[-71.654358,19.669775],[-71.651604,19.669346],[-71.648209,19.669909],[-71.642838,19.672342],[-71.639412,19.674963],[-71.637665,19.677216],[-71.636894,19.67997],[-71.636742,19.685591],[-71.635773,19.687931],[-71.631866,19.688931],[-71.625824,19.689144],[-71.620247,19.691999],[-71.619202,19.694048],[-71.617989,19.699017],[-71.613754,19.699711],[-71.607468,19.697472],[-71.602112,19.696617],[-71.596169,19.692692],[-71.593399,19.691483],[-71.588295,19.691532],[-71.586449,19.693327],[-71.586189,19.700212],[-71.585213,19.703411],[-71.583359,19.704836],[-71.580879,19.704334],[-71.58017,19.702644],[-71.579803,19.697462],[-71.577202,19.69521],[-71.574944,19.696159],[-71.571053,19.699934],[-71.568138,19.701963],[-71.562416,19.70266],[-71.55806,19.702303],[-71.553131,19.700394],[-71.547928,19.69916],[-71.54583,19.696602],[-71.546791,19.692556],[-71.545387,19.688143],[-71.545387,19.685659],[-71.546768,19.681866],[-71.54586,19.677635],[-71.546165,19.675932],[-71.548874,19.672991],[-71.551414,19.671734],[-71.556198,19.670828],[-71.562172,19.668217],[-71.564949,19.66564],[-71.56794,19.66003],[-71.568199,19.654163],[-71.567337,19.652649],[-71.564461,19.651573],[-71.563103,19.64945],[-71.564117,19.647257],[-71.567772,19.642429],[-71.569717,19.638088],[-71.576302,19.633389],[-71.581284,19.630922],[-71.583511,19.629103],[-71.585625,19.62627],[-71.586136,19.624298],[-71.586388,19.616676],[-71.586868,19.613472],[-71.586418,19.609785],[-71.585449,19.607601],[-71.581955,19.607052],[-71.578217,19.611006],[-71.576492,19.611776],[-71.573776,19.611404],[-71.567612,19.606089],[-71.565102,19.604479],[-71.556137,19.602819],[-71.549202,19.59967],[-71.546417,19.599489],[-71.538658,19.602367],[-71.531021,19.600809],[-71.520966,19.600763],[-71.518745,19.601068],[-71.510818,19.603756],[-71.508987,19.605247],[-71.50666,19.609438]]],[[[-71.81208,19.896116],[-71.812927,19.893494],[-71.80986,19.893194],[-71.81208,19.896116]]],[[[-71.667084,19.891142],[-71.669861,19.890417],[-71.669586,19.885418],[-71.667641,19.885695],[-71.667084,19.887917],[-71.665138,19.88875],[-71.667084,19.891142]]]]},"properties":{"shapeName":"San Fernando de Monte Cristi","shapeISO":"3306468B8968248816263","shapeGroup":"DOM","shapeType":"ADM2","src_shape_id":"3306468B8968248816263","adm1ISO":"DO-15"}},
{"type":"Feature","geometry":{"type":"Polygon","coordinates":[[[-71.41243,19.696903],[-71.403175,19.701963],[-71.398872,19.707096],[-71.396828,19.708754],[-71.390503,19.712326],[-71.387497,19.715748],[-71.384468,19.722061],[-71.383461,19.726595],[-71.380569,19.732195],[-71.378349,19.734392],[-71.375404,19.735765],[-71.372993,19.73777],[-71.370834,19.742111],[-71.370522,19.744198],[-71.371559,19.747272],[-71.370972,19.750227],[-71.366882,19.757992],[-71.365616,19.765963],[-71.362373,19.772188],[-71.356956,19.777708],[-71.354866,19.780453],[-71.354248,19.785841],[-71.354897,19.788494],[-71.359795,19.794575],[-71.361893,19.798885],[-71.361435,19.801655],[-71.358223,19.805021],[-71.353409,19.8092],[-71.348602,19.811735],[-71.344933,19.814493],[-71.343246,19.816477],[-71.340065,19.822697],[-71.338806,19.827833],[-71.337135,19.831156],[-71.335815,19.836266],[-71.33416,19.839584],[-71.333527,19.844984],[-71.341797,19.847656],[-71.346062,19.84808],[-71.351646,19.850073],[-71.357651,19.851593],[-71.365303,19.855715],[-71.373192,19.856525],[-71.378494,19.857918],[-71.380692,19.85903],[-71.38369,19.862381],[-71.385971,19.862362],[-71.387573,19.863525],[-71.395973,19.86375],[-71.399025,19.866804],[-71.402641,19.866528],[-71.403809,19.869324],[-71.410652,19.872358],[-71.41375,19.873194],[-71.416306,19.875973],[-71.419861,19.875416],[-71.424026,19.877361],[-71.42926,19.881001],[-71.432915,19.882086],[-71.438194,19.88236],[-71.440414,19.88625],[-71.443192,19.887362],[-71.444885,19.889099],[-71.448196,19.88986],[-71.450417,19.891251],[-71.450417,19.893194],[-71.456802,19.89514],[-71.458191,19.896301],[-71.462639,19.897083],[-71.467361,19.900694],[-71.472359,19.902363],[-71.475693,19.902363],[-71.480698,19.905416],[-71.483536,19.90626],[-71.48127,19.901964],[-71.476891,19.896357],[-71.476151,19.892027],[-71.476227,19.882948],[-71.475517,19.877125],[-71.473938,19.873772],[-71.473251,19.868629],[-71.473228,19.861744],[-71.472588,19.85734],[-71.470757,19.853367],[-71.469543,19.848911],[-71.467682,19.844875],[-71.467178,19.839031],[-71.46804,19.83411],[-71.470657,19.829109],[-71.474266,19.826405],[-71.478882,19.826054],[-71.488182,19.82613],[-71.490868,19.824072],[-71.491348,19.820498],[-71.491028,19.812563],[-71.490387,19.809526],[-71.488846,19.806143],[-71.487343,19.796173],[-71.48484,19.79018],[-71.482132,19.786625],[-71.476639,19.781553],[-71.47467,19.779194],[-71.474739,19.776484],[-71.476959,19.772205],[-71.479416,19.770205],[-71.484116,19.767729],[-71.487213,19.76445],[-71.49086,19.758894],[-71.494835,19.75489],[-71.496597,19.751986],[-71.497215,19.744495],[-71.498009,19.741301],[-71.499451,19.738562],[-71.500107,19.734636],[-71.499756,19.732124],[-71.498222,19.730265],[-71.494507,19.728109],[-71.487953,19.725079],[-71.483002,19.72485],[-71.478821,19.727583],[-71.47686,19.730522],[-71.476227,19.735968],[-71.474861,19.737957],[-71.471451,19.737408],[-71.46859,19.735495],[-71.46685,19.732],[-71.45578,19.722063],[-71.452599,19.717951],[-71.451027,19.714088],[-71.451889,19.709888],[-71.45134,19.708353],[-71.449135,19.707588],[-71.44368,19.709476],[-71.440788,19.708035],[-71.440369,19.703766],[-71.438065,19.701864],[-71.434669,19.703665],[-71.432549,19.703384],[-71.430283,19.69939],[-71.426689,19.697113],[-71.422447,19.695993],[-71.416084,19.696182],[-71.41243,19.696903]]]},"properties":{"shapeName":"Villa Vázquez\r\n","shapeISO":"3306468B4250882356752","shapeGroup":"DOM","shapeType":"ADM2","src_shape_id":"3306468B4250882356752","adm1ISO":"DO-15"}}
]}