{"type":"FeatureCollection","bbox":[-71.248512,19.507395,-70.363197,19.932083], "features": [
{"type":"Feature","geometry":{"type":"Polygon","coordinates":[[[-70.818878,19.622793],[-70.815552,19.622005],[-70.81221,19.622238],[-70.808243,19.626181],[-70.806519,19.626947],[-70.803322,19.626446],[-70.798653,19.624147],[-70.792801,19.619823],[-70.787422,19.616823],[-70.781509,19.610741],[-70.780022,19.607794],[-70.777458,19.604605],[-70.772865,19.600142],[-70.769669,19.596498],[-70.767845,19.593084],[-70.765495,19.590954],[-70.759789,19.58889],[-70.755272,19.590261],[-70.751099,19.589987],[-70.748795,19.588631],[-70.746086,19.58573],[-70.744972,19.581884],[-70.744942,19.576391],[-70.744354,19.573788],[-70.742172,19.57151],[-70.738991,19.570642],[-70.736359,19.572611],[-70.730415,19.575405],[-70.72438,19.576782],[-70.719025,19.579206],[-70.713074,19.583328],[-70.707809,19.586094],[-70.703781,19.590357],[-70.70089,19.596039],[-70.698563,19.604239],[-70.700882,19.609688],[-70.704651,19.614098],[-70.70575,19.616365],[-70.705406,19.618864],[-70.702057,19.625271],[-70.70166,19.627357],[-70.702644,19.62995],[-70.703316,19.635302],[-70.708397,19.640579],[-70.711655,19.646852],[-70.712196,19.650202],[-70.712257,19.657845],[-70.712608,19.659857],[-70.715378,19.663853],[-70.723412,19.671345],[-70.726669,19.675854],[-70.727921,19.680937],[-70.7304,19.68499],[-70.732605,19.686096],[-70.740997,19.68667],[-70.744011,19.688215],[-70.74752,19.691381],[-70.749962,19.694489],[-70.750603,19.696377],[-70.751495,19.70303],[-70.753563,19.705914],[-70.756996,19.708534],[-70.763008,19.711287],[-70.768547,19.712963],[-70.773636,19.710238],[-70.776825,19.709692],[-70.783821,19.711857],[-70.78849,19.712023],[-70.792259,19.711454],[-70.798828,19.708315],[-70.805367,19.704115],[-70.809387,19.703184],[-70.812431,19.701418],[-70.816643,19.696487],[-70.82045,19.695118],[-70.824188,19.695566],[-70.826874,19.697329],[-70.828613,19.699549],[-70.830856,19.700712],[-70.833801,19.701025],[-70.843353,19.700996],[-70.848732,19.701656],[-70.852898,19.703428],[-70.85759,19.704592],[-70.862564,19.706512],[-70.866402,19.706829],[-70.874062,19.706785],[-70.882011,19.703354],[-70.884132,19.701019],[-70.884148,19.695801],[-70.882011,19.690536],[-70.881561,19.686554],[-70.880264,19.683607],[-70.874023,19.679445],[-70.872932,19.677172],[-70.873093,19.674726],[-70.877892,19.669851],[-70.879417,19.66205],[-70.881058,19.659655],[-70.885269,19.655418],[-70.887428,19.651789],[-70.888451,19.647375],[-70.88224,19.646774],[-70.876099,19.642769],[-70.87014,19.639957],[-70.86113,19.638447],[-70.851746,19.633804],[-70.847115,19.631943],[-70.845436,19.631809],[-70.840736,19.633129],[-70.834358,19.632727],[-70.830177,19.630964],[-70.825455,19.629833],[-70.823593,19.628729],[-70.820084,19.625095],[-70.818878,19.622793]]]},"properties":{"shapeName":"Altamira","shapeISO":"3306468B71353623072064","shapeGroup":"DOM","shapeType":"ADM2","src_shape_id":"3306468B71353623072064","adm1ISO":"DO-18"}},
{"type":"Feature","geometry":{"type":"Polygon","coordinates":[[[-70.874062,19.706785],[-70.88308,19.711321],[-70.887939,19.714773],[-70.893311,19.716055],[-70.900574,19.718544],[-70.902794,19.720528],[-70.904579,19.723679],[-70.905533,19.730278],[-70.907372,19.731789],[-70.909531,19.73115],[-70.911865,19.728262],[-70.916145,19.726761],[-70.920746,19.726711],[-70.926018,19.727474],[-70.934875,19.731688],[-70.938156,19.732609],[-70.939064,19.729479],[-70.944679,19.718779],[-70.949852,19.712145],[-70.952484,19.707123],[-70.9524,19.70188],[-70.950699,19.698593],[-70.950104,19.695971],[-70.950844,19.690008],[-70.955444,19.681734],[-70.958397,19.674828],[-70.950722,19.668442],[-70.942757,19.660883],[-70.939514,19.659494],[-70.936729,19.659536],[-70.932091,19.661364],[-70.929428,19.661339],[-70.926521,19.659548],[-70.922852,19.656181],[-70.917648,19.652945],[-70.915344,19.650854],[-70.912163,19.646292],[-70.900932,19.642397],[-70.897308,19.642893],[-70.893471,19.644344],[-70.890778,19.643499],[-70.889885,19.646139],[-70.888451,19.647375],[-70.887428,19.651789],[-70.885269,19.655418],[-70.881058,19.659655],[-70.879417,19.66205],[-70.877892,19.669851],[-70.873093,19.674726],[-70.872932,19.677172],[-70.874023,19.679445],[-70.880264,19.683607],[-70.881561,19.686554],[-70.882011,19.690536],[-70.884148,19.695801],[-70.884132,19.701019],[-70.882011,19.703354],[-70.874062,19.706785]]]},"properties":{"shapeName":"Guananico","shapeISO":"3306468B53789709824921","shapeGroup":"DOM","shapeType":"ADM2","src_shape_id":"3306468B53789709824921","adm1ISO":"DO-18"}},
{"type":"Feature","geometry":{"type":"Polygon","coordinates":[[[-70.768547,19.712963],[-70.768585,19.720493],[-70.76667,19.722855],[-70.761223,19.724833],[-70.755173,19.728979],[-70.753792,19.732637],[-70.754417,19.7369],[-70.756058,19.74024],[-70.756721,19.74472],[-70.756905,19.752352],[-70.757668,19.754345],[-70.760818,19.756727],[-70.763046,19.757113],[-70.769974,19.756807],[-70.777634,19.75421],[-70.780602,19.757048],[-70.786736,19.760893],[-70.789818,19.764315],[-70.791992,19.765358],[-70.79528,19.765018],[-70.802383,19.760406],[-70.80619,19.759909],[-70.812355,19.760384],[-70.816628,19.762115],[-70.821251,19.763184],[-70.824623,19.766075],[-70.825287,19.769535],[-70.825317,19.776123],[-70.825928,19.779625],[-70.827507,19.782955],[-70.82766,19.787506],[-70.826035,19.79133],[-70.825996,19.793819],[-70.827553,19.797739],[-70.828712,19.805069],[-70.831802,19.808943],[-70.836311,19.810467],[-70.842522,19.808352],[-70.849487,19.808302],[-70.852219,19.809235],[-70.856766,19.813463],[-70.859642,19.813396],[-70.863472,19.811346],[-70.869492,19.811131],[-70.873772,19.812475],[-70.878975,19.816305],[-70.884186,19.818651],[-70.886154,19.81897],[-70.890785,19.817463],[-70.898697,19.816942],[-70.911667,19.817192],[-70.917122,19.81658],[-70.919609,19.815098],[-70.922745,19.811275],[-70.923393,19.805944],[-70.923134,19.7973],[-70.92363,19.7938],[-70.925545,19.792107],[-70.931236,19.790907],[-70.932335,19.788536],[-70.931931,19.785267],[-70.930725,19.783888],[-70.927734,19.782877],[-70.926491,19.780537],[-70.927269,19.778456],[-70.932289,19.776688],[-70.934204,19.775108],[-70.94252,19.759914],[-70.94519,19.756636],[-70.947746,19.750912],[-70.95237,19.747358],[-70.953094,19.741919],[-70.952141,19.738068],[-70.949074,19.735748],[-70.944427,19.734715],[-70.938156,19.732609],[-70.934875,19.731688],[-70.926018,19.727474],[-70.920746,19.726711],[-70.916145,19.726761],[-70.911865,19.728262],[-70.909531,19.73115],[-70.907372,19.731789],[-70.905533,19.730278],[-70.904579,19.723679],[-70.902794,19.720528],[-70.900574,19.718544],[-70.893311,19.716055],[-70.887939,19.714773],[-70.88308,19.711321],[-70.874062,19.706785],[-70.866402,19.706829],[-70.862564,19.706512],[-70.85759,19.704592],[-70.852898,19.703428],[-70.848732,19.701656],[-70.843353,19.700996],[-70.833801,19.701025],[-70.830856,19.700712],[-70.828613,19.699549],[-70.826874,19.697329],[-70.824188,19.695566],[-70.82045,19.695118],[-70.816643,19.696487],[-70.812431,19.701418],[-70.809387,19.703184],[-70.805367,19.704115],[-70.798828,19.708315],[-70.792259,19.711454],[-70.78849,19.712023],[-70.783821,19.711857],[-70.776825,19.709692],[-70.773636,19.710238],[-70.768547,19.712963]]]},"properties":{"shapeName":"Imbert","shapeISO":"3306468B41298949605028","shapeGroup":"DOM","shapeType":"ADM2","src_shape_id":"3306468B41298949605028","adm1ISO":"DO-18"}},
{"type":"Feature","geometry":{"type":"Polygon","coordinates":[[[-71.122459,19.744999],[-71.117989,19.743172],[-71.113266,19.739973],[-71.109581,19.739304],[-71.102638,19.739189],[-71.098312,19.738379],[-71.089561,19.734001],[-71.083565,19.731277],[-71.075165,19.730501],[-71.071571,19.729742],[-71.06356,19.726225],[-71.063126,19.729849],[-71.062996,19.737576],[-71.063652,19.741589],[-71.065727,19.746878],[-71.066666,19.752874],[-71.07135,19.761692],[-71.070602,19.765295],[-71.068008,19.766966],[-71.064995,19.767668],[-71.063171,19.76902],[-71.059921,19.773842],[-71.058121,19.775257],[-71.054413,19.776285],[-71.04911,19.780231],[-71.036255,19.792431],[-71.032928,19.788088],[-71.031357,19.787115],[-71.028008,19.786695],[-71.022934,19.787067],[-71.026787,19.795435],[-71.027344,19.799395],[-71.026802,19.802418],[-71.025276,19.804451],[-71.024483,19.807503],[-71.024132,19.812536],[-71.022011,19.817966],[-71.021324,19.821512],[-71.021408,19.826658],[-71.021973,19.828773],[-71.024178,19.831766],[-71.036049,19.842958],[-71.039833,19.846792],[-71.042831,19.85141],[-71.04454,19.85323],[-71.049667,19.856174],[-71.051117,19.858286],[-71.050552,19.860495],[-71.048157,19.864069],[-71.049995,19.865898],[-71.056641,19.867933],[-71.060043,19.868477],[-71.065918,19.867283],[-71.068245,19.868219],[-71.072166,19.871023],[-71.078133,19.873861],[-71.085838,19.874979],[-71.088341,19.875973],[-71.09153,19.872358],[-71.092636,19.872358],[-71.099586,19.869026],[-71.100418,19.868195],[-71.107361,19.865973],[-71.11042,19.865973],[-71.117363,19.864861],[-71.120697,19.86375],[-71.123474,19.86375],[-71.129303,19.860695],[-71.12986,19.858747],[-71.13208,19.856251],[-71.135971,19.855972],[-71.137642,19.857084],[-71.142365,19.857361],[-71.146248,19.858747],[-71.152084,19.857918],[-71.155136,19.857918],[-71.16153,19.861528],[-71.162636,19.862638],[-71.167915,19.862638],[-71.170692,19.860695],[-71.171249,19.858747],[-71.173195,19.857084],[-71.177086,19.857084],[-71.176804,19.85486],[-71.17292,19.850971],[-71.171249,19.851528],[-71.170418,19.85375],[-71.168198,19.85375],[-71.168198,19.857084],[-71.169586,19.857361],[-71.168472,19.860695],[-71.161804,19.86014],[-71.160141,19.857918],[-71.156525,19.856251],[-71.152084,19.855415],[-71.148476,19.855415],[-71.149307,19.85375],[-71.152641,19.854029],[-71.159584,19.856525],[-71.162361,19.856525],[-71.163475,19.855415],[-71.166252,19.855139],[-71.166252,19.848473],[-71.170692,19.845972],[-71.174026,19.847361],[-71.17347,19.849861],[-71.176804,19.85375],[-71.178474,19.85375],[-71.181252,19.852083],[-71.184303,19.852638],[-71.186806,19.854584],[-71.189857,19.85486],[-71.193192,19.857639],[-71.194862,19.861528],[-71.198753,19.862638],[-71.201805,19.864861],[-71.203476,19.865139],[-71.207642,19.86875],[-71.21125,19.870136],[-71.211525,19.866528],[-71.212914,19.862083],[-71.208473,19.860695],[-71.20903,19.858194],[-71.210419,19.857639],[-71.212639,19.854584],[-71.214027,19.851528],[-71.213196,19.845972],[-71.213196,19.841528],[-71.216248,19.838194],[-71.22097,19.837639],[-71.222641,19.835972],[-71.227364,19.834028],[-71.232086,19.834305],[-71.233475,19.832361],[-71.237358,19.83403],[-71.240974,19.833471],[-71.244308,19.830418],[-71.246803,19.830418],[-71.248512,19.829294],[-71.246941,19.822775],[-71.237953,19.805166],[-71.235657,19.802969],[-71.2323,19.802153],[-71.22683,19.802137],[-71.224625,19.80127],[-71.224922,19.797962],[-71.227661,19.795258],[-71.228813,19.793169],[-71.227341,19.790911],[-71.22258,19.790318],[-71.220322,19.788504],[-71.218216,19.784826],[-71.217361,19.781004],[-71.214867,19.777403],[-71.211342,19.775558],[-71.205475,19.771402],[-71.199486,19.768633],[-71.193481,19.767143],[-71.187546,19.764223],[-71.183578,19.761227],[-71.180161,19.759701],[-71.169777,19.759361],[-71.16436,19.758684],[-71.160095,19.75696],[-71.151253,19.756405],[-71.128227,19.756485],[-71.124489,19.756098],[-71.122383,19.754604],[-71.12072,19.75115],[-71.122459,19.744999]]]},"properties":{"shapeName":"La Isabela","shapeISO":"3306468B2817273614412","shapeGroup":"DOM","shapeType":"ADM2","src_shape_id":"3306468B2817273614412","adm1ISO":"DO-18"}},
{"type":"Feature","geometry":{"type":"Polygon","coordinates":[[[-70.938156,19.732609],[-70.944427,19.734715],[-70.949074,19.735748],[-70.952141,19.738068],[-70.953094,19.741919],[-70.95237,19.747358],[-70.957367,19.746717],[-70.960861,19.747723],[-70.961258,19.749762],[-70.960365,19.752401],[-70.961334,19.754595],[-70.964508,19.757248],[-70.968887,19.75856],[-70.970741,19.759991],[-70.974174,19.766464],[-70.975685,19.768274],[-70.978561,19.768763],[-70.980301,19.764881],[-70.982018,19.762438],[-70.984367,19.76129],[-70.988365,19.760386],[-70.997665,19.75601],[-71.000374,19.756039],[-71.002998,19.75861],[-71.002731,19.761686],[-71.001038,19.764881],[-71.000694,19.770063],[-71.001465,19.771742],[-71.009155,19.775879],[-71.011986,19.779154],[-71.013092,19.783464],[-71.015778,19.786095],[-71.022934,19.787067],[-71.028008,19.786695],[-71.031357,19.787115],[-71.032928,19.788088],[-71.036255,19.792431],[-71.04911,19.780231],[-71.054413,19.776285],[-71.058121,19.775257],[-71.059921,19.773842],[-71.063171,19.76902],[-71.064995,19.767668],[-71.068008,19.766966],[-71.070602,19.765295],[-71.07135,19.761692],[-71.066666,19.752874],[-71.065727,19.746878],[-71.063652,19.741589],[-71.062996,19.737576],[-71.063126,19.729849],[-71.06356,19.726225],[-71.062408,19.722315],[-71.060776,19.718958],[-71.059433,19.713844],[-71.057831,19.711512],[-71.053909,19.708349],[-71.047897,19.705631],[-71.042496,19.704357],[-71.036903,19.702385],[-71.032646,19.701935],[-71.027054,19.699924],[-71.022682,19.698895],[-71.017525,19.699186],[-71.004646,19.699238],[-71.001579,19.699669],[-70.997391,19.701401],[-70.993973,19.701752],[-70.99086,19.700594],[-70.987679,19.696115],[-70.98526,19.694178],[-70.97963,19.69315],[-70.977211,19.691481],[-70.976082,19.688],[-70.974609,19.685745],[-70.970009,19.681253],[-70.958397,19.674828],[-70.955444,19.681734],[-70.950844,19.690008],[-70.950104,19.695971],[-70.950699,19.698593],[-70.9524,19.70188],[-70.952484,19.707123],[-70.949852,19.712145],[-70.944679,19.718779],[-70.939064,19.729479],[-70.938156,19.732609]]]},"properties":{"shapeName":"Los Hidalgos","shapeISO":"3306468B64768612261884","shapeGroup":"DOM","shapeType":"ADM2","src_shape_id":"3306468B64768612261884","adm1ISO":"DO-18"}},
{"type":"Feature","geometry":{"type":"Polygon","coordinates":[[[-70.886154,19.81897],[-70.887314,19.82192],[-70.887672,19.825335],[-70.887093,19.827953],[-70.884407,19.830589],[-70.880234,19.832705],[-70.873116,19.838539],[-70.86412,19.842661],[-70.861748,19.844715],[-70.85907,19.849167],[-70.854668,19.853773],[-70.851425,19.858765],[-70.848724,19.861376],[-70.842834,19.864206],[-70.836655,19.864532],[-70.834328,19.862711],[-70.832359,19.857531],[-70.827454,19.85244],[-70.822548,19.848433],[-70.819542,19.846964],[-70.817253,19.844854],[-70.814255,19.840261],[-70.811783,19.839401],[-70.808205,19.840851],[-70.804642,19.843634],[-70.801689,19.845098],[-70.799355,19.847181],[-70.797539,19.850504],[-70.793953,19.854218],[-70.791206,19.856144],[-70.792892,19.857084],[-70.796524,19.855694],[-70.79847,19.85903],[-70.794304,19.861252],[-70.795418,19.864861],[-70.799583,19.867083],[-70.799583,19.86875],[-70.802361,19.869862],[-70.804306,19.875694],[-70.805969,19.875416],[-70.808746,19.878195],[-70.810143,19.881527],[-70.81292,19.883194],[-70.818192,19.88236],[-70.821808,19.883194],[-70.824303,19.88236],[-70.82708,19.883751],[-70.831802,19.888472],[-70.834862,19.889029],[-70.83847,19.893473],[-70.83847,19.897362],[-70.836525,19.900972],[-70.839584,19.902082],[-70.83847,19.904028],[-70.839859,19.905972],[-70.84597,19.904306],[-70.847916,19.905416],[-70.853195,19.906528],[-70.856804,19.905972],[-70.859863,19.904306],[-70.862358,19.902082],[-70.865417,19.902082],[-70.869026,19.903194],[-70.871803,19.905416],[-70.87458,19.905416],[-70.87764,19.903473],[-70.877357,19.900972],[-70.880974,19.89986],[-70.884583,19.900972],[-70.884026,19.904028],[-70.88736,19.905138],[-70.888474,19.903473],[-70.891525,19.904581],[-70.894859,19.904028],[-70.895416,19.905138],[-70.905418,19.904028],[-70.90847,19.905138],[-70.909302,19.907084],[-70.912636,19.908194],[-70.918198,19.908472],[-70.92292,19.91153],[-70.925697,19.914583],[-70.927917,19.915695],[-70.933197,19.91625],[-70.937363,19.91153],[-70.940414,19.906803],[-70.940971,19.902639],[-70.94014,19.900972],[-70.930969,19.896805],[-70.931808,19.893749],[-70.934029,19.895414],[-70.937363,19.893194],[-70.939583,19.89514],[-70.940414,19.898195],[-70.942917,19.900972],[-70.945694,19.899305],[-70.947639,19.899305],[-70.952362,19.897636],[-70.954025,19.894583],[-70.955696,19.894583],[-70.959305,19.896805],[-70.956528,19.89986],[-70.953476,19.899584],[-70.953751,19.902363],[-70.948196,19.902082],[-70.945969,19.901251],[-70.944305,19.903749],[-70.944305,19.905416],[-70.953194,19.909307],[-70.953751,19.910694],[-70.958191,19.91264],[-70.960419,19.914862],[-70.962914,19.914862],[-70.969864,19.917917],[-70.973198,19.921249],[-70.977638,19.922638],[-70.981804,19.926529],[-70.986526,19.928473],[-70.989861,19.930695],[-70.992638,19.930416],[-70.994858,19.931528],[-71.002083,19.932083],[-71.006248,19.930695],[-71.008751,19.930695],[-71.009865,19.932083],[-71.020142,19.931805],[-71.024864,19.93125],[-71.030693,19.929028],[-71.035141,19.928194],[-71.037361,19.92625],[-71.040138,19.925694],[-71.041809,19.923471],[-71.045692,19.922083],[-71.04792,19.922361],[-71.050697,19.920694],[-71.056252,19.920139],[-71.06208,19.917639],[-71.062637,19.912916],[-71.063751,19.910973],[-71.066528,19.909861],[-71.069305,19.907639],[-71.074585,19.90625],[-71.07708,19.902639],[-71.079308,19.900417],[-71.081528,19.899584],[-71.082642,19.895697],[-71.080971,19.893194],[-71.080696,19.887083],[-71.079025,19.88625],[-71.079865,19.882639],[-71.080971,19.88236],[-71.084305,19.879028],[-71.084305,19.87764],[-71.088341,19.875973],[-71.085838,19.874979],[-71.078133,19.873861],[-71.072166,19.871023],[-71.068245,19.868219],[-71.065918,19.867283],[-71.060043,19.868477],[-71.056641,19.867933],[-71.049995,19.865898],[-71.048157,19.864069],[-71.050552,19.860495],[-71.051117,19.858286],[-71.049667,19.856174],[-71.04454,19.85323],[-71.042831,19.85141],[-71.039833,19.846792],[-71.036049,19.842958],[-71.024178,19.831766],[-71.021973,19.828773],[-71.021408,19.826658],[-71.021324,19.821512],[-71.022011,19.817966],[-71.024132,19.812536],[-71.024483,19.807503],[-71.025276,19.804451],[-71.026802,19.802418],[-71.027344,19.799395],[-71.026787,19.795435],[-71.022934,19.787067],[-71.015778,19.786095],[-71.013092,19.783464],[-71.011986,19.779154],[-71.009155,19.775879],[-71.001465,19.771742],[-71.000694,19.770063],[-71.001038,19.764881],[-71.002731,19.761686],[-71.002998,19.75861],[-71.000374,19.756039],[-70.997665,19.75601],[-70.988365,19.760386],[-70.984367,19.76129],[-70.982018,19.762438],[-70.980301,19.764881],[-70.978561,19.768763],[-70.975685,19.768274],[-70.974174,19.766464],[-70.970741,19.759991],[-70.968887,19.75856],[-70.964508,19.757248],[-70.961334,19.754595],[-70.960365,19.752401],[-70.961258,19.749762],[-70.960861,19.747723],[-70.957367,19.746717],[-70.95237,19.747358],[-70.947746,19.750912],[-70.94519,19.756636],[-70.94252,19.759914],[-70.934204,19.775108],[-70.932289,19.776688],[-70.927269,19.778456],[-70.926491,19.780537],[-70.927734,19.782877],[-70.930725,19.783888],[-70.931931,19.785267],[-70.932335,19.788536],[-70.931236,19.790907],[-70.925545,19.792107],[-70.92363,19.7938],[-70.923134,19.7973],[-70.923393,19.805944],[-70.922745,19.811275],[-70.919609,19.815098],[-70.917122,19.81658],[-70.911667,19.817192],[-70.898697,19.816942],[-70.890785,19.817463],[-70.886154,19.81897]]]},"properties":{"shapeName":"Luperon","shapeISO":"3306468B16106454484671","shapeGroup":"DOM","shapeType":"ADM2","src_shape_id":"3306468B16106454484671","adm1ISO":"DO-18"}},
{"type":"Feature","geometry":{"type":"Polygon","coordinates":[[[-70.622993,19.767361],[-70.622993,19.764021],[-70.62442,19.759562],[-70.628014,19.753559],[-70.630493,19.748289],[-70.634521,19.745861],[-70.635971,19.742992],[-70.640182,19.738979],[-70.641457,19.734594],[-70.643784,19.728512],[-70.643944,19.722593],[-70.643143,19.719149],[-70.640518,19.715162],[-70.638153,19.714045],[-70.634529,19.713657],[-70.630966,19.712481],[-70.628532,19.710613],[-70.621651,19.704329],[-70.618515,19.701988],[-70.617584,19.700418],[-70.616669,19.695454],[-70.614601,19.694223],[-70.611496,19.695288],[-70.609764,19.697672],[-70.607178,19.697971],[-70.605659,19.696392],[-70.604668,19.693066],[-70.603264,19.691336],[-70.598137,19.686993],[-70.59771,19.684301],[-70.601318,19.677427],[-70.601715,19.674936],[-70.598969,19.667492],[-70.593971,19.662554],[-70.590416,19.658154],[-70.585793,19.655321],[-70.585129,19.653202],[-70.586426,19.651564],[-70.589859,19.64967],[-70.591423,19.646866],[-70.594223,19.644859],[-70.596008,19.642347],[-70.595497,19.638123],[-70.590736,19.63537],[-70.584091,19.633726],[-70.5793,19.63093],[-70.577545,19.628614],[-70.574631,19.626282],[-70.569336,19.623762],[-70.564018,19.623106],[-70.553047,19.623461],[-70.55645,19.627878],[-70.557495,19.630407],[-70.557838,19.635561],[-70.557419,19.6392],[-70.554298,19.644444],[-70.550507,19.645596],[-70.546204,19.645548],[-70.543694,19.646271],[-70.542809,19.649008],[-70.543671,19.650612],[-70.546188,19.651377],[-70.552864,19.651463],[-70.555481,19.652479],[-70.55751,19.655127],[-70.557747,19.660261],[-70.557098,19.662367],[-70.55262,19.666281],[-70.546616,19.673429],[-70.543655,19.679024],[-70.54348,19.682165],[-70.546196,19.687763],[-70.552589,19.699516],[-70.554413,19.701267],[-70.557976,19.703112],[-70.564423,19.707684],[-70.567825,19.709124],[-70.570023,19.709276],[-70.572929,19.706291],[-70.574966,19.705116],[-70.57885,19.705],[-70.581276,19.706982],[-70.58149,19.715397],[-70.582138,19.718912],[-70.586983,19.72574],[-70.587532,19.729115],[-70.587448,19.733261],[-70.586777,19.735909],[-70.585159,19.738138],[-70.579422,19.744078],[-70.579628,19.748405],[-70.583099,19.752939],[-70.586639,19.756527],[-70.587639,19.754862],[-70.598198,19.759304],[-70.602081,19.759304],[-70.604858,19.760695],[-70.606804,19.760695],[-70.611252,19.764862],[-70.613472,19.764862],[-70.614586,19.766251],[-70.617081,19.766806],[-70.619308,19.769583],[-70.620972,19.769583],[-70.622993,19.767361]]]},"properties":{"shapeName":"Montellano","shapeISO":"3306468B77556762591061","shapeGroup":"DOM","shapeType":"ADM2","src_shape_id":"3306468B77556762591061","adm1ISO":"DO-18"}},
{"type":"Feature","geometry":{"type":"Polygon","coordinates":[[[-70.510094,19.566446],[-70.505257,19.567179],[-70.505196,19.570433],[-70.509438,19.5762],[-70.510574,19.579617],[-70.512337,19.582064],[-70.514618,19.583797],[-70.515862,19.58662],[-70.516075,19.591574],[-70.516685,19.594347],[-70.519279,19.597086],[-70.522293,19.598549],[-70.527008,19.601858],[-70.532097,19.604904],[-70.533447,19.607048],[-70.534714,19.612074],[-70.536804,19.615677],[-70.54068,19.617182],[-70.54557,19.615955],[-70.548302,19.617779],[-70.550568,19.621386],[-70.553047,19.623461],[-70.564018,19.623106],[-70.569336,19.623762],[-70.574631,19.626282],[-70.577545,19.628614],[-70.5793,19.63093],[-70.584091,19.633726],[-70.590736,19.63537],[-70.595497,19.638123],[-70.596008,19.642347],[-70.594223,19.644859],[-70.591423,19.646866],[-70.589859,19.64967],[-70.586426,19.651564],[-70.585129,19.653202],[-70.585793,19.655321],[-70.590416,19.658154],[-70.593971,19.662554],[-70.598969,19.667492],[-70.601715,19.674936],[-70.601318,19.677427],[-70.59771,19.684301],[-70.598137,19.686993],[-70.603264,19.691336],[-70.604668,19.693066],[-70.605659,19.696392],[-70.607178,19.697971],[-70.609764,19.697672],[-70.611496,19.695288],[-70.614601,19.694223],[-70.616669,19.695454],[-70.617584,19.700418],[-70.618515,19.701988],[-70.621651,19.704329],[-70.628532,19.710613],[-70.630966,19.712481],[-70.634529,19.713657],[-70.638153,19.714045],[-70.640518,19.715162],[-70.643143,19.719149],[-70.643944,19.722593],[-70.643784,19.728512],[-70.641457,19.734594],[-70.640182,19.738979],[-70.635971,19.742992],[-70.634521,19.745861],[-70.630493,19.748289],[-70.628014,19.753559],[-70.62442,19.759562],[-70.622993,19.764021],[-70.622993,19.767361],[-70.62542,19.76375],[-70.630974,19.763197],[-70.634308,19.765417],[-70.638191,19.766527],[-70.638748,19.767916],[-70.638474,19.772083],[-70.641251,19.774027],[-70.643753,19.772362],[-70.650696,19.772917],[-70.653473,19.776251],[-70.657913,19.779583],[-70.658752,19.783194],[-70.661804,19.785692],[-70.664024,19.786528],[-70.667358,19.786249],[-70.669304,19.788197],[-70.670135,19.790695],[-70.672638,19.790972],[-70.678749,19.795139],[-70.683197,19.795973],[-70.686249,19.799303],[-70.688469,19.799028],[-70.691803,19.800972],[-70.69236,19.804029],[-70.696251,19.804861],[-70.696251,19.802916],[-70.699028,19.802086],[-70.700417,19.799862],[-70.702637,19.79875],[-70.705971,19.801525],[-70.706253,19.803473],[-70.702637,19.806528],[-70.70903,19.811806],[-70.710976,19.814861],[-70.714302,19.814583],[-70.715416,19.815971],[-70.72097,19.817362],[-70.725693,19.81986],[-70.729584,19.820972],[-70.730415,19.827084],[-70.734306,19.826803],[-70.734024,19.829861],[-70.737358,19.830418],[-70.73764,19.832916],[-70.741531,19.832916],[-70.743195,19.834583],[-70.743469,19.836527],[-70.746246,19.837917],[-70.750137,19.837698],[-70.757362,19.837917],[-70.757637,19.83625],[-70.765419,19.834028],[-70.770142,19.835138],[-70.774025,19.832361],[-70.776253,19.829308],[-70.778748,19.828194],[-70.78125,19.828751],[-70.784584,19.831806],[-70.784584,19.833195],[-70.781525,19.837084],[-70.778748,19.838751],[-70.778236,19.842083],[-70.78347,19.846806],[-70.785973,19.849861],[-70.78653,19.852638],[-70.788475,19.855415],[-70.792892,19.857084],[-70.791206,19.856144],[-70.793953,19.854218],[-70.797539,19.850504],[-70.799355,19.847181],[-70.801689,19.845098],[-70.804642,19.843634],[-70.808205,19.840851],[-70.811783,19.839401],[-70.814255,19.840261],[-70.817253,19.844854],[-70.819542,19.846964],[-70.822548,19.848433],[-70.827454,19.85244],[-70.832359,19.857531],[-70.834328,19.862711],[-70.836655,19.864532],[-70.842834,19.864206],[-70.848724,19.861376],[-70.851425,19.858765],[-70.854668,19.853773],[-70.85907,19.849167],[-70.861748,19.844715],[-70.86412,19.842661],[-70.873116,19.838539],[-70.880234,19.832705],[-70.884407,19.830589],[-70.887093,19.827953],[-70.887672,19.825335],[-70.887314,19.82192],[-70.886154,19.81897],[-70.884186,19.818651],[-70.878975,19.816305],[-70.873772,19.812475],[-70.869492,19.811131],[-70.863472,19.811346],[-70.859642,19.813396],[-70.856766,19.813463],[-70.852219,19.809235],[-70.849487,19.808302],[-70.842522,19.808352],[-70.836311,19.810467],[-70.831802,19.808943],[-70.828712,19.805069],[-70.827553,19.797739],[-70.825996,19.793819],[-70.826035,19.79133],[-70.82766,19.787506],[-70.827507,19.782955],[-70.825928,19.779625],[-70.825317,19.776123],[-70.825287,19.769535],[-70.824623,19.766075],[-70.821251,19.763184],[-70.816628,19.762115],[-70.812355,19.760384],[-70.80619,19.759909],[-70.802383,19.760406],[-70.79528,19.765018],[-70.791992,19.765358],[-70.789818,19.764315],[-70.786736,19.760893],[-70.780602,19.757048],[-70.777634,19.75421],[-70.769974,19.756807],[-70.763046,19.757113],[-70.760818,19.756727],[-70.757668,19.754345],[-70.756905,19.752352],[-70.756721,19.74472],[-70.756058,19.74024],[-70.754417,19.7369],[-70.753792,19.732637],[-70.755173,19.728979],[-70.761223,19.724833],[-70.76667,19.722855],[-70.768585,19.720493],[-70.768547,19.712963],[-70.763008,19.711287],[-70.756996,19.708534],[-70.753563,19.705914],[-70.751495,19.70303],[-70.750603,19.696377],[-70.749962,19.694489],[-70.74752,19.691381],[-70.744011,19.688215],[-70.740997,19.68667],[-70.732605,19.686096],[-70.7304,19.68499],[-70.727921,19.680937],[-70.726669,19.675854],[-70.723412,19.671345],[-70.715378,19.663853],[-70.712608,19.659857],[-70.712257,19.657845],[-70.712196,19.650202],[-70.711655,19.646852],[-70.708397,19.640579],[-70.703316,19.635302],[-70.700912,19.63666],[-70.697159,19.640354],[-70.693008,19.640762],[-70.689735,19.639299],[-70.683784,19.633722],[-70.680092,19.629278],[-70.676094,19.621298],[-70.671921,19.618414],[-70.667038,19.617899],[-70.664352,19.617105],[-70.659706,19.613819],[-70.655479,19.612532],[-70.647812,19.611952],[-70.644135,19.610495],[-70.636879,19.609175],[-70.635315,19.60824],[-70.630714,19.602617],[-70.629044,19.597979],[-70.628967,19.590666],[-70.628281,19.58717],[-70.623466,19.580297],[-70.622864,19.573067],[-70.623245,19.569622],[-70.624489,19.567553],[-70.626854,19.565969],[-70.62867,19.563492],[-70.62896,19.560879],[-70.626801,19.55703],[-70.622879,19.55497],[-70.621101,19.553209],[-70.620224,19.55061],[-70.619942,19.544947],[-70.61869,19.542103],[-70.615128,19.53941],[-70.612747,19.536554],[-70.606339,19.536034],[-70.594414,19.535973],[-70.587631,19.535242],[-70.584709,19.533928],[-70.580414,19.533138],[-70.573608,19.533018],[-70.570122,19.531527],[-70.568802,19.527683],[-70.566811,19.52537],[-70.557297,19.520691],[-70.552055,19.516863],[-70.547722,19.514624],[-70.541183,19.509781],[-70.539818,19.507395],[-70.534904,19.508345],[-70.533913,19.510666],[-70.533371,19.5166],[-70.532341,19.517981],[-70.529434,19.519245],[-70.528107,19.521238],[-70.526459,19.528757],[-70.526741,19.530962],[-70.529976,19.535721],[-70.53006,19.538202],[-70.528343,19.54266],[-70.528618,19.546568],[-70.530228,19.549896],[-70.531113,19.555662],[-70.530846,19.559286],[-70.529175,19.562155],[-70.5261,19.563583],[-70.521782,19.564081],[-70.519569,19.565144],[-70.517395,19.567635],[-70.514519,19.568707],[-70.510094,19.566446]]]},"properties":{"shapeName":"San Felipe de Puerto Plata","shapeISO":"3306468B57439307714728","shapeGroup":"DOM","shapeType":"ADM2","src_shape_id":"3306468B57439307714728","adm1ISO":"DO-18"}},
{"type":"Feature","geometry":{"type":"Polygon","coordinates":[[[-70.363197,19.701529],[-70.364861,19.703472],[-70.368469,19.709307],[-70.371529,19.71236],[-70.371803,19.714861],[-70.373749,19.716528],[-70.375694,19.720972],[-70.377914,19.72403],[-70.385139,19.731806],[-70.38736,19.735138],[-70.388191,19.738472],[-70.390137,19.740417],[-70.391251,19.743195],[-70.395691,19.747639],[-70.399582,19.750139],[-70.402359,19.75264],[-70.404305,19.750994],[-70.409859,19.750694],[-70.41375,19.753195],[-70.415413,19.75625],[-70.419586,19.760695],[-70.419861,19.762083],[-70.42347,19.764862],[-70.42514,19.764862],[-70.427917,19.767084],[-70.429863,19.767639],[-70.432915,19.77125],[-70.433472,19.772917],[-70.437363,19.776251],[-70.438751,19.778194],[-70.445419,19.780695],[-70.449028,19.782917],[-70.454025,19.784306],[-70.457359,19.784582],[-70.463753,19.784306],[-70.467087,19.785139],[-70.469025,19.783751],[-70.471527,19.783751],[-70.473198,19.785139],[-70.479858,19.784861],[-70.484024,19.785139],[-70.489586,19.784582],[-70.496529,19.78236],[-70.502357,19.78236],[-70.50486,19.781252],[-70.508469,19.780695],[-70.51236,19.77903],[-70.513474,19.777639],[-70.513474,19.772083],[-70.518196,19.768473],[-70.518471,19.764305],[-70.519859,19.761526],[-70.517082,19.760695],[-70.517365,19.755972],[-70.519859,19.754862],[-70.528198,19.755417],[-70.529305,19.75625],[-70.535416,19.75625],[-70.536804,19.754583],[-70.540413,19.756805],[-70.545418,19.755695],[-70.547081,19.754583],[-70.550415,19.756805],[-70.552635,19.759304],[-70.554031,19.762362],[-70.557083,19.764584],[-70.560143,19.764029],[-70.562363,19.762362],[-70.563194,19.764029],[-70.565414,19.764584],[-70.569031,19.763472],[-70.569862,19.762083],[-70.574303,19.760139],[-70.580139,19.759583],[-70.582359,19.757084],[-70.586639,19.756527],[-70.583099,19.752939],[-70.579628,19.748405],[-70.579422,19.744078],[-70.585159,19.738138],[-70.586777,19.735909],[-70.587448,19.733261],[-70.587532,19.729115],[-70.586983,19.72574],[-70.582138,19.718912],[-70.58149,19.715397],[-70.581276,19.706982],[-70.57885,19.705],[-70.574966,19.705116],[-70.572929,19.706291],[-70.570023,19.709276],[-70.567825,19.709124],[-70.564423,19.707684],[-70.557976,19.703112],[-70.554413,19.701267],[-70.552589,19.699516],[-70.546196,19.687763],[-70.54348,19.682165],[-70.543655,19.679024],[-70.546616,19.673429],[-70.55262,19.666281],[-70.557098,19.662367],[-70.557747,19.660261],[-70.55751,19.655127],[-70.555481,19.652479],[-70.552864,19.651463],[-70.546188,19.651377],[-70.543671,19.650612],[-70.542809,19.649008],[-70.543694,19.646271],[-70.546204,19.645548],[-70.550507,19.645596],[-70.554298,19.644444],[-70.557419,19.6392],[-70.557838,19.635561],[-70.557495,19.630407],[-70.55645,19.627878],[-70.553047,19.623461],[-70.550568,19.621386],[-70.548302,19.617779],[-70.54557,19.615955],[-70.54068,19.617182],[-70.536804,19.615677],[-70.534714,19.612074],[-70.533447,19.607048],[-70.532097,19.604904],[-70.527008,19.601858],[-70.522293,19.598549],[-70.519279,19.597086],[-70.516685,19.594347],[-70.516075,19.591574],[-70.515862,19.58662],[-70.514618,19.583797],[-70.512337,19.582064],[-70.510574,19.579617],[-70.509438,19.5762],[-70.505196,19.570433],[-70.505257,19.567179],[-70.510094,19.566446],[-70.509796,19.563349],[-70.508018,19.561182],[-70.503967,19.559877],[-70.501778,19.55765],[-70.501099,19.554804],[-70.501778,19.549719],[-70.503304,19.546455],[-70.502785,19.541454],[-70.496124,19.540941],[-70.493034,19.541819],[-70.489983,19.546181],[-70.484138,19.557438],[-70.483498,19.559977],[-70.483917,19.563276],[-70.488579,19.572226],[-70.490196,19.58075],[-70.495804,19.591509],[-70.501373,19.597542],[-70.503616,19.600485],[-70.504227,19.605505],[-70.50322,19.607988],[-70.496635,19.611803],[-70.495483,19.613853],[-70.49559,19.616337],[-70.497658,19.620878],[-70.498245,19.626762],[-70.498428,19.645676],[-70.498032,19.64905],[-70.496086,19.650867],[-70.490601,19.650562],[-70.487381,19.648447],[-70.481522,19.646677],[-70.479179,19.646904],[-70.475471,19.64941],[-70.472664,19.650015],[-70.470695,19.649004],[-70.468018,19.648994],[-70.464584,19.650272],[-70.456581,19.650742],[-70.455551,19.652491],[-70.453033,19.653448],[-70.441628,19.653435],[-70.437851,19.653915],[-70.433357,19.657965],[-70.430992,19.65836],[-70.427101,19.655083],[-70.424667,19.650303],[-70.422943,19.645826],[-70.42099,19.64485],[-70.416359,19.644623],[-70.412567,19.646406],[-70.411438,19.650133],[-70.409706,19.65218],[-70.407211,19.652521],[-70.405823,19.651476],[-70.400932,19.643064],[-70.400444,19.648485],[-70.398987,19.651918],[-70.396416,19.652163],[-70.3927,19.657408],[-70.388641,19.660725],[-70.384995,19.66157],[-70.377304,19.66151],[-70.374298,19.661825],[-70.371635,19.663073],[-70.368584,19.666071],[-70.367554,19.668634],[-70.36792,19.672619],[-70.369705,19.676641],[-70.370377,19.680799],[-70.371483,19.683104],[-70.376404,19.684132],[-70.378593,19.685925],[-70.378052,19.688089],[-70.374023,19.693451],[-70.373024,19.696301],[-70.370773,19.698166],[-70.3666,19.699545],[-70.363197,19.701529]]]},"properties":{"shapeName":"Sosua","shapeISO":"3306468B55760825381670","shapeGroup":"DOM","shapeType":"ADM2","src_shape_id":"3306468B55760825381670","adm1ISO":"DO-18"}}
]}