{"type":"FeatureCollection","bbox":[-69.115852,18.339306,-68.839096,18.671227],"features":[
{"type":"Feature","id":"DOM:ADM2:DO-12.guaymate","properties":{"shapeName":"Guaymate","shapeISO":"","shapeGroup":"DOM","shapeType":"ADM2","adm1ISO":"DO-12","parentISO":"DO-12","parentID":"DOM:ADM1:DO-12","src_shape_id":"3306468B11940370524112"},"geometry":{"type":"Polygon","coordinates":[[[-69.077934,18.533928],[-69.08268,18.528145],[-69.085533,18.522482],[-69.087563,18.517536],[-69.090248,18.515469],[-69.091568,18.513002],[-69.092133,18.507854],[-69.091522,18.500443],[-69.085686,18.489149],[-69.082359,18.486137],[-69.077774,18.483803],[-69.074539,18.483238],[-69.072205,18.484138],[-69.071381,18.485865],[-69.070847,18.490561],[-69.069122,18.493237],[-69.063416,18.496225],[-69.060699,18.49704],[-69.056778,18.497265],[-69.040695,18.497047],[-69.032928,18.497751],[-69.027199,18.499762],[-69.022812,18.499458],[-69.018005,18.495174],[-69.014519,18.494164],[-69.005348,18.492737],[-68.999634,18.49489],[-68.99762,18.497156],[-68.996925,18.500931],[-68.997124,18.509577],[-68.996407,18.512268],[-68.994003,18.51363],[-68.9888,18.513893],[-68.986229,18.514824],[-68.983208,18.520618],[-68.979912,18.521519],[-68.977295,18.520262],[-68.973724,18.517469],[-68.969345,18.516832],[-68.965744,18.520008],[-68.963226,18.521513],[-68.960136,18.52198],[-68.953629,18.522076],[-68.94973,18.522638],[-68.94619,18.524109],[-68.940506,18.524742],[-68.934845,18.523947],[-68.931427,18.5224],[-68.928459,18.522093],[-68.926025,18.523155],[-68.923195,18.526756],[-68.919464,18.529562],[-68.915466,18.530262],[-68.862389,18.529867],[-68.858131,18.529016],[-68.854568,18.527269],[-68.840508,18.526381],[-68.84201,18.531734],[-68.842987,18.537279],[-68.844398,18.540646],[-68.844673,18.543089],[-68.842552,18.54954],[-68.842278,18.554689],[-68.842834,18.559858],[-68.847763,18.567379],[-68.848717,18.570204],[-68.850403,18.571766],[-68.854614,18.573046],[-68.859421,18.575773],[-68.863571,18.580006],[-68.866417,18.581547],[-68.868576,18.583817],[-68.872276,18.590267],[-68.873993,18.591879],[-68.879181,18.594936],[-68.880913,18.597239],[-68.88179,18.600224],[-68.887459,18.611568],[-68.89035,18.61404],[-68.897713,18.614653],[-68.900352,18.615225],[-68.902069,18.619328],[-68.90184,18.632046],[-68.901497,18.63566],[-68.900246,18.640085],[-68.901222,18.642347],[-68.905266,18.647306],[-68.907822,18.648609],[-68.910789,18.651447],[-68.911018,18.654621],[-68.912155,18.656712],[-68.915756,18.658939],[-68.920006,18.660826],[-68.925865,18.664301],[-68.92804,18.663347],[-68.931557,18.662928],[-68.935616,18.664139],[-68.940819,18.667877],[-68.945511,18.669107],[-68.949036,18.670658],[-68.953117,18.671227],[-68.958611,18.669308],[-68.963409,18.669205],[-68.966774,18.670746],[-68.969353,18.671139],[-68.972816,18.668507],[-68.973213,18.665892],[-68.972672,18.663315],[-68.970917,18.659498],[-68.971161,18.657028],[-68.973633,18.649923],[-68.978729,18.644379],[-68.980118,18.637489],[-68.981895,18.632746],[-68.982407,18.628031],[-68.985336,18.62167],[-68.990479,18.615026],[-68.997551,18.601427],[-69.00531,18.592539],[-69.008102,18.587994],[-69.012726,18.583591],[-69.01506,18.582058],[-69.024139,18.577906],[-69.028801,18.574556],[-69.033913,18.571609],[-69.035255,18.569454],[-69.03595,18.563477],[-69.038696,18.557985],[-69.04361,18.553732],[-69.047958,18.546318],[-69.051979,18.543402],[-69.059631,18.537182],[-69.064987,18.534691],[-69.069115,18.533928],[-69.077934,18.533928]]]}},
{"type":"Feature","id":"DOM:ADM2:DO-12.la-romana","properties":{"shapeName":"La Romana","shapeISO":"","shapeGroup":"DOM","shapeType":"ADM2","adm1ISO":"DO-12","parentISO":"DO-12","parentID":"DOM:ADM1:DO-12","src_shape_id":"3306468B23578023399759"},"geometry":{"type":"Polygon","coordinates":[[[-68.840508,18.526381],[-68.854568,18.527269],[-68.858131,18.529016],[-68.862389,18.529867],[-68.915466,18.530262],[-68.919464,18.529562],[-68.923195,18.526756],[-68.926025,18.523155],[-68.928459,18.522093],[-68.931427,18.5224],[-68.934845,18.523947],[-68.940506,18.524742],[-68.94619,18.524109],[-68.94973,18.522638],[-68.953629,18.522076],[-68.960136,18.52198],[-68.963226,18.521513],[-68.965744,18.520008],[-68.969345,18.516832],[-68.973724,18.517469],[-68.977295,18.520262],[-68.979912,18.521519],[-68.983208,18.520618],[-68.986229,18.514824],[-68.9888,18.513893],[-68.994003,18.51363],[-68.996407,18.512268],[-68.997124,18.509577],[-68.996925,18.500931],[-68.99762,18.497156],[-68.999634,18.49489],[-69.005348,18.492737],[-69.002373,18.485807],[-68.99778,18.476767],[-68.997009,18.471949],[-68.995926,18.46962],[-68.994156,18.468813],[-68.987961,18.468418],[-68.98542,18.466465],[-68.985054,18.458536],[-68.984444,18.455845],[-68.983177,18.454519],[-68.977646,18.451204],[-68.976219,18.448259],[-68.975975,18.424036],[-68.976212,18.42045],[-68.977745,18.418247],[-68.980507,18.417658],[-68.987633,18.417713],[-68.990746,18.417141],[-68.992821,18.41596],[-68.997658,18.411804],[-69.001801,18.409786],[-69.006134,18.409277],[-69.008484,18.408171],[-69.010674,18.404972],[-69.01181,18.401667],[-69.01223,18.398209],[-69.009308,18.398195],[-69.002357,18.400972],[-68.999031,18.401806],[-68.987358,18.402082],[-68.982635,18.400694],[-68.97847,18.400694],[-68.974861,18.403194],[-68.973198,18.408751],[-68.971802,18.409027],[-68.969025,18.411528],[-68.965698,18.41264],[-68.960419,18.413473],[-68.958748,18.414583],[-68.952637,18.41375],[-68.950974,18.41264],[-68.950417,18.410139],[-68.948471,18.406252],[-68.946251,18.406252],[-68.945419,18.408751],[-68.941528,18.409586],[-68.94014,18.408194],[-68.935974,18.407639],[-68.933197,18.40514],[-68.930138,18.40403],[-68.924583,18.404306],[-68.921806,18.403751],[-68.919861,18.402082],[-68.915695,18.401251],[-68.916809,18.397638],[-68.909302,18.397638],[-68.905136,18.399027],[-68.904587,18.400694],[-68.900696,18.398472],[-68.898331,18.398195],[-68.896492,18.400558],[-68.893593,18.406219],[-68.892868,18.414207],[-68.891075,18.4172],[-68.884819,18.420715],[-68.882507,18.424564],[-68.88356,18.429354],[-68.884026,18.436163],[-68.883415,18.439501],[-68.881554,18.443476],[-68.8806,18.450136],[-68.879593,18.453356],[-68.880432,18.456566],[-68.878395,18.459349],[-68.873795,18.459677],[-68.870476,18.46092],[-68.868011,18.463194],[-68.867836,18.466064],[-68.873375,18.469439],[-68.874825,18.471502],[-68.87429,18.475706],[-68.866501,18.479548],[-68.864006,18.482191],[-68.863983,18.484655],[-68.865585,18.489525],[-68.864433,18.491678],[-68.855278,18.496792],[-68.85453,18.498405],[-68.853546,18.504112],[-68.848946,18.510992],[-68.847992,18.514746],[-68.845078,18.517975],[-68.839096,18.52026],[-68.840508,18.526381]]]}},
{"type":"Feature","id":"DOM:ADM2:DO-12.villa-hermosa","properties":{"shapeName":"Villa Hermosa","shapeISO":"","shapeGroup":"DOM","shapeType":"ADM2","adm1ISO":"DO-12","parentISO":"DO-12","parentID":"DOM:ADM1:DO-12","src_shape_id":"3306468B24610118168871"},"geometry":{"type":"MultiPolygon","coordinates":[[[[-69.091568,18.513002],[-69.09491,18.511227],[-69.100197,18.5063],[-69.103363,18.50004],[-69.105453,18.495037],[-69.109367,18.491688],[-69.112465,18.487764],[-69.115211,18.482723],[-69.115852,18.478254],[-69.114868,18.475906],[-69.111656,18.474209],[-69.110382,18.472258],[-69.109718,18.469194],[-69.107903,18.466911],[-69.104385,18.465736],[-69.101463,18.463842],[-69.096527,18.459692],[-69.092392,18.457432],[-69.090134,18.455256],[-69.088982,18.449669],[-69.088074,18.447563],[-69.08326,18.44491],[-69.081879,18.44253],[-69.08165,18.440353],[-69.084496,18.436438],[-69.084274,18.433247],[-69.082794,18.430834],[-69.078522,18.427645],[-69.077461,18.4235],[-69.078606,18.421499],[-69.082527,18.418121],[-69.082657,18.412949],[-69.080627,18.408358],[-69.080238,18.404259],[-69.083206,18.401455],[-69.085625,18.400005],[-69.09127,18.394028],[-69.087082,18.394028],[-69.085136,18.392639],[-69.080139,18.392916],[-69.077637,18.392084],[-69.072083,18.391527],[-69.061531,18.391527],[-69.050415,18.392363],[-69.04792,18.392916],[-69.037918,18.393473],[-69.022919,18.39625],[-69.016251,18.395416],[-69.009308,18.398195],[-69.01223,18.398209],[-69.01181,18.401667],[-69.010674,18.404972],[-69.008484,18.408171],[-69.006134,18.409277],[-69.001801,18.409786],[-68.997658,18.411804],[-68.992821,18.41596],[-68.990746,18.417141],[-68.987633,18.417713],[-68.980507,18.417658],[-68.977745,18.418247],[-68.976212,18.42045],[-68.975975,18.424036],[-68.976219,18.448259],[-68.977646,18.451204],[-68.983177,18.454519],[-68.984444,18.455845],[-68.985054,18.458536],[-68.98542,18.466465],[-68.987961,18.468418],[-68.994156,18.468813],[-68.995926,18.46962],[-68.997009,18.471949],[-68.99778,18.476767],[-69.002373,18.485807],[-69.005348,18.492737],[-69.014519,18.494164],[-69.018005,18.495174],[-69.022812,18.499458],[-69.027199,18.499762],[-69.032928,18.497751],[-69.040695,18.497047],[-69.056778,18.497265],[-69.060699,18.49704],[-69.063416,18.496225],[-69.069122,18.493237],[-69.070847,18.490561],[-69.071381,18.485865],[-69.072205,18.484138],[-69.074539,18.483238],[-69.077774,18.483803],[-69.082359,18.486137],[-69.085686,18.489149],[-69.091522,18.500443],[-69.092133,18.507854],[-69.091568,18.513002]]],[[[-69.011528,18.377916],[-69.017639,18.377083],[-69.019585,18.37125],[-69.020691,18.364305],[-69.020973,18.356251],[-69.023193,18.355972],[-69.025139,18.357084],[-69.025696,18.353474],[-69.024025,18.350142],[-69.018196,18.347919],[-69.015976,18.346251],[-69.012917,18.345415],[-69.007362,18.342916],[-69.000137,18.340416],[-68.998474,18.339306],[-68.993752,18.339306],[-68.991806,18.342916],[-68.991531,18.344862],[-68.994026,18.346525],[-68.993469,18.351528],[-68.996803,18.361526],[-69.000137,18.363749],[-69.000137,18.366249],[-69.002083,18.36875],[-69.003471,18.369028],[-69.006531,18.372084],[-69.007919,18.374306],[-69.011528,18.377916]]]]}}
]}