{"type":"FeatureCollection","bbox":[-70.950508,18.678946,-70.266617,19.374941],"features":[
{"type":"Feature","id":"DOM:ADM2:DO-13.concepcion-de-la-vega","properties":{"shapeName":"Concepción de la Vega","shapeISO":"","shapeGroup":"DOM","shapeType":"ADM2","adm1ISO":"DO-13","parentISO":"DO-13","parentID":"DOM:ADM1:DO-13","src_shape_id":"3306468B4333912279461"},"geometry":{"type":"Polygon","coordinates":[[[-70.355492,19.224228],[-70.388344,19.224422],[-70.401131,19.224312],[-70.403275,19.224527],[-70.405846,19.22649],[-70.406288,19.229748],[-70.405807,19.23918],[-70.404503,19.24428],[-70.406906,19.248442],[-70.407623,19.253109],[-70.411064,19.256741],[-70.411011,19.258904],[-70.409569,19.262133],[-70.409111,19.265005],[-70.408981,19.278589],[-70.410278,19.281736],[-70.412354,19.283257],[-70.419228,19.284193],[-70.421921,19.285229],[-70.428322,19.290501],[-70.433083,19.293163],[-70.435196,19.295521],[-70.435822,19.298132],[-70.435356,19.302811],[-70.433578,19.306644],[-70.433952,19.310299],[-70.436684,19.315376],[-70.442436,19.321251],[-70.44368,19.322977],[-70.444054,19.325567],[-70.441719,19.329111],[-70.442818,19.330875],[-70.446762,19.332886],[-70.450523,19.336388],[-70.459274,19.330236],[-70.464989,19.329229],[-70.467453,19.328291],[-70.468513,19.325966],[-70.469276,19.321146],[-70.470932,19.317041],[-70.471512,19.309973],[-70.472511,19.307653],[-70.477982,19.305305],[-70.481728,19.301699],[-70.484444,19.301027],[-70.491234,19.301359],[-70.494026,19.303232],[-70.495445,19.3078],[-70.495323,19.31439],[-70.494545,19.31789],[-70.489822,19.32469],[-70.487885,19.330177],[-70.486313,19.332199],[-70.489281,19.335037],[-70.492516,19.337301],[-70.500298,19.34104],[-70.507332,19.345951],[-70.513084,19.34808],[-70.517113,19.347048],[-70.522408,19.34642],[-70.525146,19.345535],[-70.529961,19.341311],[-70.535164,19.340847],[-70.54969,19.341042],[-70.569046,19.341064],[-70.574501,19.341593],[-70.576508,19.34251],[-70.58168,19.346315],[-70.587059,19.348877],[-70.58976,19.34951],[-70.597237,19.350145],[-70.598999,19.351721],[-70.600067,19.355148],[-70.602798,19.360865],[-70.606651,19.36697],[-70.612778,19.364183],[-70.618614,19.364002],[-70.622772,19.364761],[-70.62542,19.366047],[-70.628799,19.365589],[-70.630959,19.362247],[-70.631935,19.358435],[-70.632057,19.354008],[-70.632599,19.350231],[-70.635384,19.344528],[-70.638313,19.339945],[-70.645218,19.33481],[-70.649071,19.332853],[-70.653076,19.331041],[-70.657738,19.330036],[-70.660851,19.327852],[-70.662788,19.324537],[-70.666328,19.320175],[-70.66758,19.316982],[-70.667686,19.311464],[-70.667229,19.308781],[-70.665359,19.30481],[-70.664734,19.301306],[-70.664391,19.293261],[-70.663116,19.288149],[-70.666122,19.283421],[-70.666862,19.280479],[-70.665909,19.277046],[-70.667976,19.274412],[-70.670654,19.273821],[-70.675606,19.274347],[-70.677856,19.275761],[-70.680481,19.279943],[-70.684135,19.282433],[-70.688133,19.28336],[-70.693748,19.285263],[-70.697998,19.285706],[-70.701202,19.286837],[-70.705254,19.289974],[-70.70842,19.290756],[-70.710258,19.290041],[-70.713661,19.285908],[-70.718178,19.282822],[-70.71521,19.279984],[-70.713921,19.276186],[-70.712029,19.274035],[-70.709007,19.272043],[-70.70269,19.271229],[-70.699379,19.270077],[-70.695953,19.267508],[-70.692749,19.266062],[-70.68782,19.265518],[-70.684494,19.264364],[-70.678497,19.260572],[-70.672958,19.258982],[-70.671867,19.257036],[-70.67247,19.255363],[-70.675415,19.251839],[-70.676559,19.248726],[-70.673592,19.245888],[-70.670998,19.24461],[-70.668373,19.240259],[-70.668808,19.238045],[-70.672859,19.234905],[-70.67347,19.233379],[-70.671616,19.230894],[-70.670677,19.227911],[-70.671104,19.221415],[-70.673241,19.217482],[-70.671799,19.214041],[-70.6717,19.211557],[-70.672806,19.208424],[-70.671516,19.202984],[-70.672806,19.199663],[-70.671349,19.195816],[-70.664673,19.189423],[-70.664673,19.186602],[-70.658699,19.186565],[-70.653709,19.186123],[-70.649788,19.18502],[-70.646614,19.185772],[-70.643486,19.185471],[-70.640656,19.184183],[-70.637222,19.183578],[-70.633888,19.183901],[-70.632332,19.184858],[-70.628159,19.189854],[-70.625839,19.191536],[-70.619835,19.194311],[-70.617035,19.194754],[-70.612495,19.194185],[-70.610008,19.192661],[-70.606491,19.19355],[-70.60257,19.196457],[-70.598854,19.198288],[-70.595116,19.201626],[-70.593781,19.204014],[-70.59288,19.207779],[-70.591537,19.209883],[-70.584709,19.214365],[-70.580948,19.217737],[-70.578545,19.218681],[-70.576935,19.218044],[-70.574753,19.214663],[-70.572182,19.212088],[-70.569855,19.210884],[-70.567162,19.208273],[-70.563072,19.201366],[-70.559799,19.198933],[-70.558052,19.196356],[-70.55822,19.191792],[-70.559898,19.187376],[-70.559067,19.183725],[-70.55938,19.182081],[-70.563026,19.177322],[-70.565674,19.172344],[-70.565674,19.168661],[-70.564178,19.165342],[-70.562935,19.158045],[-70.56131,19.154684],[-70.559914,19.149561],[-70.558449,19.146793],[-70.557259,19.140162],[-70.559944,19.13669],[-70.562065,19.1329],[-70.565208,19.130503],[-70.565872,19.127865],[-70.564537,19.125917],[-70.563004,19.121389],[-70.561295,19.118053],[-70.559952,19.112886],[-70.556206,19.105171],[-70.557091,19.099922],[-70.554726,19.092455],[-70.553284,19.090572],[-70.550117,19.089972],[-70.545128,19.089886],[-70.542336,19.089169],[-70.539543,19.087004],[-70.538208,19.084827],[-70.539009,19.07889],[-70.534927,19.073326],[-70.53334,19.070395],[-70.530037,19.066566],[-70.525223,19.062033],[-70.523613,19.059944],[-70.523422,19.057718],[-70.524841,19.052485],[-70.524956,19.044737],[-70.527931,19.041933],[-70.524734,19.039577],[-70.519432,19.037134],[-70.516846,19.036863],[-70.514549,19.037622],[-70.516037,19.044682],[-70.515564,19.052246],[-70.514549,19.057013],[-70.516411,19.063541],[-70.521301,19.073179],[-70.522247,19.079823],[-70.523781,19.08292],[-70.530724,19.089441],[-70.532608,19.091986],[-70.531952,19.094202],[-70.529854,19.095371],[-70.524002,19.095997],[-70.519234,19.100136],[-70.515945,19.100985],[-70.51033,19.101233],[-70.507584,19.102396],[-70.505859,19.104612],[-70.502541,19.106535],[-70.497559,19.106709],[-70.494904,19.105829],[-70.492676,19.103546],[-70.487602,19.093794],[-70.483131,19.089167],[-70.478874,19.086868],[-70.474678,19.087955],[-70.472069,19.091469],[-70.468475,19.095165],[-70.473984,19.101028],[-70.476326,19.105478],[-70.476913,19.107893],[-70.475647,19.110912],[-70.472061,19.115885],[-70.470932,19.120277],[-70.468201,19.122883],[-70.463371,19.122978],[-70.457481,19.120556],[-70.454025,19.121782],[-70.453369,19.12479],[-70.453705,19.13434],[-70.454323,19.137135],[-70.455948,19.140442],[-70.456268,19.144363],[-70.454369,19.148945],[-70.453217,19.159],[-70.451874,19.161489],[-70.444519,19.168638],[-70.44146,19.170572],[-70.438515,19.171122],[-70.43158,19.171158],[-70.427124,19.171717],[-70.422142,19.173519],[-70.41301,19.174227],[-70.410324,19.176006],[-70.407532,19.180307],[-70.405952,19.180925],[-70.403648,19.180059],[-70.399834,19.177223],[-70.390793,19.172934],[-70.385674,19.169563],[-70.381531,19.163214],[-70.377159,19.16264],[-70.373093,19.16441],[-70.370163,19.165028],[-70.364754,19.165243],[-70.361099,19.164919],[-70.358849,19.163675],[-70.355507,19.158384],[-70.353073,19.15724],[-70.349617,19.158495],[-70.347404,19.15822],[-70.344315,19.154537],[-70.341629,19.152182],[-70.333801,19.149321],[-70.330414,19.146809],[-70.327911,19.145729],[-70.325333,19.14599],[-70.321236,19.147509],[-70.318436,19.147585],[-70.313507,19.146252],[-70.30867,19.147617],[-70.304543,19.147017],[-70.301613,19.14572],[-70.296417,19.144438],[-70.294373,19.141487],[-70.29538,19.139341],[-70.295006,19.137329],[-70.290924,19.136711],[-70.286362,19.138773],[-70.282768,19.139318],[-70.277374,19.136999],[-70.27475,19.13715],[-70.268829,19.138912],[-70.266617,19.140804],[-70.266663,19.143049],[-70.268219,19.144621],[-70.271255,19.145775],[-70.275253,19.150417],[-70.277275,19.150854],[-70.28083,19.153019],[-70.285065,19.15683],[-70.288765,19.158737],[-70.292847,19.159594],[-70.299294,19.162722],[-70.30246,19.166195],[-70.307678,19.168144],[-70.313683,19.170845],[-70.316597,19.172979],[-70.31897,19.175669],[-70.320862,19.179209],[-70.325279,19.18549],[-70.326187,19.189278],[-70.327545,19.191404],[-70.332634,19.194431],[-70.337288,19.197851],[-70.346375,19.202103],[-70.35244,19.20701],[-70.354935,19.210346],[-70.35553,19.213009],[-70.355492,19.224228]]]}},
{"type":"Feature","id":"DOM:ADM2:DO-13.constanza","properties":{"shapeName":"Constanza","shapeISO":"","shapeGroup":"DOM","shapeType":"ADM2","adm1ISO":"DO-13","parentISO":"DO-13","parentID":"DOM:ADM1:DO-13","src_shape_id":"3306468B51834332245466"},"geometry":{"type":"Polygon","coordinates":[[[-70.673592,18.681778],[-70.668617,18.682257],[-70.664406,18.683889],[-70.658836,18.684523],[-70.649704,18.684444],[-70.644142,18.685087],[-70.640617,18.686581],[-70.636726,18.687223],[-70.628609,18.687052],[-70.626312,18.686453],[-70.619034,18.681915],[-70.612305,18.681061],[-70.606339,18.681345],[-70.592751,18.681206],[-70.586922,18.681952],[-70.582687,18.68428],[-70.581528,18.687662],[-70.583672,18.692818],[-70.585014,18.697262],[-70.586578,18.700335],[-70.586243,18.703018],[-70.584099,18.703838],[-70.578316,18.70472],[-70.576012,18.706833],[-70.574455,18.709688],[-70.570618,18.714737],[-70.568794,18.718094],[-70.565643,18.720051],[-70.563103,18.7197],[-70.558495,18.717915],[-70.554916,18.718916],[-70.552925,18.723372],[-70.554359,18.727701],[-70.554291,18.731003],[-70.551743,18.735661],[-70.550301,18.736877],[-70.548386,18.740009],[-70.544891,18.742851],[-70.535881,18.747124],[-70.531219,18.750496],[-70.527496,18.752104],[-70.522835,18.754892],[-70.522118,18.75658],[-70.52272,18.760292],[-70.527069,18.766264],[-70.527908,18.770025],[-70.527969,18.77656],[-70.529778,18.781206],[-70.534508,18.786011],[-70.536636,18.789686],[-70.537399,18.794781],[-70.53685,18.798733],[-70.537025,18.806349],[-70.538574,18.809458],[-70.546036,18.816612],[-70.552139,18.820074],[-70.556816,18.824493],[-70.55777,18.828485],[-70.557121,18.833179],[-70.555428,18.836487],[-70.554276,18.840961],[-70.551163,18.847244],[-70.546608,18.855402],[-70.546463,18.858568],[-70.547539,18.860415],[-70.552475,18.86499],[-70.557014,18.868622],[-70.5578,18.875271],[-70.559158,18.877928],[-70.563095,18.879864],[-70.565666,18.883875],[-70.567032,18.888941],[-70.570442,18.893345],[-70.574089,18.895922],[-70.575134,18.897455],[-70.575615,18.900848],[-70.575653,18.912092],[-70.574585,18.91736],[-70.569916,18.920183],[-70.566788,18.921343],[-70.561577,18.924461],[-70.56073,18.926897],[-70.5606,18.931833],[-70.560005,18.934589],[-70.556656,18.937395],[-70.552689,18.938185],[-70.549576,18.939829],[-70.546585,18.942896],[-70.543655,18.948608],[-70.542427,18.955847],[-70.540108,18.962429],[-70.539642,18.966446],[-70.53801,18.97016],[-70.534866,18.973955],[-70.531708,18.97957],[-70.528709,18.985821],[-70.527863,18.98872],[-70.525307,18.990974],[-70.5187,18.992001],[-70.512604,18.994518],[-70.508194,18.997368],[-70.507896,18.999569],[-70.509514,19.003185],[-70.509369,19.00771],[-70.507362,19.012928],[-70.507973,19.0168],[-70.512146,19.024586],[-70.512962,19.02799],[-70.513176,19.032396],[-70.514549,19.037622],[-70.516846,19.036863],[-70.519432,19.037134],[-70.524734,19.039577],[-70.527931,19.041933],[-70.535942,19.041584],[-70.540161,19.039907],[-70.545425,19.03854],[-70.549232,19.034945],[-70.559784,19.030611],[-70.562195,19.029116],[-70.566925,19.023853],[-70.569603,19.023296],[-70.574539,19.024832],[-70.577812,19.022232],[-70.577553,19.019243],[-70.576218,19.016775],[-70.576172,19.014301],[-70.578743,19.011654],[-70.582413,19.011076],[-70.59333,19.011366],[-70.597656,19.01103],[-70.600273,19.009943],[-70.606087,19.006104],[-70.608681,19.006025],[-70.610855,19.007639],[-70.612022,19.010227],[-70.61528,19.010309],[-70.622589,19.006784],[-70.62645,19.006767],[-70.62999,19.0082],[-70.637016,19.008783],[-70.652306,19.008926],[-70.65699,19.008633],[-70.659744,19.007568],[-70.664917,19.003826],[-70.670876,19.001083],[-70.679276,19.000443],[-70.682884,18.99975],[-70.688271,18.997311],[-70.692581,18.993591],[-70.696091,18.988197],[-70.69986,18.986532],[-70.706039,18.986536],[-70.709633,18.987417],[-70.718491,18.99164],[-70.726639,18.992369],[-70.729752,18.994457],[-70.730286,18.998417],[-70.73143,19.001574],[-70.733299,19.003319],[-70.738411,19.006258],[-70.740227,19.006708],[-70.742088,19.005472],[-70.743683,19.000416],[-70.741928,18.993624],[-70.74202,18.986494],[-70.743256,18.984283],[-70.746902,18.982166],[-70.751976,18.981182],[-70.760056,18.981264],[-70.765472,18.980629],[-70.771225,18.978647],[-70.776657,18.978918],[-70.78315,18.981117],[-70.788521,18.9818],[-70.791153,18.983116],[-70.794632,18.986715],[-70.799026,18.995378],[-70.805443,19.002634],[-70.807739,19.005764],[-70.812332,19.008747],[-70.815002,19.00964],[-70.818916,19.009914],[-70.83741,19.009983],[-70.842796,19.009378],[-70.846336,19.007893],[-70.852898,19.006149],[-70.857864,19.002762],[-70.862465,18.995516],[-70.851547,18.99604],[-70.846268,18.995279],[-70.843735,18.99369],[-70.836746,18.988022],[-70.832458,18.985781],[-70.830437,18.983923],[-70.829552,18.980534],[-70.831932,18.976814],[-70.83609,18.97353],[-70.837151,18.970221],[-70.836716,18.962898],[-70.834709,18.958143],[-70.834084,18.953941],[-70.833122,18.951502],[-70.826515,18.947432],[-70.823692,18.943571],[-70.82251,18.940493],[-70.821472,18.935083],[-70.816475,18.930613],[-70.816917,18.927034],[-70.820045,18.923248],[-70.821983,18.922611],[-70.827637,18.922506],[-70.829964,18.92165],[-70.830528,18.920052],[-70.828781,18.915874],[-70.828133,18.908377],[-70.828217,18.897577],[-70.827461,18.89168],[-70.825836,18.888342],[-70.825279,18.885464],[-70.825676,18.881063],[-70.827599,18.877123],[-70.828056,18.873875],[-70.827576,18.871933],[-70.82547,18.869587],[-70.818092,18.865894],[-70.816345,18.864288],[-70.814041,18.860712],[-70.810989,18.85441],[-70.810097,18.848591],[-70.807663,18.841129],[-70.807266,18.837099],[-70.805176,18.832781],[-70.801872,18.829981],[-70.795227,18.826921],[-70.789825,18.825642],[-70.785545,18.823933],[-70.778038,18.823412],[-70.775459,18.822571],[-70.772484,18.818123],[-70.771011,18.812389],[-70.766983,18.804688],[-70.762558,18.800552],[-70.760307,18.797729],[-70.757439,18.792036],[-70.756371,18.787521],[-70.75457,18.783531],[-70.753677,18.779669],[-70.75174,18.776064],[-70.746704,18.771393],[-70.743729,18.770954],[-70.739174,18.772825],[-70.729851,18.77747],[-70.724861,18.778091],[-70.719093,18.777588],[-70.714912,18.77577],[-70.710213,18.774628],[-70.704605,18.772491],[-70.694626,18.772169],[-70.690994,18.771292],[-70.688652,18.769573],[-70.685974,18.766254],[-70.682411,18.75967],[-70.680702,18.75806],[-70.674858,18.75477],[-70.671661,18.75042],[-70.670624,18.747293],[-70.670578,18.74386],[-70.671402,18.740618],[-70.674194,18.735596],[-70.677795,18.731358],[-70.678986,18.728977],[-70.678452,18.725916],[-70.676079,18.721478],[-70.67112,18.715406],[-70.668449,18.710394],[-70.668098,18.707863],[-70.671005,18.702736],[-70.675209,18.700966],[-70.678391,18.696798],[-70.67926,18.694384],[-70.680038,18.689314],[-70.683411,18.686333],[-70.685265,18.683914],[-70.684723,18.679752],[-70.682297,18.678946],[-70.67968,18.679377],[-70.673592,18.681778]]]}},
{"type":"Feature","id":"DOM:ADM2:DO-13.jarabacoa","properties":{"shapeName":"Jarabacoa","shapeISO":"","shapeGroup":"DOM","shapeType":"ADM2","adm1ISO":"DO-13","parentISO":"DO-13","parentID":"DOM:ADM1:DO-13","src_shape_id":"3306468B89107795210133"},"geometry":{"type":"Polygon","coordinates":[[[-70.862465,18.995516],[-70.857864,19.002762],[-70.852898,19.006149],[-70.846336,19.007893],[-70.842796,19.009378],[-70.83741,19.009983],[-70.818916,19.009914],[-70.815002,19.00964],[-70.812332,19.008747],[-70.807739,19.005764],[-70.805443,19.002634],[-70.799026,18.995378],[-70.794632,18.986715],[-70.791153,18.983116],[-70.788521,18.9818],[-70.78315,18.981117],[-70.776657,18.978918],[-70.771225,18.978647],[-70.765472,18.980629],[-70.760056,18.981264],[-70.751976,18.981182],[-70.746902,18.982166],[-70.743256,18.984283],[-70.74202,18.986494],[-70.741928,18.993624],[-70.743683,19.000416],[-70.742088,19.005472],[-70.740227,19.006708],[-70.738411,19.006258],[-70.733299,19.003319],[-70.73143,19.001574],[-70.730286,18.998417],[-70.729752,18.994457],[-70.726639,18.992369],[-70.718491,18.99164],[-70.709633,18.987417],[-70.706039,18.986536],[-70.69986,18.986532],[-70.696091,18.988197],[-70.692581,18.993591],[-70.688271,18.997311],[-70.682884,18.99975],[-70.679276,19.000443],[-70.670876,19.001083],[-70.664917,19.003826],[-70.659744,19.007568],[-70.65699,19.008633],[-70.652306,19.008926],[-70.637016,19.008783],[-70.62999,19.0082],[-70.62645,19.006767],[-70.622589,19.006784],[-70.61528,19.010309],[-70.612022,19.010227],[-70.610855,19.007639],[-70.608681,19.006025],[-70.606087,19.006104],[-70.600273,19.009943],[-70.597656,19.01103],[-70.59333,19.011366],[-70.582413,19.011076],[-70.578743,19.011654],[-70.576172,19.014301],[-70.576218,19.016775],[-70.577553,19.019243],[-70.577812,19.022232],[-70.574539,19.024832],[-70.569603,19.023296],[-70.566925,19.023853],[-70.562195,19.029116],[-70.559784,19.030611],[-70.549232,19.034945],[-70.545425,19.03854],[-70.540161,19.039907],[-70.535942,19.041584],[-70.527931,19.041933],[-70.524956,19.044737],[-70.524841,19.052485],[-70.523422,19.057718],[-70.523613,19.059944],[-70.525223,19.062033],[-70.530037,19.066566],[-70.53334,19.070395],[-70.534927,19.073326],[-70.539009,19.07889],[-70.538208,19.084827],[-70.539543,19.087004],[-70.542336,19.089169],[-70.545128,19.089886],[-70.550117,19.089972],[-70.553284,19.090572],[-70.554726,19.092455],[-70.557091,19.099922],[-70.556206,19.105171],[-70.559952,19.112886],[-70.561295,19.118053],[-70.563004,19.121389],[-70.564537,19.125917],[-70.565872,19.127865],[-70.565208,19.130503],[-70.562065,19.1329],[-70.559944,19.13669],[-70.557259,19.140162],[-70.558449,19.146793],[-70.559914,19.149561],[-70.56131,19.154684],[-70.562935,19.158045],[-70.564178,19.165342],[-70.565674,19.168661],[-70.565674,19.172344],[-70.563026,19.177322],[-70.55938,19.182081],[-70.559067,19.183725],[-70.559898,19.187376],[-70.55822,19.191792],[-70.558052,19.196356],[-70.559799,19.198933],[-70.563072,19.201366],[-70.567162,19.208273],[-70.569855,19.210884],[-70.572182,19.212088],[-70.574753,19.214663],[-70.576935,19.218044],[-70.578545,19.218681],[-70.580948,19.217737],[-70.584709,19.214365],[-70.591537,19.209883],[-70.59288,19.207779],[-70.593781,19.204014],[-70.595116,19.201626],[-70.598854,19.198288],[-70.60257,19.196457],[-70.606491,19.19355],[-70.610008,19.192661],[-70.612495,19.194185],[-70.617035,19.194754],[-70.619835,19.194311],[-70.625839,19.191536],[-70.628159,19.189854],[-70.632332,19.184858],[-70.633888,19.183901],[-70.637222,19.183578],[-70.640656,19.184183],[-70.643486,19.185471],[-70.646614,19.185772],[-70.649788,19.18502],[-70.653709,19.186123],[-70.658699,19.186565],[-70.664673,19.186602],[-70.666748,19.185698],[-70.668938,19.182882],[-70.673889,19.177849],[-70.676125,19.176117],[-70.681305,19.173874],[-70.684288,19.174335],[-70.687408,19.176933],[-70.690491,19.180744],[-70.691582,19.187351],[-70.692429,19.189804],[-70.697021,19.193062],[-70.699692,19.195614],[-70.70295,19.200743],[-70.705704,19.202971],[-70.709206,19.203308],[-70.711693,19.201895],[-70.714813,19.198072],[-70.715034,19.19486],[-70.713844,19.192862],[-70.71067,19.190521],[-70.709862,19.188889],[-70.710373,19.185886],[-70.71431,19.178793],[-70.715202,19.173994],[-70.715042,19.166712],[-70.715454,19.163452],[-70.718445,19.16151],[-70.723808,19.160892],[-70.735771,19.155472],[-70.742828,19.149664],[-70.747322,19.147787],[-70.754822,19.147272],[-70.756493,19.145733],[-70.757294,19.142973],[-70.759079,19.140551],[-70.764748,19.138769],[-70.768318,19.136679],[-70.772537,19.132923],[-70.774918,19.131441],[-70.778427,19.130795],[-70.785789,19.130949],[-70.788597,19.131409],[-70.792068,19.132914],[-70.795959,19.133003],[-70.801178,19.130629],[-70.803452,19.128445],[-70.804855,19.123493],[-70.806572,19.120592],[-70.810646,19.116652],[-70.817764,19.112488],[-70.822609,19.108335],[-70.830307,19.103653],[-70.83522,19.099136],[-70.840363,19.093124],[-70.843079,19.092514],[-70.846184,19.093777],[-70.849335,19.093664],[-70.852196,19.092461],[-70.85643,19.091843],[-70.861542,19.092094],[-70.866905,19.09417],[-70.869568,19.09413],[-70.871948,19.092155],[-70.872917,19.086016],[-70.874207,19.084028],[-70.878983,19.083345],[-70.893173,19.083715],[-70.896255,19.084303],[-70.902031,19.0863],[-70.906738,19.08655],[-70.913063,19.086336],[-70.917549,19.088926],[-70.922928,19.091461],[-70.925743,19.092213],[-70.933403,19.092472],[-70.937263,19.09141],[-70.939651,19.087303],[-70.943459,19.083647],[-70.944138,19.080853],[-70.943817,19.074272],[-70.942581,19.069849],[-70.946037,19.064566],[-70.9468,19.062025],[-70.946609,19.059401],[-70.944778,19.053684],[-70.948303,19.043596],[-70.950508,19.039963],[-70.94606,19.035082],[-70.942467,19.033373],[-70.936829,19.032845],[-70.933083,19.031006],[-70.926659,19.025414],[-70.920685,19.022543],[-70.91304,19.021421],[-70.911079,19.020769],[-70.905762,19.016899],[-70.901611,19.014757],[-70.896858,19.01119],[-70.892143,19.008703],[-70.882065,18.999502],[-70.87989,18.997078],[-70.879295,18.993362],[-70.881973,18.988644],[-70.878014,18.987753],[-70.87468,18.988003],[-70.869461,18.992605],[-70.862465,18.995516]]]}},
{"type":"Feature","id":"DOM:ADM2:DO-13.jima-abajo","properties":{"shapeName":"Jima Abajo","shapeISO":"","shapeGroup":"DOM","shapeType":"ADM2","adm1ISO":"DO-13","parentISO":"DO-13","parentID":"DOM:ADM1:DO-13","src_shape_id":"3306468B99813204721250"},"geometry":{"type":"Polygon","coordinates":[[[-70.468475,19.095165],[-70.465538,19.093607],[-70.463379,19.094366],[-70.459312,19.097317],[-70.450829,19.101164],[-70.443901,19.104681],[-70.442345,19.106606],[-70.441025,19.110678],[-70.43544,19.115164],[-70.434204,19.117069],[-70.434555,19.119785],[-70.432564,19.122854],[-70.428291,19.12471],[-70.42601,19.124714],[-70.417686,19.118006],[-70.414612,19.116594],[-70.411552,19.114061],[-70.408424,19.109194],[-70.405693,19.106668],[-70.402779,19.105328],[-70.40062,19.102526],[-70.403137,19.093708],[-70.402252,19.088749],[-70.399597,19.085665],[-70.388329,19.075096],[-70.383171,19.069588],[-70.381393,19.066113],[-70.378792,19.063143],[-70.374115,19.059458],[-70.367859,19.06201],[-70.365562,19.064976],[-70.361816,19.068207],[-70.357277,19.070795],[-70.35273,19.076303],[-70.343903,19.080772],[-70.341034,19.084059],[-70.339897,19.088408],[-70.336082,19.091986],[-70.334068,19.096918],[-70.331177,19.102577],[-70.325478,19.108557],[-70.324173,19.111837],[-70.325996,19.114355],[-70.329536,19.117653],[-70.331039,19.119864],[-70.330635,19.123554],[-70.326508,19.131262],[-70.325165,19.136297],[-70.323074,19.138596],[-70.319572,19.140278],[-70.315613,19.143633],[-70.313507,19.146252],[-70.318436,19.147585],[-70.321236,19.147509],[-70.325333,19.14599],[-70.327911,19.145729],[-70.330414,19.146809],[-70.333801,19.149321],[-70.341629,19.152182],[-70.344315,19.154537],[-70.347404,19.15822],[-70.349617,19.158495],[-70.353073,19.15724],[-70.355507,19.158384],[-70.358849,19.163675],[-70.361099,19.164919],[-70.364754,19.165243],[-70.370163,19.165028],[-70.373093,19.16441],[-70.377159,19.16264],[-70.381531,19.163214],[-70.385674,19.169563],[-70.390793,19.172934],[-70.399834,19.177223],[-70.403648,19.180059],[-70.405952,19.180925],[-70.407532,19.180307],[-70.410324,19.176006],[-70.41301,19.174227],[-70.422142,19.173519],[-70.427124,19.171717],[-70.43158,19.171158],[-70.438515,19.171122],[-70.44146,19.170572],[-70.444519,19.168638],[-70.451874,19.161489],[-70.453217,19.159],[-70.454369,19.148945],[-70.456268,19.144363],[-70.455948,19.140442],[-70.454323,19.137135],[-70.453705,19.13434],[-70.453369,19.12479],[-70.454025,19.121782],[-70.457481,19.120556],[-70.463371,19.122978],[-70.468201,19.122883],[-70.470932,19.120277],[-70.472061,19.115885],[-70.475647,19.110912],[-70.476913,19.107893],[-70.476326,19.105478],[-70.473984,19.101028],[-70.468475,19.095165]]]}},
{"type":"Feature","id":"DOM:ADM2:DO-13.sabana-iglesia","properties":{"shapeName":"Sabana Iglesia","shapeISO":"","shapeGroup":"DOM","shapeType":"ADM2","adm1ISO":"DO-13","parentISO":"DO-13","parentID":"DOM:ADM1:DO-13","src_shape_id":"3306468B1703224271200"},"geometry":{"type":"Polygon","coordinates":[[[-70.649071,19.332853],[-70.65274,19.339458],[-70.653114,19.343193],[-70.657219,19.349916],[-70.6632,19.361868],[-70.669174,19.361494],[-70.677391,19.361494],[-70.681877,19.357759],[-70.684113,19.355145],[-70.690094,19.351784],[-70.697563,19.350662],[-70.706154,19.353651],[-70.708015,19.362988],[-70.715492,19.367098],[-70.722961,19.367098],[-70.725571,19.374941],[-70.731178,19.374567],[-70.736031,19.369711],[-70.740517,19.369711],[-70.750259,19.374403],[-70.753983,19.372374],[-70.756081,19.370152],[-70.757782,19.364569],[-70.760483,19.359486],[-70.76384,19.35537],[-70.764374,19.353004],[-70.760849,19.349117],[-70.756424,19.347075],[-70.752464,19.343901],[-70.750824,19.339621],[-70.751816,19.337366],[-70.754364,19.336584],[-70.761299,19.336321],[-70.762627,19.333229],[-70.761833,19.331751],[-70.758362,19.330433],[-70.757072,19.328569],[-70.757401,19.322884],[-70.758369,19.320335],[-70.75782,19.318075],[-70.753021,19.310976],[-70.751175,19.309216],[-70.744644,19.30616],[-70.737701,19.305422],[-70.735001,19.303995],[-70.734306,19.30195],[-70.735497,19.298882],[-70.736183,19.292397],[-70.735191,19.288294],[-70.733299,19.286539],[-70.73069,19.28573],[-70.726479,19.285391],[-70.718178,19.282822],[-70.713661,19.285908],[-70.710258,19.290041],[-70.70842,19.290756],[-70.705254,19.289974],[-70.701202,19.286837],[-70.697998,19.285706],[-70.693748,19.285263],[-70.688133,19.28336],[-70.684135,19.282433],[-70.680481,19.279943],[-70.677856,19.275761],[-70.675606,19.274347],[-70.670654,19.273821],[-70.667976,19.274412],[-70.665909,19.277046],[-70.666862,19.280479],[-70.666122,19.283421],[-70.663116,19.288149],[-70.664391,19.293261],[-70.664734,19.301306],[-70.665359,19.30481],[-70.667229,19.308781],[-70.667686,19.311464],[-70.66758,19.316982],[-70.666328,19.320175],[-70.662788,19.324537],[-70.660851,19.327852],[-70.657738,19.330036],[-70.653076,19.331041],[-70.649071,19.332853]]]}}
]}