{"type":"FeatureCollection","bbox":[-68.933968,18.109861,-68.323196,18.974306], "features": [
{"type":"Feature","geometry":{"type":"Polygon","coordinates":[[[-68.841736,18.899359],[-68.837265,18.899328],[-68.833801,18.898693],[-68.83107,18.896013],[-68.830055,18.887051],[-68.828514,18.885439],[-68.825638,18.884159],[-68.825027,18.880205],[-68.826523,18.877041],[-68.826859,18.874607],[-68.82576,18.872204],[-68.822159,18.867182],[-68.821106,18.863367],[-68.816429,18.85648],[-68.81517,18.852037],[-68.810585,18.845827],[-68.807968,18.840721],[-68.80925,18.837292],[-68.813507,18.832766],[-68.807053,18.830732],[-68.804092,18.829393],[-68.795158,18.827681],[-68.790596,18.824751],[-68.788292,18.824177],[-68.785004,18.825085],[-68.780273,18.824856],[-68.776756,18.823294],[-68.773018,18.822554],[-68.767853,18.822653],[-68.765656,18.824102],[-68.76516,18.830681],[-68.764275,18.832979],[-68.76062,18.833815],[-68.758728,18.833187],[-68.754967,18.830126],[-68.749878,18.825041],[-68.747734,18.822334],[-68.744804,18.816099],[-68.745415,18.813049],[-68.747818,18.80864],[-68.751884,18.803778],[-68.753136,18.800535],[-68.753204,18.788918],[-68.753906,18.783318],[-68.755592,18.780018],[-68.75631,18.776018],[-68.756081,18.770506],[-68.754135,18.766855],[-68.750122,18.762821],[-68.746529,18.760853],[-68.743362,18.761667],[-68.740349,18.766201],[-68.738075,18.768288],[-68.732857,18.77145],[-68.727997,18.775579],[-68.725533,18.776821],[-68.721497,18.777679],[-68.717941,18.779802],[-68.712029,18.784792],[-68.709305,18.785597],[-68.704994,18.785553],[-68.692863,18.781281],[-68.689659,18.778883],[-68.687225,18.778381],[-68.685059,18.779617],[-68.67939,18.784464],[-68.676064,18.784739],[-68.670685,18.782665],[-68.666573,18.782621],[-68.664001,18.78422],[-68.658257,18.794853],[-68.655678,18.796041],[-68.646217,18.792048],[-68.638107,18.794453],[-68.633064,18.800486],[-68.631508,18.803591],[-68.631424,18.811161],[-68.632729,18.814322],[-68.636887,18.81992],[-68.637421,18.823296],[-68.637207,18.830935],[-68.635902,18.834082],[-68.633125,18.837238],[-68.631638,18.840273],[-68.631989,18.844181],[-68.633583,18.84737],[-68.633224,18.851025],[-68.63092,18.855455],[-68.62899,18.857586],[-68.631805,18.859306],[-68.63208,18.861252],[-68.634865,18.863474],[-68.638748,18.868473],[-68.642639,18.87236],[-68.642639,18.874027],[-68.64653,18.876528],[-68.649582,18.879583],[-68.649864,18.882084],[-68.652359,18.885139],[-68.654861,18.885971],[-68.657082,18.889029],[-68.662636,18.894028],[-68.663193,18.895695],[-68.665413,18.897638],[-68.669304,18.897917],[-68.672081,18.901527],[-68.674583,18.902914],[-68.677361,18.90625],[-68.679863,18.908194],[-68.680695,18.909861],[-68.686249,18.912916],[-68.686531,18.914864],[-68.690414,18.916803],[-68.691254,18.919584],[-68.695137,18.922916],[-68.696251,18.925417],[-68.701248,18.929585],[-68.702637,18.931528],[-68.711525,18.934584],[-68.714027,18.938749],[-68.726524,18.946527],[-68.728752,18.947083],[-68.731247,18.950138],[-68.734581,18.951805],[-68.738472,18.955416],[-68.742363,18.956249],[-68.746529,18.960138],[-68.750694,18.959862],[-68.753754,18.962639],[-68.760696,18.962639],[-68.768471,18.967081],[-68.769302,18.968472],[-68.772362,18.97047],[-68.772919,18.971806],[-68.77636,18.974306],[-68.77652,18.973473],[-68.776962,18.969042],[-68.778358,18.967255],[-68.780731,18.967543],[-68.784042,18.970406],[-68.786354,18.971043],[-68.788162,18.969652],[-68.788048,18.966192],[-68.786621,18.963722],[-68.786537,18.961206],[-68.789154,18.958548],[-68.793304,18.958374],[-68.79734,18.960157],[-68.799896,18.960512],[-68.802994,18.958506],[-68.805893,18.953655],[-68.809387,18.950666],[-68.81424,18.948215],[-68.819519,18.943529],[-68.820915,18.941271],[-68.820732,18.938152],[-68.819145,18.934875],[-68.818489,18.930103],[-68.818932,18.923536],[-68.82119,18.921736],[-68.824242,18.920958],[-68.827141,18.919136],[-68.832031,18.915009],[-68.836281,18.91284],[-68.840248,18.909811],[-68.841873,18.907497],[-68.842377,18.902763],[-68.841736,18.899359]]]},"properties":{"shapeName":"La Laguna de Nisibón\r\n","shapeISO":"3306468B28180088914928","shapeGroup":"DOM","shapeType":"ADM2","src_shape_id":"3306468B28180088914928","adm1ISO":"DO-11"}},
{"type":"Feature","geometry":{"type":"Polygon","coordinates":[[[-68.925865,18.664301],[-68.920006,18.660826],[-68.915756,18.658939],[-68.912155,18.656712],[-68.911018,18.654621],[-68.910789,18.651447],[-68.907822,18.648609],[-68.905266,18.647306],[-68.901222,18.642347],[-68.900246,18.640085],[-68.901497,18.63566],[-68.90184,18.632046],[-68.902069,18.619328],[-68.900352,18.615225],[-68.897713,18.614653],[-68.89035,18.61404],[-68.887459,18.611568],[-68.88179,18.600224],[-68.880913,18.597239],[-68.879181,18.594936],[-68.873993,18.591879],[-68.872276,18.590267],[-68.868576,18.583817],[-68.866417,18.581547],[-68.863571,18.580006],[-68.859421,18.575773],[-68.854614,18.573046],[-68.850403,18.571766],[-68.848717,18.570204],[-68.847763,18.567379],[-68.842834,18.559858],[-68.842278,18.554689],[-68.842552,18.54954],[-68.844673,18.543089],[-68.844398,18.540646],[-68.842987,18.537279],[-68.84201,18.531734],[-68.840508,18.526381],[-68.839096,18.52026],[-68.833427,18.515522],[-68.818794,18.501436],[-68.815445,18.499104],[-68.810921,18.498451],[-68.796944,18.498446],[-68.785637,18.498247],[-68.781013,18.498669],[-68.778671,18.499981],[-68.77713,18.501974],[-68.771477,18.513338],[-68.77108,18.517824],[-68.77121,18.524628],[-68.770515,18.527922],[-68.768517,18.529325],[-68.761963,18.531548],[-68.754875,18.532106],[-68.741081,18.531908],[-68.735031,18.532757],[-68.720924,18.53953],[-68.715691,18.540281],[-68.711884,18.539663],[-68.707664,18.53787],[-68.702255,18.537334],[-68.675812,18.537174],[-68.668007,18.537718],[-68.66465,18.539093],[-68.661797,18.538879],[-68.657669,18.532757],[-68.652565,18.529362],[-68.642883,18.52483],[-68.637665,18.520994],[-68.633385,18.518709],[-68.628777,18.515251],[-68.622169,18.512121],[-68.617432,18.511045],[-68.604851,18.505402],[-68.602982,18.503763],[-68.602188,18.501419],[-68.604172,18.496473],[-68.60405,18.491945],[-68.601334,18.489298],[-68.596031,18.488016],[-68.593071,18.486786],[-68.584068,18.485203],[-68.576012,18.481621],[-68.573753,18.481609],[-68.566315,18.484871],[-68.562729,18.48564],[-68.557312,18.485847],[-68.553726,18.486607],[-68.545593,18.490389],[-68.541756,18.490374],[-68.538918,18.489155],[-68.534332,18.488472],[-68.527061,18.488371],[-68.521645,18.487688],[-68.516769,18.485823],[-68.506119,18.485216],[-68.500282,18.483246],[-68.496384,18.48263],[-68.489876,18.482426],[-68.485985,18.481808],[-68.482452,18.480303],[-68.476891,18.479597],[-68.466927,18.479555],[-68.462166,18.478901],[-68.457985,18.477148],[-68.453285,18.475992],[-68.449745,18.474468],[-68.443649,18.473539],[-68.436363,18.471182],[-68.43235,18.470852],[-68.415009,18.470842],[-68.408043,18.469908],[-68.40097,18.466547],[-68.401253,18.468472],[-68.399307,18.472363],[-68.397362,18.473749],[-68.397362,18.475416],[-68.395691,18.477083],[-68.395691,18.480139],[-68.392914,18.484306],[-68.391808,18.484859],[-68.392082,18.490139],[-68.391808,18.495417],[-68.390694,18.496805],[-68.387085,18.497641],[-68.385696,18.496248],[-68.381805,18.498194],[-68.37986,18.498194],[-68.377914,18.500139],[-68.377083,18.50264],[-68.373749,18.50375],[-68.37458,18.505695],[-68.373192,18.509859],[-68.371246,18.509583],[-68.371246,18.513195],[-68.369583,18.514029],[-68.368469,18.517639],[-68.364304,18.520416],[-68.363197,18.523748],[-68.362915,18.527916],[-68.361526,18.530693],[-68.358475,18.533751],[-68.357361,18.535973],[-68.35347,18.540138],[-68.35347,18.541529],[-68.350418,18.544584],[-68.348747,18.544861],[-68.348198,18.548471],[-68.346802,18.550417],[-68.343475,18.557917],[-68.340141,18.561527],[-68.341248,18.563473],[-68.338753,18.564028],[-68.334305,18.567638],[-68.331528,18.571804],[-68.331253,18.574862],[-68.329582,18.579584],[-68.327637,18.582916],[-68.327637,18.584862],[-68.325974,18.585695],[-68.325142,18.589027],[-68.326248,18.591249],[-68.325142,18.592916],[-68.330139,18.592638],[-68.330696,18.595972],[-68.329582,18.596806],[-68.325989,18.597086],[-68.324028,18.598194],[-68.32486,18.601526],[-68.323196,18.603472],[-68.323196,18.609028],[-68.325417,18.61125],[-68.328194,18.611528],[-68.328194,18.614584],[-68.325142,18.615137],[-68.325142,18.618195],[-68.327637,18.620695],[-68.328751,18.623196],[-68.332359,18.626806],[-68.332642,18.629305],[-68.340698,18.637362],[-68.34375,18.642361],[-68.346252,18.644306],[-68.34903,18.644306],[-68.354584,18.649027],[-68.357635,18.64875],[-68.361526,18.650696],[-68.366806,18.655695],[-68.366806,18.656805],[-68.370697,18.659027],[-68.373192,18.659584],[-68.379303,18.665138],[-68.380692,18.665138],[-68.381531,18.66264],[-68.383751,18.660139],[-68.38903,18.660692],[-68.392365,18.663195],[-68.397087,18.665972],[-68.398476,18.668751],[-68.402916,18.671806],[-68.403748,18.673195],[-68.407913,18.674864],[-68.410973,18.677086],[-68.412086,18.679861],[-68.412086,18.682083],[-68.414307,18.68597],[-68.418472,18.690695],[-68.423752,18.692638],[-68.431252,18.697916],[-68.435417,18.700417],[-68.437637,18.700417],[-68.438469,18.702362],[-68.440971,18.704306],[-68.44236,18.706528],[-68.441528,18.709862],[-68.442642,18.711527],[-68.446808,18.71347],[-68.449303,18.716806],[-68.452362,18.719307],[-68.452637,18.720415],[-68.455971,18.722361],[-68.456253,18.723473],[-68.459862,18.726805],[-68.460136,18.727917],[-68.466248,18.734861],[-68.472916,18.734861],[-68.47847,18.737362],[-68.480415,18.737638],[-68.482635,18.739582],[-68.485695,18.740417],[-68.490692,18.74625],[-68.495972,18.748751],[-68.499306,18.751806],[-68.502914,18.754305],[-68.504585,18.756805],[-68.50708,18.759027],[-68.508469,18.759027],[-68.510414,18.76125],[-68.513474,18.763472],[-68.517914,18.767639],[-68.517914,18.769861],[-68.520416,18.770416],[-68.521805,18.772362],[-68.520416,18.774305],[-68.522919,18.777082],[-68.527641,18.779581],[-68.530136,18.776806],[-68.529861,18.774584],[-68.531525,18.772638],[-68.535698,18.772638],[-68.540413,18.776251],[-68.543198,18.779581],[-68.546806,18.781252],[-68.548752,18.781252],[-68.551529,18.785694],[-68.554031,18.786528],[-68.559303,18.791805],[-68.562637,18.793194],[-68.56292,18.795416],[-68.565414,18.797916],[-68.56736,18.79875],[-68.570694,18.802361],[-68.570694,18.804028],[-68.573471,18.806528],[-68.577362,18.808474],[-68.577362,18.810417],[-68.579582,18.811251],[-68.583473,18.81625],[-68.587082,18.819584],[-68.594582,18.824583],[-68.597359,18.827084],[-68.600975,18.827639],[-68.604858,18.830694],[-68.606529,18.833195],[-68.607086,18.836805],[-68.609581,18.838472],[-68.617081,18.841249],[-68.620415,18.84486],[-68.621246,18.843472],[-68.62542,18.845417],[-68.625694,18.847082],[-68.621529,18.847363],[-68.62236,18.849306],[-68.62899,18.857586],[-68.63092,18.855455],[-68.633224,18.851025],[-68.633583,18.84737],[-68.631989,18.844181],[-68.631638,18.840273],[-68.633125,18.837238],[-68.635902,18.834082],[-68.637207,18.830935],[-68.637421,18.823296],[-68.636887,18.81992],[-68.632729,18.814322],[-68.631424,18.811161],[-68.631508,18.803591],[-68.633064,18.800486],[-68.638107,18.794453],[-68.646217,18.792048],[-68.655678,18.796041],[-68.658257,18.794853],[-68.664001,18.78422],[-68.666573,18.782621],[-68.670685,18.782665],[-68.676064,18.784739],[-68.67939,18.784464],[-68.685059,18.779617],[-68.687225,18.778381],[-68.689659,18.778883],[-68.692863,18.781281],[-68.704994,18.785553],[-68.709305,18.785597],[-68.712029,18.784792],[-68.717941,18.779802],[-68.721497,18.777679],[-68.725533,18.776821],[-68.727997,18.775579],[-68.732857,18.77145],[-68.738075,18.768288],[-68.740349,18.766201],[-68.743362,18.761667],[-68.746529,18.760853],[-68.750122,18.762821],[-68.754135,18.766855],[-68.756081,18.770506],[-68.75631,18.776018],[-68.755592,18.780018],[-68.753906,18.783318],[-68.753204,18.788918],[-68.753136,18.800535],[-68.751884,18.803778],[-68.747818,18.80864],[-68.745415,18.813049],[-68.744804,18.816099],[-68.747734,18.822334],[-68.749878,18.825041],[-68.754967,18.830126],[-68.758728,18.833187],[-68.76062,18.833815],[-68.764275,18.832979],[-68.76516,18.830681],[-68.765656,18.824102],[-68.767853,18.822653],[-68.773018,18.822554],[-68.776756,18.823294],[-68.780273,18.824856],[-68.785004,18.825085],[-68.788292,18.824177],[-68.790596,18.824751],[-68.795158,18.827681],[-68.804092,18.829393],[-68.807053,18.830732],[-68.813507,18.832766],[-68.812073,18.825962],[-68.809204,18.820274],[-68.804276,18.811407],[-68.803856,18.808088],[-68.804596,18.805525],[-68.810059,18.798761],[-68.81163,18.79785],[-68.818542,18.797432],[-68.82196,18.796778],[-68.827965,18.793976],[-68.836746,18.786165],[-68.839073,18.784424],[-68.845139,18.781721],[-68.848747,18.780846],[-68.850502,18.779531],[-68.849182,18.775068],[-68.849167,18.7726],[-68.851517,18.769365],[-68.85463,18.766476],[-68.85672,18.763748],[-68.857056,18.759762],[-68.855919,18.757313],[-68.852638,18.752619],[-68.854431,18.747778],[-68.856445,18.745037],[-68.861435,18.74],[-68.864136,18.735428],[-68.866867,18.732264],[-68.871727,18.72814],[-68.877655,18.725243],[-68.880341,18.724628],[-68.883789,18.725178],[-68.886162,18.727243],[-68.888641,18.731407],[-68.890862,18.73258],[-68.89344,18.732342],[-68.896217,18.731091],[-68.899673,18.730495],[-68.906876,18.729944],[-68.911102,18.728271],[-68.92012,18.727472],[-68.921776,18.726732],[-68.924133,18.722565],[-68.926468,18.720854],[-68.928268,18.718351],[-68.929352,18.714941],[-68.930923,18.712549],[-68.930534,18.710394],[-68.92601,18.706163],[-68.925453,18.702988],[-68.925957,18.698477],[-68.931076,18.693632],[-68.933807,18.688766],[-68.933968,18.685568],[-68.930252,18.68137],[-68.924026,18.67815],[-68.921989,18.676296],[-68.920898,18.67403],[-68.923088,18.668612],[-68.925865,18.664301]]]},"properties":{"shapeName":"Salvaleón de Higüey\r\n","shapeISO":"3306468B87904766376188","shapeGroup":"DOM","shapeType":"ADM2","src_shape_id":"3306468B87904766376188","adm1ISO":"DO-11"}},
{"type":"Feature","geometry":{"type":"MultiPolygon","coordinates":[[[[-68.839096,18.52026],[-68.845078,18.517975],[-68.847992,18.514746],[-68.848946,18.510992],[-68.853546,18.504112],[-68.85453,18.498405],[-68.855278,18.496792],[-68.864433,18.491678],[-68.865585,18.489525],[-68.863983,18.484655],[-68.864006,18.482191],[-68.866501,18.479548],[-68.87429,18.475706],[-68.874825,18.471502],[-68.873375,18.469439],[-68.867836,18.466064],[-68.868011,18.463194],[-68.870476,18.46092],[-68.873795,18.459677],[-68.878395,18.459349],[-68.880432,18.456566],[-68.879593,18.453356],[-68.8806,18.450136],[-68.881554,18.443476],[-68.883415,18.439501],[-68.884026,18.436163],[-68.88356,18.429354],[-68.882507,18.424564],[-68.884819,18.420715],[-68.891075,18.4172],[-68.892868,18.414207],[-68.893593,18.406219],[-68.896492,18.400558],[-68.898331,18.398195],[-68.895973,18.397917],[-68.894585,18.395971],[-68.886253,18.393473],[-68.883751,18.391527],[-68.880974,18.390694],[-68.878754,18.388748],[-68.874306,18.387636],[-68.869026,18.383751],[-68.866531,18.382639],[-68.857918,18.380974],[-68.85125,18.377916],[-68.850693,18.37653],[-68.84375,18.374027],[-68.840698,18.371529],[-68.842636,18.370417],[-68.841248,18.36875],[-68.840973,18.366249],[-68.842636,18.364027],[-68.838196,18.358749],[-68.838196,18.357084],[-68.836525,18.354029],[-68.836525,18.351805],[-68.832085,18.347919],[-68.829582,18.347637],[-68.827919,18.345415],[-68.820419,18.340975],[-68.819031,18.339306],[-68.816254,18.338194],[-68.811806,18.332361],[-68.811249,18.329861],[-68.808746,18.323751],[-68.804863,18.317083],[-68.803749,18.313194],[-68.801529,18.309031],[-68.799309,18.307083],[-68.79792,18.304304],[-68.793198,18.300417],[-68.789307,18.295416],[-68.785141,18.28764],[-68.78347,18.286528],[-68.781807,18.281805],[-68.780418,18.279861],[-68.777641,18.272917],[-68.774582,18.267637],[-68.773193,18.260695],[-68.770973,18.256527],[-68.767639,18.249027],[-68.765419,18.245974],[-68.76403,18.242638],[-68.760414,18.240694],[-68.759026,18.239025],[-68.758194,18.235971],[-68.75486,18.232639],[-68.754303,18.227083],[-68.752357,18.222361],[-68.751808,18.217916],[-68.752357,18.21236],[-68.751526,18.209862],[-68.751808,18.206528],[-68.753197,18.206249],[-68.753754,18.203751],[-68.75264,18.202362],[-68.75042,18.203194],[-68.75042,18.204863],[-68.748474,18.206528],[-68.745415,18.207083],[-68.741531,18.206528],[-68.740974,18.209583],[-68.746803,18.210972],[-68.748474,18.219305],[-68.746803,18.222082],[-68.744583,18.222639],[-68.740135,18.222361],[-68.739029,18.222918],[-68.736252,18.220694],[-68.732361,18.220139],[-68.730141,18.216806],[-68.731247,18.21236],[-68.728195,18.212084],[-68.729027,18.209862],[-68.731804,18.209305],[-68.733749,18.20764],[-68.738747,18.208471],[-68.741531,18.205139],[-68.738197,18.203194],[-68.734306,18.20347],[-68.730141,18.209028],[-68.728752,18.209583],[-68.723198,18.20875],[-68.721802,18.210138],[-68.721252,18.213194],[-68.716805,18.213472],[-68.71125,18.21236],[-68.707642,18.209583],[-68.702637,18.209305],[-68.687363,18.209862],[-68.682915,18.212084],[-68.678749,18.215416],[-68.670975,18.214861],[-68.669586,18.215694],[-68.664024,18.215137],[-68.662086,18.217081],[-68.655136,18.21653],[-68.652916,18.214861],[-68.650696,18.214582],[-68.650414,18.21236],[-68.64875,18.210695],[-68.645973,18.209583],[-68.642639,18.209583],[-68.642082,18.212084],[-68.642914,18.216248],[-68.640694,18.217916],[-68.640694,18.226805],[-68.643753,18.227636],[-68.643196,18.229305],[-68.641251,18.229858],[-68.642082,18.232916],[-68.640694,18.245138],[-68.640694,18.250139],[-68.642082,18.250973],[-68.640137,18.253471],[-68.641808,18.254583],[-68.640137,18.257641],[-68.63736,18.258472],[-68.638474,18.262362],[-68.636528,18.264029],[-68.635139,18.26903],[-68.634865,18.272083],[-68.633194,18.278749],[-68.627357,18.290972],[-68.624031,18.294861],[-68.618752,18.299305],[-68.615692,18.302361],[-68.615135,18.30514],[-68.603195,18.326529],[-68.601807,18.331249],[-68.600975,18.336805],[-68.602364,18.341528],[-68.607918,18.350142],[-68.611809,18.353474],[-68.614861,18.35486],[-68.615692,18.357916],[-68.613747,18.358194],[-68.614861,18.360971],[-68.614586,18.362919],[-68.615692,18.365141],[-68.614586,18.368473],[-68.611809,18.370695],[-68.611526,18.373194],[-68.609581,18.373194],[-68.608192,18.375694],[-68.602913,18.378752],[-68.596527,18.380974],[-68.594582,18.380974],[-68.590141,18.37653],[-68.587364,18.375694],[-68.585136,18.372915],[-68.582642,18.372084],[-68.575974,18.367916],[-68.574028,18.366249],[-68.569862,18.366249],[-68.566254,18.364862],[-68.564026,18.362362],[-68.554863,18.356806],[-68.552086,18.356251],[-68.549309,18.354584],[-68.539864,18.352362],[-68.539307,18.351805],[-68.530693,18.349583],[-68.526802,18.349028],[-68.525696,18.348194],[-68.522362,18.348194],[-68.516525,18.346525],[-68.509583,18.345139],[-68.501808,18.342085],[-68.500137,18.342085],[-68.494858,18.339581],[-68.493469,18.338194],[-68.489586,18.337084],[-68.485695,18.337084],[-68.482086,18.339027],[-68.480698,18.339027],[-68.47625,18.341806],[-68.467361,18.343193],[-68.462082,18.346806],[-68.458191,18.350695],[-68.450417,18.361526],[-68.44986,18.372084],[-68.448753,18.380138],[-68.448753,18.384027],[-68.447914,18.389305],[-68.448196,18.403473],[-68.448753,18.408472],[-68.447639,18.412083],[-68.446526,18.419027],[-68.444305,18.423471],[-68.444305,18.425694],[-68.442917,18.427917],[-68.439308,18.431252],[-68.435692,18.432362],[-68.433746,18.434584],[-68.434029,18.436527],[-68.432083,18.437084],[-68.429306,18.439583],[-68.429306,18.44125],[-68.427635,18.442917],[-68.425415,18.442917],[-68.424858,18.445141],[-68.422638,18.447363],[-68.422638,18.450138],[-68.417358,18.450972],[-68.414864,18.452639],[-68.41375,18.455973],[-68.412086,18.455137],[-68.405693,18.459305],[-68.401253,18.463472],[-68.40097,18.466547],[-68.408043,18.469908],[-68.415009,18.470842],[-68.43235,18.470852],[-68.436363,18.471182],[-68.443649,18.473539],[-68.449745,18.474468],[-68.453285,18.475992],[-68.457985,18.477148],[-68.462166,18.478901],[-68.466927,18.479555],[-68.476891,18.479597],[-68.482452,18.480303],[-68.485985,18.481808],[-68.489876,18.482426],[-68.496384,18.48263],[-68.500282,18.483246],[-68.506119,18.485216],[-68.516769,18.485823],[-68.521645,18.487688],[-68.527061,18.488371],[-68.534332,18.488472],[-68.538918,18.489155],[-68.541756,18.490374],[-68.545593,18.490389],[-68.553726,18.486607],[-68.557312,18.485847],[-68.562729,18.48564],[-68.566315,18.484871],[-68.573753,18.481609],[-68.576012,18.481621],[-68.584068,18.485203],[-68.593071,18.486786],[-68.596031,18.488016],[-68.601334,18.489298],[-68.60405,18.491945],[-68.604172,18.496473],[-68.602188,18.501419],[-68.602982,18.503763],[-68.604851,18.505402],[-68.617432,18.511045],[-68.622169,18.512121],[-68.628777,18.515251],[-68.633385,18.518709],[-68.637665,18.520994],[-68.642883,18.52483],[-68.652565,18.529362],[-68.657669,18.532757],[-68.661797,18.538879],[-68.66465,18.539093],[-68.668007,18.537718],[-68.675812,18.537174],[-68.702255,18.537334],[-68.707664,18.53787],[-68.711884,18.539663],[-68.715691,18.540281],[-68.720924,18.53953],[-68.735031,18.532757],[-68.741081,18.531908],[-68.754875,18.532106],[-68.761963,18.531548],[-68.768517,18.529325],[-68.770515,18.527922],[-68.77121,18.524628],[-68.77108,18.517824],[-68.771477,18.513338],[-68.77713,18.501974],[-68.778671,18.499981],[-68.781013,18.498669],[-68.785637,18.498247],[-68.796944,18.498446],[-68.810921,18.498451],[-68.815445,18.499104],[-68.818794,18.501436],[-68.833427,18.515522],[-68.839096,18.52026]]],[[[-68.679031,18.11764],[-68.677361,18.120419],[-68.674858,18.121805],[-68.664307,18.124306],[-68.663475,18.125139],[-68.658195,18.125416],[-68.65625,18.124306],[-68.653748,18.125139],[-68.651527,18.12764],[-68.645973,18.129862],[-68.640137,18.129583],[-68.638748,18.128471],[-68.633194,18.128195],[-68.629028,18.127361],[-68.623192,18.126806],[-68.620697,18.125694],[-68.618469,18.125694],[-68.61264,18.122084],[-68.608192,18.121805],[-68.605415,18.120136],[-68.601524,18.120136],[-68.597916,18.118473],[-68.592361,18.11875],[-68.58847,18.117914],[-68.587082,18.114305],[-68.583191,18.11375],[-68.581253,18.114582],[-68.581253,18.111252],[-68.577919,18.109861],[-68.575974,18.111252],[-68.572639,18.111528],[-68.572639,18.112917],[-68.570419,18.114861],[-68.569031,18.118473],[-68.569862,18.123194],[-68.569862,18.126806],[-68.571251,18.129305],[-68.572083,18.132639],[-68.575142,18.138195],[-68.579025,18.141806],[-68.579025,18.143194],[-68.581528,18.145416],[-68.584862,18.150141],[-68.590973,18.155138],[-68.599304,18.160694],[-68.605141,18.162916],[-68.609306,18.163195],[-68.617081,18.160973],[-68.622086,18.158751],[-68.625137,18.158194],[-68.628197,18.159025],[-68.629585,18.160419],[-68.633469,18.161247],[-68.63736,18.160137],[-68.641251,18.160137],[-68.644585,18.159306],[-68.650696,18.158751],[-68.653198,18.161806],[-68.657364,18.163473],[-68.660698,18.163473],[-68.661804,18.164305],[-68.666527,18.164028],[-68.668747,18.165138],[-68.672363,18.172361],[-68.674026,18.174026],[-68.676804,18.174583],[-68.685692,18.174862],[-68.687637,18.176529],[-68.689583,18.176529],[-68.690971,18.174862],[-68.689857,18.173471],[-68.687363,18.172916],[-68.68792,18.171249],[-68.693748,18.170416],[-68.696526,18.171528],[-68.703194,18.171249],[-68.707359,18.171806],[-68.710693,18.172916],[-68.721527,18.179583],[-68.724586,18.182638],[-68.731529,18.185139],[-68.738472,18.186525],[-68.739861,18.188473],[-68.748474,18.190142],[-68.752914,18.191528],[-68.755417,18.193195],[-68.759026,18.192917],[-68.762917,18.194027],[-68.763191,18.195139],[-68.768471,18.19875],[-68.770416,18.196804],[-68.773476,18.195696],[-68.776253,18.195696],[-68.781807,18.190969],[-68.784027,18.187637],[-68.784302,18.18375],[-68.782913,18.181805],[-68.782639,18.177359],[-68.784859,18.174862],[-68.780975,18.170973],[-68.778473,18.169584],[-68.776527,18.165974],[-68.77375,18.165138],[-68.770973,18.162359],[-68.767914,18.158194],[-68.764862,18.155972],[-68.761803,18.152639],[-68.761803,18.149858],[-68.755417,18.144304],[-68.754303,18.141806],[-68.755142,18.13875],[-68.754303,18.13653],[-68.74514,18.133751],[-68.741249,18.131805],[-68.731804,18.129028],[-68.729309,18.12764],[-68.727364,18.12764],[-68.725136,18.125694],[-68.721252,18.125416],[-68.719582,18.124306],[-68.713753,18.123472],[-68.707642,18.119862],[-68.706253,18.119862],[-68.70153,18.11764],[-68.700974,18.116804],[-68.696808,18.115973],[-68.69458,18.114861],[-68.686806,18.114027],[-68.685417,18.115139],[-68.681808,18.114582],[-68.679031,18.11764]]],[[[-68.634026,18.198195],[-68.637085,18.197361],[-68.639862,18.193474],[-68.637642,18.193474],[-68.634026,18.198195]]]]},"properties":{"shapeName":"San Rafael del Yuma","shapeISO":"3306468B72129908795789","shapeGroup":"DOM","shapeType":"ADM2","src_shape_id":"3306468B72129908795789","adm1ISO":"DO-11"}}
]}