{"type":"FeatureCollection","bbox":[-70.390327,18.842655,-69.894562,19.158335], "features": [
{"type":"Feature","geometry":{"type":"Polygon","coordinates":[[[-70.073112,19.143562],[-70.074944,19.14621],[-70.075966,19.14959],[-70.07795,19.151417],[-70.080116,19.15078],[-70.082504,19.147884],[-70.085388,19.146591],[-70.092148,19.146078],[-70.09687,19.144979],[-70.10215,19.147589],[-70.103523,19.141251],[-70.105659,19.139],[-70.10849,19.137657],[-70.110687,19.135641],[-70.111092,19.132599],[-70.10939,19.128763],[-70.10817,19.122112],[-70.106483,19.118233],[-70.107162,19.114035],[-70.109154,19.111198],[-70.111542,19.110147],[-70.117294,19.109419],[-70.119385,19.10795],[-70.12056,19.105564],[-70.120346,19.10058],[-70.119453,19.097651],[-70.118172,19.092899],[-70.117699,19.08646],[-70.117905,19.07848],[-70.117493,19.075245],[-70.115654,19.073498],[-70.112946,19.07312],[-70.105331,19.073223],[-70.100815,19.072811],[-70.09594,19.070807],[-70.091248,19.06963],[-70.087769,19.068033],[-70.083595,19.067698],[-70.081619,19.068224],[-70.072884,19.072521],[-70.057045,19.079908],[-70.054298,19.079826],[-70.051231,19.075642],[-70.04612,19.072086],[-70.044373,19.070272],[-70.043526,19.067789],[-70.043297,19.062454],[-70.041954,19.059164],[-70.037201,19.05571],[-70.034988,19.05228],[-70.035255,19.049757],[-70.037521,19.04418],[-70.038826,19.042248],[-70.044609,19.037842],[-70.045868,19.035444],[-70.045341,19.032341],[-70.042953,19.027969],[-70.040154,19.02541],[-70.036476,19.023539],[-70.034119,19.021666],[-70.022896,19.011124],[-70.020218,19.00761],[-70.019623,19.00481],[-70.019554,18.997499],[-70.01873,18.993393],[-70.011856,18.980577],[-70.011299,18.977556],[-70.013145,18.973059],[-70.013771,18.966621],[-70.013672,18.960054],[-70.012688,18.956638],[-70.005264,18.948332],[-70.002563,18.943249],[-70.001694,18.939314],[-70.002144,18.932459],[-70.004013,18.928493],[-70.005386,18.923403],[-70.009743,18.915033],[-70.010529,18.912729],[-70.002029,18.908606],[-70.000099,18.906954],[-69.998863,18.903816],[-69.998642,18.897972],[-69.997955,18.894491],[-69.995193,18.887953],[-69.991539,18.886541],[-69.983261,18.886482],[-69.980583,18.887163],[-69.972389,18.891071],[-69.968994,18.891779],[-69.963921,18.891882],[-69.959747,18.89271],[-69.957405,18.894274],[-69.953331,18.898201],[-69.951843,18.900509],[-69.951302,18.903164],[-69.950798,18.910639],[-69.949043,18.913546],[-69.945068,18.917547],[-69.940468,18.924229],[-69.934784,18.928774],[-69.933632,18.93079],[-69.93248,18.937107],[-69.929642,18.942789],[-69.926933,18.946754],[-69.925911,18.948992],[-69.922516,18.953321],[-69.921165,18.959925],[-69.919144,18.966358],[-69.920013,18.968761],[-69.922943,18.97282],[-69.922447,18.975086],[-69.919189,18.979271],[-69.918343,18.983938],[-69.91938,18.987803],[-69.921303,18.989498],[-69.926453,18.990688],[-69.929092,18.992374],[-69.929817,18.995951],[-69.927788,19.001053],[-69.927452,19.006556],[-69.92675,19.009821],[-69.922234,19.014273],[-69.921066,19.01762],[-69.918716,19.020414],[-69.915352,19.022165],[-69.913284,19.024471],[-69.912331,19.030352],[-69.911156,19.033495],[-69.907364,19.038492],[-69.906013,19.043623],[-69.904648,19.046804],[-69.903885,19.050322],[-69.903549,19.056995],[-69.902145,19.063576],[-69.902878,19.069016],[-69.900215,19.074621],[-69.895599,19.082916],[-69.894814,19.085583],[-69.894562,19.093485],[-69.895294,19.095963],[-69.897552,19.09734],[-69.903305,19.098188],[-69.907616,19.099806],[-69.915298,19.100372],[-69.919525,19.101355],[-69.92424,19.103559],[-69.926842,19.106333],[-69.927467,19.109818],[-69.927406,19.116241],[-69.928436,19.119265],[-69.935837,19.12224],[-69.93856,19.122566],[-69.946243,19.120134],[-69.948051,19.117805],[-69.947762,19.114717],[-69.94606,19.111464],[-69.942932,19.102373],[-69.944588,19.100569],[-69.948166,19.100241],[-69.958908,19.10059],[-69.96209,19.101038],[-69.96637,19.102768],[-69.972824,19.103516],[-69.981339,19.103476],[-69.983543,19.099901],[-69.983948,19.096767],[-69.983391,19.092489],[-69.9823,19.089397],[-69.98317,19.086374],[-69.982857,19.083467],[-69.981667,19.081007],[-69.982254,19.07847],[-69.985321,19.076361],[-69.991035,19.071451],[-69.994034,19.071154],[-69.996422,19.073044],[-69.999222,19.076988],[-70.003792,19.080009],[-70.009727,19.081577],[-70.013931,19.083315],[-70.019318,19.084648],[-70.025208,19.088718],[-70.029503,19.090963],[-70.037193,19.097916],[-70.039925,19.101248],[-70.043022,19.107601],[-70.043427,19.111156],[-70.043243,19.122971],[-70.044006,19.128979],[-70.046089,19.131353],[-70.049629,19.133186],[-70.053757,19.136082],[-70.05867,19.138098],[-70.060471,19.139326],[-70.062126,19.142319],[-70.064285,19.142662],[-70.069893,19.141024],[-70.072128,19.141785],[-70.073112,19.143562]]]},"properties":{"shapeName":"Cevicos","shapeISO":"3306468B8786854663218","shapeGroup":"DOM","shapeType":"ADM2","src_shape_id":"3306468B8786854663218","adm1ISO":"DO-24"}},
{"type":"Feature","geometry":{"type":"Polygon","coordinates":[[[-70.374115,19.059458],[-70.372841,19.05438],[-70.374435,19.051321],[-70.377235,19.049736],[-70.38134,19.049034],[-70.390152,19.046104],[-70.390327,19.043201],[-70.388611,19.041189],[-70.385109,19.038721],[-70.3797,19.035631],[-70.373055,19.030296],[-70.369965,19.02898],[-70.365303,19.026115],[-70.364334,19.023176],[-70.364403,19.019117],[-70.365883,19.01379],[-70.365852,19.011688],[-70.363274,19.005802],[-70.362938,19.003771],[-70.363724,18.998838],[-70.362267,18.99651],[-70.358963,18.99374],[-70.346367,18.987827],[-70.34269,18.987242],[-70.333435,18.987265],[-70.328964,18.986656],[-70.324883,18.983652],[-70.323318,18.981279],[-70.323242,18.97666],[-70.324806,18.973446],[-70.325142,18.971012],[-70.324013,18.968611],[-70.321297,18.965408],[-70.316391,18.956299],[-70.31411,18.954117],[-70.30584,18.952234],[-70.30201,18.947498],[-70.298683,18.947229],[-70.296486,18.94614],[-70.293495,18.941662],[-70.290825,18.935879],[-70.289253,18.931267],[-70.283272,18.927929],[-70.278748,18.927559],[-70.271004,18.927578],[-70.267258,18.927139],[-70.258438,18.923351],[-70.254425,18.92404],[-70.252167,18.923721],[-70.249702,18.918991],[-70.250839,18.915918],[-70.250938,18.910732],[-70.247292,18.905191],[-70.24057,18.90048],[-70.236839,18.898649],[-70.232857,18.895714],[-70.230301,18.893213],[-70.228355,18.890364],[-70.22699,18.882507],[-70.224396,18.87985],[-70.221489,18.878441],[-70.218895,18.875696],[-70.217056,18.870867],[-70.221443,18.863703],[-70.222466,18.859884],[-70.223862,18.85713],[-70.224731,18.852531],[-70.224716,18.845493],[-70.221748,18.842655],[-70.216209,18.84663],[-70.210121,18.854675],[-70.206413,18.862125],[-70.203156,18.86587],[-70.19857,18.867798],[-70.192871,18.867985],[-70.190399,18.868547],[-70.187569,18.871618],[-70.183784,18.871277],[-70.179848,18.867649],[-70.177689,18.866352],[-70.17395,18.866976],[-70.170868,18.866714],[-70.167397,18.865253],[-70.162529,18.865429],[-70.157295,18.86924],[-70.15229,18.872185],[-70.144135,18.870129],[-70.141998,18.868958],[-70.138184,18.865421],[-70.133461,18.865124],[-70.12812,18.866755],[-70.121178,18.864733],[-70.114441,18.864618],[-70.112061,18.865784],[-70.109283,18.870373],[-70.108719,18.873947],[-70.10878,18.881466],[-70.111389,18.885143],[-70.109673,18.886763],[-70.105812,18.884268],[-70.102112,18.886389],[-70.099083,18.887096],[-70.095833,18.8867],[-70.09269,18.883442],[-70.090065,18.881689],[-70.086586,18.881472],[-70.083397,18.882915],[-70.077209,18.888529],[-70.073212,18.889139],[-70.070793,18.887678],[-70.068031,18.884455],[-70.064499,18.878609],[-70.061676,18.876341],[-70.058914,18.8755],[-70.05249,18.875931],[-70.046082,18.879086],[-70.044296,18.880854],[-70.042496,18.884274],[-70.039696,18.88747],[-70.037254,18.889029],[-70.032333,18.889103],[-70.027336,18.885433],[-70.025116,18.884327],[-70.022911,18.885248],[-70.021721,18.895367],[-70.019096,18.90049],[-70.015739,18.904121],[-70.012062,18.90666],[-70.01107,18.908117],[-70.010529,18.912729],[-70.009743,18.915033],[-70.005386,18.923403],[-70.004013,18.928493],[-70.002144,18.932459],[-70.001694,18.939314],[-70.002563,18.943249],[-70.005264,18.948332],[-70.012688,18.956638],[-70.013672,18.960054],[-70.013771,18.966621],[-70.013145,18.973059],[-70.011299,18.977556],[-70.011856,18.980577],[-70.01873,18.993393],[-70.019554,18.997499],[-70.019623,19.00481],[-70.020218,19.00761],[-70.022896,19.011124],[-70.034119,19.021666],[-70.036476,19.023539],[-70.040154,19.02541],[-70.042953,19.027969],[-70.045341,19.032341],[-70.045868,19.035444],[-70.044609,19.037842],[-70.038826,19.042248],[-70.037521,19.04418],[-70.035255,19.049757],[-70.034988,19.05228],[-70.037201,19.05571],[-70.041954,19.059164],[-70.043297,19.062454],[-70.043526,19.067789],[-70.044373,19.070272],[-70.04612,19.072086],[-70.051231,19.075642],[-70.054298,19.079826],[-70.057045,19.079908],[-70.072884,19.072521],[-70.081619,19.068224],[-70.083595,19.067698],[-70.087769,19.068033],[-70.091248,19.06963],[-70.09594,19.070807],[-70.100815,19.072811],[-70.105331,19.073223],[-70.112946,19.07312],[-70.115654,19.073498],[-70.117493,19.075245],[-70.117905,19.07848],[-70.117699,19.08646],[-70.118172,19.092899],[-70.119453,19.097651],[-70.125519,19.095934],[-70.133942,19.092619],[-70.134789,19.090776],[-70.133995,19.088203],[-70.135963,19.085258],[-70.141075,19.083885],[-70.145737,19.081083],[-70.148064,19.08058],[-70.152542,19.08169],[-70.155968,19.080688],[-70.157806,19.078594],[-70.164177,19.075409],[-70.166161,19.068787],[-70.169037,19.066942],[-70.171806,19.066431],[-70.175217,19.067661],[-70.18042,19.068079],[-70.182373,19.067467],[-70.183479,19.065733],[-70.183479,19.062061],[-70.18499,19.059725],[-70.192238,19.056067],[-70.193954,19.054289],[-70.194534,19.051847],[-70.192856,19.048021],[-70.192696,19.044193],[-70.19474,19.042776],[-70.198761,19.042282],[-70.198196,19.03985],[-70.197876,19.033173],[-70.19902,19.027712],[-70.201408,19.023289],[-70.203186,19.021511],[-70.208847,19.019791],[-70.212044,19.01704],[-70.213554,19.012939],[-70.215912,19.01252],[-70.219559,19.015545],[-70.221169,19.018152],[-70.226234,19.021765],[-70.229782,19.022135],[-70.230614,19.019678],[-70.229179,19.016165],[-70.230202,19.013845],[-70.230659,19.008869],[-70.230789,19.000132],[-70.232033,18.996861],[-70.23468,18.993586],[-70.237206,18.988007],[-70.239227,18.986828],[-70.245872,18.985699],[-70.24968,18.982452],[-70.252907,18.977278],[-70.255196,18.976704],[-70.25901,18.979462],[-70.267982,18.988642],[-70.271889,18.99544],[-70.274673,19.000994],[-70.273941,19.00462],[-70.272003,19.006165],[-70.268417,19.007618],[-70.264252,19.010059],[-70.263321,19.012329],[-70.263412,19.018396],[-70.267708,19.029793],[-70.272491,19.032829],[-70.274719,19.035025],[-70.277672,19.040623],[-70.27813,19.04261],[-70.277977,19.051722],[-70.282829,19.055811],[-70.287933,19.058659],[-70.292747,19.064236],[-70.297646,19.07296],[-70.300552,19.075678],[-70.304977,19.077261],[-70.307724,19.070162],[-70.30751,19.066837],[-70.306114,19.064457],[-70.302528,19.060198],[-70.301987,19.057714],[-70.302849,19.055412],[-70.304588,19.054596],[-70.312263,19.054968],[-70.317734,19.057234],[-70.322594,19.057079],[-70.325699,19.055052],[-70.337212,19.04388],[-70.340897,19.041372],[-70.344368,19.041029],[-70.349716,19.042912],[-70.352348,19.042858],[-70.356812,19.039772],[-70.360695,19.03853],[-70.363342,19.039591],[-70.366882,19.043583],[-70.366364,19.045942],[-70.364128,19.046736],[-70.360146,19.046892],[-70.357002,19.047894],[-70.353416,19.050133],[-70.351845,19.056465],[-70.350365,19.058512],[-70.349564,19.061575],[-70.349495,19.068115],[-70.349922,19.070997],[-70.35273,19.076303],[-70.357277,19.070795],[-70.361816,19.068207],[-70.365562,19.064976],[-70.367859,19.06201],[-70.374115,19.059458]]]},"properties":{"shapeName":"Cotuí","shapeISO":"3306468B72281596552802","shapeGroup":"DOM","shapeType":"ADM2","src_shape_id":"3306468B72281596552802","adm1ISO":"DO-24"}},
{"type":"Feature","geometry":{"type":"Polygon","coordinates":[[[-70.248497,19.155897],[-70.251472,19.155914],[-70.257561,19.153812],[-70.260727,19.154257],[-70.263634,19.157385],[-70.266312,19.157999],[-70.268234,19.156811],[-70.270287,19.154268],[-70.274223,19.152254],[-70.275253,19.150417],[-70.271255,19.145775],[-70.268219,19.144621],[-70.266663,19.143049],[-70.266617,19.140804],[-70.268829,19.138912],[-70.27475,19.13715],[-70.277374,19.136999],[-70.282768,19.139318],[-70.286362,19.138773],[-70.290924,19.136711],[-70.295006,19.137329],[-70.29538,19.139341],[-70.294373,19.141487],[-70.296417,19.144438],[-70.301613,19.14572],[-70.304543,19.147017],[-70.30867,19.147617],[-70.313507,19.146252],[-70.315613,19.143633],[-70.319572,19.140278],[-70.323074,19.138596],[-70.325165,19.136297],[-70.326508,19.131262],[-70.330635,19.123554],[-70.331039,19.119864],[-70.329536,19.117653],[-70.325996,19.114355],[-70.324173,19.111837],[-70.325478,19.108557],[-70.331177,19.102577],[-70.334068,19.096918],[-70.336082,19.091986],[-70.339897,19.088408],[-70.341034,19.084059],[-70.343903,19.080772],[-70.35273,19.076303],[-70.349922,19.070997],[-70.349495,19.068115],[-70.349564,19.061575],[-70.350365,19.058512],[-70.351845,19.056465],[-70.353416,19.050133],[-70.357002,19.047894],[-70.360146,19.046892],[-70.364128,19.046736],[-70.366364,19.045942],[-70.366882,19.043583],[-70.363342,19.039591],[-70.360695,19.03853],[-70.356812,19.039772],[-70.352348,19.042858],[-70.349716,19.042912],[-70.344368,19.041029],[-70.340897,19.041372],[-70.337212,19.04388],[-70.325699,19.055052],[-70.322594,19.057079],[-70.317734,19.057234],[-70.312263,19.054968],[-70.304588,19.054596],[-70.302849,19.055412],[-70.301987,19.057714],[-70.302528,19.060198],[-70.306114,19.064457],[-70.30751,19.066837],[-70.307724,19.070162],[-70.304977,19.077261],[-70.300552,19.075678],[-70.297646,19.07296],[-70.292747,19.064236],[-70.287933,19.058659],[-70.282829,19.055811],[-70.277977,19.051722],[-70.268898,19.051508],[-70.265289,19.051846],[-70.263573,19.052822],[-70.261093,19.056602],[-70.261765,19.059919],[-70.265961,19.06212],[-70.270233,19.063286],[-70.272163,19.065388],[-70.2733,19.068859],[-70.277412,19.07675],[-70.278236,19.079462],[-70.278366,19.085848],[-70.276306,19.088154],[-70.272949,19.087458],[-70.271255,19.084976],[-70.269394,19.084002],[-70.266602,19.085747],[-70.263954,19.091303],[-70.262459,19.097057],[-70.259415,19.102713],[-70.256271,19.106503],[-70.254791,19.109556],[-70.254219,19.114212],[-70.252609,19.11792],[-70.249092,19.122307],[-70.246162,19.127922],[-70.244774,19.133003],[-70.243011,19.137079],[-70.242317,19.14777],[-70.241066,19.151623],[-70.245522,19.153059],[-70.248497,19.155897]]]},"properties":{"shapeName":"Fantino","shapeISO":"3306468B63590922856333","shapeGroup":"DOM","shapeType":"ADM2","src_shape_id":"3306468B63590922856333","adm1ISO":"DO-24"}},
{"type":"Feature","geometry":{"type":"Polygon","coordinates":[[[-70.241066,19.151623],[-70.242317,19.14777],[-70.243011,19.137079],[-70.244774,19.133003],[-70.246162,19.127922],[-70.249092,19.122307],[-70.252609,19.11792],[-70.254219,19.114212],[-70.254791,19.109556],[-70.256271,19.106503],[-70.259415,19.102713],[-70.262459,19.097057],[-70.263954,19.091303],[-70.266602,19.085747],[-70.269394,19.084002],[-70.271255,19.084976],[-70.272949,19.087458],[-70.276306,19.088154],[-70.278366,19.085848],[-70.278236,19.079462],[-70.277412,19.07675],[-70.2733,19.068859],[-70.272163,19.065388],[-70.270233,19.063286],[-70.265961,19.06212],[-70.261765,19.059919],[-70.261093,19.056602],[-70.263573,19.052822],[-70.265289,19.051846],[-70.268898,19.051508],[-70.277977,19.051722],[-70.27813,19.04261],[-70.277672,19.040623],[-70.274719,19.035025],[-70.272491,19.032829],[-70.267708,19.029793],[-70.263412,19.018396],[-70.263321,19.012329],[-70.264252,19.010059],[-70.268417,19.007618],[-70.272003,19.006165],[-70.273941,19.00462],[-70.274673,19.000994],[-70.271889,18.99544],[-70.267982,18.988642],[-70.25901,18.979462],[-70.255196,18.976704],[-70.252907,18.977278],[-70.24968,18.982452],[-70.245872,18.985699],[-70.239227,18.986828],[-70.237206,18.988007],[-70.23468,18.993586],[-70.232033,18.996861],[-70.230789,19.000132],[-70.230659,19.008869],[-70.230202,19.013845],[-70.229179,19.016165],[-70.230614,19.019678],[-70.229782,19.022135],[-70.226234,19.021765],[-70.221169,19.018152],[-70.219559,19.015545],[-70.215912,19.01252],[-70.213554,19.012939],[-70.212044,19.01704],[-70.208847,19.019791],[-70.203186,19.021511],[-70.201408,19.023289],[-70.19902,19.027712],[-70.197876,19.033173],[-70.198196,19.03985],[-70.198761,19.042282],[-70.19474,19.042776],[-70.192696,19.044193],[-70.192856,19.048021],[-70.194534,19.051847],[-70.193954,19.054289],[-70.192238,19.056067],[-70.18499,19.059725],[-70.183479,19.062061],[-70.183479,19.065733],[-70.182373,19.067467],[-70.18042,19.068079],[-70.175217,19.067661],[-70.171806,19.066431],[-70.169037,19.066942],[-70.166161,19.068787],[-70.164177,19.075409],[-70.157806,19.078594],[-70.155968,19.080688],[-70.152542,19.08169],[-70.148064,19.08058],[-70.145737,19.081083],[-70.141075,19.083885],[-70.135963,19.085258],[-70.133995,19.088203],[-70.134789,19.090776],[-70.133942,19.092619],[-70.125519,19.095934],[-70.119453,19.097651],[-70.120346,19.10058],[-70.12056,19.105564],[-70.119385,19.10795],[-70.117294,19.109419],[-70.111542,19.110147],[-70.109154,19.111198],[-70.107162,19.114035],[-70.106483,19.118233],[-70.10817,19.122112],[-70.10939,19.128763],[-70.111092,19.132599],[-70.110687,19.135641],[-70.10849,19.137657],[-70.105659,19.139],[-70.103523,19.141251],[-70.10215,19.147589],[-70.103767,19.151213],[-70.106262,19.152237],[-70.113716,19.151947],[-70.117714,19.150862],[-70.120934,19.151543],[-70.12513,19.150925],[-70.12822,19.156591],[-70.130707,19.157377],[-70.132629,19.155073],[-70.132561,19.15238],[-70.137421,19.152451],[-70.141296,19.151958],[-70.146103,19.149319],[-70.147141,19.146208],[-70.145195,19.141371],[-70.145538,19.139154],[-70.147949,19.138073],[-70.152451,19.139303],[-70.154015,19.14543],[-70.155716,19.147076],[-70.159378,19.148405],[-70.162491,19.147448],[-70.166618,19.147587],[-70.168091,19.149797],[-70.168304,19.154676],[-70.169266,19.1572],[-70.172508,19.158335],[-70.177155,19.158289],[-70.179832,19.157631],[-70.1828,19.155664],[-70.187851,19.149895],[-70.190971,19.148188],[-70.19381,19.147888],[-70.197235,19.149733],[-70.199524,19.149399],[-70.200829,19.147507],[-70.20182,19.14115],[-70.204506,19.138027],[-70.206924,19.137037],[-70.208633,19.137417],[-70.216118,19.140856],[-70.221481,19.14172],[-70.223694,19.142675],[-70.225647,19.147486],[-70.226906,19.148853],[-70.231392,19.149977],[-70.235443,19.148869],[-70.238365,19.149391],[-70.241066,19.151623]]]},"properties":{"shapeName":"La Mata","shapeISO":"3306468B26306333639139","shapeGroup":"DOM","shapeType":"ADM2","src_shape_id":"3306468B26306333639139","adm1ISO":"DO-24"}}
]}