{"type":"FeatureCollection","bbox":[-71.639725,18.587887,-70.878891,19.172844],"features":[
{"type":"Feature","id":"DOM:ADM2:DO-22.bohechio","properties":{"shapeName":"Bohechio\r\n","shapeISO":"","shapeGroup":"DOM","shapeType":"ADM2","adm1ISO":"DO-22","parentISO":"DO-22","parentID":"DOM:ADM1:DO-22","src_shape_id":"3306468B96171292047706"},"geometry":{"type":"Polygon","coordinates":[[[-70.881973,18.988644],[-70.879295,18.993362],[-70.87989,18.997078],[-70.882065,18.999502],[-70.892143,19.008703],[-70.896858,19.01119],[-70.901611,19.014757],[-70.905762,19.016899],[-70.911079,19.020769],[-70.91304,19.021421],[-70.920685,19.022543],[-70.926659,19.025414],[-70.933083,19.031006],[-70.936829,19.032845],[-70.942467,19.033373],[-70.94606,19.035082],[-70.950508,19.039963],[-70.955742,19.038294],[-70.965187,19.033907],[-70.970619,19.03274],[-70.97654,19.030046],[-70.978889,19.027964],[-70.980721,19.024561],[-70.984863,19.019773],[-70.987411,19.017599],[-70.989822,19.017036],[-70.991646,19.01907],[-70.991844,19.022451],[-70.993042,19.024437],[-70.996193,19.025141],[-71.000931,19.024288],[-71.00383,19.022926],[-71.012405,19.022179],[-71.016426,19.020927],[-71.019753,19.018394],[-71.02224,19.017298],[-71.024826,19.01757],[-71.027649,19.01881],[-71.031113,19.019377],[-71.036201,19.019512],[-71.039536,19.020344],[-71.041779,19.023958],[-71.039917,19.028294],[-71.039391,19.031521],[-71.040451,19.034721],[-71.042786,19.037348],[-71.047768,19.041384],[-71.050858,19.042837],[-71.057388,19.048223],[-71.060326,19.050142],[-71.066635,19.051054],[-71.072212,19.053053],[-71.076935,19.054211],[-71.080399,19.055689],[-71.08429,19.055496],[-71.088539,19.052567],[-71.092102,19.053158],[-71.095978,19.055981],[-71.104973,19.060312],[-71.11132,19.063782],[-71.109894,19.05415],[-71.108086,19.050116],[-71.106926,19.040028],[-71.104874,19.034718],[-71.104424,19.03068],[-71.102364,19.025362],[-71.101006,19.020247],[-71.096596,19.011848],[-71.095749,19.007748],[-71.095634,19.001148],[-71.094788,18.997074],[-71.092834,18.991497],[-71.092857,18.976519],[-71.091881,18.97155],[-71.090088,18.969316],[-71.087166,18.96718],[-71.081078,18.966162],[-71.07872,18.965368],[-71.075294,18.96048],[-71.072495,18.954741],[-71.071922,18.951883],[-71.072121,18.94599],[-71.074196,18.940744],[-71.074158,18.938202],[-71.071175,18.934345],[-71.065704,18.929359],[-71.063751,18.926519],[-71.06369,18.923967],[-71.065681,18.918844],[-71.066246,18.914818],[-71.068459,18.909611],[-71.068916,18.906347],[-71.067291,18.902868],[-71.065681,18.901798],[-71.061005,18.900766],[-71.053665,18.897741],[-71.050484,18.895842],[-71.048546,18.893702],[-71.047165,18.887968],[-71.04364,18.885311],[-71.034119,18.876629],[-71.03067,18.872002],[-71.029701,18.868168],[-71.028023,18.864286],[-71.028244,18.86117],[-71.030731,18.85615],[-71.034637,18.849384],[-71.042931,18.841078],[-71.045624,18.837543],[-71.052498,18.8323],[-71.057381,18.827763],[-71.059494,18.824888],[-71.060066,18.822214],[-71.059555,18.817511],[-71.05777,18.813932],[-71.058159,18.811766],[-71.066193,18.808813],[-71.070999,18.807854],[-71.075188,18.806149],[-71.079941,18.805161],[-71.083633,18.803087],[-71.086288,18.8008],[-71.088516,18.797794],[-71.087883,18.795591],[-71.08593,18.794245],[-71.078117,18.790894],[-71.075745,18.789248],[-71.072517,18.78548],[-71.07103,18.782648],[-71.069229,18.780876],[-71.062752,18.777781],[-71.057953,18.776831],[-71.053429,18.774584],[-71.051476,18.772434],[-71.050827,18.768288],[-71.049644,18.766411],[-71.046211,18.764814],[-71.045181,18.762985],[-71.038864,18.76376],[-71.03289,18.766615],[-71.027145,18.770901],[-71.022575,18.772787],[-71.019073,18.771927],[-71.015175,18.7691],[-71.00576,18.764351],[-70.999374,18.755804],[-70.998306,18.75338],[-70.999901,18.748734],[-70.999535,18.74654],[-70.997314,18.745501],[-70.991348,18.745594],[-70.989754,18.746494],[-70.989426,18.74868],[-70.990913,18.751467],[-70.990944,18.753899],[-70.987732,18.756729],[-70.98243,18.757792],[-70.97863,18.759764],[-70.976952,18.762161],[-70.975815,18.768463],[-70.974487,18.771259],[-70.973938,18.774796],[-70.973892,18.781263],[-70.972351,18.784576],[-70.968185,18.78574],[-70.964149,18.788582],[-70.962502,18.790894],[-70.961807,18.795122],[-70.96196,18.804625],[-70.962517,18.807404],[-70.965431,18.813074],[-70.971619,18.81982],[-70.973274,18.822016],[-70.980331,18.835712],[-70.984833,18.844091],[-70.986153,18.851336],[-70.988098,18.856497],[-70.987488,18.859507],[-70.983665,18.866535],[-70.98391,18.870773],[-70.987839,18.877924],[-70.988815,18.881851],[-70.988853,18.88669],[-70.987465,18.890368],[-70.985367,18.891867],[-70.979347,18.892647],[-70.967567,18.898842],[-70.961662,18.902855],[-70.958878,18.903376],[-70.953827,18.903458],[-70.949799,18.904339],[-70.947922,18.906004],[-70.944862,18.91099],[-70.941368,18.914526],[-70.937347,18.917309],[-70.932602,18.919479],[-70.929054,18.920191],[-70.919846,18.920074],[-70.916336,18.920429],[-70.914711,18.921408],[-70.912109,18.925379],[-70.907043,18.935347],[-70.907112,18.937956],[-70.911537,18.940834],[-70.91375,18.943001],[-70.917229,18.947947],[-70.921158,18.951754],[-70.922188,18.95389],[-70.919998,18.956436],[-70.917427,18.956352],[-70.914131,18.954727],[-70.909927,18.953957],[-70.902725,18.954487],[-70.89856,18.956238],[-70.893829,18.957289],[-70.88192,18.962639],[-70.879967,18.964249],[-70.878891,18.9666],[-70.879257,18.97051],[-70.880913,18.973801],[-70.881683,18.97879],[-70.881973,18.988644]]]}},
{"type":"Feature","id":"DOM:ADM2:DO-22.el-cercado","properties":{"shapeName":"El Cercado","shapeISO":"","shapeGroup":"DOM","shapeType":"ADM2","adm1ISO":"DO-22","parentISO":"DO-22","parentID":"DOM:ADM1:DO-22","src_shape_id":"3306468B41168482841480"},"geometry":{"type":"Polygon","coordinates":[[[-71.498917,18.625534],[-71.493416,18.624697],[-71.483475,18.62476],[-71.480202,18.622917],[-71.47702,18.622311],[-71.472969,18.623852],[-71.468224,18.624046],[-71.463242,18.623087],[-71.454529,18.6269],[-71.451683,18.627268],[-71.446106,18.626413],[-71.437935,18.622339],[-71.434532,18.621597],[-71.426605,18.621094],[-71.42347,18.619333],[-71.42025,18.615547],[-71.418816,18.612555],[-71.415169,18.608278],[-71.412582,18.606115],[-71.409599,18.605671],[-71.406021,18.607485],[-71.402565,18.611366],[-71.401581,18.619736],[-71.39959,18.624334],[-71.398888,18.630096],[-71.398979,18.642122],[-71.398102,18.647009],[-71.395035,18.652662],[-71.389244,18.658503],[-71.387154,18.662092],[-71.387283,18.664589],[-71.388802,18.666451],[-71.40287,18.673349],[-71.408096,18.677172],[-71.419983,18.682941],[-71.430527,18.687071],[-71.430954,18.689283],[-71.42662,18.697126],[-71.426842,18.701382],[-71.43119,18.709768],[-71.432327,18.714264],[-71.434372,18.719585],[-71.435295,18.725595],[-71.439896,18.734253],[-71.43956,18.73653],[-71.433754,18.739649],[-71.428978,18.740585],[-71.424759,18.742311],[-71.418732,18.743492],[-71.42205,18.748587],[-71.423248,18.753059],[-71.424812,18.756458],[-71.425621,18.760561],[-71.425789,18.767162],[-71.426422,18.770662],[-71.427979,18.77401],[-71.428078,18.778543],[-71.426445,18.782129],[-71.426743,18.784346],[-71.431213,18.787148],[-71.4366,18.78838],[-71.440819,18.790087],[-71.447395,18.791969],[-71.45237,18.794834],[-71.454735,18.79406],[-71.45903,18.793793],[-71.463623,18.795897],[-71.467468,18.799475],[-71.470535,18.801575],[-71.475792,18.802336],[-71.491837,18.802282],[-71.496674,18.80246],[-71.502647,18.804335],[-71.507919,18.805252],[-71.535866,18.805563],[-71.540581,18.805145],[-71.544189,18.802414],[-71.547272,18.79537],[-71.547836,18.790272],[-71.549423,18.786995],[-71.556854,18.779617],[-71.557274,18.774864],[-71.559341,18.772562],[-71.56337,18.770555],[-71.565315,18.768238],[-71.564758,18.766361],[-71.562881,18.76483],[-71.560043,18.759735],[-71.560814,18.756584],[-71.564354,18.752306],[-71.56752,18.746681],[-71.569046,18.742079],[-71.570358,18.740089],[-71.570358,18.737429],[-71.569191,18.734791],[-71.568375,18.727739],[-71.567291,18.724773],[-71.562553,18.722042],[-71.560028,18.717941],[-71.559341,18.71261],[-71.559547,18.701591],[-71.56015,18.698647],[-71.561729,18.695313],[-71.562386,18.691698],[-71.562477,18.677107],[-71.561684,18.670452],[-71.559921,18.666504],[-71.560074,18.661926],[-71.563972,18.652674],[-71.559235,18.650995],[-71.55378,18.649755],[-71.543648,18.645094],[-71.54068,18.644697],[-71.528427,18.644341],[-71.523445,18.642469],[-71.517441,18.640961],[-71.513718,18.638823],[-71.512131,18.636415],[-71.511475,18.632286],[-71.510529,18.630814],[-71.505783,18.62797],[-71.498917,18.625534]]]}},
{"type":"Feature","id":"DOM:ADM2:DO-22.juan-de-herrera","properties":{"shapeName":"Juan de Herrera","shapeISO":"","shapeGroup":"DOM","shapeType":"ADM2","adm1ISO":"DO-22","parentISO":"DO-22","parentID":"DOM:ADM1:DO-22","src_shape_id":"3306468B17512962237330"},"geometry":{"type":"Polygon","coordinates":[[[-71.167381,18.928326],[-71.17231,18.930014],[-71.17662,18.930052],[-71.182182,18.928047],[-71.18795,18.927406],[-71.197273,18.927509],[-71.202477,18.926907],[-71.208046,18.92502],[-71.212982,18.924541],[-71.216934,18.922672],[-71.220856,18.919136],[-71.223053,18.916162],[-71.223763,18.91213],[-71.223488,18.909433],[-71.220879,18.905788],[-71.214401,18.902674],[-71.206543,18.899391],[-71.204597,18.898069],[-71.204247,18.89535],[-71.20594,18.89382],[-71.212196,18.892193],[-71.216866,18.893557],[-71.220261,18.893135],[-71.224983,18.888905],[-71.229691,18.887287],[-71.231926,18.885126],[-71.236237,18.876581],[-71.239799,18.871983],[-71.243759,18.869999],[-71.244476,18.867493],[-71.244431,18.863165],[-71.243523,18.859735],[-71.239288,18.851946],[-71.238548,18.849382],[-71.238335,18.844997],[-71.238625,18.832478],[-71.23838,18.828911],[-71.236855,18.826675],[-71.233292,18.825966],[-71.22084,18.82613],[-71.215019,18.825909],[-71.211914,18.825256],[-71.207886,18.823528],[-71.205948,18.823353],[-71.202942,18.825111],[-71.201714,18.829193],[-71.198936,18.834785],[-71.197227,18.836323],[-71.194473,18.837149],[-71.190285,18.836432],[-71.176338,18.829416],[-71.172737,18.828543],[-71.166756,18.828609],[-71.164383,18.829788],[-71.161865,18.833811],[-71.16111,18.837954],[-71.161148,18.843124],[-71.160477,18.848024],[-71.15892,18.850309],[-71.152733,18.856932],[-71.149879,18.862589],[-71.148811,18.867064],[-71.145966,18.87105],[-71.140022,18.876566],[-71.138206,18.878777],[-71.137337,18.881378],[-71.137337,18.885471],[-71.138084,18.888035],[-71.141174,18.893679],[-71.147392,18.900444],[-71.15004,18.904902],[-71.152496,18.906914],[-71.156067,18.907593],[-71.170624,18.907467],[-71.176514,18.908365],[-71.179771,18.910963],[-71.180748,18.913261],[-71.180084,18.914804],[-71.177002,18.91703],[-71.172714,18.921082],[-71.169228,18.921633],[-71.163422,18.921625],[-71.160728,18.922297],[-71.158524,18.924524],[-71.158524,18.927099],[-71.160164,18.928772],[-71.164299,18.92816],[-71.167381,18.928326]]]}},
{"type":"Feature","id":"DOM:ADM2:DO-22.las-matas-de-farfan","properties":{"shapeName":"Las Matas de Farfan","shapeISO":"","shapeGroup":"DOM","shapeType":"ADM2","adm1ISO":"DO-22","parentISO":"DO-22","parentID":"DOM:ADM1:DO-22","src_shape_id":"3306468B58611223630856"},"geometry":{"type":"Polygon","coordinates":[[[-71.636742,18.938591],[-71.633461,18.936466],[-71.627197,18.935434],[-71.620888,18.933308],[-71.611115,18.932915],[-71.607948,18.931898],[-71.606796,18.927464],[-71.606926,18.914743],[-71.608002,18.909815],[-71.615364,18.901541],[-71.617943,18.896441],[-71.619019,18.892969],[-71.620895,18.890837],[-71.628082,18.888395],[-71.632889,18.887501],[-71.638908,18.884384],[-71.639725,18.88142],[-71.63929,18.879492],[-71.637131,18.876692],[-71.633606,18.874146],[-71.626152,18.870853],[-71.6222,18.871536],[-71.619102,18.873562],[-71.6147,18.877605],[-71.610229,18.879219],[-71.607811,18.878342],[-71.606705,18.874401],[-71.607018,18.868294],[-71.609077,18.862579],[-71.610023,18.85848],[-71.610176,18.854082],[-71.609016,18.848963],[-71.603859,18.84506],[-71.601707,18.842257],[-71.600952,18.8379],[-71.600876,18.829552],[-71.601189,18.825335],[-71.602097,18.823645],[-71.609177,18.820694],[-71.611214,18.818741],[-71.612396,18.816347],[-71.611458,18.811529],[-71.612625,18.807158],[-71.612961,18.803062],[-71.606033,18.80064],[-71.595383,18.799496],[-71.591087,18.797834],[-71.586662,18.797251],[-71.584084,18.796347],[-71.58107,18.791943],[-71.578995,18.787811],[-71.57534,18.784349],[-71.572556,18.783268],[-71.565094,18.782116],[-71.561485,18.780607],[-71.556854,18.779617],[-71.549423,18.786995],[-71.547836,18.790272],[-71.547272,18.79537],[-71.544189,18.802414],[-71.540581,18.805145],[-71.535866,18.805563],[-71.507919,18.805252],[-71.502647,18.804335],[-71.496674,18.80246],[-71.491837,18.802282],[-71.475792,18.802336],[-71.470535,18.801575],[-71.467468,18.799475],[-71.463623,18.795897],[-71.45903,18.793793],[-71.454735,18.79406],[-71.45237,18.794834],[-71.44886,18.801832],[-71.444229,18.807978],[-71.44278,18.813059],[-71.439087,18.820707],[-71.439049,18.822819],[-71.4403,18.82766],[-71.440582,18.832794],[-71.441589,18.836092],[-71.445107,18.839121],[-71.446297,18.841129],[-71.446571,18.846436],[-71.446129,18.849133],[-71.444237,18.853098],[-71.442833,18.858181],[-71.441223,18.861526],[-71.439957,18.868799],[-71.438499,18.872108],[-71.43853,18.875771],[-71.443268,18.884647],[-71.44313,18.889248],[-71.440323,18.891712],[-71.437645,18.891691],[-71.434326,18.890139],[-71.429443,18.889423],[-71.426598,18.889734],[-71.416473,18.894266],[-71.411758,18.895309],[-71.408539,18.897058],[-71.404663,18.900635],[-71.402328,18.904261],[-71.401054,18.909317],[-71.397552,18.914019],[-71.39238,18.914843],[-71.389107,18.915941],[-71.383797,18.919477],[-71.378548,18.920193],[-71.36438,18.919891],[-71.359955,18.920109],[-71.358093,18.920849],[-71.355011,18.925192],[-71.352211,18.930862],[-71.351479,18.933592],[-71.351295,18.938101],[-71.351509,18.961811],[-71.351196,18.965324],[-71.34935,18.967596],[-71.345871,18.969141],[-71.343796,18.972961],[-71.344902,18.977182],[-71.344734,18.981695],[-71.342941,18.985695],[-71.342392,18.993082],[-71.342537,19.010496],[-71.341759,19.015553],[-71.336967,19.02161],[-71.335045,19.025307],[-71.335144,19.027966],[-71.336975,19.029406],[-71.342712,19.030092],[-71.34478,19.031355],[-71.345451,19.033834],[-71.345612,19.038792],[-71.346413,19.041574],[-71.349297,19.045086],[-71.353844,19.049355],[-71.357513,19.05209],[-71.364227,19.05504],[-71.376122,19.05579],[-71.37812,19.057241],[-71.38208,19.064293],[-71.386002,19.069344],[-71.387878,19.072891],[-71.390762,19.076069],[-71.393936,19.077896],[-71.400093,19.078396],[-71.40316,19.078094],[-71.406509,19.076576],[-71.41082,19.07262],[-71.413788,19.072638],[-71.413689,19.086866],[-71.414574,19.092049],[-71.419022,19.096647],[-71.419746,19.100143],[-71.419785,19.108074],[-71.420174,19.111179],[-71.424377,19.120621],[-71.446358,19.120935],[-71.44912,19.120426],[-71.450912,19.118891],[-71.450851,19.116253],[-71.447975,19.110607],[-71.448067,19.107918],[-71.450233,19.10358],[-71.452667,19.101542],[-71.461731,19.097412],[-71.466408,19.094084],[-71.470009,19.092293],[-71.472618,19.089605],[-71.473274,19.08634],[-71.473854,19.078875],[-71.477058,19.072592],[-71.480003,19.069492],[-71.48542,19.066574],[-71.490921,19.062851],[-71.491035,19.046494],[-71.49192,19.041716],[-71.494629,19.036682],[-71.499374,19.030605],[-71.500092,19.027279],[-71.499603,19.020412],[-71.495689,19.012724],[-71.49543,19.010496],[-71.497337,19.007769],[-71.508987,18.996826],[-71.51207,18.994946],[-71.515335,18.995115],[-71.518791,18.996599],[-71.524727,18.997177],[-71.535484,18.997175],[-71.541351,18.99789],[-71.544853,18.999491],[-71.54763,19.000072],[-71.553482,19.000206],[-71.556915,18.999481],[-71.560638,18.997385],[-71.562233,18.994955],[-71.562737,18.990503],[-71.564201,18.987343],[-71.569016,18.982601],[-71.572983,18.980732],[-71.580193,18.980431],[-71.582977,18.979967],[-71.59552,18.974161],[-71.603271,18.967413],[-71.606468,18.963556],[-71.610931,18.955133],[-71.615608,18.951967],[-71.618141,18.949385],[-71.619263,18.946033],[-71.62088,18.944448],[-71.628036,18.941935],[-71.633774,18.941393],[-71.636742,18.938591]]]}},
{"type":"Feature","id":"DOM:ADM2:DO-22.san-juan-de-la-maguana","properties":{"shapeName":"San Juan de la Maguana\r\n","shapeISO":"","shapeGroup":"DOM","shapeType":"ADM2","adm1ISO":"DO-22","parentISO":"DO-22","parentID":"DOM:ADM1:DO-22","src_shape_id":"3306468B55528819950271"},"geometry":{"type":"Polygon","coordinates":[[[-71.039536,18.704615],[-71.038582,18.709024],[-71.036461,18.711327],[-71.032852,18.712971],[-71.029236,18.715998],[-71.028595,18.71776],[-71.030487,18.720903],[-71.035271,18.725889],[-71.036209,18.729153],[-71.036293,18.736792],[-71.036949,18.740116],[-71.041496,18.746326],[-71.042946,18.751396],[-71.044571,18.754742],[-71.045181,18.762985],[-71.046211,18.764814],[-71.049644,18.766411],[-71.050827,18.768288],[-71.051476,18.772434],[-71.053429,18.774584],[-71.057953,18.776831],[-71.062752,18.777781],[-71.069229,18.780876],[-71.07103,18.782648],[-71.072517,18.78548],[-71.075745,18.789248],[-71.078117,18.790894],[-71.08593,18.794245],[-71.087883,18.795591],[-71.088516,18.797794],[-71.086288,18.8008],[-71.083633,18.803087],[-71.079941,18.805161],[-71.075188,18.806149],[-71.070999,18.807854],[-71.066193,18.808813],[-71.058159,18.811766],[-71.05777,18.813932],[-71.059555,18.817511],[-71.060066,18.822214],[-71.059494,18.824888],[-71.057381,18.827763],[-71.052498,18.8323],[-71.045624,18.837543],[-71.042931,18.841078],[-71.034637,18.849384],[-71.030731,18.85615],[-71.028244,18.86117],[-71.028023,18.864286],[-71.029701,18.868168],[-71.03067,18.872002],[-71.034119,18.876629],[-71.04364,18.885311],[-71.047165,18.887968],[-71.048546,18.893702],[-71.050484,18.895842],[-71.053665,18.897741],[-71.061005,18.900766],[-71.065681,18.901798],[-71.067291,18.902868],[-71.068916,18.906347],[-71.068459,18.909611],[-71.066246,18.914818],[-71.065681,18.918844],[-71.06369,18.923967],[-71.063751,18.926519],[-71.065704,18.929359],[-71.071175,18.934345],[-71.074158,18.938202],[-71.074196,18.940744],[-71.072121,18.94599],[-71.071922,18.951883],[-71.072495,18.954741],[-71.075294,18.96048],[-71.07872,18.965368],[-71.081078,18.966162],[-71.087166,18.96718],[-71.090088,18.969316],[-71.091881,18.97155],[-71.092857,18.976519],[-71.092834,18.991497],[-71.094788,18.997074],[-71.095634,19.001148],[-71.095749,19.007748],[-71.096596,19.011848],[-71.101006,19.020247],[-71.102364,19.025362],[-71.104424,19.03068],[-71.104874,19.034718],[-71.106926,19.040028],[-71.108086,19.050116],[-71.109894,19.05415],[-71.11132,19.063782],[-71.115166,19.067112],[-71.117599,19.071152],[-71.121704,19.076687],[-71.12175,19.07922],[-71.120232,19.082426],[-71.119415,19.088085],[-71.119492,19.092506],[-71.12014,19.096016],[-71.121956,19.099998],[-71.122536,19.108147],[-71.123756,19.111164],[-71.125702,19.112806],[-71.134743,19.116833],[-71.13855,19.118977],[-71.140259,19.120619],[-71.146622,19.131912],[-71.152374,19.135494],[-71.154915,19.136488],[-71.170296,19.143963],[-71.173447,19.145206],[-71.177666,19.147657],[-71.178635,19.149174],[-71.178604,19.15221],[-71.177353,19.15527],[-71.17907,19.160702],[-71.181541,19.164066],[-71.188065,19.169558],[-71.194771,19.172541],[-71.201813,19.172844],[-71.206818,19.171755],[-71.209816,19.170176],[-71.216522,19.169683],[-71.22084,19.168055],[-71.23217,19.166767],[-71.237167,19.164991],[-71.244072,19.164536],[-71.250549,19.162506],[-71.253578,19.161987],[-71.25824,19.1623],[-71.262505,19.164063],[-71.267166,19.16531],[-71.274971,19.170118],[-71.279831,19.170015],[-71.288574,19.165825],[-71.294418,19.164946],[-71.303802,19.165054],[-71.30677,19.167894],[-71.309746,19.165091],[-71.319023,19.165016],[-71.330879,19.161497],[-71.332932,19.159271],[-71.333694,19.154751],[-71.33358,19.137821],[-71.332855,19.13163],[-71.330986,19.127642],[-71.329041,19.121132],[-71.329041,19.119015],[-71.330894,19.112478],[-71.333755,19.105066],[-71.336258,19.103306],[-71.345078,19.102472],[-71.348495,19.101093],[-71.351196,19.101145],[-71.353729,19.102589],[-71.358879,19.108036],[-71.361916,19.113022],[-71.365562,19.114569],[-71.369003,19.114185],[-71.37381,19.112272],[-71.378754,19.111692],[-71.384315,19.109732],[-71.388779,19.109098],[-71.395752,19.10918],[-71.399338,19.109966],[-71.40403,19.112204],[-71.407326,19.115177],[-71.411552,19.123703],[-71.415359,19.126188],[-71.419533,19.125801],[-71.422112,19.123812],[-71.424377,19.120621],[-71.420174,19.111179],[-71.419785,19.108074],[-71.419746,19.100143],[-71.419022,19.096647],[-71.414574,19.092049],[-71.413689,19.086866],[-71.413788,19.072638],[-71.41082,19.07262],[-71.406509,19.076576],[-71.40316,19.078094],[-71.400093,19.078396],[-71.393936,19.077896],[-71.390762,19.076069],[-71.387878,19.072891],[-71.386002,19.069344],[-71.38208,19.064293],[-71.37812,19.057241],[-71.376122,19.05579],[-71.364227,19.05504],[-71.357513,19.05209],[-71.353844,19.049355],[-71.349297,19.045086],[-71.346413,19.041574],[-71.345612,19.038792],[-71.345451,19.033834],[-71.34478,19.031355],[-71.342712,19.030092],[-71.336975,19.029406],[-71.335144,19.027966],[-71.335045,19.025307],[-71.336967,19.02161],[-71.341759,19.015553],[-71.342537,19.010496],[-71.342392,18.993082],[-71.342941,18.985695],[-71.344734,18.981695],[-71.344902,18.977182],[-71.343796,18.972961],[-71.345871,18.969141],[-71.34935,18.967596],[-71.351196,18.965324],[-71.351509,18.961811],[-71.351295,18.938101],[-71.351479,18.933592],[-71.352211,18.930862],[-71.355011,18.925192],[-71.358093,18.920849],[-71.359955,18.920109],[-71.36438,18.919891],[-71.378548,18.920193],[-71.383797,18.919477],[-71.389107,18.915941],[-71.39238,18.914843],[-71.397552,18.914019],[-71.401054,18.909317],[-71.402328,18.904261],[-71.404663,18.900635],[-71.408539,18.897058],[-71.411758,18.895309],[-71.416473,18.894266],[-71.426598,18.889734],[-71.429443,18.889423],[-71.434326,18.890139],[-71.437645,18.891691],[-71.440323,18.891712],[-71.44313,18.889248],[-71.443268,18.884647],[-71.43853,18.875771],[-71.438499,18.872108],[-71.439957,18.868799],[-71.441223,18.861526],[-71.442833,18.858181],[-71.444237,18.853098],[-71.446129,18.849133],[-71.446571,18.846436],[-71.446297,18.841129],[-71.445107,18.839121],[-71.441589,18.836092],[-71.440582,18.832794],[-71.4403,18.82766],[-71.439049,18.822819],[-71.439087,18.820707],[-71.44278,18.813059],[-71.444229,18.807978],[-71.44886,18.801832],[-71.45237,18.794834],[-71.447395,18.791969],[-71.440819,18.790087],[-71.4366,18.78838],[-71.431213,18.787148],[-71.426743,18.784346],[-71.426445,18.782129],[-71.428078,18.778543],[-71.427979,18.77401],[-71.426422,18.770662],[-71.425789,18.767162],[-71.425621,18.760561],[-71.424812,18.756458],[-71.423248,18.753059],[-71.42205,18.748587],[-71.418732,18.743492],[-71.412804,18.742676],[-71.406609,18.742571],[-71.402168,18.741928],[-71.397293,18.740047],[-71.390083,18.739542],[-71.383774,18.737471],[-71.378403,18.736139],[-71.372818,18.734144],[-71.366493,18.733271],[-71.354546,18.727709],[-71.351631,18.725586],[-71.348587,18.721708],[-71.341927,18.708565],[-71.339661,18.70566],[-71.334572,18.701115],[-71.330238,18.698818],[-71.325676,18.695385],[-71.321625,18.694269],[-71.319542,18.694487],[-71.315422,18.696224],[-71.307854,18.696918],[-71.28035,18.696653],[-71.275757,18.69692],[-71.270798,18.69878],[-71.266075,18.699812],[-71.259468,18.702784],[-71.254272,18.70652],[-71.250214,18.707726],[-71.243011,18.708153],[-71.238197,18.710052],[-71.234764,18.710463],[-71.231583,18.709345],[-71.229881,18.707472],[-71.224365,18.696735],[-71.223518,18.693495],[-71.223511,18.687963],[-71.224869,18.684107],[-71.22847,18.679785],[-71.230438,18.676308],[-71.234444,18.671383],[-71.236786,18.667294],[-71.239281,18.664587],[-71.247002,18.657354],[-71.24942,18.654613],[-71.252731,18.648376],[-71.253403,18.643646],[-71.252716,18.63752],[-71.249359,18.631279],[-71.24482,18.625076],[-71.243095,18.619476],[-71.240074,18.61367],[-71.235085,18.61545],[-71.226288,18.619715],[-71.211914,18.626377],[-71.207375,18.629805],[-71.204155,18.631283],[-71.201347,18.631294],[-71.19841,18.629742],[-71.197136,18.627569],[-71.196442,18.62381],[-71.194695,18.621199],[-71.19223,18.62009],[-71.189423,18.620123],[-71.186913,18.621147],[-71.181679,18.624983],[-71.178902,18.625599],[-71.173218,18.625067],[-71.167297,18.622154],[-71.160858,18.617638],[-71.157356,18.61697],[-71.151199,18.616888],[-71.145935,18.617807],[-71.143005,18.619081],[-71.13443,18.619759],[-71.13102,18.620453],[-71.125656,18.622929],[-71.11628,18.630301],[-71.11319,18.631756],[-71.107964,18.635504],[-71.104874,18.636946],[-71.101387,18.639505],[-71.09481,18.645447],[-71.091141,18.648048],[-71.088348,18.654123],[-71.084808,18.658512],[-71.082451,18.662579],[-71.078453,18.667515],[-71.075394,18.673101],[-71.072418,18.679422],[-71.070656,18.685139],[-71.065475,18.690607],[-71.063141,18.691532],[-71.06028,18.689438],[-71.060005,18.683495],[-71.060974,18.680908],[-71.06572,18.674786],[-71.066261,18.670277],[-71.065285,18.668081],[-71.061745,18.668119],[-71.058327,18.67034],[-71.056625,18.672628],[-71.053856,18.674845],[-71.051239,18.674868],[-71.047966,18.673326],[-71.044724,18.672901],[-71.042091,18.674355],[-71.039711,18.678493],[-71.039146,18.683407],[-71.039238,18.697966],[-71.039536,18.704615]],[[-71.167381,18.928326],[-71.164299,18.92816],[-71.160164,18.928772],[-71.158524,18.927099],[-71.158524,18.924524],[-71.160728,18.922297],[-71.163422,18.921625],[-71.169228,18.921633],[-71.172714,18.921082],[-71.177002,18.91703],[-71.180084,18.914804],[-71.180748,18.913261],[-71.179771,18.910963],[-71.176514,18.908365],[-71.170624,18.907467],[-71.156067,18.907593],[-71.152496,18.906914],[-71.15004,18.904902],[-71.147392,18.900444],[-71.141174,18.893679],[-71.138084,18.888035],[-71.137337,18.885471],[-71.137337,18.881378],[-71.138206,18.878777],[-71.140022,18.876566],[-71.145966,18.87105],[-71.148811,18.867064],[-71.149879,18.862589],[-71.152733,18.856932],[-71.15892,18.850309],[-71.160477,18.848024],[-71.161148,18.843124],[-71.16111,18.837954],[-71.161865,18.833811],[-71.164383,18.829788],[-71.166756,18.828609],[-71.172737,18.828543],[-71.176338,18.829416],[-71.190285,18.836432],[-71.194473,18.837149],[-71.197227,18.836323],[-71.198936,18.834785],[-71.201714,18.829193],[-71.202942,18.825111],[-71.205948,18.823353],[-71.207886,18.823528],[-71.211914,18.825256],[-71.215019,18.825909],[-71.22084,18.82613],[-71.233292,18.825966],[-71.236855,18.826675],[-71.23838,18.828911],[-71.238625,18.832478],[-71.238335,18.844997],[-71.238548,18.849382],[-71.239288,18.851946],[-71.243523,18.859735],[-71.244431,18.863165],[-71.244476,18.867493],[-71.243759,18.869999],[-71.239799,18.871983],[-71.236237,18.876581],[-71.231926,18.885126],[-71.229691,18.887287],[-71.224983,18.888905],[-71.220261,18.893135],[-71.216866,18.893557],[-71.212196,18.892193],[-71.20594,18.89382],[-71.204247,18.89535],[-71.204597,18.898069],[-71.206543,18.899391],[-71.214401,18.902674],[-71.220879,18.905788],[-71.223488,18.909433],[-71.223763,18.91213],[-71.223053,18.916162],[-71.220856,18.919136],[-71.216934,18.922672],[-71.212982,18.924541],[-71.208046,18.92502],[-71.202477,18.926907],[-71.197273,18.927509],[-71.18795,18.927406],[-71.182182,18.928047],[-71.17662,18.930052],[-71.17231,18.930014],[-71.167381,18.928326]]]}},
{"type":"Feature","id":"DOM:ADM2:DO-22.vallejuelo","properties":{"shapeName":"Vallejuelo","shapeISO":"","shapeGroup":"DOM","shapeType":"ADM2","adm1ISO":"DO-22","parentISO":"DO-22","parentID":"DOM:ADM1:DO-22","src_shape_id":"3306468B66406658248209"},"geometry":{"type":"Polygon","coordinates":[[[-71.323311,18.603842],[-71.319603,18.609213],[-71.317772,18.6127],[-71.314888,18.615845],[-71.312546,18.617485],[-71.305824,18.620394],[-71.298119,18.62063],[-71.295143,18.620047],[-71.289383,18.618002],[-71.282692,18.616831],[-71.27903,18.61537],[-71.269875,18.614504],[-71.264893,18.61264],[-71.261826,18.612066],[-71.245537,18.611906],[-71.242554,18.612377],[-71.240074,18.61367],[-71.243095,18.619476],[-71.24482,18.625076],[-71.249359,18.631279],[-71.252716,18.63752],[-71.253403,18.643646],[-71.252731,18.648376],[-71.24942,18.654613],[-71.247002,18.657354],[-71.239281,18.664587],[-71.236786,18.667294],[-71.234444,18.671383],[-71.230438,18.676308],[-71.22847,18.679785],[-71.224869,18.684107],[-71.223511,18.687963],[-71.223518,18.693495],[-71.224365,18.696735],[-71.229881,18.707472],[-71.231583,18.709345],[-71.234764,18.710463],[-71.238197,18.710052],[-71.243011,18.708153],[-71.250214,18.707726],[-71.254272,18.70652],[-71.259468,18.702784],[-71.266075,18.699812],[-71.270798,18.69878],[-71.275757,18.69692],[-71.28035,18.696653],[-71.307854,18.696918],[-71.315422,18.696224],[-71.319542,18.694487],[-71.321625,18.694269],[-71.325676,18.695385],[-71.330238,18.698818],[-71.334572,18.701115],[-71.339661,18.70566],[-71.341927,18.708565],[-71.348587,18.721708],[-71.351631,18.725586],[-71.354546,18.727709],[-71.366493,18.733271],[-71.372818,18.734144],[-71.378403,18.736139],[-71.383774,18.737471],[-71.390083,18.739542],[-71.397293,18.740047],[-71.402168,18.741928],[-71.406609,18.742571],[-71.412804,18.742676],[-71.418732,18.743492],[-71.424759,18.742311],[-71.428978,18.740585],[-71.433754,18.739649],[-71.43956,18.73653],[-71.439896,18.734253],[-71.435295,18.725595],[-71.434372,18.719585],[-71.432327,18.714264],[-71.43119,18.709768],[-71.426842,18.701382],[-71.42662,18.697126],[-71.430954,18.689283],[-71.430527,18.687071],[-71.419983,18.682941],[-71.408096,18.677172],[-71.40287,18.673349],[-71.388802,18.666451],[-71.387283,18.664589],[-71.387154,18.662092],[-71.389244,18.658503],[-71.395035,18.652662],[-71.398102,18.647009],[-71.398979,18.642122],[-71.398888,18.630096],[-71.39959,18.624334],[-71.401581,18.619736],[-71.402565,18.611366],[-71.397095,18.614485],[-71.393234,18.61421],[-71.390144,18.611044],[-71.383865,18.609041],[-71.381706,18.60672],[-71.381119,18.603945],[-71.381027,18.598988],[-71.380211,18.596521],[-71.376686,18.594227],[-71.37355,18.593121],[-71.367195,18.592333],[-71.361977,18.589142],[-71.360222,18.588539],[-71.356369,18.589487],[-71.351654,18.589251],[-71.348228,18.587887],[-71.345024,18.588072],[-71.343033,18.589025],[-71.341805,18.59409],[-71.339638,18.595375],[-71.334076,18.596876],[-71.330772,18.600163],[-71.323311,18.603842]]]}}
]}