{"type":"FeatureCollection","bbox":[-69.750641,18.992601,-69.150414,19.36375], "features": [
{"type":"Feature","geometry":{"type":"Polygon","coordinates":[[[-69.483032,19.285276],[-69.486465,19.289143],[-69.487404,19.291994],[-69.48764,19.3053],[-69.486565,19.309515],[-69.482841,19.311941],[-69.477707,19.313242],[-69.473488,19.315662],[-69.471275,19.318308],[-69.468651,19.319946],[-69.464706,19.320911],[-69.459251,19.324621],[-69.453751,19.325962],[-69.455971,19.326529],[-69.461525,19.326529],[-69.462639,19.327639],[-69.467361,19.32736],[-69.468193,19.326529],[-69.472359,19.326529],[-69.477364,19.324306],[-69.480415,19.324862],[-69.484024,19.323473],[-69.489304,19.322918],[-69.493469,19.325695],[-69.498474,19.325417],[-69.501808,19.326805],[-69.505692,19.325695],[-69.506531,19.327084],[-69.510696,19.326805],[-69.514862,19.32736],[-69.518471,19.325138],[-69.522362,19.325138],[-69.52597,19.324306],[-69.52903,19.326805],[-69.530975,19.324306],[-69.535698,19.322639],[-69.539864,19.322083],[-69.542358,19.323473],[-69.544304,19.32625],[-69.546249,19.32736],[-69.548752,19.325972],[-69.552361,19.325695],[-69.552917,19.32375],[-69.554863,19.322361],[-69.556252,19.319027],[-69.560143,19.320696],[-69.564026,19.320972],[-69.563469,19.319027],[-69.564026,19.314306],[-69.56736,19.313749],[-69.575417,19.315695],[-69.574585,19.311806],[-69.57486,19.307083],[-69.577362,19.303749],[-69.580696,19.301527],[-69.583473,19.300694],[-69.58625,19.30125],[-69.589584,19.298195],[-69.598198,19.29653],[-69.606247,19.296806],[-69.607635,19.295973],[-69.61042,19.296249],[-69.616249,19.294308],[-69.629028,19.294584],[-69.632362,19.294861],[-69.637085,19.293472],[-69.63903,19.293753],[-69.647636,19.293753],[-69.652916,19.294308],[-69.656296,19.293196],[-69.656464,19.292622],[-69.656845,19.287094],[-69.656128,19.284533],[-69.650497,19.273836],[-69.647774,19.271194],[-69.641853,19.268433],[-69.638885,19.267931],[-69.631149,19.267817],[-69.626793,19.267052],[-69.621506,19.264528],[-69.619598,19.262854],[-69.617683,19.25741],[-69.613724,19.251839],[-69.612923,19.24872],[-69.615318,19.242352],[-69.61792,19.238705],[-69.616203,19.237064],[-69.612343,19.239515],[-69.605385,19.241861],[-69.595711,19.242317],[-69.59182,19.242887],[-69.588287,19.24435],[-69.585205,19.244896],[-69.579491,19.24501],[-69.560471,19.244827],[-69.549782,19.244593],[-69.546135,19.245037],[-69.544289,19.246847],[-69.543625,19.251444],[-69.542168,19.254318],[-69.531815,19.260941],[-69.528702,19.261517],[-69.518227,19.261934],[-69.507957,19.266331],[-69.502724,19.267643],[-69.500366,19.269709],[-69.498413,19.278477],[-69.496597,19.280212],[-69.493851,19.281038],[-69.489311,19.281439],[-69.485893,19.282887],[-69.483032,19.285276]]]},"properties":{"shapeName":"Las Terrenas","shapeISO":"3306468B40985088538713","shapeGroup":"DOM","shapeType":"ADM2","src_shape_id":"3306468B40985088538713","adm1ISO":"DO-20"}},
{"type":"Feature","geometry":{"type":"Polygon","coordinates":[[[-69.746117,19.14724],[-69.74527,19.141239],[-69.74292,19.136732],[-69.73777,19.130035],[-69.731056,19.116903],[-69.7295,19.114594],[-69.724983,19.111149],[-69.72081,19.109903],[-69.719368,19.107832],[-69.71933,19.10166],[-69.720177,19.099861],[-69.724876,19.097017],[-69.732803,19.094154],[-69.730186,19.089788],[-69.726303,19.086216],[-69.721878,19.085899],[-69.717896,19.087309],[-69.71537,19.086758],[-69.710045,19.084259],[-69.70652,19.081205],[-69.704979,19.079111],[-69.699402,19.068331],[-69.698517,19.063604],[-69.698631,19.050499],[-69.69838,19.046949],[-69.69561,19.041368],[-69.693871,19.039719],[-69.688034,19.037125],[-69.680962,19.03627],[-69.674469,19.033195],[-69.672302,19.030899],[-69.667877,19.022308],[-69.66394,19.017284],[-69.662048,19.013918],[-69.659561,19.011948],[-69.651268,19.010651],[-69.645264,19.007915],[-69.639458,19.003675],[-69.635162,19.001419],[-69.630547,18.997971],[-69.626869,18.996202],[-69.621208,18.992601],[-69.621262,18.997692],[-69.620583,19.002386],[-69.618652,19.007097],[-69.618179,19.013653],[-69.617371,19.017046],[-69.613281,19.024849],[-69.612106,19.03121],[-69.609589,19.038816],[-69.608658,19.0446],[-69.607338,19.047386],[-69.606178,19.053743],[-69.603638,19.061346],[-69.60321,19.065006],[-69.600677,19.072611],[-69.600258,19.076279],[-69.598549,19.080973],[-69.600418,19.081249],[-69.602913,19.079306],[-69.605698,19.079306],[-69.607361,19.081528],[-69.617638,19.081528],[-69.618469,19.077917],[-69.620697,19.077639],[-69.620445,19.083195],[-69.622917,19.082361],[-69.626808,19.082361],[-69.628754,19.084028],[-69.631531,19.089863],[-69.634026,19.092361],[-69.634308,19.094307],[-69.636528,19.097361],[-69.632637,19.100971],[-69.631531,19.105139],[-69.634308,19.109861],[-69.633194,19.113194],[-69.636528,19.117085],[-69.636528,19.120695],[-69.637917,19.123194],[-69.638474,19.130974],[-69.640137,19.135973],[-69.637085,19.136806],[-69.636528,19.141806],[-69.634026,19.149584],[-69.634026,19.151527],[-69.631805,19.162916],[-69.627914,19.172085],[-69.626808,19.17625],[-69.626251,19.182917],[-69.625137,19.188473],[-69.625137,19.190971],[-69.626526,19.192083],[-69.624306,19.194584],[-69.627357,19.198193],[-69.624031,19.197914],[-69.623474,19.200138],[-69.625137,19.201805],[-69.62458,19.203194],[-69.62458,19.21125],[-69.624031,19.214308],[-69.626526,19.217083],[-69.627083,19.220417],[-69.622917,19.223749],[-69.617638,19.225414],[-69.615417,19.224028],[-69.613747,19.224861],[-69.607918,19.22514],[-69.603195,19.224028],[-69.600418,19.222082],[-69.597641,19.221527],[-69.59153,19.218195],[-69.591248,19.216806],[-69.58847,19.216806],[-69.585136,19.218748],[-69.579308,19.218195],[-69.573753,19.215973],[-69.571526,19.214582],[-69.568748,19.215694],[-69.566803,19.214861],[-69.563469,19.214861],[-69.560974,19.213196],[-69.557083,19.213196],[-69.554031,19.211527],[-69.552086,19.21236],[-69.54792,19.211527],[-69.547081,19.212639],[-69.543472,19.212917],[-69.540695,19.214027],[-69.53875,19.212639],[-69.535141,19.21236],[-69.532639,19.210974],[-69.531525,19.212639],[-69.52903,19.213472],[-69.525414,19.213472],[-69.519859,19.210693],[-69.518196,19.211527],[-69.514305,19.210417],[-69.512642,19.20764],[-69.510696,19.209864],[-69.509026,19.210417],[-69.506248,19.212917],[-69.504028,19.212917],[-69.501808,19.210417],[-69.497086,19.207359],[-69.494026,19.207083],[-69.492638,19.208471],[-69.489586,19.20764],[-69.487915,19.205973],[-69.485695,19.205694],[-69.483192,19.206528],[-69.481438,19.208195],[-69.481644,19.213734],[-69.481094,19.21805],[-69.476967,19.223646],[-69.475677,19.226789],[-69.475624,19.230873],[-69.476349,19.233446],[-69.479019,19.238548],[-69.480782,19.240789],[-69.484161,19.243525],[-69.492157,19.247494],[-69.493179,19.249016],[-69.493134,19.252111],[-69.491333,19.25458],[-69.487991,19.256914],[-69.484795,19.262836],[-69.48381,19.269501],[-69.478874,19.278975],[-69.478935,19.282078],[-69.479965,19.283554],[-69.483032,19.285276],[-69.485893,19.282887],[-69.489311,19.281439],[-69.493851,19.281038],[-69.496597,19.280212],[-69.498413,19.278477],[-69.500366,19.269709],[-69.502724,19.267643],[-69.507957,19.266331],[-69.518227,19.261934],[-69.528702,19.261517],[-69.531815,19.260941],[-69.542168,19.254318],[-69.543625,19.251444],[-69.544289,19.246847],[-69.546135,19.245037],[-69.549782,19.244593],[-69.560471,19.244827],[-69.579491,19.24501],[-69.585205,19.244896],[-69.588287,19.24435],[-69.59182,19.242887],[-69.595711,19.242317],[-69.605385,19.241861],[-69.612343,19.239515],[-69.616203,19.237064],[-69.61792,19.238705],[-69.615318,19.242352],[-69.612923,19.24872],[-69.613724,19.251839],[-69.617683,19.25741],[-69.619598,19.262854],[-69.621506,19.264528],[-69.626793,19.267052],[-69.631149,19.267817],[-69.638885,19.267931],[-69.641853,19.268433],[-69.647774,19.271194],[-69.650497,19.273836],[-69.656128,19.284533],[-69.656845,19.287094],[-69.656464,19.292622],[-69.659859,19.289864],[-69.662636,19.289581],[-69.663475,19.288471],[-69.666252,19.288195],[-69.670418,19.285139],[-69.675415,19.283194],[-69.678749,19.283194],[-69.679581,19.282362],[-69.685417,19.282919],[-69.687637,19.280972],[-69.693474,19.278749],[-69.696251,19.278193],[-69.700691,19.278475],[-69.705696,19.276253],[-69.708748,19.275972],[-69.717636,19.275972],[-69.72403,19.276806],[-69.728195,19.278749],[-69.732918,19.278749],[-69.735695,19.279306],[-69.739479,19.280973],[-69.74247,19.27389],[-69.74308,19.270182],[-69.74324,19.264009],[-69.743866,19.260324],[-69.745407,19.256973],[-69.746162,19.250109],[-69.746063,19.238199],[-69.746773,19.232103],[-69.748573,19.22805],[-69.750641,19.220882],[-69.74337,19.220564],[-69.725082,19.220501],[-69.717453,19.219936],[-69.71312,19.218233],[-69.705048,19.217455],[-69.691124,19.217503],[-69.687576,19.21707],[-69.684509,19.215357],[-69.675133,19.206347],[-69.669762,19.201639],[-69.667519,19.200487],[-69.664108,19.194624],[-69.666161,19.189938],[-69.668068,19.187513],[-69.671364,19.185078],[-69.674179,19.180431],[-69.674698,19.177626],[-69.67514,19.168428],[-69.676132,19.166887],[-69.679657,19.163918],[-69.681892,19.16124],[-69.6866,19.159437],[-69.688095,19.160109],[-69.691345,19.163445],[-69.693687,19.163471],[-69.695389,19.161978],[-69.697037,19.157705],[-69.703087,19.153248],[-69.704498,19.149811],[-69.705124,19.145584],[-69.707054,19.144245],[-69.710716,19.143263],[-69.716103,19.140799],[-69.721222,19.137058],[-69.723854,19.136246],[-69.726402,19.136831],[-69.731224,19.140343],[-69.734688,19.146881],[-69.737518,19.149403],[-69.743141,19.150042],[-69.746117,19.14724]]]},"properties":{"shapeName":"Sánchez","shapeISO":"3306468B64693584443826","shapeGroup":"DOM","shapeType":"ADM2","src_shape_id":"3306468B64693584443826","adm1ISO":"DO-20"}},
{"type":"Feature","geometry":{"type":"MultiPolygon","coordinates":[[[[-69.483032,19.285276],[-69.479965,19.283554],[-69.478935,19.282078],[-69.478874,19.278975],[-69.48381,19.269501],[-69.484795,19.262836],[-69.487991,19.256914],[-69.491333,19.25458],[-69.493134,19.252111],[-69.493179,19.249016],[-69.492157,19.247494],[-69.484161,19.243525],[-69.480782,19.240789],[-69.479019,19.238548],[-69.476349,19.233446],[-69.475624,19.230873],[-69.475677,19.226789],[-69.476967,19.223646],[-69.481094,19.21805],[-69.481644,19.213734],[-69.481438,19.208195],[-69.475418,19.207916],[-69.469307,19.206806],[-69.465698,19.205416],[-69.460976,19.202362],[-69.457085,19.202084],[-69.455696,19.202917],[-69.451248,19.202639],[-69.447914,19.200972],[-69.441528,19.199583],[-69.438751,19.198193],[-69.435417,19.19486],[-69.432083,19.189861],[-69.428192,19.192638],[-69.425415,19.193472],[-69.42347,19.192362],[-69.415413,19.192362],[-69.415413,19.189306],[-69.413475,19.186527],[-69.411247,19.185139],[-69.407913,19.184586],[-69.406807,19.190695],[-69.402359,19.19486],[-69.397636,19.19375],[-69.395142,19.195692],[-69.391808,19.195692],[-69.387917,19.194027],[-69.385414,19.195417],[-69.379028,19.194584],[-69.373474,19.196253],[-69.366249,19.196253],[-69.36042,19.19486],[-69.354858,19.195139],[-69.350693,19.19375],[-69.339859,19.193472],[-69.340141,19.196253],[-69.337364,19.195692],[-69.335136,19.197363],[-69.337364,19.199028],[-69.337364,19.200972],[-69.334305,19.202639],[-69.332085,19.202639],[-69.328476,19.20125],[-69.326248,19.20125],[-69.322914,19.198475],[-69.321251,19.198475],[-69.319031,19.196527],[-69.313469,19.193195],[-69.310974,19.196804],[-69.30764,19.196804],[-69.302917,19.193472],[-69.301804,19.190971],[-69.299309,19.19014],[-69.297638,19.190695],[-69.297363,19.192638],[-69.295692,19.194584],[-69.293747,19.19486],[-69.292358,19.193472],[-69.286804,19.191805],[-69.279861,19.186527],[-69.279305,19.18486],[-69.272919,19.18486],[-69.271248,19.183193],[-69.269302,19.184029],[-69.266251,19.183193],[-69.260696,19.183193],[-69.25708,19.18375],[-69.256248,19.18014],[-69.254028,19.180695],[-69.25264,19.182364],[-69.247086,19.181528],[-69.24292,19.181805],[-69.242081,19.180695],[-69.238747,19.18014],[-69.23764,19.180971],[-69.234024,19.18125],[-69.232918,19.179583],[-69.228752,19.179859],[-69.220695,19.183193],[-69.22097,19.18486],[-69.21875,19.188749],[-69.221802,19.19014],[-69.217636,19.199028],[-69.215141,19.199028],[-69.215141,19.201529],[-69.216248,19.203751],[-69.215141,19.206249],[-69.215416,19.209305],[-69.214859,19.212086],[-69.215973,19.212639],[-69.212914,19.219028],[-69.210693,19.221527],[-69.210693,19.223192],[-69.208748,19.228195],[-69.20903,19.230417],[-69.207916,19.233194],[-69.204582,19.233749],[-69.202919,19.235138],[-69.196808,19.238195],[-69.193748,19.241528],[-69.191803,19.242083],[-69.191528,19.244862],[-69.18708,19.24847],[-69.185974,19.24847],[-69.183197,19.251528],[-69.180969,19.252085],[-69.177086,19.255695],[-69.170418,19.258751],[-69.167915,19.259306],[-69.165138,19.263472],[-69.162086,19.265417],[-69.160416,19.269583],[-69.157639,19.272362],[-69.154305,19.276806],[-69.154305,19.278749],[-69.152641,19.280697],[-69.152084,19.284027],[-69.150414,19.287083],[-69.150696,19.296249],[-69.150414,19.300417],[-69.151802,19.302361],[-69.155975,19.302361],[-69.157639,19.30097],[-69.161804,19.301847],[-69.162918,19.30514],[-69.169586,19.304861],[-69.172081,19.301805],[-69.174583,19.300417],[-69.179306,19.299305],[-69.18042,19.296806],[-69.184303,19.296249],[-69.184303,19.293751],[-69.187637,19.293472],[-69.190414,19.294584],[-69.191803,19.29236],[-69.195694,19.29236],[-69.199303,19.294308],[-69.200974,19.294308],[-69.204865,19.297916],[-69.207085,19.296806],[-69.207085,19.295139],[-69.21125,19.293196],[-69.212914,19.290138],[-69.216248,19.288471],[-69.217361,19.287083],[-69.222359,19.287916],[-69.227364,19.287916],[-69.228195,19.285973],[-69.231804,19.285694],[-69.234863,19.287083],[-69.237915,19.28764],[-69.240135,19.286249],[-69.241249,19.28764],[-69.245972,19.28764],[-69.24958,19.289305],[-69.25486,19.294027],[-69.254028,19.297083],[-69.250969,19.300417],[-69.250137,19.304583],[-69.247643,19.307362],[-69.244858,19.312916],[-69.240135,19.317364],[-69.236526,19.325138],[-69.234863,19.325417],[-69.233475,19.32847],[-69.229858,19.331528],[-69.229027,19.333471],[-69.227364,19.333471],[-69.221252,19.339306],[-69.218475,19.34375],[-69.218475,19.346251],[-69.215698,19.349861],[-69.214027,19.354584],[-69.214584,19.358475],[-69.216805,19.360415],[-69.222916,19.360138],[-69.22625,19.359306],[-69.227913,19.359861],[-69.229584,19.362638],[-69.232361,19.362638],[-69.234024,19.36375],[-69.238747,19.36375],[-69.239029,19.36125],[-69.241249,19.357916],[-69.241249,19.355972],[-69.244026,19.352362],[-69.245697,19.349028],[-69.249031,19.345415],[-69.249863,19.343193],[-69.251526,19.34375],[-69.254585,19.347086],[-69.258194,19.345695],[-69.260414,19.346251],[-69.262917,19.343472],[-69.263474,19.341806],[-69.266251,19.341806],[-69.267639,19.339861],[-69.267914,19.33625],[-69.266251,19.335138],[-69.271248,19.33375],[-69.275696,19.334028],[-69.277359,19.33264],[-69.28125,19.332914],[-69.289581,19.330139],[-69.29097,19.328751],[-69.292084,19.325695],[-69.295975,19.322083],[-69.29847,19.320972],[-69.302917,19.320696],[-69.307083,19.318193],[-69.309029,19.314583],[-69.314308,19.311251],[-69.318192,19.30986],[-69.321251,19.307638],[-69.322083,19.305696],[-69.325417,19.302639],[-69.325417,19.300138],[-69.324028,19.299305],[-69.324028,19.295694],[-69.325142,19.295139],[-69.325142,19.29236],[-69.326248,19.291803],[-69.32486,19.28764],[-69.325691,19.285139],[-69.327362,19.283751],[-69.334862,19.283529],[-69.337082,19.284306],[-69.337364,19.288195],[-69.338753,19.289305],[-69.34153,19.28875],[-69.345139,19.289305],[-69.348198,19.291529],[-69.349861,19.295139],[-69.352364,19.297361],[-69.353752,19.299862],[-69.353752,19.302917],[-69.354858,19.303474],[-69.359863,19.303192],[-69.360138,19.302082],[-69.365692,19.30125],[-69.368195,19.302917],[-69.37542,19.303474],[-69.37542,19.305696],[-69.37986,19.307917],[-69.379585,19.311527],[-69.386253,19.312084],[-69.38736,19.30875],[-69.390419,19.308195],[-69.393471,19.309584],[-69.39653,19.312916],[-69.399307,19.313473],[-69.401253,19.315971],[-69.403198,19.317081],[-69.406807,19.316528],[-69.411804,19.320139],[-69.411804,19.322361],[-69.414864,19.322361],[-69.418198,19.320696],[-69.417084,19.31875],[-69.419304,19.31625],[-69.422081,19.316528],[-69.42514,19.313749],[-69.428192,19.314861],[-69.43264,19.318474],[-69.43486,19.319027],[-69.437637,19.325138],[-69.442917,19.326529],[-69.444031,19.325695],[-69.444862,19.322639],[-69.448753,19.320696],[-69.451248,19.320972],[-69.453751,19.325962],[-69.459251,19.324621],[-69.464706,19.320911],[-69.468651,19.319946],[-69.471275,19.318308],[-69.473488,19.315662],[-69.477707,19.313242],[-69.482841,19.311941],[-69.486565,19.309515],[-69.48764,19.3053],[-69.487404,19.291994],[-69.486465,19.289143],[-69.483032,19.285276]]],[[[-69.42292,19.331249],[-69.424858,19.329582],[-69.424026,19.327639],[-69.422081,19.328194],[-69.42292,19.331249]]],[[[-69.276802,19.16847],[-69.279861,19.168194],[-69.275139,19.164583],[-69.271805,19.164862],[-69.271805,19.166805],[-69.276802,19.16847]]]]},"properties":{"shapeName":"Santa Bárbara de Samaná","shapeISO":"3306468B43421780768425","shapeGroup":"DOM","shapeType":"ADM2","src_shape_id":"3306468B43421780768425","adm1ISO":"DO-20"}}
]}