{"type":"FeatureCollection","bbox":[-70.575653,18.713499,-70.217056,19.124714],"features":[
{"type":"Feature","id":"DOM:ADM2:DO-28.bonao","properties":{"shapeName":"Bonao","shapeISO":"","shapeGroup":"DOM","shapeType":"ADM2","adm1ISO":"DO-28","parentISO":"DO-28","parentID":"DOM:ADM1:DO-28","src_shape_id":"3306468B55753848240652"},"geometry":{"type":"Polygon","coordinates":[[[-70.514549,19.037622],[-70.513176,19.032396],[-70.512962,19.02799],[-70.512146,19.024586],[-70.507973,19.0168],[-70.507362,19.012928],[-70.509369,19.00771],[-70.509514,19.003185],[-70.507896,18.999569],[-70.508194,18.997368],[-70.512604,18.994518],[-70.5187,18.992001],[-70.525307,18.990974],[-70.527863,18.98872],[-70.528709,18.985821],[-70.531708,18.97957],[-70.534866,18.973955],[-70.53801,18.97016],[-70.539642,18.966446],[-70.540108,18.962429],[-70.542427,18.955847],[-70.543655,18.948608],[-70.546585,18.942896],[-70.549576,18.939829],[-70.552689,18.938185],[-70.556656,18.937395],[-70.560005,18.934589],[-70.5606,18.931833],[-70.56073,18.926897],[-70.561577,18.924461],[-70.566788,18.921343],[-70.569916,18.920183],[-70.574585,18.91736],[-70.575653,18.912092],[-70.575615,18.900848],[-70.575134,18.897455],[-70.574089,18.895922],[-70.570442,18.893345],[-70.567032,18.888941],[-70.565666,18.883875],[-70.563095,18.879864],[-70.559158,18.877928],[-70.5578,18.875271],[-70.557014,18.868622],[-70.552475,18.86499],[-70.547539,18.860415],[-70.546463,18.858568],[-70.546608,18.855402],[-70.551163,18.847244],[-70.554276,18.840961],[-70.555428,18.836487],[-70.557121,18.833179],[-70.55777,18.828485],[-70.556816,18.824493],[-70.552139,18.820074],[-70.546036,18.816612],[-70.538574,18.809458],[-70.537025,18.806349],[-70.53685,18.798733],[-70.537399,18.794781],[-70.530266,18.793528],[-70.524689,18.791527],[-70.520065,18.790894],[-70.510445,18.790871],[-70.508171,18.790489],[-70.505417,18.788651],[-70.503571,18.783222],[-70.500732,18.776806],[-70.497772,18.771238],[-70.494194,18.768457],[-70.490311,18.767981],[-70.469063,18.768126],[-70.465263,18.767811],[-70.462921,18.766563],[-70.459229,18.760775],[-70.457123,18.759712],[-70.454765,18.759912],[-70.452248,18.761642],[-70.446533,18.764267],[-70.443054,18.763252],[-70.437874,18.759829],[-70.433693,18.759705],[-70.427292,18.761868],[-70.422676,18.762486],[-70.416504,18.764252],[-70.414146,18.763441],[-70.410057,18.759651],[-70.406731,18.759207],[-70.402626,18.759512],[-70.402916,18.765402],[-70.402191,18.767946],[-70.39801,18.775557],[-70.397858,18.77869],[-70.40596,18.789967],[-70.411179,18.795418],[-70.413422,18.799854],[-70.41362,18.802095],[-70.412613,18.803696],[-70.407478,18.807474],[-70.406227,18.809595],[-70.405922,18.813066],[-70.406113,18.825769],[-70.405449,18.832266],[-70.403862,18.835608],[-70.402458,18.840605],[-70.400368,18.842918],[-70.39682,18.84469],[-70.391541,18.848373],[-70.38781,18.850132],[-70.384483,18.852875],[-70.382767,18.855104],[-70.37542,18.869352],[-70.370804,18.873695],[-70.368637,18.874929],[-70.365814,18.878664],[-70.364868,18.881582],[-70.365265,18.883448],[-70.370964,18.894054],[-70.373215,18.896238],[-70.377594,18.898582],[-70.378761,18.901182],[-70.377495,18.903055],[-70.367287,18.908024],[-70.363617,18.908791],[-70.3619,18.908329],[-70.357674,18.90365],[-70.35598,18.902885],[-70.351082,18.902596],[-70.345123,18.903381],[-70.350937,18.909512],[-70.352554,18.913761],[-70.351624,18.915997],[-70.349937,18.91674],[-70.343346,18.91777],[-70.338646,18.920967],[-70.335327,18.922091],[-70.331093,18.922466],[-70.32711,18.923925],[-70.32119,18.92823],[-70.320068,18.930288],[-70.319084,18.936016],[-70.315819,18.940582],[-70.313019,18.946459],[-70.310822,18.946808],[-70.306534,18.945379],[-70.30201,18.947498],[-70.30584,18.952234],[-70.31411,18.954117],[-70.316391,18.956299],[-70.321297,18.965408],[-70.324013,18.968611],[-70.325142,18.971012],[-70.324806,18.973446],[-70.323242,18.97666],[-70.323318,18.981279],[-70.324883,18.983652],[-70.328964,18.986656],[-70.333435,18.987265],[-70.34269,18.987242],[-70.346367,18.987827],[-70.358963,18.99374],[-70.362267,18.99651],[-70.363724,18.998838],[-70.362938,19.003771],[-70.363274,19.005802],[-70.365852,19.011688],[-70.365883,19.01379],[-70.364403,19.019117],[-70.364334,19.023176],[-70.365303,19.026115],[-70.369965,19.02898],[-70.373055,19.030296],[-70.3797,19.035631],[-70.385109,19.038721],[-70.388611,19.041189],[-70.390327,19.043201],[-70.390152,19.046104],[-70.38134,19.049034],[-70.377235,19.049736],[-70.374435,19.051321],[-70.372841,19.05438],[-70.374115,19.059458],[-70.378792,19.063143],[-70.381393,19.066113],[-70.383171,19.069588],[-70.388329,19.075096],[-70.399597,19.085665],[-70.402252,19.088749],[-70.403137,19.093708],[-70.40062,19.102526],[-70.402779,19.105328],[-70.405693,19.106668],[-70.408424,19.109194],[-70.411552,19.114061],[-70.414612,19.116594],[-70.417686,19.118006],[-70.42601,19.124714],[-70.428291,19.12471],[-70.432564,19.122854],[-70.434555,19.119785],[-70.434204,19.117069],[-70.43544,19.115164],[-70.441025,19.110678],[-70.442345,19.106606],[-70.443901,19.104681],[-70.450829,19.101164],[-70.459312,19.097317],[-70.463379,19.094366],[-70.465538,19.093607],[-70.468475,19.095165],[-70.472069,19.091469],[-70.474678,19.087955],[-70.478874,19.086868],[-70.483131,19.089167],[-70.487602,19.093794],[-70.492676,19.103546],[-70.494904,19.105829],[-70.497559,19.106709],[-70.502541,19.106535],[-70.505859,19.104612],[-70.507584,19.102396],[-70.51033,19.101233],[-70.515945,19.100985],[-70.519234,19.100136],[-70.524002,19.095997],[-70.529854,19.095371],[-70.531952,19.094202],[-70.532608,19.091986],[-70.530724,19.089441],[-70.523781,19.08292],[-70.522247,19.079823],[-70.521301,19.073179],[-70.516411,19.063541],[-70.514549,19.057013],[-70.515564,19.052246],[-70.516037,19.044682],[-70.514549,19.037622]]]}},
{"type":"Feature","id":"DOM:ADM2:DO-28.maimon","properties":{"shapeName":"Maimón","shapeISO":"","shapeGroup":"DOM","shapeType":"ADM2","adm1ISO":"DO-28","parentISO":"DO-28","parentID":"DOM:ADM1:DO-28","src_shape_id":"3306468B25789433891427"},"geometry":{"type":"Polygon","coordinates":[[[-70.345123,18.903381],[-70.342857,18.899387],[-70.338135,18.89485],[-70.335419,18.894121],[-70.331917,18.894602],[-70.324829,18.89924],[-70.321213,18.900339],[-70.318756,18.90313],[-70.316803,18.904114],[-70.311111,18.902067],[-70.30825,18.899975],[-70.304626,18.896458],[-70.302521,18.893702],[-70.298134,18.885111],[-70.294037,18.880053],[-70.291344,18.875467],[-70.281326,18.865875],[-70.278931,18.862555],[-70.278954,18.860014],[-70.280609,18.856918],[-70.281036,18.85384],[-70.279457,18.851366],[-70.275658,18.849358],[-70.269569,18.848005],[-70.264236,18.845545],[-70.262115,18.844069],[-70.258125,18.838518],[-70.249344,18.833536],[-70.245461,18.827646],[-70.242981,18.826021],[-70.239326,18.825455],[-70.239532,18.834759],[-70.238937,18.836851],[-70.237045,18.839127],[-70.232819,18.841988],[-70.227966,18.844591],[-70.224716,18.845493],[-70.224731,18.852531],[-70.223862,18.85713],[-70.222466,18.859884],[-70.221443,18.863703],[-70.217056,18.870867],[-70.218895,18.875696],[-70.221489,18.878441],[-70.224396,18.87985],[-70.22699,18.882507],[-70.228355,18.890364],[-70.230301,18.893213],[-70.232857,18.895714],[-70.236839,18.898649],[-70.24057,18.90048],[-70.247292,18.905191],[-70.250938,18.910732],[-70.250839,18.915918],[-70.249702,18.918991],[-70.252167,18.923721],[-70.254425,18.92404],[-70.258438,18.923351],[-70.267258,18.927139],[-70.271004,18.927578],[-70.278748,18.927559],[-70.283272,18.927929],[-70.289253,18.931267],[-70.290825,18.935879],[-70.293495,18.941662],[-70.296486,18.94614],[-70.298683,18.947229],[-70.30201,18.947498],[-70.306534,18.945379],[-70.310822,18.946808],[-70.313019,18.946459],[-70.315819,18.940582],[-70.319084,18.936016],[-70.320068,18.930288],[-70.32119,18.92823],[-70.32711,18.923925],[-70.331093,18.922466],[-70.335327,18.922091],[-70.338646,18.920967],[-70.343346,18.91777],[-70.349937,18.91674],[-70.351624,18.915997],[-70.352554,18.913761],[-70.350937,18.909512],[-70.345123,18.903381]]]}},
{"type":"Feature","id":"DOM:ADM2:DO-28.piedra-blanca","properties":{"shapeName":"Piedra Blanca","shapeISO":"","shapeGroup":"DOM","shapeType":"ADM2","adm1ISO":"DO-28","parentISO":"DO-28","parentID":"DOM:ADM1:DO-28","src_shape_id":"3306468B87386677214515"},"geometry":{"type":"Polygon","coordinates":[[[-70.402626,18.759512],[-70.40303,18.753143],[-70.401009,18.750847],[-70.389946,18.750374],[-70.387154,18.749294],[-70.384232,18.746916],[-70.373749,18.736717],[-70.371376,18.733885],[-70.369484,18.730473],[-70.367149,18.728354],[-70.36187,18.725796],[-70.356796,18.724972],[-70.349068,18.72496],[-70.343811,18.724434],[-70.339424,18.72304],[-70.334946,18.721504],[-70.322495,18.715471],[-70.319847,18.713499],[-70.317116,18.714045],[-70.311134,18.716724],[-70.30793,18.719061],[-70.29702,18.729315],[-70.293571,18.733292],[-70.290703,18.738949],[-70.289719,18.745617],[-70.288422,18.74943],[-70.288788,18.751547],[-70.290634,18.755402],[-70.293999,18.759426],[-70.295898,18.762936],[-70.296295,18.768061],[-70.295975,18.770947],[-70.294785,18.773346],[-70.292793,18.774956],[-70.285561,18.778622],[-70.283211,18.783989],[-70.280945,18.786125],[-70.275017,18.78882],[-70.269585,18.789989],[-70.260117,18.794302],[-70.254684,18.795471],[-70.248192,18.798454],[-70.245728,18.801331],[-70.243843,18.807133],[-70.240997,18.810659],[-70.239815,18.813461],[-70.239326,18.825455],[-70.242981,18.826021],[-70.245461,18.827646],[-70.249344,18.833536],[-70.258125,18.838518],[-70.262115,18.844069],[-70.264236,18.845545],[-70.269569,18.848005],[-70.275658,18.849358],[-70.279457,18.851366],[-70.281036,18.85384],[-70.280609,18.856918],[-70.278954,18.860014],[-70.278931,18.862555],[-70.281326,18.865875],[-70.291344,18.875467],[-70.294037,18.880053],[-70.298134,18.885111],[-70.302521,18.893702],[-70.304626,18.896458],[-70.30825,18.899975],[-70.311111,18.902067],[-70.316803,18.904114],[-70.318756,18.90313],[-70.321213,18.900339],[-70.324829,18.89924],[-70.331917,18.894602],[-70.335419,18.894121],[-70.338135,18.89485],[-70.342857,18.899387],[-70.345123,18.903381],[-70.351082,18.902596],[-70.35598,18.902885],[-70.357674,18.90365],[-70.3619,18.908329],[-70.363617,18.908791],[-70.367287,18.908024],[-70.377495,18.903055],[-70.378761,18.901182],[-70.377594,18.898582],[-70.373215,18.896238],[-70.370964,18.894054],[-70.365265,18.883448],[-70.364868,18.881582],[-70.365814,18.878664],[-70.368637,18.874929],[-70.370804,18.873695],[-70.37542,18.869352],[-70.382767,18.855104],[-70.384483,18.852875],[-70.38781,18.850132],[-70.391541,18.848373],[-70.39682,18.84469],[-70.400368,18.842918],[-70.402458,18.840605],[-70.403862,18.835608],[-70.405449,18.832266],[-70.406113,18.825769],[-70.405922,18.813066],[-70.406227,18.809595],[-70.407478,18.807474],[-70.412613,18.803696],[-70.41362,18.802095],[-70.413422,18.799854],[-70.411179,18.795418],[-70.40596,18.789967],[-70.397858,18.77869],[-70.39801,18.775557],[-70.402191,18.767946],[-70.402916,18.765402],[-70.402626,18.759512]]]}}
]}