{"type":"FeatureCollection","bbox":[-71.178955,19.426044,-70.872795,19.74502],"features":[
{"type":"Feature","id":"DOM:ADM2:DO-27.esperanza","properties":{"shapeName":"Esperanza\r\n","shapeISO":"","shapeGroup":"DOM","shapeType":"ADM2","adm1ISO":"DO-27","parentISO":"DO-27","parentID":"DOM:ADM1:DO-27","src_shape_id":"3306468B62426802090355"},"geometry":{"type":"Polygon","coordinates":[[[-70.958397,19.674828],[-70.970009,19.681253],[-70.974609,19.685745],[-70.976082,19.688],[-70.977211,19.691481],[-70.97963,19.69315],[-70.98526,19.694178],[-70.987679,19.696115],[-70.99086,19.700594],[-70.993973,19.701752],[-70.997391,19.701401],[-71.001579,19.699669],[-71.004646,19.699238],[-71.017525,19.699186],[-71.022682,19.698895],[-71.019035,19.692801],[-71.020615,19.687695],[-71.021294,19.683512],[-71.021835,19.674797],[-71.026413,19.66577],[-71.027229,19.662378],[-71.027832,19.655117],[-71.02935,19.651649],[-71.03054,19.645311],[-71.032997,19.638435],[-71.033333,19.633902],[-71.03318,19.614515],[-71.033493,19.610758],[-71.035126,19.6075],[-71.041306,19.601059],[-71.044022,19.596022],[-71.044548,19.592995],[-71.042953,19.589117],[-71.042191,19.583382],[-71.042206,19.578104],[-71.040436,19.575598],[-71.039131,19.572084],[-71.037674,19.570293],[-71.033287,19.56959],[-71.031799,19.568171],[-71.033035,19.565371],[-71.032448,19.561752],[-71.029007,19.559505],[-71.025543,19.558876],[-71.023415,19.560143],[-71.016876,19.561764],[-71.014465,19.564491],[-71.012512,19.565409],[-71.009369,19.56303],[-71.008095,19.559813],[-71.008018,19.557596],[-71.010864,19.553837],[-71.010597,19.551083],[-71.009155,19.549946],[-71.003777,19.549566],[-71.001495,19.550552],[-70.999504,19.554226],[-70.99427,19.555622],[-70.992256,19.556688],[-70.988609,19.560246],[-70.985909,19.560307],[-70.983849,19.558828],[-70.982643,19.554955],[-70.982285,19.547659],[-70.980553,19.543568],[-70.979675,19.539709],[-70.977226,19.535597],[-70.974457,19.533745],[-70.972031,19.533932],[-70.968079,19.535641],[-70.9655,19.538429],[-70.964912,19.543795],[-70.961937,19.546597],[-70.955208,19.54001],[-70.952209,19.538263],[-70.947906,19.538975],[-70.947212,19.542107],[-70.941132,19.546471],[-70.936737,19.547079],[-70.933708,19.548626],[-70.924919,19.551043],[-70.924149,19.553642],[-70.918167,19.56008],[-70.914948,19.565952],[-70.915466,19.568153],[-70.921272,19.569103],[-70.923332,19.57126],[-70.923035,19.57444],[-70.920181,19.577063],[-70.915939,19.57733],[-70.9133,19.576223],[-70.904831,19.568197],[-70.899879,19.564018],[-70.893936,19.560432],[-70.889801,19.556503],[-70.887733,19.555302],[-70.885384,19.555693],[-70.882339,19.56163],[-70.880112,19.563396],[-70.878754,19.566902],[-70.878189,19.573326],[-70.876686,19.576809],[-70.875504,19.583162],[-70.873383,19.588614],[-70.872795,19.591433],[-70.872887,19.597309],[-70.875198,19.603441],[-70.8759,19.611408],[-70.877541,19.615295],[-70.881065,19.619694],[-70.883995,19.625378],[-70.885597,19.631062],[-70.889961,19.637739],[-70.890778,19.643499],[-70.893471,19.644344],[-70.897308,19.642893],[-70.900932,19.642397],[-70.912163,19.646292],[-70.915344,19.650854],[-70.917648,19.652945],[-70.922852,19.656181],[-70.926521,19.659548],[-70.929428,19.661339],[-70.932091,19.661364],[-70.936729,19.659536],[-70.939514,19.659494],[-70.942757,19.660883],[-70.950722,19.668442],[-70.958397,19.674828]]]}},
{"type":"Feature","id":"DOM:ADM2:DO-27.laguna-salada","properties":{"shapeName":"Laguna Salada","shapeISO":"","shapeGroup":"DOM","shapeType":"ADM2","adm1ISO":"DO-27","parentISO":"DO-27","parentID":"DOM:ADM1:DO-27","src_shape_id":"3306468B11652899938830"},"geometry":{"type":"Polygon","coordinates":[[[-71.152145,19.62266],[-71.148865,19.615698],[-71.14769,19.614384],[-71.14492,19.613798],[-71.139282,19.615662],[-71.137115,19.619045],[-71.135468,19.620285],[-71.129074,19.618498],[-71.122826,19.617432],[-71.120407,19.615425],[-71.118935,19.612719],[-71.11618,19.61022],[-71.113464,19.609594],[-71.107681,19.609394],[-71.104263,19.608685],[-71.098892,19.606148],[-71.093063,19.601936],[-71.090065,19.600407],[-71.087746,19.59831],[-71.086189,19.595583],[-71.083488,19.593014],[-71.07621,19.589113],[-71.072792,19.584682],[-71.070206,19.582649],[-71.066635,19.583321],[-71.062828,19.586105],[-71.060791,19.586634],[-71.056709,19.58593],[-71.054878,19.584093],[-71.054092,19.580206],[-71.054077,19.575006],[-71.052155,19.572695],[-71.049576,19.572565],[-71.04631,19.574436],[-71.044617,19.576727],[-71.042206,19.578104],[-71.042191,19.583382],[-71.042953,19.589117],[-71.044548,19.592995],[-71.044022,19.596022],[-71.041306,19.601059],[-71.035126,19.6075],[-71.033493,19.610758],[-71.03318,19.614515],[-71.033333,19.633902],[-71.032997,19.638435],[-71.03054,19.645311],[-71.02935,19.651649],[-71.027832,19.655117],[-71.027229,19.662378],[-71.026413,19.66577],[-71.021835,19.674797],[-71.021294,19.683512],[-71.020615,19.687695],[-71.019035,19.692801],[-71.022682,19.698895],[-71.027054,19.699924],[-71.032646,19.701935],[-71.036903,19.702385],[-71.042496,19.704357],[-71.047897,19.705631],[-71.053909,19.708349],[-71.057831,19.711512],[-71.059433,19.713844],[-71.060776,19.718958],[-71.062408,19.722315],[-71.06356,19.726225],[-71.071571,19.729742],[-71.075165,19.730501],[-71.083565,19.731277],[-71.089561,19.734001],[-71.098312,19.738379],[-71.102638,19.739189],[-71.109581,19.739304],[-71.113266,19.739973],[-71.117989,19.743172],[-71.122459,19.744999],[-71.131889,19.74502],[-71.136589,19.743013],[-71.139481,19.73988],[-71.14534,19.728539],[-71.146515,19.721981],[-71.148521,19.716686],[-71.149315,19.708752],[-71.150688,19.70475],[-71.154526,19.69985],[-71.154617,19.695595],[-71.150368,19.689745],[-71.149666,19.687351],[-71.150314,19.684946],[-71.152596,19.681509],[-71.155922,19.679146],[-71.157951,19.675909],[-71.158249,19.667179],[-71.157501,19.663658],[-71.155792,19.661272],[-71.152023,19.657606],[-71.149834,19.654692],[-71.149612,19.650084],[-71.151489,19.646183],[-71.152107,19.641523],[-71.150803,19.636206],[-71.152153,19.627432],[-71.152145,19.62266]]]}},
{"type":"Feature","id":"DOM:ADM2:DO-27.mao","properties":{"shapeName":"Mao","shapeISO":"","shapeGroup":"DOM","shapeType":"ADM2","adm1ISO":"DO-27","parentISO":"DO-27","parentID":"DOM:ADM1:DO-27","src_shape_id":"3306468B69236034460520"},"geometry":{"type":"Polygon","coordinates":[[[-71.178444,19.523819],[-71.177582,19.515844],[-71.178604,19.513098],[-71.178955,19.508736],[-71.177986,19.505339],[-71.173492,19.501492],[-71.170395,19.496227],[-71.169235,19.491747],[-71.167877,19.488983],[-71.167297,19.485119],[-71.169281,19.479883],[-71.169968,19.476309],[-71.170471,19.46979],[-71.158424,19.468117],[-71.15419,19.466379],[-71.14502,19.465858],[-71.140572,19.466513],[-71.137054,19.468019],[-71.134026,19.46858],[-71.123589,19.468712],[-71.119247,19.467638],[-71.117043,19.465418],[-71.115189,19.461967],[-71.111656,19.45846],[-71.108284,19.45735],[-71.105507,19.45756],[-71.101372,19.459272],[-71.095253,19.45997],[-71.08567,19.459867],[-71.082581,19.460184],[-71.07988,19.461292],[-71.076607,19.463808],[-71.074135,19.464911],[-71.070908,19.464239],[-71.067802,19.461269],[-71.064476,19.456953],[-71.0597,19.456078],[-71.056763,19.454798],[-71.051407,19.453445],[-71.047775,19.450912],[-71.040138,19.44351],[-71.036057,19.440285],[-71.029495,19.437506],[-71.026863,19.437824],[-71.013176,19.44397],[-71.011902,19.446779],[-71.007721,19.44829],[-71.000031,19.448097],[-70.997818,19.447611],[-70.992859,19.444946],[-70.989288,19.439344],[-70.987946,19.430708],[-70.985146,19.426353],[-70.982658,19.426044],[-70.980286,19.427444],[-70.976074,19.43166],[-70.97435,19.43404],[-70.970139,19.44268],[-70.96756,19.446667],[-70.96521,19.447832],[-70.961517,19.448008],[-70.951935,19.446487],[-70.946075,19.447771],[-70.941399,19.447746],[-70.938385,19.447187],[-70.932381,19.444429],[-70.927505,19.441702],[-70.922272,19.437866],[-70.916664,19.432842],[-70.913391,19.430939],[-70.908058,19.430376],[-70.905182,19.430679],[-70.903038,19.432024],[-70.901398,19.436369],[-70.899124,19.438368],[-70.895615,19.439514],[-70.892708,19.443693],[-70.888428,19.444283],[-70.880547,19.440409],[-70.877739,19.440371],[-70.876114,19.442064],[-70.875526,19.445465],[-70.875717,19.452177],[-70.876236,19.457336],[-70.879616,19.458273],[-70.887398,19.459261],[-70.892715,19.461676],[-70.895241,19.463654],[-70.898911,19.473099],[-70.89959,19.478962],[-70.899475,19.48955],[-70.898643,19.492983],[-70.894081,19.501259],[-70.891258,19.506945],[-70.890373,19.512745],[-70.888084,19.518827],[-70.885788,19.527559],[-70.887985,19.530624],[-70.889481,19.531342],[-70.893394,19.530642],[-70.895988,19.532497],[-70.898254,19.535973],[-70.902313,19.53706],[-70.90477,19.536333],[-70.907784,19.538296],[-70.908577,19.541445],[-70.910278,19.542784],[-70.912445,19.542143],[-70.916039,19.538193],[-70.91951,19.538746],[-70.920387,19.540905],[-70.921379,19.546654],[-70.924919,19.551043],[-70.933708,19.548626],[-70.936737,19.547079],[-70.941132,19.546471],[-70.947212,19.542107],[-70.947906,19.538975],[-70.952209,19.538263],[-70.955208,19.54001],[-70.961937,19.546597],[-70.964912,19.543795],[-70.9655,19.538429],[-70.968079,19.535641],[-70.972031,19.533932],[-70.974457,19.533745],[-70.977226,19.535597],[-70.979675,19.539709],[-70.980553,19.543568],[-70.982285,19.547659],[-70.982643,19.554955],[-70.983849,19.558828],[-70.985909,19.560307],[-70.988609,19.560246],[-70.992256,19.556688],[-70.99427,19.555622],[-70.999504,19.554226],[-71.001495,19.550552],[-71.003777,19.549566],[-71.009155,19.549946],[-71.010597,19.551083],[-71.010864,19.553837],[-71.008018,19.557596],[-71.008095,19.559813],[-71.009369,19.56303],[-71.012512,19.565409],[-71.014465,19.564491],[-71.016876,19.561764],[-71.023415,19.560143],[-71.025543,19.558876],[-71.029007,19.559505],[-71.032448,19.561752],[-71.033035,19.565371],[-71.031799,19.568171],[-71.033287,19.56959],[-71.037674,19.570293],[-71.039131,19.572084],[-71.040436,19.575598],[-71.042206,19.578104],[-71.044617,19.576727],[-71.04631,19.574436],[-71.049576,19.572565],[-71.052155,19.572695],[-71.054077,19.575006],[-71.054092,19.580206],[-71.054878,19.584093],[-71.056709,19.58593],[-71.060791,19.586634],[-71.062828,19.586105],[-71.066635,19.583321],[-71.070206,19.582649],[-71.072792,19.584682],[-71.07621,19.589113],[-71.083488,19.593014],[-71.086189,19.595583],[-71.087746,19.59831],[-71.090065,19.600407],[-71.093063,19.601936],[-71.098892,19.606148],[-71.104263,19.608685],[-71.107681,19.609394],[-71.113464,19.609594],[-71.11618,19.61022],[-71.118935,19.612719],[-71.120407,19.615425],[-71.122826,19.617432],[-71.129074,19.618498],[-71.135468,19.620285],[-71.137115,19.619045],[-71.139282,19.615662],[-71.14492,19.613798],[-71.14769,19.614384],[-71.148865,19.615698],[-71.152145,19.62266],[-71.156334,19.618567],[-71.160545,19.616697],[-71.162804,19.617092],[-71.170471,19.620611],[-71.172829,19.619175],[-71.173447,19.615229],[-71.178581,19.609144],[-71.178612,19.606068],[-71.173279,19.600634],[-71.171173,19.596735],[-71.170189,19.59346],[-71.16993,19.587597],[-71.16861,19.583576],[-71.164825,19.578547],[-71.163765,19.57259],[-71.161415,19.566044],[-71.16172,19.562109],[-71.16375,19.556873],[-71.165108,19.550276],[-71.170631,19.544294],[-71.172318,19.541939],[-71.173721,19.536865],[-71.175522,19.532898],[-71.176559,19.528345],[-71.178444,19.523819]]]}}
]}