{"type":"FeatureCollection","bbox":[-69.621262,18.528412,-69.120224,19.103193], "features": [
{"type":"Feature","geometry":{"type":"Polygon","coordinates":[[[-69.292305,18.95962],[-69.29348,18.961529],[-69.295609,18.96785],[-69.301384,18.973721],[-69.304039,18.974821],[-69.307266,18.973997],[-69.310799,18.971384],[-69.314362,18.972469],[-69.317818,18.977306],[-69.326759,18.981588],[-69.330208,18.984188],[-69.331955,18.986444],[-69.332733,18.98904],[-69.333549,18.994951],[-69.336121,18.997723],[-69.3414,19.000269],[-69.344841,19.000996],[-69.350525,19.000462],[-69.353455,18.999149],[-69.361778,18.997421],[-69.363968,18.995995],[-69.370316,18.995401],[-69.37957,18.995499],[-69.383713,18.996527],[-69.388374,19.000925],[-69.394676,19.003325],[-69.397919,19.00268],[-69.399788,18.999081],[-69.402061,18.997316],[-69.403877,18.994101],[-69.404526,18.989754],[-69.406326,18.987633],[-69.411331,18.985558],[-69.412872,18.982845],[-69.414192,18.976933],[-69.420395,18.97366],[-69.427437,18.971748],[-69.433434,18.973133],[-69.441147,18.973549],[-69.44487,18.973158],[-69.448318,18.970268],[-69.448936,18.966772],[-69.44899,18.962385],[-69.449707,18.958965],[-69.452339,18.953882],[-69.460152,18.945026],[-69.461739,18.942118],[-69.465729,18.937187],[-69.47052,18.928078],[-69.474289,18.92259],[-69.47242,18.920135],[-69.469353,18.917728],[-69.466591,18.91715],[-69.461548,18.917017],[-69.458046,18.916414],[-69.4562,18.915377],[-69.451363,18.911175],[-69.446159,18.907976],[-69.443596,18.905327],[-69.441917,18.900894],[-69.436691,18.896809],[-69.427422,18.88789],[-69.425072,18.886536],[-69.422318,18.887182],[-69.420753,18.889299],[-69.418159,18.891016],[-69.412476,18.891506],[-69.409744,18.891188],[-69.406441,18.889305],[-69.403381,18.888556],[-69.398582,18.889032],[-69.395058,18.89056],[-69.390358,18.891722],[-69.386169,18.893423],[-69.380615,18.894049],[-69.368202,18.89399],[-69.363083,18.894472],[-69.359917,18.893431],[-69.353951,18.890507],[-69.346436,18.884146],[-69.344627,18.883177],[-69.341293,18.883261],[-69.335403,18.885387],[-69.333366,18.886557],[-69.331604,18.888796],[-69.328995,18.890526],[-69.323624,18.892401],[-69.319389,18.898211],[-69.31868,18.901344],[-69.31987,18.90369],[-69.323128,18.907942],[-69.323235,18.91045],[-69.321388,18.915009],[-69.320976,18.921598],[-69.321159,18.935024],[-69.320473,18.938498],[-69.317078,18.941334],[-69.312416,18.942297],[-69.308167,18.943865],[-69.302765,18.944508],[-69.301048,18.945196],[-69.296448,18.950626],[-69.294533,18.953533],[-69.292305,18.95962]]]},"properties":{"shapeName":"El Valle","shapeISO":"3306468B49446780717545","shapeGroup":"DOM","shapeType":"ADM2","src_shape_id":"3306468B49446780717545","adm1ISO":"DO-30"}},
{"type":"Feature","geometry":{"type":"Polygon","coordinates":[[[-69.323624,18.892401],[-69.328995,18.890526],[-69.331604,18.888796],[-69.333366,18.886557],[-69.335403,18.885387],[-69.341293,18.883261],[-69.344627,18.883177],[-69.346436,18.884146],[-69.353951,18.890507],[-69.359917,18.893431],[-69.363083,18.894472],[-69.362656,18.889017],[-69.363281,18.885679],[-69.3675,18.8801],[-69.36908,18.87727],[-69.371819,18.874687],[-69.37912,18.871708],[-69.386177,18.870905],[-69.392128,18.868261],[-69.394882,18.865671],[-69.397697,18.860018],[-69.398209,18.852924],[-69.398827,18.850426],[-69.400932,18.849079],[-69.410599,18.849142],[-69.415131,18.848755],[-69.41745,18.847437],[-69.4226,18.839125],[-69.427063,18.835255],[-69.428856,18.831905],[-69.432373,18.827065],[-69.437988,18.823887],[-69.439102,18.820986],[-69.437523,18.816824],[-69.439491,18.811932],[-69.441818,18.810017],[-69.448845,18.809809],[-69.450279,18.80751],[-69.45401,18.803965],[-69.454178,18.801535],[-69.453293,18.798571],[-69.454124,18.793741],[-69.451981,18.787916],[-69.451973,18.783825],[-69.454201,18.778582],[-69.454895,18.773235],[-69.454292,18.770603],[-69.451607,18.767872],[-69.445618,18.765249],[-69.439285,18.764627],[-69.436676,18.763865],[-69.434624,18.761543],[-69.434624,18.759031],[-69.436272,18.755934],[-69.436775,18.752707],[-69.435272,18.748985],[-69.428558,18.741791],[-69.425423,18.735453],[-69.425003,18.731197],[-69.425156,18.706257],[-69.424606,18.700565],[-69.420464,18.695066],[-69.41964,18.691942],[-69.420815,18.689533],[-69.428314,18.682514],[-69.430237,18.680363],[-69.432655,18.675522],[-69.431213,18.672153],[-69.425476,18.668871],[-69.41687,18.660854],[-69.413727,18.657034],[-69.409737,18.650028],[-69.405571,18.646679],[-69.401703,18.640137],[-69.399033,18.634483],[-69.399086,18.631969],[-69.401001,18.627539],[-69.400894,18.624226],[-69.399582,18.62178],[-69.396416,18.617977],[-69.394478,18.614601],[-69.39209,18.61252],[-69.383644,18.608694],[-69.378738,18.605955],[-69.374939,18.6005],[-69.372345,18.595392],[-69.371712,18.591494],[-69.374535,18.583719],[-69.374512,18.578148],[-69.372795,18.573755],[-69.367371,18.568188],[-69.363297,18.56082],[-69.362511,18.554853],[-69.361267,18.551893],[-69.356491,18.548855],[-69.354645,18.547153],[-69.351357,18.541031],[-69.350182,18.536894],[-69.348495,18.534861],[-69.344383,18.528412],[-69.340858,18.530844],[-69.335884,18.532717],[-69.336189,18.539],[-69.337585,18.54335],[-69.335579,18.54649],[-69.321228,18.552853],[-69.317909,18.555384],[-69.314133,18.561155],[-69.309433,18.565403],[-69.304245,18.567362],[-69.303314,18.56967],[-69.302536,18.576162],[-69.300316,18.577463],[-69.296097,18.577812],[-69.293312,18.57917],[-69.292587,18.58111],[-69.293137,18.585262],[-69.292091,18.586754],[-69.291977,18.591431],[-69.293854,18.595413],[-69.29425,18.599842],[-69.292458,18.604469],[-69.289711,18.607653],[-69.288551,18.610258],[-69.288612,18.615412],[-69.290398,18.619429],[-69.290619,18.622551],[-69.287079,18.62678],[-69.284401,18.628042],[-69.281265,18.628368],[-69.271599,18.628244],[-69.267754,18.628796],[-69.261757,18.631437],[-69.254646,18.635077],[-69.251175,18.637608],[-69.245644,18.639647],[-69.243759,18.641052],[-69.241508,18.644577],[-69.2407,18.64802],[-69.240982,18.653948],[-69.242989,18.658972],[-69.2416,18.661743],[-69.237503,18.662815],[-69.233253,18.66515],[-69.231125,18.668846],[-69.229042,18.669964],[-69.224525,18.670841],[-69.223175,18.672781],[-69.222923,18.675886],[-69.222954,18.6819],[-69.222252,18.686913],[-69.220627,18.690228],[-69.219902,18.696735],[-69.220047,18.708023],[-69.218971,18.712793],[-69.2145,18.716578],[-69.211823,18.720589],[-69.208511,18.726753],[-69.206528,18.732721],[-69.207451,18.735775],[-69.205711,18.739967],[-69.201981,18.743601],[-69.199821,18.747139],[-69.201233,18.751886],[-69.200836,18.75386],[-69.197205,18.755516],[-69.196419,18.757046],[-69.196747,18.760145],[-69.200645,18.765074],[-69.202011,18.769096],[-69.202286,18.774956],[-69.20298,18.777651],[-69.205994,18.783348],[-69.21003,18.788298],[-69.211609,18.791225],[-69.21933,18.80022],[-69.220879,18.803196],[-69.224312,18.807137],[-69.228439,18.81041],[-69.230598,18.811111],[-69.238289,18.811543],[-69.24173,18.812475],[-69.247147,18.81488],[-69.251762,18.817823],[-69.252785,18.822969],[-69.252762,18.834593],[-69.253998,18.83782],[-69.257195,18.841633],[-69.261848,18.850746],[-69.263443,18.852346],[-69.266144,18.852043],[-69.268784,18.84866],[-69.27356,18.845821],[-69.27626,18.845444],[-69.278717,18.846205],[-69.281616,18.850718],[-69.283096,18.856462],[-69.284698,18.859837],[-69.285278,18.867308],[-69.285904,18.870592],[-69.289276,18.873487],[-69.293938,18.874533],[-69.29686,18.875813],[-69.301605,18.876274],[-69.305527,18.875126],[-69.307831,18.875687],[-69.315353,18.881702],[-69.317764,18.882847],[-69.320801,18.886042],[-69.323624,18.892401]]]},"properties":{"shapeName":"Hato Mayor del Rey","shapeISO":"3306468B72856581619047","shapeGroup":"DOM","shapeType":"ADM2","src_shape_id":"3306468B72856581619047","adm1ISO":"DO-30"}},
{"type":"Feature","geometry":{"type":"MultiPolygon","coordinates":[[[[-69.18428,19.006748],[-69.183746,19.009027],[-69.18042,19.009863],[-69.174858,19.010139],[-69.176529,19.012363],[-69.178749,19.012363],[-69.181252,19.010975],[-69.183197,19.010975],[-69.185143,19.013197],[-69.183472,19.016527],[-69.18792,19.01375],[-69.19014,19.010975],[-69.195694,19.009863],[-69.199028,19.010416],[-69.201805,19.007639],[-69.203751,19.007639],[-69.205696,19.009027],[-69.205696,19.014305],[-69.209305,19.015139],[-69.211807,19.017361],[-69.214027,19.017361],[-69.216248,19.019583],[-69.21653,19.021805],[-69.219025,19.024303],[-69.222084,19.024586],[-69.222916,19.027361],[-69.224586,19.027639],[-69.227638,19.026253],[-69.230698,19.027639],[-69.236526,19.025141],[-69.23764,19.024027],[-69.242363,19.024303],[-69.244858,19.022364],[-69.24958,19.021252],[-69.253471,19.018194],[-69.257919,19.016251],[-69.261803,19.015972],[-69.270691,19.021805],[-69.272636,19.023474],[-69.274582,19.026527],[-69.278198,19.027361],[-69.279861,19.028475],[-69.279305,19.03014],[-69.282639,19.032084],[-69.285973,19.032084],[-69.287918,19.032919],[-69.291809,19.033194],[-69.292915,19.034306],[-69.295692,19.034306],[-69.299026,19.037916],[-69.298195,19.040417],[-69.30014,19.041807],[-69.302917,19.040974],[-69.304863,19.044861],[-69.307358,19.04764],[-69.310417,19.04875],[-69.317642,19.048195],[-69.321526,19.047363],[-69.32486,19.04764],[-69.329025,19.044584],[-69.332916,19.043472],[-69.337914,19.043194],[-69.342361,19.043472],[-69.347084,19.048195],[-69.348198,19.049864],[-69.352364,19.049582],[-69.353752,19.052362],[-69.36042,19.052086],[-69.362083,19.054583],[-69.367081,19.055696],[-69.372643,19.05625],[-69.374863,19.057638],[-69.37764,19.057638],[-69.381248,19.06097],[-69.383194,19.065971],[-69.385139,19.067638],[-69.385414,19.072639],[-69.382362,19.075138],[-69.381805,19.077085],[-69.385139,19.079586],[-69.385139,19.081249],[-69.382919,19.082361],[-69.384026,19.085138],[-69.38958,19.086252],[-69.395691,19.090693],[-69.398193,19.094028],[-69.402359,19.097918],[-69.405136,19.099028],[-69.409027,19.101528],[-69.41375,19.103193],[-69.421806,19.102638],[-69.42292,19.101805],[-69.427917,19.100695],[-69.433197,19.100695],[-69.435143,19.099583],[-69.438751,19.100142],[-69.444305,19.100142],[-69.447639,19.101528],[-69.452362,19.100973],[-69.453751,19.100142],[-69.461525,19.098473],[-69.464302,19.097084],[-69.473747,19.094307],[-69.478195,19.094028],[-69.477913,19.091251],[-69.474304,19.093197],[-69.469582,19.094028],[-69.468193,19.095419],[-69.465141,19.095972],[-69.463196,19.094028],[-69.459305,19.094307],[-69.459305,19.095694],[-69.456802,19.098473],[-69.454308,19.098473],[-69.452919,19.095419],[-69.450974,19.095139],[-69.449303,19.099306],[-69.445419,19.099028],[-69.441803,19.096807],[-69.439308,19.097084],[-69.43792,19.094307],[-69.43792,19.092361],[-69.440414,19.088194],[-69.440971,19.085419],[-69.441254,19.079586],[-69.442085,19.076529],[-69.445137,19.074583],[-69.447639,19.072083],[-69.44986,19.072083],[-69.454582,19.070696],[-69.456528,19.070972],[-69.457359,19.073751],[-69.455696,19.075138],[-69.457085,19.077639],[-69.460419,19.076529],[-69.463753,19.080694],[-69.467087,19.081249],[-69.46875,19.079027],[-69.471527,19.079306],[-69.479027,19.078753],[-69.480972,19.078196],[-69.482635,19.079306],[-69.490135,19.077085],[-69.491531,19.079027],[-69.49514,19.081249],[-69.494308,19.084028],[-69.496803,19.085138],[-69.496246,19.087084],[-69.498749,19.08736],[-69.50042,19.089027],[-69.50264,19.085695],[-69.504028,19.088194],[-69.506805,19.089027],[-69.508469,19.087084],[-69.511253,19.08847],[-69.51458,19.083195],[-69.515976,19.08375],[-69.517914,19.086805],[-69.519859,19.085695],[-69.521805,19.08264],[-69.525139,19.082361],[-69.526802,19.080139],[-69.528748,19.081249],[-69.532082,19.080418],[-69.533752,19.077917],[-69.53653,19.080973],[-69.541527,19.080973],[-69.541809,19.08264],[-69.544029,19.083471],[-69.54847,19.082361],[-69.55014,19.084028],[-69.550415,19.086527],[-69.554031,19.085972],[-69.555969,19.084028],[-69.560417,19.089584],[-69.563751,19.090141],[-69.565971,19.092085],[-69.567085,19.089306],[-69.571526,19.08847],[-69.57708,19.08847],[-69.577362,19.085695],[-69.581253,19.08375],[-69.582642,19.084862],[-69.584305,19.08264],[-69.585976,19.083471],[-69.589859,19.083471],[-69.591248,19.081249],[-69.594307,19.081528],[-69.595695,19.080418],[-69.598549,19.080973],[-69.600258,19.076279],[-69.600677,19.072611],[-69.60321,19.065006],[-69.603638,19.061346],[-69.606178,19.053743],[-69.607338,19.047386],[-69.608658,19.0446],[-69.609589,19.038816],[-69.612106,19.03121],[-69.613281,19.024849],[-69.617371,19.017046],[-69.618179,19.013653],[-69.618652,19.007097],[-69.620583,19.002386],[-69.621262,18.997692],[-69.621208,18.992601],[-69.618889,18.991838],[-69.610153,18.991219],[-69.606651,18.99065],[-69.601089,18.988688],[-69.596848,18.988268],[-69.592407,18.986275],[-69.585968,18.980679],[-69.580627,18.978113],[-69.578133,18.977539],[-69.574265,18.978495],[-69.572083,18.978178],[-69.567978,18.976471],[-69.562164,18.972212],[-69.556244,18.968649],[-69.55027,18.963602],[-69.541283,18.959324],[-69.538918,18.957237],[-69.537384,18.954481],[-69.528763,18.946354],[-69.524086,18.944689],[-69.520042,18.939705],[-69.517136,18.937714],[-69.515038,18.937525],[-69.512466,18.93869],[-69.50885,18.943001],[-69.50647,18.947298],[-69.504585,18.948427],[-69.502594,18.947693],[-69.501236,18.945391],[-69.496193,18.941811],[-69.493866,18.93891],[-69.492996,18.936022],[-69.488174,18.931015],[-69.486633,18.928263],[-69.484268,18.926155],[-69.478333,18.923363],[-69.474289,18.92259],[-69.47052,18.928078],[-69.465729,18.937187],[-69.461739,18.942118],[-69.460152,18.945026],[-69.452339,18.953882],[-69.449707,18.958965],[-69.44899,18.962385],[-69.448936,18.966772],[-69.448318,18.970268],[-69.44487,18.973158],[-69.441147,18.973549],[-69.433434,18.973133],[-69.427437,18.971748],[-69.420395,18.97366],[-69.414192,18.976933],[-69.412872,18.982845],[-69.411331,18.985558],[-69.406326,18.987633],[-69.404526,18.989754],[-69.403877,18.994101],[-69.402061,18.997316],[-69.399788,18.999081],[-69.397919,19.00268],[-69.394676,19.003325],[-69.388374,19.000925],[-69.383713,18.996527],[-69.37957,18.995499],[-69.370316,18.995401],[-69.363968,18.995995],[-69.361778,18.997421],[-69.353455,18.999149],[-69.350525,19.000462],[-69.344841,19.000996],[-69.3414,19.000269],[-69.336121,18.997723],[-69.333549,18.994951],[-69.332733,18.98904],[-69.331955,18.986444],[-69.330208,18.984188],[-69.326759,18.981588],[-69.317818,18.977306],[-69.314362,18.972469],[-69.310799,18.971384],[-69.307266,18.973997],[-69.304039,18.974821],[-69.301384,18.973721],[-69.295609,18.96785],[-69.29348,18.961529],[-69.292305,18.95962],[-69.285622,18.957701],[-69.280037,18.955671],[-69.273735,18.954777],[-69.270203,18.95323],[-69.265488,18.952101],[-69.261917,18.950571],[-69.258331,18.949821],[-69.252136,18.949524],[-69.249283,18.948854],[-69.242928,18.945572],[-69.241287,18.943651],[-69.23777,18.937107],[-69.233521,18.934128],[-69.230698,18.933935],[-69.22197,18.937777],[-69.217316,18.938236],[-69.208527,18.938255],[-69.204132,18.937775],[-69.202492,18.936775],[-69.197151,18.930464],[-69.193596,18.927671],[-69.187538,18.926016],[-69.183342,18.924292],[-69.178612,18.923197],[-69.169785,18.918972],[-69.164742,18.918093],[-69.157005,18.918028],[-69.151855,18.917337],[-69.147781,18.915831],[-69.142365,18.917253],[-69.131027,18.918501],[-69.124443,18.921408],[-69.120224,18.923841],[-69.125221,18.927172],[-69.129601,18.93087],[-69.135948,18.936987],[-69.139923,18.94001],[-69.148361,18.943945],[-69.154182,18.948166],[-69.163185,18.952444],[-69.165543,18.954527],[-69.167412,18.957928],[-69.170776,18.961716],[-69.175087,18.965841],[-69.177841,18.969149],[-69.180489,18.974239],[-69.181374,18.980412],[-69.181236,18.994915],[-69.182175,19.00036],[-69.18586,19.006172],[-69.18428,19.006748]]],[[[-69.541527,19.088194],[-69.542641,19.085138],[-69.540413,19.085138],[-69.541527,19.088194]]]]},"properties":{"shapeName":"Sabana de la Mar","shapeISO":"3306468B29734552826956","shapeGroup":"DOM","shapeType":"ADM2","src_shape_id":"3306468B29734552826956","adm1ISO":"DO-30"}}
]}