{"type":"FeatureCollection","bbox":[-70.673592,18.41872,-70.339424,18.794781], "features": [
{"type":"Feature","geometry":{"type":"Polygon","coordinates":[[[-70.550301,18.736877],[-70.545555,18.735146],[-70.539474,18.733723],[-70.528206,18.728371],[-70.52623,18.726767],[-70.523621,18.722401],[-70.519928,18.717834],[-70.518082,18.714394],[-70.513596,18.70882],[-70.510941,18.70372],[-70.510185,18.70048],[-70.509941,18.694279],[-70.509262,18.691717],[-70.506638,18.686613],[-70.501183,18.680742],[-70.495598,18.681437],[-70.492966,18.682264],[-70.490852,18.681608],[-70.488251,18.677572],[-70.483284,18.672045],[-70.477753,18.666798],[-70.474174,18.664156],[-70.468185,18.661467],[-70.465103,18.660625],[-70.462952,18.658829],[-70.461639,18.654921],[-70.459297,18.652784],[-70.456551,18.652084],[-70.451576,18.652441],[-70.448097,18.655279],[-70.444176,18.66321],[-70.44146,18.665857],[-70.435692,18.668768],[-70.431564,18.669445],[-70.429741,18.668041],[-70.428375,18.665043],[-70.428268,18.662815],[-70.432167,18.657715],[-70.432426,18.655804],[-70.429619,18.652611],[-70.426369,18.652811],[-70.42292,18.654345],[-70.416771,18.65489],[-70.404877,18.654909],[-70.400398,18.6542],[-70.397911,18.652189],[-70.394592,18.646095],[-70.391914,18.640291],[-70.391243,18.635197],[-70.389221,18.632318],[-70.384552,18.632044],[-70.381889,18.632786],[-70.373093,18.637068],[-70.366219,18.638575],[-70.366989,18.640648],[-70.367516,18.646416],[-70.367386,18.651545],[-70.366554,18.654911],[-70.360832,18.665504],[-70.356903,18.669012],[-70.355736,18.671022],[-70.354073,18.678802],[-70.355064,18.683554],[-70.354851,18.688068],[-70.353294,18.691399],[-70.352493,18.699327],[-70.351532,18.702785],[-70.346001,18.708759],[-70.34388,18.712362],[-70.342903,18.716181],[-70.339424,18.72304],[-70.343811,18.724434],[-70.349068,18.72496],[-70.356796,18.724972],[-70.36187,18.725796],[-70.367149,18.728354],[-70.369484,18.730473],[-70.371376,18.733885],[-70.373749,18.736717],[-70.384232,18.746916],[-70.387154,18.749294],[-70.389946,18.750374],[-70.401009,18.750847],[-70.40303,18.753143],[-70.402626,18.759512],[-70.406731,18.759207],[-70.410057,18.759651],[-70.414146,18.763441],[-70.416504,18.764252],[-70.422676,18.762486],[-70.427292,18.761868],[-70.433693,18.759705],[-70.437874,18.759829],[-70.443054,18.763252],[-70.446533,18.764267],[-70.452248,18.761642],[-70.454765,18.759912],[-70.457123,18.759712],[-70.459229,18.760775],[-70.462921,18.766563],[-70.465263,18.767811],[-70.469063,18.768126],[-70.490311,18.767981],[-70.494194,18.768457],[-70.497772,18.771238],[-70.500732,18.776806],[-70.503571,18.783222],[-70.505417,18.788651],[-70.508171,18.790489],[-70.510445,18.790871],[-70.520065,18.790894],[-70.524689,18.791527],[-70.530266,18.793528],[-70.537399,18.794781],[-70.536636,18.789686],[-70.534508,18.786011],[-70.529778,18.781206],[-70.527969,18.77656],[-70.527908,18.770025],[-70.527069,18.766264],[-70.52272,18.760292],[-70.522118,18.75658],[-70.522835,18.754892],[-70.527496,18.752104],[-70.531219,18.750496],[-70.535881,18.747124],[-70.544891,18.742851],[-70.548386,18.740009],[-70.550301,18.736877]]]},"properties":{"shapeName":"Rancho Arriba","shapeISO":"3306468B42519572872146","shapeGroup":"DOM","shapeType":"ADM2","src_shape_id":"3306468B42519572872146","adm1ISO":"DO-31"}},
{"type":"Feature","geometry":{"type":"Polygon","coordinates":[[[-70.612305,18.681061],[-70.608131,18.674591],[-70.606407,18.672985],[-70.599579,18.669552],[-70.597176,18.667482],[-70.591171,18.656282],[-70.590752,18.651093],[-70.59227,18.647688],[-70.59343,18.641405],[-70.594391,18.638803],[-70.596703,18.636761],[-70.599579,18.635416],[-70.602028,18.632647],[-70.60228,18.630177],[-70.600166,18.62776],[-70.596565,18.627579],[-70.593605,18.628218],[-70.589455,18.630096],[-70.584435,18.630503],[-70.581009,18.629751],[-70.577209,18.627625],[-70.5755,18.625954],[-70.57328,18.622326],[-70.569061,18.613642],[-70.56601,18.60808],[-70.563805,18.605881],[-70.559425,18.603342],[-70.557823,18.6005],[-70.557487,18.596226],[-70.557793,18.587448],[-70.558319,18.585396],[-70.562233,18.577944],[-70.561699,18.575338],[-70.559769,18.573935],[-70.551964,18.57052],[-70.54007,18.564793],[-70.534164,18.560583],[-70.530502,18.558777],[-70.526779,18.555408],[-70.524124,18.550901],[-70.522263,18.549187],[-70.518105,18.54818],[-70.505814,18.548161],[-70.500801,18.549],[-70.491974,18.553087],[-70.486595,18.554333],[-70.484161,18.555786],[-70.479034,18.560751],[-70.476402,18.565289],[-70.472382,18.570208],[-70.466324,18.581446],[-70.465469,18.584677],[-70.465324,18.588842],[-70.465981,18.592926],[-70.469193,18.596764],[-70.471664,18.59812],[-70.476776,18.597239],[-70.479706,18.598127],[-70.482887,18.601828],[-70.483398,18.604532],[-70.482918,18.609217],[-70.481667,18.612871],[-70.482292,18.614597],[-70.485085,18.617699],[-70.490044,18.622171],[-70.493912,18.624023],[-70.500923,18.624893],[-70.503944,18.626881],[-70.506523,18.630251],[-70.508514,18.636528],[-70.515106,18.643787],[-70.516129,18.64842],[-70.516129,18.658272],[-70.515495,18.663713],[-70.512192,18.669794],[-70.510345,18.67148],[-70.506912,18.673208],[-70.504723,18.6754],[-70.501183,18.680742],[-70.506638,18.686613],[-70.509262,18.691717],[-70.509941,18.694279],[-70.510185,18.70048],[-70.510941,18.70372],[-70.513596,18.70882],[-70.518082,18.714394],[-70.519928,18.717834],[-70.523621,18.722401],[-70.52623,18.726767],[-70.528206,18.728371],[-70.539474,18.733723],[-70.545555,18.735146],[-70.550301,18.736877],[-70.551743,18.735661],[-70.554291,18.731003],[-70.554359,18.727701],[-70.552925,18.723372],[-70.554916,18.718916],[-70.558495,18.717915],[-70.563103,18.7197],[-70.565643,18.720051],[-70.568794,18.718094],[-70.570618,18.714737],[-70.574455,18.709688],[-70.576012,18.706833],[-70.578316,18.70472],[-70.584099,18.703838],[-70.586243,18.703018],[-70.586578,18.700335],[-70.585014,18.697262],[-70.583672,18.692818],[-70.581528,18.687662],[-70.582687,18.68428],[-70.586922,18.681952],[-70.592751,18.681206],[-70.606339,18.681345],[-70.612305,18.681061]]]},"properties":{"shapeName":"Sabana Larga","shapeISO":"3306468B82901312279704","shapeGroup":"DOM","shapeType":"ADM2","src_shape_id":"3306468B82901312279704","adm1ISO":"DO-31"}},
{"type":"Feature","geometry":{"type":"Polygon","coordinates":[[[-70.492264,18.457867],[-70.491547,18.45352],[-70.487625,18.449286],[-70.487877,18.44656],[-70.486992,18.44359],[-70.487289,18.440575],[-70.488853,18.437244],[-70.489433,18.430399],[-70.488022,18.426023],[-70.479042,18.419966],[-70.476456,18.418762],[-70.471992,18.41872],[-70.467552,18.427032],[-70.461754,18.433109],[-70.459991,18.436016],[-70.459221,18.44549],[-70.456886,18.448505],[-70.452271,18.450441],[-70.448227,18.450447],[-70.446045,18.451099],[-70.441505,18.45409],[-70.436668,18.454247],[-70.43206,18.452381],[-70.430069,18.452538],[-70.427612,18.454407],[-70.42601,18.457783],[-70.423111,18.462229],[-70.421288,18.462969],[-70.408478,18.463112],[-70.405029,18.464272],[-70.399857,18.468031],[-70.39389,18.470758],[-70.388527,18.472042],[-70.383247,18.47562],[-70.379929,18.476763],[-70.375679,18.477135],[-70.370056,18.478962],[-70.364754,18.480177],[-70.362373,18.482239],[-70.361549,18.484695],[-70.361137,18.489338],[-70.359261,18.492907],[-70.355324,18.49696],[-70.351723,18.502407],[-70.348579,18.504585],[-70.343628,18.504923],[-70.341995,18.507698],[-70.342812,18.509752],[-70.345955,18.513634],[-70.350029,18.521727],[-70.352722,18.526022],[-70.35482,18.527369],[-70.358215,18.528196],[-70.363548,18.532204],[-70.365868,18.535103],[-70.365761,18.538391],[-70.366669,18.540819],[-70.369858,18.544756],[-70.372635,18.549719],[-70.37278,18.552877],[-70.369461,18.555542],[-70.365952,18.555977],[-70.363373,18.557264],[-70.362862,18.559883],[-70.365692,18.565401],[-70.365906,18.567478],[-70.364052,18.569468],[-70.360786,18.57111],[-70.358856,18.573669],[-70.358459,18.575834],[-70.359116,18.580915],[-70.360626,18.584164],[-70.360672,18.58666],[-70.359077,18.590614],[-70.357948,18.597134],[-70.353928,18.602577],[-70.3535,18.605303],[-70.357971,18.608397],[-70.35817,18.610779],[-70.356018,18.615808],[-70.356285,18.619978],[-70.359138,18.624914],[-70.363365,18.627247],[-70.364365,18.629587],[-70.365044,18.634535],[-70.366219,18.638575],[-70.373093,18.637068],[-70.381889,18.632786],[-70.384552,18.632044],[-70.389221,18.632318],[-70.391243,18.635197],[-70.391914,18.640291],[-70.394592,18.646095],[-70.397911,18.652189],[-70.400398,18.6542],[-70.404877,18.654909],[-70.416771,18.65489],[-70.42292,18.654345],[-70.426369,18.652811],[-70.429619,18.652611],[-70.432426,18.655804],[-70.432167,18.657715],[-70.428268,18.662815],[-70.428375,18.665043],[-70.429741,18.668041],[-70.431564,18.669445],[-70.435692,18.668768],[-70.44146,18.665857],[-70.444176,18.66321],[-70.448097,18.655279],[-70.451576,18.652441],[-70.456551,18.652084],[-70.459297,18.652784],[-70.461639,18.654921],[-70.462952,18.658829],[-70.465103,18.660625],[-70.468185,18.661467],[-70.474174,18.664156],[-70.477753,18.666798],[-70.483284,18.672045],[-70.488251,18.677572],[-70.490852,18.681608],[-70.492966,18.682264],[-70.495598,18.681437],[-70.501183,18.680742],[-70.504723,18.6754],[-70.506912,18.673208],[-70.510345,18.67148],[-70.512192,18.669794],[-70.515495,18.663713],[-70.516129,18.658272],[-70.516129,18.64842],[-70.515106,18.643787],[-70.508514,18.636528],[-70.506523,18.630251],[-70.503944,18.626881],[-70.500923,18.624893],[-70.493912,18.624023],[-70.490044,18.622171],[-70.485085,18.617699],[-70.482292,18.614597],[-70.481667,18.612871],[-70.482918,18.609217],[-70.483398,18.604532],[-70.482887,18.601828],[-70.479706,18.598127],[-70.476776,18.597239],[-70.471664,18.59812],[-70.469193,18.596764],[-70.465981,18.592926],[-70.465324,18.588842],[-70.465469,18.584677],[-70.466324,18.581446],[-70.472382,18.570208],[-70.476402,18.565289],[-70.479034,18.560751],[-70.484161,18.555786],[-70.486595,18.554333],[-70.491974,18.553087],[-70.500801,18.549],[-70.505814,18.548161],[-70.518105,18.54818],[-70.522263,18.549187],[-70.524124,18.550901],[-70.526779,18.555408],[-70.530502,18.558777],[-70.534164,18.560583],[-70.54007,18.564793],[-70.551964,18.57052],[-70.559769,18.573935],[-70.561699,18.575338],[-70.562233,18.577944],[-70.558319,18.585396],[-70.557793,18.587448],[-70.557487,18.596226],[-70.557823,18.6005],[-70.559425,18.603342],[-70.563805,18.605881],[-70.56601,18.60808],[-70.569061,18.613642],[-70.57328,18.622326],[-70.5755,18.625954],[-70.577209,18.627625],[-70.581009,18.629751],[-70.584435,18.630503],[-70.589455,18.630096],[-70.593605,18.628218],[-70.596565,18.627579],[-70.600166,18.62776],[-70.60228,18.630177],[-70.602028,18.632647],[-70.599579,18.635416],[-70.596703,18.636761],[-70.594391,18.638803],[-70.59343,18.641405],[-70.59227,18.647688],[-70.590752,18.651093],[-70.591171,18.656282],[-70.597176,18.667482],[-70.599579,18.669552],[-70.606407,18.672985],[-70.608131,18.674591],[-70.612305,18.681061],[-70.619034,18.681915],[-70.626312,18.686453],[-70.628609,18.687052],[-70.636726,18.687223],[-70.640617,18.686581],[-70.644142,18.685087],[-70.649704,18.684444],[-70.658836,18.684523],[-70.664406,18.683889],[-70.668617,18.682257],[-70.673592,18.681778],[-70.671532,18.677071],[-70.661232,18.667124],[-70.657265,18.662704],[-70.653419,18.653234],[-70.652725,18.646536],[-70.652763,18.62355],[-70.653419,18.620934],[-70.658455,18.615978],[-70.661072,18.610958],[-70.661964,18.605141],[-70.66465,18.597557],[-70.664574,18.593143],[-70.661957,18.589418],[-70.658409,18.587639],[-70.653801,18.583248],[-70.651901,18.579906],[-70.649445,18.577938],[-70.641228,18.576481],[-70.633949,18.572092],[-70.628273,18.570204],[-70.62027,18.559389],[-70.618507,18.553967],[-70.619957,18.549585],[-70.619507,18.546347],[-70.617355,18.544067],[-70.611633,18.541897],[-70.608963,18.537916],[-70.604858,18.529272],[-70.601372,18.526678],[-70.599358,18.52676],[-70.595352,18.528481],[-70.585258,18.531635],[-70.582176,18.530867],[-70.579369,18.526405],[-70.578186,18.522406],[-70.575722,18.520542],[-70.573578,18.520279],[-70.562469,18.520405],[-70.558586,18.520025],[-70.556091,18.518988],[-70.552658,18.516573],[-70.551453,18.511038],[-70.549171,18.509266],[-70.546471,18.509739],[-70.545044,18.510935],[-70.541702,18.511332],[-70.539803,18.510012],[-70.535988,18.504133],[-70.53228,18.501427],[-70.524879,18.494602],[-70.522446,18.492886],[-70.519829,18.492212],[-70.503716,18.491791],[-70.501366,18.491287],[-70.497421,18.488375],[-70.496391,18.486046],[-70.498604,18.481636],[-70.501938,18.479303],[-70.503532,18.477404],[-70.504311,18.472332],[-70.503288,18.468893],[-70.501549,18.467096],[-70.49736,18.464365],[-70.494255,18.463213],[-70.492538,18.460991],[-70.492264,18.457867]]]},"properties":{"shapeName":"San José de Ocoa","shapeISO":"3306468B57713364990292","shapeGroup":"DOM","shapeType":"ADM2","src_shape_id":"3306468B57713364990292","adm1ISO":"DO-31"}}
]}