{"type":"FeatureCollection","bbox":[10.875327,54.56587,12.554628,56.00462],"features":[
{"type":"Feature","id":"DNK:ADM2:DK-85.lolland","properties":{"shapeName":"Lolland","shapeISO":"","shapeGroup":"DNK","shapeType":"ADM2","adm1ISO":"DK-85","parentISO":"DK-85","parentID":"DNK:ADM1:DK-85","src_shape_id":"71786716B63500106048247"},"geometry":{"type":"MultiPolygon","coordinates":[[[[11.022056,54.829343],[11.023793,54.847683],[11.013371,54.85435],[11.002369,54.848683],[11.00179,54.837681],[11.010475,54.829343],[11.022056,54.829343]]],[[[11.537403,54.833012],[11.487814,54.833799],[11.456685,54.853004],[11.456685,54.860043],[11.420738,54.860683],[11.411743,54.873521],[11.402787,54.879897],[11.390947,54.879984],[11.360589,54.898929],[11.361073,54.904812],[11.351068,54.911203],[11.351068,54.916954],[11.341062,54.92377],[11.319568,54.924196],[11.259533,54.961234],[11.164292,54.963149],[11.155768,54.957617],[11.145021,54.957404],[11.134274,54.952084],[11.123157,54.952297],[11.112039,54.945912],[11.111669,54.941229],[11.060157,54.941442],[11.059787,54.935694],[11.016057,54.912694],[11.015613,54.889681],[11.024388,54.883269],[11.023677,54.877402],[11.044785,54.864574],[11.043599,54.846688],[11.052375,54.841268],[11.074981,54.840415],[11.085357,54.834012],[11.073869,54.828676],[11.072757,54.810314],[11.062381,54.805401],[11.040516,54.805829],[11.021616,54.817574],[10.999751,54.818428],[10.999381,54.805615],[10.988634,54.800702],[10.976775,54.801343],[10.967881,54.795575],[10.976405,54.789379],[10.977887,54.782968],[10.98604,54.777198],[10.98604,54.772495],[10.995304,54.765868],[10.995304,54.760309],[11.035535,54.759744],[11.064604,54.74106],[11.10648,54.740204],[11.116116,54.734641],[11.126122,54.734641],[11.136127,54.728436],[11.146504,54.728008],[11.155398,54.722016],[11.187268,54.721159],[11.197274,54.71538],[11.207651,54.715166],[11.216174,54.708744],[11.237297,54.708958],[11.246933,54.702962],[11.25768,54.702748],[11.286586,54.684115],[11.285844,54.678116],[11.295109,54.67233],[11.306968,54.67233],[11.324756,54.659256],[11.325127,54.653468],[11.334021,54.647679],[11.36552,54.646821],[11.374785,54.641246],[11.385532,54.64146],[11.433708,54.609923],[11.453349,54.610138],[11.482255,54.59275],[11.493373,54.59275],[11.494855,54.603913],[11.474102,54.604343],[11.454091,54.616147],[11.464838,54.622155],[11.466691,54.628806],[11.476696,54.633739],[11.487814,54.633954],[11.49782,54.639101],[11.518943,54.639101],[11.551184,54.656041],[11.551926,54.66783],[11.533767,54.680258],[11.555631,54.69718],[11.558225,54.726724],[11.54822,54.733144],[11.570084,54.744269],[11.570455,54.750258],[11.531914,54.774633],[11.532655,54.78596],[11.545255,54.792157],[11.534137,54.798139],[11.537403,54.833012]]],[[[11.365353,54.964902],[11.353092,54.964902],[11.342767,54.9599],[11.342767,54.951934],[11.35277,54.952489],[11.364063,54.94656],[11.363095,54.934512],[11.383745,54.921905],[11.413752,54.921163],[11.414075,54.927468],[11.424723,54.933215],[11.425045,54.939146],[11.435693,54.944521],[11.446986,54.938961],[11.458279,54.938961],[11.467959,54.94378],[11.467959,54.950822],[11.457634,54.956751],[11.457311,54.96342],[11.406331,54.964161],[11.406331,54.957677],[11.396651,54.95286],[11.383745,54.952304],[11.365353,54.964902]]],[[[11.312437,54.966013],[11.300499,54.97194],[11.302112,54.960456],[11.312437,54.966013]]],[[[11.564112,54.959715],[11.566048,54.984347],[11.533136,54.984902],[11.523779,54.991196],[11.512486,54.991011],[11.50087,54.985828],[11.499902,54.973422],[11.521843,54.961382],[11.521843,54.954898],[11.52991,54.948228],[11.542171,54.947672],[11.564112,54.959715]]],[[[11.372452,55.029681],[11.372452,55.035783],[11.350188,55.036153],[11.339541,55.030605],[11.339863,55.024317],[11.360514,55.024132],[11.372452,55.029681]]]]}},
{"type":"Feature","id":"DNK:ADM2:DK-85.guldborgsund","properties":{"shapeName":"Guldborgsund","shapeISO":"","shapeGroup":"DNK","shapeType":"ADM2","adm1ISO":"DK-85","parentISO":"DK-85","parentID":"DNK:ADM1:DK-85","src_shape_id":"71786716B32401712412850"},"geometry":{"type":"MultiPolygon","coordinates":[[[[11.551184,54.656041],[11.57379,54.666973],[11.583796,54.666544],[11.59269,54.661185],[11.613443,54.661185],[11.62419,54.666544],[11.634937,54.666115],[11.644943,54.660328],[11.655319,54.665687],[11.706831,54.665044],[11.72536,54.652825],[11.777983,54.651538],[11.786877,54.645106],[11.798366,54.645535],[11.808742,54.651753],[11.809483,54.657327],[11.830607,54.668687],[11.833201,54.686685],[11.844318,54.691612],[11.844689,54.697395],[11.82653,54.7096],[11.803924,54.709814],[11.806148,54.733144],[11.838018,54.732502],[11.838886,54.738795],[11.849967,54.744403],[11.851893,54.768091],[11.774277,54.816506],[11.775019,54.823125],[11.786507,54.828462],[11.787989,54.839775],[11.756119,54.840842],[11.736478,54.853004],[11.739072,54.871347],[11.729066,54.876891],[11.707201,54.877317],[11.688672,54.890107],[11.677184,54.890534],[11.657913,54.902468],[11.635678,54.902468],[11.634103,54.86135],[11.624259,54.861683],[11.601677,54.84935],[11.590675,54.856017],[11.559986,54.85735],[11.548984,54.85135],[11.548984,54.844349],[11.559986,54.838681],[11.579673,54.838347],[11.618469,54.814331],[11.618469,54.808658],[11.608625,54.808325],[11.578515,54.827008],[11.548405,54.827008],[11.537403,54.833012],[11.534137,54.798139],[11.545255,54.792157],[11.532655,54.78596],[11.531914,54.774633],[11.570455,54.750258],[11.570084,54.744269],[11.54822,54.733144],[11.558225,54.726724],[11.555631,54.69718],[11.533767,54.680258],[11.551926,54.66783],[11.551184,54.656041]]],[[[11.87151,54.950775],[11.862065,54.951337],[11.815488,54.968541],[11.808648,54.961062],[11.823631,54.950214],[11.807345,54.939551],[11.796271,54.940112],[11.781614,54.955638],[11.764026,54.966485],[11.753277,54.966298],[11.74546,54.960688],[11.735363,54.960314],[11.735689,54.954516],[11.707678,54.937119],[11.70898,54.92982],[11.74318,54.923831],[11.742529,54.906795],[11.733083,54.900053],[11.7409,54.894621],[11.739767,54.882287],[11.749981,54.876531],[11.747896,54.858897],[11.759153,54.858537],[11.766657,54.852657],[11.789379,54.852057],[11.80814,54.839935],[11.806889,54.827689],[11.795424,54.822645],[11.79459,54.810754],[11.805013,54.804387],[11.815019,54.804026],[11.853583,54.779869],[11.853583,54.773858],[11.861921,54.768206],[11.862716,54.755961],[11.870859,54.749758],[11.870533,54.744306],[11.859785,54.738477],[11.859133,54.732272],[11.868579,54.726253],[11.879327,54.726629],[11.888187,54.720196],[11.898609,54.719594],[11.897984,54.714176],[11.875054,54.702614],[11.874845,54.696953],[11.863797,54.691532],[11.86213,54.673455],[11.851316,54.668468],[11.850339,54.656222],[11.868253,54.643973],[11.867276,54.632286],[11.877047,54.627007],[11.876722,54.620407],[11.895613,54.608336],[11.894636,54.602111],[11.904407,54.596261],[11.904081,54.578331],[11.911247,54.572479],[11.92395,54.57229],[11.932092,54.566437],[11.953264,54.56587],[11.964012,54.571912],[11.968572,54.606638],[11.948704,54.619276],[11.954684,54.665981],[11.944261,54.671888],[11.945512,54.678156],[11.956576,54.683926],[11.958578,54.701429],[12.013468,54.729466],[12.015553,54.736086],[12.02535,54.74102],[12.02806,54.759186],[12.039108,54.764478],[12.040228,54.776443],[12.083874,54.79898],[12.116119,54.798417],[12.12589,54.804237],[12.127493,54.821684],[12.161054,54.838374],[12.161054,54.844616],[12.152716,54.850737],[12.152599,54.856767],[12.143479,54.862204],[12.133382,54.862391],[12.123285,54.868952],[12.124913,54.886379],[12.115468,54.892374],[12.011275,54.894617],[12.001936,54.900985],[11.990997,54.901061],[11.971919,54.913487],[11.97407,54.931183],[11.954267,54.943158],[11.943427,54.943278],[11.909618,54.926452],[11.909944,54.921024],[11.899196,54.921024],[11.870859,54.93899],[11.87151,54.950775]]]]}},
{"type":"Feature","id":"DNK:ADM2:DK-85.vordingborg","properties":{"shapeName":"Vordingborg","shapeISO":"","shapeGroup":"DNK","shapeType":"ADM2","adm1ISO":"DK-85","parentISO":"DK-85","parentID":"DNK:ADM1:DK-85","src_shape_id":"71786716B59118439676977"},"geometry":{"type":"MultiPolygon","coordinates":[[[[11.996848,54.948461],[11.996848,54.953429],[11.975473,54.954014],[11.975473,54.942615],[11.984634,54.936183],[11.984634,54.930628],[12.003973,54.918052],[12.045195,54.917174],[12.064026,54.90518],[12.074713,54.904595],[12.086927,54.910446],[12.087945,54.928581],[12.069115,54.940861],[12.048758,54.941153],[12.036035,54.936183],[12.01466,54.936183],[11.996848,54.948461]]],[[[12.113201,54.969352],[12.104421,54.969554],[12.090903,54.963163],[12.091322,54.957864],[12.112,54.957404],[12.113201,54.969352]]],[[[12.268877,55.054454],[12.247706,55.054827],[12.238586,55.06117],[12.216764,55.061543],[12.184193,55.044751],[12.182238,55.037846],[12.205038,55.037846],[12.212529,55.032246],[12.224581,55.037099],[12.245101,55.036726],[12.285814,55.012268],[12.274414,55.007411],[12.273437,54.993774],[12.281254,54.989476],[12.353237,54.987794],[12.353237,54.981066],[12.313174,54.982001],[12.280603,54.965924],[12.270832,54.971906],[12.27018,54.983683],[12.252266,54.98387],[12.226861,54.972093],[12.217415,54.972093],[12.199827,54.984991],[12.17833,54.985738],[12.167581,54.980692],[12.165627,54.973776],[12.155856,54.969102],[12.133239,54.968623],[12.132221,54.945538],[12.109829,54.933844],[12.107793,54.916297],[12.117463,54.910154],[12.117971,54.903717],[12.127132,54.898157],[12.135275,54.886449],[12.143927,54.880301],[12.185658,54.878545],[12.197364,54.883522],[12.208051,54.883522],[12.219756,54.889962],[12.220265,54.902546],[12.276247,54.930043],[12.276247,54.936183],[12.286934,54.941738],[12.299657,54.941153],[12.320523,54.953429],[12.330192,54.952845],[12.363272,54.968623],[12.374978,54.968915],[12.384647,54.963072],[12.456914,54.961611],[12.467093,54.955183],[12.477271,54.955183],[12.497628,54.943199],[12.517476,54.942907],[12.529181,54.947876],[12.540378,54.947584],[12.550556,54.953429],[12.554628,54.983227],[12.544958,54.989067],[12.54508,54.994895],[12.506464,55.019356],[12.474987,55.019954],[12.464565,55.026168],[12.307637,55.029633],[12.268877,55.054454]]],[[[12.019057,55.137017],[11.987463,55.137762],[11.978669,55.143533],[11.967595,55.144092],[11.957498,55.138507],[11.935349,55.138693],[11.914504,55.127335],[11.893007,55.127149],[11.860436,55.110198],[11.831773,55.127893],[11.820699,55.128266],[11.811905,55.134225],[11.800505,55.128452],[11.789757,55.128638],[11.77966,55.122865],[11.768911,55.122865],[11.758163,55.116905],[11.72722,55.117277],[11.725592,55.099227],[11.735181,55.093621],[11.746437,55.09374],[11.764573,55.081333],[11.785418,55.081571],[11.813351,55.06355],[11.811892,55.057103],[11.801886,55.051849],[11.792089,55.057461],[11.772702,55.058297],[11.763322,55.063788],[11.711834,55.065221],[11.703079,55.070831],[11.672644,55.077037],[11.642001,55.082049],[11.620739,55.083003],[11.628869,55.075008],[11.668267,55.068683],[11.699535,55.063968],[11.709958,55.058371],[11.731454,55.057998],[11.738946,55.052775],[11.75002,55.052215],[11.758163,55.046431],[11.768585,55.046244],[11.776077,55.040832],[11.798551,55.040086],[11.824282,55.023658],[11.834405,55.023419],[11.859628,55.005969],[11.867341,54.995687],[11.874637,54.975952],[11.893398,54.973798],[11.881516,54.991741],[11.887978,54.999513],[11.911325,54.999872],[11.92279,55.005252],[11.930688,54.99841],[11.930179,54.993739],[11.959696,54.991111],[11.987463,54.97228],[11.999189,54.972093],[12.007657,54.965737],[12.060748,54.964241],[12.115142,54.992839],[12.126542,54.987234],[12.113513,54.980692],[12.113513,54.974524],[12.123936,54.975084],[12.146736,54.986486],[12.147387,54.991905],[12.169392,55.003578],[12.169809,55.009914],[12.150214,55.021508],[12.150631,55.026765],[12.133538,55.041459],[12.136313,55.058745],[12.126216,55.065087],[12.127519,55.071055],[12.137616,55.076276],[12.16009,55.075903],[12.181261,55.08709],[12.183541,55.11113],[12.163999,55.123796],[12.164976,55.129197],[12.12133,55.128825],[12.111233,55.123983],[12.049023,55.124541],[12.038926,55.131059],[12.02948,55.130873],[12.019057,55.137017]]]]}},
{"type":"Feature","id":"DNK:ADM2:DK-85.slagelse","properties":{"shapeName":"Slagelse","shapeISO":"","shapeGroup":"DNK","shapeType":"ADM2","adm1ISO":"DK-85","parentISO":"DK-85","parentID":"DNK:ADM1:DK-85","src_shape_id":"71786716B32972196165212"},"geometry":{"type":"MultiPolygon","coordinates":[[[[11.168551,55.147667],[11.169056,55.160054],[11.180147,55.165238],[11.180147,55.172149],[11.148889,55.171861],[11.148385,55.165814],[11.137294,55.16063],[11.136286,55.14882],[11.146873,55.142481],[11.157964,55.142193],[11.168551,55.147667]]],[[[11.469615,55.195103],[11.458293,55.200847],[11.436655,55.201565],[11.42634,55.195677],[11.425836,55.189358],[11.469364,55.188927],[11.469615,55.195103]]],[[[11.222738,55.188776],[11.213704,55.19467],[11.213704,55.200563],[11.203701,55.207007],[11.204024,55.219341],[11.184987,55.231119],[11.184987,55.250067],[11.173049,55.249883],[11.171435,55.202404],[11.190795,55.189144],[11.204024,55.18896],[11.213704,55.182697],[11.222738,55.188776]]],[[[11.50962,55.368208],[11.467854,55.393366],[11.477667,55.399367],[11.490247,55.399367],[11.499808,55.404939],[11.502576,55.453051],[11.480938,55.46589],[11.470622,55.466033],[11.461313,55.47188],[11.461313,55.484143],[11.472383,55.489845],[11.472383,55.495974],[11.462319,55.502387],[11.407965,55.503773],[11.407965,55.497474],[11.375469,55.480033],[11.375202,55.474579],[11.365044,55.468821],[11.364242,55.462001],[11.353014,55.456544],[11.34339,55.456848],[11.331628,55.463517],[11.321202,55.463365],[11.320935,55.470033],[11.311311,55.475488],[11.300351,55.476094],[11.26747,55.45897],[11.256243,55.459424],[11.236193,55.471851],[11.213738,55.472306],[11.204114,55.466699],[11.170966,55.467608],[11.169704,55.461326],[11.192049,55.448976],[11.191263,55.418195],[11.200698,55.411947],[11.201091,55.406367],[11.211706,55.399447],[11.157794,55.37075],[11.145717,55.370496],[11.134982,55.365412],[11.124694,55.365412],[11.114407,55.371513],[11.103224,55.36592],[11.104119,55.335149],[11.156452,55.33464],[11.156452,55.347104],[11.166293,55.352445],[11.179265,55.351427],[11.186869,55.346087],[11.200735,55.345324],[11.211023,55.339473],[11.198946,55.333368],[11.186869,55.333368],[11.176133,55.328024],[11.123353,55.328788],[11.142586,55.316572],[11.154216,55.316572],[11.164504,55.310718],[11.177028,55.309954],[11.227572,55.278884],[11.226678,55.266908],[11.238308,55.260791],[11.23786,55.248554],[11.248148,55.241925],[11.245912,55.205952],[11.255752,55.199826],[11.27767,55.19906],[11.297798,55.187315],[11.329556,55.204931],[11.351921,55.204165],[11.362209,55.197018],[11.404702,55.195997],[11.437802,55.213609],[11.457483,55.213098],[11.489688,55.193954],[11.532628,55.192678],[11.501318,55.212333],[11.501318,55.217947],[11.491477,55.22407],[11.493188,55.2478],[11.472745,55.260796],[11.472745,55.272667],[11.451123,55.285431],[11.441294,55.285878],[11.441294,55.297295],[11.464489,55.309603],[11.465275,55.320789],[11.47589,55.327946],[11.486897,55.333089],[11.487291,55.344716],[11.508127,55.350751],[11.50962,55.368208]]]]}},
{"type":"Feature","id":"DNK:ADM2:DK-85.nstved","properties":{"shapeName":"Næstved","shapeISO":"","shapeGroup":"DNK","shapeType":"ADM2","adm1ISO":"DK-85","parentISO":"DK-85","parentID":"DNK:ADM1:DK-85","src_shape_id":"71786716B67811636615197"},"geometry":{"type":"MultiPolygon","coordinates":[[[[11.719994,55.165912],[11.699128,55.178119],[11.690985,55.17841],[11.67928,55.172016],[11.659432,55.171435],[11.659432,55.160097],[11.668083,55.154864],[11.689458,55.159807],[11.710324,55.147593],[11.719994,55.148175],[11.719994,55.165912]]],[[[12.019057,55.137017],[12.021337,55.155073],[12.042834,55.166795],[12.054234,55.166609],[12.064005,55.171818],[12.064657,55.17777],[12.04544,55.190044],[12.046417,55.202314],[12.016126,55.220711],[12.006354,55.220525],[11.995932,55.226656],[11.997235,55.238729],[11.987463,55.245042],[11.975946,55.244946],[11.916953,55.281886],[11.895274,55.282242],[11.885685,55.288653],[11.874429,55.288771],[11.854834,55.30147],[11.854834,55.307047],[11.87693,55.318792],[11.877972,55.330414],[11.888812,55.336935],[11.88902,55.342863],[11.879223,55.348908],[11.880304,55.354626],[11.868579,55.354811],[11.847733,55.368141],[11.826562,55.367586],[11.818419,55.373694],[11.806694,55.374064],[11.797248,55.368881],[11.736666,55.399781],[11.702333,55.40034],[11.670097,55.382924],[11.648867,55.383147],[11.626459,55.371756],[11.551764,55.373766],[11.54115,55.367958],[11.50962,55.368208],[11.508127,55.350751],[11.487291,55.344716],[11.486897,55.333089],[11.47589,55.327946],[11.465275,55.320789],[11.464489,55.309603],[11.441294,55.297295],[11.441294,55.285878],[11.451123,55.285431],[11.472745,55.272667],[11.472745,55.260796],[11.493188,55.2478],[11.491477,55.22407],[11.501318,55.217947],[11.501318,55.212333],[11.532628,55.192678],[11.542888,55.192066],[11.553067,55.186546],[11.595816,55.185674],[11.605486,55.179282],[11.658821,55.178328],[11.678689,55.189858],[11.679666,55.195807],[11.701163,55.20789],[11.712563,55.20789],[11.74318,55.1893],[11.741551,55.177212],[11.731454,55.171818],[11.730152,55.153026],[11.738946,55.147442],[11.802459,55.146698],[11.811579,55.139996],[11.811905,55.134225],[11.820699,55.128266],[11.831773,55.127893],[11.860436,55.110198],[11.893007,55.127149],[11.914504,55.127335],[11.935349,55.138693],[11.957498,55.138507],[11.967595,55.144092],[11.978669,55.143533],[11.987463,55.137762],[12.019057,55.137017]]]]}},
{"type":"Feature","id":"DNK:ADM2:DK-85.faxe","properties":{"shapeName":"Faxe","shapeISO":"","shapeGroup":"DNK","shapeType":"ADM2","adm1ISO":"DK-85","parentISO":"DK-85","parentID":"DNK:ADM1:DK-85","src_shape_id":"71786716B45041800869669"},"geometry":{"type":"Polygon","coordinates":[[[12.064005,55.171818],[12.095391,55.171677],[12.09414,55.159889],[12.083509,55.153577],[12.08205,55.130582],[12.101853,55.130344],[12.112067,55.135826],[12.117748,55.177212],[12.127519,55.182792],[12.128496,55.189114],[12.139896,55.194878],[12.149993,55.194692],[12.205038,55.223312],[12.215461,55.222941],[12.236958,55.234457],[12.248032,55.234643],[12.25878,55.239657],[12.281021,55.239415],[12.298191,55.238729],[12.303077,55.274369],[12.274089,55.293289],[12.242169,55.293846],[12.243798,55.312015],[12.254872,55.31702],[12.256175,55.329251],[12.234678,55.329992],[12.223278,55.323877],[12.202758,55.324618],[12.192335,55.331289],[12.162696,55.337032],[12.142827,55.349441],[12.131753,55.349441],[12.12133,55.356293],[12.122303,55.368069],[12.08082,55.368881],[12.040615,55.393746],[11.987137,55.394787],[11.966292,55.383316],[11.965315,55.37684],[11.943167,55.36555],[11.932418,55.365179],[11.922972,55.360736],[11.890076,55.360736],[11.880304,55.354626],[11.879223,55.348908],[11.88902,55.342863],[11.888812,55.336935],[11.877972,55.330414],[11.87693,55.318792],[11.854834,55.307047],[11.854834,55.30147],[11.874429,55.288771],[11.885685,55.288653],[11.895274,55.282242],[11.916953,55.281886],[11.975946,55.244946],[11.987463,55.245042],[11.997235,55.238729],[11.995932,55.226656],[12.006354,55.220525],[12.016126,55.220711],[12.046417,55.202314],[12.04544,55.190044],[12.064657,55.17777],[12.064005,55.171818]]]}},
{"type":"Feature","id":"DNK:ADM2:DK-85.stevns","properties":{"shapeName":"Stevns","shapeISO":"","shapeGroup":"DNK","shapeType":"ADM2","adm1ISO":"DK-85","parentISO":"DK-85","parentID":"DNK:ADM1:DK-85","src_shape_id":"71786716B98245585766658"},"geometry":{"type":"Polygon","coordinates":[[[12.298191,55.238729],[12.372128,55.236686],[12.373431,55.242628],[12.39395,55.252654],[12.40535,55.252097],[12.415447,55.257666],[12.427173,55.257666],[12.437596,55.263606],[12.438247,55.269544],[12.461373,55.280676],[12.463021,55.303465],[12.453352,55.311286],[12.455897,55.341107],[12.445718,55.347474],[12.447245,55.359915],[12.438084,55.3657],[12.426379,55.366568],[12.38821,55.392301],[12.389228,55.397792],[12.335648,55.399596],[12.325225,55.405699],[12.304054,55.406069],[12.295911,55.412171],[12.274089,55.412171],[12.263992,55.418826],[12.252836,55.418595],[12.210087,55.396347],[12.208051,55.377846],[12.197364,55.372063],[12.164283,55.37293],[12.154614,55.367435],[12.122303,55.368069],[12.12133,55.356293],[12.131753,55.349441],[12.142827,55.349441],[12.162696,55.337032],[12.192335,55.331289],[12.202758,55.324618],[12.223278,55.323877],[12.234678,55.329992],[12.256175,55.329251],[12.254872,55.31702],[12.243798,55.312015],[12.242169,55.293846],[12.274089,55.293289],[12.303077,55.274369],[12.298191,55.238729]]]}},
{"type":"Feature","id":"DNK:ADM2:DK-85.kge","properties":{"shapeName":"Køge","shapeISO":"","shapeGroup":"DNK","shapeType":"ADM2","adm1ISO":"DK-85","parentISO":"DK-85","parentID":"DNK:ADM1:DK-85","src_shape_id":"71786716B2511855224045"},"geometry":{"type":"Polygon","coordinates":[[[12.122303,55.368069],[12.154614,55.367435],[12.164283,55.37293],[12.197364,55.372063],[12.208051,55.377846],[12.210087,55.396347],[12.252836,55.418595],[12.202453,55.449779],[12.204488,55.473728],[12.215176,55.479496],[12.216942,55.509574],[12.143033,55.511132],[12.133205,55.517588],[12.122984,55.517588],[12.111976,55.523819],[12.081312,55.524487],[12.068732,55.518923],[12.027453,55.520036],[12.018411,55.526044],[11.985388,55.526934],[11.964552,55.526934],[11.952365,55.521371],[11.942143,55.521594],[11.932315,55.52827],[11.922487,55.528047],[11.919491,55.49795],[11.940357,55.484976],[11.939848,55.46767],[11.949009,55.461611],[11.949009,55.449779],[11.938322,55.444295],[11.938322,55.43188],[11.968348,55.412818],[11.968246,55.406439],[11.987137,55.394787],[12.040615,55.393746],[12.08082,55.368881],[12.122303,55.368069]]]}},
{"type":"Feature","id":"DNK:ADM2:DK-85.ringsted","properties":{"shapeName":"Ringsted","shapeISO":"","shapeGroup":"DNK","shapeType":"ADM2","adm1ISO":"DK-85","parentISO":"DK-85","parentID":"DNK:ADM1:DK-85","src_shape_id":"71786716B98057254885273"},"geometry":{"type":"Polygon","coordinates":[[[11.880304,55.354626],[11.890076,55.360736],[11.922972,55.360736],[11.932418,55.365179],[11.943167,55.36555],[11.965315,55.37684],[11.966292,55.383316],[11.987137,55.394787],[11.968246,55.406439],[11.968348,55.412818],[11.938322,55.43188],[11.938322,55.444295],[11.949009,55.449779],[11.949009,55.461611],[11.939848,55.46767],[11.940357,55.484976],[11.919491,55.49795],[11.922487,55.528047],[11.900865,55.541173],[11.891036,55.541173],[11.880422,55.547401],[11.859193,55.547623],[11.858905,55.553512],[11.827333,55.554342],[11.817054,55.548735],[11.816687,55.542712],[11.805306,55.537104],[11.741061,55.538142],[11.740327,55.520065],[11.72968,55.514453],[11.665068,55.515908],[11.643725,55.504382],[11.642467,55.480151],[11.653538,55.473592],[11.652783,55.46803],[11.663099,55.461468],[11.674169,55.461611],[11.705368,55.442634],[11.704865,55.436639],[11.69304,55.430787],[11.692285,55.412938],[11.702726,55.406144],[11.702333,55.40034],[11.736666,55.399781],[11.797248,55.368881],[11.806694,55.374064],[11.818419,55.373694],[11.826562,55.367586],[11.847733,55.368141],[11.868579,55.354811],[11.880304,55.354626]]]}},
{"type":"Feature","id":"DNK:ADM2:DK-85.solrd","properties":{"shapeName":"Solrød","shapeISO":"","shapeGroup":"DNK","shapeType":"ADM2","adm1ISO":"DK-85","parentISO":"DK-85","parentID":"DNK:ADM1:DK-85","src_shape_id":"71786716B40153436417240"},"geometry":{"type":"Polygon","coordinates":[[[12.216942,55.509574],[12.216942,55.515584],[12.228736,55.521149],[12.228343,55.526934],[12.251537,55.538949],[12.251537,55.544732],[12.241316,55.551182],[12.231488,55.551182],[12.220087,55.557408],[12.198832,55.557662],[12.198465,55.551849],[12.18785,55.546067],[12.167014,55.558742],[12.144999,55.547179],[12.113942,55.547401],[12.111976,55.523819],[12.122984,55.517588],[12.133205,55.517588],[12.143033,55.511132],[12.216942,55.509574]]]}},
{"type":"Feature","id":"DNK:ADM2:DK-85.sor","properties":{"shapeName":"Sorø","shapeISO":"","shapeGroup":"DNK","shapeType":"ADM2","adm1ISO":"DK-85","parentISO":"DK-85","parentID":"DNK:ADM1:DK-85","src_shape_id":"71786716B94282367677525"},"geometry":{"type":"Polygon","coordinates":[[[11.50962,55.368208],[11.54115,55.367958],[11.551764,55.373766],[11.626459,55.371756],[11.648867,55.383147],[11.670097,55.382924],[11.702333,55.40034],[11.702726,55.406144],[11.692285,55.412938],[11.69304,55.430787],[11.704865,55.436639],[11.705368,55.442634],[11.674169,55.461611],[11.663099,55.461468],[11.652783,55.46803],[11.653538,55.473592],[11.642467,55.480151],[11.643725,55.504382],[11.665068,55.515908],[11.66567,55.53373],[11.678123,55.539713],[11.679063,55.56337],[11.668725,55.570145],[11.646404,55.570544],[11.636771,55.565363],[11.61586,55.577451],[11.572629,55.578381],[11.562291,55.584755],[11.551013,55.584888],[11.54138,55.591129],[11.519999,55.591527],[11.509426,55.586614],[11.486166,55.586747],[11.476298,55.580771],[11.445241,55.581401],[11.432677,55.575357],[11.432677,55.569009],[11.45433,55.556764],[11.45433,55.551169],[11.442835,55.54512],[11.388301,55.546179],[11.378945,55.55253],[11.335638,55.55374],[11.312915,55.542246],[11.312113,55.536196],[11.334569,55.535742],[11.355955,55.523487],[11.376806,55.52273],[11.388568,55.528177],[11.398727,55.528026],[11.40942,55.521822],[11.409334,55.515883],[11.398042,55.510168],[11.407965,55.503773],[11.462319,55.502387],[11.472383,55.495974],[11.472383,55.489845],[11.461313,55.484143],[11.461313,55.47188],[11.470622,55.466033],[11.480938,55.46589],[11.502576,55.453051],[11.499808,55.404939],[11.490247,55.399367],[11.477667,55.399367],[11.467854,55.393366],[11.50962,55.368208]]]}},
{"type":"Feature","id":"DNK:ADM2:DK-85.greve","properties":{"shapeName":"Greve","shapeISO":"","shapeGroup":"DNK","shapeType":"ADM2","adm1ISO":"DK-85","parentISO":"DK-85","parentID":"DNK:ADM1:DK-85","src_shape_id":"71786716B88423540640223"},"geometry":{"type":"Polygon","coordinates":[[[12.251537,55.544732],[12.350213,55.595633],[12.350213,55.60163],[12.340778,55.60807],[12.288099,55.609403],[12.287706,55.614954],[12.234123,55.616614],[12.223232,55.616952],[12.213797,55.610957],[12.213404,55.605628],[12.203182,55.600075],[12.170159,55.599853],[12.159545,55.594522],[12.158759,55.589191],[12.199251,55.5643],[12.198832,55.557662],[12.220087,55.557408],[12.231488,55.551182],[12.241316,55.551182],[12.251537,55.544732]]]}},
{"type":"Feature","id":"DNK:ADM2:DK-85.lejre","properties":{"shapeName":"Lejre","shapeISO":"","shapeGroup":"DNK","shapeType":"ADM2","adm1ISO":"DK-85","parentISO":"DK-85","parentID":"DNK:ADM1:DK-85","src_shape_id":"71786716B9584980796535"},"geometry":{"type":"Polygon","coordinates":[[[11.985388,55.526934],[11.987353,55.562744],[11.998361,55.568524],[12.019197,55.568079],[12.031384,55.579859],[12.073449,55.57897],[12.084457,55.584303],[12.084457,55.590968],[12.044357,55.615842],[12.012121,55.616508],[12.002292,55.622946],[12.002685,55.634709],[12.013583,55.640087],[12.016351,55.675714],[11.962586,55.677292],[11.962193,55.671528],[11.940571,55.66022],[11.929956,55.660663],[11.930349,55.672193],[11.996789,55.706984],[11.965778,55.731572],[11.954959,55.731855],[11.944895,55.73823],[11.923509,55.738655],[11.901619,55.727463],[11.890549,55.727605],[11.881491,55.734264],[11.859098,55.734689],[11.848531,55.728738],[11.847399,55.710971],[11.836784,55.705434],[11.836784,55.699231],[11.82499,55.693027],[11.823811,55.687487],[11.802369,55.672938],[11.779975,55.663621],[11.779241,55.646016],[11.800166,55.633377],[11.799799,55.615758],[11.809711,55.608916],[11.809344,55.603317],[11.818889,55.596887],[11.819623,55.584855],[11.83027,55.584232],[11.839815,55.578007],[11.850828,55.5778],[11.86074,55.571573],[11.858905,55.553512],[11.859193,55.547623],[11.880422,55.547401],[11.891036,55.541173],[11.900865,55.541173],[11.922487,55.528047],[11.932315,55.52827],[11.942143,55.521594],[11.952365,55.521371],[11.964552,55.526934],[11.985388,55.526934]]]}},
{"type":"Feature","id":"DNK:ADM2:DK-85.kalundborg","properties":{"shapeName":"Kalundborg","shapeISO":"","shapeGroup":"DNK","shapeType":"ADM2","adm1ISO":"DK-85","parentISO":"DK-85","parentID":"DNK:ADM1:DK-85","src_shape_id":"71786716B42683939496467"},"geometry":{"type":"MultiPolygon","coordinates":[[[[11.407965,55.503773],[11.398042,55.510168],[11.409334,55.515883],[11.40942,55.521822],[11.398727,55.528026],[11.388568,55.528177],[11.376806,55.52273],[11.355955,55.523487],[11.334569,55.535742],[11.312113,55.536196],[11.312915,55.542246],[11.335638,55.55374],[11.378945,55.55253],[11.388301,55.546179],[11.442835,55.54512],[11.45433,55.551169],[11.45433,55.556764],[11.432677,55.569009],[11.432677,55.575357],[11.421182,55.575659],[11.400865,55.5882],[11.401667,55.600435],[11.380816,55.613119],[11.380281,55.618856],[11.370123,55.624894],[11.370123,55.631233],[11.349272,55.643907],[11.349004,55.649941],[11.37146,55.661705],[11.371727,55.692303],[11.383756,55.697727],[11.383857,55.703866],[11.406412,55.715632],[11.406839,55.739726],[11.363418,55.740998],[11.35406,55.752439],[11.342445,55.759339],[11.288366,55.759666],[11.277359,55.754578],[11.277359,55.742408],[11.265958,55.736211],[11.243942,55.737318],[11.235294,55.743515],[11.201877,55.744621],[11.201877,55.737982],[11.191263,55.737761],[11.168854,55.750817],[11.17082,55.757011],[11.126176,55.757772],[11.11586,55.752534],[11.10479,55.752675],[11.083655,55.741063],[11.070823,55.741063],[11.060004,55.735822],[11.027799,55.736247],[11.017483,55.742621],[10.995594,55.743187],[10.986033,55.749702],[10.971691,55.749843],[10.964395,55.756073],[10.918855,55.756356],[10.909042,55.750976],[10.896965,55.750976],[10.886398,55.745736],[10.875327,55.745878],[10.876585,55.739505],[10.897468,55.738938],[10.907281,55.732705],[10.972682,55.731563],[10.983297,55.725807],[10.982903,55.719608],[11.026148,55.694135],[11.037156,55.694135],[11.068999,55.674854],[11.068213,55.668868],[11.046198,55.669311],[11.03519,55.66399],[11.026148,55.670641],[10.971109,55.671085],[10.961281,55.677514],[10.928258,55.678179],[10.918127,55.67208],[10.927316,55.66619],[10.9411,55.665484],[10.949454,55.659593],[11.00459,55.65818],[11.013779,55.651817],[11.036335,55.651346],[11.077686,55.626356],[11.090635,55.62612],[11.099824,55.619753],[11.11152,55.619517],[11.121544,55.61362],[11.121962,55.607486],[11.131987,55.600879],[11.131987,55.594743],[11.142847,55.588842],[11.142011,55.575857],[11.153289,55.570426],[11.153323,55.552228],[11.118998,55.535155],[11.087176,55.535542],[11.065105,55.524116],[11.065276,55.511815],[11.0752,55.505227],[11.088373,55.505517],[11.096757,55.51104],[11.10822,55.510749],[11.118656,55.516658],[11.118827,55.522373],[11.129481,55.521983],[11.139956,55.516071],[11.151719,55.515617],[11.162412,55.510016],[11.162412,55.503204],[11.172303,55.497299],[11.170966,55.467608],[11.204114,55.466699],[11.213738,55.472306],[11.236193,55.471851],[11.256243,55.459424],[11.26747,55.45897],[11.300351,55.476094],[11.311311,55.475488],[11.320935,55.470033],[11.321202,55.463365],[11.331628,55.463517],[11.34339,55.456848],[11.353014,55.456544],[11.364242,55.462001],[11.365044,55.468821],[11.375202,55.474579],[11.375469,55.480033],[11.407965,55.497474],[11.407965,55.503773]]],[[[11.301144,55.777853],[11.30179,55.784203],[11.291787,55.789646],[11.29211,55.796358],[11.281785,55.802524],[11.269524,55.797083],[11.269201,55.790553],[11.280171,55.784748],[11.279203,55.778578],[11.288561,55.77259],[11.301144,55.777853]]],[[[11.101499,55.918844],[11.069233,55.919692],[11.06772,55.913759],[11.078308,55.914041],[11.138302,55.876727],[11.137798,55.870505],[11.181659,55.869939],[11.199809,55.857208],[11.212413,55.856925],[11.212413,55.86315],[11.161997,55.893975],[11.152418,55.894258],[11.133261,55.906412],[11.121665,55.906694],[11.101499,55.918844]]]]}},
{"type":"Feature","id":"DNK:ADM2:DK-85.roskilde","properties":{"shapeName":"Roskilde","shapeISO":"","shapeGroup":"DNK","shapeType":"ADM2","adm1ISO":"DK-85","parentISO":"DK-85","parentID":"DNK:ADM1:DK-85","src_shape_id":"71786716B8217347854635"},"geometry":{"type":"Polygon","coordinates":[[[12.111976,55.523819],[12.113942,55.547401],[12.144999,55.547179],[12.167014,55.558742],[12.18785,55.546067],[12.198465,55.551849],[12.198832,55.557662],[12.199251,55.5643],[12.158759,55.589191],[12.159545,55.594522],[12.170159,55.599853],[12.172125,55.624277],[12.16269,55.630936],[12.162297,55.636706],[12.152075,55.642696],[12.152468,55.648464],[12.16269,55.654453],[12.164262,55.67175],[12.174877,55.677957],[12.196106,55.677292],[12.207507,55.68239],[12.218908,55.682168],[12.229522,55.687931],[12.240137,55.687709],[12.249965,55.693027],[12.250719,55.698551],[12.251537,55.704548],[12.221156,55.724063],[12.221408,55.729588],[12.23273,55.734972],[12.233233,55.740779],[12.221911,55.747153],[12.169373,55.748825],[12.14893,55.761214],[12.137923,55.761435],[12.118266,55.774041],[12.085636,55.774705],[12.085636,55.768513],[12.096251,55.762762],[12.095071,55.745728],[12.105293,55.738867],[12.1049,55.732891],[12.115121,55.727136],[12.113942,55.7154],[12.092319,55.704105],[12.091533,55.697902],[12.080525,55.692141],[12.080525,55.686379],[12.069518,55.68106],[12.080132,55.673745],[12.079346,55.662437],[12.069518,55.656893],[12.058117,55.662437],[12.058903,55.668646],[12.036102,55.669311],[12.02588,55.664211],[12.024905,55.645483],[12.013583,55.640087],[12.002685,55.634709],[12.002292,55.622946],[12.012121,55.616508],[12.044357,55.615842],[12.084457,55.590968],[12.084457,55.584303],[12.073449,55.57897],[12.031384,55.579859],[12.019197,55.568079],[11.998361,55.568524],[11.987353,55.562744],[11.985388,55.526934],[12.018411,55.526044],[12.027453,55.520036],[12.068732,55.518923],[12.081312,55.524487],[12.111976,55.523819]]]}},
{"type":"Feature","id":"DNK:ADM2:DK-85.holbk","properties":{"shapeName":"Holbæk","shapeISO":"","shapeGroup":"DNK","shapeType":"ADM2","adm1ISO":"DK-85","parentISO":"DK-85","parentID":"DNK:ADM1:DK-85","src_shape_id":"71786716B65993177657172"},"geometry":{"type":"MultiPolygon","coordinates":[[[[11.858905,55.553512],[11.86074,55.571573],[11.850828,55.5778],[11.839815,55.578007],[11.83027,55.584232],[11.819623,55.584855],[11.818889,55.596887],[11.809344,55.603317],[11.809711,55.608916],[11.799799,55.615758],[11.800166,55.633377],[11.779241,55.646016],[11.779975,55.663621],[11.802369,55.672938],[11.80347,55.681425],[11.803823,55.706072],[11.794425,55.712559],[11.794895,55.717985],[11.773734,55.730241],[11.761986,55.730034],[11.75134,55.724866],[11.740694,55.724659],[11.730047,55.719283],[11.686361,55.720111],[11.676082,55.714734],[11.663967,55.714941],[11.644877,55.728587],[11.654789,55.733548],[11.697741,55.732928],[11.708755,55.738096],[11.731516,55.737889],[11.741428,55.743882],[11.764189,55.742642],[11.764556,55.755039],[11.743264,55.767846],[11.743631,55.786428],[11.734086,55.791795],[11.735187,55.798605],[11.712793,55.798811],[11.668005,55.775486],[11.614447,55.776764],[11.603153,55.771319],[11.517427,55.773078],[11.44987,55.738466],[11.406839,55.739726],[11.406412,55.715632],[11.383857,55.703866],[11.383756,55.697727],[11.371727,55.692303],[11.37146,55.661705],[11.349004,55.649941],[11.349272,55.643907],[11.370123,55.631233],[11.370123,55.624894],[11.380281,55.618856],[11.380816,55.613119],[11.401667,55.600435],[11.400865,55.5882],[11.421182,55.575659],[11.432677,55.575357],[11.445241,55.581401],[11.476298,55.580771],[11.486166,55.586747],[11.509426,55.586614],[11.519999,55.591527],[11.54138,55.591129],[11.551013,55.584888],[11.562291,55.584755],[11.572629,55.578381],[11.61586,55.577451],[11.636771,55.565363],[11.646404,55.570544],[11.668725,55.570145],[11.679063,55.56337],[11.678123,55.539713],[11.66567,55.53373],[11.665068,55.515908],[11.72968,55.514453],[11.740327,55.520065],[11.741061,55.538142],[11.805306,55.537104],[11.816687,55.542712],[11.817054,55.548735],[11.827333,55.554342],[11.858905,55.553512]]],[[[11.852116,55.7946],[11.821452,55.813381],[11.820273,55.795484],[11.809658,55.790401],[11.797864,55.790401],[11.788036,55.796589],[11.777421,55.791506],[11.776242,55.778905],[11.786463,55.772051],[11.785677,55.766965],[11.796685,55.760551],[11.795505,55.74794],[11.80612,55.742187],[11.827742,55.741744],[11.827349,55.747719],[11.838672,55.751473],[11.849579,55.751246],[11.852116,55.7946]]]]}},
{"type":"Feature","id":"DNK:ADM2:DK-85.odsherred","properties":{"shapeName":"Odsherred","shapeISO":"","shapeGroup":"DNK","shapeType":"ADM2","adm1ISO":"DK-85","parentISO":"DK-85","parentID":"DNK:ADM1:DK-85","src_shape_id":"71786716B40980494570781"},"geometry":{"type":"Polygon","coordinates":[[[11.406839,55.739726],[11.44987,55.738466],[11.517427,55.773078],[11.603153,55.771319],[11.614447,55.776764],[11.615414,55.788739],[11.659941,55.811953],[11.659941,55.817754],[11.670912,55.818117],[11.680592,55.811409],[11.714471,55.810865],[11.724151,55.816123],[11.726732,55.845842],[11.685754,55.87029],[11.686077,55.875539],[11.666395,55.88857],[11.667638,55.905763],[11.689665,55.917079],[11.699577,55.911936],[11.698843,55.899588],[11.742162,55.898148],[11.753543,55.903499],[11.75391,55.909878],[11.744365,55.915433],[11.745099,55.933534],[11.790621,55.955737],[11.790665,55.962182],[11.781267,55.967047],[11.781032,55.973753],[11.759417,55.974673],[11.725818,55.957184],[11.713836,55.95771],[11.6941,55.946792],[11.671074,55.947186],[11.660736,55.941529],[11.648989,55.941529],[11.64006,55.936396],[11.598709,55.960998],[11.566755,55.961787],[11.554537,55.956263],[11.511981,55.957176],[11.502804,55.963341],[11.405151,55.965806],[11.396707,55.971764],[11.38496,55.972175],[11.375048,55.978338],[11.352654,55.978954],[11.344577,55.98491],[11.322183,55.985526],[11.292447,56.00421],[11.281433,56.00462],[11.279965,55.998462],[11.290978,55.992097],[11.288776,55.974846],[11.321449,55.973408],[11.330627,55.96745],[11.353755,55.966834],[11.372845,55.954709],[11.45875,55.952859],[11.467561,55.946693],[11.479308,55.946282],[11.499132,55.93374],[11.510146,55.933534],[11.520058,55.927981],[11.518957,55.920988],[11.529603,55.915433],[11.529603,55.909467],[11.517855,55.90391],[11.51624,55.891626],[11.525403,55.88662],[11.51577,55.880294],[11.51389,55.868431],[11.502613,55.862894],[11.501438,55.856696],[11.490322,55.85119],[11.436723,55.852221],[11.40405,55.835731],[11.380187,55.835938],[11.372111,55.841916],[11.359996,55.841504],[11.359262,55.835938],[11.370275,55.830577],[11.367338,55.794478],[11.376883,55.788286],[11.376516,55.777138],[11.366604,55.770943],[11.354856,55.770943],[11.343843,55.765367],[11.342445,55.759339],[11.35406,55.752439],[11.363418,55.740998],[11.406839,55.739726]]]}}
]}