{"type":"FeatureCollection","bbox":[20.9621,55.6768,28.2397,58.0778],"features":[
{"type":"Feature","id":"LVA:ADM1:LV-007","properties":{"shapeName":"Alūksnes novads","shapeISO":"LV-007","shapeType":"ADM1"},"geometry":{"type":"Polygon","coordinates":[[[26.5976,57.3894],[26.6832,57.3335],[26.8478,57.3177],[26.8677,57.2955],[26.9794,57.3065],[27.1631,57.2271],[27.228,57.2352],[27.3558,57.2865],[27.4033,57.2538],[27.5604,57.2653],[27.5925,57.3075],[27.6927,57.3306],[27.6908,57.3705],[27.6033,57.4156],[27.5159,57.4245],[27.5666,57.5148],[27.5006,57.5402],[27.4151,57.5226],[27.3257,57.5235],[27.2255,57.5547],[27.1174,57.5621],[27.0314,57.6045],[26.9456,57.6028],[26.9069,57.6331],[26.8354,57.5834],[26.8324,57.4995],[26.7872,57.5015],[26.7199,57.4245],[26.5976,57.3894]]]}},
{"type":"Feature","id":"LVA:ADM1:LV-056","properties":{"shapeName":"Līvānu novads","shapeISO":"LV-056","shapeType":"ADM1"},"geometry":{"type":"Polygon","coordinates":[[[26.3325,56.1906],[26.2962,56.29],[26.5692,56.267],[26.611,56.285],[26.5461,56.3772],[26.5836,56.4103],[26.5596,56.4844],[26.4688,56.495],[26.3861,56.4543],[26.2638,56.5218],[26.1533,56.4269],[26.153,56.3791],[26.2023,56.2675],[26.1764,56.2379],[26.2913,56.1812],[26.3325,56.1906]]]}},
{"type":"Feature","id":"LVA:ADM1:LV-033","properties":{"shapeName":"Gulbenes novads","shapeISO":"LV-033","shapeType":"ADM1"},"geometry":{"type":"Polygon","coordinates":[[[26.5976,57.3894],[26.5075,57.4052],[26.4312,57.3692],[26.4409,57.3298],[26.291,57.3158],[26.2683,57.2813],[26.1215,57.2734],[25.9964,57.2445],[26.0104,57.2163],[26.1044,57.204],[26.1661,57.1291],[26.1092,57.0789],[26.1928,57.0916],[26.295,57.082],[26.3707,57.0425],[26.4652,57.062],[26.5459,57.0214],[26.5824,56.9456],[26.7546,56.9943],[26.8633,56.9836],[26.8876,57.0387],[26.9378,57.0451],[27.0676,57.1643],[27.1631,57.2271],[26.9794,57.3065],[26.8677,57.2955],[26.8478,57.3177],[26.6832,57.3335],[26.5976,57.3894]]]}},
{"type":"Feature","id":"LVA:ADM1:LV-106","properties":{"shapeName":"Ventspils novads","shapeISO":"LV-106","shapeType":"ADM1"},"geometry":{"type":"Polygon","coordinates":[[[22.2096,57.186],[22.1956,57.2102],[22.2689,57.2667],[22.3121,57.2687],[22.282,57.3763],[22.2439,57.4062],[22.1325,57.4025],[22.1628,57.4718],[22.282,57.5032],[22.2564,57.6032],[22.1959,57.6571],[21.9662,57.6008],[21.8391,57.5975],[21.7237,57.5779],[21.6865,57.5545],[21.625,57.4697],[21.6735,57.4039],[21.5715,57.3534],[21.5174,57.3788],[21.4272,57.3012],[21.4064,57.1748],[21.4174,57.0823],[21.3737,57.0016],[21.3338,56.9756],[21.3947,56.9388],[21.4843,56.9643],[21.4655,57.0211],[21.5132,57.0593],[21.6586,57.1205],[21.6943,57.1075],[21.9548,57.0936],[22.0204,57.1158],[22.0722,57.0998],[22.1824,57.1158],[22.2096,57.186]]]}},
{"type":"Feature","id":"LVA:ADM1:LV-101","properties":{"shapeName":"Valkas novads","shapeISO":"LV-101","shapeType":"ADM1"},"geometry":{"type":"Polygon","coordinates":[[[25.9431,57.5341],[26.1279,57.5611],[26.3095,57.499],[26.3434,57.5234],[26.335,57.5796],[26.274,57.5977],[26.2388,57.6583],[26.1798,57.6886],[26.2057,57.715],[26.1362,57.751],[26.0267,57.7744],[26.0584,57.8366],[25.8203,57.8649],[25.7727,57.9126],[25.7033,57.9033],[25.6645,57.8538],[25.5943,57.8834],[25.4763,57.8599],[25.5756,57.7783],[25.7349,57.7258],[25.8455,57.7417],[25.8554,57.6863],[25.975,57.6614],[25.9067,57.5995],[25.9431,57.5341]]]}},
{"type":"Feature","id":"LVA:ADM1:LV-087","properties":{"shapeName":"Salaspils novads","shapeISO":"LV-087","shapeType":"ADM1"},"geometry":{"type":"Polygon","coordinates":[[[24.4984,56.9026],[24.4511,56.9217],[24.2705,56.9204],[24.2749,56.8702],[24.2073,56.8818],[24.2414,56.8326],[24.4423,56.8423],[24.4409,56.895],[24.4984,56.9026]]]}},
{"type":"Feature","id":"LVA:ADM1:LV-JEL","properties":{"shapeName":"Jelgavas","shapeISO":"LV-JEL","shapeType":"ADM1"},"geometry":{"type":"Polygon","coordinates":[[[23.6446,56.679],[23.7164,56.5976],[23.7996,56.6561],[23.7293,56.6915],[23.6446,56.679]]]}},
{"type":"Feature","id":"LVA:ADM1:LV-REZ","properties":{"shapeName":"Rēzeknes","shapeISO":"LV-REZ","shapeType":"ADM1"},"geometry":{"type":"Polygon","coordinates":[[[27.3791,56.5159],[27.3232,56.5335],[27.3072,56.4981],[27.3494,56.4838],[27.3791,56.5159]]]}},
{"type":"Feature","id":"LVA:ADM1:LV-JUR","properties":{"shapeName":"Jūrmalas","shapeISO":"LV-JUR","shapeType":"ADM1"},"geometry":{"type":"Polygon","coordinates":[[[23.5529,56.9799],[23.4806,56.9648],[23.4943,56.9319],[23.6055,56.9248],[23.8167,56.9525],[23.971,56.9865],[23.9336,57.0099],[23.7531,56.9699],[23.6456,56.9629],[23.5529,56.9799]]]}},
{"type":"Feature","id":"LVA:ADM1:LV-VEN","properties":{"shapeName":"Ventspils","shapeISO":"LV-VEN","shapeType":"ADM1"},"geometry":{"type":"Polygon","coordinates":[[[21.625,57.4697],[21.5174,57.3788],[21.5715,57.3534],[21.6735,57.4039],[21.625,57.4697]]]}},
{"type":"Feature","id":"LVA:ADM1:LV-RIX","properties":{"shapeName":"Rīga","shapeISO":"LV-RIX","shapeType":"ADM1"},"geometry":{"type":"Polygon","coordinates":[[[24.2749,56.8702],[24.228,56.8966],[24.2527,56.9543],[24.3143,56.9668],[24.2724,57.0102],[24.2129,57.0169],[24.1531,57.0556],[24.1189,57.0862],[24.0292,57.0644],[23.9336,57.0099],[23.971,56.9865],[23.9455,56.9441],[24.077,56.909],[24.0705,56.879],[24.1048,56.8805],[24.1693,56.907],[24.2073,56.8818],[24.2749,56.8702]]]}},
{"type":"Feature","id":"LVA:ADM1:LV-LPX","properties":{"shapeName":"Liepājas","shapeISO":"LV-LPX","shapeType":"ADM1"},"geometry":{"type":"Polygon","coordinates":[[[20.9994,56.4653],[21.0963,56.5466],[21.0262,56.6091],[20.9621,56.549],[20.9994,56.4653]]]}},
{"type":"Feature","id":"LVA:ADM1:LV-112","properties":{"shapeName":"Dienvidkurzemes novads","shapeISO":"LV-112","shapeType":"ADM1"},"geometry":{"type":"Polygon","coordinates":[[[21.3338,56.9756],[21.2252,56.9094],[21.0659,56.8431],[21.0596,56.7321],[21.0262,56.6091],[21.0963,56.5466],[20.9994,56.4653],[20.9727,56.3713],[20.9864,56.21],[21.0647,56.0692],[21.2089,56.0847],[21.3224,56.2148],[21.4518,56.2485],[21.4955,56.2925],[21.6178,56.3246],[21.7259,56.3142],[21.8357,56.3716],[21.9194,56.3685],[21.9804,56.3955],[21.9538,56.4265],[21.9651,56.5079],[21.8421,56.5227],[21.7882,56.5569],[21.8315,56.651],[21.7493,56.7652],[21.6444,56.7897],[21.5854,56.8452],[21.5092,56.8427],[21.4714,56.9114],[21.3947,56.9388],[21.3338,56.9756]]]}},
{"type":"Feature","id":"LVA:ADM1:LV-050","properties":{"shapeName":"Kuldīgas novads","shapeISO":"LV-050","shapeType":"ADM1"},"geometry":{"type":"Polygon","coordinates":[[[21.3947,56.9388],[21.4714,56.9114],[21.5092,56.8427],[21.5854,56.8452],[21.6444,56.7897],[21.7493,56.7652],[21.8315,56.651],[21.7882,56.5569],[21.8421,56.5227],[21.9651,56.5079],[22.0166,56.5568],[22.1228,56.5656],[22.0939,56.6792],[22.1693,56.701],[22.1885,56.7373],[22.1659,56.7972],[22.3002,56.8346],[22.4364,56.8869],[22.4554,56.9178],[22.4464,56.9427],[22.504,57.0185],[22.3865,57.0119],[22.3575,57.1124],[22.273,57.1289],[22.2096,57.186],[22.1824,57.1158],[22.0722,57.0998],[22.0204,57.1158],[21.9548,57.0936],[21.6943,57.1075],[21.6586,57.1205],[21.5132,57.0593],[21.4655,57.0211],[21.4843,56.9643],[21.3947,56.9388]]]}},
{"type":"Feature","id":"LVA:ADM1:LV-088","properties":{"shapeName":"Saldus novads","shapeISO":"LV-088","shapeType":"ADM1"},"geometry":{"type":"Polygon","coordinates":[[[21.9804,56.3955],[21.9946,56.4136],[22.1333,56.4312],[22.2437,56.3997],[22.3486,56.3938],[22.4228,56.4101],[22.5803,56.3905],[22.6975,56.3532],[22.7253,56.3715],[22.8404,56.3657],[22.9205,56.3991],[22.828,56.4021],[22.7294,56.4236],[22.736,56.5486],[22.8384,56.6059],[22.8205,56.6934],[22.8255,56.7738],[22.7556,56.8055],[22.6409,56.8088],[22.6021,56.8397],[22.4942,56.8543],[22.5287,56.9207],[22.4554,56.9178],[22.4364,56.8869],[22.3002,56.8346],[22.1659,56.7972],[22.1885,56.7373],[22.1693,56.701],[22.0939,56.6792],[22.1228,56.5656],[22.0166,56.5568],[21.9651,56.5079],[21.9538,56.4265],[21.9804,56.3955]]]}},
{"type":"Feature","id":"LVA:ADM1:LV-097","properties":{"shapeName":"Talsu novads","shapeISO":"LV-097","shapeType":"ADM1"},"geometry":{"type":"Polygon","coordinates":[[[22.2096,57.186],[22.273,57.1289],[22.3575,57.1124],[22.3865,57.0119],[22.504,57.0185],[22.5653,57.0049],[22.6423,57.0164],[22.6401,57.0966],[22.7661,57.1113],[22.8368,57.1455],[22.928,57.1304],[22.9441,57.1738],[23.0486,57.2058],[23.1215,57.2523],[23.1021,57.3026],[23.147,57.3162],[23.0798,57.369],[22.9466,57.4138],[22.8702,57.4755],[22.6868,57.5544],[22.5944,57.6284],[22.5737,57.6861],[22.6051,57.759],[22.5325,57.7494],[22.1959,57.6571],[22.2564,57.6032],[22.282,57.5032],[22.1628,57.4718],[22.1325,57.4025],[22.2439,57.4062],[22.282,57.3763],[22.3121,57.2687],[22.2689,57.2667],[22.1956,57.2102],[22.2096,57.186]]]}},
{"type":"Feature","id":"LVA:ADM1:LV-099","properties":{"shapeName":"Tukuma novads","shapeISO":"LV-099","shapeType":"ADM1"},"geometry":{"type":"Polygon","coordinates":[[[23.5529,56.9799],[23.4937,57.0313],[23.3584,57.0471],[23.2391,57.1066],[23.2339,57.1647],[23.1767,57.238],[23.147,57.3162],[23.1021,57.3026],[23.1215,57.2523],[23.0486,57.2058],[22.9441,57.1738],[22.928,57.1304],[22.8368,57.1455],[22.7661,57.1113],[22.6401,57.0966],[22.6423,57.0164],[22.5653,57.0049],[22.504,57.0185],[22.4464,56.9427],[22.4554,56.9178],[22.5287,56.9207],[22.4942,56.8543],[22.6021,56.8397],[22.6409,56.8088],[22.7556,56.8055],[22.8255,56.7738],[22.8205,56.6934],[22.9006,56.7127],[23.019,56.7145],[23.1306,56.7001],[23.2049,56.7235],[23.2753,56.7073],[23.3478,56.7523],[23.3326,56.7795],[23.4894,56.8138],[23.4674,56.8849],[23.5062,56.8925],[23.4943,56.9319],[23.4806,56.9648],[23.5529,56.9799]]]}},
{"type":"Feature","id":"LVA:ADM1:LV-026","properties":{"shapeName":"Dobeles novads","shapeISO":"LV-026","shapeType":"ADM1"},"geometry":{"type":"Polygon","coordinates":[[[22.9205,56.3991],[23.0023,56.4064],[23.0269,56.3312],[23.0937,56.3049],[23.1841,56.3374],[23.177,56.3686],[23.3064,56.3831],[23.3925,56.3773],[23.4733,56.4046],[23.4177,56.4666],[23.459,56.537],[23.4059,56.6032],[23.483,56.6603],[23.4488,56.7351],[23.5277,56.7637],[23.4894,56.8138],[23.3326,56.7795],[23.3478,56.7523],[23.2753,56.7073],[23.2049,56.7235],[23.1306,56.7001],[23.019,56.7145],[22.9006,56.7127],[22.8205,56.6934],[22.8384,56.6059],[22.736,56.5486],[22.7294,56.4236],[22.828,56.4021],[22.9205,56.3991]]]}},
{"type":"Feature","id":"LVA:ADM1:LV-041","properties":{"shapeName":"Jelgavas novads","shapeISO":"LV-041","shapeType":"ADM1"},"geometry":{"type":"Polygon","coordinates":[[[23.4894,56.8138],[23.5277,56.7637],[23.4488,56.7351],[23.483,56.6603],[23.4059,56.6032],[23.459,56.537],[23.4177,56.4666],[23.4733,56.4046],[23.3925,56.3773],[23.4394,56.3517],[23.5449,56.3321],[23.6301,56.3599],[23.7805,56.3677],[23.8656,56.3384],[23.8694,56.3894],[23.8404,56.4425],[23.9572,56.504],[24.0541,56.5073],[24.123,56.5752],[24.0579,56.5829],[24.0722,56.6246],[24.0426,56.6903],[23.9959,56.7264],[23.8629,56.7435],[23.7581,56.7402],[23.7734,56.8016],[23.7121,56.8556],[23.6272,56.8933],[23.5062,56.8925],[23.4674,56.8849],[23.4894,56.8138]],[[23.6446,56.679],[23.7293,56.6915],[23.7996,56.6561],[23.7164,56.5976],[23.6446,56.679]]]}},
{"type":"Feature","id":"LVA:ADM1:LV-062","properties":{"shapeName":"Mārupes novads","shapeISO":"LV-062","shapeType":"ADM1"},"geometry":{"type":"Polygon","coordinates":[[[23.4943,56.9319],[23.5062,56.8925],[23.6272,56.8933],[23.7121,56.8556],[23.7734,56.8016],[23.8336,56.806],[23.889,56.8442],[24.044,56.857],[24.0705,56.879],[24.077,56.909],[23.9455,56.9441],[23.971,56.9865],[23.8167,56.9525],[23.6055,56.9248],[23.4943,56.9319]]]}},
{"type":"Feature","id":"LVA:ADM1:LV-016","properties":{"shapeName":"Bauskas novads","shapeISO":"LV-016","shapeType":"ADM1"},"geometry":{"type":"Polygon","coordinates":[[[23.8656,56.3384],[24.019,56.3298],[24.1215,56.2489],[24.3307,56.299],[24.4541,56.2582],[24.5648,56.2892],[24.6278,56.3556],[24.7149,56.4007],[24.8614,56.4157],[24.9024,56.4472],[24.9347,56.4907],[25.0357,56.5023],[25.0182,56.549],[24.9698,56.583],[24.8414,56.5701],[24.7457,56.5432],[24.6923,56.5489],[24.6646,56.6028],[24.5987,56.6161],[24.579,56.673],[24.6343,56.7141],[24.5287,56.7181],[24.3588,56.6595],[24.2695,56.6843],[24.2478,56.7127],[24.2476,56.6943],[24.1207,56.6702],[24.0426,56.6903],[24.0722,56.6246],[24.0579,56.5829],[24.123,56.5752],[24.0541,56.5073],[23.9572,56.504],[23.8404,56.4425],[23.8694,56.3894],[23.8656,56.3384]]]}},
{"type":"Feature","id":"LVA:ADM1:LV-067","properties":{"shapeName":"Ogres novads","shapeISO":"LV-067","shapeType":"ADM1"},"geometry":{"type":"Polygon","coordinates":[[[24.4423,56.8423],[24.5415,56.7851],[24.5287,56.7181],[24.6343,56.7141],[24.579,56.673],[24.5987,56.6161],[24.6646,56.6028],[24.6923,56.5489],[24.7457,56.5432],[24.8414,56.5701],[24.9698,56.583],[25.0487,56.5922],[25.0124,56.6361],[25.0359,56.7283],[25.105,56.7335],[25.2042,56.6988],[25.282,56.6953],[25.2594,56.7404],[25.4334,56.771],[25.5062,56.8153],[25.4936,56.8672],[25.5392,56.9217],[25.4908,56.9975],[25.4133,56.9369],[25.3486,56.9804],[25.3017,56.9802],[25.2596,56.9291],[25.1462,56.9496],[24.956,56.9475],[24.8969,56.9234],[24.8023,56.9332],[24.731,56.9002],[24.6099,56.8891],[24.4984,56.9026],[24.4409,56.895],[24.4423,56.8423]]]}},
{"type":"Feature","id":"LVA:ADM1:LV-002","properties":{"shapeName":"Aizkraukles novads","shapeISO":"LV-002","shapeType":"ADM1"},"geometry":{"type":"Polygon","coordinates":[[[24.9024,56.4472],[24.9025,56.4206],[24.9692,56.3657],[24.9737,56.31],[25.0556,56.2661],[25.092,56.1861],[25.1511,56.1745],[25.2277,56.1918],[25.3149,56.1449],[25.3656,56.1543],[25.4147,56.1602],[25.3811,56.2599],[25.3043,56.2924],[25.2966,56.3558],[25.3293,56.4221],[25.3899,56.4071],[25.4858,56.4174],[25.5566,56.4449],[25.5946,56.4845],[25.5644,56.5398],[25.6595,56.5973],[25.7257,56.6143],[25.8404,56.6118],[25.9335,56.6408],[25.9485,56.6811],[25.837,56.709],[25.8356,56.7947],[25.7664,56.8239],[25.7054,56.7691],[25.5879,56.8091],[25.5062,56.8153],[25.4334,56.771],[25.2594,56.7404],[25.282,56.6953],[25.2042,56.6988],[25.105,56.7335],[25.0359,56.7283],[25.0124,56.6361],[25.0487,56.5922],[24.9698,56.583],[25.0182,56.549],[25.0357,56.5023],[24.9347,56.4907],[24.9024,56.4472]]]}},
{"type":"Feature","id":"LVA:ADM1:LV-042","properties":{"shapeName":"Jēkabpils novads","shapeISO":"LV-042","shapeType":"ADM1"},"geometry":{"type":"Polygon","coordinates":[[[26.5596,56.4844],[26.6249,56.5401],[26.5939,56.595],[26.4891,56.5997],[26.3779,56.6415],[26.2831,56.5853],[26.219,56.6045],[26.1357,56.6573],[26.0263,56.6183],[25.983,56.664],[25.9335,56.6408],[25.8404,56.6118],[25.7257,56.6143],[25.6595,56.5973],[25.5644,56.5398],[25.5946,56.4845],[25.5566,56.4449],[25.4858,56.4174],[25.3899,56.4071],[25.3293,56.4221],[25.2966,56.3558],[25.3043,56.2924],[25.3811,56.2599],[25.4147,56.1602],[25.3656,56.1543],[25.651,56.1349],[25.6879,56.0865],[25.8204,56.052],[25.8782,56.0823],[25.9989,56.088],[26.0519,56.0675],[26.1483,56.1045],[26.136,56.1301],[26.2148,56.1723],[26.2913,56.1812],[26.1764,56.2379],[26.2023,56.2675],[26.153,56.3791],[26.1533,56.4269],[26.2638,56.5218],[26.3861,56.4543],[26.4688,56.495],[26.5596,56.4844]]]}},
{"type":"Feature","id":"LVA:ADM1:LV-058","properties":{"shapeName":"Ludzas novads","shapeISO":"LV-058","shapeType":"ADM1"},"geometry":{"type":"Polygon","coordinates":[[[27.3511,56.7832],[27.4859,56.7852],[27.4913,56.685],[27.5874,56.6238],[27.5581,56.5996],[27.5792,56.5457],[27.4882,56.5232],[27.5069,56.463],[27.5488,56.4648],[27.6847,56.3322],[27.7231,56.3061],[27.6719,56.2415],[27.7488,56.1952],[27.9822,56.1969],[28.0692,56.1896],[28.0644,56.1366],[28.1789,56.1794],[28.1842,56.2262],[28.2397,56.2713],[28.1656,56.3746],[28.1945,56.4426],[28.0945,56.5131],[28.1275,56.5821],[28.0534,56.5848],[28.0125,56.6724],[27.8989,56.7518],[27.9441,56.8028],[27.8705,56.8675],[27.7656,56.8627],[27.6594,56.8343],[27.6035,56.8584],[27.4264,56.8529],[27.3511,56.7832]]]}},
{"type":"Feature","id":"LVA:ADM1:rezeknes-novads","properties":{"shapeName":"Rēzeknes novads","shapeISO":"LV-073","shapeType":"ADM1"},"geometry":{"type":"Polygon","coordinates":[[[27.3511,56.7832],[27.1806,56.7918],[26.9649,56.8153],[26.9255,56.8308],[26.7905,56.7221],[26.7664,56.6764],[26.7919,56.6087],[26.7432,56.5605],[26.8037,56.5464],[26.8091,56.4964],[26.9547,56.4797],[26.8959,56.4077],[26.9775,56.3419],[26.9393,56.322],[27.0181,56.2599],[27.0619,56.1733],[27.1007,56.1716],[27.1482,56.2093],[27.4463,56.2088],[27.5342,56.2465],[27.6719,56.2415],[27.7231,56.3061],[27.6847,56.3322],[27.5488,56.4648],[27.5069,56.463],[27.4882,56.5232],[27.5792,56.5457],[27.5581,56.5996],[27.5874,56.6238],[27.4913,56.685],[27.4859,56.7852],[27.3511,56.7832]],[[27.3791,56.5159],[27.3494,56.4838],[27.3072,56.4981],[27.3232,56.5335],[27.3791,56.5159]]]}},
{"type":"Feature","id":"LVA:ADM1:LV-015","properties":{"shapeName":"Balvu novads","shapeISO":"LV-015","shapeType":"ADM1"},"geometry":{"type":"Polygon","coordinates":[[[27.1631,57.2271],[27.0676,57.1643],[26.9378,57.0451],[26.8876,57.0387],[26.8633,56.9836],[26.9042,56.9397],[26.9647,56.9203],[26.9913,56.867],[26.9255,56.8308],[26.9649,56.8153],[27.1806,56.7918],[27.3511,56.7832],[27.4264,56.8529],[27.6035,56.8584],[27.6594,56.8343],[27.6865,56.9159],[27.7372,56.9201],[27.7696,57.0052],[27.7147,57.0074],[27.7636,57.0803],[27.7571,57.131],[27.8169,57.1424],[27.8667,57.2962],[27.7791,57.3434],[27.6908,57.3705],[27.6927,57.3306],[27.5925,57.3075],[27.5604,57.2653],[27.4033,57.2538],[27.3558,57.2865],[27.228,57.2352],[27.1631,57.2271]]]}},
{"type":"Feature","id":"LVA:ADM1:LV-059","properties":{"shapeName":"Madonas novads","shapeISO":"LV-059","shapeType":"ADM1"},"geometry":{"type":"Polygon","coordinates":[[[26.1092,57.0789],[26.0243,57.0776],[25.9215,57.0982],[25.8904,57.0197],[25.9223,56.9713],[25.846,56.9593],[25.7447,56.9981],[25.6312,56.9609],[25.4908,56.9975],[25.5392,56.9217],[25.4936,56.8672],[25.5062,56.8153],[25.5879,56.8091],[25.7054,56.7691],[25.7664,56.8239],[25.8356,56.7947],[25.837,56.709],[25.9485,56.6811],[25.9335,56.6408],[25.983,56.664],[26.0263,56.6183],[26.1357,56.6573],[26.219,56.6045],[26.2831,56.5853],[26.3779,56.6415],[26.376,56.6724],[26.5151,56.6723],[26.6058,56.6861],[26.6351,56.7117],[26.7664,56.6764],[26.7905,56.7221],[26.9255,56.8308],[26.9913,56.867],[26.9647,56.9203],[26.9042,56.9397],[26.8633,56.9836],[26.7546,56.9943],[26.5824,56.9456],[26.5459,57.0214],[26.4652,57.062],[26.3707,57.0425],[26.295,57.082],[26.1928,57.0916],[26.1092,57.0789]]]}},
{"type":"Feature","id":"LVA:ADM1:LV-094","properties":{"shapeName":"Smiltenes novads","shapeISO":"LV-094","shapeType":"ADM1"},"geometry":{"type":"Polygon","coordinates":[[[26.8354,57.5834],[26.6759,57.5667],[26.6146,57.5293],[26.4999,57.5245],[26.4695,57.5756],[26.335,57.5796],[26.3434,57.5234],[26.3095,57.499],[26.1279,57.5611],[25.9431,57.5341],[25.8811,57.4926],[25.6809,57.4859],[25.6654,57.4663],[25.6047,57.38],[25.5119,57.351],[25.6016,57.2892],[25.7627,57.2727],[25.7444,57.2098],[25.8224,57.2132],[25.9184,57.1843],[26.0104,57.2163],[25.9964,57.2445],[26.1215,57.2734],[26.2683,57.2813],[26.291,57.3158],[26.4409,57.3298],[26.4312,57.3692],[26.5075,57.4052],[26.5976,57.3894],[26.7199,57.4245],[26.7872,57.5015],[26.8324,57.4995],[26.8354,57.5834]]]}},
{"type":"Feature","id":"LVA:ADM1:LV-022","properties":{"shapeName":"Cēsu novads","shapeISO":"LV-022","shapeType":"ADM1"},"geometry":{"type":"Polygon","coordinates":[[[26.0104,57.2163],[25.9184,57.1843],[25.8224,57.2132],[25.7444,57.2098],[25.7627,57.2727],[25.6016,57.2892],[25.5119,57.351],[25.6047,57.38],[25.6654,57.4663],[25.5966,57.4669],[25.4544,57.4376],[25.4163,57.4491],[25.3389,57.4011],[25.2724,57.3981],[25.1607,57.4477],[25.1418,57.4855],[25.0761,57.5018],[24.8408,57.4043],[24.8513,57.3842],[24.91,57.2961],[24.9522,57.2783],[24.902,57.226],[24.9735,57.1935],[24.9929,57.126],[25.088,57.1286],[25.1378,57.0878],[25.1067,57.06],[25.1439,57.0281],[25.1462,56.9496],[25.2596,56.9291],[25.3017,56.9802],[25.3486,56.9804],[25.4133,56.9369],[25.4908,56.9975],[25.6312,56.9609],[25.7447,56.9981],[25.846,56.9593],[25.9223,56.9713],[25.8904,57.0197],[25.9215,57.0982],[26.0243,57.0776],[26.1092,57.0789],[26.1661,57.1291],[26.1044,57.204],[26.0104,57.2163]]]}},
{"type":"Feature","id":"LVA:ADM1:LV-113","properties":{"shapeName":"Valmieras novads","shapeISO":"LV-113","shapeType":"ADM1"},"geometry":{"type":"Polygon","coordinates":[[[25.7033,57.9033],[25.5805,57.9442],[25.5747,57.974],[25.4859,57.9748],[25.4668,58.0052],[25.3037,58.0343],[25.2563,57.9938],[25.2166,58.074],[25.1058,58.0778],[25.0204,58.0178],[24.9489,58.0094],[24.8341,57.9728],[24.897,57.828],[25.0075,57.8008],[25.0744,57.7693],[25.0741,57.6354],[24.9787,57.6401],[24.9023,57.6147],[24.9165,57.5577],[25.008,57.5707],[25.0761,57.5018],[25.1418,57.4855],[25.1607,57.4477],[25.2724,57.3981],[25.3389,57.4011],[25.4163,57.4491],[25.4544,57.4376],[25.5966,57.4669],[25.6654,57.4663],[25.6809,57.4859],[25.8811,57.4926],[25.9431,57.5341],[25.9067,57.5995],[25.975,57.6614],[25.8554,57.6863],[25.8455,57.7417],[25.7349,57.7258],[25.5756,57.7783],[25.4763,57.8599],[25.5943,57.8834],[25.6645,57.8538],[25.7033,57.9033]]]}},
{"type":"Feature","id":"LVA:ADM1:LV-011","properties":{"shapeName":"Ādažu novads","shapeISO":"LV-011","shapeType":"ADM1"},"geometry":{"type":"Polygon","coordinates":[[[24.1531,57.0556],[24.2262,57.0744],[24.3143,57.0267],[24.3631,57.0624],[24.464,57.0751],[24.5079,57.097],[24.5091,57.1081],[24.4653,57.1829],[24.3395,57.1958],[24.1189,57.0862],[24.1531,57.0556]]]}},
{"type":"Feature","id":"LVA:ADM1:LV-080","properties":{"shapeName":"Ropažu novads","shapeISO":"LV-080","shapeType":"ADM1"},"geometry":{"type":"Polygon","coordinates":[[[24.4984,56.9026],[24.6099,56.8891],[24.731,56.9002],[24.8023,56.9332],[24.8172,56.9892],[24.7141,56.995],[24.6563,57.0199],[24.6295,57.0633],[24.5079,57.097],[24.464,57.0751],[24.3631,57.0624],[24.3143,57.0267],[24.2262,57.0744],[24.1531,57.0556],[24.2129,57.0169],[24.2724,57.0102],[24.3143,56.9668],[24.2527,56.9543],[24.228,56.8966],[24.2749,56.8702],[24.2705,56.9204],[24.4511,56.9217],[24.4984,56.9026]]]}},
{"type":"Feature","id":"LVA:ADM1:LV-091","properties":{"shapeName":"Siguldas novads","shapeISO":"LV-091","shapeType":"ADM1"},"geometry":{"type":"Polygon","coordinates":[[[25.1462,56.9496],[25.1439,57.0281],[25.1067,57.06],[25.1378,57.0878],[25.088,57.1286],[24.9929,57.126],[24.9735,57.1935],[24.902,57.226],[24.9522,57.2783],[24.91,57.2961],[24.8513,57.3842],[24.7007,57.388],[24.7143,57.3455],[24.6843,57.2977],[24.6793,57.2234],[24.6623,57.1283],[24.5644,57.1369],[24.5091,57.1081],[24.5079,57.097],[24.6295,57.0633],[24.6563,57.0199],[24.7141,56.995],[24.8172,56.9892],[24.8023,56.9332],[24.8969,56.9234],[24.956,56.9475],[25.1462,56.9496]]]}},
{"type":"Feature","id":"LVA:ADM1:preilu-novads","properties":{"shapeName":"Preiļu novads","shapeISO":"LV-073","shapeType":"ADM1"},"geometry":{"type":"Polygon","coordinates":[[[26.3325,56.1906],[26.4975,56.168],[26.7055,56.1071],[26.8658,56.1297],[26.9127,56.0784],[26.9734,56.0621],[27.126,56.1127],[27.1007,56.1716],[27.0619,56.1733],[27.0181,56.2599],[26.9393,56.322],[26.9775,56.3419],[26.8959,56.4077],[26.9547,56.4797],[26.8091,56.4964],[26.8037,56.5464],[26.7432,56.5605],[26.6249,56.5401],[26.5596,56.4844],[26.5836,56.4103],[26.5461,56.3772],[26.611,56.285],[26.5692,56.267],[26.2962,56.29],[26.3325,56.1906]]]}},
{"type":"Feature","id":"LVA:ADM1:LV-047","properties":{"shapeName":"Krāslavas novads","shapeISO":"LV-047","shapeType":"ADM1"},"geometry":{"type":"Polygon","coordinates":[[[27.6719,56.2415],[27.5342,56.2465],[27.4463,56.2088],[27.1482,56.2093],[27.1007,56.1716],[27.126,56.1127],[26.9734,56.0621],[26.9704,56.0112],[26.9351,55.9864],[26.9354,55.871],[26.9843,55.8696],[26.9785,55.8147],[27.0981,55.8289],[27.1521,55.8522],[27.2486,55.7948],[27.3768,55.8077],[27.5511,55.7844],[27.6155,55.787],[27.6397,55.8481],[27.6247,55.8923],[27.653,55.9295],[27.7861,55.977],[27.8388,56.038],[27.9306,56.0683],[27.972,56.1198],[28.0644,56.1366],[28.0692,56.1896],[27.9822,56.1969],[27.7488,56.1952],[27.6719,56.2415]]]}},
{"type":"Feature","id":"LVA:ADM1:LV-DGV","properties":{"shapeName":"Daugavpils","shapeISO":"LV-DGV","shapeType":"ADM1"},"geometry":{"type":"Polygon","coordinates":[[[26.4951,55.8476],[26.6102,55.8618],[26.6113,55.9254],[26.5387,55.9051],[26.4951,55.8476]]]}},
{"type":"Feature","id":"LVA:ADM1:LV-052","properties":{"shapeName":"Ķekavas novads","shapeISO":"LV-052","shapeType":"ADM1"},"geometry":{"type":"Polygon","coordinates":[[[24.2073,56.8818],[24.1693,56.907],[24.1048,56.8805],[24.1398,56.8338],[24.0993,56.7838],[24.0286,56.7615],[24.0647,56.7233],[24.1795,56.7281],[24.2478,56.7127],[24.2695,56.6843],[24.3588,56.6595],[24.5287,56.7181],[24.5415,56.7851],[24.4423,56.8423],[24.2414,56.8326],[24.2073,56.8818]]]}},
{"type":"Feature","id":"LVA:ADM1:LV-068","properties":{"shapeName":"Olaines novads","shapeISO":"LV-068","shapeType":"ADM1"},"geometry":{"type":"Polygon","coordinates":[[[24.0705,56.879],[24.044,56.857],[23.889,56.8442],[23.8336,56.806],[23.7734,56.8016],[23.7581,56.7402],[23.8629,56.7435],[23.9959,56.7264],[24.0426,56.6903],[24.1207,56.6702],[24.2476,56.6943],[24.2478,56.7127],[24.1795,56.7281],[24.0647,56.7233],[24.0286,56.7615],[24.0993,56.7838],[24.1398,56.8338],[24.1048,56.8805],[24.0705,56.879]]]}},
{"type":"Feature","id":"LVA:ADM1:LV-089","properties":{"shapeName":"Saulkrastu novads","shapeISO":"LV-089","shapeType":"ADM1"},"geometry":{"type":"Polygon","coordinates":[[[24.5091,57.1081],[24.5644,57.1369],[24.6623,57.1283],[24.6793,57.2234],[24.5727,57.3173],[24.4208,57.2938],[24.4033,57.3503],[24.4118,57.272],[24.3395,57.1958],[24.4653,57.1829],[24.5091,57.1081]]]}},
{"type":"Feature","id":"LVA:ADM1:LV-054","properties":{"shapeName":"Limbažu novads","shapeISO":"LV-054","shapeType":"ADM1"},"geometry":{"type":"Polygon","coordinates":[[[25.0761,57.5018],[25.008,57.5707],[24.9165,57.5577],[24.9023,57.6147],[24.9787,57.6401],[25.0741,57.6354],[25.0744,57.7693],[25.0075,57.8008],[24.897,57.828],[24.8341,57.9728],[24.7421,57.982],[24.6284,57.9419],[24.5851,57.9621],[24.4623,57.925],[24.4599,57.8801],[24.3438,57.8633],[24.3426,57.7027],[24.3862,57.614],[24.3635,57.5759],[24.4033,57.3503],[24.4208,57.2938],[24.5727,57.3173],[24.6793,57.2234],[24.6843,57.2977],[24.7143,57.3455],[24.7007,57.388],[24.8513,57.3842],[24.8408,57.4043],[25.0761,57.5018]]]}},
{"type":"Feature","id":"LVA:ADM1:LV-111","properties":{"shapeName":"Augšdaugavas novads","shapeISO":"LV-111","shapeType":"ADM1"},"geometry":{"type":"Polygon","coordinates":[[[26.2913,56.1812],[26.2148,56.1723],[26.136,56.1301],[26.1483,56.1045],[26.0519,56.0675],[25.9989,56.088],[25.8782,56.0823],[25.8204,56.052],[25.8603,55.9997],[25.9743,55.9816],[26.0453,55.945],[26.1203,55.8795],[26.2037,55.8589],[26.2686,55.7677],[26.35,55.7424],[26.3756,55.7094],[26.4379,55.7097],[26.5312,55.6768],[26.632,55.6806],[26.6589,55.7062],[26.7998,55.698],[26.8704,55.7138],[26.9202,55.7879],[26.9785,55.8147],[26.9843,55.8696],[26.9354,55.871],[26.9351,55.9864],[26.9704,56.0112],[26.9734,56.0621],[26.9127,56.0784],[26.8658,56.1297],[26.7055,56.1071],[26.4975,56.168],[26.3325,56.1906],[26.2913,56.1812]],[[26.4951,55.8476],[26.5387,55.9051],[26.6113,55.9254],[26.6102,55.8618],[26.4951,55.8476]]]}},
{"type":"Feature","id":"LVA:ADM1:LV-102","properties":{"shapeName":"Varakļānu novads","shapeISO":"LV-102","shapeType":"ADM1"},"geometry":{"type":"Polygon","coordinates":[[[26.6249,56.5401],[26.7432,56.5605],[26.7919,56.6087],[26.7664,56.6764],[26.6351,56.7117],[26.6058,56.6861],[26.5151,56.6723],[26.376,56.6724],[26.3779,56.6415],[26.4891,56.5997],[26.5939,56.595],[26.6249,56.5401]]]}}
]}