{"type":"FeatureCollection","bbox":[20.9691,55.667,28.1691,58.0587],"features":[
{"type":"Feature","id":"LVA:ADM0:LVA","properties":{"shapeName":"Latvia","shapeISO":"LVA","shapeType":"ADM0"},"geometry":{"type":"Polygon","coordinates":[[[27.3529,57.5276],[26.4996,57.5158],[26.0247,57.7744],[25.167,58.0587],[24.2888,57.8453],[24.3792,57.2302],[23.6952,56.9673],[23.2505,57.1144],[23.1302,57.3708],[22.4837,57.7425],[21.6992,57.5553],[21.4016,57.0375],[21.0652,56.8463],[20.9691,56.2535],[22.0941,56.4174],[24.4472,56.2605],[24.8923,56.4387],[25.1092,56.1831],[25.6497,56.1438],[26.5945,55.667],[26.9811,55.8269],[27.5927,55.7942],[28.1691,56.1617],[28.1261,56.5478],[27.6487,56.8793],[27.8403,57.2906],[27.3529,57.5276]]]}}
]}