{"type":"FeatureCollection","bbox":[-61.3796,1.2178,-56.4818,8.4109],"features":[
{"type":"Feature","id":"GUY:ADM0:GUY","properties":{"shapeName":"Guyana","shapeISO":"GUY","shapeType":"ADM0"},"geometry":{"type":"Polygon","coordinates":[[[-56.4818,1.9416],[-56.7052,2.0296],[-57.1746,2.819],[-57.2836,3.3438],[-57.5651,3.3498],[-57.8298,3.6624],[-58.0677,4.1511],[-57.8374,4.6509],[-57.9185,4.8298],[-57.7205,4.9898],[-57.3152,5.0261],[-57.3241,5.3386],[-57.1615,5.6389],[-57.1673,6.0851],[-58.0679,6.8217],[-58.3984,6.8834],[-58.485,7.0108],[-58.4642,7.3122],[-59.1652,8.0587],[-59.7558,8.4109],[-60.0195,8.0603],[-60.3748,7.8236],[-60.5033,7.8209],[-60.7306,7.5254],[-60.6431,7.2209],[-60.2923,7.1053],[-60.421,6.9422],[-61.2048,6.5958],[-61.1216,6.1867],[-61.3796,5.9053],[-60.7399,5.2021],[-60.4564,5.1747],[-60.2134,5.2672],[-59.9831,5.0859],[-60.0877,4.6075],[-59.6867,4.3812],[-59.7385,4.2028],[-59.5292,3.9319],[-59.8377,3.6093],[-59.8285,3.3834],[-59.9594,3.0665],[-60.0001,2.694],[-59.9031,2.3596],[-59.7417,2.2638],[-59.7645,1.9205],[-59.2421,1.3778],[-58.8979,1.2178],[-58.5189,1.2673],[-58.5137,1.4389],[-58.3319,1.5934],[-58.0272,1.5169],[-57.991,1.6504],[-57.5612,1.709],[-57.4295,1.9003],[-57.1045,2.0215],[-56.8065,1.8736],[-56.4818,1.9416]]]}}
]}