{"type":"FeatureCollection","bbox":[-72.0009,17.6048,-68.3562,19.9377],"features":[
{"type":"Feature","id":"DOM:ADM1:DO-15","properties":{"shapeName":"Monte Cristi","shapeISO":"DO-15","shapeType":"ADM1"},"geometry":{"type":"Polygon","coordinates":[[[-71.2218,19.8346],[-71.5046,19.9103],[-71.7445,19.8172],[-71.746,19.649],[-71.5325,19.6196],[-71.4131,19.5445],[-71.1842,19.5365],[-71.134,19.7518],[-71.2218,19.8346]]]}},
{"type":"Feature","id":"DOM:ADM1:DO-05","properties":{"shapeName":"Dajabón","shapeISO":"DO-05","shapeType":"ADM1"},"geometry":{"type":"Polygon","coordinates":[[[-71.746,19.649],[-71.7039,19.4146],[-71.7765,19.3275],[-71.6517,19.2179],[-71.4883,19.2988],[-71.4131,19.5445],[-71.5325,19.6196],[-71.746,19.649]]]}},
{"type":"Feature","id":"DOM:ADM1:DO-07","properties":{"shapeName":"La Estrelleta","shapeISO":"DO-07","shapeType":"ADM1"},"geometry":{"type":"Polygon","coordinates":[[[-71.6517,19.2179],[-71.7837,18.9963],[-71.7188,18.7842],[-71.7849,18.6847],[-71.535,18.6508],[-71.6248,18.9378],[-71.4711,19.1284],[-71.3274,19.1911],[-71.4883,19.2988],[-71.6517,19.2179]]]}},
{"type":"Feature","id":"DOM:ADM1:DO-10","properties":{"shapeName":"Independencia","shapeISO":"DO-10","shapeType":"ADM1"},"geometry":{"type":"Polygon","coordinates":[[[-71.7849,18.6847],[-72.0009,18.5825],[-71.9122,18.4307],[-71.7217,18.293],[-71.4219,18.1359],[-71.2008,18.3384],[-71.5926,18.478],[-71.535,18.6508],[-71.7849,18.6847]]]}},
{"type":"Feature","id":"DOM:ADM1:DO-16","properties":{"shapeName":"Pedernales","shapeISO":"DO-16","shapeType":"ADM1"},"geometry":{"type":"Polygon","coordinates":[[[-71.7217,18.293],[-71.7607,18.0868],[-71.6309,17.8168],[-71.4172,17.6048],[-71.281,17.8531],[-71.4022,17.9639],[-71.4219,18.1359],[-71.7217,18.293]]]}},
{"type":"Feature","id":"DOM:ADM1:DO-11","properties":{"shapeName":"La Altagracia","shapeISO":"DO-11","shapeType":"ADM1"},"geometry":{"type":"Polygon","coordinates":[[[-68.9011,18.4037],[-68.743,18.2045],[-68.5745,18.3782],[-68.4443,18.4195],[-68.3562,18.6566],[-68.7851,18.9799],[-68.8387,18.7634],[-68.9353,18.6657],[-68.852,18.5186],[-68.9011,18.4037]]]}},
{"type":"Feature","id":"DOM:ADM1:DO-08","properties":{"shapeName":"El Seybo","shapeISO":"DO-08","shapeType":"ADM1"},"geometry":{"type":"Polygon","coordinates":[[[-68.7851,18.9799],[-69.1395,19.0512],[-69.2117,19.021],[-69.3286,18.9241],[-69.2353,18.7979],[-69.2536,18.6402],[-69.0927,18.5273],[-68.9353,18.6657],[-68.8387,18.7634],[-68.7851,18.9799]]]}},
{"type":"Feature","id":"DOM:ADM1:DO-30","properties":{"shapeName":"Hato Mayor","shapeISO":"DO-30","shapeType":"ADM1"},"geometry":{"type":"Polygon","coordinates":[[[-69.2117,19.021],[-69.42,19.1112],[-69.6209,19.102],[-69.6378,19.0089],[-69.3809,18.8711],[-69.4591,18.8026],[-69.3537,18.522],[-69.2536,18.6402],[-69.2353,18.7979],[-69.3286,18.9241],[-69.2117,19.021]]]}},
{"type":"Feature","id":"DOM:ADM1:DO-20","properties":{"shapeName":"Samaná","shapeISO":"DO-20","shapeType":"ADM1"},"geometry":{"type":"Polygon","coordinates":[[[-69.6209,19.102],[-69.5394,19.3394],[-69.7715,19.3033],[-69.7861,19.1981],[-69.7558,19.0876],[-69.6378,19.0089],[-69.6209,19.102]]]}},
{"type":"Feature","id":"DOM:ADM1:DO-14","properties":{"shapeName":"María Trinidad Sánchez","shapeISO":"DO-14","shapeType":"ADM1"},"geometry":{"type":"Polygon","coordinates":[[[-69.7715,19.3033],[-69.868,19.4253],[-69.8979,19.636],[-70.094,19.6367],[-70.2151,19.4974],[-69.9913,19.2571],[-69.7861,19.1981],[-69.7715,19.3033]]]}},
{"type":"Feature","id":"DOM:ADM1:DO-09","properties":{"shapeName":"Espaillat","shapeISO":"DO-09","shapeType":"ADM1"},"geometry":{"type":"Polygon","coordinates":[[[-70.094,19.6367],[-70.3727,19.7142],[-70.4942,19.6507],[-70.5477,19.5178],[-70.6139,19.3688],[-70.4673,19.3188],[-70.4423,19.5003],[-70.2366,19.4992],[-70.2151,19.4974],[-70.094,19.6367]]]}},
{"type":"Feature","id":"DOM:ADM1:DO-18","properties":{"shapeName":"Puerto Plata","shapeISO":"DO-18","shapeType":"ADM1"},"geometry":{"type":"Polygon","coordinates":[[[-71.134,19.7518],[-70.8641,19.6417],[-70.6588,19.6287],[-70.5477,19.5178],[-70.4942,19.6507],[-70.3727,19.7142],[-70.6237,19.7665],[-70.831,19.9025],[-71.0009,19.9377],[-71.2218,19.8346],[-71.134,19.7518]]]}},
{"type":"Feature","id":"DOM:ADM1:DO-04","properties":{"shapeName":"Barahona","shapeISO":"DO-04","shapeType":"ADM1"},"geometry":{"type":"Polygon","coordinates":[[[-71.4219,18.1359],[-71.4022,17.9639],[-71.281,17.8531],[-71.2043,17.9111],[-70.9656,18.2621],[-71.0148,18.502],[-71.2008,18.3384],[-71.4219,18.1359]]]}},
{"type":"Feature","id":"DOM:ADM1:DO-02","properties":{"shapeName":"Azua","shapeISO":"DO-02","shapeType":"ADM1"},"geometry":{"type":"Polygon","coordinates":[[[-70.9656,18.2621],[-70.7038,18.4301],[-70.5794,18.2718],[-70.4791,18.4132],[-70.7,18.6768],[-70.8912,18.9885],[-70.9825,18.7826],[-71.1613,18.6159],[-71.0148,18.502],[-70.9656,18.2621]]]}},
{"type":"Feature","id":"DOM:ADM1:DO-17","properties":{"shapeName":"Peravia","shapeISO":"DO-17","shapeType":"ADM1"},"geometry":{"type":"Polygon","coordinates":[[[-70.5794,18.2718],[-70.1804,18.2341],[-70.3566,18.5036],[-70.4791,18.4132],[-70.5794,18.2718]]]}},
{"type":"Feature","id":"DOM:ADM1:DO-21","properties":{"shapeName":"San Cristóbal","shapeISO":"DO-21","shapeType":"ADM1"},"geometry":{"type":"Polygon","coordinates":[[[-70.1804,18.2341],[-70.004,18.4175],[-70.1236,18.5312],[-70.1672,18.7317],[-70.2512,18.8017],[-70.35,18.7202],[-70.3566,18.5036],[-70.1804,18.2341]]]}},
{"type":"Feature","id":"DOM:ADM1:DO-32","properties":{"shapeName":"Santo Domingo","shapeISO":"DO-32","shapeType":"ADM1"},"geometry":{"type":"Polygon","coordinates":[[[-70.004,18.4175],[-69.9809,18.4265],[-69.9974,18.4939],[-69.8794,18.4712],[-69.5281,18.4103],[-69.6166,18.52],[-69.5753,18.6482],[-69.798,18.6001],[-69.8883,18.7013],[-70.0088,18.6622],[-70.1672,18.7317],[-70.1236,18.5312],[-70.004,18.4175]]]}},
{"type":"Feature","id":"DOM:ADM1:DO-01","properties":{"shapeName":"Distrito Nacional","shapeISO":"DO-01","shapeType":"ADM1"},"geometry":{"type":"Polygon","coordinates":[[[-69.9809,18.4265],[-69.8794,18.4712],[-69.9974,18.4939],[-69.9809,18.4265]]]}},
{"type":"Feature","id":"DOM:ADM1:DO-23","properties":{"shapeName":"San Pedro de Macorís","shapeISO":"DO-23","shapeType":"ADM1"},"geometry":{"type":"Polygon","coordinates":[[[-69.2536,18.6402],[-69.3537,18.522],[-69.4591,18.8026],[-69.5753,18.6482],[-69.6166,18.52],[-69.5281,18.4103],[-69.2363,18.4505],[-69.0854,18.3959],[-69.0927,18.5273],[-69.2536,18.6402]]]}},
{"type":"Feature","id":"DOM:ADM1:DO-12","properties":{"shapeName":"La Romana","shapeISO":"DO-12","shapeType":"ADM1"},"geometry":{"type":"Polygon","coordinates":[[[-68.9353,18.6657],[-69.0927,18.5273],[-69.0854,18.3959],[-68.9011,18.4037],[-68.852,18.5186],[-68.9353,18.6657]]]}},
{"type":"Feature","id":"DOM:ADM1:DO-27","properties":{"shapeName":"Valverde","shapeISO":"DO-27","shapeType":"ADM1"},"geometry":{"type":"Polygon","coordinates":[[[-71.1842,19.5365],[-71.0752,19.4681],[-70.9044,19.4816],[-70.8641,19.6417],[-71.134,19.7518],[-71.1842,19.5365]]]}},
{"type":"Feature","id":"DOM:ADM1:DO-26","properties":{"shapeName":"Santiago Rodríguez","shapeISO":"DO-26","shapeType":"ADM1"},"geometry":{"type":"Polygon","coordinates":[[[-71.4131,19.5445],[-71.4883,19.2988],[-71.3274,19.1911],[-71.2308,19.1702],[-71.2409,19.329],[-71.0752,19.4681],[-71.1842,19.5365],[-71.4131,19.5445]]]}},
{"type":"Feature","id":"DOM:ADM1:DO-13","properties":{"shapeName":"La Vega","shapeISO":"DO-13","shapeType":"ADM1"},"geometry":{"type":"Polygon","coordinates":[[[-70.6139,19.3688],[-70.6783,19.2488],[-70.9162,19.0259],[-70.8912,18.9885],[-70.7,18.6768],[-70.5337,18.7879],[-70.5924,18.8532],[-70.5018,19.0742],[-70.3923,19.0723],[-70.2814,19.1464],[-70.3636,19.2249],[-70.4673,19.3188],[-70.6139,19.3688]]]}},
{"type":"Feature","id":"DOM:ADM1:DO-19","properties":{"shapeName":"Hermanas","shapeISO":"DO-19","shapeType":"ADM1"},"geometry":{"type":"Polygon","coordinates":[[[-70.4673,19.3188],[-70.3636,19.2249],[-70.2366,19.4992],[-70.4423,19.5003],[-70.4673,19.3188]]]}},
{"type":"Feature","id":"DOM:ADM1:DO-06","properties":{"shapeName":"Duarte","shapeISO":"DO-06","shapeType":"ADM1"},"geometry":{"type":"Polygon","coordinates":[[[-69.7861,19.1981],[-69.9913,19.2571],[-70.2151,19.4974],[-70.2366,19.4992],[-70.3636,19.2249],[-70.2814,19.1464],[-70.0891,19.1443],[-69.9203,19.0393],[-69.7558,19.0876],[-69.7861,19.1981]]]}},
{"type":"Feature","id":"DOM:ADM1:DO-25","properties":{"shapeName":"Santiago","shapeISO":"DO-25","shapeType":"ADM1"},"geometry":{"type":"Polygon","coordinates":[[[-70.5477,19.5178],[-70.6588,19.6287],[-70.8641,19.6417],[-70.9044,19.4816],[-71.0752,19.4681],[-71.2409,19.329],[-71.2308,19.1702],[-71.0154,19.0256],[-70.9162,19.0259],[-70.6783,19.2488],[-70.6139,19.3688],[-70.5477,19.5178]]]}},
{"type":"Feature","id":"DOM:ADM1:DO-03","properties":{"shapeName":"Bahoruco","shapeISO":"DO-03","shapeType":"ADM1"},"geometry":{"type":"Polygon","coordinates":[[[-71.2008,18.3384],[-71.0148,18.502],[-71.1613,18.6159],[-71.3449,18.5996],[-71.535,18.6508],[-71.5926,18.478],[-71.2008,18.3384]]]}},
{"type":"Feature","id":"DOM:ADM1:DO-22","properties":{"shapeName":"San Juan","shapeISO":"DO-22","shapeType":"ADM1"},"geometry":{"type":"Polygon","coordinates":[[[-71.535,18.6508],[-71.3449,18.5996],[-71.1613,18.6159],[-70.9825,18.7826],[-70.8912,18.9885],[-70.9162,19.0259],[-71.0154,19.0256],[-71.2308,19.1702],[-71.3274,19.1911],[-71.4711,19.1284],[-71.6248,18.9378],[-71.535,18.6508]]]}},
{"type":"Feature","id":"DOM:ADM1:DO-28","properties":{"shapeName":"Monseñor Nouel","shapeISO":"DO-28","shapeType":"ADM1"},"geometry":{"type":"Polygon","coordinates":[[[-70.2512,18.8017],[-70.2238,18.8548],[-70.3923,19.0723],[-70.5018,19.0742],[-70.5924,18.8532],[-70.5337,18.7879],[-70.35,18.7202],[-70.2512,18.8017]]]}},
{"type":"Feature","id":"DOM:ADM1:DO-24","properties":{"shapeName":"Sánchez Ramírez","shapeISO":"DO-24","shapeType":"ADM1"},"geometry":{"type":"Polygon","coordinates":[[[-70.3923,19.0723],[-70.2238,18.8548],[-69.9525,18.91],[-69.9203,19.0393],[-70.0891,19.1443],[-70.2814,19.1464],[-70.3923,19.0723]]]}},
{"type":"Feature","id":"DOM:ADM1:DO-31","properties":{"shapeName":"San José de Ocoa","shapeISO":"DO-31","shapeType":"ADM1"},"geometry":{"type":"Polygon","coordinates":[[[-70.4791,18.4132],[-70.3566,18.5036],[-70.35,18.7202],[-70.5337,18.7879],[-70.7,18.6768],[-70.4791,18.4132]]]}},
{"type":"Feature","id":"DOM:ADM1:DO-29","properties":{"shapeName":"Monte Plata","shapeISO":"DO-29","shapeType":"ADM1"},"geometry":{"type":"Polygon","coordinates":[[[-69.6378,19.0089],[-69.7558,19.0876],[-69.9203,19.0393],[-69.9525,18.91],[-70.2238,18.8548],[-70.2512,18.8017],[-70.1672,18.7317],[-70.0088,18.6622],[-69.8883,18.7013],[-69.798,18.6001],[-69.5753,18.6482],[-69.4591,18.8026],[-69.3809,18.8711],[-69.6378,19.0089]]]}}
]}