{"type":"FeatureCollection","bbox":[-65.085362,17.675011,-64.565594,18.41242],"features":[
{"type":"Feature","id":"VIR:ADM3:central","properties":{"shapeName":"Central","shapeISO":"","shapeGroup":"VIR","shapeType":"ADM3","parentISO":"VIR","parentID":"VIR:ADM0:VIR","src_shape_id":"14107722B57080281041215"},"geometry":{"type":"MultiPolygon","coordinates":[[[[-64.677433,18.347695],[-64.67853,18.347745],[-64.680222,18.350614],[-64.680393,18.352275],[-64.684368,18.352641],[-64.687308,18.354953],[-64.687413,18.358621],[-64.691256,18.361112],[-64.694805,18.361902],[-64.706135,18.361121],[-64.70632,18.363145],[-64.707949,18.365096],[-64.711662,18.367014],[-64.714419,18.367285],[-64.717652,18.366337],[-64.720219,18.367149],[-64.72117,18.365391],[-64.720095,18.363142],[-64.722482,18.36226],[-64.726655,18.364266],[-64.732996,18.363333],[-64.739296,18.364948],[-64.738166,18.366909],[-64.73572,18.366457],[-64.733324,18.369109],[-64.735401,18.37089],[-64.744089,18.372766],[-64.748836,18.372905],[-64.751218,18.372204],[-64.752275,18.370423],[-64.750908,18.368313],[-64.745679,18.36757],[-64.743433,18.364879],[-64.74446,18.361019],[-64.744554,18.357512],[-64.746609,18.355678],[-64.751327,18.357668],[-64.753604,18.354805],[-64.756931,18.3528],[-64.759692,18.352434],[-64.762107,18.35307],[-64.765494,18.3559],[-64.769104,18.354927],[-64.768409,18.353017],[-64.769582,18.351678],[-64.77323,18.351099],[-64.774376,18.353222],[-64.777704,18.35356],[-64.778773,18.352207],[-64.777146,18.347736],[-64.780458,18.346016],[-64.78447,18.347627],[-64.78411,18.351092],[-64.784957,18.353252],[-64.787118,18.352508],[-64.787887,18.350303],[-64.786847,18.348653],[-64.788664,18.345691],[-64.7869,18.344229],[-64.787235,18.341813],[-64.789982,18.341559],[-64.791165,18.340012],[-64.797997,18.336938],[-64.798153,18.334671],[-64.794827,18.33412],[-64.794056,18.332625],[-64.788249,18.333417],[-64.787156,18.336662],[-64.784003,18.33597],[-64.77614,18.336547],[-64.77612,18.337343],[-64.770354,18.338177],[-64.76917,18.33744],[-64.765045,18.338942],[-64.762701,18.334615],[-64.767776,18.330999],[-64.764513,18.329485],[-64.76051,18.32534],[-64.759394,18.319676],[-64.761906,18.319009],[-64.762064,18.317154],[-64.75962,18.316238],[-64.756597,18.316997],[-64.751976,18.320847],[-64.751707,18.32181],[-64.74804,18.324584],[-64.746638,18.324442],[-64.745356,18.321951],[-64.737603,18.316997],[-64.732415,18.315384],[-64.731278,18.318285],[-64.729374,18.317733],[-64.728062,18.319743],[-64.724961,18.318951],[-64.720718,18.318892],[-64.720803,18.313708],[-64.722553,18.312563],[-64.721347,18.310569],[-64.722008,18.308428],[-64.719986,18.307652],[-64.719128,18.310552],[-64.717536,18.312009],[-64.716299,18.309404],[-64.714774,18.308391],[-64.712324,18.308686],[-64.711775,18.306799],[-64.706879,18.309461],[-64.705245,18.307837],[-64.706918,18.306286],[-64.705845,18.304177],[-64.7031,18.303246],[-64.703884,18.300082],[-64.701628,18.299085],[-64.700187,18.303117],[-64.701587,18.306419],[-64.702623,18.311187],[-64.702184,18.311886],[-64.706953,18.311174],[-64.707634,18.313078],[-64.705627,18.316499],[-64.707646,18.317609],[-64.70777,18.319655],[-64.706197,18.322139],[-64.709284,18.326545],[-64.710232,18.328851],[-64.713291,18.330093],[-64.714269,18.333445],[-64.716295,18.33738],[-64.721203,18.342873],[-64.724912,18.34346],[-64.72665,18.341026],[-64.721295,18.337236],[-64.727935,18.335298],[-64.729108,18.336753],[-64.73669,18.340604],[-64.736587,18.342479],[-64.738698,18.344372],[-64.739574,18.348745],[-64.73452,18.350151],[-64.72883,18.356749],[-64.721727,18.357307],[-64.717361,18.356065],[-64.714081,18.353186],[-64.709521,18.353824],[-64.706383,18.351412],[-64.707032,18.348136],[-64.710202,18.346419],[-64.708877,18.345205],[-64.708764,18.341737],[-64.70684,18.34048],[-64.702661,18.342374],[-64.702094,18.344866],[-64.705202,18.347976],[-64.703669,18.351305],[-64.70411,18.353996],[-64.702041,18.355233],[-64.699806,18.353361],[-64.695121,18.354175],[-64.694667,18.356124],[-64.691332,18.356673],[-64.691253,18.354105],[-64.693065,18.353108],[-64.688605,18.349962],[-64.689135,18.348151],[-64.693261,18.345098],[-64.691814,18.343062],[-64.692772,18.340147],[-64.690743,18.33992],[-64.690007,18.342033],[-64.688275,18.342927],[-64.686528,18.346789],[-64.684841,18.347304],[-64.681144,18.346741],[-64.679191,18.347962],[-64.678648,18.347491],[-64.677433,18.347695]]],[[[-64.806429,18.367448],[-64.805567,18.366117],[-64.799438,18.367579],[-64.800005,18.369657],[-64.806269,18.368338],[-64.806429,18.367448]]],[[[-64.812782,18.362053],[-64.812508,18.361064],[-64.809169,18.358703],[-64.807563,18.360397],[-64.80526,18.361022],[-64.80152,18.360356],[-64.798349,18.363564],[-64.799562,18.365219],[-64.802067,18.365145],[-64.803146,18.363766],[-64.807901,18.362657],[-64.812782,18.362053]]],[[[-64.824536,18.360667],[-64.822584,18.358838],[-64.816577,18.358075],[-64.815601,18.360484],[-64.82292,18.360942],[-64.824536,18.360667]]],[[[-64.839322,18.357641],[-64.838928,18.356673],[-64.834019,18.357527],[-64.826426,18.359387],[-64.827158,18.360942],[-64.836509,18.359043],[-64.839322,18.357641]]]]}},
{"type":"Feature","id":"VIR:ADM3:frederiksted","properties":{"shapeName":"Frederiksted","shapeISO":"","shapeGroup":"VIR","shapeType":"ADM3","parentISO":"VIR","parentID":"VIR:ADM0:VIR","src_shape_id":"14107722B15861276143824"},"geometry":{"type":"Polygon","coordinates":[[[-64.884265,17.718305],[-64.883497,17.710622],[-64.883639,17.708003],[-64.885763,17.701816],[-64.88465,17.70197],[-64.885168,17.693982],[-64.86476,17.70056],[-64.86716,17.70664],[-64.87305,17.71154],[-64.87578,17.71454],[-64.87698,17.71853],[-64.88189,17.71912],[-64.884265,17.718305]]]}},
{"type":"Feature","id":"VIR:ADM3:northside","properties":{"shapeName":"Northside","shapeISO":"","shapeGroup":"VIR","shapeType":"ADM3","parentISO":"VIR","parentID":"VIR:ADM0:VIR","src_shape_id":"14107722B24288160029538"},"geometry":{"type":"MultiPolygon","coordinates":[[[[-64.910262,18.411315],[-64.908868,18.408169],[-64.904553,18.406322],[-64.902931,18.408159],[-64.903059,18.409908],[-64.905465,18.412122],[-64.90812,18.41242],[-64.910262,18.411315]]],[[[-64.916591,18.40507],[-64.91549,18.401754],[-64.912762,18.400732],[-64.912269,18.399088],[-64.913354,18.395734],[-64.911207,18.393349],[-64.910425,18.39094],[-64.908497,18.390498],[-64.907655,18.387575],[-64.905178,18.388073],[-64.903995,18.391353],[-64.899292,18.393721],[-64.901131,18.397072],[-64.905286,18.402704],[-64.907732,18.404068],[-64.912046,18.405395],[-64.916591,18.40507]]],[[[-64.974643,18.401056],[-64.974643,18.398106],[-64.973511,18.396307],[-64.974122,18.393331],[-64.970941,18.391604],[-64.968253,18.392608],[-64.968648,18.394966],[-64.970945,18.396738],[-64.973794,18.401115],[-64.974643,18.401056]]],[[[-64.975713,18.38615],[-64.973573,18.382759],[-64.973185,18.380842],[-64.969268,18.379166],[-64.966565,18.376421],[-64.965664,18.377504],[-64.966438,18.379789],[-64.968139,18.381607],[-64.967729,18.384214],[-64.970304,18.384507],[-64.973228,18.38669],[-64.975713,18.38615]]],[[[-64.977936,18.371989],[-64.97509,18.37036],[-64.976804,18.368849],[-64.975632,18.365426],[-64.97627,18.36269],[-64.97827,18.36257],[-64.97943,18.36055],[-64.9776,18.35759],[-64.97948,18.35662],[-64.98376,18.3576],[-64.987825,18.353905],[-64.98362,18.34948],[-64.98373,18.34773],[-64.979833,18.345388],[-64.977036,18.3431],[-64.974767,18.341707],[-64.972948,18.346589],[-64.967213,18.347207],[-64.964113,18.348615],[-64.961663,18.348857],[-64.95988,18.34614],[-64.957201,18.346667],[-64.955091,18.345095],[-64.946121,18.345211],[-64.943552,18.344925],[-64.932606,18.34794],[-64.930634,18.348861],[-64.921841,18.348303],[-64.922788,18.344005],[-64.921294,18.343835],[-64.920692,18.34128],[-64.91468,18.33908],[-64.91077,18.3387],[-64.90966,18.33603],[-64.90803,18.33524],[-64.905379,18.335665],[-64.901878,18.334883],[-64.89877,18.33505],[-64.89974,18.34252],[-64.90343,18.34498],[-64.90215,18.34769],[-64.898195,18.34763],[-64.891767,18.349607],[-64.892378,18.351818],[-64.889522,18.354375],[-64.890615,18.355598],[-64.889671,18.357801],[-64.890857,18.361797],[-64.89286,18.362828],[-64.89558,18.360756],[-64.90299,18.364752],[-64.909359,18.365866],[-64.914058,18.365599],[-64.915164,18.367852],[-64.918614,18.369729],[-64.921322,18.3701],[-64.923265,18.372655],[-64.925994,18.375013],[-64.93309,18.378266],[-64.934815,18.376476],[-64.931333,18.37378],[-64.928583,18.372366],[-64.922064,18.366345],[-64.921933,18.365472],[-64.924963,18.360448],[-64.927294,18.358823],[-64.931347,18.359799],[-64.934277,18.361985],[-64.936342,18.362235],[-64.939798,18.364098],[-64.942278,18.367037],[-64.942468,18.36969],[-64.945147,18.370511],[-64.94645,18.372198],[-64.948553,18.372376],[-64.950709,18.376069],[-64.952461,18.375529],[-64.95103,18.37051],[-64.951917,18.369183],[-64.956055,18.368852],[-64.95903,18.370375],[-64.967181,18.368661],[-64.972116,18.371383],[-64.977936,18.371989]]]]}},
{"type":"Feature","id":"VIR:ADM3:east-end","properties":{"shapeName":"East End","shapeISO":"","shapeGroup":"VIR","shapeType":"ADM3","parentISO":"VIR","parentID":"VIR:ADM0:VIR","src_shape_id":"14107722B29975845079470"},"geometry":{"type":"MultiPolygon","coordinates":[[[[-64.828779,18.299649],[-64.828181,18.29753],[-64.825612,18.298821],[-64.823256,18.297591],[-64.821738,18.298049],[-64.824068,18.301205],[-64.825698,18.301771],[-64.828975,18.301224],[-64.828779,18.299649]]],[[[-64.832977,18.307213],[-64.832084,18.304956],[-64.829654,18.305651],[-64.828563,18.308254],[-64.825736,18.310561],[-64.823033,18.311305],[-64.82462,18.313512],[-64.826232,18.312544],[-64.828365,18.315099],[-64.830921,18.315412],[-64.830646,18.309222],[-64.832977,18.307213]]],[[[-64.874619,18.360818],[-64.874539,18.359244],[-64.866607,18.359068],[-64.86409,18.357488],[-64.853651,18.357024],[-64.851357,18.355527],[-64.848489,18.356873],[-64.848255,18.359098],[-64.851343,18.36112],[-64.857006,18.359771],[-64.865173,18.360503],[-64.869037,18.361703],[-64.874619,18.360818]]],[[[-64.891767,18.349607],[-64.88407,18.34961],[-64.88222,18.34837],[-64.88015,18.34439],[-64.881818,18.341416],[-64.878836,18.338949],[-64.871751,18.337372],[-64.871472,18.335085],[-64.874869,18.334535],[-64.877943,18.334994],[-64.878409,18.33308],[-64.881148,18.331236],[-64.88311,18.32899],[-64.88122,18.3264],[-64.87721,18.32357],[-64.87864,18.3199],[-64.88025,18.31941],[-64.881269,18.31707],[-64.876095,18.316653],[-64.875366,18.316132],[-64.871247,18.31889],[-64.869346,18.318675],[-64.866639,18.321379],[-64.865482,18.319685],[-64.866446,18.316903],[-64.861802,18.317551],[-64.861029,18.318681],[-64.858144,18.318235],[-64.85734,18.319577],[-64.852919,18.318824],[-64.851867,18.315704],[-64.848067,18.314811],[-64.846344,18.312021],[-64.843754,18.31322],[-64.845146,18.314756],[-64.844829,18.317262],[-64.840834,18.317399],[-64.838938,18.315344],[-64.836815,18.315983],[-64.838208,18.318791],[-64.842885,18.32112],[-64.842974,18.32234],[-64.840179,18.324124],[-64.837719,18.324821],[-64.835836,18.324035],[-64.832386,18.323916],[-64.833843,18.326534],[-64.838366,18.326832],[-64.842588,18.324481],[-64.846008,18.323262],[-64.848314,18.324529],[-64.853329,18.322403],[-64.853722,18.324781],[-64.846138,18.328332],[-64.84495,18.329498],[-64.845827,18.331768],[-64.849235,18.333209],[-64.851156,18.335476],[-64.852775,18.339804],[-64.854869,18.33801],[-64.86363,18.344896],[-64.867856,18.346193],[-64.868646,18.350691],[-64.872985,18.352013],[-64.877925,18.351916],[-64.881122,18.352837],[-64.880662,18.354362],[-64.884028,18.355646],[-64.886886,18.354484],[-64.889522,18.354375],[-64.892378,18.351818],[-64.891767,18.349607]]]]}},
{"type":"Feature","id":"VIR:ADM3:east-end-2","properties":{"shapeName":"East End","shapeISO":"","shapeGroup":"VIR","shapeType":"ADM3","parentISO":"VIR","parentID":"VIR:ADM0:VIR","src_shape_id":"14107722B33559227839929"},"geometry":{"type":"MultiPolygon","coordinates":[[[[-64.62765,17.788571],[-64.626726,17.786084],[-64.624006,17.785232],[-64.622584,17.783836],[-64.613091,17.786341],[-64.612678,17.788098],[-64.617296,17.788437],[-64.62438,17.790172],[-64.62765,17.788571]]],[[[-64.667258,17.765325],[-64.665367,17.764596],[-64.664135,17.767837],[-64.665981,17.768468],[-64.667258,17.765325]]],[[[-64.696007,17.749942],[-64.693811,17.747415],[-64.693003,17.745105],[-64.69103,17.74595],[-64.68587,17.7453],[-64.68507,17.74584],[-64.67834,17.74446],[-64.671605,17.739559],[-64.66915,17.73734],[-64.669,17.73521],[-64.6669,17.728411],[-64.66827,17.72628],[-64.664787,17.714525],[-64.663413,17.71802],[-64.662161,17.71915],[-64.657545,17.721393],[-64.649886,17.723656],[-64.642984,17.723136],[-64.641276,17.722049],[-64.637825,17.722083],[-64.634442,17.723894],[-64.63073,17.728824],[-64.627448,17.7295],[-64.626856,17.730834],[-64.62126,17.731642],[-64.619534,17.733631],[-64.61696,17.734873],[-64.613843,17.735186],[-64.609632,17.733175],[-64.609089,17.736884],[-64.606164,17.740177],[-64.603612,17.744904],[-64.602391,17.745789],[-64.597881,17.745228],[-64.596662,17.746604],[-64.588718,17.746862],[-64.585767,17.745022],[-64.581267,17.747166],[-64.5785,17.746906],[-64.577208,17.745836],[-64.575305,17.747991],[-64.570349,17.751771],[-64.567984,17.75187],[-64.565594,17.755207],[-64.566806,17.757064],[-64.571498,17.757606],[-64.574409,17.759809],[-64.577684,17.75903],[-64.580617,17.759688],[-64.58251,17.761905],[-64.583834,17.761869],[-64.585109,17.758867],[-64.59024,17.757478],[-64.592538,17.75597],[-64.595311,17.756834],[-64.599283,17.756514],[-64.601781,17.754356],[-64.605054,17.754532],[-64.610659,17.757331],[-64.611713,17.760468],[-64.613131,17.760107],[-64.616762,17.761163],[-64.619758,17.759139],[-64.624648,17.759546],[-64.626405,17.758897],[-64.630355,17.760546],[-64.632613,17.758675],[-64.636584,17.759558],[-64.639299,17.75872],[-64.644587,17.759758],[-64.646422,17.7615],[-64.649496,17.761388],[-64.656819,17.763212],[-64.657849,17.760352],[-64.660072,17.759523],[-64.666761,17.761117],[-64.669616,17.760699],[-64.671891,17.761294],[-64.673669,17.759268],[-64.677222,17.759654],[-64.679296,17.760669],[-64.682032,17.759447],[-64.681834,17.757381],[-64.68505,17.75442],[-64.687186,17.754058],[-64.691309,17.755027],[-64.693633,17.75347],[-64.696007,17.749942]]]]}},
{"type":"Feature","id":"VIR:ADM3:southcentral","properties":{"shapeName":"Southcentral","shapeISO":"","shapeGroup":"VIR","shapeType":"ADM3","parentISO":"VIR","parentID":"VIR:ADM0:VIR","src_shape_id":"14107722B28780315816844"},"geometry":{"type":"MultiPolygon","coordinates":[[[[-64.762891,17.684497],[-64.761329,17.68236],[-64.759355,17.68359],[-64.760462,17.685051],[-64.762891,17.684497]]],[[[-64.830665,17.711108],[-64.825127,17.694669],[-64.822286,17.687124],[-64.82002,17.688623],[-64.813857,17.689596],[-64.807555,17.692383],[-64.800607,17.693997],[-64.798774,17.693241],[-64.793757,17.69372],[-64.791443,17.695345],[-64.784628,17.696476],[-64.777123,17.695348],[-64.770993,17.691887],[-64.766769,17.69005],[-64.764553,17.691487],[-64.765666,17.694797],[-64.769563,17.700223],[-64.772348,17.702673],[-64.7721,17.70862],[-64.769923,17.708554],[-64.768095,17.704287],[-64.764088,17.697412],[-64.761391,17.696728],[-64.75891,17.698343],[-64.75607,17.698378],[-64.751041,17.70085],[-64.749755,17.700013],[-64.745477,17.701658],[-64.743114,17.695884],[-64.740391,17.696662],[-64.740182,17.700641],[-64.735182,17.704117],[-64.730914,17.704405],[-64.72845,17.703847],[-64.72873,17.70642],[-64.73514,17.72539],[-64.736946,17.730744],[-64.748325,17.727276],[-64.74907,17.72864],[-64.754836,17.72788],[-64.755402,17.729078],[-64.76093,17.72764],[-64.7625,17.73204],[-64.77382,17.72854],[-64.780944,17.726282],[-64.813555,17.716323],[-64.830665,17.711108]]]]}},
{"type":"Feature","id":"VIR:ADM3:west-end","properties":{"shapeName":"West End","shapeISO":"","shapeGroup":"VIR","shapeType":"ADM3","parentISO":"VIR","parentID":"VIR:ADM0:VIR","src_shape_id":"14107722B91101269147428"},"geometry":{"type":"MultiPolygon","coordinates":[[[[-65.002856,18.304621],[-65.002022,18.30378],[-64.999004,18.304312],[-64.998217,18.305337],[-64.99945,18.308769],[-65.001562,18.308466],[-65.001403,18.306599],[-65.002856,18.304621]]],[[[-64.977936,18.371989],[-64.982282,18.372048],[-64.985541,18.370723],[-64.989898,18.371616],[-64.991411,18.370634],[-64.991583,18.366917],[-64.994172,18.363867],[-64.994395,18.361321],[-64.997287,18.361642],[-64.999466,18.363504],[-65.00057,18.366068],[-65.002924,18.365904],[-65.00454,18.367659],[-65.006455,18.367012],[-65.005776,18.363965],[-65.006563,18.36253],[-65.011407,18.362347],[-65.017414,18.361229],[-65.020343,18.361155],[-65.027012,18.361822],[-65.027861,18.359997],[-65.031997,18.360295],[-65.031894,18.357543],[-65.034109,18.353628],[-65.037307,18.352461],[-65.041111,18.35359],[-65.041664,18.352701],[-65.037025,18.348607],[-65.033858,18.346551],[-65.030407,18.345635],[-65.028606,18.342343],[-65.026462,18.341304],[-65.02254,18.341499],[-65.021889,18.34384],[-65.013646,18.344785],[-65.011537,18.342272],[-65.010086,18.343955],[-65.006982,18.345311],[-65.001644,18.346286],[-64.996899,18.34999],[-64.995736,18.351533],[-64.991944,18.351393],[-64.987662,18.35007],[-64.98582,18.348386],[-64.985669,18.346306],[-64.979833,18.345388],[-64.98373,18.34773],[-64.98362,18.34948],[-64.987825,18.353905],[-64.98376,18.3576],[-64.97948,18.35662],[-64.9776,18.35759],[-64.97943,18.36055],[-64.97827,18.36257],[-64.97627,18.36269],[-64.975632,18.365426],[-64.976804,18.368849],[-64.97509,18.37036],[-64.977936,18.371989]]],[[[-65.048149,18.360299],[-65.046032,18.356665],[-65.044253,18.356613],[-65.043323,18.359252],[-65.048149,18.360299]]],[[[-65.055991,18.363133],[-65.052013,18.359301],[-65.050792,18.359081],[-65.04962,18.361766],[-65.054112,18.363597],[-65.055991,18.363133]]],[[[-65.063721,18.380562],[-65.063188,18.378447],[-65.060688,18.378666],[-65.059934,18.381778],[-65.063721,18.380562]]],[[[-65.085362,18.336817],[-65.083829,18.33576],[-65.080303,18.337014],[-65.077466,18.337085],[-65.077252,18.338659],[-65.074791,18.339749],[-65.073888,18.341559],[-65.07535,18.343849],[-65.07733,18.34501],[-65.082005,18.341703],[-65.082351,18.338717],[-65.08435,18.338594],[-65.085362,18.336817]]]]}},
{"type":"Feature","id":"VIR:ADM3:northcentral","properties":{"shapeName":"Northcentral","shapeISO":"","shapeGroup":"VIR","shapeType":"ADM3","parentISO":"VIR","parentID":"VIR:ADM0:VIR","src_shape_id":"14107722B85576057808906"},"geometry":{"type":"Polygon","coordinates":[[[-64.77382,17.72854],[-64.77653,17.73671],[-64.77181,17.74905],[-64.76789,17.75469],[-64.764632,17.757695],[-64.76384,17.76335],[-64.759491,17.768124],[-64.760324,17.769263],[-64.760247,17.77414],[-64.758829,17.77907],[-64.761227,17.781108],[-64.765685,17.780961],[-64.767009,17.780091],[-64.771505,17.780758],[-64.775967,17.78304],[-64.778877,17.783846],[-64.782116,17.783644],[-64.789754,17.78165],[-64.791308,17.779845],[-64.798119,17.778168],[-64.804759,17.779045],[-64.808293,17.777477],[-64.810616,17.772532],[-64.822724,17.766227],[-64.8214,17.7634],[-64.82164,17.75767],[-64.8169,17.75219],[-64.819,17.74932],[-64.81281,17.74223],[-64.814159,17.741074],[-64.815715,17.737754],[-64.81529,17.72964],[-64.81776,17.72869],[-64.813555,17.716323],[-64.780944,17.726282],[-64.77382,17.72854]]]}},
{"type":"Feature","id":"VIR:ADM3:anna-s-hope-village","properties":{"shapeName":"Anna's Hope Village","shapeISO":"","shapeGroup":"VIR","shapeType":"ADM3","parentISO":"VIR","parentID":"VIR:ADM0:VIR","src_shape_id":"14107722B43744720873682"},"geometry":{"type":"Polygon","coordinates":[[[-64.693003,17.745105],[-64.696493,17.744151],[-64.695674,17.741622],[-64.69851,17.740922],[-64.699092,17.742519],[-64.70121,17.74257],[-64.703043,17.741115],[-64.7085,17.739253],[-64.713578,17.739356],[-64.716666,17.740417],[-64.720257,17.739603],[-64.720093,17.736176],[-64.72301,17.73501],[-64.723347,17.732818],[-64.72596,17.7299],[-64.73233,17.726092],[-64.73514,17.72539],[-64.72873,17.70642],[-64.72845,17.703847],[-64.726988,17.703516],[-64.71776,17.699069],[-64.716007,17.700642],[-64.712102,17.701899],[-64.709108,17.70466],[-64.70524,17.705601],[-64.703307,17.703816],[-64.701118,17.70378],[-64.698234,17.706191],[-64.695862,17.706469],[-64.692089,17.705541],[-64.687299,17.706984],[-64.685441,17.708064],[-64.684325,17.710791],[-64.68055,17.711035],[-64.675118,17.713811],[-64.670418,17.714518],[-64.666652,17.713385],[-64.664787,17.714525],[-64.66827,17.72628],[-64.6669,17.728411],[-64.669,17.73521],[-64.66915,17.73734],[-64.671605,17.739559],[-64.67834,17.74446],[-64.68507,17.74584],[-64.68587,17.7453],[-64.69103,17.74595],[-64.693003,17.745105]]]}},
{"type":"Feature","id":"VIR:ADM3:southwest","properties":{"shapeName":"Southwest","shapeISO":"","shapeGroup":"VIR","shapeType":"ADM3","parentISO":"VIR","parentID":"VIR:ADM0:VIR","src_shape_id":"14107722B42287109537478"},"geometry":{"type":"Polygon","coordinates":[[[-64.885763,17.701816],[-64.89093,17.694873],[-64.892594,17.691875],[-64.903557,17.680425],[-64.903564,17.679349],[-64.901185,17.675011],[-64.893487,17.679455],[-64.888272,17.683705],[-64.885035,17.685722],[-64.883219,17.686074],[-64.878503,17.684186],[-64.87147,17.685428],[-64.868955,17.686592],[-64.864037,17.686321],[-64.860529,17.685392],[-64.856559,17.685901],[-64.855174,17.686698],[-64.850281,17.687296],[-64.843518,17.687363],[-64.840702,17.686212],[-64.839455,17.684685],[-64.839437,17.681141],[-64.837885,17.680194],[-64.835093,17.682606],[-64.833376,17.682222],[-64.82616,17.686699],[-64.822286,17.687124],[-64.825127,17.694669],[-64.830665,17.711108],[-64.86476,17.70056],[-64.885168,17.693982],[-64.88465,17.70197],[-64.885763,17.701816]]]}},
{"type":"Feature","id":"VIR:ADM3:charlotte-amalie","properties":{"shapeName":"Charlotte Amalie","shapeISO":"","shapeGroup":"VIR","shapeType":"ADM3","parentISO":"VIR","parentID":"VIR:ADM0:VIR","src_shape_id":"14107722B76650624566102"},"geometry":{"type":"Polygon","coordinates":[[[-64.977036,18.3431],[-64.975899,18.338138],[-64.984056,18.3377],[-64.982834,18.335279],[-64.975073,18.335483],[-64.972675,18.330527],[-64.969587,18.33219],[-64.96971,18.334781],[-64.966941,18.336208],[-64.963895,18.335083],[-64.96381,18.331337],[-64.965532,18.32766],[-64.964947,18.325312],[-64.962364,18.324569],[-64.961547,18.329738],[-64.957682,18.327274],[-64.955602,18.328097],[-64.954763,18.332146],[-64.952331,18.33485],[-64.947096,18.336056],[-64.944271,18.334397],[-64.940841,18.334708],[-64.940644,18.337371],[-64.938325,18.339183],[-64.933833,18.339612],[-64.931128,18.340522],[-64.926339,18.339824],[-64.92549,18.338203],[-64.920748,18.336583],[-64.919383,18.334565],[-64.91715,18.336458],[-64.915855,18.33386],[-64.913453,18.331378],[-64.910219,18.332034],[-64.90966,18.33603],[-64.91077,18.3387],[-64.91468,18.33908],[-64.920692,18.34128],[-64.921294,18.343835],[-64.922788,18.344005],[-64.921841,18.348303],[-64.930634,18.348861],[-64.932606,18.34794],[-64.943552,18.344925],[-64.946121,18.345211],[-64.955091,18.345095],[-64.957201,18.346667],[-64.95988,18.34614],[-64.961663,18.348857],[-64.964113,18.348615],[-64.967213,18.347207],[-64.972948,18.346589],[-64.974767,18.341707],[-64.977036,18.3431]]]}},
{"type":"Feature","id":"VIR:ADM3:southside","properties":{"shapeName":"Southside","shapeISO":"","shapeGroup":"VIR","shapeType":"ADM3","parentISO":"VIR","parentID":"VIR:ADM0:VIR","src_shape_id":"14107722B32705273814462"},"geometry":{"type":"MultiPolygon","coordinates":[[[[-64.869205,18.308494],[-64.869064,18.307295],[-64.865497,18.305586],[-64.862484,18.30623],[-64.862688,18.307999],[-64.865469,18.307565],[-64.869205,18.308494]]],[[[-64.876095,18.316653],[-64.872338,18.313638],[-64.869616,18.316851],[-64.869346,18.318675],[-64.871247,18.31889],[-64.875366,18.316132],[-64.876095,18.316653]]],[[[-64.889504,18.275789],[-64.887147,18.273968],[-64.886665,18.276664],[-64.889504,18.275789]]],[[[-64.896397,18.27745],[-64.896379,18.275236],[-64.890986,18.276914],[-64.892575,18.279468],[-64.896397,18.27745]]],[[[-64.90966,18.33603],[-64.910219,18.332034],[-64.913453,18.331378],[-64.915855,18.33386],[-64.91715,18.336458],[-64.919383,18.334565],[-64.924546,18.331365],[-64.923355,18.328153],[-64.921523,18.325423],[-64.921407,18.322516],[-64.922893,18.319784],[-64.919438,18.32007],[-64.913534,18.317515],[-64.911222,18.315287],[-64.906508,18.313584],[-64.904883,18.311094],[-64.898628,18.309758],[-64.89605,18.313105],[-64.893903,18.31192],[-64.890689,18.313698],[-64.886468,18.309139],[-64.879982,18.307396],[-64.877998,18.302809],[-64.874625,18.303906],[-64.873383,18.305792],[-64.869807,18.304915],[-64.8718,18.309592],[-64.876567,18.309776],[-64.876908,18.311939],[-64.88135,18.313318],[-64.882426,18.316542],[-64.881269,18.31707],[-64.88025,18.31941],[-64.87864,18.3199],[-64.87721,18.32357],[-64.88122,18.3264],[-64.88311,18.32899],[-64.88416,18.33129],[-64.88688,18.33314],[-64.89129,18.33439],[-64.89877,18.33505],[-64.901878,18.334883],[-64.905379,18.335665],[-64.90803,18.33524],[-64.90966,18.33603]]]]}},
{"type":"Feature","id":"VIR:ADM3:tutu","properties":{"shapeName":"Tutu","shapeISO":"","shapeGroup":"VIR","shapeType":"ADM3","parentISO":"VIR","parentID":"VIR:ADM0:VIR","src_shape_id":"14107722B9156851144334"},"geometry":{"type":"Polygon","coordinates":[[[-64.89877,18.33505],[-64.89129,18.33439],[-64.88688,18.33314],[-64.88416,18.33129],[-64.88311,18.32899],[-64.881148,18.331236],[-64.878409,18.33308],[-64.877943,18.334994],[-64.874869,18.334535],[-64.871472,18.335085],[-64.871751,18.337372],[-64.878836,18.338949],[-64.881818,18.341416],[-64.88015,18.34439],[-64.88222,18.34837],[-64.88407,18.34961],[-64.891767,18.349607],[-64.898195,18.34763],[-64.90215,18.34769],[-64.90343,18.34498],[-64.89974,18.34252],[-64.89877,18.33505]]]}},
{"type":"Feature","id":"VIR:ADM3:northwest","properties":{"shapeName":"Northwest","shapeISO":"","shapeGroup":"VIR","shapeType":"ADM3","parentISO":"VIR","parentID":"VIR:ADM0:VIR","src_shape_id":"14107722B90781227780181"},"geometry":{"type":"Polygon","coordinates":[[[-64.86476,17.70056],[-64.830665,17.711108],[-64.813555,17.716323],[-64.81776,17.72869],[-64.81529,17.72964],[-64.815715,17.737754],[-64.814159,17.741074],[-64.81281,17.74223],[-64.819,17.74932],[-64.8169,17.75219],[-64.82164,17.75767],[-64.8214,17.7634],[-64.822724,17.766227],[-64.830815,17.76357],[-64.833423,17.761976],[-64.839882,17.761637],[-64.84298,17.763],[-64.848882,17.764175],[-64.850212,17.763519],[-64.856662,17.764586],[-64.86158,17.766686],[-64.863925,17.766638],[-64.872356,17.771036],[-64.874904,17.769553],[-64.877998,17.769552],[-64.88149,17.767304],[-64.88154,17.764961],[-64.887676,17.761517],[-64.888923,17.759987],[-64.891377,17.752501],[-64.891166,17.750472],[-64.89403,17.747359],[-64.894291,17.745662],[-64.893259,17.742487],[-64.889714,17.735125],[-64.887961,17.730227],[-64.884265,17.718305],[-64.88189,17.71912],[-64.87698,17.71853],[-64.87578,17.71454],[-64.87305,17.71154],[-64.86716,17.70664],[-64.86476,17.70056]]]}},
{"type":"Feature","id":"VIR:ADM3:coral-bay","properties":{"shapeName":"Coral Bay","shapeISO":"","shapeGroup":"VIR","shapeType":"ADM3","parentISO":"VIR","parentID":"VIR:ADM0:VIR","src_shape_id":"14107722B12871426157568"},"geometry":{"type":"MultiPolygon","coordinates":[[[[-64.690297,18.316756],[-64.687783,18.314829],[-64.686844,18.316323],[-64.68932,18.31758],[-64.690297,18.316756]]],[[[-64.702184,18.311886],[-64.700663,18.315038],[-64.702133,18.317881],[-64.69735,18.320871],[-64.698439,18.32327],[-64.700384,18.323566],[-64.699617,18.328374],[-64.700043,18.33015],[-64.702334,18.329639],[-64.705401,18.330339],[-64.708568,18.334876],[-64.712273,18.335784],[-64.713904,18.341236],[-64.716056,18.344974],[-64.713906,18.347007],[-64.710202,18.346419],[-64.707032,18.348136],[-64.706383,18.351412],[-64.709521,18.353824],[-64.714081,18.353186],[-64.717361,18.356065],[-64.721727,18.357307],[-64.72883,18.356749],[-64.73452,18.350151],[-64.739574,18.348745],[-64.738698,18.344372],[-64.736587,18.342479],[-64.73669,18.340604],[-64.729108,18.336753],[-64.727935,18.335298],[-64.721295,18.337236],[-64.72665,18.341026],[-64.724912,18.34346],[-64.721203,18.342873],[-64.716295,18.33738],[-64.714269,18.333445],[-64.713291,18.330093],[-64.710232,18.328851],[-64.709284,18.326545],[-64.706197,18.322139],[-64.70777,18.319655],[-64.707646,18.317609],[-64.705627,18.316499],[-64.707634,18.313078],[-64.706953,18.311174],[-64.702184,18.311886]]]]}},
{"type":"Feature","id":"VIR:ADM3:water-island","properties":{"shapeName":"Water Island","shapeISO":"","shapeGroup":"VIR","shapeType":"ADM3","parentISO":"VIR","parentID":"VIR:ADM0:VIR","src_shape_id":"14107722B91344262939858"},"geometry":{"type":"MultiPolygon","coordinates":[[[[-64.939124,18.334185],[-64.937229,18.331892],[-64.936199,18.326931],[-64.933625,18.323117],[-64.930349,18.325925],[-64.932736,18.329879],[-64.934912,18.330347],[-64.934783,18.333752],[-64.936152,18.335901],[-64.939124,18.334185]]],[[[-64.96089,18.31373],[-64.960146,18.312823],[-64.955744,18.312689],[-64.956985,18.310437],[-64.960087,18.309834],[-64.960099,18.307753],[-64.957602,18.306344],[-64.95555,18.306607],[-64.953546,18.308121],[-64.951362,18.316942],[-64.951927,18.319005],[-64.948315,18.320956],[-64.945366,18.321199],[-64.942998,18.320156],[-64.942405,18.317995],[-64.940263,18.318139],[-64.941361,18.320681],[-64.942668,18.327846],[-64.944956,18.329111],[-64.946815,18.329013],[-64.949765,18.325112],[-64.952244,18.322681],[-64.955509,18.32118],[-64.957641,18.318565],[-64.956417,18.31623],[-64.960117,18.314816],[-64.96089,18.31373]]]]}},
{"type":"Feature","id":"VIR:ADM3:sion-farm","properties":{"shapeName":"Sion Farm","shapeISO":"","shapeGroup":"VIR","shapeType":"ADM3","parentISO":"VIR","parentID":"VIR:ADM0:VIR","src_shape_id":"14107722B29624786914200"},"geometry":{"type":"Polygon","coordinates":[[[-64.73514,17.72539],[-64.73233,17.726092],[-64.72596,17.7299],[-64.723347,17.732818],[-64.72301,17.73501],[-64.720093,17.736176],[-64.720257,17.739603],[-64.719773,17.744027],[-64.717077,17.746094],[-64.715606,17.745434],[-64.711537,17.7487],[-64.716134,17.752853],[-64.717893,17.752639],[-64.723596,17.75753],[-64.72455,17.759349],[-64.729713,17.762328],[-64.73136,17.762329],[-64.736279,17.767215],[-64.737904,17.771189],[-64.741353,17.774466],[-64.749024,17.783442],[-64.752779,17.781624],[-64.752204,17.779346],[-64.751992,17.771293],[-64.753541,17.770949],[-64.754422,17.774441],[-64.756854,17.774642],[-64.757865,17.773064],[-64.758347,17.769587],[-64.759491,17.768124],[-64.76384,17.76335],[-64.764632,17.757695],[-64.76789,17.75469],[-64.77181,17.74905],[-64.77653,17.73671],[-64.77382,17.72854],[-64.7625,17.73204],[-64.76093,17.72764],[-64.755402,17.729078],[-64.754836,17.72788],[-64.74907,17.72864],[-64.748325,17.727276],[-64.736946,17.730744],[-64.73514,17.72539]]]}},
{"type":"Feature","id":"VIR:ADM3:cruz-bay","properties":{"shapeName":"Cruz Bay","shapeISO":"","shapeGroup":"VIR","shapeType":"ADM3","parentISO":"VIR","parentID":"VIR:ADM0:VIR","src_shape_id":"14107722B26143784528084"},"geometry":{"type":"Polygon","coordinates":[[[-64.794056,18.332625],[-64.796524,18.330538],[-64.798622,18.330877],[-64.799493,18.32685],[-64.796122,18.325917],[-64.795531,18.322551],[-64.793911,18.321191],[-64.791548,18.32168],[-64.788568,18.323591],[-64.786513,18.320708],[-64.789267,18.318393],[-64.79179,18.317736],[-64.790964,18.314959],[-64.788663,18.314303],[-64.787079,18.315086],[-64.784891,18.317863],[-64.783239,18.317036],[-64.784597,18.313657],[-64.782837,18.311251],[-64.780482,18.310883],[-64.779612,18.312651],[-64.781346,18.314563],[-64.779855,18.316516],[-64.775055,18.317026],[-64.77413,18.320564],[-64.772938,18.320904],[-64.768584,18.319856],[-64.767213,18.316431],[-64.767879,18.312289],[-64.765394,18.311562],[-64.764708,18.315837],[-64.76605,18.321385],[-64.764201,18.322744],[-64.762087,18.320967],[-64.761906,18.319009],[-64.759394,18.319676],[-64.76051,18.32534],[-64.764513,18.329485],[-64.767776,18.330999],[-64.762701,18.334615],[-64.765045,18.338942],[-64.76917,18.33744],[-64.770354,18.338177],[-64.77612,18.337343],[-64.77614,18.336547],[-64.784003,18.33597],[-64.787156,18.336662],[-64.788249,18.333417],[-64.794056,18.332625]]]}},
{"type":"Feature","id":"VIR:ADM3:christiansted","properties":{"shapeName":"Christiansted","shapeISO":"","shapeGroup":"VIR","shapeType":"ADM3","parentISO":"VIR","parentID":"VIR:ADM0:VIR","src_shape_id":"14107722B79998694319746"},"geometry":{"type":"Polygon","coordinates":[[[-64.696007,17.749942],[-64.697609,17.748975],[-64.698098,17.74629],[-64.700169,17.745628],[-64.701901,17.747375],[-64.708587,17.746825],[-64.711537,17.7487],[-64.715606,17.745434],[-64.717077,17.746094],[-64.719773,17.744027],[-64.720257,17.739603],[-64.716666,17.740417],[-64.713578,17.739356],[-64.7085,17.739253],[-64.703043,17.741115],[-64.70121,17.74257],[-64.699092,17.742519],[-64.69851,17.740922],[-64.695674,17.741622],[-64.696493,17.744151],[-64.693003,17.745105],[-64.693811,17.747415],[-64.696007,17.749942]]]}},
{"type":"Feature","id":"VIR:ADM3:east-end-3","properties":{"shapeName":"East End","shapeISO":"","shapeGroup":"VIR","shapeType":"ADM3","parentISO":"VIR","parentID":"VIR:ADM0:VIR","src_shape_id":"14107722B55601588722947"},"geometry":{"type":"MultiPolygon","coordinates":[[[[-64.651818,18.326131],[-64.650313,18.324338],[-64.64868,18.32808],[-64.650555,18.328391],[-64.651818,18.326131]]],[[[-64.681144,18.346741],[-64.679694,18.34414],[-64.676445,18.343725],[-64.674319,18.342152],[-64.675049,18.339263],[-64.674387,18.337025],[-64.677117,18.333687],[-64.674435,18.330606],[-64.670941,18.330116],[-64.668652,18.331385],[-64.66852,18.334363],[-64.667093,18.337119],[-64.665239,18.337241],[-64.663902,18.334637],[-64.661757,18.334845],[-64.66353,18.338709],[-64.661116,18.340249],[-64.661069,18.343671],[-64.66301,18.344959],[-64.666545,18.345591],[-64.668085,18.344195],[-64.669758,18.344731],[-64.669505,18.348153],[-64.672008,18.349784],[-64.674382,18.350266],[-64.675336,18.3476],[-64.677433,18.347695],[-64.678648,18.347491],[-64.679191,18.347962],[-64.681144,18.346741]]]]}}
]}