{"type":"FeatureCollection","bbox":[-48.284729,-16.051208,-47.309204,-15.501221],"features":[
{"type":"Feature","id":"BRA:ADM2:BR-DF.brasilia","properties":{"shapeName":"Brasília","shapeISO":"","shapeGroup":"BRA","shapeType":"ADM2","adm1ISO":"BR-DF","parentISO":"BR-DF","parentID":"BRA:ADM1:BR-DF","src_shape_id":"56859067B90477915212525"},"geometry":{"type":"Polygon","coordinates":[[[-47.311401,-16.036377],[-47.316895,-16.036194],[-47.320312,-16.031006],[-47.324219,-16.026611],[-47.325684,-16.029602],[-47.332275,-16.022217],[-47.335205,-16.020508],[-47.337708,-16.018005],[-47.340576,-16.018921],[-47.339478,-16.01532],[-47.340393,-16.01239],[-47.344604,-16.011597],[-47.349426,-16.006775],[-47.356323,-16.007996],[-47.363281,-16.005676],[-47.365601,-16.00238],[-47.369385,-16.002502],[-47.371704,-15.994629],[-47.376099,-15.986816],[-47.376221,-15.983398],[-47.374695,-15.980408],[-47.377625,-15.97821],[-47.378418,-15.974426],[-47.37738,-15.971375],[-47.378906,-15.968811],[-47.375977,-15.967712],[-47.376709,-15.962219],[-47.373779,-15.959229],[-47.374878,-15.956482],[-47.372009,-15.95459],[-47.369995,-15.946716],[-47.369812,-15.942322],[-47.372314,-15.938782],[-47.370605,-15.935791],[-47.36792,-15.933228],[-47.36499,-15.932129],[-47.362305,-15.928711],[-47.362122,-15.924011],[-47.364197,-15.919922],[-47.367981,-15.920227],[-47.368286,-15.916687],[-47.366577,-15.911011],[-47.367798,-15.908325],[-47.372314,-15.906982],[-47.373596,-15.903503],[-47.374023,-15.899597],[-47.375916,-15.896118],[-47.377808,-15.888],[-47.377808,-15.884216],[-47.376892,-15.88092],[-47.374329,-15.87738],[-47.372681,-15.873108],[-47.371887,-15.86908],[-47.372009,-15.864319],[-47.370117,-15.860596],[-47.369812,-15.856628],[-47.368225,-15.852417],[-47.369812,-15.847229],[-47.36908,-15.84198],[-47.365784,-15.834106],[-47.366394,-15.830627],[-47.365295,-15.827576],[-47.358704,-15.822815],[-47.355103,-15.822388],[-47.355896,-15.81958],[-47.349304,-15.808228],[-47.348206,-15.804626],[-47.345398,-15.801575],[-47.344299,-15.797607],[-47.341125,-15.7948],[-47.339417,-15.791321],[-47.338318,-15.787598],[-47.336304,-15.78479],[-47.335083,-15.781677],[-47.331421,-15.779175],[-47.330811,-15.774597],[-47.328613,-15.772583],[-47.328979,-15.769287],[-47.327698,-15.766113],[-47.324829,-15.760986],[-47.322693,-15.757996],[-47.31842,-15.750793],[-47.315491,-15.746887],[-47.314209,-15.742126],[-47.314209,-15.739197],[-47.317383,-15.735413],[-47.318298,-15.727417],[-47.32019,-15.722412],[-47.319824,-15.718628],[-47.316895,-15.716309],[-47.31543,-15.713013],[-47.313599,-15.707275],[-47.314087,-15.704224],[-47.31311,-15.696899],[-47.317505,-15.692322],[-47.318787,-15.689392],[-47.321594,-15.68811],[-47.325012,-15.688782],[-47.328308,-15.6875],[-47.3302,-15.683411],[-47.330811,-15.680298],[-47.328491,-15.678223],[-47.327209,-15.672424],[-47.327393,-15.664185],[-47.328308,-15.655823],[-47.327515,-15.64801],[-47.329895,-15.645325],[-47.32959,-15.641724],[-47.331299,-15.635925],[-47.332703,-15.632996],[-47.332581,-15.628784],[-47.329407,-15.620117],[-47.327576,-15.612976],[-47.323486,-15.604919],[-47.32312,-15.601807],[-47.320923,-15.598389],[-47.316711,-15.596924],[-47.316711,-15.593079],[-47.317993,-15.589294],[-47.322205,-15.587219],[-47.326416,-15.588989],[-47.329529,-15.586914],[-47.333923,-15.58728],[-47.342896,-15.582397],[-47.346802,-15.579712],[-47.351013,-15.5802],[-47.355286,-15.57959],[-47.360229,-15.579712],[-47.364502,-15.578186],[-47.369385,-15.578613],[-47.375183,-15.577026],[-47.378723,-15.573792],[-47.380615,-15.56781],[-47.384399,-15.567017],[-47.388916,-15.567017],[-47.395386,-15.558228],[-47.398987,-15.555176],[-47.400208,-15.551086],[-47.402527,-15.548584],[-47.405212,-15.546997],[-47.408508,-15.547791],[-47.412903,-15.547913],[-47.416687,-15.546326],[-47.418396,-15.501709],[-47.47821,-15.501892],[-47.492676,-15.501892],[-47.495911,-15.501221],[-47.51178,-15.501892],[-47.524902,-15.502014],[-47.56311,-15.502075],[-47.615601,-15.502075],[-47.688416,-15.502075],[-47.771179,-15.502075],[-47.854004,-15.502197],[-47.976196,-15.502197],[-48.03479,-15.502197],[-48.052917,-15.501709],[-48.074402,-15.502197],[-48.141602,-15.502197],[-48.19989,-15.503418],[-48.200012,-15.517578],[-48.199829,-15.593811],[-48.199707,-15.615723],[-48.201599,-15.623291],[-48.206299,-15.623413],[-48.212708,-15.622681],[-48.215698,-15.622803],[-48.218384,-15.623779],[-48.221497,-15.627808],[-48.225708,-15.630676],[-48.229614,-15.63678],[-48.234497,-15.643311],[-48.236206,-15.651978],[-48.234619,-15.656128],[-48.234802,-15.659302],[-48.23468,-15.663208],[-48.235291,-15.668213],[-48.238708,-15.678284],[-48.241028,-15.687012],[-48.240906,-15.692383],[-48.239624,-15.69812],[-48.240906,-15.703796],[-48.238586,-15.70752],[-48.230896,-15.709412],[-48.222229,-15.708618],[-48.217529,-15.709778],[-48.212708,-15.711792],[-48.20929,-15.7146],[-48.20813,-15.717224],[-48.207886,-15.721375],[-48.20813,-15.730286],[-48.208008,-15.742004],[-48.208984,-15.750977],[-48.210083,-15.755188],[-48.211914,-15.759705],[-48.215088,-15.765015],[-48.217896,-15.768127],[-48.224976,-15.773682],[-48.231201,-15.778076],[-48.234009,-15.784485],[-48.23761,-15.786377],[-48.237305,-15.7901],[-48.240112,-15.793213],[-48.241394,-15.797119],[-48.246277,-15.798401],[-48.249207,-15.801514],[-48.257996,-15.802979],[-48.261292,-15.805725],[-48.265381,-15.807922],[-48.272522,-15.815796],[-48.276184,-15.818481],[-48.279785,-15.823608],[-48.281311,-15.828613],[-48.282288,-15.832825],[-48.284424,-15.836182],[-48.284729,-15.846924],[-48.283508,-15.849915],[-48.28302,-15.854614],[-48.281128,-15.858215],[-48.279175,-15.864014],[-48.279602,-15.867798],[-48.277222,-15.871094],[-48.274597,-15.8797],[-48.27301,-15.882202],[-48.2724,-15.88501],[-48.276184,-15.892517],[-48.27478,-15.89563],[-48.274902,-15.899292],[-48.275818,-15.906128],[-48.273376,-15.909729],[-48.27002,-15.912415],[-48.270325,-15.917786],[-48.272217,-15.921021],[-48.275818,-15.9245],[-48.275085,-15.929504],[-48.269409,-15.932312],[-48.264587,-15.929993],[-48.260193,-15.928894],[-48.253113,-15.936523],[-48.251526,-15.946228],[-48.252075,-15.955322],[-48.254517,-15.957825],[-48.257629,-15.964111],[-48.259827,-15.967407],[-48.258484,-15.976807],[-48.259399,-15.979492],[-48.258789,-15.983398],[-48.26178,-15.986206],[-48.263123,-15.993713],[-48.267212,-16.001404],[-48.269714,-16.004211],[-48.27179,-16.009216],[-48.272095,-16.012207],[-48.270203,-16.018311],[-48.270386,-16.022095],[-48.27179,-16.026001],[-48.274109,-16.035278],[-48.276489,-16.038208],[-48.277893,-16.04303],[-48.277588,-16.048279],[-48.258728,-16.049622],[-48.192993,-16.0495],[-48.147095,-16.0495],[-48.14032,-16.049683],[-48.101196,-16.049683],[-48.086487,-16.049988],[-48.071106,-16.049683],[-48.022583,-16.049683],[-48.019714,-16.051208],[-48.015015,-16.049927],[-47.997314,-16.049805],[-47.948486,-16.049805],[-47.938599,-16.049927],[-47.923584,-16.049805],[-47.888,-16.049805],[-47.831299,-16.049988],[-47.814209,-16.049927],[-47.744812,-16.049805],[-47.721375,-16.049805],[-47.684814,-16.05011],[-47.673889,-16.049805],[-47.629211,-16.049805],[-47.555908,-16.049805],[-47.510986,-16.049805],[-47.452209,-16.049988],[-47.41571,-16.049805],[-47.312805,-16.049988],[-47.309204,-16.048889],[-47.309204,-16.043518],[-47.311707,-16.041199],[-47.311401,-16.036377]]]}}
]}