{"type":"FeatureCollection","bbox":[-48.584412,-27.21991,-32.38031,-2.40332],"features":[
{"type":"Feature","id":"BRA:ADM2:unassigned.raposa","properties":{"shapeName":"Raposa","shapeISO":"","shapeGroup":"BRA","shapeType":"ADM2","adm1ISO":"unassigned","src_shape_id":"56859067B6565916351535"},"geometry":{"type":"Polygon","coordinates":[[[-44.062195,-2.481628],[-44.056885,-2.466187],[-44.052307,-2.466309],[-44.051025,-2.462097],[-44.048401,-2.456909],[-44.044617,-2.45282],[-44.038513,-2.450928],[-44.033325,-2.4505],[-44.029297,-2.451294],[-44.025513,-2.450623],[-44.023376,-2.447388],[-44.022827,-2.442383],[-44.022827,-2.434692],[-44.023499,-2.430908],[-44.025208,-2.426697],[-44.027283,-2.420105],[-44.02948,-2.410095],[-44.031311,-2.406982],[-44.042175,-2.406006],[-44.047607,-2.405212],[-44.059021,-2.404114],[-44.063477,-2.403381],[-44.068298,-2.40332],[-44.082581,-2.40448],[-44.088989,-2.405396],[-44.094604,-2.406616],[-44.100708,-2.409729],[-44.10321,-2.411377],[-44.136597,-2.42981],[-44.150513,-2.433594],[-44.154907,-2.436707],[-44.157898,-2.444824],[-44.167419,-2.452881],[-44.171692,-2.455811],[-44.173828,-2.458313],[-44.170105,-2.466492],[-44.172485,-2.471619],[-44.171814,-2.47522],[-44.153198,-2.471985],[-44.140808,-2.466187],[-44.139099,-2.462219],[-44.13092,-2.458008],[-44.126587,-2.456726],[-44.119324,-2.455811],[-44.111816,-2.456177],[-44.107117,-2.455811],[-44.103516,-2.457214],[-44.102112,-2.459717],[-44.099792,-2.462219],[-44.094116,-2.454224],[-44.088806,-2.460205],[-44.085205,-2.459229],[-44.077026,-2.461487],[-44.073975,-2.461792],[-44.066284,-2.461182],[-44.059875,-2.461182],[-44.061401,-2.464478],[-44.067505,-2.467285],[-44.064697,-2.472717],[-44.063293,-2.476379],[-44.062195,-2.481628]]]}},
{"type":"Feature","id":"BRA:ADM2:unassigned.fernando-de-noronha","properties":{"shapeName":"Fernando de Noronha","shapeISO":"","shapeGroup":"BRA","shapeType":"ADM2","adm1ISO":"unassigned","src_shape_id":"56859067B68153873864864"},"geometry":{"type":"MultiPolygon","coordinates":[[[[-32.400513,-3.856689],[-32.397522,-3.856018],[-32.396179,-3.853088],[-32.393127,-3.851624],[-32.395813,-3.847412],[-32.396484,-3.843018],[-32.398682,-3.838501],[-32.397278,-3.834229],[-32.398926,-3.829285],[-32.400513,-3.833313],[-32.403503,-3.835999],[-32.411377,-3.838501],[-32.415222,-3.838684],[-32.418213,-3.841309],[-32.425476,-3.843201],[-32.431702,-3.845886],[-32.438416,-3.849304],[-32.4422,-3.850098],[-32.445129,-3.854309],[-32.447876,-3.857178],[-32.447998,-3.861511],[-32.452209,-3.864075],[-32.457092,-3.866211],[-32.459778,-3.869019],[-32.461182,-3.872192],[-32.464111,-3.872803],[-32.46582,-3.875427],[-32.468079,-3.877197],[-32.464111,-3.879028],[-32.460693,-3.878418],[-32.458008,-3.88031],[-32.456116,-3.877686],[-32.452515,-3.875916],[-32.445496,-3.873901],[-32.44281,-3.871582],[-32.439087,-3.871826],[-32.435791,-3.8703],[-32.429199,-3.871887],[-32.424316,-3.87561],[-32.422913,-3.87262],[-32.42511,-3.870483],[-32.42572,-3.86731],[-32.422791,-3.866211],[-32.421021,-3.868408],[-32.418091,-3.868103],[-32.416504,-3.864807],[-32.412292,-3.86261],[-32.408081,-3.857117],[-32.404419,-3.857422],[-32.400513,-3.856689]]],[[[-32.384583,-3.814819],[-32.381409,-3.813293],[-32.38031,-3.81012],[-32.383606,-3.809692],[-32.387512,-3.807617],[-32.393188,-3.812195],[-32.389282,-3.815186],[-32.384583,-3.814819]]]]}},
{"type":"Feature","id":"BRA:ADM2:unassigned.bombinhas","properties":{"shapeName":"Bombinhas","shapeISO":"","shapeGroup":"BRA","shapeType":"ADM2","adm1ISO":"unassigned","src_shape_id":"56859067B26603049963849"},"geometry":{"type":"MultiPolygon","coordinates":[[[[-48.464478,-27.204895],[-48.469299,-27.204285],[-48.473511,-27.2052],[-48.474121,-27.208313],[-48.470825,-27.207825],[-48.467224,-27.20929],[-48.464478,-27.204895]]],[[[-48.407104,-27.183899],[-48.403687,-27.181091],[-48.405518,-27.17688],[-48.40918,-27.181091],[-48.409607,-27.187012],[-48.407104,-27.183899]]],[[[-48.476685,-27.140808],[-48.478577,-27.136414],[-48.480591,-27.138489],[-48.476685,-27.140808]]],[[[-48.476685,-27.140808],[-48.479797,-27.144714],[-48.483704,-27.147827],[-48.487488,-27.148499],[-48.490601,-27.14801],[-48.494812,-27.146301],[-48.502014,-27.14502],[-48.505188,-27.142822],[-48.510925,-27.136597],[-48.513306,-27.132019],[-48.51239,-27.129028],[-48.512329,-27.12561],[-48.511414,-27.121216],[-48.517517,-27.126404],[-48.518616,-27.129517],[-48.521179,-27.132996],[-48.523193,-27.137512],[-48.522827,-27.141296],[-48.524902,-27.144897],[-48.526306,-27.148682],[-48.528992,-27.152588],[-48.527588,-27.157227],[-48.527893,-27.1604],[-48.531006,-27.163391],[-48.53418,-27.163879],[-48.538025,-27.1698],[-48.542419,-27.172791],[-48.54718,-27.172485],[-48.551208,-27.171326],[-48.554382,-27.173523],[-48.556702,-27.17688],[-48.560181,-27.179687],[-48.56311,-27.183411],[-48.567017,-27.184692],[-48.575989,-27.18689],[-48.580994,-27.190979],[-48.583313,-27.193909],[-48.584412,-27.197327],[-48.582397,-27.201721],[-48.579224,-27.203491],[-48.5755,-27.206909],[-48.571777,-27.203308],[-48.568604,-27.201477],[-48.559204,-27.197205],[-48.554626,-27.195923],[-48.552185,-27.192017],[-48.548096,-27.1875],[-48.54248,-27.182922],[-48.539307,-27.18158],[-48.532715,-27.18042],[-48.524292,-27.180725],[-48.515625,-27.183594],[-48.512512,-27.185486],[-48.506409,-27.190308],[-48.501892,-27.195312],[-48.5,-27.198181],[-48.499817,-27.202698],[-48.501526,-27.206482],[-48.506287,-27.210327],[-48.515015,-27.216003],[-48.515076,-27.218994],[-48.51239,-27.21991],[-48.511108,-27.216797],[-48.504028,-27.216309],[-48.501282,-27.214783],[-48.498413,-27.216003],[-48.4953,-27.216003],[-48.493408,-27.213013],[-48.486816,-27.209412],[-48.483521,-27.209717],[-48.477478,-27.206116],[-48.476318,-27.203308],[-48.476929,-27.19989],[-48.482117,-27.198975],[-48.485413,-27.2005],[-48.48822,-27.202576],[-48.491699,-27.201111],[-48.494629,-27.198914],[-48.49762,-27.193481],[-48.498901,-27.189209],[-48.499817,-27.181885],[-48.499695,-27.177612],[-48.498413,-27.171082],[-48.497375,-27.167908],[-48.495605,-27.165222],[-48.49231,-27.164124],[-48.488403,-27.163818],[-48.484924,-27.162109],[-48.484802,-27.15741],[-48.482788,-27.154114],[-48.478699,-27.153992],[-48.474182,-27.151978],[-48.471924,-27.148376],[-48.468384,-27.14502],[-48.473022,-27.145325],[-48.476501,-27.144714],[-48.476685,-27.140808]]],[[[-48.511414,-27.121216],[-48.50769,-27.118591],[-48.506104,-27.114197],[-48.508179,-27.111511],[-48.51001,-27.115112],[-48.512512,-27.118103],[-48.511414,-27.121216]]]]}}
]}