{"type":"FeatureCollection","bbox":[-73.3659,0.6389,-59.7411,12.4947], "features": [
{"type":"Feature","geometry":{"type":"Polygon","coordinates":[[[-64.6923,4.211],[-64.647,4.2143],[-64.6218,4.2918],[-64.6355,4.3378],[-64.6965,4.4162],[-64.678,4.4511],[-64.606,4.4575],[-64.6025,4.5646],[-64.5493,4.637],[-64.6015,4.6879],[-64.6958,4.6516],[-64.7443,4.6677],[-64.7888,4.5966],[-64.8495,4.5703],[-64.9029,4.5851],[-64.9627,4.6771],[-65.015,4.7056],[-65.1034,4.8211],[-65.1247,4.8659],[-65.1341,5.1333],[-65.1689,5.1845],[-65.2219,5.143],[-65.2825,5.2675],[-65.1258,5.3473],[-65.1065,5.3832],[-65.1553,5.4444],[-65.1493,5.5382],[-65.1942,5.5704],[-65.2529,5.6623],[-65.2097,5.7223],[-65.222,5.7637],[-65.2844,5.7684],[-65.3446,5.74],[-65.4403,5.7325],[-65.4836,5.7005],[-65.5489,5.6875],[-65.5905,5.7752],[-65.5945,5.8547],[-65.632,5.885],[-65.5983,5.9712],[-65.603,6.0014],[-65.5654,6.0779],[-65.576,6.1397],[-65.6298,6.1521],[-65.7195,6.1108],[-65.7763,6.1174],[-65.8399,6.0898],[-65.8575,5.9976],[-65.8992,5.9483],[-65.9864,5.8048],[-66.0286,5.7785],[-66.063,5.7174],[-66.2903,5.7754],[-66.3492,5.8213],[-66.4048,5.7687],[-66.4635,5.789],[-66.5851,5.7352],[-66.636,5.7436],[-66.7022,5.718],[-66.8566,5.6837],[-66.999,5.6355],[-67.0604,5.7171],[-67.0963,5.7342],[-67.1971,5.7042],[-67.209,5.7895],[-67.1597,5.8979],[-67.1261,6.0497],[-67.2015,6.1209],[-67.2823,6.1138],[-67.3099,6.1486],[-67.3976,6.1291],[-67.44,6.1974],[-67.4559,6.1914],[-67.4933,6.127],[-67.412,6.0108],[-67.4182,5.983],[-67.5244,5.9108],[-67.5889,5.8389],[-67.6305,5.7338],[-67.637,5.645],[-67.5989,5.5443],[-67.6249,5.4762],[-67.6807,5.4281],[-67.8009,5.3576],[-67.8495,5.304],[-67.8235,5.247],[-67.8263,5.1914],[-67.8546,5.1379],[-67.8059,5.055],[-67.8376,4.9469],[-67.8233,4.8399],[-67.8178,4.7072],[-67.8449,4.6451],[-67.8392,4.5619],[-67.8572,4.5247],[-67.7918,4.467],[-67.7978,4.4371],[-67.7639,4.3617],[-67.8057,4.3152],[-67.797,4.2297],[-67.7332,4.1229],[-67.7034,4.0396],[-67.6924,3.9362],[-67.6453,3.8524],[-67.6125,3.7556],[-67.5013,3.7674],[-67.4389,3.64],[-67.4441,3.5852],[-67.412,3.5389],[-67.4015,3.48],[-67.3391,3.451],[-67.313,3.3946],[-67.3343,3.3354],[-67.3816,3.2926],[-67.3812,3.2484],[-67.4349,3.2485],[-67.8628,2.8649],[-67.8223,2.8272],[-67.6583,2.7966],[-67.6214,2.8138],[-67.5628,2.7213],[-67.5689,2.6687],[-67.4867,2.667],[-67.4705,2.6242],[-67.3907,2.572],[-67.3446,2.5247],[-67.2977,2.4427],[-67.2162,2.3924],[-67.1879,2.3503],[-67.2207,2.2506],[-67.1616,2.1328],[-67.1147,2.1335],[-67.0972,2.0513],[-67.1232,1.9796],[-67.0716,1.934],[-67.0354,1.8455],[-67.0331,1.7864],[-66.9896,1.6906],[-66.9622,1.6667],[-66.9635,1.5977],[-66.9208,1.531],[-66.9121,1.4272],[-66.8561,1.3697],[-66.854,1.312],[-66.881,1.2903],[-66.8416,1.2062],[-66.3211,0.7342],[-66.2132,0.7655],[-66.1221,0.7368],[-66.066,0.7878],[-65.9599,0.7968],[-65.8821,0.9191],[-65.7635,0.9526],[-65.7235,0.9889],[-65.5558,0.9712],[-65.5114,0.873],[-65.507,0.8204],[-65.58,0.7319],[-65.5885,0.6809],[-65.5558,0.6389],[-65.4468,0.6678],[-65.4012,0.7502],[-65.4064,0.8101],[-65.3244,0.9122],[-65.2699,0.9197],[-65.1984,0.9022],[-65.1733,0.9378],[-65.1608,1.0739],[-65.1023,1.1315],[-65.0435,1.0823],[-65.0155,1.1337],[-64.9599,1.1878],[-64.8667,1.219],[-64.8398,1.2729],[-64.7871,1.2349],[-64.7215,1.2181],[-64.7062,1.2608],[-64.6416,1.2844],[-64.5764,1.3361],[-64.5574,1.3912],[-64.5039,1.4428],[-64.4611,1.4519],[-64.3873,1.5076],[-64.341,1.4882],[-64.3943,1.377],[-64.3225,1.3583],[-64.303,1.4349],[-64.1857,1.5151],[-64.1758,1.5412],[-64.0993,1.5705],[-64.0719,1.6134],[-64.0601,1.6804],[-64.0569,1.8522],[-64.0448,1.9197],[-63.9666,1.9767],[-63.7562,1.9765],[-63.717,2.0161],[-63.6281,2.0529],[-63.6082,2.0921],[-63.5453,2.1167],[-63.4937,2.107],[-63.4642,2.1298],[-63.4028,2.1235],[-63.3905,2.188],[-63.361,2.2345],[-63.3724,2.3458],[-63.3495,2.3919],[-63.4711,2.415],[-63.5356,2.4099],[-63.6595,2.4446],[-63.7087,2.4167],[-63.8246,2.3991],[-63.953,2.4605],[-64.0024,2.4553],[-64.0453,2.4954],[-64.0322,2.5503],[-63.9841,2.631],[-64.0025,2.7807],[-64.0695,2.852],[-64.073,2.8929],[-64.1131,2.9433],[-64.1648,3.0489],[-64.2195,3.0929],[-64.2076,3.1862],[-64.2382,3.417],[-64.1804,3.5476],[-64.2296,3.6275],[-64.3016,3.7062],[-64.3637,3.7463],[-64.4781,3.7899],[-64.5479,3.8534],[-64.5737,3.9151],[-64.6079,3.942],[-64.6325,4.0017],[-64.6614,3.9983],[-64.7624,4.0822],[-64.7549,4.1391],[-64.7947,4.1683],[-64.7913,4.3074],[-64.7258,4.2641],[-64.6923,4.211]]]},"properties":{"shapeName":"Amazonas","shapeISO":"VE-Z","shapeType":"ADM1"}},
{"type":"Feature","geometry":{"type":"Polygon","coordinates":[[[-64.5307,10.2533],[-64.6968,10.1992],[-64.7173,10.1308],[-64.7612,10.1003],[-64.873,10.0854],[-64.9444,10.0986],[-65.0525,10.0609],[-65.202,10.0997],[-65.4314,10.1405],[-65.4914,10.0696],[-65.5856,10.0083],[-65.6383,9.95],[-65.6938,9.9799],[-65.7177,9.9621],[-65.7219,9.875],[-65.6707,9.7736],[-65.6979,9.6873],[-65.6476,9.6328],[-65.647,9.56],[-65.5016,9.5584],[-65.4302,9.6543],[-65.4048,9.5959],[-65.3164,9.5181],[-65.2241,9.5012],[-65.2032,9.4559],[-65.2313,9.4063],[-65.2849,9.3826],[-65.27,9.2771],[-65.2172,9.2342],[-65.1755,9.1689],[-65.0876,9.1718],[-65.0207,9.12],[-64.985,9.1151],[-64.9436,9.0411],[-64.9337,8.9913],[-64.7988,8.8954],[-64.7806,8.8134],[-64.8481,8.698],[-64.9117,8.7365],[-64.9796,8.7503],[-65.019,8.7387],[-65.08,8.7645],[-65.1332,8.7489],[-65.1639,8.7113],[-65.1715,8.6547],[-65.1477,8.5594],[-65.1778,8.4862],[-65.2072,8.3657],[-65.2634,8.3242],[-65.2981,8.2571],[-65.3603,8.2066],[-65.3982,8.1168],[-65.4974,7.99],[-65.4916,7.9169],[-65.4215,7.9164],[-65.3668,7.8565],[-65.1899,7.8204],[-65.0192,7.7678],[-64.9647,7.7063],[-64.8768,7.6612],[-64.7923,7.6713],[-64.6756,7.7426],[-64.5938,7.7646],[-64.5098,7.7689],[-64.4536,7.8283],[-64.5667,7.8754],[-64.5804,7.9044],[-64.5456,7.989],[-64.4489,8.0325],[-64.4114,7.9991],[-64.3617,8.0137],[-64.3374,8.0658],[-64.2856,8.0949],[-64.23,8.0849],[-64.1593,8.0084],[-64.0257,7.9425],[-63.9317,7.9761],[-63.8242,8.1343],[-63.7118,8.1465],[-63.6776,8.1689],[-63.5813,8.1483],[-63.4401,8.1742],[-63.3715,8.2331],[-63.3336,8.2348],[-63.2304,8.3058],[-63.1838,8.316],[-63.031,8.3213],[-62.9486,8.3106],[-62.9004,8.2811],[-62.8429,8.2993],[-62.7671,8.39],[-62.6798,8.3824],[-62.7212,8.423],[-62.7257,8.4787],[-63.0013,8.5473],[-63.0392,8.5987],[-63.0462,8.7034],[-63.002,8.7743],[-63.2779,8.7598],[-63.3419,8.7654],[-63.3646,8.9476],[-63.3964,8.9983],[-63.4761,9.0205],[-63.51,9.0622],[-63.6013,9.1009],[-63.6056,9.1445],[-63.6859,9.1625],[-63.7615,9.223],[-63.8374,9.2284],[-63.9112,9.1943],[-63.9185,9.2583],[-63.9717,9.339],[-63.9726,9.4146],[-63.8252,9.5435],[-63.9479,9.705],[-63.9544,9.8234],[-63.9176,9.8589],[-63.9881,9.9253],[-64.0359,9.9302],[-64.0627,10.0055],[-64.0224,10.041],[-63.9586,10.0543],[-63.9564,10.084],[-64.0238,10.1198],[-64.0533,10.0986],[-64.2295,10.0629],[-64.2933,10.0957],[-64.3678,10.0866],[-64.3992,10.1337],[-64.4437,10.1264],[-64.4422,10.1887],[-64.4875,10.1961],[-64.5307,10.2533]]]},"properties":{"shapeName":"Anzoátegui","shapeISO":"VE-B","shapeType":"ADM1"}},
{"type":"Feature","geometry":{"type":"Polygon","coordinates":[[[-67.44,6.1974],[-67.3994,6.2538],[-67.3206,6.2812],[-67.2747,6.3536],[-67.1544,6.4674],[-67.0958,6.7062],[-67.0339,6.7657],[-67.0175,6.9096],[-67.0667,6.9967],[-67.0701,7.0866],[-67.0084,7.1688],[-66.9726,7.1891],[-66.8894,7.1706],[-66.8204,7.253],[-66.5684,7.3367],[-66.5512,7.3866],[-66.5043,7.4368],[-66.5086,7.4735],[-66.456,7.5674],[-66.3301,7.6468],[-66.3599,7.7258],[-66.3975,7.7113],[-66.4689,7.7297],[-66.48,7.764],[-66.544,7.7861],[-66.6069,7.7632],[-66.6488,7.7014],[-66.759,7.696],[-66.8158,7.7315],[-66.9376,7.7416],[-67.0494,7.7888],[-67.1493,7.7588],[-67.219,7.7774],[-67.256,7.8187],[-67.3235,7.8463],[-67.3269,7.881],[-67.3944,7.9133],[-67.4376,7.8865],[-67.4982,7.9026],[-67.5355,7.9443],[-67.5948,7.9847],[-67.6976,7.9152],[-67.7608,7.9047],[-67.8383,7.9196],[-67.8749,7.8926],[-67.9478,7.9095],[-68.0627,7.8679],[-68.1277,7.9033],[-68.2418,7.9033],[-68.2906,7.9222],[-68.3297,7.8831],[-68.4151,7.9295],[-68.4713,7.9273],[-68.618,7.9631],[-68.7145,7.906],[-68.7806,7.8927],[-68.8841,7.8997],[-68.9317,7.9187],[-68.9637,7.9966],[-69.0328,8.0011],[-69.0514,7.974],[-69.1478,8.0491],[-69.2135,8.0669],[-69.3819,8.0497],[-69.4346,8.066],[-69.5026,7.9977],[-69.5364,7.9904],[-69.592,7.9321],[-69.7295,7.8232],[-69.8971,7.7954],[-69.9683,7.751],[-70.0417,7.7427],[-70.1466,7.6813],[-70.1693,7.6157],[-70.2135,7.5903],[-70.2517,7.6074],[-70.324,7.5991],[-70.3586,7.4895],[-70.396,7.4428],[-70.5153,7.407],[-70.5095,7.3744],[-70.6145,7.324],[-70.7897,7.2991],[-70.8745,7.3337],[-70.9628,7.3092],[-70.9994,7.3402],[-71.1764,7.3872],[-71.3066,7.4452],[-71.4277,7.4432],[-71.4545,7.4629],[-71.5022,7.4269],[-71.5928,7.419],[-71.7084,7.4229],[-71.8125,7.487],[-71.8406,7.4888],[-71.8766,7.4163],[-72.0165,7.3611],[-72.1033,7.4034],[-72.1662,7.3827],[-72.2221,7.434],[-72.3207,7.4351],[-72.4138,7.4007],[-72.2557,7.3784],[-72.1986,7.3867],[-72.1539,7.3282],[-72.1704,7.2519],[-72.0477,7.0383],[-71.9378,7.0062],[-71.835,7.0257],[-71.8119,7.0624],[-71.7462,7.0657],[-71.7146,7.0345],[-71.6484,7.0504],[-71.5744,7.0261],[-71.4244,7.0389],[-71.379,7.018],[-71.2698,7.0312],[-71.1915,7.019],[-71.1286,7.0322],[-71.1117,6.9899],[-71.022,6.974],[-70.8953,7.0593],[-70.8479,7.0746],[-70.697,7.094],[-70.6087,7.064],[-70.5487,7.074],[-70.5031,7.0062],[-70.4306,7.007],[-70.3713,6.9802],[-70.3224,6.9346],[-70.2665,6.941],[-70.2243,6.9747],[-70.1178,6.9794],[-69.8141,6.5968],[-69.4276,6.1075],[-69.3447,6.1444],[-69.3104,6.0909],[-69.2375,6.0799],[-69.1228,6.1915],[-69.0435,6.2216],[-68.8755,6.1672],[-68.8304,6.18],[-68.79,6.1473],[-68.7461,6.1569],[-68.643,6.1293],[-68.5964,6.1636],[-68.5511,6.1496],[-68.5123,6.1775],[-68.3785,6.186],[-68.2961,6.1661],[-68.2579,6.1968],[-68.0931,6.2313],[-68.0262,6.1963],[-67.9245,6.2401],[-67.8351,6.3176],[-67.7691,6.2942],[-67.6148,6.2878],[-67.5552,6.2671],[-67.4559,6.1914],[-67.44,6.1974]]]},"properties":{"shapeName":"Apure","shapeISO":"VE-C","shapeType":"ADM1"}},
{"type":"Feature","geometry":{"type":"Polygon","coordinates":[[[-67.4004,10.5298],[-67.4703,10.5365],[-67.6626,10.4968],[-67.7071,10.5026],[-67.8598,10.4766],[-67.879,10.4469],[-67.8818,10.3724],[-67.7985,10.3278],[-67.7662,10.3499],[-67.6742,10.335],[-67.651,10.2977],[-67.6725,10.2433],[-67.6097,10.2105],[-67.6144,10.1136],[-67.6609,10.1328],[-67.6838,10.0394],[-67.6043,9.9942],[-67.5445,9.9972],[-67.5346,9.9547],[-67.4307,9.994],[-67.3509,9.9363],[-67.1719,9.9266],[-67.1432,9.8315],[-67.1056,9.7869],[-67.0361,9.7859],[-66.9815,9.7589],[-66.9635,9.6939],[-66.8514,9.6647],[-66.8421,9.6157],[-66.8913,9.5391],[-66.9451,9.5426],[-66.9864,9.5058],[-66.9828,9.4364],[-66.8933,9.3373],[-66.8514,9.3443],[-66.7028,9.2523],[-66.6577,9.2896],[-66.5962,9.3788],[-66.5573,9.4849],[-66.5864,9.5357],[-66.5461,9.613],[-66.5582,9.6617],[-66.6208,9.7081],[-66.6265,9.7553],[-66.5812,9.8406],[-66.6129,9.9725],[-66.6447,9.9679],[-66.7791,10.0159],[-66.8758,9.9991],[-66.9678,10.068],[-67.0566,10.056],[-67.1099,10.089],[-67.1388,10.1525],[-67.0985,10.2386],[-67.1833,10.2988],[-67.1895,10.3548],[-67.2202,10.4104],[-67.2952,10.4224],[-67.3478,10.3996],[-67.4004,10.5298]]]},"properties":{"shapeName":"Aragua","shapeISO":"VE-D","shapeType":"ADM1"}},
{"type":"Feature","geometry":{"type":"Polygon","coordinates":[[[-67.5355,7.9443],[-67.5837,8.0205],[-67.5756,8.0744],[-67.6631,8.1366],[-67.6681,8.1829],[-67.706,8.2274],[-67.7518,8.231],[-67.828,8.2661],[-67.8548,8.3502],[-67.9386,8.3869],[-68.0174,8.4921],[-68.0245,8.5345],[-68.1018,8.5892],[-68.2077,8.604],[-68.2828,8.5871],[-68.3797,8.6139],[-68.4162,8.6005],[-68.532,8.5981],[-68.5136,8.5621],[-68.7417,8.3316],[-68.7883,8.3168],[-68.7948,8.265],[-68.8473,8.1618],[-68.8931,8.1516],[-68.959,8.1924],[-68.9805,8.235],[-69.0449,8.2854],[-69.0857,8.2928],[-69.1438,8.3693],[-69.1331,8.4086],[-69.1907,8.4795],[-69.1973,8.5341],[-69.2856,8.6362],[-69.3753,8.6258],[-69.4404,8.6686],[-69.4909,8.6684],[-69.6204,8.7332],[-69.6932,8.7081],[-69.7456,8.7351],[-69.8247,8.7429],[-69.9066,8.7755],[-69.9515,8.8197],[-69.9979,8.8291],[-70.0499,8.9222],[-70.168,8.982],[-70.2021,9.0528],[-70.2756,9.0303],[-70.346,9.0594],[-70.5048,8.9972],[-70.5523,8.9521],[-70.5752,8.9077],[-70.568,8.8573],[-70.6398,8.8451],[-70.754,8.7272],[-70.707,8.6742],[-70.7308,8.6239],[-70.8505,8.5856],[-70.8307,8.4923],[-70.8515,8.4124],[-70.9074,8.3593],[-70.9102,8.2667],[-71.0095,8.1976],[-71.045,8.116],[-71.1038,8.0437],[-71.1676,8.012],[-71.3842,7.8267],[-71.454,7.7836],[-71.4655,7.7255],[-71.4436,7.6929],[-71.4925,7.6623],[-71.4984,7.6163],[-71.4211,7.572],[-71.3673,7.4978],[-71.4881,7.4984],[-71.5275,7.5223],[-71.6275,7.5204],[-71.693,7.5472],[-71.7697,7.5273],[-71.8255,7.5359],[-71.8406,7.4888],[-71.8125,7.487],[-71.7084,7.4229],[-71.5928,7.419],[-71.5022,7.4269],[-71.4545,7.4629],[-71.4277,7.4432],[-71.3066,7.4452],[-71.1764,7.3872],[-70.9994,7.3402],[-70.9628,7.3092],[-70.8745,7.3337],[-70.7897,7.2991],[-70.6145,7.324],[-70.5095,7.3744],[-70.5153,7.407],[-70.396,7.4428],[-70.3586,7.4895],[-70.324,7.5991],[-70.2517,7.6074],[-70.2135,7.5903],[-70.1693,7.6157],[-70.1466,7.6813],[-70.0417,7.7427],[-69.9683,7.751],[-69.8971,7.7954],[-69.7295,7.8232],[-69.592,7.9321],[-69.5364,7.9904],[-69.5026,7.9977],[-69.4346,8.066],[-69.3819,8.0497],[-69.2135,8.0669],[-69.1478,8.0491],[-69.0514,7.974],[-69.0328,8.0011],[-68.9637,7.9966],[-68.9317,7.9187],[-68.8841,7.8997],[-68.7806,7.8927],[-68.7145,7.906],[-68.618,7.9631],[-68.4713,7.9273],[-68.4151,7.9295],[-68.3297,7.8831],[-68.2906,7.9222],[-68.2418,7.9033],[-68.1277,7.9033],[-68.0627,7.8679],[-67.9478,7.9095],[-67.8749,7.8926],[-67.8383,7.9196],[-67.7608,7.9047],[-67.6976,7.9152],[-67.5948,7.9847],[-67.5355,7.9443]]]},"properties":{"shapeName":"Barinas","shapeISO":"VE-E","shapeType":"ADM1"}},
{"type":"Feature","geometry":{"type":"Polygon","coordinates":[[[-64.6923,4.211],[-64.6481,4.1291],[-64.5934,4.0979],[-64.5545,4.1009],[-64.4694,4.15],[-64.3722,4.1356],[-64.2654,4.0985],[-64.2683,4.1303],[-64.1606,4.0941],[-64.1216,4.0681],[-64.0556,3.9705],[-64.0096,3.866],[-63.9729,3.8687],[-63.9016,3.9242],[-63.8244,3.9624],[-63.7705,3.9257],[-63.69,3.9354],[-63.6078,3.9612],[-63.5231,3.8617],[-63.4479,3.8674],[-63.4049,3.9648],[-63.3704,3.9667],[-63.227,3.9077],[-63.2002,3.8299],[-63.1005,3.7425],[-63.0152,3.6501],[-62.9802,3.5802],[-62.9292,3.5522],[-62.8657,3.5549],[-62.8417,3.5934],[-62.7855,3.5995],[-62.73,3.6932],[-62.7387,3.7776],[-62.7658,3.8192],[-62.7801,3.8898],[-62.7555,3.9521],[-62.7434,4.0363],[-62.618,4.0403],[-62.5542,4.0222],[-62.5517,4.0981],[-62.4868,4.129],[-62.4436,4.1805],[-62.3339,4.1385],[-62.2482,4.127],[-62.145,4.0771],[-62.1002,4.1122],[-61.9885,4.1685],[-61.9423,4.1295],[-61.9138,4.1498],[-61.8355,4.1566],[-61.7573,4.2449],[-61.6782,4.2548],[-61.5784,4.2428],[-61.5094,4.304],[-61.4987,4.4008],[-61.4492,4.424],[-61.3488,4.4086],[-61.2765,4.4557],[-61.3198,4.5221],[-61.2503,4.5278],[-61.1856,4.5106],[-61.1482,4.4767],[-61.0617,4.516],[-60.9973,4.5107],[-60.9393,4.569],[-60.9375,4.6234],[-60.9069,4.7011],[-60.8396,4.7132],[-60.744,4.7561],[-60.6389,4.8664],[-60.5829,4.9407],[-60.6314,5.0479],[-60.6556,5.1364],[-60.6841,5.1876],[-60.7314,5.1991],[-61.3879,5.9376],[-61.344,6.0018],[-61.2576,6.0986],[-61.1775,6.1149],[-61.1614,6.1811],[-61.1153,6.1784],[-61.1152,6.2506],[-61.1629,6.3245],[-61.1285,6.4248],[-61.2154,6.573],[-61.1878,6.629],[-61.1164,6.7186],[-61.0701,6.7072],[-60.9814,6.7267],[-60.9394,6.7149],[-60.8573,6.7916],[-60.8004,6.794],[-60.6991,6.7544],[-60.6492,6.825],[-60.5358,6.8535],[-60.4275,6.9382],[-60.3546,6.9473],[-60.3519,6.9961],[-60.2956,7.0447],[-60.2776,7.1266],[-60.342,7.1798],[-60.4042,7.1781],[-60.4489,7.2101],[-60.493,7.1868],[-60.5324,7.1286],[-60.6138,7.2119],[-60.6287,7.2605],[-60.5859,7.3141],[-60.6035,7.3885],[-60.6383,7.4486],[-60.6915,7.4744],[-60.7095,7.5453],[-60.6474,7.5722],[-60.5687,7.7138],[-60.5657,7.7654],[-60.503,7.8357],[-60.4496,7.8424],[-60.3609,7.8173],[-60.2725,7.8936],[-60.3226,7.881],[-60.6673,7.8385],[-60.8356,7.8795],[-60.8385,7.8379],[-60.8993,7.7549],[-60.9738,7.7534],[-61.243,7.903],[-61.2888,7.9788],[-61.4023,7.9319],[-61.4902,7.8104],[-61.5581,7.8519],[-61.5843,7.9029],[-61.6553,7.9461],[-61.6611,8.0589],[-61.6909,8.0729],[-61.7077,8.1345],[-61.7901,8.2332],[-61.7878,8.2831],[-61.7202,8.2978],[-61.6825,8.3615],[-61.7004,8.4434],[-62.3096,8.282],[-62.4041,8.3243],[-62.5016,8.3868],[-62.6116,8.441],[-62.6798,8.3824],[-62.7671,8.39],[-62.8429,8.2993],[-62.9004,8.2811],[-62.9486,8.3106],[-63.031,8.3213],[-63.1838,8.316],[-63.2304,8.3058],[-63.3336,8.2348],[-63.3715,8.2331],[-63.4401,8.1742],[-63.5813,8.1483],[-63.6776,8.1689],[-63.7118,8.1465],[-63.8242,8.1343],[-63.9317,7.9761],[-64.0257,7.9425],[-64.1593,8.0084],[-64.23,8.0849],[-64.2856,8.0949],[-64.3374,8.0658],[-64.3617,8.0137],[-64.4114,7.9991],[-64.4489,8.0325],[-64.5456,7.989],[-64.5804,7.9044],[-64.5667,7.8754],[-64.4536,7.8283],[-64.5098,7.7689],[-64.5938,7.7646],[-64.6756,7.7426],[-64.7923,7.6713],[-64.8768,7.6612],[-64.9647,7.7063],[-65.0192,7.7678],[-65.1899,7.8204],[-65.3668,7.8565],[-65.4166,7.8561],[-65.5284,7.8885],[-65.6371,7.9011],[-65.7191,7.8471],[-65.761,7.789],[-65.8629,7.6871],[-65.9231,7.6729],[-66.0162,7.6875],[-66.1225,7.6892],[-66.2554,7.6234],[-66.3301,7.6468],[-66.456,7.5674],[-66.5086,7.4735],[-66.5043,7.4368],[-66.5512,7.3866],[-66.5684,7.3367],[-66.8204,7.253],[-66.8894,7.1706],[-66.9726,7.1891],[-67.0084,7.1688],[-67.0701,7.0866],[-67.0667,6.9967],[-67.0175,6.9096],[-67.0339,6.7657],[-67.0958,6.7062],[-67.1544,6.4674],[-67.2747,6.3536],[-67.3206,6.2812],[-67.3994,6.2538],[-67.44,6.1974],[-67.3976,6.1291],[-67.3099,6.1486],[-67.2823,6.1138],[-67.2015,6.1209],[-67.1261,6.0497],[-67.1597,5.8979],[-67.209,5.7895],[-67.1971,5.7042],[-67.0963,5.7342],[-67.0604,5.7171],[-66.999,5.6355],[-66.8566,5.6837],[-66.7022,5.718],[-66.636,5.7436],[-66.5851,5.7352],[-66.4635,5.789],[-66.4048,5.7687],[-66.3492,5.8213],[-66.2903,5.7754],[-66.063,5.7174],[-66.0286,5.7785],[-65.9864,5.8048],[-65.8992,5.9483],[-65.8575,5.9976],[-65.8399,6.0898],[-65.7763,6.1174],[-65.7195,6.1108],[-65.6298,6.1521],[-65.576,6.1397],[-65.5654,6.0779],[-65.603,6.0014],[-65.5983,5.9712],[-65.632,5.885],[-65.5945,5.8547],[-65.5905,5.7752],[-65.5489,5.6875],[-65.4836,5.7005],[-65.4403,5.7325],[-65.3446,5.74],[-65.2844,5.7684],[-65.222,5.7637],[-65.2097,5.7223],[-65.2529,5.6623],[-65.1942,5.5704],[-65.1493,5.5382],[-65.1553,5.4444],[-65.1065,5.3832],[-65.1258,5.3473],[-65.2825,5.2675],[-65.2219,5.143],[-65.1689,5.1845],[-65.1341,5.1333],[-65.1247,4.8659],[-65.1034,4.8211],[-65.015,4.7056],[-64.9627,4.6771],[-64.9029,4.5851],[-64.8495,4.5703],[-64.7888,4.5966],[-64.7443,4.6677],[-64.6958,4.6516],[-64.6015,4.6879],[-64.5493,4.637],[-64.6025,4.5646],[-64.606,4.4575],[-64.678,4.4511],[-64.6965,4.4162],[-64.6355,4.3378],[-64.6218,4.2918],[-64.647,4.2143],[-64.6923,4.211]]]},"properties":{"shapeName":"Bolívar","shapeISO":"VE-F","shapeType":"ADM1"}},
{"type":"Feature","geometry":{"type":"Polygon","coordinates":[[[-67.6609,10.1328],[-67.8354,10.1052],[-67.8703,10.1573],[-67.8184,10.2245],[-67.7313,10.2607],[-67.6725,10.2433],[-67.651,10.2977],[-67.6742,10.335],[-67.7662,10.3499],[-67.7985,10.3278],[-67.8818,10.3724],[-67.879,10.4469],[-67.8598,10.4766],[-67.9252,10.4546],[-67.9739,10.4859],[-68.0212,10.474],[-68.0609,10.4978],[-68.1029,10.4817],[-68.1682,10.5021],[-68.2355,10.5777],[-68.2487,10.5786],[-68.3151,10.5373],[-68.3577,10.5505],[-68.4006,10.4876],[-68.3986,10.3631],[-68.3581,10.2656],[-68.4276,10.1786],[-68.397,10.1207],[-68.4029,10.0647],[-68.3703,9.9899],[-68.2843,10.071],[-68.2349,10.0854],[-68.2404,9.9651],[-68.1471,9.9176],[-68.1198,9.844],[-68.0311,9.8613],[-67.9929,9.828],[-67.9185,9.8113],[-67.8054,9.849],[-67.7823,9.9234],[-67.7124,9.8739],[-67.687,9.8226],[-67.6298,9.8617],[-67.5969,9.8437],[-67.5346,9.9547],[-67.5445,9.9972],[-67.6043,9.9942],[-67.6838,10.0394],[-67.6609,10.1328]]]},"properties":{"shapeName":"Carabobo","shapeISO":"VE-G","shapeType":"ADM1"}},
{"type":"Feature","geometry":{"type":"Polygon","coordinates":[[[-68.0245,8.5345],[-67.9971,8.5737],[-68.0164,8.6252],[-68.0099,8.691],[-68.026,8.7598],[-67.9716,8.8571],[-67.9793,8.9109],[-67.9307,8.9339],[-67.8504,9.0934],[-67.8778,9.2236],[-67.9447,9.3218],[-67.9206,9.371],[-67.9264,9.4816],[-67.9662,9.5416],[-67.9173,9.6151],[-67.8269,9.6268],[-67.7577,9.6828],[-67.7662,9.7416],[-67.7974,9.7808],[-67.8054,9.849],[-67.9185,9.8113],[-67.9929,9.828],[-68.0311,9.8613],[-68.1198,9.844],[-68.1471,9.9176],[-68.2404,9.9651],[-68.2349,10.0854],[-68.2843,10.071],[-68.3703,9.9899],[-68.444,9.9292],[-68.5211,9.8874],[-68.527,9.928],[-68.6048,9.9324],[-68.6616,9.9763],[-68.7158,9.9412],[-68.7282,9.8761],[-68.8541,9.8352],[-68.9742,9.8426],[-68.9842,9.7782],[-68.9877,9.7308],[-68.9237,9.6139],[-68.8932,9.5164],[-68.896,9.4393],[-68.8366,9.359],[-68.7862,9.3327],[-68.7704,9.2717],[-68.7031,9.2559],[-68.6289,9.2188],[-68.6639,8.9844],[-68.5733,8.838],[-68.6859,8.7635],[-68.6227,8.6354],[-68.532,8.5981],[-68.4162,8.6005],[-68.3797,8.6139],[-68.2828,8.5871],[-68.2077,8.604],[-68.1018,8.5892],[-68.0245,8.5345]]]},"properties":{"shapeName":"Cojedes","shapeISO":"VE-H","shapeType":"ADM1"}},
{"type":"Feature","geometry":{"type":"Polygon","coordinates":[[[-60.2725,7.8936],[-60.2202,7.9566],[-60.1627,7.9737],[-60.1164,8.0266],[-60.0597,8.0162],[-60.0081,8.0717],[-59.9814,8.1865],[-59.9444,8.2138],[-59.8349,8.2335],[-59.7411,8.2198],[-59.7504,8.2566],[-59.8402,8.3205],[-60.0518,8.5786],[-60.1604,8.5914],[-60.2423,8.6188],[-60.3488,8.6384],[-60.392,8.6326],[-60.4563,8.5193],[-60.5931,8.5495],[-60.581,8.6231],[-60.6682,8.6688],[-60.6807,8.7044],[-60.65,8.756],[-60.698,8.8156],[-60.7833,8.9855],[-60.6743,9.0736],[-60.6912,9.1528],[-60.77,9.2402],[-60.7621,9.2667],[-60.8358,9.4036],[-60.9549,9.5153],[-61.0445,9.5728],[-61.1383,9.5591],[-61.1807,9.585],[-61.2295,9.5686],[-61.4076,9.6646],[-61.4835,9.7607],[-61.4941,9.7935],[-61.5606,9.867],[-61.6309,9.8889],[-61.5904,9.8126],[-61.6447,9.7769],[-61.8015,9.8282],[-61.854,9.8036],[-61.9143,9.8782],[-62.0694,9.9704],[-62.1988,10.018],[-62.2221,9.9952],[-62.2929,9.994],[-62.3103,9.8298],[-62.2963,9.7402],[-62.3599,9.6927],[-62.3506,9.6466],[-62.4396,9.5447],[-62.4442,9.5004],[-62.399,9.4626],[-62.4089,9.4081],[-62.349,9.3824],[-62.3243,9.2561],[-62.2989,9.2256],[-62.3266,9.1318],[-62.2641,9.1176],[-62.1948,9.0652],[-62.1666,9.0881],[-62.1016,9.0768],[-62.0554,9.0395],[-62.0891,8.9776],[-62.0515,8.8805],[-62.0709,8.7568],[-62.1424,8.7062],[-62.2033,8.6814],[-62.2306,8.6186],[-62.3035,8.5769],[-62.3543,8.5657],[-62.4667,8.5136],[-62.4994,8.5188],[-62.5749,8.4818],[-62.6116,8.441],[-62.5016,8.3868],[-62.4041,8.3243],[-62.3096,8.282],[-61.7004,8.4434],[-61.6825,8.3615],[-61.7202,8.2978],[-61.7878,8.2831],[-61.7901,8.2332],[-61.7077,8.1345],[-61.6909,8.0729],[-61.6611,8.0589],[-61.6553,7.9461],[-61.5843,7.9029],[-61.5581,7.8519],[-61.4902,7.8104],[-61.4023,7.9319],[-61.2888,7.9788],[-61.243,7.903],[-60.9738,7.7534],[-60.8993,7.7549],[-60.8385,7.8379],[-60.8356,7.8795],[-60.6673,7.8385],[-60.3226,7.881],[-60.2725,7.8936]]]},"properties":{"shapeName":"Delta Amacuro","shapeISO":"VE-Y","shapeType":"ADM1"}},
{"type":"Feature","geometry":{"type":"Polygon","coordinates":[[[-66.8727,10.5461],[-66.9521,10.5435],[-67.0142,10.5625],[-67.0506,10.5267],[-67.0729,10.4605],[-67.1628,10.4368],[-67.1516,10.4155],[-67.0454,10.3859],[-66.9989,10.3874],[-66.9501,10.4246],[-66.9095,10.4089],[-66.8727,10.5461]]]},"properties":{"shapeName":"Distrito Capital","shapeISO":"VE-A","shapeType":"ADM1"}},
{"type":"Feature","geometry":{"type":"Polygon","coordinates":[[[-68.2355,10.5777],[-68.2883,10.6618],[-68.322,10.7563],[-68.3029,10.8569],[-68.2275,10.8526],[-68.2251,10.8869],[-68.2834,10.8988],[-68.2817,10.9448],[-68.3916,11.1443],[-68.4478,11.1749],[-68.5295,11.2632],[-68.6102,11.2893],[-68.6649,11.3486],[-68.7215,11.3466],[-68.7923,11.3958],[-68.8303,11.4434],[-68.946,11.4501],[-69.0509,11.4393],[-69.0978,11.4859],[-69.2028,11.5033],[-69.2824,11.5349],[-69.3685,11.4826],[-69.5254,11.5034],[-69.5907,11.4551],[-69.6281,11.4704],[-69.7188,11.595],[-69.7848,11.7657],[-69.8136,11.8899],[-69.824,12.0028],[-69.8932,12.135],[-69.9349,12.1727],[-70.0015,12.1951],[-70.0546,12.178],[-70.1471,12.1055],[-70.202,12.1014],[-70.2098,12.065],[-70.2907,11.9034],[-70.2771,11.8178],[-70.2144,11.7778],[-70.2252,11.6089],[-70.1272,11.6163],[-69.9403,11.6711],[-69.8694,11.6655],[-69.807,11.6921],[-69.761,11.5918],[-69.7279,11.4865],[-69.8158,11.4195],[-69.8784,11.4355],[-69.8863,11.4941],[-69.9659,11.4848],[-70.0047,11.5183],[-70.0379,11.4501],[-70.1371,11.467],[-70.1496,11.4112],[-70.1971,11.3561],[-70.2849,11.3488],[-70.4192,11.2811],[-70.4748,11.2872],[-70.5192,11.2349],[-70.6159,11.2239],[-70.7134,11.2264],[-70.8515,11.1917],[-71.1506,11.0246],[-71.315,10.9635],[-71.221,10.9325],[-71.1825,10.8297],[-71.097,10.77],[-71.0868,10.6256],[-70.9526,10.4649],[-70.7984,10.4646],[-70.7576,10.3936],[-70.76,10.3268],[-70.692,10.3011],[-70.6235,10.33],[-70.5691,10.3271],[-70.5207,10.443],[-70.3975,10.4855],[-70.3953,10.5244],[-70.3414,10.5681],[-70.2785,10.5613],[-70.199,10.6082],[-70.1415,10.663],[-70.0504,10.6447],[-69.9507,10.7017],[-69.8236,10.7046],[-69.7208,10.7447],[-69.6906,10.7195],[-69.647,10.7392],[-69.5671,10.7296],[-69.5183,10.6948],[-69.4634,10.6902],[-69.3999,10.7097],[-69.2582,10.701],[-69.1302,10.6796],[-69.0112,10.6965],[-68.9034,10.6937],[-68.8749,10.6496],[-68.8435,10.6504],[-68.7664,10.7272],[-68.6579,10.7312],[-68.6518,10.6187],[-68.6009,10.6025],[-68.2487,10.5786],[-68.2355,10.5777]]]},"properties":{"shapeName":"Falcón","shapeISO":"VE-I","shapeType":"ADM1"}},
{"type":"Feature","geometry":{"type":"Polygon","coordinates":[[[-65.7177,9.9621],[-65.7595,9.9497],[-65.844,9.9702],[-65.9184,9.9446],[-66.0022,9.9385],[-66.0878,9.967],[-66.2076,9.951],[-66.2444,9.988],[-66.2835,9.9778],[-66.3782,10.039],[-66.5468,9.9665],[-66.6129,9.9725],[-66.5812,9.8406],[-66.6265,9.7553],[-66.6208,9.7081],[-66.5582,9.6617],[-66.5461,9.613],[-66.5864,9.5357],[-66.5573,9.4849],[-66.5962,9.3788],[-66.6577,9.2896],[-66.7028,9.2523],[-66.8514,9.3443],[-66.8933,9.3373],[-66.9828,9.4364],[-66.9864,9.5058],[-66.9451,9.5426],[-66.8913,9.5391],[-66.8421,9.6157],[-66.8514,9.6647],[-66.9635,9.6939],[-66.9815,9.7589],[-67.0361,9.7859],[-67.1056,9.7869],[-67.1432,9.8315],[-67.1719,9.9266],[-67.3509,9.9363],[-67.4307,9.994],[-67.5346,9.9547],[-67.5969,9.8437],[-67.6298,9.8617],[-67.687,9.8226],[-67.7124,9.8739],[-67.7823,9.9234],[-67.8054,9.849],[-67.7974,9.7808],[-67.7662,9.7416],[-67.7577,9.6828],[-67.8269,9.6268],[-67.9173,9.6151],[-67.9662,9.5416],[-67.9264,9.4816],[-67.9206,9.371],[-67.9447,9.3218],[-67.8778,9.2236],[-67.8504,9.0934],[-67.9307,8.9339],[-67.9793,8.9109],[-67.9716,8.8571],[-68.026,8.7598],[-68.0099,8.691],[-68.0164,8.6252],[-67.9971,8.5737],[-68.0245,8.5345],[-68.0174,8.4921],[-67.9386,8.3869],[-67.8548,8.3502],[-67.828,8.2661],[-67.7518,8.231],[-67.706,8.2274],[-67.6681,8.1829],[-67.6631,8.1366],[-67.5756,8.0744],[-67.5837,8.0205],[-67.5355,7.9443],[-67.4982,7.9026],[-67.4376,7.8865],[-67.3944,7.9133],[-67.3269,7.881],[-67.3235,7.8463],[-67.256,7.8187],[-67.219,7.7774],[-67.1493,7.7588],[-67.0494,7.7888],[-66.9376,7.7416],[-66.8158,7.7315],[-66.759,7.696],[-66.6488,7.7014],[-66.6069,7.7632],[-66.544,7.7861],[-66.48,7.764],[-66.4689,7.7297],[-66.3975,7.7113],[-66.3599,7.7258],[-66.3301,7.6468],[-66.2554,7.6234],[-66.1225,7.6892],[-66.0162,7.6875],[-65.9231,7.6729],[-65.8629,7.6871],[-65.761,7.789],[-65.7191,7.8471],[-65.6371,7.9011],[-65.5284,7.8885],[-65.4166,7.8561],[-65.3668,7.8565],[-65.4215,7.9164],[-65.4916,7.9169],[-65.4974,7.99],[-65.3982,8.1168],[-65.3603,8.2066],[-65.2981,8.2571],[-65.2634,8.3242],[-65.2072,8.3657],[-65.1778,8.4862],[-65.1477,8.5594],[-65.1715,8.6547],[-65.1639,8.7113],[-65.1332,8.7489],[-65.08,8.7645],[-65.019,8.7387],[-64.9796,8.7503],[-64.9117,8.7365],[-64.8481,8.698],[-64.7806,8.8134],[-64.7988,8.8954],[-64.9337,8.9913],[-64.9436,9.0411],[-64.985,9.1151],[-65.0207,9.12],[-65.0876,9.1718],[-65.1755,9.1689],[-65.2172,9.2342],[-65.27,9.2771],[-65.2849,9.3826],[-65.2313,9.4063],[-65.2032,9.4559],[-65.2241,9.5012],[-65.3164,9.5181],[-65.4048,9.5959],[-65.4302,9.6543],[-65.5016,9.5584],[-65.647,9.56],[-65.6476,9.6328],[-65.6979,9.6873],[-65.6707,9.7736],[-65.7219,9.875],[-65.7177,9.9621]]]},"properties":{"shapeName":"Guárico","shapeISO":"VE-J","shapeType":"ADM1"}},
{"type":"Feature","geometry":{"type":"Polygon","coordinates":[[[-67.2202,10.4104],[-67.1628,10.4368],[-67.0729,10.4605],[-67.0506,10.5267],[-67.0142,10.5625],[-66.9521,10.5435],[-66.8727,10.5461],[-66.6028,10.5398],[-66.5831,10.5569],[-66.4469,10.531],[-66.3219,10.5485],[-66.3135,10.6189],[-66.3492,10.6066],[-66.4164,10.6312],[-66.8428,10.6215],[-66.9592,10.5998],[-67.023,10.6138],[-67.1608,10.5597],[-67.4004,10.5298],[-67.3478,10.3996],[-67.2952,10.4224],[-67.2202,10.4104]]]},"properties":{"shapeName":"La Guaira","shapeISO":"VE-X","shapeType":"ADM1"}},
{"type":"Feature","geometry":{"type":"Polygon","coordinates":[[[-68.9742,9.8426],[-68.9469,9.9068],[-68.9636,10.0173],[-69.0859,9.9577],[-69.0886,9.8697],[-69.1246,9.88],[-69.1595,9.943],[-69.1616,10.0413],[-69.2083,10.0876],[-69.1968,10.1309],[-69.1215,10.1368],[-69.0895,10.2354],[-69.0151,10.2401],[-69.0326,10.4115],[-69.0746,10.4033],[-69.0493,10.5201],[-68.9875,10.5548],[-68.9454,10.5389],[-68.9086,10.5618],[-68.8749,10.6496],[-68.9034,10.6937],[-69.0112,10.6965],[-69.1302,10.6796],[-69.2582,10.701],[-69.3999,10.7097],[-69.4634,10.6902],[-69.5183,10.6948],[-69.5671,10.7296],[-69.647,10.7392],[-69.6906,10.7195],[-69.7208,10.7447],[-69.8236,10.7046],[-69.9507,10.7017],[-70.0504,10.6447],[-70.1415,10.663],[-70.199,10.6082],[-70.2785,10.5613],[-70.3414,10.5681],[-70.3953,10.5244],[-70.3975,10.4855],[-70.5207,10.443],[-70.5691,10.3271],[-70.6235,10.33],[-70.692,10.3011],[-70.702,10.2073],[-70.7625,10.1328],[-70.8391,10.0982],[-70.881,10.0467],[-70.7908,9.919],[-70.7022,9.8836],[-70.6821,9.9975],[-70.6341,10.0377],[-70.5849,9.952],[-70.4715,9.8656],[-70.4169,9.9045],[-70.3698,9.9047],[-70.3229,9.8443],[-70.2806,9.8231],[-70.242,9.7604],[-70.2154,9.8292],[-70.143,9.7627],[-70.1044,9.7714],[-70.002,9.6763],[-70.0857,9.6765],[-70.1266,9.613],[-70.1227,9.5582],[-70.0773,9.479],[-70.0856,9.4395],[-70.0349,9.4151],[-69.9983,9.449],[-70.0123,9.4983],[-69.9512,9.5546],[-69.87,9.5471],[-69.8335,9.5146],[-69.8938,9.4439],[-69.8393,9.402],[-69.7282,9.4303],[-69.6562,9.4019],[-69.601,9.5345],[-69.4439,9.5494],[-69.4396,9.5882],[-69.3731,9.6375],[-69.3434,9.7287],[-69.2922,9.8306],[-69.2614,9.768],[-69.2812,9.7465],[-69.2435,9.6878],[-69.1565,9.6819],[-69.0672,9.7111],[-69.0524,9.7421],[-68.9842,9.7782],[-68.9742,9.8426]]]},"properties":{"shapeName":"Lara","shapeISO":"VE-K","shapeType":"ADM1"}},
{"type":"Feature","geometry":{"type":"Polygon","coordinates":[[[-70.5523,8.9521],[-70.545,9.0024],[-70.6187,9.0129],[-70.6734,8.9758],[-70.7233,9.0336],[-70.8446,9.0891],[-70.8982,9.1936],[-71.0296,9.0863],[-71.0949,9.1518],[-71.1476,9.15],[-71.2196,9.1979],[-71.2242,9.1633],[-71.1875,9.1178],[-71.1111,9.0819],[-71.0998,9.0436],[-71.3085,8.9023],[-71.3794,8.938],[-71.5365,8.8176],[-71.7017,8.6773],[-71.8651,8.6761],[-71.9151,8.6323],[-71.8233,8.5881],[-71.7758,8.4953],[-71.8122,8.4038],[-71.8277,8.3135],[-71.891,8.2366],[-71.9117,8.1893],[-71.8566,8.1797],[-71.7652,8.0898],[-71.7547,8.0576],[-71.6679,8.0082],[-71.603,8.057],[-71.5705,8.004],[-71.5118,7.9525],[-71.5144,7.7976],[-71.534,7.7532],[-71.4925,7.6623],[-71.4436,7.6929],[-71.4655,7.7255],[-71.454,7.7836],[-71.3842,7.8267],[-71.1676,8.012],[-71.1038,8.0437],[-71.045,8.116],[-71.0095,8.1976],[-70.9102,8.2667],[-70.9074,8.3593],[-70.8515,8.4124],[-70.8307,8.4923],[-70.8505,8.5856],[-70.7308,8.6239],[-70.707,8.6742],[-70.754,8.7272],[-70.6398,8.8451],[-70.568,8.8573],[-70.5752,8.9077],[-70.5523,8.9521]]]},"properties":{"shapeName":"Mérida","shapeISO":"VE-L","shapeType":"ADM1"}},
{"type":"Feature","geometry":{"type":"Polygon","coordinates":[[[-65.4314,10.1405],[-65.6352,10.1995],[-65.7772,10.2562],[-65.8756,10.3056],[-66.0513,10.4306],[-66.1101,10.4999],[-66.076,10.5764],[-66.1699,10.6104],[-66.2359,10.6489],[-66.3135,10.6189],[-66.3219,10.5485],[-66.4469,10.531],[-66.5831,10.5569],[-66.6028,10.5398],[-66.8727,10.5461],[-66.9095,10.4089],[-66.9501,10.4246],[-66.9989,10.3874],[-67.0454,10.3859],[-67.1516,10.4155],[-67.1628,10.4368],[-67.2202,10.4104],[-67.1895,10.3548],[-67.1833,10.2988],[-67.0985,10.2386],[-67.1388,10.1525],[-67.1099,10.089],[-67.0566,10.056],[-66.9678,10.068],[-66.8758,9.9991],[-66.7791,10.0159],[-66.6447,9.9679],[-66.6129,9.9725],[-66.5468,9.9665],[-66.3782,10.039],[-66.2835,9.9778],[-66.2444,9.988],[-66.2076,9.951],[-66.0878,9.967],[-66.0022,9.9385],[-65.9184,9.9446],[-65.844,9.9702],[-65.7595,9.9497],[-65.7177,9.9621],[-65.6938,9.9799],[-65.6383,9.95],[-65.5856,10.0083],[-65.4914,10.0696],[-65.4314,10.1405]]]},"properties":{"shapeName":"Miranda","shapeISO":"VE-M","shapeType":"ADM1"}},
{"type":"Feature","geometry":{"type":"Polygon","coordinates":[[[-62.6798,8.3824],[-62.6116,8.441],[-62.5749,8.4818],[-62.4994,8.5188],[-62.4667,8.5136],[-62.3543,8.5657],[-62.3035,8.5769],[-62.2306,8.6186],[-62.2033,8.6814],[-62.1424,8.7062],[-62.0709,8.7568],[-62.0515,8.8805],[-62.0891,8.9776],[-62.0554,9.0395],[-62.1016,9.0768],[-62.1666,9.0881],[-62.1948,9.0652],[-62.2641,9.1176],[-62.3266,9.1318],[-62.2989,9.2256],[-62.3243,9.2561],[-62.349,9.3824],[-62.4089,9.4081],[-62.399,9.4626],[-62.4442,9.5004],[-62.4396,9.5447],[-62.3506,9.6466],[-62.3599,9.6927],[-62.2963,9.7402],[-62.3103,9.8298],[-62.2929,9.994],[-62.4348,9.9973],[-62.4976,10.1786],[-62.5392,10.2171],[-62.6314,10.2674],[-62.633,10.2012],[-62.611,10.1063],[-62.6747,10.0632],[-62.7283,10.0587],[-62.769,10.0818],[-62.8948,10.0552],[-62.9511,10.0946],[-62.9739,10.0701],[-63.045,10.1228],[-63.0653,10.1782],[-63.108,10.1906],[-63.1884,10.144],[-63.2235,10.1916],[-63.3357,10.2126],[-63.3883,10.239],[-63.4115,10.288],[-63.4605,10.3192],[-63.5138,10.2961],[-63.5684,10.2017],[-63.642,10.2225],[-63.7555,10.1775],[-63.8142,10.1043],[-63.8703,10.1064],[-63.9564,10.084],[-63.9586,10.0543],[-64.0224,10.041],[-64.0627,10.0055],[-64.0359,9.9302],[-63.9881,9.9253],[-63.9176,9.8589],[-63.9544,9.8234],[-63.9479,9.705],[-63.8252,9.5435],[-63.9726,9.4146],[-63.9717,9.339],[-63.9185,9.2583],[-63.9112,9.1943],[-63.8374,9.2284],[-63.7615,9.223],[-63.6859,9.1625],[-63.6056,9.1445],[-63.6013,9.1009],[-63.51,9.0622],[-63.4761,9.0205],[-63.3964,8.9983],[-63.3646,8.9476],[-63.3419,8.7654],[-63.2779,8.7598],[-63.002,8.7743],[-63.0462,8.7034],[-63.0392,8.5987],[-63.0013,8.5473],[-62.7257,8.4787],[-62.7212,8.423],[-62.6798,8.3824]]]},"properties":{"shapeName":"Monagas","shapeISO":"VE-N","shapeType":"ADM1"}},
{"type":"Feature","geometry":{"type":"MultiPolygon","coordinates":[[[[-63.9934,10.8091],[-63.9824,10.7645],[-63.9343,10.7349],[-63.9164,10.7899],[-63.9934,10.8091]]],[[[-63.8787,11.1776],[-63.9252,11.1242],[-63.9761,11.1105],[-64.0124,11.0684],[-64.0218,11.002],[-64.1176,10.9898],[-64.2051,11.0521],[-64.1953,11.0838],[-64.3831,11.0435],[-64.4097,10.9735],[-64.2939,10.9447],[-64.2081,10.9347],[-64.1655,10.9657],[-64.1108,10.9062],[-64.0135,10.8722],[-63.8821,10.9354],[-63.8005,10.9952],[-63.8445,11.1293],[-63.8787,11.1776]]]]},"properties":{"shapeName":"Nueva Esparta","shapeISO":"VE-O","shapeType":"ADM1"}},
{"type":"Feature","geometry":{"type":"Polygon","coordinates":[[[-68.532,8.5981],[-68.6227,8.6354],[-68.6859,8.7635],[-68.5733,8.838],[-68.6639,8.9844],[-68.6289,9.2188],[-68.7031,9.2559],[-68.7704,9.2717],[-68.7862,9.3327],[-68.8366,9.359],[-68.896,9.4393],[-68.8932,9.5164],[-68.9237,9.6139],[-68.9877,9.7308],[-68.9842,9.7782],[-69.0524,9.7421],[-69.0672,9.7111],[-69.1565,9.6819],[-69.2435,9.6878],[-69.2812,9.7465],[-69.2614,9.768],[-69.2922,9.8306],[-69.3434,9.7287],[-69.3731,9.6375],[-69.4396,9.5882],[-69.4439,9.5494],[-69.601,9.5345],[-69.6562,9.4019],[-69.7282,9.4303],[-69.8393,9.402],[-69.8938,9.4439],[-69.8335,9.5146],[-69.87,9.5471],[-69.9512,9.5546],[-70.0123,9.4983],[-69.9983,9.449],[-70.0349,9.4151],[-70.036,9.3779],[-70.1146,9.2966],[-70.0633,9.2766],[-70.0955,9.223],[-70.0419,9.1524],[-70.0992,9.0907],[-70.2021,9.0528],[-70.168,8.982],[-70.0499,8.9222],[-69.9979,8.8291],[-69.9515,8.8197],[-69.9066,8.7755],[-69.8247,8.7429],[-69.7456,8.7351],[-69.6932,8.7081],[-69.6204,8.7332],[-69.4909,8.6684],[-69.4404,8.6686],[-69.3753,8.6258],[-69.2856,8.6362],[-69.1973,8.5341],[-69.1907,8.4795],[-69.1331,8.4086],[-69.1438,8.3693],[-69.0857,8.2928],[-69.0449,8.2854],[-68.9805,8.235],[-68.959,8.1924],[-68.8931,8.1516],[-68.8473,8.1618],[-68.7948,8.265],[-68.7883,8.3168],[-68.7417,8.3316],[-68.5136,8.5621],[-68.532,8.5981]]]},"properties":{"shapeName":"Portuguesa","shapeISO":"VE-P","shapeType":"ADM1"}},
{"type":"Feature","geometry":{"type":"Polygon","coordinates":[[[-63.9564,10.084],[-63.8703,10.1064],[-63.8142,10.1043],[-63.7555,10.1775],[-63.642,10.2225],[-63.5684,10.2017],[-63.5138,10.2961],[-63.4605,10.3192],[-63.4115,10.288],[-63.3883,10.239],[-63.3357,10.2126],[-63.2235,10.1916],[-63.1884,10.144],[-63.108,10.1906],[-63.0653,10.1782],[-63.045,10.1228],[-62.9739,10.0701],[-62.9511,10.0946],[-62.8948,10.0552],[-62.769,10.0818],[-62.7283,10.0587],[-62.6747,10.0632],[-62.611,10.1063],[-62.633,10.2012],[-62.6314,10.2674],[-62.6645,10.2969],[-62.6536,10.3562],[-62.7424,10.454],[-62.769,10.5024],[-62.8383,10.4747],[-62.8155,10.5413],[-62.6559,10.5776],[-62.528,10.5436],[-62.3934,10.5539],[-62.3217,10.5386],[-62.2503,10.6347],[-62.0819,10.6302],[-61.9546,10.6435],[-61.9027,10.6656],[-61.8796,10.7182],[-61.9176,10.733],[-61.9981,10.7251],[-62.0698,10.6996],[-62.1924,10.6971],[-62.3739,10.7107],[-62.5303,10.734],[-62.6923,10.7458],[-62.757,10.737],[-62.9085,10.692],[-63.002,10.7244],[-63.1339,10.7029],[-63.1545,10.7143],[-63.2842,10.663],[-63.3892,10.691],[-63.5328,10.6271],[-63.6903,10.6426],[-63.7634,10.6593],[-63.8104,10.708],[-63.8402,10.6422],[-63.916,10.6244],[-64.0124,10.6285],[-64.0608,10.6492],[-64.1383,10.6151],[-64.2695,10.6507],[-64.2966,10.6329],[-64.2629,10.5445],[-64.2125,10.5416],[-64.1656,10.5712],[-64.1062,10.5661],[-63.9483,10.5781],[-63.9122,10.5537],[-63.8175,10.5488],[-63.7042,10.4794],[-63.798,10.4402],[-63.9567,10.4532],[-64.0551,10.4408],[-64.1753,10.4801],[-64.2177,10.4202],[-64.3104,10.4101],[-64.3922,10.3825],[-64.3644,10.303],[-64.4453,10.277],[-64.4834,10.2424],[-64.5307,10.2533],[-64.4875,10.1961],[-64.4422,10.1887],[-64.4437,10.1264],[-64.3992,10.1337],[-64.3678,10.0866],[-64.2933,10.0957],[-64.2295,10.0629],[-64.0533,10.0986],[-64.0238,10.1198],[-63.9564,10.084]]]},"properties":{"shapeName":"Sucre","shapeISO":"VE-R","shapeType":"ADM1"}},
{"type":"Feature","geometry":{"type":"Polygon","coordinates":[[[-71.8406,7.4888],[-71.8255,7.5359],[-71.7697,7.5273],[-71.693,7.5472],[-71.6275,7.5204],[-71.5275,7.5223],[-71.4881,7.4984],[-71.3673,7.4978],[-71.4211,7.572],[-71.4984,7.6163],[-71.4925,7.6623],[-71.534,7.7532],[-71.5144,7.7976],[-71.5118,7.9525],[-71.5705,8.004],[-71.603,8.057],[-71.6679,8.0082],[-71.7547,8.0576],[-71.7652,8.0898],[-71.8566,8.1797],[-71.9117,8.1893],[-71.891,8.2366],[-71.8277,8.3135],[-71.8122,8.4038],[-71.7758,8.4953],[-71.8233,8.5881],[-71.9151,8.6323],[-71.9755,8.6041],[-71.9721,8.5129],[-72.071,8.429],[-72.2162,8.4219],[-72.3087,8.3757],[-72.3254,8.4594],[-72.393,8.4151],[-72.4065,8.3669],[-72.3887,8.3491],[-72.3835,8.2321],[-72.3535,8.1565],[-72.3734,8.1048],[-72.3464,8.0376],[-72.4133,8.0345],[-72.424,7.9902],[-72.4868,7.9452],[-72.4446,7.8599],[-72.4688,7.7938],[-72.4762,7.6334],[-72.4525,7.5648],[-72.478,7.4986],[-72.4138,7.4007],[-72.3207,7.4351],[-72.2221,7.434],[-72.1662,7.3827],[-72.1033,7.4034],[-72.0165,7.3611],[-71.8766,7.4163],[-71.8406,7.4888]]]},"properties":{"shapeName":"Táchira","shapeISO":"VE-S","shapeType":"ADM1"}},
{"type":"Feature","geometry":{"type":"Polygon","coordinates":[[[-70.2021,9.0528],[-70.0992,9.0907],[-70.0419,9.1524],[-70.0955,9.223],[-70.0633,9.2766],[-70.1146,9.2966],[-70.036,9.3779],[-70.0349,9.4151],[-70.0856,9.4395],[-70.0773,9.479],[-70.1227,9.5582],[-70.1266,9.613],[-70.0857,9.6765],[-70.002,9.6763],[-70.1044,9.7714],[-70.143,9.7627],[-70.2154,9.8292],[-70.242,9.7604],[-70.2806,9.8231],[-70.3229,9.8443],[-70.3698,9.9047],[-70.4169,9.9045],[-70.4715,9.8656],[-70.5849,9.952],[-70.6341,10.0377],[-70.6821,9.9975],[-70.7022,9.8836],[-70.6676,9.8221],[-70.6943,9.7604],[-70.7896,9.6896],[-70.8433,9.5854],[-70.9432,9.5897],[-71.0606,9.6168],[-71.0878,9.5419],[-71.0697,9.4549],[-71.0712,9.3668],[-71.0533,9.3548],[-70.991,9.337],[-70.9015,9.2642],[-70.8982,9.1936],[-70.8446,9.0891],[-70.7233,9.0336],[-70.6734,8.9758],[-70.6187,9.0129],[-70.545,9.0024],[-70.5523,8.9521],[-70.5048,8.9972],[-70.346,9.0594],[-70.2756,9.0303],[-70.2021,9.0528]]]},"properties":{"shapeName":"Trujillo","shapeISO":"VE-T","shapeType":"ADM1"}},
{"type":"Feature","geometry":{"type":"Polygon","coordinates":[[[-68.2487,10.5786],[-68.6009,10.6025],[-68.6518,10.6187],[-68.6579,10.7312],[-68.7664,10.7272],[-68.8435,10.6504],[-68.8749,10.6496],[-68.9086,10.5618],[-68.9454,10.5389],[-68.9875,10.5548],[-69.0493,10.5201],[-69.0746,10.4033],[-69.0326,10.4115],[-69.0151,10.2401],[-69.0895,10.2354],[-69.1215,10.1368],[-69.1968,10.1309],[-69.2083,10.0876],[-69.1616,10.0413],[-69.1595,9.943],[-69.1246,9.88],[-69.0886,9.8697],[-69.0859,9.9577],[-68.9636,10.0173],[-68.9469,9.9068],[-68.9742,9.8426],[-68.8541,9.8352],[-68.7282,9.8761],[-68.7158,9.9412],[-68.6616,9.9763],[-68.6048,9.9324],[-68.527,9.928],[-68.5211,9.8874],[-68.444,9.9292],[-68.3703,9.9899],[-68.4029,10.0647],[-68.397,10.1207],[-68.4276,10.1786],[-68.3581,10.2656],[-68.3986,10.3631],[-68.4006,10.4876],[-68.3577,10.5505],[-68.3151,10.5373],[-68.2487,10.5786]]]},"properties":{"shapeName":"Yaracuy","shapeISO":"VE-U","shapeType":"ADM1"}},
{"type":"Feature","geometry":{"type":"MultiPolygon","coordinates":[[[[-70.8982,9.1936],[-70.9015,9.2642],[-70.991,9.337],[-71.0533,9.3548],[-71.0644,9.3111],[-71.1358,9.273],[-71.2196,9.1979],[-71.1476,9.15],[-71.0949,9.1518],[-71.0296,9.0863],[-70.8982,9.1936]]],[[[-71.315,10.9635],[-71.4036,10.9704],[-71.4788,10.9486],[-71.4461,10.8789],[-71.4324,10.7968],[-71.5697,10.7929],[-71.5247,10.7259],[-71.5219,10.6566],[-71.4989,10.6156],[-71.5318,10.589],[-71.5099,10.5186],[-71.4623,10.4914],[-71.4517,10.4547],[-71.4794,10.3932],[-71.434,10.3602],[-71.3469,10.2047],[-71.2839,10.1597],[-71.2386,10.0703],[-71.212,9.9731],[-71.1531,9.9529],[-71.0807,9.8489],[-71.0895,9.8124],[-71.0368,9.7404],[-71.0606,9.6168],[-70.9432,9.5897],[-70.8433,9.5854],[-70.7896,9.6896],[-70.6943,9.7604],[-70.6676,9.8221],[-70.7022,9.8836],[-70.7908,9.919],[-70.881,10.0467],[-70.8391,10.0982],[-70.7625,10.1328],[-70.702,10.2073],[-70.692,10.3011],[-70.76,10.3268],[-70.7576,10.3936],[-70.7984,10.4646],[-70.9526,10.4649],[-71.0868,10.6256],[-71.097,10.77],[-71.1825,10.8297],[-71.221,10.9325],[-71.315,10.9635]]],[[[-71.2242,9.1633],[-71.3395,9.0902],[-71.5457,9.0374],[-71.691,9.0557],[-71.7554,9.1258],[-71.738,9.1601],[-71.7915,9.239],[-71.7684,9.2875],[-71.7288,9.2858],[-71.7278,9.3616],[-71.77,9.3599],[-71.8176,9.4197],[-71.9276,9.4784],[-71.9906,9.5727],[-71.9726,9.6031],[-72.0903,9.7488],[-72.1329,9.8131],[-72.0514,9.9135],[-71.9909,10.0729],[-71.9073,10.1183],[-71.8394,10.2145],[-71.792,10.3242],[-71.7329,10.3805],[-71.6388,10.4399],[-71.6147,10.5936],[-71.5885,10.7025],[-71.6664,10.7764],[-71.7052,10.8575],[-71.7332,11.0172],[-71.6619,10.9758],[-71.6621,11.031],[-71.7437,11.0695],[-71.8154,11.1363],[-71.9007,11.2611],[-71.951,11.3788],[-71.9692,11.5048],[-71.9443,11.5973],[-71.8985,11.6054],[-71.7613,11.6576],[-71.6317,11.6881],[-71.4402,11.7199],[-71.3844,11.7499],[-71.3447,11.8173],[-71.611,11.7463],[-71.8022,11.68],[-71.9714,11.6463],[-72.2457,11.1452],[-72.3493,11.1514],[-72.4847,11.0991],[-72.4848,11.0615],[-72.5799,10.9108],[-72.6378,10.885],[-72.7114,10.7519],[-72.7517,10.6326],[-72.8371,10.5387],[-72.8445,10.4862],[-72.9007,10.4361],[-72.8861,10.3842],[-72.9064,10.3533],[-72.8993,10.2091],[-72.9115,10.1146],[-72.955,10.065],[-72.9529,10.0268],[-72.9992,9.9227],[-72.9714,9.8552],[-72.9879,9.7941],[-73.0551,9.6783],[-73.0847,9.5565],[-73.1269,9.5552],[-73.1767,9.5011],[-73.1878,9.4465],[-73.2411,9.4031],[-73.2987,9.2705],[-73.3659,9.1693],[-73.2516,9.1584],[-73.1764,9.1769],[-73.1218,9.2271],[-73.0906,9.2256],[-73.0081,9.2907],[-72.9645,9.1997],[-72.9818,9.1468],[-72.9329,9.083],[-72.8831,9.1305],[-72.7998,9.1211],[-72.7664,9.1003],[-72.7202,8.9407],[-72.698,8.8064],[-72.6552,8.6156],[-72.4065,8.3669],[-72.393,8.4151],[-72.3254,8.4594],[-72.3087,8.3757],[-72.2162,8.4219],[-72.071,8.429],[-71.9721,8.5129],[-71.9755,8.6041],[-71.9151,8.6323],[-71.8651,8.6761],[-71.7017,8.6773],[-71.5365,8.8176],[-71.3794,8.938],[-71.3085,8.9023],[-71.0998,9.0436],[-71.1111,9.0819],[-71.1875,9.1178],[-71.2242,9.1633]]]]},"properties":{"shapeName":"Zulia","shapeISO":"VE-V","shapeType":"ADM1"}},
{"type":"Feature","geometry":{"type":"MultiPolygon","coordinates":[[[[-65.3068,10.9759],[-65.3673,10.9699],[-65.4202,10.9282],[-65.311,10.8844],[-65.2042,10.8956],[-65.2023,10.9153],[-65.3068,10.9759]]],[[[-64.5624,11.816],[-64.5797,11.8781],[-64.6122,11.8943],[-64.6427,11.8259],[-64.5624,11.816]]]]},"properties":{"shapeName":"Dependencias Federales","shapeISO":"VE-W","shapeType":"ADM1"}}
]}