{"type":"FeatureCollection","bbox":[-73.3778,0.6901,-59.8156,15.696],"features":[
{"type":"Feature","id":"VEN:ADM0:VEN","properties":{"shapeName":"Venezuela","shapeISO":"VEN","shapeType":"ADM0"},"geometry":{"type":"Polygon","coordinates":[[[-60.021,8.558],[-60.3719,8.6354],[-60.4616,8.5344],[-60.6925,8.6047],[-60.9848,8.5705],[-61.284,8.3972],[-60.984,9.1674],[-60.7838,9.3386],[-61.4392,9.8184],[-61.8768,9.8237],[-62.1965,10.0197],[-62.4089,9.924],[-62.5176,10.1841],[-62.8311,10.4068],[-62.6623,10.567],[-62.3349,10.5302],[-62.1542,10.6863],[-62.7196,10.76],[-63.1713,10.7316],[-63.5316,10.631],[-63.7569,10.6656],[-63.8204,10.4476],[-64.1435,10.4801],[-64.7481,10.1069],[-65.1695,10.0973],[-65.5804,10.1855],[-65.8685,10.3096],[-66.1246,10.602],[-66.5416,10.6327],[-67.0124,10.6112],[-67.17,10.556],[-67.9412,10.4665],[-68.2423,10.5784],[-68.2627,10.9031],[-68.4176,11.1791],[-68.8632,11.4529],[-69.2704,11.536],[-69.6236,11.4678],[-69.8086,11.8036],[-69.8353,12.0152],[-70.0177,12.1989],[-70.2058,12.112],[-70.2968,11.8719],[-70.1865,11.6027],[-69.8495,11.6937],[-69.8141,11.4256],[-70.0505,11.5211],[-70.18,11.3764],[-70.5139,11.2532],[-70.8697,11.1963],[-71.2939,10.9866],[-71.4583,10.9749],[-71.5265,10.5447],[-71.3639,10.22],[-71.0419,9.7609],[-71.0561,9.3636],[-71.2735,9.1351],[-71.5148,9.049],[-71.7589,9.1201],[-71.7304,9.3554],[-71.9675,9.4982],[-72.1244,9.8261],[-71.9825,10.0883],[-71.6295,10.454],[-71.5763,10.7211],[-71.6936,10.8371],[-71.7698,11.1064],[-71.9393,11.3808],[-71.9711,11.6619],[-72.2566,11.1678],[-72.4815,11.1325],[-72.9076,10.4525],[-72.9776,9.8381],[-73.3778,9.1647],[-73.0097,9.2954],[-72.9364,9.0992],[-72.7831,9.0599],[-72.6754,8.6515],[-72.3868,8.3386],[-72.3358,8.1039],[-72.4878,7.9492],[-72.4513,7.4402],[-72.2062,7.3819],[-72.081,7.0666],[-71.8326,6.9864],[-71.6543,7.0534],[-71.184,6.9626],[-70.7033,7.0999],[-70.3191,6.9383],[-70.0966,6.9444],[-69.4436,6.1222],[-69.2461,6.0807],[-69.0611,6.2178],[-68.6353,6.1359],[-67.574,6.2662],[-67.4286,6.0385],[-67.6012,5.8206],[-67.647,5.4834],[-67.8437,5.2972],[-67.7931,5.0633],[-67.8651,4.5121],[-67.6318,3.7619],[-67.4714,3.6801],[-67.3046,3.4257],[-67.8386,2.8861],[-67.6266,2.8134],[-67.3254,2.4746],[-67.0668,1.8941],[-66.8751,1.2225],[-66.3462,0.7594],[-66.1563,0.733],[-65.7454,0.9742],[-65.5829,0.9777],[-65.4512,0.6901],[-65.1368,1.1269],[-64.7309,1.2476],[-64.409,1.5075],[-64.3015,1.4467],[-64.0809,1.6474],[-63.995,1.958],[-63.7626,1.9857],[-63.4118,2.1494],[-63.3848,2.4206],[-64.048,2.4713],[-63.9979,2.706],[-64.2229,3.124],[-64.203,3.5947],[-64.6629,3.997],[-64.365,4.1519],[-64.1251,4.0885],[-64.0638,3.9116],[-63.4254,3.9684],[-63.286,3.9208],[-62.9971,3.5991],[-62.7496,3.6604],[-62.7662,4.0207],[-62.561,4.0378],[-62.3842,4.1735],[-62.1927,4.0947],[-61.5421,4.263],[-61.2973,4.5237],[-61.012,4.5183],[-60.9034,4.6996],[-60.6126,4.9006],[-60.7399,5.2021],[-61.3796,5.9053],[-61.1216,6.1867],[-61.2048,6.5958],[-60.421,6.9422],[-60.2923,7.1053],[-60.6431,7.2209],[-60.7306,7.5254],[-60.5033,7.8209],[-60.3748,7.8236],[-60.0195,8.0603],[-59.8156,8.2878],[-60.021,8.558]]]}}
]}