{"type":"FeatureCollection","bbox":[15.7243,42.5572,19.5977,45.2454],"features":[
{"type":"Feature","id":"BIH:ADM3:BA-BIH.olovo","properties":{"shapeName":"Olovo","shapeISO":"","shapeType":"ADM3"},"geometry":{"type":"Polygon","coordinates":[[[18.4944,44.1032],[18.548,44.0618],[18.6104,44.0542],[18.7479,44.1192],[18.7992,44.1656],[18.8063,44.1955],[18.7048,44.1507],[18.6259,44.1739],[18.5417,44.2246],[18.543,44.2907],[18.4895,44.3234],[18.3468,44.278],[18.3197,44.2556],[18.3817,44.2147],[18.4732,44.2149],[18.5292,44.1507],[18.4944,44.1032]]]}},
{"type":"Feature","id":"BIH:ADM3:BA-BRC.brcko-district","properties":{"shapeName":"Brcko District","shapeISO":"","shapeType":"ADM3"},"geometry":{"type":"Polygon","coordinates":[[[18.7855,44.9666],[18.745,44.9492],[18.6517,44.9084],[18.5753,44.8325],[18.5377,44.7812],[18.5794,44.7267],[18.6584,44.7125],[18.7178,44.7427],[18.8019,44.7529],[18.8468,44.7771],[18.9083,44.7688],[18.948,44.8219],[19.0059,44.8524],[18.9,44.8437],[18.7709,44.8981],[18.7855,44.9666]]]}},
{"type":"Feature","id":"BIH:ADM3:BA-BIH.gorazde","properties":{"shapeName":"Goražde","shapeISO":"","shapeType":"ADM3"},"geometry":{"type":"Polygon","coordinates":[[[18.9431,43.7148],[18.7485,43.703],[18.7063,43.6521],[18.7872,43.6126],[18.8595,43.6096],[18.881,43.58],[19.0054,43.653],[18.9431,43.7148]]]}},
{"type":"Feature","id":"BIH:ADM3:BA-BIH.mostar","properties":{"shapeName":"Mostar","shapeISO":"","shapeType":"ADM3"},"geometry":{"type":"Polygon","coordinates":[[[17.9175,43.2045],[17.945,43.2152],[17.9941,43.2667],[17.9795,43.3451],[17.9464,43.3796],[17.9756,43.4589],[18.0082,43.4789],[17.8641,43.553],[17.7844,43.5483],[17.735,43.5893],[17.6301,43.6301],[17.5782,43.6185],[17.5001,43.531],[17.5389,43.5097],[17.6236,43.4424],[17.7204,43.3946],[17.6923,43.3549],[17.6976,43.284],[17.7695,43.2632],[17.7984,43.2163],[17.793,43.1684],[17.8635,43.1838],[17.9175,43.2045]]]}},
{"type":"Feature","id":"BIH:ADM3:BA-BIH.zivinice","properties":{"shapeName":"Živinice","shapeISO":"","shapeType":"ADM3"},"geometry":{"type":"Polygon","coordinates":[[[18.7534,44.4973],[18.5895,44.4674],[18.557,44.4844],[18.5186,44.4458],[18.5634,44.4076],[18.5733,44.3252],[18.6065,44.3103],[18.6795,44.3471],[18.7337,44.3339],[18.82,44.3725],[18.8266,44.4083],[18.7268,44.4295],[18.7534,44.4973]]]}},
{"type":"Feature","id":"BIH:ADM3:BA-BIH.siroki-brijeg","properties":{"shapeName":"Široki Brijeg","shapeISO":"","shapeType":"ADM3"},"geometry":{"type":"Polygon","coordinates":[[[17.5389,43.5097],[17.5095,43.4667],[17.4433,43.4611],[17.3956,43.3988],[17.4915,43.3567],[17.4972,43.294],[17.5618,43.2795],[17.599,43.2927],[17.6976,43.284],[17.6923,43.3549],[17.7204,43.3946],[17.6236,43.4424],[17.5389,43.5097]]]}},
{"type":"Feature","id":"BIH:ADM3:BA-BIH.bihac","properties":{"shapeName":"Bihać","shapeISO":"","shapeType":"ADM3"},"geometry":{"type":"Polygon","coordinates":[[[16.1424,44.7279],[16.0639,44.7911],[16.0141,44.792],[16.0031,44.8496],[16.0699,44.8651],[16.0624,44.8983],[15.8642,44.8966],[15.8346,44.9478],[15.7712,44.9678],[15.7375,44.938],[15.7791,44.8375],[15.7243,44.8225],[15.8259,44.719],[15.9151,44.7458],[16.06,44.6109],[16.0203,44.583],[16.1304,44.4982],[16.1389,44.4362],[16.2085,44.3474],[16.1831,44.3222],[16.2167,44.2427],[16.2604,44.3097],[16.3056,44.324],[16.2916,44.4903],[16.1502,44.5592],[16.0989,44.5991],[16.1447,44.6439],[16.1424,44.7279]]]}},
{"type":"Feature","id":"BIH:ADM3:BA-BIH.tomislavgrad","properties":{"shapeName":"Tomislavgrad","shapeISO":"","shapeType":"ADM3"},"geometry":{"type":"Polygon","coordinates":[[[16.9121,43.6495],[17.0053,43.5518],[17.0523,43.535],[17.2435,43.5522],[17.3076,43.5417],[17.4013,43.596],[17.4714,43.6035],[17.5402,43.6468],[17.482,43.6713],[17.4807,43.7026],[17.4234,43.7519],[17.3586,43.7608],[17.2645,43.7814],[17.2397,43.8403],[17.1944,43.873],[17.1181,43.8618],[17.1527,43.7734],[17.0649,43.7057],[16.9631,43.6545],[16.9121,43.6495]]]}},
{"type":"Feature","id":"BIH:ADM3:BA-BIH.gornji-vakuf-uskoplje","properties":{"shapeName":"Gornji Vakuf-Uskoplje","shapeISO":"","shapeType":"ADM3"},"geometry":{"type":"Polygon","coordinates":[[[17.4413,43.9017],[17.4425,43.8728],[17.5116,43.851],[17.592,43.8595],[17.6808,43.8241],[17.7868,43.8581],[17.8315,43.8781],[17.8086,43.9222],[17.7526,43.9252],[17.7152,43.9611],[17.6207,44.0351],[17.4808,43.9624],[17.4413,43.9017]]]}},
{"type":"Feature","id":"BIH:ADM3:BA-BIH.ilijas","properties":{"shapeName":"Ilijaš","shapeISO":"","shapeType":"ADM3"},"geometry":{"type":"Polygon","coordinates":[[[18.4944,44.1032],[18.3743,44.0505],[18.31,43.9672],[18.2318,43.9742],[18.2475,43.9004],[18.2644,43.8884],[18.2981,43.9093],[18.358,43.9598],[18.4534,43.9429],[18.4595,43.9406],[18.5156,43.9511],[18.5179,43.9577],[18.6104,44.0542],[18.548,44.0618],[18.4944,44.1032]]]}},
{"type":"Feature","id":"BIH:ADM3:BA-BIH.orasje","properties":{"shapeName":"Orašje","shapeISO":"","shapeType":"ADM3"},"geometry":{"type":"Polygon","coordinates":[[[18.7855,44.9666],[18.7876,44.9918],[18.6691,45.059],[18.6173,45.0651],[18.5653,45.0133],[18.6346,44.9818],[18.745,44.9492],[18.7855,44.9666]]]}},
{"type":"Feature","id":"BIH:ADM3:BA-BIH.domaljevac-samac","properties":{"shapeName":"Domaljevac-Šamac","shapeISO":"","shapeType":"ADM3"},"geometry":{"type":"Polygon","coordinates":[[[18.6173,45.0651],[18.5723,45.0974],[18.4899,45.0622],[18.5653,45.0133],[18.6173,45.0651]]]}},
{"type":"Feature","id":"BIH:ADM3:BA-BIH.odzak","properties":{"shapeName":"Odžak","shapeISO":"","shapeType":"ADM3"},"geometry":{"type":"Polygon","coordinates":[[[18.459,45.0731],[18.4305,45.1047],[18.3142,45.1085],[18.2753,45.1384],[18.1979,45.1194],[18.1893,45.0812],[18.2466,45.0531],[18.3003,45.0298],[18.3719,45.0281],[18.459,45.0731]]]}},
{"type":"Feature","id":"BIH:ADM3:BA-SRP.pelagicevo","properties":{"shapeName":"Pelagićevo","shapeISO":"","shapeType":"ADM3"},"geometry":{"type":"Polygon","coordinates":[[[18.6517,44.9084],[18.6144,44.944],[18.5478,44.9492],[18.4718,44.9211],[18.5353,44.8325],[18.5753,44.8325],[18.6517,44.9084]]]}},
{"type":"Feature","id":"BIH:ADM3:BA-SRP.donji-zabar","properties":{"shapeName":"Donji Žabar","shapeISO":"","shapeType":"ADM3"},"geometry":{"type":"Polygon","coordinates":[[[18.745,44.9492],[18.6346,44.9818],[18.6144,44.944],[18.6517,44.9084],[18.745,44.9492]]]}},
{"type":"Feature","id":"BIH:ADM3:BA-SRP.samac","properties":{"shapeName":"Šamac","shapeISO":"","shapeType":"ADM3"},"geometry":{"type":"Polygon","coordinates":[[[18.5653,45.0133],[18.4899,45.0622],[18.459,45.0731],[18.3719,45.0281],[18.4015,45.0148],[18.4622,44.9267],[18.4718,44.9211],[18.5478,44.9492],[18.6144,44.944],[18.6346,44.9818],[18.5653,45.0133]]]}},
{"type":"Feature","id":"BIH:ADM3:BA-SRP.vukosavlje","properties":{"shapeName":"Vukosavlje","shapeISO":"","shapeType":"ADM3"},"geometry":{"type":"Polygon","coordinates":[[[18.2466,45.0531],[18.1764,45.0015],[18.369,44.996],[18.4015,45.0148],[18.3719,45.0281],[18.3003,45.0298],[18.2466,45.0531]]]}},
{"type":"Feature","id":"BIH:ADM3:BA-SRP.brod","properties":{"shapeName":"Brod","shapeISO":"","shapeType":"ADM3"},"geometry":{"type":"Polygon","coordinates":[[[18.1893,45.0812],[18.1065,45.0869],[18.0618,45.1428],[17.9909,45.1478],[17.9064,45.0684],[17.9116,45.031],[17.9782,45.03],[18.1219,45.0027],[18.1764,45.0015],[18.2466,45.0531],[18.1893,45.0812]]]}},
{"type":"Feature","id":"BIH:ADM3:BA-SRP.modrica","properties":{"shapeName":"Modriča","shapeISO":"","shapeType":"ADM3"},"geometry":{"type":"Polygon","coordinates":[[[18.4015,45.0148],[18.369,44.996],[18.1764,45.0015],[18.1219,45.0027],[18.1224,44.9917],[18.1459,44.933],[18.136,44.8871],[18.2312,44.8544],[18.3267,44.788],[18.3267,44.7881],[18.4101,44.9087],[18.4622,44.9267],[18.4015,45.0148]]]}},
{"type":"Feature","id":"BIH:ADM3:BA-SRP.petrovo","properties":{"shapeName":"Petrovo","shapeISO":"","shapeType":"ADM3"},"geometry":{"type":"Polygon","coordinates":[[[18.0771,44.6549],[18.0794,44.6523],[18.0941,44.6307],[18.1068,44.5699],[18.2223,44.5975],[18.2999,44.578],[18.3945,44.5832],[18.4272,44.6152],[18.3523,44.6428],[18.2425,44.7077],[18.2222,44.7034],[18.1512,44.661],[18.1313,44.6656],[18.0771,44.6549]]]}},
{"type":"Feature","id":"BIH:ADM3:BA-SRP.doboj","properties":{"shapeName":"Doboj","shapeISO":"","shapeType":"ADM3"},"geometry":{"type":"Polygon","coordinates":[[[18.1224,44.9917],[17.9814,44.8394],[17.8808,44.8071],[17.8015,44.8373],[17.7484,44.8106],[17.7467,44.7449],[17.8213,44.7217],[17.8221,44.689],[17.9132,44.6886],[17.9391,44.7124],[18.0383,44.7042],[18.0429,44.7026],[18.0778,44.6899],[18.0771,44.6549],[18.1313,44.6656],[18.1512,44.661],[18.2222,44.7034],[18.1568,44.7295],[18.176,44.766],[18.2314,44.7857],[18.3267,44.788],[18.2312,44.8544],[18.136,44.8871],[18.1459,44.933],[18.1224,44.9917]]]}},
{"type":"Feature","id":"BIH:ADM3:BA-SRP.derventa","properties":{"shapeName":"Derventa","shapeISO":"","shapeType":"ADM3"},"geometry":{"type":"Polygon","coordinates":[[[17.9064,45.0684],[17.8603,45.0498],[17.8013,45.068],[17.7539,45.0241],[17.7967,44.9726],[17.7779,44.912],[17.8015,44.8373],[17.8808,44.8071],[17.9814,44.8394],[18.1224,44.9917],[18.1219,45.0027],[17.9782,45.03],[17.9116,45.031],[17.9064,45.0684]]]}},
{"type":"Feature","id":"BIH:ADM3:BA-SRP.petrovac","properties":{"shapeName":"Petrovac","shapeISO":"","shapeType":"ADM3"},"geometry":{"type":"Polygon","coordinates":[[[16.6594,44.5267],[16.6553,44.5263],[16.4824,44.5342],[16.444,44.4791],[16.5454,44.4094],[16.583,44.4584],[16.6482,44.4578],[16.6594,44.5267]]]}},
{"type":"Feature","id":"BIH:ADM3:BA-SRP.istocni-drvar","properties":{"shapeName":"Istočni Drvar","shapeISO":"","shapeType":"ADM3"},"geometry":{"type":"Polygon","coordinates":[[[16.5454,44.4094],[16.6788,44.3275],[16.6849,44.4137],[16.6482,44.4578],[16.583,44.4584],[16.5454,44.4094]]]}},
{"type":"Feature","id":"BIH:ADM3:BA-SRP.kupres","properties":{"shapeName":"Kupres","shapeISO":"","shapeType":"ADM3"},"geometry":{"type":"Polygon","coordinates":[[[17.2497,44.0757],[17.0979,44.102],[17.062,44.0875],[17.0805,44.0651],[17.1463,44.0485],[17.2428,44.0653],[17.2497,44.0757]]]}},
{"type":"Feature","id":"BIH:ADM3:BA-SRP.kupra-na-uni","properties":{"shapeName":"Kupra na Uni","shapeISO":"","shapeType":"ADM3"},"geometry":{"type":"Polygon","coordinates":[[[16.2352,44.9816],[16.1949,44.9692],[16.2376,44.8939],[16.3862,44.8407],[16.3943,44.8471],[16.3756,44.8762],[16.3766,44.9199],[16.289,44.911],[16.2352,44.9816]]]}},
{"type":"Feature","id":"BIH:ADM3:BA-SRP.kostajnica","properties":{"shapeName":"Kostajnica","shapeISO":"","shapeType":"ADM3"},"geometry":{"type":"Polygon","coordinates":[[[16.6357,45.2135],[16.6036,45.2301],[16.5049,45.2124],[16.4753,45.1635],[16.5677,45.1212],[16.6276,45.1582],[16.6357,45.2135]]]}},
{"type":"Feature","id":"BIH:ADM3:BA-SRP.novi-grad","properties":{"shapeName":"Novi Grad","shapeISO":"","shapeType":"ADM3"},"geometry":{"type":"Polygon","coordinates":[[[16.3756,44.8762],[16.4119,44.9024],[16.501,44.9108],[16.4935,44.9448],[16.5553,44.9637],[16.5994,45.0077],[16.6156,45.0783],[16.5677,45.1212],[16.4753,45.1635],[16.3905,45.1093],[16.3649,45.0174],[16.297,45.0016],[16.2352,44.9816],[16.289,44.911],[16.3766,44.9199],[16.3756,44.8762]]]}},
{"type":"Feature","id":"BIH:ADM3:BA-SRP.banja-luka","properties":{"shapeName":"Banja Luka","shapeISO":"","shapeType":"ADM3"},"geometry":{"type":"Polygon","coordinates":[[[17.242,44.5066],[17.2612,44.5332],[17.2255,44.5816],[17.2409,44.6498],[17.2376,44.6742],[17.3019,44.7479],[17.2879,44.7873],[17.2502,44.8373],[17.2064,44.8527],[17.1733,44.9434],[17.1408,44.9831],[17.034,44.9603],[16.9545,44.8991],[16.9425,44.8274],[16.8107,44.8074],[16.8554,44.7512],[16.8627,44.6987],[16.9183,44.6312],[16.9647,44.6154],[16.9731,44.5265],[17.0252,44.5012],[17.1354,44.5675],[17.1682,44.5007],[17.242,44.5066]]]}},
{"type":"Feature","id":"BIH:ADM3:BA-SRP.ostra-luka","properties":{"shapeName":"Oštra Luka","shapeISO":"","shapeType":"ADM3"},"geometry":{"type":"Polygon","coordinates":[[[16.3943,44.8471],[16.4182,44.8674],[16.6141,44.8465],[16.7704,44.7947],[16.8072,44.7288],[16.8092,44.6813],[16.851,44.6399],[16.8516,44.6381],[16.9183,44.6312],[16.8627,44.6987],[16.8554,44.7512],[16.8107,44.8074],[16.6695,44.8776],[16.5947,44.8967],[16.5427,44.8818],[16.501,44.9108],[16.4119,44.9024],[16.3756,44.8762],[16.3943,44.8471]]]}},
{"type":"Feature","id":"BIH:ADM3:BA-SRP.prijedor","properties":{"shapeName":"Prijedor","shapeISO":"","shapeType":"ADM3"},"geometry":{"type":"Polygon","coordinates":[[[16.501,44.9108],[16.5427,44.8818],[16.5947,44.8967],[16.6695,44.8776],[16.8107,44.8074],[16.9425,44.8274],[16.9545,44.8991],[17.034,44.9603],[17.0052,45.0037],[16.9361,45.0186],[16.9062,45.0529],[16.8802,45.0435],[16.6156,45.0783],[16.5994,45.0077],[16.5553,44.9637],[16.4935,44.9448],[16.501,44.9108]]]}},
{"type":"Feature","id":"BIH:ADM3:BA-SRP.sipovo","properties":{"shapeName":"Šipovo","shapeISO":"","shapeType":"ADM3"},"geometry":{"type":"Polygon","coordinates":[[[17.2497,44.0757],[17.2862,44.1177],[17.2677,44.2185],[17.2381,44.2466],[17.1072,44.3442],[17.0436,44.3032],[16.9743,44.2341],[16.9606,44.1929],[16.8966,44.2072],[16.9185,44.1813],[17.0401,44.1137],[17.062,44.0875],[17.0979,44.102],[17.2497,44.0757]]]}},
{"type":"Feature","id":"BIH:ADM3:BA-SRP.jezero","properties":{"shapeName":"Jezero","shapeISO":"","shapeType":"ADM3"},"geometry":{"type":"Polygon","coordinates":[[[17.2381,44.2466],[17.1957,44.3532],[17.225,44.4159],[17.1072,44.3442],[17.2381,44.2466]]]}},
{"type":"Feature","id":"BIH:ADM3:BA-SRP.gradiska","properties":{"shapeName":"Gradiška","shapeISO":"","shapeType":"ADM3"},"geometry":{"type":"Polygon","coordinates":[[[17.1733,44.9434],[17.249,44.9486],[17.2942,44.9786],[17.3824,44.9858],[17.3922,45.0785],[17.4526,45.1268],[17.3403,45.1409],[17.2647,45.1852],[17.226,45.1401],[17.1672,45.1473],[16.9934,45.2222],[16.9885,45.0903],[16.9062,45.0529],[16.9361,45.0186],[17.0052,45.0037],[17.034,44.9603],[17.1408,44.9831],[17.1733,44.9434]]]}},
{"type":"Feature","id":"BIH:ADM3:BA-SRP.srbac","properties":{"shapeName":"Srbac","shapeISO":"","shapeType":"ADM3"},"geometry":{"type":"Polygon","coordinates":[[[17.8013,45.068],[17.6587,45.1331],[17.5948,45.1085],[17.4526,45.1268],[17.3922,45.0785],[17.3824,44.9858],[17.4523,44.9827],[17.4677,44.9254],[17.4877,44.9532],[17.5873,44.9344],[17.5924,44.9641],[17.673,45.0035],[17.7539,45.0241],[17.8013,45.068]]]}},
{"type":"Feature","id":"BIH:ADM3:BA-SRP.prnjavor","properties":{"shapeName":"Prnjavor","shapeISO":"","shapeType":"ADM3"},"geometry":{"type":"Polygon","coordinates":[[[17.8015,44.8373],[17.7779,44.912],[17.7967,44.9726],[17.7539,45.0241],[17.673,45.0035],[17.5924,44.9641],[17.5873,44.9344],[17.4877,44.9532],[17.4677,44.9254],[17.4306,44.8489],[17.4522,44.8132],[17.4834,44.7878],[17.5441,44.8101],[17.6133,44.7162],[17.7146,44.7029],[17.7467,44.7449],[17.7484,44.8106],[17.8015,44.8373]]]}},
{"type":"Feature","id":"BIH:ADM3:BA-SRP.teslic","properties":{"shapeName":"Teslić","shapeISO":"","shapeType":"ADM3"},"geometry":{"type":"Polygon","coordinates":[[[17.7467,44.7449],[17.7146,44.7029],[17.6133,44.7162],[17.5657,44.6571],[17.5739,44.5903],[17.6214,44.5735],[17.6447,44.4539],[17.6848,44.4455],[17.6925,44.3727],[17.7373,44.3819],[17.8041,44.4202],[17.8989,44.4416],[17.9395,44.4563],[17.9766,44.5157],[17.9536,44.5547],[17.9002,44.6227],[17.9048,44.6729],[17.9132,44.6886],[17.8221,44.689],[17.8213,44.7217],[17.7467,44.7449]]]}},
{"type":"Feature","id":"BIH:ADM3:BA-SRP.laktasi","properties":{"shapeName":"Laktaši","shapeISO":"","shapeType":"ADM3"},"geometry":{"type":"Polygon","coordinates":[[[17.2879,44.7873],[17.3557,44.775],[17.4522,44.8132],[17.4306,44.8489],[17.4677,44.9254],[17.4523,44.9827],[17.3824,44.9858],[17.2942,44.9786],[17.249,44.9486],[17.1733,44.9434],[17.2064,44.8527],[17.2502,44.8373],[17.2879,44.7873]]]}},
{"type":"Feature","id":"BIH:ADM3:BA-SRP.celinac","properties":{"shapeName":"Čelinac","shapeISO":"","shapeType":"ADM3"},"geometry":{"type":"Polygon","coordinates":[[[17.2409,44.6498],[17.2721,44.6395],[17.3323,44.6844],[17.3911,44.6833],[17.4498,44.644],[17.5657,44.6571],[17.6133,44.7162],[17.5441,44.8101],[17.4834,44.7878],[17.4522,44.8132],[17.3557,44.775],[17.2879,44.7873],[17.3019,44.7479],[17.2376,44.6742],[17.2409,44.6498]]]}},
{"type":"Feature","id":"BIH:ADM3:BA-SRP.republika-srpska","properties":{"shapeName":"Republika Srpska","shapeISO":"","shapeType":"ADM3"},"geometry":{"type":"Polygon","coordinates":[[[19.527,43.7028],[19.4661,43.7734],[19.3198,43.8881],[19.2697,43.9536],[19.2176,43.9346],[19.1849,43.911],[19.2228,43.8451],[19.1993,43.7997],[19.141,43.7566],[19.1819,43.6853],[19.2626,43.716],[19.3641,43.6835],[19.4314,43.7199],[19.527,43.7028]]]}},
{"type":"Feature","id":"BIH:ADM3:BA-SRP.kozarska-dubica","properties":{"shapeName":"Kozarska Dubica","shapeISO":"","shapeType":"ADM3"},"geometry":{"type":"Polygon","coordinates":[[[16.5677,45.1212],[16.6156,45.0783],[16.8802,45.0435],[16.9062,45.0529],[16.9885,45.0903],[16.9934,45.2222],[16.9454,45.2454],[16.8419,45.2281],[16.8238,45.1826],[16.6357,45.2135],[16.6276,45.1582],[16.5677,45.1212]]]}},
{"type":"Feature","id":"BIH:ADM3:BA-SRP.kotor-varos","properties":{"shapeName":"Kotor Varoš","shapeISO":"","shapeType":"ADM3"},"geometry":{"type":"Polygon","coordinates":[[[17.5657,44.6571],[17.4498,44.644],[17.3911,44.6833],[17.3323,44.6844],[17.2721,44.6395],[17.2709,44.5787],[17.3321,44.5471],[17.3937,44.5692],[17.4722,44.461],[17.6121,44.3512],[17.6925,44.3727],[17.6848,44.4455],[17.6447,44.4539],[17.6214,44.5735],[17.5739,44.5903],[17.5657,44.6571]]]}},
{"type":"Feature","id":"BIH:ADM3:BA-SRP.knezevo","properties":{"shapeName":"Kneževo","shapeISO":"","shapeType":"ADM3"},"geometry":{"type":"Polygon","coordinates":[[[17.242,44.5066],[17.2444,44.451],[17.3249,44.4416],[17.3529,44.4571],[17.498,44.3696],[17.6121,44.3512],[17.4722,44.461],[17.3937,44.5692],[17.3321,44.5471],[17.2709,44.5787],[17.2721,44.6395],[17.2409,44.6498],[17.2255,44.5816],[17.2612,44.5332],[17.242,44.5066]]]}},
{"type":"Feature","id":"BIH:ADM3:BA-SRP.mrkonjic-grad","properties":{"shapeName":"Mrkonjić Grad","shapeISO":"","shapeType":"ADM3"},"geometry":{"type":"Polygon","coordinates":[[[16.9731,44.5265],[16.8969,44.4617],[16.9265,44.4115],[16.8578,44.3697],[16.8433,44.3146],[16.7941,44.2715],[16.8832,44.2378],[16.8966,44.2072],[16.9606,44.1929],[16.9743,44.2341],[17.0436,44.3032],[17.1072,44.3442],[17.225,44.4159],[17.2444,44.451],[17.242,44.5066],[17.1682,44.5007],[17.1354,44.5675],[17.0252,44.5012],[16.9731,44.5265]]]}},
{"type":"Feature","id":"BIH:ADM3:BA-SRP.ribnik","properties":{"shapeName":"Ribnik","shapeISO":"","shapeType":"ADM3"},"geometry":{"type":"Polygon","coordinates":[[[16.6482,44.4578],[16.6849,44.4137],[16.6788,44.3275],[16.6913,44.325],[16.7941,44.2715],[16.8433,44.3146],[16.8578,44.3697],[16.9265,44.4115],[16.8969,44.4617],[16.9731,44.5265],[16.9647,44.6154],[16.9183,44.6312],[16.8516,44.6381],[16.8981,44.5517],[16.7834,44.5139],[16.6594,44.5267],[16.6482,44.4578]]]}},
{"type":"Feature","id":"BIH:ADM3:BA-SRP.lopare","properties":{"shapeName":"Lopare","shapeISO":"","shapeType":"ADM3"},"geometry":{"type":"Polygon","coordinates":[[[18.8019,44.7529],[18.8073,44.7051],[18.7378,44.6748],[18.7403,44.6201],[18.7805,44.5934],[18.8579,44.538],[18.8811,44.5338],[18.9354,44.5525],[18.9538,44.5967],[18.9139,44.7065],[18.9278,44.7489],[18.9083,44.7688],[18.8468,44.7771],[18.8019,44.7529]]]}},
{"type":"Feature","id":"BIH:ADM3:BA-SRP.ugljevik","properties":{"shapeName":"Ugljevik","shapeISO":"","shapeType":"ADM3"},"geometry":{"type":"Polygon","coordinates":[[[18.9538,44.5967],[19.0301,44.5729],[19.0274,44.5665],[19.078,44.5937],[19.1279,44.6528],[19.0042,44.7034],[18.9642,44.7556],[18.9278,44.7489],[18.9139,44.7065],[18.9538,44.5967]]]}},
{"type":"Feature","id":"BIH:ADM3:BA-SRP.istocna-ilidza","properties":{"shapeName":"Istočna Ilidža","shapeISO":"","shapeType":"ADM3"},"geometry":{"type":"Polygon","coordinates":[[[18.375,43.7349],[18.4094,43.7766],[18.3666,43.8267],[18.3504,43.8146],[18.3291,43.7765],[18.375,43.7349]]]}},
{"type":"Feature","id":"BIH:ADM3:BA-SRP.istocno-novo-sarajevo","properties":{"shapeName":"Istočno Novo Sarajevo","shapeISO":"","shapeType":"ADM3"},"geometry":{"type":"Polygon","coordinates":[[[18.4094,43.7766],[18.4698,43.7563],[18.4729,43.7994],[18.4218,43.8411],[18.4109,43.843],[18.3703,43.8288],[18.3666,43.8267],[18.4094,43.7766]]]}},
{"type":"Feature","id":"BIH:ADM3:BA-SRP.trnovo-rs","properties":{"shapeName":"Trnovo (RS)","shapeISO":"","shapeType":"ADM3"},"geometry":{"type":"MultiPolygon","coordinates":[[[[18.5073,43.6365],[18.4283,43.6564],[18.3719,43.5824],[18.4825,43.6121],[18.5073,43.6365]]],[[[18.4094,43.7766],[18.375,43.7349],[18.3782,43.7332],[18.4087,43.7072],[18.5561,43.7037],[18.4698,43.7563],[18.4094,43.7766]]]]}},
{"type":"Feature","id":"BIH:ADM3:BA-SRP.istocni-mostar","properties":{"shapeName":"Istočni Mostar","shapeISO":"","shapeType":"ADM3"},"geometry":{"type":"Polygon","coordinates":[[[17.9795,43.3451],[18.0261,43.3905],[18.0306,43.4784],[18.0082,43.4789],[17.9756,43.4589],[17.9464,43.3796],[17.9795,43.3451]]]}},
{"type":"Feature","id":"BIH:ADM3:BA-SRP.osmaci","properties":{"shapeName":"Osmaci","shapeISO":"","shapeType":"ADM3"},"geometry":{"type":"Polygon","coordinates":[[[18.8503,44.3707],[18.9003,44.3366],[18.9489,44.3636],[19.0023,44.3492],[19.0324,44.3838],[18.9446,44.4279],[18.8691,44.4039],[18.8503,44.3707]]]}},
{"type":"Feature","id":"BIH:ADM3:BA-SRP.zvornik","properties":{"shapeName":"Zvornik","shapeISO":"","shapeType":"ADM3"},"geometry":{"type":"Polygon","coordinates":[[[19.0274,44.5665],[18.9944,44.4676],[18.9635,44.4489],[18.9446,44.4279],[19.0324,44.3838],[19.0023,44.3492],[19.0179,44.2871],[19.0344,44.2856],[19.1042,44.2455],[19.2289,44.2583],[19.1761,44.2741],[19.1104,44.3335],[19.1476,44.411],[19.1277,44.5025],[19.1828,44.5203],[19.18,44.5655],[19.1247,44.6016],[19.078,44.5937],[19.0274,44.5665]]]}},
{"type":"Feature","id":"BIH:ADM3:BA-SRP.sekovici","properties":{"shapeName":"Šekovići","shapeISO":"","shapeType":"ADM3"},"geometry":{"type":"Polygon","coordinates":[[[18.8503,44.3707],[18.8276,44.3683],[18.7483,44.301],[18.7618,44.2399],[18.7996,44.2005],[18.9082,44.2261],[19.0179,44.2871],[19.0023,44.3492],[18.9489,44.3636],[18.9003,44.3366],[18.8503,44.3707]]]}},
{"type":"Feature","id":"BIH:ADM3:BA-SRP.bratunac","properties":{"shapeName":"Bratunac","shapeISO":"","shapeType":"ADM3"},"geometry":{"type":"Polygon","coordinates":[[[19.1042,44.2455],[19.0991,44.2241],[19.1888,44.1459],[19.294,44.1631],[19.4395,44.1008],[19.4281,44.0522],[19.521,44.0176],[19.5977,44.0296],[19.4211,44.1388],[19.3453,44.1998],[19.3203,44.2675],[19.2289,44.2583],[19.1042,44.2455]]]}},
{"type":"Feature","id":"BIH:ADM3:BA-SRP.trebinje","properties":{"shapeName":"Trebinje","shapeISO":"","shapeType":"ADM3"},"geometry":{"type":"Polygon","coordinates":[[[18.4629,42.7881],[18.3464,42.8384],[18.2692,42.8984],[18.18,42.8385],[18.1324,42.8465],[18.0716,42.92],[17.9559,42.9538],[17.9993,42.8511],[18.0667,42.8133],[18.1199,42.7542],[18.1756,42.7382],[18.3012,42.6235],[18.3659,42.6085],[18.4391,42.5572],[18.5385,42.5787],[18.5341,42.6296],[18.5648,42.7129],[18.4998,42.7422],[18.4629,42.7881]]]}},
{"type":"Feature","id":"BIH:ADM3:BA-SRP.pale","properties":{"shapeName":"Pale","shapeISO":"","shapeType":"ADM3"},"geometry":{"type":"Polygon","coordinates":[[[18.4698,43.7563],[18.5561,43.7037],[18.6292,43.6659],[18.6842,43.6652],[18.7979,43.7601],[18.8689,43.756],[18.8254,43.8162],[18.6548,43.8762],[18.6541,43.9532],[18.5667,43.9236],[18.5351,43.8516],[18.4729,43.7994],[18.4698,43.7563]]]}},
{"type":"Feature","id":"BIH:ADM3:BA-SRP.srebrenica","properties":{"shapeName":"Srebrenica","shapeISO":"","shapeType":"ADM3"},"geometry":{"type":"Polygon","coordinates":[[[19.2697,43.9536],[19.3062,43.9869],[19.4083,43.9494],[19.5286,43.9564],[19.5977,44.0296],[19.521,44.0176],[19.4281,44.0522],[19.4395,44.1008],[19.294,44.1631],[19.1888,44.1459],[19.1443,44.1097],[19.2045,44.0731],[19.1678,44.0076],[19.2176,43.9346],[19.2697,43.9536]]]}},
{"type":"Feature","id":"BIH:ADM3:BA-SRP.milici","properties":{"shapeName":"Milići","shapeISO":"","shapeType":"ADM3"},"geometry":{"type":"Polygon","coordinates":[[[19.0344,44.2856],[19.0357,44.1723],[19.009,44.1131],[19.1458,44.0089],[19.1678,44.0076],[19.2045,44.0731],[19.1443,44.1097],[19.1888,44.1459],[19.0991,44.2241],[19.1042,44.2455],[19.0344,44.2856]]]}},
{"type":"Feature","id":"BIH:ADM3:BA-SRP.vlasenica","properties":{"shapeName":"Vlasenica","shapeISO":"","shapeType":"ADM3"},"geometry":{"type":"Polygon","coordinates":[[[18.7992,44.1656],[18.8908,44.1295],[19.009,44.1131],[19.0357,44.1723],[19.0344,44.2856],[19.0179,44.2871],[18.9082,44.2261],[18.7996,44.2005],[18.8063,44.1955],[18.7992,44.1656]]]}},
{"type":"Feature","id":"BIH:ADM3:BA-SRP.han-pijesak","properties":{"shapeName":"Han Pijesak","shapeISO":"","shapeType":"ADM3"},"geometry":{"type":"Polygon","coordinates":[[[18.7479,44.1192],[18.7849,44.0627],[18.87,44.0427],[18.8837,43.9968],[18.9635,43.9918],[19.0253,43.9689],[19.08,43.9718],[19.1458,44.0089],[19.009,44.1131],[18.8908,44.1295],[18.7992,44.1656],[18.7479,44.1192]]]}},
{"type":"Feature","id":"BIH:ADM3:BA-SRP.sokolac","properties":{"shapeName":"Sokolac","shapeISO":"","shapeType":"ADM3"},"geometry":{"type":"Polygon","coordinates":[[[18.6104,44.0542],[18.5179,43.9577],[18.5667,43.9236],[18.6541,43.9532],[18.6548,43.8762],[18.8254,43.8162],[18.8554,43.8461],[18.9424,43.8819],[19.0147,43.8827],[19.0253,43.9689],[18.9635,43.9918],[18.8837,43.9968],[18.87,44.0427],[18.7849,44.0627],[18.7479,44.1192],[18.6104,44.0542]]]}},
{"type":"Feature","id":"BIH:ADM3:BA-SRP.ljubinje","properties":{"shapeName":"Ljubinje","shapeISO":"","shapeType":"ADM3"},"geometry":{"type":"Polygon","coordinates":[[[18.2692,42.8984],[18.1774,42.968],[18.1586,43.0518],[18.1186,43.0635],[17.9434,42.9871],[17.931,42.9689],[17.9499,42.957],[17.9559,42.9538],[18.0716,42.92],[18.1324,42.8465],[18.18,42.8385],[18.2692,42.8984]]]}},
{"type":"Feature","id":"BIH:ADM3:BA-SRP.berkovici","properties":{"shapeName":"Berkovići","shapeISO":"","shapeType":"ADM3"},"geometry":{"type":"Polygon","coordinates":[[[17.9175,43.2045],[17.8917,43.1738],[17.99,43.1017],[17.9218,42.9765],[17.931,42.9689],[17.9434,42.9871],[18.1186,43.0635],[18.1586,43.0518],[18.2387,43.0924],[18.0437,43.1861],[17.945,43.2152],[17.9175,43.2045]]]}},
{"type":"Feature","id":"BIH:ADM3:BA-SRP.kalinovik","properties":{"shapeName":"Kalinovik","shapeISO":"","shapeType":"ADM3"},"geometry":{"type":"Polygon","coordinates":[[[18.3719,43.5824],[18.3712,43.5802],[18.3344,43.558],[18.3337,43.4844],[18.2112,43.461],[18.224,43.42],[18.3355,43.3176],[18.4014,43.2996],[18.4679,43.3455],[18.5497,43.3287],[18.5323,43.4124],[18.5403,43.5069],[18.5816,43.596],[18.5297,43.6367],[18.5073,43.6365],[18.4825,43.6121],[18.3719,43.5824]]]}},
{"type":"Feature","id":"BIH:ADM3:BA-SRP.bileca","properties":{"shapeName":"Bileća","shapeISO":"","shapeType":"ADM3"},"geometry":{"type":"Polygon","coordinates":[[[18.4629,42.7881],[18.4942,42.8633],[18.482,42.9777],[18.5269,43.0206],[18.4682,43.0802],[18.3971,43.0719],[18.3943,43.1155],[18.3431,43.1214],[18.3226,43.0669],[18.2387,43.0924],[18.1586,43.0518],[18.1774,42.968],[18.2692,42.8984],[18.3464,42.8384],[18.4629,42.7881]]]}},
{"type":"Feature","id":"BIH:ADM3:BA-SRP.nevesinje","properties":{"shapeName":"Nevesinje","shapeISO":"","shapeType":"ADM3"},"geometry":{"type":"Polygon","coordinates":[[[17.945,43.2152],[18.0437,43.1861],[18.2387,43.0924],[18.3226,43.0669],[18.3431,43.1214],[18.3943,43.1155],[18.4166,43.1622],[18.338,43.2042],[18.3191,43.2694],[18.3355,43.3176],[18.224,43.42],[18.2112,43.461],[18.0306,43.4784],[18.0261,43.3905],[17.9795,43.3451],[17.9941,43.2667],[17.945,43.2152]]]}},
{"type":"Feature","id":"BIH:ADM3:BA-SRP.gacko","properties":{"shapeName":"Gacko","shapeISO":"","shapeType":"ADM3"},"geometry":{"type":"Polygon","coordinates":[[[18.3355,43.3176],[18.3191,43.2694],[18.338,43.2042],[18.4166,43.1622],[18.3943,43.1155],[18.3971,43.0719],[18.4682,43.0802],[18.5269,43.0206],[18.6142,43.0204],[18.6626,43.0438],[18.6447,43.0887],[18.6523,43.1537],[18.6898,43.2505],[18.6561,43.2849],[18.5497,43.3287],[18.4679,43.3455],[18.4014,43.2996],[18.3355,43.3176]]]}},
{"type":"Feature","id":"BIH:ADM3:BA-SRP.foca","properties":{"shapeName":"Foča","shapeISO":"","shapeType":"ADM3"},"geometry":{"type":"Polygon","coordinates":[[[18.5497,43.3287],[18.6561,43.2849],[18.6898,43.2505],[18.7466,43.2857],[18.9082,43.3497],[18.9582,43.3246],[18.9524,43.2832],[19.0181,43.2542],[19.0841,43.3258],[19.0364,43.3687],[19.0144,43.4433],[18.9621,43.4567],[18.9491,43.5121],[18.9228,43.5569],[18.8803,43.5794],[18.763,43.5648],[18.6794,43.6033],[18.5816,43.596],[18.5403,43.5069],[18.5323,43.4124],[18.5497,43.3287]]]}},
{"type":"Feature","id":"BIH:ADM3:BA-SRP.cajnice","properties":{"shapeName":"Čajniče","shapeISO":"","shapeType":"ADM3"},"geometry":{"type":"Polygon","coordinates":[[[18.9491,43.5121],[18.9871,43.527],[19.0477,43.4974],[19.1381,43.5223],[19.2488,43.5277],[19.281,43.5917],[19.1291,43.6523],[19.0486,43.6407],[18.9228,43.5569],[18.9491,43.5121]]]}},
{"type":"Feature","id":"BIH:ADM3:BA-SRP.ustipraca","properties":{"shapeName":"Ustiprača","shapeISO":"","shapeType":"ADM3"},"geometry":{"type":"Polygon","coordinates":[[[18.881,43.58],[18.8803,43.5794],[18.9228,43.5569],[19.0486,43.6407],[19.1291,43.6523],[19.1618,43.6722],[19.0575,43.7167],[18.9431,43.7152],[18.9431,43.7148],[19.0054,43.653],[18.881,43.58]]]}},
{"type":"Feature","id":"BIH:ADM3:BA-SRP.rogatica","properties":{"shapeName":"Rogatica","shapeISO":"","shapeType":"ADM3"},"geometry":{"type":"Polygon","coordinates":[[[19.2176,43.9346],[19.1678,44.0076],[19.1458,44.0089],[19.08,43.9718],[19.0253,43.9689],[19.0147,43.8827],[18.9424,43.8819],[18.8554,43.8461],[18.8254,43.8162],[18.8689,43.756],[18.911,43.7607],[18.9431,43.7152],[19.0575,43.7167],[19.1618,43.6722],[19.1819,43.6853],[19.141,43.7566],[19.1993,43.7997],[19.2228,43.8451],[19.1849,43.911],[19.2176,43.9346]]]}},
{"type":"Feature","id":"BIH:ADM3:BA-SRP.rudo","properties":{"shapeName":"Rudo","shapeISO":"","shapeType":"ADM3"},"geometry":{"type":"Polygon","coordinates":[[[19.1819,43.6853],[19.1618,43.6722],[19.1291,43.6523],[19.281,43.5917],[19.3743,43.6078],[19.4141,43.5732],[19.517,43.5884],[19.5432,43.6748],[19.527,43.7028],[19.4314,43.7199],[19.3641,43.6835],[19.2626,43.716],[19.1819,43.6853]]]}},
{"type":"Feature","id":"BIH:ADM3:BA-SRP.bijeljina","properties":{"shapeName":"Bijeljina","shapeISO":"","shapeType":"ADM3"},"geometry":{"type":"Polygon","coordinates":[[[18.9083,44.7688],[18.9278,44.7489],[18.9642,44.7556],[19.0042,44.7034],[19.1279,44.6528],[19.078,44.5937],[19.1247,44.6016],[19.18,44.5655],[19.2179,44.5782],[19.2477,44.6439],[19.3247,44.7235],[19.3051,44.809],[19.3726,44.8763],[19.1904,44.914],[19.0059,44.8524],[18.948,44.8219],[18.9083,44.7688]]]}},
{"type":"Feature","id":"BIH:ADM3:BA-BIH.doboj-east","properties":{"shapeName":"Doboj East","shapeISO":"","shapeType":"ADM3"},"geometry":{"type":"Polygon","coordinates":[[[18.2425,44.7077],[18.248,44.7468],[18.176,44.766],[18.1568,44.7295],[18.2222,44.7034],[18.2425,44.7077]]]}},
{"type":"Feature","id":"BIH:ADM3:BA-BIH.gradacac","properties":{"shapeName":"Gradačac","shapeISO":"","shapeType":"ADM3"},"geometry":{"type":"Polygon","coordinates":[[[18.5753,44.8325],[18.5353,44.8325],[18.4718,44.9211],[18.4622,44.9267],[18.4101,44.9087],[18.3267,44.7881],[18.3858,44.7915],[18.4353,44.7617],[18.5377,44.7812],[18.5753,44.8325]]]}},
{"type":"Feature","id":"BIH:ADM3:BA-BIH.gracanica","properties":{"shapeName":"Gračanica","shapeISO":"","shapeType":"ADM3"},"geometry":{"type":"Polygon","coordinates":[[[18.3267,44.788],[18.2314,44.7857],[18.176,44.766],[18.248,44.7468],[18.2425,44.7077],[18.3523,44.6428],[18.4272,44.6152],[18.4509,44.6396],[18.3914,44.7372],[18.4353,44.7617],[18.3858,44.7915],[18.3267,44.7881],[18.3267,44.788]]]}},
{"type":"Feature","id":"BIH:ADM3:BA-BIH.srebrenik","properties":{"shapeName":"Srebrenik","shapeISO":"","shapeType":"ADM3"},"geometry":{"type":"Polygon","coordinates":[[[18.5377,44.7812],[18.4353,44.7617],[18.3914,44.7372],[18.4509,44.6396],[18.5558,44.6066],[18.6329,44.6484],[18.6584,44.7125],[18.5794,44.7267],[18.5377,44.7812]]]}},
{"type":"Feature","id":"BIH:ADM3:BA-BIH.celic","properties":{"shapeName":"Čelić","shapeISO":"","shapeType":"ADM3"},"geometry":{"type":"Polygon","coordinates":[[[18.6584,44.7125],[18.6329,44.6484],[18.7096,44.601],[18.7805,44.5934],[18.7403,44.6201],[18.7378,44.6748],[18.8073,44.7051],[18.8019,44.7529],[18.7178,44.7427],[18.6584,44.7125]]]}},
{"type":"Feature","id":"BIH:ADM3:BA-BIH.teocak","properties":{"shapeName":"Teočak","shapeISO":"","shapeType":"ADM3"},"geometry":{"type":"Polygon","coordinates":[[[18.9354,44.5525],[19.0301,44.5729],[18.9538,44.5967],[18.9354,44.5525]]]}},
{"type":"Feature","id":"BIH:ADM3:BA-BIH.sapna","properties":{"shapeName":"Sapna","shapeISO":"","shapeType":"ADM3"},"geometry":{"type":"Polygon","coordinates":[[[18.8811,44.5338],[18.9635,44.4489],[18.9944,44.4676],[19.0274,44.5665],[19.0301,44.5729],[18.9354,44.5525],[18.8811,44.5338]]]}},
{"type":"Feature","id":"BIH:ADM3:BA-BIH.tuzla","properties":{"shapeName":"Tuzla","shapeISO":"","shapeType":"ADM3"},"geometry":{"type":"Polygon","coordinates":[[[18.7534,44.4973],[18.8214,44.506],[18.8579,44.538],[18.7805,44.5934],[18.7096,44.601],[18.6329,44.6484],[18.5558,44.6066],[18.5776,44.5282],[18.557,44.4844],[18.5895,44.4674],[18.7534,44.4973]]]}},
{"type":"Feature","id":"BIH:ADM3:BA-BIH.lukavac","properties":{"shapeName":"Lukavac","shapeISO":"","shapeType":"ADM3"},"geometry":{"type":"Polygon","coordinates":[[[18.557,44.4844],[18.5776,44.5282],[18.5558,44.6066],[18.4509,44.6396],[18.4272,44.6152],[18.3945,44.5832],[18.2999,44.578],[18.2948,44.5115],[18.331,44.4666],[18.4249,44.4248],[18.4617,44.4536],[18.5186,44.4458],[18.557,44.4844]]]}},
{"type":"Feature","id":"BIH:ADM3:BA-BIH.banovici","properties":{"shapeName":"Banovići","shapeISO":"","shapeType":"ADM3"},"geometry":{"type":"Polygon","coordinates":[[[18.543,44.2907],[18.5733,44.3252],[18.5634,44.4076],[18.5186,44.4458],[18.4617,44.4536],[18.4249,44.4248],[18.331,44.4666],[18.4895,44.3234],[18.543,44.2907]]]}},
{"type":"Feature","id":"BIH:ADM3:BA-BIH.kladanj","properties":{"shapeName":"Kladanj","shapeISO":"","shapeType":"ADM3"},"geometry":{"type":"Polygon","coordinates":[[[18.8063,44.1955],[18.7996,44.2005],[18.7618,44.2399],[18.7483,44.301],[18.8276,44.3683],[18.82,44.3725],[18.7337,44.3339],[18.6795,44.3471],[18.6065,44.3103],[18.5733,44.3252],[18.543,44.2907],[18.5417,44.2246],[18.6259,44.1739],[18.7048,44.1507],[18.8063,44.1955]]]}},
{"type":"Feature","id":"BIH:ADM3:BA-BIH.kalesija","properties":{"shapeName":"Kalesija","shapeISO":"","shapeType":"ADM3"},"geometry":{"type":"Polygon","coordinates":[[[18.82,44.3725],[18.8276,44.3683],[18.8503,44.3707],[18.8691,44.4039],[18.9446,44.4279],[18.9635,44.4489],[18.8811,44.5338],[18.8579,44.538],[18.8214,44.506],[18.7534,44.4973],[18.7268,44.4295],[18.8266,44.4083],[18.82,44.3725]]]}},
{"type":"Feature","id":"BIH:ADM3:BA-BIH.istocni-stari-grad","properties":{"shapeName":"Istočni Stari Grad","shapeISO":"","shapeType":"ADM3"},"geometry":{"type":"Polygon","coordinates":[[[18.5156,43.9511],[18.4619,43.842],[18.4286,43.8421],[18.4218,43.8411],[18.4729,43.7994],[18.5351,43.8516],[18.5667,43.9236],[18.5179,43.9577],[18.5156,43.9511]]]}},
{"type":"Feature","id":"BIH:ADM3:BA-BIH.stari-grad","properties":{"shapeName":"Stari Grad","shapeISO":"","shapeType":"ADM3"},"geometry":{"type":"Polygon","coordinates":[[[18.4595,43.9406],[18.4286,43.8421],[18.4619,43.842],[18.5156,43.9511],[18.4595,43.9406]]]}},
{"type":"Feature","id":"BIH:ADM3:BA-BIH.trnovo-bih","properties":{"shapeName":"Trnovo (BiH)","shapeISO":"","shapeType":"ADM3"},"geometry":{"type":"Polygon","coordinates":[[[18.5073,43.6365],[18.5297,43.6367],[18.6292,43.6659],[18.5561,43.7037],[18.4087,43.7072],[18.3782,43.7332],[18.2621,43.7367],[18.2316,43.6951],[18.1654,43.6767],[18.2472,43.6077],[18.3326,43.6245],[18.3712,43.5802],[18.3719,43.5824],[18.4283,43.6564],[18.5073,43.6365]]]}},
{"type":"Feature","id":"BIH:ADM3:BA-BIH.hadzici","properties":{"shapeName":"Hadžići","shapeISO":"","shapeType":"ADM3"},"geometry":{"type":"Polygon","coordinates":[[[18.2621,43.7367],[18.2594,43.8082],[18.2304,43.8523],[18.1731,43.8522],[18.0828,43.8119],[18.0022,43.7932],[18.0697,43.7153],[18.0689,43.6798],[18.1654,43.6767],[18.2316,43.6951],[18.2621,43.7367]]]}},
{"type":"Feature","id":"BIH:ADM3:BA-BIH.ilidza","properties":{"shapeName":"Ilidža","shapeISO":"","shapeType":"ADM3"},"geometry":{"type":"Polygon","coordinates":[[[18.2475,43.9004],[18.1739,43.9021],[18.1731,43.8522],[18.2304,43.8523],[18.2594,43.8082],[18.2621,43.7367],[18.3782,43.7332],[18.375,43.7349],[18.3291,43.7765],[18.3504,43.8146],[18.2644,43.8884],[18.2475,43.9004]]]}},
{"type":"Feature","id":"BIH:ADM3:BA-BIH.novo-sarajevo","properties":{"shapeName":"Novo Sarajevo","shapeISO":"","shapeType":"ADM3"},"geometry":{"type":"Polygon","coordinates":[[[18.4109,43.843],[18.393,43.8674],[18.3763,43.8604],[18.3703,43.8288],[18.4109,43.843]]]}},
{"type":"Feature","id":"BIH:ADM3:BA-BIH.centar","properties":{"shapeName":"Centar","shapeISO":"","shapeType":"ADM3"},"geometry":{"type":"Polygon","coordinates":[[[18.4534,43.9429],[18.3985,43.9139],[18.393,43.8674],[18.4109,43.843],[18.4218,43.8411],[18.4286,43.8421],[18.4595,43.9406],[18.4534,43.9429]]]}},
{"type":"Feature","id":"BIH:ADM3:BA-BIH.novi-grad","properties":{"shapeName":"Novi Grad","shapeISO":"","shapeType":"ADM3"},"geometry":{"type":"Polygon","coordinates":[[[18.2644,43.8884],[18.3504,43.8146],[18.3666,43.8267],[18.3703,43.8288],[18.3763,43.8604],[18.2981,43.9093],[18.2644,43.8884]]]}},
{"type":"Feature","id":"BIH:ADM3:BA-BIH.vogosca","properties":{"shapeName":"Vogošća","shapeISO":"","shapeType":"ADM3"},"geometry":{"type":"Polygon","coordinates":[[[18.2981,43.9093],[18.3763,43.8604],[18.393,43.8674],[18.3985,43.9139],[18.4534,43.9429],[18.358,43.9598],[18.2981,43.9093]]]}},
{"type":"Feature","id":"BIH:ADM3:BA-BIH.foca-ustikolina","properties":{"shapeName":"Foča-Ustikolina","shapeISO":"","shapeType":"ADM3"},"geometry":{"type":"Polygon","coordinates":[[[18.7063,43.6521],[18.6842,43.6652],[18.6292,43.6659],[18.5297,43.6367],[18.5816,43.596],[18.6794,43.6033],[18.763,43.5648],[18.8803,43.5794],[18.881,43.58],[18.8595,43.6096],[18.7872,43.6126],[18.7063,43.6521]]]}},
{"type":"Feature","id":"BIH:ADM3:BA-BIH.pale-praca","properties":{"shapeName":"Pale-Prača","shapeISO":"","shapeType":"ADM3"},"geometry":{"type":"Polygon","coordinates":[[[18.9431,43.7148],[18.9431,43.7152],[18.911,43.7607],[18.8689,43.756],[18.7979,43.7601],[18.6842,43.6652],[18.7063,43.6521],[18.7485,43.703],[18.9431,43.7148]]]}},
{"type":"Feature","id":"BIH:ADM3:BA-BIH.ljubuski","properties":{"shapeName":"Ljubuški","shapeISO":"","shapeType":"ADM3"},"geometry":{"type":"Polygon","coordinates":[[[17.4972,43.294],[17.4021,43.2913],[17.3188,43.2664],[17.4144,43.2305],[17.4275,43.1812],[17.5104,43.154],[17.6269,43.098],[17.6464,43.1785],[17.5694,43.232],[17.5618,43.2795],[17.4972,43.294]]]}},
{"type":"Feature","id":"BIH:ADM3:BA-BIH.posusje","properties":{"shapeName":"Posušje","shapeISO":"","shapeType":"ADM3"},"geometry":{"type":"Polygon","coordinates":[[[17.5782,43.6185],[17.5402,43.6468],[17.4714,43.6035],[17.4013,43.596],[17.3076,43.5417],[17.2435,43.5522],[17.0523,43.535],[17.1492,43.4868],[17.182,43.4996],[17.268,43.4639],[17.2825,43.4309],[17.3956,43.3988],[17.4433,43.4611],[17.5095,43.4667],[17.5389,43.5097],[17.5001,43.531],[17.5782,43.6185]]]}},
{"type":"Feature","id":"BIH:ADM3:BA-BIH.grude","properties":{"shapeName":"Grude","shapeISO":"","shapeType":"ADM3"},"geometry":{"type":"Polygon","coordinates":[[[17.3956,43.3988],[17.2825,43.4309],[17.2497,43.4013],[17.3188,43.2664],[17.4021,43.2913],[17.4972,43.294],[17.4915,43.3567],[17.3956,43.3988]]]}},
{"type":"Feature","id":"BIH:ADM3:BA-BIH.ravno","properties":{"shapeName":"Ravno","shapeISO":"","shapeType":"ADM3"},"geometry":{"type":"Polygon","coordinates":[[[17.9559,42.9538],[17.9499,42.957],[17.8975,42.914],[17.8387,42.9105],[17.8753,42.8593],[18.0048,42.7799],[18.2467,42.6067],[18.3012,42.6235],[18.1756,42.7382],[18.1199,42.7542],[18.0667,42.8133],[17.9993,42.8511],[17.9559,42.9538]]]}},
{"type":"Feature","id":"BIH:ADM3:BA-BIH.neum","properties":{"shapeName":"Neum","shapeISO":"","shapeType":"ADM3"},"geometry":{"type":"Polygon","coordinates":[[[17.931,42.9689],[17.9218,42.9765],[17.8442,43.0062],[17.6922,43.005],[17.7175,42.9732],[17.6,42.9331],[17.6613,42.892],[17.6881,42.9259],[17.7818,42.8955],[17.8387,42.9105],[17.8975,42.914],[17.9499,42.957],[17.931,42.9689]]]}},
{"type":"Feature","id":"BIH:ADM3:BA-BIH.prozor-rama","properties":{"shapeName":"Prozor-Rama","shapeISO":"","shapeType":"ADM3"},"geometry":{"type":"Polygon","coordinates":[[[17.482,43.6713],[17.5413,43.7176],[17.6073,43.7247],[17.652,43.6974],[17.7387,43.6905],[17.7675,43.7087],[17.7528,43.7961],[17.7868,43.8581],[17.6808,43.8241],[17.592,43.8595],[17.5116,43.851],[17.4425,43.8728],[17.3743,43.8276],[17.3586,43.7608],[17.4234,43.7519],[17.4807,43.7026],[17.482,43.6713]]]}},
{"type":"Feature","id":"BIH:ADM3:BA-BIH.konjic","properties":{"shapeName":"Konjic","shapeISO":"","shapeType":"ADM3"},"geometry":{"type":"Polygon","coordinates":[[[18.0082,43.4789],[18.0306,43.4784],[18.2112,43.461],[18.3337,43.4844],[18.3344,43.558],[18.3712,43.5802],[18.3326,43.6245],[18.2472,43.6077],[18.1654,43.6767],[18.0689,43.6798],[18.0697,43.7153],[18.0022,43.7932],[17.947,43.7918],[17.9093,43.8317],[17.8315,43.8781],[17.7868,43.8581],[17.7528,43.7961],[17.7675,43.7087],[17.8275,43.691],[17.8353,43.6142],[17.8641,43.553],[18.0082,43.4789]]]}},
{"type":"Feature","id":"BIH:ADM3:BA-BIH.jablanica","properties":{"shapeName":"Jablanica","shapeISO":"","shapeType":"ADM3"},"geometry":{"type":"Polygon","coordinates":[[[17.8641,43.553],[17.8353,43.6142],[17.8275,43.691],[17.7675,43.7087],[17.7387,43.6905],[17.652,43.6974],[17.6073,43.7247],[17.5413,43.7176],[17.482,43.6713],[17.5402,43.6468],[17.5782,43.6185],[17.6301,43.6301],[17.735,43.5893],[17.7844,43.5483],[17.8641,43.553]]]}},
{"type":"Feature","id":"BIH:ADM3:BA-BIH.capljina","properties":{"shapeName":"Čapljina","shapeISO":"","shapeType":"ADM3"},"geometry":{"type":"Polygon","coordinates":[[[17.793,43.1684],[17.6799,43.1594],[17.6464,43.1785],[17.6269,43.098],[17.6922,43.005],[17.8442,43.0062],[17.8136,43.0579],[17.8241,43.1259],[17.8635,43.1838],[17.793,43.1684]]]}},
{"type":"Feature","id":"BIH:ADM3:BA-BIH.citluk","properties":{"shapeName":"Čitluk","shapeISO":"","shapeType":"ADM3"},"geometry":{"type":"Polygon","coordinates":[[[17.6976,43.284],[17.599,43.2927],[17.5618,43.2795],[17.5694,43.232],[17.6464,43.1785],[17.6799,43.1594],[17.793,43.1684],[17.7984,43.2163],[17.7695,43.2632],[17.6976,43.284]]]}},
{"type":"Feature","id":"BIH:ADM3:BA-BIH.stolac","properties":{"shapeName":"Stolac","shapeISO":"","shapeType":"ADM3"},"geometry":{"type":"Polygon","coordinates":[[[17.8635,43.1838],[17.8241,43.1259],[17.8136,43.0579],[17.8442,43.0062],[17.9218,42.9765],[17.99,43.1017],[17.8917,43.1738],[17.9175,43.2045],[17.8635,43.1838]]]}},
{"type":"Feature","id":"BIH:ADM3:BA-BIH.velika-kladusa","properties":{"shapeName":"Velika Kladuša","shapeISO":"","shapeType":"ADM3"},"geometry":{"type":"Polygon","coordinates":[[[16.1382,45.0928],[16.0145,45.1822],[15.9799,45.2323],[15.8205,45.2165],[15.7619,45.1721],[15.782,45.1098],[15.7594,45.0725],[15.8855,45.0702],[15.96,45.0565],[16.0474,45.1164],[16.0896,45.0814],[16.1382,45.0928]]]}},
{"type":"Feature","id":"BIH:ADM3:BA-BIH.buzim","properties":{"shapeName":"Bužim","shapeISO":"","shapeType":"ADM3"},"geometry":{"type":"Polygon","coordinates":[[[15.96,45.0565],[16.029,44.9928],[16.0821,45.0234],[16.1214,45.0078],[16.1734,45.0624],[16.1382,45.0928],[16.0896,45.0814],[16.0474,45.1164],[15.96,45.0565]]]}},
{"type":"Feature","id":"BIH:ADM3:BA-BIH.cazin","properties":{"shapeName":"Cazin","shapeISO":"","shapeType":"ADM3"},"geometry":{"type":"Polygon","coordinates":[[[16.0624,44.8983],[16.0728,44.9599],[16.029,44.9928],[15.96,45.0565],[15.8855,45.0702],[15.7594,45.0725],[15.7858,44.9998],[15.7712,44.9678],[15.8346,44.9478],[15.8642,44.8966],[16.0624,44.8983]]]}},
{"type":"Feature","id":"BIH:ADM3:BA-BIH.kljuc","properties":{"shapeName":"Ključ","shapeISO":"","shapeType":"ADM3"},"geometry":{"type":"Polygon","coordinates":[[[16.6594,44.5267],[16.7834,44.5139],[16.8981,44.5517],[16.8516,44.6381],[16.851,44.6399],[16.7375,44.6321],[16.573,44.6641],[16.5285,44.6332],[16.5783,44.5717],[16.6553,44.5263],[16.6594,44.5267]]]}},
{"type":"Feature","id":"BIH:ADM3:BA-BIH.sanski-most","properties":{"shapeName":"Sanski Most","shapeISO":"","shapeType":"ADM3"},"geometry":{"type":"Polygon","coordinates":[[[16.3862,44.8407],[16.325,44.7502],[16.4536,44.6508],[16.5285,44.6332],[16.573,44.6641],[16.7375,44.6321],[16.851,44.6399],[16.8092,44.6813],[16.8072,44.7288],[16.7704,44.7947],[16.6141,44.8465],[16.4182,44.8674],[16.3943,44.8471],[16.3862,44.8407]]]}},
{"type":"Feature","id":"BIH:ADM3:BA-BIH.bosanska-krupa","properties":{"shapeName":"Bosanska Krupa","shapeISO":"","shapeType":"ADM3"},"geometry":{"type":"Polygon","coordinates":[[[16.1424,44.7279],[16.2634,44.7603],[16.325,44.7502],[16.3862,44.8407],[16.2376,44.8939],[16.1949,44.9692],[16.2352,44.9816],[16.297,45.0016],[16.1958,45.0302],[16.1734,45.0624],[16.1214,45.0078],[16.0821,45.0234],[16.029,44.9928],[16.0728,44.9599],[16.0624,44.8983],[16.0699,44.8651],[16.0031,44.8496],[16.0141,44.792],[16.0639,44.7911],[16.1424,44.7279]]]}},
{"type":"Feature","id":"BIH:ADM3:BA-BIH.bosanski-petrovac","properties":{"shapeName":"Bosanski Petrovac","shapeISO":"","shapeType":"ADM3"},"geometry":{"type":"Polygon","coordinates":[[[16.2916,44.4903],[16.444,44.4791],[16.4824,44.5342],[16.6553,44.5263],[16.5783,44.5717],[16.5285,44.6332],[16.4536,44.6508],[16.325,44.7502],[16.2634,44.7603],[16.1424,44.7279],[16.1447,44.6439],[16.0989,44.5991],[16.1502,44.5592],[16.2916,44.4903]]]}},
{"type":"Feature","id":"BIH:ADM3:BA-BIH.drvar","properties":{"shapeName":"Drvar","shapeISO":"","shapeType":"ADM3"},"geometry":{"type":"Polygon","coordinates":[[[16.3056,44.324],[16.4217,44.26],[16.5955,44.2326],[16.6913,44.325],[16.6788,44.3275],[16.5454,44.4094],[16.444,44.4791],[16.2916,44.4903],[16.3056,44.324]]]}},
{"type":"Feature","id":"BIH:ADM3:BA-BIH.bosansko-grahovo","properties":{"shapeName":"Bosansko Grahovo","shapeISO":"","shapeType":"ADM3"},"geometry":{"type":"Polygon","coordinates":[[[16.2167,44.2427],[16.2226,44.2089],[16.3067,44.1414],[16.4321,44.0723],[16.4424,44.0206],[16.5181,43.9979],[16.5352,43.9549],[16.6193,43.9714],[16.6468,44.0308],[16.6921,44.0418],[16.601,44.1561],[16.6269,44.2014],[16.5955,44.2326],[16.4217,44.26],[16.3056,44.324],[16.2604,44.3097],[16.2167,44.2427]]]}},
{"type":"Feature","id":"BIH:ADM3:BA-BIH.glamoc","properties":{"shapeName":"Glamoč","shapeISO":"","shapeType":"ADM3"},"geometry":{"type":"Polygon","coordinates":[[[17.062,44.0875],[17.0401,44.1137],[16.9185,44.1813],[16.8966,44.2072],[16.8832,44.2378],[16.7941,44.2715],[16.6913,44.325],[16.5955,44.2326],[16.6269,44.2014],[16.601,44.1561],[16.6921,44.0418],[16.8296,43.9576],[16.9266,43.9328],[16.9312,43.8997],[16.9958,43.8648],[17.0533,43.8816],[17.0827,43.9251],[17.0805,44.0651],[17.062,44.0875]]]}},
{"type":"Feature","id":"BIH:ADM3:BA-BIH.kupres-bih","properties":{"shapeName":"Kupres (BiH)","shapeISO":"","shapeType":"ADM3"},"geometry":{"type":"Polygon","coordinates":[[[17.3586,43.7608],[17.3743,43.8276],[17.4425,43.8728],[17.4413,43.9017],[17.4035,43.9408],[17.3396,43.9337],[17.3034,44.0083],[17.2428,44.0653],[17.1463,44.0485],[17.0805,44.0651],[17.0827,43.9251],[17.0533,43.8816],[17.1181,43.8618],[17.1944,43.873],[17.2397,43.8403],[17.2645,43.7814],[17.3586,43.7608]]]}},
{"type":"Feature","id":"BIH:ADM3:BA-BIH.livno","properties":{"shapeName":"Livno","shapeISO":"","shapeType":"ADM3"},"geometry":{"type":"Polygon","coordinates":[[[17.1181,43.8618],[17.0533,43.8816],[16.9958,43.8648],[16.9312,43.8997],[16.9266,43.9328],[16.8296,43.9576],[16.6921,44.0418],[16.6468,44.0308],[16.6193,43.9714],[16.5352,43.9549],[16.6415,43.8791],[16.703,43.8533],[16.7102,43.7965],[16.9121,43.6495],[16.9631,43.6545],[17.0649,43.7057],[17.1527,43.7734],[17.1181,43.8618]]]}},
{"type":"Feature","id":"BIH:ADM3:BA-BIH.doboj-jug","properties":{"shapeName":"Doboj Jug","shapeISO":"","shapeType":"ADM3"},"geometry":{"type":"Polygon","coordinates":[[[18.0771,44.6549],[18.0778,44.6899],[18.0429,44.7026],[18.0606,44.6792],[18.0487,44.6648],[18.0794,44.6523],[18.0771,44.6549]]]}},
{"type":"Feature","id":"BIH:ADM3:BA-BIH.usora","properties":{"shapeName":"Usora","shapeISO":"","shapeType":"ADM3"},"geometry":{"type":"Polygon","coordinates":[[[17.9132,44.6886],[17.9048,44.6729],[17.9817,44.6313],[18.0311,44.6612],[18.0383,44.7042],[17.9391,44.7124],[17.9132,44.6886]]]}},
{"type":"Feature","id":"BIH:ADM3:BA-BIH.tesanj","properties":{"shapeName":"Tešanj","shapeISO":"","shapeType":"ADM3"},"geometry":{"type":"Polygon","coordinates":[[[18.0794,44.6523],[18.0487,44.6648],[18.0606,44.6792],[18.0429,44.7026],[18.0383,44.7042],[18.0311,44.6612],[17.9817,44.6313],[17.9048,44.6729],[17.9002,44.6227],[17.9536,44.5547],[18.0544,44.56],[18.0941,44.6307],[18.0794,44.6523]]]}},
{"type":"Feature","id":"BIH:ADM3:BA-BIH.maglaj","properties":{"shapeName":"Maglaj","shapeISO":"","shapeType":"ADM3"},"geometry":{"type":"Polygon","coordinates":[[[18.0941,44.6307],[18.0544,44.56],[17.9536,44.5547],[17.9766,44.5157],[17.9395,44.4563],[17.9833,44.4535],[18.0845,44.4849],[18.1187,44.4604],[18.1736,44.4936],[18.2516,44.4882],[18.2948,44.5115],[18.2999,44.578],[18.2223,44.5975],[18.1068,44.5699],[18.0941,44.6307]]]}},
{"type":"Feature","id":"BIH:ADM3:BA-BIH.breza","properties":{"shapeName":"Breza","shapeISO":"","shapeType":"ADM3"},"geometry":{"type":"Polygon","coordinates":[[[18.3743,44.0505],[18.3416,44.0274],[18.2618,44.0496],[18.2318,43.9742],[18.31,43.9672],[18.3743,44.0505]]]}},
{"type":"Feature","id":"BIH:ADM3:BA-BIH.visoko","properties":{"shapeName":"Visoko","shapeISO":"","shapeType":"ADM3"},"geometry":{"type":"Polygon","coordinates":[[[18.2318,43.9742],[18.2618,44.0496],[18.2591,44.0912],[18.1519,44.0524],[18.0082,44.0762],[18.0059,44.0437],[18.1104,43.9652],[18.1739,43.9021],[18.2475,43.9004],[18.2318,43.9742]]]}},
{"type":"Feature","id":"BIH:ADM3:BA-BIH.zepce","properties":{"shapeName":"Žepče","shapeISO":"","shapeType":"ADM3"},"geometry":{"type":"Polygon","coordinates":[[[17.8989,44.4416],[17.8994,44.3847],[18.0614,44.3126],[18.0593,44.3494],[18.1254,44.3881],[18.0949,44.4216],[18.0845,44.4849],[17.9833,44.4535],[17.9395,44.4563],[17.8989,44.4416]]]}},
{"type":"Feature","id":"BIH:ADM3:BA-BIH.zenica","properties":{"shapeName":"Zenica","shapeISO":"","shapeType":"ADM3"},"geometry":{"type":"Polygon","coordinates":[[[17.7373,44.3819],[17.8116,44.332],[17.8062,44.2076],[17.8789,44.155],[17.9538,44.0901],[17.9837,44.1401],[18.0533,44.1415],[18.0846,44.182],[18.082,44.2845],[18.0614,44.3126],[17.8994,44.3847],[17.8989,44.4416],[17.8041,44.4202],[17.7373,44.3819]]]}},
{"type":"Feature","id":"BIH:ADM3:BA-BIH.zavidovici","properties":{"shapeName":"Zavidovići","shapeISO":"","shapeType":"ADM3"},"geometry":{"type":"Polygon","coordinates":[[[18.4895,44.3234],[18.331,44.4666],[18.2948,44.5115],[18.2516,44.4882],[18.1736,44.4936],[18.1187,44.4604],[18.0845,44.4849],[18.0949,44.4216],[18.1254,44.3881],[18.0593,44.3494],[18.0614,44.3126],[18.082,44.2845],[18.1816,44.2612],[18.2826,44.258],[18.3468,44.278],[18.4895,44.3234]]]}},
{"type":"Feature","id":"BIH:ADM3:BA-BIH.kakanj","properties":{"shapeName":"Kakanj","shapeISO":"","shapeType":"ADM3"},"geometry":{"type":"Polygon","coordinates":[[[18.2591,44.0912],[18.2266,44.1769],[18.2826,44.258],[18.1816,44.2612],[18.082,44.2845],[18.0846,44.182],[18.0533,44.1415],[17.9837,44.1401],[17.9538,44.0901],[18.0082,44.0762],[18.1519,44.0524],[18.2591,44.0912]]]}},
{"type":"Feature","id":"BIH:ADM3:BA-BIH.vares","properties":{"shapeName":"Vareš","shapeISO":"","shapeType":"ADM3"},"geometry":{"type":"Polygon","coordinates":[[[18.3468,44.278],[18.2826,44.258],[18.2266,44.1769],[18.2591,44.0912],[18.2618,44.0496],[18.3416,44.0274],[18.3743,44.0505],[18.4944,44.1032],[18.5292,44.1507],[18.4732,44.2149],[18.3817,44.2147],[18.3197,44.2556],[18.3468,44.278]]]}},
{"type":"Feature","id":"BIH:ADM3:BA-BIH.kresevo","properties":{"shapeName":"Kreševo","shapeISO":"","shapeType":"ADM3"},"geometry":{"type":"Polygon","coordinates":[[[18.0828,43.8119],[18.1245,43.8865],[18.0206,43.9198],[17.9093,43.8317],[17.947,43.7918],[18.0022,43.7932],[18.0828,43.8119]]]}},
{"type":"Feature","id":"BIH:ADM3:BA-BIH.kiseljak","properties":{"shapeName":"Kiseljak","shapeISO":"","shapeType":"ADM3"},"geometry":{"type":"Polygon","coordinates":[[[18.1731,43.8522],[18.1739,43.9021],[18.1104,43.9652],[18.0059,44.0437],[17.9394,44.0138],[18.0082,43.9767],[18.0206,43.9198],[18.1245,43.8865],[18.0828,43.8119],[18.1731,43.8522]]]}},
{"type":"Feature","id":"BIH:ADM3:BA-BIH.busovaca","properties":{"shapeName":"Busovača","shapeISO":"","shapeType":"ADM3"},"geometry":{"type":"Polygon","coordinates":[[[18.0082,44.0762],[17.9538,44.0901],[17.8789,44.155],[17.8136,44.1244],[17.7981,44.0394],[17.8527,44.0138],[17.9394,44.0138],[18.0059,44.0437],[18.0082,44.0762]]]}},
{"type":"Feature","id":"BIH:ADM3:BA-BIH.vitez","properties":{"shapeName":"Vitez","shapeISO":"","shapeType":"ADM3"},"geometry":{"type":"Polygon","coordinates":[[[17.8062,44.2076],[17.7342,44.1674],[17.7045,44.072],[17.7889,44.0376],[17.7981,44.0394],[17.8136,44.1244],[17.8789,44.155],[17.8062,44.2076]]]}},
{"type":"Feature","id":"BIH:ADM3:BA-BIH.fojnica","properties":{"shapeName":"Fojnica","shapeISO":"","shapeType":"ADM3"},"geometry":{"type":"Polygon","coordinates":[[[17.8315,43.8781],[17.9093,43.8317],[18.0206,43.9198],[18.0082,43.9767],[17.9394,44.0138],[17.8527,44.0138],[17.7981,44.0394],[17.7889,44.0376],[17.7886,44.0082],[17.7152,43.9611],[17.7526,43.9252],[17.8086,43.9222],[17.8315,43.8781]]]}},
{"type":"Feature","id":"BIH:ADM3:BA-BIH.dobretici","properties":{"shapeName":"Dobretići","shapeISO":"","shapeType":"ADM3"},"geometry":{"type":"Polygon","coordinates":[[[17.3249,44.4416],[17.4015,44.37],[17.4259,44.3232],[17.498,44.3696],[17.3529,44.4571],[17.3249,44.4416]]]}},
{"type":"Feature","id":"BIH:ADM3:BA-BIH.jajce","properties":{"shapeName":"Jajce","shapeISO":"","shapeType":"ADM3"},"geometry":{"type":"Polygon","coordinates":[[[17.2677,44.2185],[17.3396,44.2558],[17.4234,44.2516],[17.4259,44.3232],[17.4015,44.37],[17.3249,44.4416],[17.2444,44.451],[17.225,44.4159],[17.1957,44.3532],[17.2381,44.2466],[17.2677,44.2185]]]}},
{"type":"Feature","id":"BIH:ADM3:BA-BIH.donji-vakuf","properties":{"shapeName":"Donji Vakuf","shapeISO":"","shapeType":"ADM3"},"geometry":{"type":"Polygon","coordinates":[[[17.2428,44.0653],[17.3034,44.0083],[17.3769,44.0718],[17.4551,44.1115],[17.5072,44.161],[17.4778,44.2337],[17.4234,44.2516],[17.3396,44.2558],[17.2677,44.2185],[17.2862,44.1177],[17.2497,44.0757],[17.2428,44.0653]]]}},
{"type":"Feature","id":"BIH:ADM3:BA-BIH.travnik","properties":{"shapeName":"Travnik","shapeISO":"","shapeType":"ADM3"},"geometry":{"type":"Polygon","coordinates":[[[17.6925,44.3727],[17.6121,44.3512],[17.498,44.3696],[17.4259,44.3232],[17.4234,44.2516],[17.4778,44.2337],[17.5072,44.161],[17.5378,44.1577],[17.6042,44.1938],[17.7342,44.1674],[17.8062,44.2076],[17.8116,44.332],[17.7373,44.3819],[17.6925,44.3727]]]}},
{"type":"Feature","id":"BIH:ADM3:BA-BIH.novi-travnik","properties":{"shapeName":"Novi Travnik","shapeISO":"","shapeType":"ADM3"},"geometry":{"type":"Polygon","coordinates":[[[17.7152,43.9611],[17.7886,44.0082],[17.7889,44.0376],[17.7045,44.072],[17.7342,44.1674],[17.6042,44.1938],[17.5378,44.1577],[17.6042,44.0866],[17.6207,44.0351],[17.7152,43.9611]]]}},
{"type":"Feature","id":"BIH:ADM3:BA-BIH.bugojno","properties":{"shapeName":"Bugojno","shapeISO":"","shapeType":"ADM3"},"geometry":{"type":"Polygon","coordinates":[[[17.6207,44.0351],[17.6042,44.0866],[17.5378,44.1577],[17.5072,44.161],[17.4551,44.1115],[17.3769,44.0718],[17.3034,44.0083],[17.3396,43.9337],[17.4035,43.9408],[17.4413,43.9017],[17.4808,43.9624],[17.6207,44.0351]]]}}
]}