{"type":"FeatureCollection","bbox":[1.4253,42.4317,1.7785,42.6546],"features":[
{"type":"Feature","id":"AND:ADM1:AD-06","properties":{"shapeName":"Sant Julia de Loria","shapeISO":"AD-06","shapeType":"ADM1"},"geometry":{"type":"Polygon","coordinates":[[[1.5571,42.4642],[1.4943,42.4816],[1.4599,42.5061],[1.4306,42.4826],[1.4471,42.4402],[1.5531,42.4317],[1.5646,42.4591],[1.5571,42.4642]]]}},
{"type":"Feature","id":"AND:ADM1:AD-02","properties":{"shapeName":"Canillo","shapeISO":"AD-02","shapeType":"ADM1"},"geometry":{"type":"Polygon","coordinates":[[[1.7349,42.549],[1.7785,42.5796],[1.7378,42.6117],[1.6428,42.63],[1.6028,42.6256],[1.5694,42.5804],[1.5666,42.5468],[1.6339,42.5671],[1.7349,42.549]]]}},
{"type":"Feature","id":"AND:ADM1:AD-05","properties":{"shapeName":"Ordino","shapeISO":"AD-05","shapeType":"ADM1"},"geometry":{"type":"Polygon","coordinates":[[[1.6028,42.6256],[1.5634,42.6546],[1.4775,42.6499],[1.4707,42.6069],[1.534,42.5454],[1.5644,42.5462],[1.5666,42.5468],[1.5694,42.5804],[1.6028,42.6256]]]}},
{"type":"Feature","id":"AND:ADM1:AD-04","properties":{"shapeName":"La Massana","shapeISO":"AD-04","shapeType":"ADM1"},"geometry":{"type":"Polygon","coordinates":[[[1.4707,42.6069],[1.4253,42.5598],[1.4683,42.5113],[1.5238,42.5207],[1.5487,42.5223],[1.5644,42.5462],[1.534,42.5454],[1.4707,42.6069]]]}},
{"type":"Feature","id":"AND:ADM1:AD-03","properties":{"shapeName":"Encamp","shapeISO":"AD-03","shapeType":"ADM1"},"geometry":{"type":"Polygon","coordinates":[[[1.5666,42.5468],[1.5644,42.5462],[1.5487,42.5223],[1.6621,42.4911],[1.7112,42.4903],[1.7349,42.549],[1.6339,42.5671],[1.5666,42.5468]]]}},
{"type":"Feature","id":"AND:ADM1:AD-08","properties":{"shapeName":"Escaldes-Engordany","shapeISO":"AD-08","shapeType":"ADM1"},"geometry":{"type":"Polygon","coordinates":[[[1.5646,42.4591],[1.6536,42.4652],[1.6621,42.4911],[1.5487,42.5223],[1.5238,42.5207],[1.5571,42.4642],[1.5646,42.4591]]]}},
{"type":"Feature","id":"AND:ADM1:AD-07","properties":{"shapeName":"Andorra la Vella","shapeISO":"AD-07","shapeType":"ADM1"},"geometry":{"type":"Polygon","coordinates":[[[1.5571,42.4642],[1.5238,42.5207],[1.4683,42.5113],[1.4599,42.5061],[1.4943,42.4816],[1.5571,42.4642]]]}}
]}