{"type":"FeatureCollection","bbox":[-81.7115,-4.2011,-66.8825,13.3192], "features": [
{"type":"Feature","geometry":{"type":"Polygon","coordinates":[[[-78.8287,1.4343],[-78.5701,1.1958],[-78.12,0.9212],[-77.7279,0.8433],[-77.4681,0.6509],[-77.4244,0.4083],[-77.1174,0.3576],[-76.8968,0.2453],[-76.408,0.2545],[-76.3116,0.4585],[-76.0535,0.3635],[-75.7897,0.0844],[-75.6467,0.0854],[-75.4214,-0.0622],[-75.1417,-0.0435],[-74.9335,-0.2094],[-74.8247,-0.1705],[-74.4127,-0.5731],[-74.2891,-0.943],[-73.6366,-1.2552],[-73.4972,-1.478],[-73.531,-1.6737],[-73.1863,-1.7996],[-73.1111,-2.0734],[-73.1953,-2.1872],[-72.9433,-2.419],[-72.6443,-2.3341],[-72.3966,-2.4465],[-71.9663,-2.3285],[-71.7679,-2.1422],[-71.2199,-2.3415],[-70.9927,-2.1974],[-70.8742,-2.2296],[-70.0506,-2.7151],[-70.7341,-3.782],[-70.5443,-3.8652],[-70.3111,-3.8293],[-70.1884,-4.029],[-69.9472,-4.2011],[-69.7712,-3.2342],[-69.5657,-2.106],[-69.3995,-1.1827],[-69.6284,-0.7334],[-69.6321,-0.5069],[-69.9444,-0.3055],[-70.0738,-0.1249],[-70.0542,0.5881],[-69.6192,0.6507],[-69.1375,0.6501],[-69.2043,0.9437],[-69.3709,1.063],[-69.8522,1.0594],[-69.8488,1.6689],[-69.5803,1.7702],[-69.3524,1.7202],[-68.1633,1.7213],[-67.7905,1.8126],[-67.5929,2.0548],[-67.3406,2.0901],[-67.1172,1.7098],[-67.0982,1.2534],[-66.8825,1.326],[-67.0668,1.8941],[-67.3254,2.4746],[-67.6266,2.8134],[-67.8386,2.8861],[-67.3046,3.4257],[-67.4714,3.6801],[-67.6318,3.7619],[-67.8651,4.5121],[-67.7931,5.0633],[-67.8437,5.2972],[-67.647,5.4834],[-67.6012,5.8206],[-67.4286,6.0385],[-67.574,6.2662],[-68.6353,6.1359],[-69.0611,6.2178],[-69.2461,6.0807],[-69.4436,6.1222],[-70.0966,6.9444],[-70.3191,6.9383],[-70.7033,7.0999],[-71.184,6.9626],[-71.6543,7.0534],[-71.8326,6.9864],[-72.081,7.0666],[-72.2062,7.3819],[-72.4513,7.4402],[-72.4878,7.9492],[-72.3358,8.1039],[-72.3868,8.3386],[-72.6754,8.6515],[-72.7831,9.0599],[-72.9364,9.0992],[-73.0097,9.2954],[-73.3778,9.1647],[-72.9776,9.8381],[-72.9076,10.4525],[-72.4815,11.1325],[-72.2566,11.1678],[-71.9711,11.6619],[-71.4495,11.7955],[-71.1381,12.0158],[-71.2423,12.3277],[-71.6562,12.4653],[-71.9053,12.2077],[-72.1387,12.1046],[-72.2631,11.886],[-72.7597,11.6971],[-73.2924,11.294],[-73.826,11.2768],[-74.1875,11.317],[-74.2181,11.0791],[-74.3622,10.7757],[-74.5028,10.9743],[-74.8444,11.1097],[-75.036,10.9167],[-75.5098,10.5858],[-75.5157,10.319],[-75.6578,9.7052],[-75.6206,9.4529],[-75.91,9.4282],[-76.1681,9.247],[-76.2563,9.0074],[-76.6732,8.6804],[-76.8937,8.6203],[-76.7701,8.398],[-76.8323,8.1365],[-77.0528,8.2763],[-77.3749,8.6509],[-77.4804,8.5262],[-77.2012,7.982],[-77.3397,7.7072],[-77.58,7.5284],[-77.8202,7.4765],[-77.8958,7.2351],[-77.6527,6.9766],[-77.5318,6.7121],[-77.343,6.5438],[-77.4151,6.2391],[-77.2464,5.7873],[-77.4908,5.5948],[-77.3592,5.2973],[-77.3196,4.5466],[-77.4352,4.1552],[-77.425,4.0046],[-77.1515,3.8004],[-77.2049,3.6212],[-77.4574,3.3561],[-77.6477,3.0739],[-77.6434,2.8981],[-77.8118,2.7485],[-77.7515,2.6273],[-78.0867,2.5106],[-78.4322,2.587],[-78.7032,2.1898],[-78.5863,2.0004],[-78.5712,1.7822],[-78.8461,1.8216],[-78.998,1.6079],[-78.8287,1.4343]]]},"properties":{"shapeName":"Colombia","shapeISO":"COL","shapeType":"ADM0"}}
]}