{"type":"FeatureCollection","bbox":[1.406456,42.428677,1.765091,42.649362],"features":[
{"type":"Feature","id":"AND:ADM0:AND","properties":{"shapeName":"Andorra","shapeISO":"AND","shapeGroup":"AND","shapeType":"ADM0"},"geometry":{"type":"Polygon","coordinates":[[[1.707006,42.502781],[1.710624,42.527741],[1.721683,42.548515],[1.739976,42.561641],[1.765091,42.563372],[1.752688,42.576679],[1.729434,42.582001],[1.713311,42.589546],[1.721993,42.609855],[1.608304,42.618123],[1.597349,42.621921],[1.543089,42.649362],[1.527793,42.648535],[1.49844,42.640241],[1.466814,42.641455],[1.451415,42.602052],[1.429297,42.595386],[1.424853,42.589365],[1.419272,42.579263],[1.418032,42.569832],[1.426403,42.565646],[1.4263,42.561796],[1.409764,42.540609],[1.406456,42.52924],[1.428987,42.531462],[1.446557,42.519886],[1.449968,42.504073],[1.430227,42.493557],[1.424543,42.492472],[1.407593,42.486762],[1.436429,42.453482],[1.436429,42.440951],[1.447901,42.434646],[1.508466,42.428677],[1.51663,42.429504],[1.528206,42.434233],[1.534511,42.439917],[1.538851,42.445653],[1.544432,42.450356],[1.607478,42.456428],[1.639517,42.466427],[1.650369,42.493402],[1.653986,42.496529],[1.656984,42.49764],[1.659774,42.496813],[1.662358,42.493712],[1.674244,42.490508],[1.686336,42.490612],[1.697498,42.494462],[1.707006,42.502781]]]}}
]}