{"type":"FeatureCollection","bbox":[1.412288,42.429738,1.786363,42.655247],"features":[
{"type":"Feature","id":"AND:ADM1:AD-06","properties":{"shapeName":"Sant Julia de Loria","shapeISO":"AD-06","shapeGroup":"AND","shapeType":"ADM1","parentISO":"AND","parentID":"AND:ADM0:AND","src_shape_id":"23515209B82836637605816"},"geometry":{"type":"Polygon","coordinates":[[[1.557103,42.464222],[1.494252,42.48155],[1.460792,42.505318],[1.459916,42.506132],[1.45087,42.503239],[1.447777,42.497534],[1.44532,42.495393],[1.441655,42.494145],[1.429725,42.49464],[1.426131,42.494004],[1.421487,42.491185],[1.418752,42.488674],[1.416788,42.485666],[1.416698,42.483758],[1.42693,42.483258],[1.430635,42.482592],[1.434403,42.480966],[1.437592,42.478704],[1.44026,42.475357],[1.439647,42.464952],[1.441793,42.462328],[1.444829,42.461446],[1.445105,42.459613],[1.443088,42.455231],[1.442852,42.451959],[1.4467,42.449296],[1.446823,42.447554],[1.444854,42.444718],[1.444854,42.442705],[1.447091,42.44017],[1.455133,42.435831],[1.458804,42.434895],[1.463781,42.435107],[1.472275,42.436375],[1.477427,42.436307],[1.491962,42.434406],[1.497451,42.434021],[1.512627,42.429738],[1.515039,42.429748],[1.524529,42.431916],[1.528239,42.432369],[1.544533,42.431393],[1.553109,42.431712],[1.555501,42.432934],[1.557003,42.435718],[1.55678,42.441517],[1.557408,42.443023],[1.561353,42.444877],[1.562491,42.447527],[1.560722,42.450187],[1.560634,42.453579],[1.56464,42.459106],[1.557103,42.464222]]]}},
{"type":"Feature","id":"AND:ADM1:AD-02","properties":{"shapeName":"Canillo","shapeISO":"AD-02","shapeGroup":"AND","shapeType":"ADM1","parentISO":"AND","parentID":"AND:ADM0:AND","src_shape_id":"23515209B25074230340039"},"geometry":{"type":"Polygon","coordinates":[[[1.734944,42.549045],[1.74029,42.556615],[1.74443,42.56032],[1.747711,42.562375],[1.751759,42.563617],[1.754488,42.56364],[1.765068,42.562601],[1.768288,42.563595],[1.7823,42.569403],[1.786363,42.572063],[1.78601,42.575922],[1.78185,42.578722],[1.778534,42.579638],[1.766264,42.580938],[1.758321,42.582428],[1.751759,42.58428],[1.745841,42.586425],[1.733973,42.588118],[1.729097,42.589202],[1.726276,42.591076],[1.725356,42.593198],[1.726229,42.598261],[1.73041,42.603606],[1.735355,42.608098],[1.73775,42.611724],[1.737455,42.61701],[1.734924,42.617443],[1.730194,42.615869],[1.723016,42.616677],[1.711059,42.616216],[1.707644,42.617198],[1.70152,42.621112],[1.69683,42.622599],[1.681403,42.624219],[1.678912,42.624967],[1.676713,42.62205],[1.675026,42.621386],[1.658501,42.620245],[1.65379,42.624765],[1.651082,42.626642],[1.64278,42.629964],[1.636977,42.629931],[1.627668,42.626801],[1.616893,42.6266],[1.61011,42.628175],[1.607321,42.628156],[1.60283,42.625609],[1.606081,42.617084],[1.604318,42.61583],[1.600546,42.615756],[1.596003,42.612298],[1.594708,42.609783],[1.589393,42.605806],[1.580104,42.601368],[1.578161,42.599577],[1.576687,42.596076],[1.576152,42.591374],[1.574008,42.588234],[1.570163,42.585986],[1.567562,42.582777],[1.569405,42.58044],[1.568626,42.570032],[1.569905,42.566843],[1.575039,42.558749],[1.575348,42.55528],[1.573852,42.551562],[1.570129,42.54835],[1.566634,42.546757],[1.569155,42.545952],[1.578929,42.54584],[1.582609,42.547105],[1.586013,42.545614],[1.592362,42.545806],[1.600389,42.544148],[1.605609,42.544133],[1.61187,42.545073],[1.616992,42.546346],[1.619153,42.547814],[1.625459,42.556761],[1.63073,42.566397],[1.633899,42.567141],[1.646764,42.56485],[1.712723,42.553736],[1.722811,42.553475],[1.728208,42.551284],[1.731458,42.551171],[1.734944,42.549045]]]}},
{"type":"Feature","id":"AND:ADM1:AD-05","properties":{"shapeName":"Ordino","shapeISO":"AD-05","shapeGroup":"AND","shapeType":"ADM1","parentISO":"AND","parentID":"AND:ADM0:AND","src_shape_id":"23515209B96881004874456"},"geometry":{"type":"Polygon","coordinates":[[[1.60283,42.625609],[1.599961,42.625615],[1.596909,42.627667],[1.59471,42.631345],[1.592814,42.632925],[1.588267,42.634533],[1.584624,42.634717],[1.581823,42.63651],[1.575032,42.645513],[1.574855,42.648732],[1.569949,42.649541],[1.566416,42.652976],[1.563433,42.654636],[1.554327,42.654174],[1.550259,42.655247],[1.545976,42.655219],[1.535663,42.651994],[1.530061,42.650886],[1.523781,42.64757],[1.52098,42.6466],[1.509914,42.647071],[1.50219,42.645731],[1.499577,42.646785],[1.492304,42.654628],[1.489858,42.653138],[1.481952,42.653138],[1.478166,42.651376],[1.477496,42.649861],[1.476744,42.641748],[1.47592,42.640041],[1.467731,42.634089],[1.467228,42.631956],[1.468384,42.628128],[1.476042,42.613352],[1.474194,42.609537],[1.470665,42.606894],[1.478136,42.602922],[1.482045,42.602075],[1.488757,42.599648],[1.495253,42.597769],[1.498187,42.595658],[1.499076,42.593762],[1.498187,42.581548],[1.499935,42.578861],[1.505983,42.573996],[1.506146,42.570795],[1.508482,42.568168],[1.510479,42.568159],[1.513795,42.566466],[1.518091,42.561146],[1.520716,42.559962],[1.521964,42.557493],[1.522278,42.552693],[1.525045,42.550062],[1.530678,42.547792],[1.534014,42.545435],[1.537748,42.544991],[1.542774,42.547624],[1.544645,42.547602],[1.549552,42.545072],[1.55468,42.547054],[1.557187,42.547195],[1.564397,42.54615],[1.566634,42.546757],[1.570129,42.54835],[1.573852,42.551562],[1.575348,42.55528],[1.575039,42.558749],[1.569905,42.566843],[1.568626,42.570032],[1.569405,42.58044],[1.567562,42.582777],[1.570163,42.585986],[1.574008,42.588234],[1.576152,42.591374],[1.576687,42.596076],[1.578161,42.599577],[1.580104,42.601368],[1.589393,42.605806],[1.594708,42.609783],[1.596003,42.612298],[1.600546,42.615756],[1.604318,42.61583],[1.606081,42.617084],[1.60283,42.625609]]]}},
{"type":"Feature","id":"AND:ADM1:AD-04","properties":{"shapeName":"La Massana","shapeISO":"AD-04","shapeGroup":"AND","shapeType":"ADM1","parentISO":"AND","parentID":"AND:ADM0:AND","src_shape_id":"23515209B12259378502884"},"geometry":{"type":"Polygon","coordinates":[[[1.470665,42.606894],[1.468013,42.60591],[1.462984,42.60597],[1.457581,42.603126],[1.454676,42.602829],[1.44668,42.603451],[1.442118,42.602676],[1.442118,42.59639],[1.439311,42.591395],[1.435801,42.589415],[1.429739,42.588628],[1.426661,42.586586],[1.42672,42.582988],[1.428859,42.579419],[1.431528,42.577613],[1.442389,42.573154],[1.446257,42.569287],[1.444697,42.567337],[1.438038,42.563607],[1.425311,42.559802],[1.420819,42.555335],[1.41782,42.545444],[1.412288,42.538323],[1.413224,42.535651],[1.416383,42.536513],[1.422232,42.540047],[1.430654,42.540133],[1.435801,42.543494],[1.437673,42.543581],[1.44399,42.542115],[1.451242,42.538409],[1.451827,42.532548],[1.452646,42.529617],[1.457449,42.525982],[1.464492,42.519386],[1.466955,42.515614],[1.468257,42.511265],[1.478387,42.510224],[1.489442,42.514574],[1.49906,42.512893],[1.502986,42.514268],[1.523752,42.520724],[1.531541,42.523135],[1.536938,42.521934],[1.542865,42.522759],[1.548667,42.522296],[1.551501,42.525001],[1.550716,42.528776],[1.552972,42.530035],[1.553864,42.533117],[1.55674,42.533978],[1.559947,42.53809],[1.564397,42.54615],[1.557187,42.547195],[1.55468,42.547054],[1.549552,42.545072],[1.544645,42.547602],[1.542774,42.547624],[1.537748,42.544991],[1.534014,42.545435],[1.530678,42.547792],[1.525045,42.550062],[1.522278,42.552693],[1.521964,42.557493],[1.520716,42.559962],[1.518091,42.561146],[1.513795,42.566466],[1.510479,42.568159],[1.508482,42.568168],[1.506146,42.570795],[1.505983,42.573996],[1.499935,42.578861],[1.498187,42.581548],[1.499076,42.593762],[1.498187,42.595658],[1.495253,42.597769],[1.488757,42.599648],[1.482045,42.602075],[1.478136,42.602922],[1.470665,42.606894]]]}},
{"type":"Feature","id":"AND:ADM1:AD-03","properties":{"shapeName":"Encamp","shapeISO":"AD-03","shapeGroup":"AND","shapeType":"ADM1","parentISO":"AND","parentID":"AND:ADM0:AND","src_shape_id":"23515209B87138494217820"},"geometry":{"type":"Polygon","coordinates":[[[1.566634,42.546757],[1.564397,42.54615],[1.559947,42.53809],[1.55674,42.533978],[1.553864,42.533117],[1.552972,42.530035],[1.550716,42.528776],[1.551501,42.525001],[1.548667,42.522296],[1.552683,42.51851],[1.553365,42.515873],[1.555975,42.513819],[1.559665,42.512835],[1.561176,42.514629],[1.564081,42.514947],[1.566318,42.517016],[1.570268,42.516862],[1.574187,42.517853],[1.582451,42.513125],[1.586925,42.511779],[1.590419,42.508003],[1.599427,42.503359],[1.608427,42.498315],[1.612949,42.496934],[1.615265,42.496963],[1.618974,42.500089],[1.620976,42.500552],[1.626127,42.498703],[1.645245,42.494887],[1.651282,42.494145],[1.662142,42.491139],[1.662681,42.492492],[1.667921,42.498381],[1.670472,42.503229],[1.672199,42.503605],[1.67555,42.500001],[1.676329,42.496334],[1.678678,42.492694],[1.682967,42.491882],[1.686271,42.492781],[1.692067,42.492073],[1.702878,42.489017],[1.708183,42.48922],[1.711159,42.490267],[1.715103,42.493777],[1.71999,42.501249],[1.722756,42.503359],[1.726426,42.503764],[1.725425,42.509088],[1.723658,42.512951],[1.723364,42.519548],[1.726995,42.523815],[1.730331,42.526606],[1.73198,42.529398],[1.73336,42.533667],[1.732801,42.547971],[1.734944,42.549045],[1.731458,42.551171],[1.728208,42.551284],[1.722811,42.553475],[1.712723,42.553736],[1.646764,42.56485],[1.633899,42.567141],[1.63073,42.566397],[1.625459,42.556761],[1.619153,42.547814],[1.616992,42.546346],[1.61187,42.545073],[1.605609,42.544133],[1.600389,42.544148],[1.592362,42.545806],[1.586013,42.545614],[1.582609,42.547105],[1.578929,42.54584],[1.569155,42.545952],[1.566634,42.546757]]]}},
{"type":"Feature","id":"AND:ADM1:AD-08","properties":{"shapeName":"Escaldes-Engordany","shapeISO":"AD-08","shapeGroup":"AND","shapeType":"ADM1","parentISO":"AND","parentID":"AND:ADM0:AND","src_shape_id":"23515209B43580600008856"},"geometry":{"type":"Polygon","coordinates":[[[1.56464,42.459106],[1.567241,42.459204],[1.56925,42.456924],[1.574325,42.455246],[1.574129,42.452842],[1.575935,42.450337],[1.580547,42.448179],[1.581921,42.449627],[1.583177,42.453465],[1.588024,42.459517],[1.592244,42.462456],[1.597307,42.464411],[1.602449,42.46444],[1.605374,42.461891],[1.617797,42.46347],[1.621094,42.463412],[1.628238,42.461964],[1.632281,42.462152],[1.63493,42.466279],[1.642113,42.465598],[1.64695,42.466932],[1.653557,42.465218],[1.657526,42.466005],[1.65961,42.469454],[1.665221,42.471263],[1.662799,42.47728],[1.662142,42.491139],[1.651282,42.494145],[1.645245,42.494887],[1.626127,42.498703],[1.620976,42.500552],[1.618974,42.500089],[1.615265,42.496963],[1.612949,42.496934],[1.608427,42.498315],[1.599427,42.503359],[1.590419,42.508003],[1.586925,42.511779],[1.582451,42.513125],[1.574187,42.517853],[1.570268,42.516862],[1.566318,42.517016],[1.564081,42.514947],[1.561176,42.514629],[1.559665,42.512835],[1.555975,42.513819],[1.553365,42.515873],[1.552683,42.51851],[1.548667,42.522296],[1.542865,42.522759],[1.536938,42.521934],[1.531541,42.523135],[1.523752,42.520724],[1.562297,42.470284],[1.5624,42.469725],[1.557103,42.464222],[1.56464,42.459106]]]}},
{"type":"Feature","id":"AND:ADM1:AD-07","properties":{"shapeName":"Andorra la Vella","shapeISO":"AD-07","shapeGroup":"AND","shapeType":"ADM1","parentISO":"AND","parentID":"AND:ADM0:AND","src_shape_id":"23515209B24107209170284"},"geometry":{"type":"Polygon","coordinates":[[[1.557103,42.464222],[1.5624,42.469725],[1.562297,42.470284],[1.523752,42.520724],[1.502986,42.514268],[1.49906,42.512893],[1.489442,42.514574],[1.478387,42.510224],[1.468257,42.511265],[1.467757,42.509884],[1.459916,42.506132],[1.460792,42.505318],[1.494252,42.48155],[1.557103,42.464222]]]}}
]}