{"type":"FeatureCollection","bbox":[-78.195,17.7167,-76.2637,18.5188],"features":[
{"type":"Feature","id":"JAM:ADM0:JAM","properties":{"shapeName":"Jamaica","shapeISO":"JAM","shapeType":"ADM0"},"geometry":{"type":"Polygon","coordinates":[[[-76.2637,18.0124],[-76.3511,18.156],[-76.7646,18.273],[-76.8949,18.4093],[-77.9023,18.5188],[-78.195,18.4555],[-78.0752,18.1984],[-77.7239,17.8536],[-77.441,17.8647],[-77.2161,17.7167],[-76.9553,17.8334],[-76.85,17.9923],[-76.5235,17.8603],[-76.2637,18.0124]]]}}
]}