{"type":"FeatureCollection","bbox":[-59.650707,13.045058,-59.420401,13.334566],"features":[
{"type":"Feature","id":"BRB:ADM1:BB-03","properties":{"shapeName":"Saint George","shapeISO":"BB-03","shapeGroup":"BRB","shapeType":"ADM1","parentISO":"BRB","parentID":"BRB:ADM0:BRB","src_shape_id":"18249212B61473051882148"},"geometry":{"type":"Polygon","coordinates":[[[-59.506399,13.136292],[-59.521759,13.156577],[-59.528124,13.165176],[-59.535117,13.174167],[-59.540042,13.180884],[-59.55062,13.170521],[-59.552971,13.168508],[-59.581959,13.157641],[-59.580585,13.152614],[-59.567417,13.097225],[-59.545939,13.107905],[-59.526478,13.117319],[-59.511326,13.124485],[-59.506399,13.136292]]]}},
{"type":"Feature","id":"BRB:ADM1:BB-07","properties":{"shapeName":"Saint Lucy","shapeISO":"BB-07","shapeGroup":"BRB","shapeType":"ADM1","parentISO":"BRB","parentID":"BRB:ADM0:BRB","src_shape_id":"18249212B83355432632114"},"geometry":{"type":"Polygon","coordinates":[[[-59.577567,13.298185],[-59.574823,13.29922],[-59.573873,13.300518],[-59.575518,13.303513],[-59.578099,13.304106],[-59.57644,13.306522],[-59.579248,13.310014],[-59.584354,13.311587],[-59.590396,13.31777],[-59.595204,13.321221],[-59.594949,13.32267],[-59.601345,13.3275],[-59.605217,13.329915],[-59.607401,13.332303],[-59.610209,13.333076],[-59.612521,13.334566],[-59.618932,13.333462],[-59.620038,13.334304],[-59.622852,13.332084],[-59.629788,13.330014],[-59.631117,13.328354],[-59.632647,13.328807],[-59.636525,13.326543],[-59.64058,13.319232],[-59.643682,13.316386],[-59.647007,13.31134],[-59.649732,13.308795],[-59.650707,13.305776],[-59.649134,13.292016],[-59.65002,13.287811],[-59.649799,13.282268],[-59.648026,13.279205],[-59.646753,13.273785],[-59.577567,13.298185]]]}},
{"type":"Feature","id":"BRB:ADM1:BB-02","properties":{"shapeName":"Saint Andrew","shapeISO":"BB-02","shapeGroup":"BRB","shapeType":"ADM1","parentISO":"BRB","parentID":"BRB:ADM0:BRB","src_shape_id":"18249212B32162439805208"},"geometry":{"type":"Polygon","coordinates":[[[-59.542047,13.234478],[-59.545975,13.241354],[-59.55189,13.248491],[-59.556769,13.256084],[-59.56135,13.265595],[-59.562484,13.266838],[-59.565987,13.273188],[-59.56793,13.278571],[-59.568044,13.284465],[-59.571547,13.289641],[-59.571746,13.29185],[-59.573308,13.293716],[-59.593834,13.264905],[-59.600099,13.237419],[-59.597544,13.216801],[-59.591638,13.213845],[-59.574556,13.204746],[-59.56307,13.220448],[-59.542047,13.234478]]]}},
{"type":"Feature","id":"BRB:ADM1:BB-09","properties":{"shapeName":"Saint Peter","shapeISO":"BB-09","shapeGroup":"BRB","shapeType":"ADM1","parentISO":"BRB","parentID":"BRB:ADM0:BRB","src_shape_id":"18249212B80874946619424"},"geometry":{"type":"Polygon","coordinates":[[[-59.646753,13.273785],[-59.64448,13.266631],[-59.643439,13.264862],[-59.643372,13.261562],[-59.644192,13.258326],[-59.644835,13.252848],[-59.643926,13.249612],[-59.644813,13.246355],[-59.644037,13.243809],[-59.64499,13.240423],[-59.644502,13.238158],[-59.642641,13.234534],[-59.643005,13.22524],[-59.619499,13.232058],[-59.600099,13.237419],[-59.593834,13.264905],[-59.573308,13.293716],[-59.573958,13.295425],[-59.576766,13.296626],[-59.577567,13.298185],[-59.646753,13.273785]]]}},
{"type":"Feature","id":"BRB:ADM1:BB-04","properties":{"shapeName":"Saint James","shapeISO":"BB-04","shapeGroup":"BRB","shapeType":"ADM1","parentISO":"BRB","parentID":"BRB:ADM0:BRB","src_shape_id":"18249212B3001356606985"},"geometry":{"type":"Polygon","coordinates":[[[-59.600099,13.237419],[-59.619499,13.232058],[-59.643005,13.22524],[-59.641622,13.222582],[-59.642242,13.219001],[-59.641068,13.212659],[-59.639893,13.208603],[-59.640137,13.205043],[-59.642309,13.19939],[-59.642331,13.196478],[-59.640935,13.192464],[-59.638142,13.188279],[-59.639339,13.182302],[-59.639383,13.178202],[-59.637522,13.17447],[-59.638231,13.171362],[-59.637123,13.165472],[-59.637788,13.162149],[-59.637101,13.156927],[-59.637943,13.154229],[-59.637965,13.150431],[-59.638829,13.144346],[-59.63761,13.142662],[-59.636968,13.138346],[-59.636059,13.136147],[-59.613486,13.145269],[-59.614852,13.163036],[-59.616572,13.188568],[-59.601515,13.203827],[-59.597544,13.216801],[-59.600099,13.237419]]]}},
{"type":"Feature","id":"BRB:ADM1:BB-11","properties":{"shapeName":"Saint Thomas","shapeISO":"BB-11","shapeGroup":"BRB","shapeType":"ADM1","parentISO":"BRB","parentID":"BRB:ADM0:BRB","src_shape_id":"18249212B6474479975640"},"geometry":{"type":"Polygon","coordinates":[[[-59.552971,13.168508],[-59.557348,13.188501],[-59.571435,13.203049],[-59.574556,13.204746],[-59.591638,13.213845],[-59.597544,13.216801],[-59.601515,13.203827],[-59.616572,13.188568],[-59.614852,13.163036],[-59.613486,13.145269],[-59.581959,13.157641],[-59.552971,13.168508]]]}},
{"type":"Feature","id":"BRB:ADM1:BB-06","properties":{"shapeName":"Saint Joseph","shapeISO":"BB-06","shapeGroup":"BRB","shapeType":"ADM1","parentISO":"BRB","parentID":"BRB:ADM0:BRB","src_shape_id":"18249212B83249722744294"},"geometry":{"type":"Polygon","coordinates":[[[-59.540042,13.180884],[-59.526278,13.194222],[-59.509722,13.210008],[-59.511979,13.210358],[-59.515738,13.212678],[-59.519283,13.212608],[-59.523552,13.214583],[-59.529509,13.219001],[-59.533253,13.223406],[-59.533892,13.225062],[-59.53765,13.2281],[-59.542047,13.234478],[-59.56307,13.220448],[-59.574556,13.204746],[-59.571435,13.203049],[-59.557348,13.188501],[-59.552971,13.168508],[-59.55062,13.170521],[-59.540042,13.180884]]]}},
{"type":"Feature","id":"BRB:ADM1:BB-01","properties":{"shapeName":"Christ Church","shapeISO":"BB-01","shapeGroup":"BRB","shapeType":"ADM1","parentISO":"BRB","parentID":"BRB:ADM0:BRB","src_shape_id":"18249212B50725355749374"},"geometry":{"type":"Polygon","coordinates":[[[-59.567417,13.097225],[-59.591897,13.084659],[-59.607086,13.076746],[-59.601317,13.075214],[-59.598948,13.073971],[-59.587503,13.072976],[-59.586226,13.071595],[-59.582595,13.070987],[-59.580567,13.06926],[-59.575788,13.068528],[-59.5741,13.067091],[-59.568398,13.066082],[-59.565392,13.064093],[-59.561208,13.06488],[-59.552698,13.06582],[-59.550741,13.064963],[-59.543125,13.063071],[-59.53865,13.05953],[-59.537452,13.056338],[-59.535201,13.053614],[-59.535165,13.050113],[-59.532433,13.046779],[-59.527428,13.045058],[-59.522203,13.046266],[-59.518899,13.046452],[-59.515849,13.047513],[-59.511229,13.050343],[-59.505966,13.052791],[-59.503044,13.052957],[-59.501753,13.056467],[-59.49774,13.062504],[-59.494591,13.066649],[-59.489968,13.066773],[-59.484677,13.068915],[-59.481004,13.071512],[-59.479529,13.073377],[-59.47402,13.077301],[-59.505403,13.116816],[-59.511326,13.124485],[-59.526478,13.117319],[-59.545939,13.107905],[-59.567417,13.097225]]]}},
{"type":"Feature","id":"BRB:ADM1:BB-08","properties":{"shapeName":"Saint Michael","shapeISO":"BB-08","shapeGroup":"BRB","shapeType":"ADM1","parentISO":"BRB","parentID":"BRB:ADM0:BRB","src_shape_id":"18249212B34902747010981"},"geometry":{"type":"Polygon","coordinates":[[[-59.581959,13.157641],[-59.613486,13.145269],[-59.636059,13.136147],[-59.636259,13.133038],[-59.635195,13.131268],[-59.634508,13.127513],[-59.633178,13.12393],[-59.629079,13.119484],[-59.627926,13.11724],[-59.627129,13.111002],[-59.625821,13.107722],[-59.626397,13.10634],[-59.629655,13.104484],[-59.629016,13.100329],[-59.623867,13.097994],[-59.622293,13.096143],[-59.614719,13.094085],[-59.610223,13.090286],[-59.609642,13.08809],[-59.609614,13.083393],[-59.61245,13.078226],[-59.607086,13.076746],[-59.591897,13.084659],[-59.567417,13.097225],[-59.580585,13.152614],[-59.581959,13.157641]]]}},
{"type":"Feature","id":"BRB:ADM1:BB-10","properties":{"shapeName":"Saint Philip","shapeISO":"BB-10","shapeGroup":"BRB","shapeType":"ADM1","parentISO":"BRB","parentID":"BRB:ADM0:BRB","src_shape_id":"18249212B1074587975674"},"geometry":{"type":"Polygon","coordinates":[[[-59.47402,13.077301],[-59.466538,13.082605],[-59.463176,13.08378],[-59.459063,13.087219],[-59.457035,13.089816],[-59.454071,13.091889],[-59.450454,13.099887],[-59.444951,13.103865],[-59.442157,13.108368],[-59.439633,13.113534],[-59.435803,13.116629],[-59.43386,13.119833],[-59.432527,13.120537],[-59.429988,13.123839],[-59.429123,13.129308],[-59.426471,13.132209],[-59.426457,13.134405],[-59.422798,13.13888],[-59.420401,13.150026],[-59.42216,13.152263],[-59.421748,13.155094],[-59.425209,13.15613],[-59.426897,13.160632],[-59.428712,13.162248],[-59.430939,13.162179],[-59.431889,13.164306],[-59.439065,13.163601],[-59.441235,13.16512],[-59.442966,13.164734],[-59.444923,13.167427],[-59.447986,13.168835],[-59.448525,13.171086],[-59.450256,13.172757],[-59.452908,13.177107],[-59.456326,13.180283],[-59.457076,13.181719],[-59.466826,13.172974],[-59.488455,13.153102],[-59.506399,13.136292],[-59.511326,13.124485],[-59.505403,13.116816],[-59.47402,13.077301]]]}},
{"type":"Feature","id":"BRB:ADM1:BB-05","properties":{"shapeName":"Saint John","shapeISO":"BB-05","shapeGroup":"BRB","shapeType":"ADM1","parentISO":"BRB","parentID":"BRB:ADM0:BRB","src_shape_id":"18249212B15509533795694"},"geometry":{"type":"Polygon","coordinates":[[[-59.506399,13.136292],[-59.488455,13.153102],[-59.466826,13.172974],[-59.457076,13.181719],[-59.459659,13.183515],[-59.462425,13.182148],[-59.463077,13.18067],[-59.46546,13.179745],[-59.467871,13.1802],[-59.470154,13.181775],[-59.474296,13.186511],[-59.476352,13.187561],[-59.477827,13.189577],[-59.482096,13.19104],[-59.48411,13.190668],[-59.48628,13.19209],[-59.487599,13.19724],[-59.490124,13.198317],[-59.492052,13.197323],[-59.496704,13.19887],[-59.503682,13.20431],[-59.508065,13.209281],[-59.509722,13.210008],[-59.526278,13.194222],[-59.540042,13.180884],[-59.535117,13.174167],[-59.528124,13.165176],[-59.521759,13.156577],[-59.506399,13.136292]]]}}
]}