{"type":"FeatureCollection","bbox":[5.566044,50.750366,6.226768,51.778627],"features":[
{"type":"Feature","id":"NLD:ADM2:NL-LI.landgraaf","properties":{"shapeName":"Landgraaf","shapeISO":"","shapeGroup":"NLD","shapeType":"ADM2","adm1ISO":"NL-LI","parentISO":"NL-LI","parentID":"NLD:ADM1:NL-LI","src_shape_id":"6326949B53909920900869"},"geometry":{"type":"Polygon","coordinates":[[[6.011695,50.926439],[6.006103,50.918679],[6.003229,50.917225],[5.993268,50.910083],[5.990832,50.906175],[5.994504,50.903513],[5.994807,50.895575],[5.996607,50.892523],[6.001685,50.890456],[6.008264,50.885561],[6.009082,50.884047],[6.009533,50.878476],[6.010601,50.876774],[6.015085,50.873514],[6.01714,50.870466],[6.022573,50.871809],[6.031139,50.871587],[6.03295,50.876615],[6.034797,50.879167],[6.034491,50.881107],[6.037053,50.88632],[6.040414,50.88824],[6.043035,50.88712],[6.045533,50.889895],[6.042536,50.892835],[6.041945,50.895906],[6.043493,50.897615],[6.042896,50.900408],[6.048686,50.899415],[6.056634,50.900114],[6.064021,50.902324],[6.066459,50.904263],[6.079812,50.90577],[6.082176,50.90998],[6.085813,50.911883],[6.086982,50.914247],[6.092329,50.9177],[6.082126,50.921541],[6.071774,50.923133],[6.068183,50.920653],[6.062965,50.922035],[6.061817,50.921236],[6.054021,50.922247],[6.056159,50.927152],[6.050869,50.929905],[6.045581,50.92808],[6.043523,50.929698],[6.038588,50.930862],[6.0182,50.934701],[6.016136,50.930811],[6.011695,50.926439]]]}},
{"type":"Feature","id":"NLD:ADM2:NL-LI.beek","properties":{"shapeName":"Beek","shapeISO":"","shapeGroup":"NLD","shapeType":"ADM2","adm1ISO":"NL-LI","parentISO":"NL-LI","parentID":"NLD:ADM1:NL-LI","src_shape_id":"6326949B12958717233979"},"geometry":{"type":"Polygon","coordinates":[[[5.772497,50.92857],[5.773627,50.923385],[5.771235,50.919246],[5.766221,50.914983],[5.758517,50.905885],[5.75523,50.9006],[5.759011,50.898722],[5.768412,50.906526],[5.774591,50.911229],[5.77835,50.91099],[5.782439,50.913376],[5.79272,50.910625],[5.800355,50.914568],[5.801713,50.91413],[5.818941,50.916127],[5.819313,50.91572],[5.831555,50.91718],[5.831244,50.919392],[5.833885,50.92003],[5.841496,50.919606],[5.847751,50.926269],[5.851929,50.930002],[5.855538,50.936007],[5.856928,50.944001],[5.853253,50.946481],[5.848459,50.944711],[5.846221,50.945594],[5.83989,50.950191],[5.837818,50.946398],[5.8307,50.947849],[5.811884,50.955143],[5.802094,50.947425],[5.79336,50.951904],[5.788105,50.94861],[5.784778,50.946761],[5.779953,50.945339],[5.779036,50.94398],[5.783197,50.942634],[5.780076,50.94003],[5.776906,50.931947],[5.772497,50.92857]]]}},
{"type":"Feature","id":"NLD:ADM2:NL-LI.beesel","properties":{"shapeName":"Beesel","shapeISO":"","shapeGroup":"NLD","shapeType":"ADM2","adm1ISO":"NL-LI","parentISO":"NL-LI","parentID":"NLD:ADM1:NL-LI","src_shape_id":"6326949B64998271087377"},"geometry":{"type":"Polygon","coordinates":[[[6.005878,51.258682],[6.008458,51.257031],[6.013294,51.255785],[6.016259,51.253748],[6.015996,51.250911],[6.021992,51.249212],[6.027854,51.245547],[6.032519,51.24699],[6.03836,51.246103],[6.043264,51.24712],[6.046889,51.250001],[6.05133,51.252527],[6.054181,51.252044],[6.062729,51.246444],[6.072662,51.24256],[6.085615,51.247625],[6.1245,51.274729],[6.124756,51.27755],[6.120056,51.285112],[6.114544,51.288806],[6.107007,51.291469],[6.10315,51.2887],[6.093395,51.295451],[6.090837,51.294499],[6.086341,51.295489],[6.084715,51.297454],[6.070889,51.293677],[6.069935,51.291392],[6.066817,51.288881],[6.063276,51.288697],[6.058423,51.290246],[6.052876,51.288601],[6.046413,51.285602],[6.029851,51.273292],[6.028196,51.268056],[6.025588,51.266582],[6.020661,51.265871],[6.014422,51.266559],[6.00961,51.265759],[6.005515,51.261757],[6.005878,51.258682]]]}},
{"type":"Feature","id":"NLD:ADM2:NL-LI.bergen-l","properties":{"shapeName":"Bergen (L)","shapeISO":"","shapeGroup":"NLD","shapeType":"ADM2","adm1ISO":"NL-LI","parentISO":"NL-LI","parentID":"NLD:ADM1:NL-LI","src_shape_id":"6326949B45872879397854"},"geometry":{"type":"Polygon","coordinates":[[[6.169192,51.503081],[6.188361,51.50508],[6.204043,51.504312],[6.213359,51.507817],[6.212022,51.51339],[6.207707,51.519095],[6.199927,51.52738],[6.188672,51.533478],[6.1769,51.538555],[6.157031,51.566575],[6.146984,51.57059],[6.140784,51.574157],[6.130559,51.581087],[6.121484,51.592744],[6.117083,51.593847],[6.091386,51.605935],[6.093983,51.61367],[6.093933,51.622153],[6.097228,51.620883],[6.100011,51.624078],[6.108039,51.641932],[6.111682,51.644729],[6.109411,51.646866],[6.117255,51.65074],[6.11577,51.653227],[6.118086,51.655972],[6.108385,51.658991],[6.101908,51.660539],[6.099653,51.658115],[6.095034,51.659702],[6.087887,51.659849],[6.086536,51.662539],[6.082617,51.66171],[6.075723,51.664825],[6.072383,51.663838],[6.03664,51.672759],[6.031944,51.676164],[6.024277,51.669816],[6.031756,51.663047],[6.024671,51.660071],[6.015374,51.662242],[6.014234,51.660326],[6.006841,51.656027],[6.001517,51.655253],[5.991462,51.650985],[5.976606,51.643782],[5.981849,51.642612],[5.996015,51.63687],[6.007227,51.63021],[6.020629,51.621291],[6.023852,51.616125],[6.024046,51.60076],[6.02628,51.595576],[6.028784,51.592855],[6.033388,51.589682],[6.037143,51.586254],[6.039333,51.582846],[6.039591,51.579724],[6.037959,51.574829],[6.037553,51.570424],[6.040175,51.565134],[6.04379,51.56143],[6.048119,51.558462],[6.056508,51.55758],[6.06213,51.555874],[6.066877,51.552733],[6.075795,51.548251],[6.078847,51.547206],[6.085351,51.546851],[6.099987,51.54816],[6.1055,51.548178],[6.109984,51.547118],[6.114176,51.543629],[6.115996,51.537404],[6.119681,51.531844],[6.122216,51.530145],[6.129666,51.526702],[6.141092,51.519519],[6.144701,51.517501],[6.15061,51.515442],[6.157783,51.513619],[6.161668,51.511882],[6.165657,51.508934],[6.168353,51.505613],[6.169192,51.503081]]]}},
{"type":"Feature","id":"NLD:ADM2:NL-LI.brunssum","properties":{"shapeName":"Brunssum","shapeISO":"","shapeGroup":"NLD","shapeType":"ADM2","adm1ISO":"NL-LI","parentISO":"NL-LI","parentID":"NLD:ADM1:NL-LI","src_shape_id":"6326949B33159250264853"},"geometry":{"type":"Polygon","coordinates":[[[6.0182,50.934701],[6.015077,50.947883],[6.016485,50.95268],[6.005197,50.956776],[6.006052,50.957535],[5.998815,50.957877],[5.980122,50.96068],[5.974727,50.958394],[5.96586,50.962418],[5.962753,50.958739],[5.958386,50.956674],[5.952671,50.95247],[5.935692,50.946018],[5.931399,50.941557],[5.934414,50.938636],[5.928468,50.936612],[5.930133,50.93424],[5.93871,50.928507],[5.941858,50.927086],[5.945262,50.92823],[5.946311,50.9299],[5.954892,50.933838],[5.961265,50.934189],[5.971003,50.931062],[5.975479,50.929003],[6.011695,50.926439],[6.016136,50.930811],[6.0182,50.934701]]]}},
{"type":"Feature","id":"NLD:ADM2:NL-LI.gennep","properties":{"shapeName":"Gennep","shapeISO":"","shapeGroup":"NLD","shapeType":"ADM2","adm1ISO":"NL-LI","parentISO":"NL-LI","parentID":"NLD:ADM1:NL-LI","src_shape_id":"6326949B74696294770759"},"geometry":{"type":"Polygon","coordinates":[[[6.031944,51.676164],[6.029822,51.678099],[6.030554,51.68316],[6.032233,51.684796],[6.028304,51.689294],[6.031787,51.692322],[6.030631,51.698345],[6.027764,51.700548],[6.026053,51.708687],[6.028324,51.711732],[6.031519,51.712989],[6.037721,51.712743],[6.042008,51.713344],[6.044938,51.716913],[6.03788,51.719929],[6.034741,51.720314],[6.032039,51.723994],[6.028964,51.725753],[6.003574,51.733793],[5.994195,51.738309],[5.984989,51.739288],[5.978403,51.738775],[5.973361,51.739305],[5.968412,51.738503],[5.956856,51.738654],[5.955154,51.738117],[5.952293,51.742683],[5.953287,51.748023],[5.950736,51.74433],[5.943961,51.741816],[5.938298,51.741592],[5.934567,51.739771],[5.933561,51.735864],[5.934193,51.73372],[5.928589,51.727144],[5.921324,51.72182],[5.919469,51.717671],[5.927705,51.717097],[5.942956,51.714446],[5.948926,51.712872],[5.953202,51.710916],[5.956178,51.707247],[5.956566,51.69894],[5.962403,51.684575],[5.96371,51.680687],[5.964673,51.673772],[5.963275,51.661429],[5.964255,51.654154],[5.967468,51.649284],[5.972385,51.64557],[5.976606,51.643782],[5.991462,51.650985],[6.001517,51.655253],[6.006841,51.656027],[6.014234,51.660326],[6.015374,51.662242],[6.024671,51.660071],[6.031756,51.663047],[6.024277,51.669816],[6.031944,51.676164]]]}},
{"type":"Feature","id":"NLD:ADM2:NL-LI.heerlen","properties":{"shapeName":"Heerlen","shapeISO":"","shapeGroup":"NLD","shapeType":"ADM2","adm1ISO":"NL-LI","parentISO":"NL-LI","parentID":"NLD:ADM1:NL-LI","src_shape_id":"6326949B1825961321722"},"geometry":{"type":"Polygon","coordinates":[[[6.011695,50.926439],[5.975479,50.929003],[5.971003,50.931062],[5.961265,50.934189],[5.954892,50.933838],[5.946311,50.9299],[5.945262,50.92823],[5.941858,50.927086],[5.93871,50.928507],[5.930133,50.93424],[5.928468,50.936612],[5.920136,50.933348],[5.920209,50.931712],[5.910659,50.927079],[5.905273,50.927553],[5.900599,50.923424],[5.897672,50.922819],[5.895504,50.920135],[5.895949,50.918796],[5.899585,50.916824],[5.904313,50.917242],[5.908247,50.915458],[5.904206,50.913448],[5.916303,50.909964],[5.923515,50.90557],[5.923403,50.904405],[5.928595,50.900483],[5.932112,50.896541],[5.940731,50.888768],[5.946053,50.884604],[5.954906,50.875565],[5.963078,50.867783],[5.964761,50.866649],[5.969361,50.86008],[5.97256,50.85562],[5.977407,50.850465],[5.980705,50.848435],[5.994879,50.841874],[5.997769,50.841253],[6.00478,50.837028],[6.005395,50.834952],[6.00302,50.832025],[6.011463,50.830764],[6.017029,50.825701],[6.015745,50.823811],[6.01805,50.821167],[6.023722,50.818402],[6.026359,50.82023],[6.024697,50.821594],[6.022743,50.826605],[6.025269,50.82782],[6.018767,50.829694],[6.016314,50.833883],[6.018449,50.837328],[6.015941,50.838795],[6.017958,50.843805],[6.01574,50.84381],[6.010991,50.847058],[6.008998,50.84993],[6.006544,50.851542],[6.000567,50.857734],[6.008171,50.859422],[6.006975,50.8608],[6.011015,50.863923],[6.019363,50.868517],[6.01714,50.870466],[6.015085,50.873514],[6.010601,50.876774],[6.009533,50.878476],[6.009082,50.884047],[6.008264,50.885561],[6.001685,50.890456],[5.996607,50.892523],[5.994807,50.895575],[5.994504,50.903513],[5.990832,50.906175],[5.993268,50.910083],[6.003229,50.917225],[6.006103,50.918679],[6.011695,50.926439]]]}},
{"type":"Feature","id":"NLD:ADM2:NL-LI.kerkrade","properties":{"shapeName":"Kerkrade","shapeISO":"","shapeGroup":"NLD","shapeType":"ADM2","adm1ISO":"NL-LI","parentISO":"NL-LI","parentID":"NLD:ADM1:NL-LI","src_shape_id":"6326949B5477842522812"},"geometry":{"type":"Polygon","coordinates":[[[6.01714,50.870466],[6.019363,50.868517],[6.011015,50.863923],[6.006975,50.8608],[6.008171,50.859422],[6.000567,50.857734],[6.006544,50.851542],[6.008998,50.84993],[6.010991,50.847058],[6.01574,50.84381],[6.017958,50.843805],[6.018944,50.846255],[6.02801,50.847679],[6.034457,50.85059],[6.042072,50.851213],[6.044405,50.85269],[6.050101,50.854241],[6.053936,50.85693],[6.056269,50.857207],[6.057221,50.85202],[6.074241,50.846732],[6.077241,50.860625],[6.081039,50.862563],[6.083395,50.864837],[6.088066,50.87229],[6.085073,50.876368],[6.087207,50.878473],[6.086332,50.879876],[6.08139,50.882155],[6.078224,50.885207],[6.075382,50.890539],[6.07518,50.892952],[6.077205,50.896844],[6.077397,50.899107],[6.079908,50.902916],[6.079812,50.90577],[6.066459,50.904263],[6.064021,50.902324],[6.056634,50.900114],[6.048686,50.899415],[6.042896,50.900408],[6.043493,50.897615],[6.041945,50.895906],[6.042536,50.892835],[6.045533,50.889895],[6.043035,50.88712],[6.040414,50.88824],[6.037053,50.88632],[6.034491,50.881107],[6.034797,50.879167],[6.03295,50.876615],[6.031139,50.871587],[6.022573,50.871809],[6.01714,50.870466]]]}},
{"type":"Feature","id":"NLD:ADM2:NL-LI.maastricht","properties":{"shapeName":"Maastricht","shapeISO":"","shapeGroup":"NLD","shapeType":"ADM2","adm1ISO":"NL-LI","parentISO":"NL-LI","parentID":"NLD:ADM1:NL-LI","src_shape_id":"6326949B62006643577312"},"geometry":{"type":"Polygon","coordinates":[[[5.693815,50.810449],[5.696501,50.808545],[5.70949,50.808278],[5.708527,50.80491],[5.716942,50.803805],[5.71731,50.814501],[5.720304,50.814299],[5.725851,50.815638],[5.728731,50.817924],[5.743472,50.82132],[5.744872,50.822921],[5.74682,50.82987],[5.745984,50.834583],[5.74631,50.837325],[5.740452,50.838399],[5.741259,50.840102],[5.746806,50.840269],[5.747984,50.841191],[5.754853,50.84184],[5.757324,50.845357],[5.757339,50.85529],[5.749285,50.857149],[5.752877,50.859452],[5.762923,50.864138],[5.762659,50.86651],[5.759159,50.866095],[5.755443,50.871491],[5.749427,50.870434],[5.746005,50.872268],[5.742565,50.871399],[5.739414,50.873098],[5.733364,50.874746],[5.736241,50.882046],[5.732461,50.88353],[5.72654,50.884148],[5.725822,50.889248],[5.723466,50.894562],[5.718035,50.896927],[5.71984,50.899229],[5.713001,50.902152],[5.712562,50.905498],[5.714852,50.908458],[5.709268,50.911593],[5.706426,50.912003],[5.699464,50.910762],[5.696533,50.90861],[5.69578,50.905803],[5.697179,50.902262],[5.695742,50.897745],[5.69234,50.893708],[5.685283,50.890604],[5.682514,50.888524],[5.679104,50.883469],[5.679348,50.880489],[5.671971,50.881112],[5.667623,50.88043],[5.661676,50.878665],[5.658594,50.876185],[5.65644,50.876569],[5.653334,50.873979],[5.651321,50.875092],[5.644157,50.87135],[5.64947,50.868343],[5.641663,50.864161],[5.643789,50.858878],[5.643511,50.856784],[5.640333,50.853741],[5.642706,50.85008],[5.640285,50.849465],[5.639217,50.846334],[5.642291,50.843091],[5.641852,50.840793],[5.645343,50.839395],[5.643729,50.837936],[5.646765,50.836381],[5.648332,50.833218],[5.65138,50.831991],[5.649981,50.828345],[5.656176,50.824289],[5.653989,50.820082],[5.66427,50.817187],[5.669442,50.817848],[5.673171,50.815995],[5.678281,50.816468],[5.680529,50.812058],[5.68292,50.813125],[5.688612,50.811869],[5.691678,50.812122],[5.693815,50.810449]]]}},
{"type":"Feature","id":"NLD:ADM2:NL-LI.meerssen","properties":{"shapeName":"Meerssen","shapeISO":"","shapeGroup":"NLD","shapeType":"ADM2","adm1ISO":"NL-LI","parentISO":"NL-LI","parentID":"NLD:ADM1:NL-LI","src_shape_id":"6326949B43663423776688"},"geometry":{"type":"Polygon","coordinates":[[[5.772497,50.92857],[5.768542,50.928191],[5.761227,50.930428],[5.748559,50.935912],[5.750118,50.939203],[5.745991,50.943411],[5.744018,50.939252],[5.740878,50.935225],[5.732543,50.930222],[5.726929,50.923841],[5.725905,50.921198],[5.727258,50.915798],[5.726643,50.913071],[5.722775,50.909163],[5.718924,50.907812],[5.714852,50.908458],[5.712562,50.905498],[5.713001,50.902152],[5.71984,50.899229],[5.718035,50.896927],[5.723466,50.894562],[5.725822,50.889248],[5.72654,50.884148],[5.732461,50.88353],[5.736241,50.882046],[5.733364,50.874746],[5.739414,50.873098],[5.742565,50.871399],[5.746005,50.872268],[5.749427,50.870434],[5.755443,50.871491],[5.759159,50.866095],[5.762659,50.86651],[5.765055,50.867888],[5.764268,50.869773],[5.767,50.873203],[5.770813,50.872389],[5.773301,50.872896],[5.772691,50.87726],[5.777661,50.883727],[5.784181,50.882403],[5.78713,50.883733],[5.789534,50.88241],[5.79837,50.88285],[5.79984,50.885673],[5.796709,50.89206],[5.797615,50.895626],[5.796562,50.897697],[5.803422,50.897963],[5.802255,50.902412],[5.796555,50.907479],[5.801001,50.908755],[5.800589,50.91197],[5.801713,50.91413],[5.800355,50.914568],[5.79272,50.910625],[5.782439,50.913376],[5.77835,50.91099],[5.774591,50.911229],[5.768412,50.906526],[5.759011,50.898722],[5.75523,50.9006],[5.758517,50.905885],[5.766221,50.914983],[5.771235,50.919246],[5.773627,50.923385],[5.772497,50.92857]]]}},
{"type":"Feature","id":"NLD:ADM2:NL-LI.mook-en-middelaar","properties":{"shapeName":"Mook en Middelaar","shapeISO":"","shapeGroup":"NLD","shapeType":"ADM2","adm1ISO":"NL-LI","parentISO":"NL-LI","parentID":"NLD:ADM1:NL-LI","src_shape_id":"6326949B78257423929264"},"geometry":{"type":"Polygon","coordinates":[[[5.864468,51.757681],[5.869187,51.756116],[5.876733,51.752093],[5.880326,51.748549],[5.880597,51.744356],[5.883337,51.738164],[5.885403,51.728314],[5.886634,51.726265],[5.893782,51.722063],[5.899566,51.720189],[5.912001,51.717876],[5.919469,51.717671],[5.921324,51.72182],[5.928589,51.727144],[5.934193,51.73372],[5.933561,51.735864],[5.934567,51.739771],[5.938298,51.741592],[5.932766,51.741938],[5.929947,51.744428],[5.930737,51.746534],[5.933322,51.748098],[5.915281,51.752291],[5.913328,51.755514],[5.913392,51.759],[5.911114,51.762405],[5.905375,51.765683],[5.899932,51.771775],[5.893408,51.777852],[5.887322,51.778627],[5.879505,51.77716],[5.869464,51.776092],[5.867892,51.77552],[5.867079,51.771067],[5.867415,51.767506],[5.869244,51.76286],[5.864468,51.757681]]]}},
{"type":"Feature","id":"NLD:ADM2:NL-LI.nederweert","properties":{"shapeName":"Nederweert","shapeISO":"","shapeGroup":"NLD","shapeType":"ADM2","adm1ISO":"NL-LI","parentISO":"NL-LI","parentID":"NLD:ADM1:NL-LI","src_shape_id":"6326949B42914806885900"},"geometry":{"type":"Polygon","coordinates":[[[5.770447,51.333804],[5.672109,51.315093],[5.656098,51.301581],[5.643995,51.290575],[5.648747,51.285189],[5.654271,51.282204],[5.656957,51.279731],[5.667799,51.277375],[5.67451,51.277049],[5.684751,51.280199],[5.695688,51.28245],[5.708872,51.283565],[5.723564,51.282658],[5.730343,51.280954],[5.736778,51.276714],[5.74213,51.267688],[5.746237,51.263473],[5.750199,51.261311],[5.764818,51.255775],[5.768088,51.255421],[5.769933,51.253715],[5.778265,51.250187],[5.782358,51.247372],[5.787438,51.241615],[5.791769,51.237536],[5.793646,51.236975],[5.80349,51.238014],[5.807958,51.240322],[5.817462,51.241966],[5.828774,51.24099],[5.834898,51.241243],[5.839064,51.244378],[5.846147,51.245574],[5.853443,51.244739],[5.855524,51.248994],[5.85499,51.253658],[5.850114,51.256511],[5.846748,51.255517],[5.833797,51.274769],[5.83942,51.277723],[5.837921,51.279719],[5.841333,51.282508],[5.850655,51.291543],[5.860723,51.310802],[5.877822,51.316577],[5.85214,51.320702],[5.832074,51.338046],[5.840192,51.346877],[5.824032,51.343955],[5.770447,51.333804]]]}},
{"type":"Feature","id":"NLD:ADM2:NL-LI.roermond","properties":{"shapeName":"Roermond","shapeISO":"","shapeGroup":"NLD","shapeType":"ADM2","adm1ISO":"NL-LI","parentISO":"NL-LI","parentID":"NLD:ADM1:NL-LI","src_shape_id":"6326949B62204677584458"},"geometry":{"type":"Polygon","coordinates":[[[6.005878,51.258682],[6.008384,51.253262],[6.009077,51.249462],[6.005521,51.238099],[6.002838,51.234709],[5.99743,51.230854],[5.993376,51.229029],[5.986729,51.22741],[5.980005,51.223334],[5.974085,51.215874],[5.968697,51.211164],[5.962674,51.207343],[5.951323,51.201165],[5.934196,51.191678],[5.929032,51.187921],[5.925495,51.184508],[5.921245,51.178904],[5.925922,51.177682],[5.921626,51.171264],[5.922489,51.169638],[5.928109,51.16865],[5.941152,51.160669],[5.946975,51.160719],[5.952512,51.158822],[5.955475,51.159044],[5.980698,51.174594],[5.987689,51.175192],[5.989018,51.173452],[5.986055,51.170256],[5.990686,51.170789],[5.992703,51.170055],[5.991565,51.167561],[5.997697,51.165492],[6.00016,51.162268],[6.005968,51.16316],[6.013694,51.166648],[6.017127,51.164713],[6.026074,51.164022],[6.027622,51.162083],[6.031425,51.16088],[6.039865,51.1616],[6.042198,51.160935],[6.048938,51.161329],[6.054932,51.162403],[6.057004,51.163691],[6.063564,51.165524],[6.060073,51.170912],[6.050003,51.172148],[6.048137,51.174844],[6.057069,51.175703],[6.054713,51.179413],[6.055328,51.183481],[6.066589,51.184052],[6.07314,51.182824],[6.069493,51.213213],[6.068466,51.213351],[6.067986,51.22055],[6.073258,51.222436],[6.086023,51.22267],[6.083544,51.227118],[6.072662,51.24256],[6.062729,51.246444],[6.054181,51.252044],[6.05133,51.252527],[6.046889,51.250001],[6.043264,51.24712],[6.03836,51.246103],[6.032519,51.24699],[6.027854,51.245547],[6.021992,51.249212],[6.015996,51.250911],[6.016259,51.253748],[6.013294,51.255785],[6.008458,51.257031],[6.005878,51.258682]]]}},
{"type":"Feature","id":"NLD:ADM2:NL-LI.simpelveld","properties":{"shapeName":"Simpelveld","shapeISO":"","shapeGroup":"NLD","shapeType":"ADM2","adm1ISO":"NL-LI","parentISO":"NL-LI","parentID":"NLD:ADM1:NL-LI","src_shape_id":"6326949B7850161968800"},"geometry":{"type":"Polygon","coordinates":[[[5.969361,50.86008],[5.964805,50.855145],[5.961423,50.85392],[5.954516,50.852572],[5.953251,50.848306],[5.954815,50.845923],[5.955935,50.843073],[5.955769,50.839273],[5.956927,50.835905],[5.955534,50.835317],[5.958901,50.829226],[5.965788,50.823776],[5.971844,50.821219],[5.969317,50.816645],[5.979522,50.814575],[5.983517,50.809729],[5.985513,50.810573],[5.991384,50.808044],[6.003562,50.801463],[6.009993,50.803988],[6.016499,50.809779],[6.025028,50.814131],[6.023722,50.818402],[6.01805,50.821167],[6.015745,50.823811],[6.017029,50.825701],[6.011463,50.830764],[6.00302,50.832025],[6.005395,50.834952],[6.00478,50.837028],[5.997769,50.841253],[5.994879,50.841874],[5.980705,50.848435],[5.977407,50.850465],[5.97256,50.85562],[5.969361,50.86008]]]}},
{"type":"Feature","id":"NLD:ADM2:NL-LI.stein","properties":{"shapeName":"Stein","shapeISO":"","shapeGroup":"NLD","shapeType":"ADM2","adm1ISO":"NL-LI","parentISO":"NL-LI","parentID":"NLD:ADM1:NL-LI","src_shape_id":"6326949B81495248212156"},"geometry":{"type":"Polygon","coordinates":[[[5.788105,50.94861],[5.786466,50.953804],[5.785998,50.962251],[5.783896,50.968879],[5.786537,50.971372],[5.786551,50.974296],[5.783329,50.979717],[5.782224,50.986156],[5.783777,50.990974],[5.785882,50.993622],[5.788784,50.999574],[5.787489,51.001285],[5.774826,51.004155],[5.784598,51.015113],[5.787243,51.019166],[5.782633,51.018653],[5.773404,51.018999],[5.768172,51.013941],[5.765966,51.009638],[5.767436,51.004355],[5.767626,50.999738],[5.764937,50.99652],[5.757466,50.992331],[5.752644,50.986722],[5.749882,50.982537],[5.745278,50.980268],[5.739777,50.979798],[5.736376,50.977915],[5.735387,50.974372],[5.733357,50.971863],[5.728543,50.969873],[5.720126,50.962421],[5.719902,50.959587],[5.722011,50.957135],[5.728099,50.954964],[5.734158,50.955451],[5.739012,50.957434],[5.742035,50.96056],[5.746225,50.961645],[5.750521,50.960741],[5.756047,50.957723],[5.759184,50.952542],[5.758106,50.95075],[5.751575,50.949242],[5.746587,50.947303],[5.745991,50.943411],[5.750118,50.939203],[5.748559,50.935912],[5.761227,50.930428],[5.768542,50.928191],[5.772497,50.92857],[5.776906,50.931947],[5.780076,50.94003],[5.783197,50.942634],[5.779036,50.94398],[5.779953,50.945339],[5.784778,50.946761],[5.788105,50.94861]]]}},
{"type":"Feature","id":"NLD:ADM2:NL-LI.vaals","properties":{"shapeName":"Vaals","shapeISO":"","shapeGroup":"NLD","shapeType":"ADM2","adm1ISO":"NL-LI","parentISO":"NL-LI","parentID":"NLD:ADM1:NL-LI","src_shape_id":"6326949B17278408062250"},"geometry":{"type":"Polygon","coordinates":[[[5.935757,50.756978],[5.944285,50.758487],[5.946492,50.759817],[5.953265,50.760073],[5.957964,50.762109],[5.969204,50.7606],[5.972819,50.759647],[5.975117,50.757887],[5.974139,50.755211],[5.984522,50.753396],[5.993701,50.75284],[5.997212,50.753864],[5.999277,50.753025],[6.014299,50.75506],[6.021008,50.754287],[6.01836,50.763356],[6.026728,50.772852],[6.026046,50.775543],[6.021276,50.776252],[6.017412,50.77856],[6.010812,50.780174],[6.00559,50.783114],[6.002385,50.784215],[5.998508,50.786982],[5.995756,50.787565],[5.995903,50.79005],[5.988268,50.794049],[5.980327,50.795096],[5.97495,50.798094],[5.97668,50.803369],[5.969103,50.801271],[5.9648,50.802414],[5.9511,50.794388],[5.94612,50.796181],[5.943082,50.793633],[5.942149,50.789246],[5.944913,50.781608],[5.943608,50.773259],[5.941137,50.771995],[5.935929,50.77146],[5.931162,50.775118],[5.923849,50.77524],[5.921904,50.773353],[5.92054,50.769332],[5.925475,50.766321],[5.926834,50.763095],[5.932033,50.760956],[5.935757,50.756978]]]}},
{"type":"Feature","id":"NLD:ADM2:NL-LI.venlo","properties":{"shapeName":"Venlo","shapeISO":"","shapeGroup":"NLD","shapeType":"ADM2","adm1ISO":"NL-LI","parentISO":"NL-LI","parentID":"NLD:ADM1:NL-LI","src_shape_id":"6326949B62614877207788"},"geometry":{"type":"Polygon","coordinates":[[[6.124756,51.27755],[6.129009,51.285702],[6.145143,51.298116],[6.153822,51.307448],[6.154238,51.311114],[6.159419,51.315642],[6.159588,51.319691],[6.164186,51.325552],[6.169377,51.329373],[6.168556,51.332988],[6.178084,51.33341],[6.188302,51.335068],[6.194235,51.334879],[6.18988,51.339461],[6.226388,51.360336],[6.21501,51.387126],[6.214423,51.389633],[6.217641,51.391602],[6.226768,51.399373],[6.226666,51.400267],[6.211361,51.400925],[6.205255,51.399519],[6.21476,51.43388],[6.213935,51.446263],[6.220592,51.446645],[6.220004,51.455349],[6.222098,51.461093],[6.222293,51.466161],[6.223555,51.474964],[6.218513,51.48434],[6.212762,51.491307],[6.214193,51.502912],[6.213359,51.507817],[6.204043,51.504312],[6.188361,51.50508],[6.169192,51.503081],[6.169399,51.500158],[6.166541,51.489144],[6.167106,51.485787],[6.170729,51.480959],[6.177607,51.473829],[6.178978,51.468172],[6.178127,51.464447],[6.173557,51.458991],[6.164843,51.452569],[6.157458,51.445561],[6.155238,51.442672],[6.153968,51.43639],[6.158325,51.424808],[6.157544,51.420165],[6.151374,51.414612],[6.149646,51.411216],[6.148993,51.407774],[6.151517,51.398925],[6.15304,51.395925],[6.140777,51.394861],[6.136774,51.41252],[6.135269,51.416108],[6.131169,51.414704],[6.124554,51.4148],[6.121944,51.415858],[6.116466,51.420992],[6.101756,51.419553],[6.081626,51.420582],[6.077694,51.42017],[6.076888,51.409499],[6.073364,51.406105],[6.071826,51.401205],[6.073124,51.395729],[6.074428,51.393821],[6.077301,51.394392],[6.083726,51.39257],[6.086866,51.389806],[6.090372,51.389109],[6.090457,51.385911],[6.077585,51.378172],[6.084229,51.374075],[6.087281,51.371569],[6.091065,51.371594],[6.096554,51.363027],[6.099653,51.357096],[6.107098,51.356002],[6.118771,51.345931],[6.123252,51.34337],[6.116656,51.339109],[6.116402,51.336713],[6.118198,51.329925],[6.116231,51.323205],[6.11056,51.317612],[6.10355,51.309267],[6.096054,51.304782],[6.089137,51.29924],[6.084715,51.297454],[6.086341,51.295489],[6.090837,51.294499],[6.093395,51.295451],[6.10315,51.2887],[6.107007,51.291469],[6.114544,51.288806],[6.120056,51.285112],[6.124756,51.27755]]]}},
{"type":"Feature","id":"NLD:ADM2:NL-LI.venray","properties":{"shapeName":"Venray","shapeISO":"","shapeGroup":"NLD","shapeType":"ADM2","adm1ISO":"NL-LI","parentISO":"NL-LI","parentID":"NLD:ADM1:NL-LI","src_shape_id":"6326949B92597341568086"},"geometry":{"type":"Polygon","coordinates":[[[5.874963,51.446559],[5.928307,51.458231],[5.953002,51.46354],[5.978889,51.470421],[5.994118,51.475212],[6.009668,51.477195],[6.013268,51.476992],[6.022528,51.479371],[6.030209,51.479849],[6.03549,51.483046],[6.036193,51.484719],[6.039792,51.486389],[6.040791,51.488263],[6.050414,51.490203],[6.051247,51.489279],[6.058203,51.488815],[6.062444,51.487251],[6.06808,51.488369],[6.073754,51.495172],[6.069669,51.503287],[6.066257,51.507947],[6.0646,51.516066],[6.066772,51.523693],[6.076763,51.524777],[6.079927,51.522952],[6.087168,51.523565],[6.09377,51.52272],[6.095627,51.521595],[6.102768,51.522672],[6.107552,51.52139],[6.10661,51.518301],[6.122559,51.510423],[6.126865,51.514351],[6.132127,51.511758],[6.141092,51.519519],[6.129666,51.526702],[6.122216,51.530145],[6.119681,51.531844],[6.115996,51.537404],[6.114176,51.543629],[6.109984,51.547118],[6.1055,51.548178],[6.099987,51.54816],[6.085351,51.546851],[6.078847,51.547206],[6.075795,51.548251],[6.066877,51.552733],[6.06213,51.555874],[6.056508,51.55758],[6.048119,51.558462],[6.040135,51.556666],[6.037306,51.558149],[6.03263,51.55682],[6.033686,51.555447],[6.031667,51.552338],[6.018211,51.563334],[6.004251,51.570243],[5.99345,51.566697],[5.976345,51.561637],[5.935444,51.5536],[5.906661,51.55203],[5.891465,51.560204],[5.838237,51.566414],[5.852572,51.504144],[5.860722,51.491966],[5.871694,51.450111],[5.874963,51.446559]]]}},
{"type":"Feature","id":"NLD:ADM2:NL-LI.voerendaal","properties":{"shapeName":"Voerendaal","shapeISO":"","shapeGroup":"NLD","shapeType":"ADM2","adm1ISO":"NL-LI","parentISO":"NL-LI","parentID":"NLD:ADM1:NL-LI","src_shape_id":"6326949B50745475536845"},"geometry":{"type":"Polygon","coordinates":[[[5.923403,50.904405],[5.920542,50.903063],[5.917597,50.904399],[5.914705,50.901721],[5.901531,50.895776],[5.903664,50.894238],[5.890388,50.888413],[5.894006,50.885601],[5.885858,50.884305],[5.880574,50.882474],[5.874022,50.883403],[5.867877,50.883251],[5.861617,50.882417],[5.863873,50.877122],[5.870067,50.873018],[5.87067,50.870754],[5.86906,50.86883],[5.871325,50.867809],[5.87343,50.864478],[5.871402,50.862995],[5.871118,50.860155],[5.869031,50.856679],[5.874279,50.857251],[5.875662,50.855415],[5.88103,50.853328],[5.886177,50.849475],[5.887991,50.847033],[5.891275,50.842798],[5.899145,50.84348],[5.903256,50.845705],[5.916713,50.848889],[5.925001,50.84884],[5.929107,50.843042],[5.930375,50.839953],[5.933179,50.839659],[5.937838,50.840622],[5.9468,50.844685],[5.951373,50.844647],[5.954815,50.845923],[5.953251,50.848306],[5.954516,50.852572],[5.961423,50.85392],[5.964805,50.855145],[5.969361,50.86008],[5.964761,50.866649],[5.963078,50.867783],[5.954906,50.875565],[5.946053,50.884604],[5.940731,50.888768],[5.932112,50.896541],[5.928595,50.900483],[5.923403,50.904405]]]}},
{"type":"Feature","id":"NLD:ADM2:NL-LI.weert","properties":{"shapeName":"Weert","shapeISO":"","shapeGroup":"NLD","shapeType":"ADM2","adm1ISO":"NL-LI","parentISO":"NL-LI","parentID":"NLD:ADM1:NL-LI","src_shape_id":"6326949B44832169165427"},"geometry":{"type":"Polygon","coordinates":[[[5.643995,51.290575],[5.633691,51.281168],[5.625971,51.273601],[5.625259,51.271459],[5.623473,51.249025],[5.61878,51.229425],[5.594413,51.22418],[5.594319,51.226073],[5.566044,51.220909],[5.636707,51.202777],[5.646467,51.199944],[5.652733,51.19766],[5.654082,51.194241],[5.649739,51.193617],[5.658043,51.184744],[5.664093,51.186267],[5.670623,51.185799],[5.676359,51.184428],[5.67654,51.182725],[5.689411,51.185419],[5.691538,51.183744],[5.695294,51.182558],[5.697856,51.183595],[5.701287,51.182478],[5.708003,51.182054],[5.709338,51.18042],[5.714478,51.183508],[5.717782,51.184378],[5.726543,51.185483],[5.730064,51.18492],[5.733859,51.186206],[5.740097,51.186551],[5.74564,51.189498],[5.745876,51.193591],[5.752284,51.200587],[5.753845,51.203571],[5.753343,51.207941],[5.750926,51.210014],[5.751903,51.213725],[5.75658,51.21606],[5.761275,51.216449],[5.768211,51.214897],[5.773812,51.21532],[5.774728,51.217834],[5.777648,51.219703],[5.781765,51.220138],[5.783297,51.223353],[5.791769,51.237536],[5.787438,51.241615],[5.782358,51.247372],[5.778265,51.250187],[5.769933,51.253715],[5.768088,51.255421],[5.764818,51.255775],[5.750199,51.261311],[5.746237,51.263473],[5.74213,51.267688],[5.736778,51.276714],[5.730343,51.280954],[5.723564,51.282658],[5.708872,51.283565],[5.695688,51.28245],[5.684751,51.280199],[5.67451,51.277049],[5.667799,51.277375],[5.656957,51.279731],[5.654271,51.282204],[5.648747,51.285189],[5.643995,51.290575]]]}},
{"type":"Feature","id":"NLD:ADM2:NL-LI.valkenburg-aan-de-geul","properties":{"shapeName":"Valkenburg aan de Geul","shapeISO":"","shapeGroup":"NLD","shapeType":"ADM2","adm1ISO":"NL-LI","parentISO":"NL-LI","parentID":"NLD:ADM1:NL-LI","src_shape_id":"6326949B26894869293479"},"geometry":{"type":"Polygon","coordinates":[[[5.757339,50.85529],[5.76312,50.854837],[5.770751,50.852395],[5.778779,50.852304],[5.780417,50.849453],[5.791002,50.849874],[5.795031,50.84857],[5.800666,50.84835],[5.802158,50.849436],[5.8053,50.843427],[5.811075,50.840393],[5.814343,50.840492],[5.821238,50.838761],[5.820439,50.835977],[5.820889,50.832347],[5.823608,50.830357],[5.829635,50.82962],[5.836246,50.829964],[5.836142,50.835919],[5.84227,50.833696],[5.844046,50.833828],[5.85068,50.831839],[5.857388,50.832082],[5.85946,50.833684],[5.865906,50.837501],[5.866212,50.838711],[5.87395,50.837923],[5.877561,50.841423],[5.875171,50.844654],[5.876324,50.846244],[5.884969,50.847471],[5.887991,50.847033],[5.886177,50.849475],[5.88103,50.853328],[5.875662,50.855415],[5.874279,50.857251],[5.869031,50.856679],[5.871118,50.860155],[5.871402,50.862995],[5.87343,50.864478],[5.871325,50.867809],[5.86906,50.86883],[5.87067,50.870754],[5.870067,50.873018],[5.863873,50.877122],[5.861617,50.882417],[5.855764,50.88191],[5.851664,50.882199],[5.85029,50.883652],[5.835312,50.881304],[5.832993,50.883351],[5.832745,50.885844],[5.836646,50.8916],[5.83311,50.892209],[5.827099,50.889137],[5.824084,50.886946],[5.817396,50.884481],[5.810464,50.887689],[5.802085,50.886986],[5.79984,50.885673],[5.79837,50.88285],[5.789534,50.88241],[5.78713,50.883733],[5.784181,50.882403],[5.777661,50.883727],[5.772691,50.87726],[5.773301,50.872896],[5.770813,50.872389],[5.767,50.873203],[5.764268,50.869773],[5.765055,50.867888],[5.762659,50.86651],[5.762923,50.864138],[5.752877,50.859452],[5.749285,50.857149],[5.757339,50.85529]]]}},
{"type":"Feature","id":"NLD:ADM2:NL-LI.horst-aan-de-maas","properties":{"shapeName":"Horst aan de Maas","shapeISO":"","shapeGroup":"NLD","shapeType":"ADM2","adm1ISO":"NL-LI","parentISO":"NL-LI","parentID":"NLD:ADM1:NL-LI","src_shape_id":"6326949B10328285292362"},"geometry":{"type":"Polygon","coordinates":[[[5.931286,51.384752],[5.947325,51.383133],[5.957895,51.378049],[5.98912,51.378202],[6.006177,51.379901],[6.018764,51.382256],[6.070097,51.395153],[6.073124,51.395729],[6.071826,51.401205],[6.073364,51.406105],[6.076888,51.409499],[6.077694,51.42017],[6.081626,51.420582],[6.101756,51.419553],[6.116466,51.420992],[6.121944,51.415858],[6.124554,51.4148],[6.131169,51.414704],[6.135269,51.416108],[6.136774,51.41252],[6.140777,51.394861],[6.15304,51.395925],[6.151517,51.398925],[6.148993,51.407774],[6.149646,51.411216],[6.151374,51.414612],[6.157544,51.420165],[6.158325,51.424808],[6.153968,51.43639],[6.155238,51.442672],[6.157458,51.445561],[6.164843,51.452569],[6.173557,51.458991],[6.178127,51.464447],[6.178978,51.468172],[6.177607,51.473829],[6.170729,51.480959],[6.167106,51.485787],[6.166541,51.489144],[6.169399,51.500158],[6.169192,51.503081],[6.168353,51.505613],[6.165657,51.508934],[6.161668,51.511882],[6.157783,51.513619],[6.15061,51.515442],[6.144701,51.517501],[6.141092,51.519519],[6.132127,51.511758],[6.126865,51.514351],[6.122559,51.510423],[6.10661,51.518301],[6.107552,51.52139],[6.102768,51.522672],[6.095627,51.521595],[6.09377,51.52272],[6.087168,51.523565],[6.079927,51.522952],[6.076763,51.524777],[6.066772,51.523693],[6.0646,51.516066],[6.066257,51.507947],[6.069669,51.503287],[6.073754,51.495172],[6.06808,51.488369],[6.062444,51.487251],[6.058203,51.488815],[6.051247,51.489279],[6.050414,51.490203],[6.040791,51.488263],[6.039792,51.486389],[6.036193,51.484719],[6.03549,51.483046],[6.030209,51.479849],[6.022528,51.479371],[6.013268,51.476992],[6.009668,51.477195],[5.994118,51.475212],[5.978889,51.470421],[5.953002,51.46354],[5.928307,51.458231],[5.874963,51.446559],[5.915797,51.402781],[5.931286,51.384752]]]}},
{"type":"Feature","id":"NLD:ADM2:NL-LI.leudal","properties":{"shapeName":"Leudal","shapeISO":"","shapeGroup":"NLD","shapeType":"ADM2","adm1ISO":"NL-LI","parentISO":"NL-LI","parentID":"NLD:ADM1:NL-LI","src_shape_id":"6326949B97609854971564"},"geometry":{"type":"Polygon","coordinates":[[[6.00961,51.265759],[6.011012,51.271552],[6.008253,51.277542],[5.978673,51.289971],[5.954704,51.30028],[5.907502,51.313251],[5.910652,51.307709],[5.883998,51.315556],[5.877822,51.316577],[5.860723,51.310802],[5.850655,51.291543],[5.841333,51.282508],[5.837921,51.279719],[5.83942,51.277723],[5.833797,51.274769],[5.846748,51.255517],[5.850114,51.256511],[5.85499,51.253658],[5.855524,51.248994],[5.853443,51.244739],[5.846147,51.245574],[5.839064,51.244378],[5.834898,51.241243],[5.828774,51.24099],[5.817462,51.241966],[5.807958,51.240322],[5.80349,51.238014],[5.793646,51.236975],[5.791769,51.237536],[5.783297,51.223353],[5.781765,51.220138],[5.777648,51.219703],[5.774728,51.217834],[5.773812,51.21532],[5.768211,51.214897],[5.761275,51.216449],[5.75658,51.21606],[5.751903,51.213725],[5.750926,51.210014],[5.753343,51.207941],[5.753845,51.203571],[5.752284,51.200587],[5.745876,51.193591],[5.74564,51.189498],[5.749089,51.188678],[5.755962,51.18446],[5.767159,51.18369],[5.776727,51.178485],[5.773863,51.172693],[5.775746,51.170546],[5.769564,51.169083],[5.770187,51.164223],[5.776365,51.165329],[5.779401,51.163316],[5.779481,51.159383],[5.774811,51.154709],[5.776666,51.154404],[5.777645,51.151303],[5.784987,51.153074],[5.786506,51.154739],[5.7932,51.157372],[5.796492,51.157161],[5.802578,51.15948],[5.802108,51.160926],[5.806262,51.162844],[5.813856,51.158746],[5.815723,51.162782],[5.824309,51.167841],[5.826415,51.166834],[5.826958,51.170584],[5.842584,51.177419],[5.84804,51.179127],[5.857362,51.183852],[5.873731,51.190941],[5.86824,51.195078],[5.868552,51.196822],[5.871288,51.19865],[5.87324,51.201889],[5.872867,51.203452],[5.878041,51.20865],[5.87965,51.210995],[5.88388,51.213486],[5.889429,51.215409],[5.891895,51.214075],[5.894874,51.215999],[5.907882,51.211428],[5.909107,51.210045],[5.907011,51.205549],[5.914126,51.208906],[5.917849,51.20655],[5.924891,51.203891],[5.928609,51.20343],[5.93815,51.203822],[5.94668,51.203434],[5.951323,51.201165],[5.962674,51.207343],[5.968697,51.211164],[5.974085,51.215874],[5.980005,51.223334],[5.986729,51.22741],[5.993376,51.229029],[5.99743,51.230854],[6.002838,51.234709],[6.005521,51.238099],[6.009077,51.249462],[6.008384,51.253262],[6.005878,51.258682],[6.005515,51.261757],[6.00961,51.265759]]]}},
{"type":"Feature","id":"NLD:ADM2:NL-LI.maasgouw","properties":{"shapeName":"Maasgouw","shapeISO":"","shapeGroup":"NLD","shapeType":"ADM2","adm1ISO":"NL-LI","parentISO":"NL-LI","parentID":"NLD:ADM1:NL-LI","src_shape_id":"6326949B12614711390574"},"geometry":{"type":"Polygon","coordinates":[[[5.951323,51.201165],[5.94668,51.203434],[5.93815,51.203822],[5.928609,51.20343],[5.924891,51.203891],[5.917849,51.20655],[5.914126,51.208906],[5.907011,51.205549],[5.909107,51.210045],[5.907882,51.211428],[5.894874,51.215999],[5.891895,51.214075],[5.889429,51.215409],[5.88388,51.213486],[5.87965,51.210995],[5.878041,51.20865],[5.872867,51.203452],[5.87324,51.201889],[5.871288,51.19865],[5.868552,51.196822],[5.86824,51.195078],[5.873731,51.190941],[5.857362,51.183852],[5.84804,51.179127],[5.842584,51.177419],[5.826958,51.170584],[5.826415,51.166834],[5.833307,51.161303],[5.833007,51.158949],[5.838604,51.157079],[5.836352,51.153684],[5.840287,51.152329],[5.846003,51.148716],[5.855781,51.144626],[5.846783,51.14138],[5.843504,51.137326],[5.84399,51.135514],[5.842327,51.132208],[5.840114,51.130842],[5.828771,51.13033],[5.824897,51.129345],[5.820702,51.126752],[5.814103,51.120791],[5.809848,51.118422],[5.807667,51.113046],[5.810861,51.108866],[5.814625,51.107454],[5.823589,51.10835],[5.828884,51.107039],[5.832782,51.104603],[5.83378,51.102786],[5.833505,51.099555],[5.837098,51.102918],[5.844677,51.105262],[5.849023,51.109922],[5.851308,51.109112],[5.858373,51.117303],[5.872279,51.135108],[5.8743,51.134249],[5.881566,51.134831],[5.882836,51.133399],[5.886614,51.135009],[5.895523,51.135315],[5.901804,51.134073],[5.903467,51.132947],[5.908092,51.134835],[5.911561,51.131792],[5.913886,51.133199],[5.955475,51.159044],[5.952512,51.158822],[5.946975,51.160719],[5.941152,51.160669],[5.928109,51.16865],[5.922489,51.169638],[5.921626,51.171264],[5.925922,51.177682],[5.921245,51.178904],[5.925495,51.184508],[5.929032,51.187921],[5.934196,51.191678],[5.951323,51.201165]]]}},
{"type":"Feature","id":"NLD:ADM2:NL-LI.roerdalen","properties":{"shapeName":"Roerdalen","shapeISO":"","shapeGroup":"NLD","shapeType":"ADM2","adm1ISO":"NL-LI","parentISO":"NL-LI","parentID":"NLD:ADM1:NL-LI","src_shape_id":"6326949B39652859333828"},"geometry":{"type":"Polygon","coordinates":[[[5.955475,51.159044],[5.913886,51.133199],[5.916384,51.130451],[5.914507,51.12823],[5.920893,51.118516],[5.926752,51.113773],[5.940498,51.114328],[5.940424,51.112692],[5.946573,51.11322],[5.948086,51.112581],[5.954233,51.113199],[5.956054,51.114782],[5.960505,51.116114],[5.965327,51.118442],[5.972124,51.114694],[5.976078,51.117091],[5.978486,51.115842],[5.984804,51.120654],[5.990901,51.120409],[5.997701,51.118836],[6.000763,51.114135],[6.013158,51.116779],[6.021981,51.113371],[6.024215,51.109869],[6.022637,51.109062],[6.023972,51.106635],[6.028212,51.107155],[6.030467,51.101741],[6.036461,51.096531],[6.041965,51.100901],[6.044399,51.101119],[6.052544,51.10629],[6.05683,51.109549],[6.055236,51.110742],[6.060291,51.115926],[6.067291,51.118034],[6.071345,51.11795],[6.075528,51.119064],[6.075696,51.12094],[6.080549,51.122141],[6.083499,51.123891],[6.087101,51.129302],[6.089189,51.130164],[6.091682,51.13454],[6.096302,51.134758],[6.102303,51.13643],[6.116617,51.139306],[6.12152,51.141173],[6.120965,51.142229],[6.126445,51.145023],[6.134511,51.145105],[6.138195,51.146309],[6.144829,51.147045],[6.146723,51.148391],[6.15201,51.147955],[6.160659,51.149268],[6.163456,51.148741],[6.162848,51.15267],[6.170112,51.155236],[6.175421,51.158463],[6.138801,51.173339],[6.180724,51.186358],[6.16517,51.194413],[6.161089,51.192869],[6.149898,51.18981],[6.129623,51.183739],[6.122405,51.181302],[6.115552,51.17788],[6.110901,51.173702],[6.102109,51.171619],[6.099684,51.169832],[6.095989,51.17113],[6.089791,51.170408],[6.082189,51.171633],[6.078513,51.177191],[6.07314,51.182824],[6.066589,51.184052],[6.055328,51.183481],[6.054713,51.179413],[6.057069,51.175703],[6.048137,51.174844],[6.050003,51.172148],[6.060073,51.170912],[6.063564,51.165524],[6.057004,51.163691],[6.054932,51.162403],[6.048938,51.161329],[6.042198,51.160935],[6.039865,51.1616],[6.031425,51.16088],[6.027622,51.162083],[6.026074,51.164022],[6.017127,51.164713],[6.013694,51.166648],[6.005968,51.16316],[6.00016,51.162268],[5.997697,51.165492],[5.991565,51.167561],[5.992703,51.170055],[5.990686,51.170789],[5.986055,51.170256],[5.989018,51.173452],[5.987689,51.175192],[5.980698,51.174594],[5.955475,51.159044]]]}},
{"type":"Feature","id":"NLD:ADM2:NL-LI.echt-susteren","properties":{"shapeName":"Echt-Susteren","shapeISO":"","shapeGroup":"NLD","shapeType":"ADM2","adm1ISO":"NL-LI","parentISO":"NL-LI","parentID":"NLD:ADM1:NL-LI","src_shape_id":"6326949B70373820713642"},"geometry":{"type":"Polygon","coordinates":[[[5.833505,51.099555],[5.830997,51.095722],[5.825555,51.092685],[5.822657,51.092324],[5.813985,51.095584],[5.808256,51.096339],[5.802592,51.09515],[5.798752,51.093516],[5.795105,51.089622],[5.797128,51.08618],[5.798846,51.085783],[5.803384,51.082209],[5.804863,51.079633],[5.804189,51.076925],[5.799246,51.075007],[5.796618,51.071824],[5.801056,51.064019],[5.799336,51.060071],[5.803231,51.057594],[5.809341,51.059144],[5.814043,51.06621],[5.819621,51.072609],[5.823958,51.07251],[5.823492,51.068085],[5.824801,51.064597],[5.827141,51.054334],[5.827201,51.047958],[5.835278,51.048893],[5.837778,51.046759],[5.841283,51.045716],[5.84861,51.046244],[5.85274,51.038124],[5.849115,51.036538],[5.8526,51.029381],[5.855991,51.028391],[5.865312,51.029168],[5.876998,51.032042],[5.878112,51.037035],[5.874529,51.039209],[5.867085,51.046675],[5.866313,51.051103],[5.868688,51.051685],[5.875186,51.051472],[5.887196,51.052179],[5.892293,51.053234],[5.89637,51.057141],[5.907054,51.062676],[5.913205,51.066883],[5.918729,51.063952],[5.91969,51.062446],[5.926314,51.04823],[5.934605,51.041229],[5.938127,51.035117],[5.943097,51.036586],[5.949799,51.036967],[5.954004,51.036529],[5.95762,51.034714],[5.959465,51.038238],[5.957828,51.040981],[5.961681,51.041969],[5.963837,51.043685],[5.967835,51.044759],[5.969195,51.046772],[5.968212,51.050857],[5.970233,51.053872],[5.968111,51.055562],[5.970878,51.058309],[5.969976,51.060703],[5.97478,51.063158],[5.981727,51.069477],[5.979579,51.071343],[5.981392,51.073055],[5.988449,51.074613],[5.992192,51.079854],[5.997791,51.084245],[6.003823,51.086791],[6.009521,51.090844],[6.01267,51.090951],[6.015711,51.092357],[6.017573,51.094572],[6.020673,51.092838],[6.029903,51.094634],[6.036461,51.096531],[6.030467,51.101741],[6.028212,51.107155],[6.023972,51.106635],[6.022637,51.109062],[6.024215,51.109869],[6.021981,51.113371],[6.013158,51.116779],[6.000763,51.114135],[5.997701,51.118836],[5.990901,51.120409],[5.984804,51.120654],[5.978486,51.115842],[5.976078,51.117091],[5.972124,51.114694],[5.965327,51.118442],[5.960505,51.116114],[5.956054,51.114782],[5.954233,51.113199],[5.948086,51.112581],[5.946573,51.11322],[5.940424,51.112692],[5.940498,51.114328],[5.926752,51.113773],[5.920893,51.118516],[5.914507,51.12823],[5.916384,51.130451],[5.913886,51.133199],[5.911561,51.131792],[5.908092,51.134835],[5.903467,51.132947],[5.901804,51.134073],[5.895523,51.135315],[5.886614,51.135009],[5.882836,51.133399],[5.881566,51.134831],[5.8743,51.134249],[5.872279,51.135108],[5.858373,51.117303],[5.851308,51.109112],[5.849023,51.109922],[5.844677,51.105262],[5.837098,51.102918],[5.833505,51.099555]]]}},
{"type":"Feature","id":"NLD:ADM2:NL-LI.gulpen-wittem","properties":{"shapeName":"Gulpen-Wittem","shapeISO":"","shapeGroup":"NLD","shapeType":"ADM2","adm1ISO":"NL-LI","parentISO":"NL-LI","parentID":"NLD:ADM1:NL-LI","src_shape_id":"6326949B15301037000239"},"geometry":{"type":"Polygon","coordinates":[[[5.954815,50.845923],[5.951373,50.844647],[5.9468,50.844685],[5.937838,50.840622],[5.933179,50.839659],[5.930375,50.839953],[5.929107,50.843042],[5.925001,50.84884],[5.916713,50.848889],[5.903256,50.845705],[5.899145,50.84348],[5.891275,50.842798],[5.887991,50.847033],[5.884969,50.847471],[5.876324,50.846244],[5.875171,50.844654],[5.877561,50.841423],[5.87395,50.837923],[5.866212,50.838711],[5.865906,50.837501],[5.85946,50.833684],[5.861764,50.830019],[5.864134,50.823344],[5.857647,50.820339],[5.853175,50.820751],[5.851177,50.819175],[5.85156,50.817429],[5.848732,50.814914],[5.845213,50.815194],[5.842336,50.81018],[5.839238,50.807587],[5.831717,50.80877],[5.830407,50.80769],[5.819408,50.805241],[5.821381,50.802152],[5.821802,50.796228],[5.828126,50.790498],[5.832596,50.788639],[5.835255,50.781737],[5.838455,50.781649],[5.842044,50.776668],[5.842546,50.774076],[5.844919,50.770576],[5.845037,50.76537],[5.847887,50.757667],[5.848919,50.753407],[5.852296,50.757216],[5.863453,50.763508],[5.868962,50.764938],[5.876227,50.765615],[5.886476,50.770156],[5.889354,50.765499],[5.890215,50.76013],[5.889738,50.756327],[5.901629,50.751399],[5.904849,50.755223],[5.909009,50.754218],[5.912546,50.755674],[5.91398,50.754323],[5.91508,50.750366],[5.921449,50.751356],[5.931063,50.756941],[5.935757,50.756978],[5.932033,50.760956],[5.926834,50.763095],[5.925475,50.766321],[5.92054,50.769332],[5.921904,50.773353],[5.923849,50.77524],[5.931162,50.775118],[5.935929,50.77146],[5.941137,50.771995],[5.943608,50.773259],[5.944913,50.781608],[5.942149,50.789246],[5.943082,50.793633],[5.94612,50.796181],[5.9511,50.794388],[5.9648,50.802414],[5.969103,50.801271],[5.97668,50.803369],[5.980199,50.805794],[5.981368,50.808594],[5.983517,50.809729],[5.979522,50.814575],[5.969317,50.816645],[5.971844,50.821219],[5.965788,50.823776],[5.958901,50.829226],[5.955534,50.835317],[5.956927,50.835905],[5.955769,50.839273],[5.955935,50.843073],[5.954815,50.845923]]]}},
{"type":"Feature","id":"NLD:ADM2:NL-LI.sittard-geleen","properties":{"shapeName":"Sittard-Geleen","shapeISO":"","shapeGroup":"NLD","shapeType":"ADM2","adm1ISO":"NL-LI","parentISO":"NL-LI","parentID":"NLD:ADM1:NL-LI","src_shape_id":"6326949B26439699205725"},"geometry":{"type":"Polygon","coordinates":[[[5.83989,50.950191],[5.839816,50.957058],[5.842606,50.960753],[5.843264,50.963517],[5.845838,50.96413],[5.852183,50.968027],[5.855077,50.966497],[5.861833,50.966146],[5.865842,50.963962],[5.869176,50.966568],[5.873501,50.962804],[5.876846,50.964783],[5.878847,50.964189],[5.881476,50.966321],[5.88669,50.968448],[5.890371,50.97209],[5.891034,50.974094],[5.897083,50.974865],[5.896795,50.976486],[5.892608,50.980313],[5.895668,50.981352],[5.903723,50.987198],[5.904349,50.996137],[5.905515,51.002172],[5.895474,51.00453],[5.895737,51.011019],[5.888342,51.013472],[5.884259,51.013381],[5.878911,51.017837],[5.879,51.020222],[5.876657,51.023846],[5.874602,51.029186],[5.876998,51.032042],[5.865312,51.029168],[5.855991,51.028391],[5.8526,51.029381],[5.849115,51.036538],[5.85274,51.038124],[5.84861,51.046244],[5.841283,51.045716],[5.837778,51.046759],[5.835278,51.048893],[5.827201,51.047958],[5.827141,51.054334],[5.824801,51.064597],[5.823492,51.068085],[5.823958,51.07251],[5.819621,51.072609],[5.814043,51.06621],[5.809341,51.059144],[5.803231,51.057594],[5.799336,51.060071],[5.793177,51.058526],[5.787843,51.059701],[5.783239,51.061861],[5.777684,51.06303],[5.774653,51.062976],[5.771667,51.059891],[5.772562,51.056295],[5.770757,51.049191],[5.766405,51.042526],[5.759613,51.03674],[5.758,51.033665],[5.760816,51.030006],[5.767966,51.029059],[5.772853,51.02743],[5.776407,51.023308],[5.775639,51.020679],[5.773404,51.018999],[5.782633,51.018653],[5.787243,51.019166],[5.784598,51.015113],[5.774826,51.004155],[5.787489,51.001285],[5.788784,50.999574],[5.785882,50.993622],[5.783777,50.990974],[5.782224,50.986156],[5.783329,50.979717],[5.786551,50.974296],[5.786537,50.971372],[5.783896,50.968879],[5.785998,50.962251],[5.786466,50.953804],[5.788105,50.94861],[5.79336,50.951904],[5.802094,50.947425],[5.811884,50.955143],[5.8307,50.947849],[5.837818,50.946398],[5.83989,50.950191]]]}},
{"type":"Feature","id":"NLD:ADM2:NL-LI.peel-en-maas","properties":{"shapeName":"Peel en Maas","shapeISO":"","shapeGroup":"NLD","shapeType":"ADM2","adm1ISO":"NL-LI","parentISO":"NL-LI","parentID":"NLD:ADM1:NL-LI","src_shape_id":"6326949B67836908957420"},"geometry":{"type":"Polygon","coordinates":[[[5.840192,51.346877],[5.832074,51.338046],[5.85214,51.320702],[5.877822,51.316577],[5.883998,51.315556],[5.910652,51.307709],[5.907502,51.313251],[5.954704,51.30028],[5.978673,51.289971],[6.008253,51.277542],[6.011012,51.271552],[6.00961,51.265759],[6.014422,51.266559],[6.020661,51.265871],[6.025588,51.266582],[6.028196,51.268056],[6.029851,51.273292],[6.046413,51.285602],[6.052876,51.288601],[6.058423,51.290246],[6.063276,51.288697],[6.066817,51.288881],[6.069935,51.291392],[6.070889,51.293677],[6.084715,51.297454],[6.089137,51.29924],[6.096054,51.304782],[6.10355,51.309267],[6.11056,51.317612],[6.116231,51.323205],[6.118198,51.329925],[6.116402,51.336713],[6.116656,51.339109],[6.123252,51.34337],[6.118771,51.345931],[6.107098,51.356002],[6.099653,51.357096],[6.096554,51.363027],[6.091065,51.371594],[6.087281,51.371569],[6.084229,51.374075],[6.077585,51.378172],[6.090457,51.385911],[6.090372,51.389109],[6.086866,51.389806],[6.083726,51.39257],[6.077301,51.394392],[6.074428,51.393821],[6.073124,51.395729],[6.070097,51.395153],[6.018764,51.382256],[6.006177,51.379901],[5.98912,51.378202],[5.957895,51.378049],[5.947325,51.383133],[5.931286,51.384752],[5.878698,51.355532],[5.874542,51.353312],[5.870358,51.352534],[5.840192,51.346877]]]}},
{"type":"Feature","id":"NLD:ADM2:NL-LI.eijsden-margraten","properties":{"shapeName":"Eijsden-Margraten","shapeISO":"","shapeGroup":"NLD","shapeType":"ADM2","adm1ISO":"NL-LI","parentISO":"NL-LI","parentID":"NLD:ADM1:NL-LI","src_shape_id":"6326949B98773621915630"},"geometry":{"type":"Polygon","coordinates":[[[5.693815,50.810449],[5.693544,50.800116],[5.694595,50.794144],[5.697677,50.787048],[5.698744,50.779619],[5.697366,50.775309],[5.693752,50.770939],[5.685032,50.763602],[5.68218,50.759972],[5.68206,50.757535],[5.688055,50.75734],[5.688473,50.755712],[5.694787,50.754775],[5.699407,50.755408],[5.702551,50.758912],[5.707045,50.758286],[5.710626,50.760786],[5.715631,50.759877],[5.719404,50.763293],[5.722316,50.76278],[5.726402,50.759414],[5.730564,50.757359],[5.739177,50.757073],[5.74157,50.761161],[5.740517,50.763012],[5.743259,50.767002],[5.747087,50.770484],[5.754556,50.775188],[5.755849,50.775144],[5.76581,50.782545],[5.772787,50.783057],[5.776646,50.782246],[5.779681,50.774342],[5.784501,50.767168],[5.788656,50.768158],[5.79322,50.770198],[5.807355,50.756189],[5.814201,50.756137],[5.821579,50.758644],[5.830677,50.758538],[5.833008,50.760417],[5.839007,50.763718],[5.845037,50.76537],[5.844919,50.770576],[5.842546,50.774076],[5.842044,50.776668],[5.838455,50.781649],[5.835255,50.781737],[5.832596,50.788639],[5.828126,50.790498],[5.821802,50.796228],[5.821381,50.802152],[5.819408,50.805241],[5.830407,50.80769],[5.831717,50.80877],[5.839238,50.807587],[5.842336,50.81018],[5.845213,50.815194],[5.848732,50.814914],[5.85156,50.817429],[5.851177,50.819175],[5.853175,50.820751],[5.857647,50.820339],[5.864134,50.823344],[5.861764,50.830019],[5.85946,50.833684],[5.857388,50.832082],[5.85068,50.831839],[5.844046,50.833828],[5.84227,50.833696],[5.836142,50.835919],[5.836246,50.829964],[5.829635,50.82962],[5.823608,50.830357],[5.820889,50.832347],[5.820439,50.835977],[5.821238,50.838761],[5.814343,50.840492],[5.811075,50.840393],[5.8053,50.843427],[5.802158,50.849436],[5.800666,50.84835],[5.795031,50.84857],[5.791002,50.849874],[5.780417,50.849453],[5.778779,50.852304],[5.770751,50.852395],[5.76312,50.854837],[5.757339,50.85529],[5.757324,50.845357],[5.754853,50.84184],[5.747984,50.841191],[5.746806,50.840269],[5.741259,50.840102],[5.740452,50.838399],[5.74631,50.837325],[5.745984,50.834583],[5.74682,50.82987],[5.744872,50.822921],[5.743472,50.82132],[5.728731,50.817924],[5.725851,50.815638],[5.720304,50.814299],[5.71731,50.814501],[5.716942,50.803805],[5.708527,50.80491],[5.70949,50.808278],[5.696501,50.808545],[5.693815,50.810449]]]}},
{"type":"Feature","id":"NLD:ADM2:NL-LI.beekdaelen","properties":{"shapeName":"Beekdaelen","shapeISO":"","shapeGroup":"NLD","shapeType":"ADM2","adm1ISO":"NL-LI","parentISO":"NL-LI","parentID":"NLD:ADM1:NL-LI","src_shape_id":"6326949B16660020709385"},"geometry":{"type":"Polygon","coordinates":[[[5.801713,50.91413],[5.800589,50.91197],[5.801001,50.908755],[5.796555,50.907479],[5.802255,50.902412],[5.803422,50.897963],[5.796562,50.897697],[5.797615,50.895626],[5.796709,50.89206],[5.79984,50.885673],[5.802085,50.886986],[5.810464,50.887689],[5.817396,50.884481],[5.824084,50.886946],[5.827099,50.889137],[5.83311,50.892209],[5.836646,50.8916],[5.832745,50.885844],[5.832993,50.883351],[5.835312,50.881304],[5.85029,50.883652],[5.851664,50.882199],[5.855764,50.88191],[5.861617,50.882417],[5.867877,50.883251],[5.874022,50.883403],[5.880574,50.882474],[5.885858,50.884305],[5.894006,50.885601],[5.890388,50.888413],[5.903664,50.894238],[5.901531,50.895776],[5.914705,50.901721],[5.917597,50.904399],[5.920542,50.903063],[5.923403,50.904405],[5.923515,50.90557],[5.916303,50.909964],[5.904206,50.913448],[5.908247,50.915458],[5.904313,50.917242],[5.899585,50.916824],[5.895949,50.918796],[5.895504,50.920135],[5.897672,50.922819],[5.900599,50.923424],[5.905273,50.927553],[5.910659,50.927079],[5.920209,50.931712],[5.920136,50.933348],[5.928468,50.936612],[5.934414,50.938636],[5.931399,50.941557],[5.935692,50.946018],[5.952671,50.95247],[5.958386,50.956674],[5.962753,50.958739],[5.96586,50.962418],[5.974727,50.958394],[5.980122,50.96068],[5.998815,50.957877],[6.006052,50.957535],[6.007735,50.95882],[6.012999,50.960398],[6.015205,50.962364],[6.021161,50.971003],[6.0268,50.981309],[6.02651,50.983272],[6.018699,50.983818],[6.017362,50.983402],[5.98422,50.982114],[5.979573,50.982916],[5.974266,50.980669],[5.968729,50.97947],[5.965009,50.980939],[5.95739,50.985005],[5.955183,50.988417],[5.950132,50.987207],[5.933884,50.985353],[5.922991,50.979546],[5.918552,50.977747],[5.915588,50.977825],[5.904693,50.974553],[5.897083,50.974865],[5.891034,50.974094],[5.890371,50.97209],[5.88669,50.968448],[5.881476,50.966321],[5.878847,50.964189],[5.876846,50.964783],[5.873501,50.962804],[5.869176,50.966568],[5.865842,50.963962],[5.861833,50.966146],[5.855077,50.966497],[5.852183,50.968027],[5.845838,50.96413],[5.843264,50.963517],[5.842606,50.960753],[5.839816,50.957058],[5.83989,50.950191],[5.846221,50.945594],[5.848459,50.944711],[5.853253,50.946481],[5.856928,50.944001],[5.855538,50.936007],[5.851929,50.930002],[5.847751,50.926269],[5.841496,50.919606],[5.833885,50.92003],[5.831244,50.919392],[5.831555,50.91718],[5.819313,50.91572],[5.818941,50.916127],[5.801713,50.91413]]]}}
]}