{"type":"FeatureCollection","bbox":[4.190163,51.220909,6.048119,51.830731],"features":[
{"type":"Feature","id":"NLD:ADM2:NL-NB.asten","properties":{"shapeName":"Asten","shapeISO":"","shapeGroup":"NLD","shapeType":"ADM2","adm1ISO":"NL-NB","parentISO":"NL-NB","parentID":"NLD:ADM1:NL-NB","src_shape_id":"6326949B72042777534396"},"geometry":{"type":"Polygon","coordinates":[[[5.770447,51.333804],[5.824032,51.343955],[5.840192,51.346877],[5.870358,51.352534],[5.866093,51.354568],[5.856579,51.353763],[5.853234,51.372728],[5.854102,51.376429],[5.842688,51.390201],[5.837137,51.396112],[5.832989,51.397528],[5.831875,51.399589],[5.815318,51.403871],[5.787862,51.412657],[5.781776,51.417558],[5.776288,51.418849],[5.770484,51.423881],[5.765731,51.425703],[5.762788,51.430176],[5.757846,51.432488],[5.755698,51.434267],[5.744104,51.437333],[5.732976,51.439053],[5.723179,51.438307],[5.718245,51.438733],[5.707561,51.439983],[5.699005,51.438064],[5.693983,51.439239],[5.700795,51.419891],[5.702877,51.412541],[5.705569,51.409408],[5.727379,51.395617],[5.733723,51.391873],[5.737031,51.388201],[5.740215,51.369793],[5.745459,51.371105],[5.763804,51.344065],[5.770447,51.333804]]]}},
{"type":"Feature","id":"NLD:ADM2:NL-NB.baarle-nassau","properties":{"shapeName":"Baarle-Nassau","shapeISO":"","shapeGroup":"NLD","shapeType":"ADM2","adm1ISO":"NL-NB","parentISO":"NL-NB","parentID":"NLD:ADM1:NL-NB","src_shape_id":"6326949B26201619362436"},"geometry":{"type":"Polygon","coordinates":[[[4.841872,51.480728],[4.840326,51.478535],[4.839686,51.472818],[4.837179,51.468939],[4.836108,51.461246],[4.838402,51.461373],[4.844015,51.459068],[4.8411,51.456655],[4.837837,51.456107],[4.833554,51.457424],[4.828517,51.45083],[4.823362,51.448619],[4.825916,51.436044],[4.824945,51.434985],[4.828608,51.423748],[4.830155,51.421252],[4.834011,51.420496],[4.841469,51.422442],[4.836491,51.417254],[4.830005,51.420763],[4.826453,51.421147],[4.824726,51.423081],[4.820485,51.42377],[4.813058,51.426247],[4.808358,51.426438],[4.805671,51.428622],[4.800316,51.429112],[4.796388,51.42831],[4.789067,51.430006],[4.786571,51.432519],[4.774121,51.431624],[4.769027,51.42998],[4.769549,51.422231],[4.768575,51.419795],[4.770292,51.418243],[4.771374,51.415067],[4.777704,51.413837],[4.782673,51.411024],[4.786125,51.4106],[4.789334,51.408987],[4.792213,51.410542],[4.795398,51.410195],[4.803518,51.411293],[4.826433,51.413644],[4.83933,51.414618],[4.846275,51.412856],[4.849828,51.414293],[4.856652,51.412715],[4.859989,51.413001],[4.860513,51.410448],[4.8682,51.40968],[4.866621,51.411659],[4.873553,51.414754],[4.877794,51.415336],[4.879795,51.414367],[4.883028,51.416371],[4.886959,51.415055],[4.890862,51.415125],[4.894697,51.412889],[4.899993,51.414671],[4.899893,51.410627],[4.905702,51.40992],[4.909804,51.407435],[4.90857,51.404594],[4.910161,51.40226],[4.917815,51.400511],[4.918125,51.398229],[4.923268,51.39855],[4.923604,51.396737],[4.917805,51.396842],[4.915386,51.395333],[4.920959,51.393687],[4.927853,51.395439],[4.925235,51.396651],[4.924427,51.398784],[4.927897,51.399735],[4.928683,51.3959],[4.963218,51.422293],[4.978027,51.430138],[4.998061,51.440353],[5.000838,51.442716],[5.004581,51.443925],[5.005492,51.450996],[5.010517,51.453929],[5.010462,51.458244],[4.977134,51.460682],[4.970076,51.458741],[4.95936,51.459285],[4.957257,51.45989],[4.947162,51.458569],[4.944662,51.45679],[4.932399,51.459135],[4.914044,51.469028],[4.897541,51.476144],[4.891294,51.478217],[4.883077,51.477308],[4.882138,51.478309],[4.871863,51.47947],[4.861949,51.47761],[4.853929,51.478442],[4.852878,51.479399],[4.84508,51.480698],[4.841872,51.480728]],[[4.939971,51.436119],[4.939697,51.430743],[4.935979,51.429471],[4.933598,51.431021],[4.930942,51.430474],[4.927678,51.431422],[4.925245,51.433409],[4.917974,51.435215],[4.921303,51.439115],[4.922369,51.442663],[4.925453,51.44455],[4.928701,51.441597],[4.932315,51.443245],[4.935545,51.446347],[4.938117,51.444717],[4.938106,51.441877],[4.934269,51.442113],[4.93466,51.438549],[4.939449,51.437147],[4.939971,51.436119]],[[4.943488,51.447479],[4.934697,51.447474],[4.933081,51.44953],[4.93794,51.450402],[4.947623,51.450573],[4.951469,51.453713],[4.9524,51.450151],[4.948269,51.449026],[4.943532,51.448664],[4.943488,51.447479]],[[4.935716,51.409291],[4.936394,51.405342],[4.929865,51.407677],[4.935716,51.409291]]]}},
{"type":"Feature","id":"NLD:ADM2:NL-NB.bergen-op-zoom","properties":{"shapeName":"Bergen op Zoom","shapeISO":"","shapeGroup":"NLD","shapeType":"ADM2","adm1ISO":"NL-NB","parentISO":"NL-NB","parentID":"NLD:ADM1:NL-NB","src_shape_id":"6326949B50303337761735"},"geometry":{"type":"Polygon","coordinates":[[[4.265432,51.439681],[4.267978,51.440272],[4.283173,51.439667],[4.285568,51.442895],[4.288662,51.444694],[4.293706,51.445306],[4.295082,51.448823],[4.297462,51.450113],[4.29791,51.452554],[4.297684,51.466222],[4.303917,51.466643],[4.308471,51.465407],[4.311166,51.460173],[4.322477,51.4603],[4.324215,51.462291],[4.32796,51.464241],[4.336514,51.4598],[4.340389,51.462703],[4.344308,51.460587],[4.366965,51.456719],[4.361396,51.471219],[4.362667,51.471685],[4.361631,51.476371],[4.371689,51.479007],[4.37184,51.484057],[4.372797,51.487724],[4.363561,51.491311],[4.358413,51.49247],[4.351714,51.499774],[4.349539,51.503481],[4.350554,51.505701],[4.352463,51.514299],[4.351591,51.517665],[4.350139,51.518373],[4.342193,51.518049],[4.340456,51.522669],[4.342815,51.526224],[4.337645,51.527563],[4.329884,51.528263],[4.327574,51.535194],[4.31572,51.540261],[4.306908,51.543505],[4.308202,51.546734],[4.316308,51.545497],[4.317969,51.551217],[4.298424,51.553471],[4.297813,51.555913],[4.298602,51.558829],[4.273129,51.564438],[4.267162,51.564944],[4.267622,51.56801],[4.252008,51.570661],[4.243023,51.563032],[4.242968,51.559206],[4.239621,51.550802],[4.236119,51.550366],[4.235657,51.543241],[4.233359,51.53805],[4.220911,51.516009],[4.219044,51.510752],[4.218927,51.504858],[4.230328,51.488904],[4.265432,51.439681]]]}},
{"type":"Feature","id":"NLD:ADM2:NL-NB.best","properties":{"shapeName":"Best","shapeISO":"","shapeGroup":"NLD","shapeType":"ADM2","adm1ISO":"NL-NB","parentISO":"NL-NB","parentID":"NLD:ADM1:NL-NB","src_shape_id":"6326949B75137291849873"},"geometry":{"type":"Polygon","coordinates":[[[5.391015,51.485555],[5.399116,51.484065],[5.403889,51.483806],[5.41347,51.484994],[5.421789,51.487517],[5.429768,51.490605],[5.442569,51.493927],[5.440703,51.496059],[5.447506,51.512069],[5.43423,51.523549],[5.423841,51.534055],[5.42015,51.538672],[5.410934,51.542269],[5.405359,51.548353],[5.404232,51.548291],[5.39061,51.54538],[5.388161,51.544276],[5.382672,51.543782],[5.368519,51.543523],[5.36517,51.545003],[5.35691,51.544716],[5.368636,51.531867],[5.366671,51.530248],[5.355927,51.529003],[5.353731,51.526084],[5.35434,51.520502],[5.3494,51.51706],[5.350926,51.512419],[5.350507,51.508475],[5.352552,51.505202],[5.353361,51.501654],[5.355886,51.496107],[5.361294,51.49288],[5.366773,51.490842],[5.385343,51.486803],[5.389935,51.487533],[5.391015,51.485555]]]}},
{"type":"Feature","id":"NLD:ADM2:NL-NB.boekel","properties":{"shapeName":"Boekel","shapeISO":"","shapeGroup":"NLD","shapeType":"ADM2","adm1ISO":"NL-NB","parentISO":"NL-NB","parentID":"NLD:ADM1:NL-NB","src_shape_id":"6326949B38517074221522"},"geometry":{"type":"Polygon","coordinates":[[[5.651356,51.58236],[5.660585,51.582891],[5.699385,51.584116],[5.706191,51.587055],[5.709392,51.586258],[5.732989,51.590443],[5.758614,51.593946],[5.750477,51.622683],[5.74006,51.622496],[5.686654,51.628123],[5.674302,51.628158],[5.672606,51.628688],[5.664906,51.628337],[5.651299,51.626672],[5.650981,51.625711],[5.635412,51.625348],[5.626567,51.623401],[5.633673,51.615424],[5.642883,51.606256],[5.648521,51.593638],[5.650668,51.586704],[5.651356,51.58236]]]}},
{"type":"Feature","id":"NLD:ADM2:NL-NB.boxtel","properties":{"shapeName":"Boxtel","shapeISO":"","shapeGroup":"NLD","shapeType":"ADM2","adm1ISO":"NL-NB","parentISO":"NL-NB","parentID":"NLD:ADM1:NL-NB","src_shape_id":"6326949B40744758531983"},"geometry":{"type":"Polygon","coordinates":[[[5.404232,51.548291],[5.404218,51.554559],[5.402809,51.557778],[5.405197,51.562021],[5.40153,51.561931],[5.399125,51.563283],[5.39816,51.565517],[5.399089,51.571372],[5.402498,51.571714],[5.400159,51.575672],[5.395551,51.576574],[5.392966,51.57543],[5.392925,51.580033],[5.389711,51.583404],[5.385613,51.586055],[5.381442,51.587601],[5.386157,51.590614],[5.384459,51.593677],[5.381442,51.596203],[5.386211,51.600869],[5.380528,51.602902],[5.374894,51.601803],[5.360673,51.601774],[5.352928,51.60069],[5.350984,51.603966],[5.345866,51.602738],[5.342778,51.600242],[5.340492,51.604358],[5.335968,51.603085],[5.334146,51.606269],[5.332372,51.611417],[5.334862,51.61364],[5.340211,51.614412],[5.343415,51.617385],[5.341905,51.620047],[5.343041,51.622865],[5.338404,51.622127],[5.317731,51.634634],[5.315448,51.63385],[5.308275,51.633034],[5.306139,51.629696],[5.306689,51.627645],[5.304332,51.624924],[5.299645,51.625709],[5.297028,51.624983],[5.294666,51.621335],[5.290993,51.621318],[5.28552,51.622928],[5.282078,51.622462],[5.27583,51.615761],[5.271392,51.615456],[5.26882,51.612538],[5.269239,51.609609],[5.276502,51.607551],[5.276055,51.604534],[5.268227,51.600793],[5.262725,51.599812],[5.257577,51.596215],[5.255305,51.593378],[5.247648,51.589445],[5.246177,51.579478],[5.26297,51.55942],[5.268899,51.553727],[5.27327,51.552821],[5.308395,51.54598],[5.325443,51.551352],[5.332943,51.55114],[5.337192,51.546403],[5.343931,51.544471],[5.350845,51.544236],[5.35691,51.544716],[5.36517,51.545003],[5.368519,51.543523],[5.382672,51.543782],[5.388161,51.544276],[5.39061,51.54538],[5.404232,51.548291]]]}},
{"type":"Feature","id":"NLD:ADM2:NL-NB.breda","properties":{"shapeName":"Breda","shapeISO":"","shapeGroup":"NLD","shapeType":"ADM2","adm1ISO":"NL-NB","parentISO":"NL-NB","parentID":"NLD:ADM1:NL-NB","src_shape_id":"6326949B29161299179415"},"geometry":{"type":"Polygon","coordinates":[[[4.694187,51.544849],[4.703997,51.549799],[4.713097,51.545162],[4.728417,51.536878],[4.72249,51.535158],[4.7251,51.5329],[4.728094,51.533634],[4.732069,51.536334],[4.736481,51.533217],[4.741835,51.531355],[4.740118,51.527858],[4.743234,51.525394],[4.744059,51.516946],[4.743316,51.510002],[4.733996,51.485548],[4.746464,51.489443],[4.749602,51.494142],[4.748944,51.496685],[4.752699,51.499808],[4.758278,51.500143],[4.760023,51.502373],[4.753519,51.505764],[4.747081,51.515275],[4.748909,51.518961],[4.760185,51.519308],[4.763934,51.523569],[4.769313,51.525382],[4.772368,51.527887],[4.794252,51.534897],[4.799192,51.535194],[4.800188,51.53729],[4.809548,51.541719],[4.821069,51.546648],[4.830769,51.550352],[4.837218,51.549587],[4.83978,51.553186],[4.843703,51.554237],[4.862984,51.55727],[4.86415,51.559403],[4.867311,51.558865],[4.868806,51.561961],[4.867449,51.564935],[4.868451,51.566869],[4.87167,51.567157],[4.869822,51.570676],[4.866084,51.571709],[4.864238,51.579089],[4.854397,51.579371],[4.848968,51.581529],[4.842621,51.585829],[4.84202,51.596027],[4.834072,51.597412],[4.835716,51.599293],[4.843551,51.603876],[4.839078,51.608934],[4.842683,51.616986],[4.839101,51.619401],[4.828038,51.624578],[4.82631,51.626798],[4.821866,51.627274],[4.82126,51.629559],[4.818643,51.631506],[4.812201,51.632835],[4.806969,51.632607],[4.80064,51.633086],[4.788243,51.634742],[4.787506,51.637048],[4.768168,51.628866],[4.765686,51.629141],[4.764889,51.632408],[4.761272,51.636001],[4.757619,51.637505],[4.749937,51.63878],[4.74005,51.642479],[4.731389,51.642994],[4.704333,51.638246],[4.69906,51.638073],[4.693452,51.637863],[4.688805,51.636663],[4.683955,51.634116],[4.679292,51.632703],[4.670924,51.63286],[4.665072,51.634319],[4.664799,51.628658],[4.66356,51.62536],[4.657985,51.620453],[4.659558,51.613162],[4.661634,51.609896],[4.664656,51.607616],[4.663872,51.604069],[4.675561,51.603854],[4.674882,51.600192],[4.682106,51.598894],[4.686745,51.585625],[4.686843,51.583485],[4.688851,51.581106],[4.690862,51.574113],[4.693716,51.567953],[4.693133,51.563131],[4.694616,51.556867],[4.694187,51.544849]]]}},
{"type":"Feature","id":"NLD:ADM2:NL-NB.deurne","properties":{"shapeName":"Deurne","shapeISO":"","shapeGroup":"NLD","shapeType":"ADM2","adm1ISO":"NL-NB","parentISO":"NL-NB","parentID":"NLD:ADM1:NL-NB","src_shape_id":"6326949B59687324731711"},"geometry":{"type":"Polygon","coordinates":[[[5.870358,51.352534],[5.874542,51.353312],[5.878698,51.355532],[5.931286,51.384752],[5.915797,51.402781],[5.874963,51.446559],[5.871694,51.450111],[5.860722,51.491966],[5.852572,51.504144],[5.800986,51.493871],[5.799796,51.494185],[5.793464,51.491859],[5.786501,51.490567],[5.778293,51.490164],[5.773438,51.488638],[5.768499,51.489013],[5.764285,51.487927],[5.757793,51.488084],[5.749348,51.486378],[5.738611,51.485251],[5.734656,51.484421],[5.732474,51.485805],[5.728616,51.486094],[5.725729,51.48441],[5.721717,51.485131],[5.722665,51.483264],[5.730759,51.476624],[5.736047,51.471595],[5.735014,51.469187],[5.723957,51.470086],[5.722973,51.467291],[5.717214,51.468238],[5.717322,51.465658],[5.719773,51.458219],[5.722825,51.453172],[5.73,51.444355],[5.718178,51.44453],[5.718245,51.438733],[5.723179,51.438307],[5.732976,51.439053],[5.744104,51.437333],[5.755698,51.434267],[5.757846,51.432488],[5.762788,51.430176],[5.765731,51.425703],[5.770484,51.423881],[5.776288,51.418849],[5.781776,51.417558],[5.787862,51.412657],[5.815318,51.403871],[5.831875,51.399589],[5.832989,51.397528],[5.837137,51.396112],[5.842688,51.390201],[5.854102,51.376429],[5.853234,51.372728],[5.856579,51.353763],[5.866093,51.354568],[5.870358,51.352534]]]}},
{"type":"Feature","id":"NLD:ADM2:NL-NB.dongen","properties":{"shapeName":"Dongen","shapeISO":"","shapeGroup":"NLD","shapeType":"ADM2","adm1ISO":"NL-NB","parentISO":"NL-NB","parentID":"NLD:ADM1:NL-NB","src_shape_id":"6326949B71586177807215"},"geometry":{"type":"Polygon","coordinates":[[[5.004492,51.607887],[5.004264,51.607896],[4.987266,51.654609],[4.957896,51.651532],[4.957765,51.659655],[4.956845,51.663333],[4.953731,51.670769],[4.947506,51.676944],[4.942986,51.678858],[4.933169,51.67675],[4.925073,51.67498],[4.925032,51.673009],[4.926775,51.669087],[4.930942,51.667102],[4.931047,51.663552],[4.93441,51.657254],[4.932459,51.655824],[4.932744,51.650618],[4.930354,51.649541],[4.929202,51.646875],[4.912862,51.633683],[4.910027,51.62946],[4.911822,51.626365],[4.904279,51.624333],[4.915554,51.622433],[4.912228,51.619476],[4.911881,51.615399],[4.91808,51.616295],[4.924961,51.61365],[4.937314,51.611397],[4.940311,51.610198],[4.943944,51.611471],[4.947845,51.611171],[4.954462,51.614686],[4.957862,51.613758],[4.964713,51.613134],[4.976794,51.609273],[4.986315,51.607909],[5.004492,51.607887]]]}},
{"type":"Feature","id":"NLD:ADM2:NL-NB.eersel","properties":{"shapeName":"Eersel","shapeISO":"","shapeGroup":"NLD","shapeType":"ADM2","adm1ISO":"NL-NB","parentISO":"NL-NB","parentID":"NLD:ADM1:NL-NB","src_shape_id":"6326949B60524061283729"},"geometry":{"type":"Polygon","coordinates":[[[5.26341,51.319282],[5.292173,51.318237],[5.308055,51.321828],[5.316671,51.323389],[5.322916,51.328847],[5.322473,51.33166],[5.332202,51.333165],[5.34712,51.337453],[5.341991,51.344218],[5.346988,51.347657],[5.342587,51.352672],[5.3461,51.357901],[5.35245,51.361821],[5.355828,51.362554],[5.364177,51.366877],[5.371533,51.369502],[5.376017,51.368809],[5.37821,51.369393],[5.382604,51.372831],[5.388316,51.37549],[5.388903,51.376455],[5.373946,51.38863],[5.370211,51.397621],[5.37096,51.397864],[5.354362,51.408783],[5.335136,51.407402],[5.331592,51.406285],[5.323663,51.406187],[5.317167,51.414819],[5.316089,51.419409],[5.319995,51.419928],[5.31937,51.423795],[5.339841,51.425558],[5.345718,51.429181],[5.35585,51.4342],[5.356916,51.438203],[5.357619,51.440124],[5.360979,51.443595],[5.361096,51.449027],[5.357111,51.453715],[5.361422,51.457265],[5.363418,51.460184],[5.367167,51.45943],[5.369445,51.465316],[5.358388,51.467015],[5.356001,51.462314],[5.333815,51.468537],[5.334727,51.465875],[5.330015,51.464075],[5.325839,51.463792],[5.320423,51.460868],[5.318803,51.461481],[5.303096,51.459149],[5.298067,51.454626],[5.294497,51.455283],[5.285038,51.4541],[5.279252,51.450219],[5.271019,51.449033],[5.265089,51.448997],[5.260442,51.448235],[5.258873,51.447124],[5.248395,51.445631],[5.248819,51.443082],[5.252482,51.438011],[5.239062,51.433669],[5.23917,51.43096],[5.237704,51.428559],[5.24338,51.425482],[5.244782,51.426254],[5.248775,51.422558],[5.272903,51.40947],[5.278854,51.40834],[5.281897,51.404369],[5.286617,51.404751],[5.290537,51.404208],[5.296115,51.407729],[5.302846,51.407531],[5.307196,51.406252],[5.313649,51.399441],[5.310443,51.396055],[5.310865,51.390715],[5.302711,51.390711],[5.298885,51.389687],[5.289239,51.388908],[5.290323,51.38613],[5.285915,51.38447],[5.279765,51.375329],[5.275298,51.362723],[5.285972,51.336339],[5.26341,51.319282]]]}},
{"type":"Feature","id":"NLD:ADM2:NL-NB.eindhoven","properties":{"shapeName":"Eindhoven","shapeISO":"","shapeGroup":"NLD","shapeType":"ADM2","adm1ISO":"NL-NB","parentISO":"NL-NB","parentID":"NLD:ADM1:NL-NB","src_shape_id":"6326949B83457760015598"},"geometry":{"type":"Polygon","coordinates":[[[5.391015,51.485555],[5.390517,51.485154],[5.391185,51.471756],[5.379149,51.463842],[5.369445,51.465316],[5.367167,51.45943],[5.363418,51.460184],[5.361422,51.457265],[5.357111,51.453715],[5.361096,51.449027],[5.360979,51.443595],[5.357619,51.440124],[5.356916,51.438203],[5.363665,51.435436],[5.366898,51.436205],[5.367974,51.438443],[5.371248,51.438909],[5.373197,51.437608],[5.379211,51.436596],[5.379685,51.435092],[5.387373,51.437801],[5.38894,51.437717],[5.394911,51.43423],[5.400794,51.432967],[5.404919,51.437125],[5.414488,51.430059],[5.419943,51.432853],[5.425383,51.431008],[5.426784,51.429542],[5.427872,51.420148],[5.427362,51.417138],[5.428514,51.414962],[5.429837,51.406116],[5.42523,51.404553],[5.427276,51.402653],[5.431656,51.402338],[5.43545,51.403445],[5.436188,51.404976],[5.453213,51.405288],[5.472746,51.405271],[5.480845,51.404614],[5.487611,51.404739],[5.497823,51.404268],[5.501544,51.40311],[5.504873,51.400154],[5.505183,51.403417],[5.507606,51.40453],[5.525814,51.404697],[5.525166,51.427854],[5.530348,51.4272],[5.531813,51.432008],[5.539161,51.431285],[5.544215,51.432438],[5.548678,51.434677],[5.541502,51.439502],[5.541404,51.441043],[5.538511,51.443536],[5.539463,51.447445],[5.537779,51.449812],[5.533294,51.45315],[5.532088,51.456237],[5.529839,51.458698],[5.525046,51.459467],[5.518162,51.462716],[5.517581,51.464347],[5.514315,51.4656],[5.509151,51.469198],[5.507967,51.474116],[5.50956,51.479236],[5.505555,51.482789],[5.510573,51.487354],[5.512543,51.49108],[5.515594,51.493545],[5.511423,51.496922],[5.47842,51.496606],[5.477217,51.497042],[5.470636,51.495594],[5.468249,51.496844],[5.463894,51.496978],[5.448774,51.495096],[5.442569,51.493927],[5.429768,51.490605],[5.421789,51.487517],[5.41347,51.484994],[5.403889,51.483806],[5.399116,51.484065],[5.391015,51.485555]]]}},
{"type":"Feature","id":"NLD:ADM2:NL-NB.etten-leur","properties":{"shapeName":"Etten-Leur","shapeISO":"","shapeGroup":"NLD","shapeType":"ADM2","adm1ISO":"NL-NB","parentISO":"NL-NB","parentID":"NLD:ADM1:NL-NB","src_shape_id":"6326949B83094148172558"},"geometry":{"type":"Polygon","coordinates":[[[4.665072,51.634319],[4.660389,51.634749],[4.644985,51.632611],[4.640496,51.631168],[4.636646,51.628644],[4.635701,51.626293],[4.631523,51.624468],[4.625724,51.624046],[4.622535,51.624759],[4.618349,51.626951],[4.612735,51.628463],[4.607847,51.628151],[4.601233,51.625239],[4.604293,51.621326],[4.603394,51.617749],[4.608875,51.615002],[4.610928,51.612102],[4.610645,51.609696],[4.613884,51.608008],[4.610606,51.603142],[4.608672,51.602165],[4.602202,51.595054],[4.596755,51.590298],[4.598558,51.584378],[4.595979,51.575684],[4.594695,51.566675],[4.590645,51.565979],[4.591761,51.561032],[4.592,51.560245],[4.59862,51.559681],[4.606571,51.556023],[4.607625,51.55467],[4.61579,51.553179],[4.624766,51.55226],[4.625809,51.547412],[4.630106,51.54715],[4.631753,51.543877],[4.635285,51.542351],[4.640094,51.543304],[4.638716,51.524413],[4.638157,51.517205],[4.643289,51.518189],[4.652393,51.521936],[4.654292,51.524288],[4.659112,51.525494],[4.680906,51.540668],[4.694187,51.544849],[4.694616,51.556867],[4.693133,51.563131],[4.693716,51.567953],[4.690862,51.574113],[4.688851,51.581106],[4.686843,51.583485],[4.686745,51.585625],[4.682106,51.598894],[4.674882,51.600192],[4.675561,51.603854],[4.663872,51.604069],[4.664656,51.607616],[4.661634,51.609896],[4.659558,51.613162],[4.657985,51.620453],[4.66356,51.62536],[4.664799,51.628658],[4.665072,51.634319]]]}},
{"type":"Feature","id":"NLD:ADM2:NL-NB.geertruidenberg","properties":{"shapeName":"Geertruidenberg","shapeISO":"","shapeGroup":"NLD","shapeType":"ADM2","adm1ISO":"NL-NB","parentISO":"NL-NB","parentID":"NLD:ADM1:NL-NB","src_shape_id":"6326949B69937984570912"},"geometry":{"type":"Polygon","coordinates":[[[4.933169,51.67675],[4.91799,51.71996],[4.909979,51.719047],[4.900263,51.718667],[4.89123,51.719662],[4.880414,51.720149],[4.873054,51.719999],[4.862098,51.717673],[4.850316,51.715629],[4.836904,51.712612],[4.82978,51.711587],[4.82361,51.711288],[4.825721,51.707523],[4.829274,51.69637],[4.831941,51.691791],[4.839624,51.684021],[4.842367,51.679654],[4.842483,51.683918],[4.850462,51.684116],[4.856621,51.681668],[4.85658,51.680243],[4.866203,51.676106],[4.87115,51.67586],[4.880474,51.674199],[4.896586,51.674775],[4.898767,51.674129],[4.906928,51.674953],[4.906551,51.675953],[4.912826,51.67659],[4.91378,51.675049],[4.917731,51.675207],[4.925032,51.673009],[4.925073,51.67498],[4.933169,51.67675]]]}},
{"type":"Feature","id":"NLD:ADM2:NL-NB.gilze-en-rijen","properties":{"shapeName":"Gilze en Rijen","shapeISO":"","shapeGroup":"NLD","shapeType":"ADM2","adm1ISO":"NL-NB","parentISO":"NL-NB","parentID":"NLD:ADM1:NL-NB","src_shape_id":"6326949B41369938524082"},"geometry":{"type":"Polygon","coordinates":[[[4.862984,51.55727],[4.864545,51.553503],[4.864005,51.551939],[4.851819,51.544684],[4.848468,51.54302],[4.834605,51.5386],[4.834616,51.535149],[4.836806,51.532807],[4.833353,51.531329],[4.829576,51.527937],[4.83489,51.527946],[4.84072,51.526733],[4.84506,51.528482],[4.844738,51.533328],[4.854563,51.533927],[4.866232,51.538067],[4.888909,51.523793],[4.911062,51.510081],[4.956643,51.518676],[4.962572,51.525864],[4.974135,51.53984],[4.975459,51.540133],[4.976665,51.542418],[4.979565,51.544202],[4.974169,51.547107],[4.965569,51.549754],[4.953423,51.550532],[4.951307,51.557038],[4.951667,51.560884],[4.954419,51.562258],[4.964182,51.565243],[4.967831,51.568722],[4.96899,51.571305],[4.966778,51.573662],[4.970275,51.577224],[4.972352,51.58521],[4.973408,51.591982],[4.972859,51.597306],[4.967774,51.597685],[4.968736,51.602057],[4.961164,51.606177],[4.948807,51.610377],[4.947845,51.611171],[4.943944,51.611471],[4.940311,51.610198],[4.937314,51.611397],[4.924961,51.61365],[4.91808,51.616295],[4.911881,51.615399],[4.917356,51.60871],[4.918496,51.601368],[4.913774,51.599707],[4.913785,51.598091],[4.899712,51.592602],[4.868966,51.581003],[4.869268,51.578792],[4.864238,51.579089],[4.866084,51.571709],[4.869822,51.570676],[4.87167,51.567157],[4.868451,51.566869],[4.867449,51.564935],[4.868806,51.561961],[4.867311,51.558865],[4.86415,51.559403],[4.862984,51.55727]]]}},
{"type":"Feature","id":"NLD:ADM2:NL-NB.goirle","properties":{"shapeName":"Goirle","shapeISO":"","shapeGroup":"NLD","shapeType":"ADM2","adm1ISO":"NL-NB","parentISO":"NL-NB","parentID":"NLD:ADM1:NL-NB","src_shape_id":"6326949B96692353293855"},"geometry":{"type":"Polygon","coordinates":[[[4.962572,51.525864],[4.969069,51.521093],[4.977595,51.521651],[4.980868,51.518631],[4.984554,51.517882],[4.982496,51.514088],[4.989917,51.513149],[4.992298,51.512247],[4.988649,51.503522],[4.986303,51.501211],[4.986739,51.495329],[4.994642,51.497651],[4.996756,51.496775],[4.992466,51.493945],[4.997158,51.49205],[5.000363,51.491862],[4.997228,51.488538],[4.992942,51.487623],[4.987993,51.483045],[4.999176,51.482016],[4.999359,51.479283],[5.00641,51.47511],[5.008338,51.473299],[5.015272,51.476329],[5.016522,51.475439],[5.022278,51.481778],[5.032044,51.485712],[5.033155,51.487194],[5.04021,51.486533],[5.038846,51.48064],[5.037888,51.47935],[5.043143,51.475175],[5.045768,51.471115],[5.04974,51.471108],[5.048791,51.471913],[5.05158,51.487132],[5.068367,51.485335],[5.069292,51.486836],[5.062741,51.492826],[5.076914,51.500796],[5.072997,51.502875],[5.088186,51.511297],[5.096035,51.509912],[5.098441,51.51536],[5.095023,51.517251],[5.100947,51.52052],[5.100489,51.52297],[5.09814,51.524952],[5.10506,51.528176],[5.100059,51.531455],[5.108883,51.536361],[5.109816,51.539385],[5.105075,51.536744],[5.096474,51.534967],[5.090921,51.535043],[5.060322,51.537869],[5.051703,51.535091],[5.052857,51.531373],[5.052274,51.529763],[5.04213,51.530992],[5.030481,51.529593],[5.027384,51.533993],[5.02255,51.538418],[5.020595,51.53896],[5.005837,51.538111],[5.001568,51.537488],[4.99484,51.538192],[4.987628,51.540023],[4.975459,51.540133],[4.974135,51.53984],[4.962572,51.525864]]]}},
{"type":"Feature","id":"NLD:ADM2:NL-NB.helmond","properties":{"shapeName":"Helmond","shapeISO":"","shapeGroup":"NLD","shapeType":"ADM2","adm1ISO":"NL-NB","parentISO":"NL-NB","parentID":"NLD:ADM1:NL-NB","src_shape_id":"6326949B31180787122352"},"geometry":{"type":"Polygon","coordinates":[[[5.718245,51.438733],[5.718178,51.44453],[5.73,51.444355],[5.722825,51.453172],[5.719773,51.458219],[5.717322,51.465658],[5.717214,51.468238],[5.722973,51.467291],[5.723957,51.470086],[5.735014,51.469187],[5.736047,51.471595],[5.730759,51.476624],[5.722665,51.483264],[5.721717,51.485131],[5.718203,51.4888],[5.712438,51.490884],[5.712423,51.494712],[5.707864,51.49696],[5.708233,51.502025],[5.698705,51.503776],[5.684143,51.507698],[5.68296,51.504479],[5.672667,51.505441],[5.669951,51.504138],[5.675105,51.498947],[5.664074,51.502071],[5.661199,51.504592],[5.656403,51.507309],[5.653076,51.504061],[5.650368,51.503806],[5.644827,51.501617],[5.641223,51.498384],[5.634821,51.494883],[5.627824,51.495839],[5.625442,51.498366],[5.618503,51.498683],[5.61508,51.500289],[5.610642,51.504623],[5.611762,51.507775],[5.609653,51.509217],[5.579932,51.49876],[5.576729,51.499453],[5.570155,51.496936],[5.585911,51.47917],[5.596223,51.474859],[5.603533,51.47259],[5.605231,51.470957],[5.594875,51.467643],[5.582973,51.465548],[5.587807,51.463471],[5.584708,51.460509],[5.590515,51.45776],[5.592821,51.45834],[5.597034,51.456497],[5.601004,51.45217],[5.604795,51.452779],[5.608817,51.451698],[5.608056,51.449716],[5.621015,51.450077],[5.643096,51.45606],[5.656468,51.456559],[5.668568,51.456828],[5.672237,51.457714],[5.693983,51.439239],[5.699005,51.438064],[5.707561,51.439983],[5.718245,51.438733]]]}},
{"type":"Feature","id":"NLD:ADM2:NL-NB.s-hertogenbosch","properties":{"shapeName":"'s-Hertogenbosch","shapeISO":"","shapeGroup":"NLD","shapeType":"ADM2","adm1ISO":"NL-NB","parentISO":"NL-NB","parentID":"NLD:ADM1:NL-NB","src_shape_id":"6326949B79471926410122"},"geometry":{"type":"Polygon","coordinates":[[[5.206494,51.741477],[5.209608,51.738721],[5.210015,51.733946],[5.216508,51.730644],[5.219346,51.72815],[5.221744,51.729386],[5.224884,51.726655],[5.227517,51.727151],[5.231032,51.724086],[5.228536,51.714768],[5.229977,51.710569],[5.241204,51.713989],[5.236295,51.706324],[5.238989,51.702041],[5.241845,51.701316],[5.247012,51.702735],[5.251569,51.699372],[5.248918,51.697218],[5.248923,51.695501],[5.245811,51.694355],[5.227113,51.690964],[5.226158,51.690031],[5.231901,51.689257],[5.234271,51.685499],[5.246867,51.683169],[5.254874,51.684367],[5.259031,51.683859],[5.265688,51.684722],[5.288792,51.681648],[5.289444,51.678536],[5.291922,51.674458],[5.29893,51.667124],[5.303216,51.667204],[5.309944,51.669368],[5.319057,51.670372],[5.327474,51.673367],[5.338882,51.663996],[5.342301,51.665425],[5.343959,51.667446],[5.353692,51.671073],[5.355961,51.674004],[5.350938,51.677145],[5.352126,51.681019],[5.35735,51.682003],[5.372466,51.680108],[5.373478,51.681172],[5.369783,51.6844],[5.364788,51.689875],[5.360317,51.697508],[5.36163,51.698674],[5.367338,51.696946],[5.371822,51.698122],[5.374316,51.700139],[5.386384,51.700882],[5.397181,51.6985],[5.406208,51.699086],[5.427532,51.70141],[5.43933,51.700434],[5.439494,51.698657],[5.443349,51.697618],[5.441353,51.694656],[5.447545,51.694931],[5.445167,51.688581],[5.451678,51.686751],[5.452718,51.688475],[5.456872,51.687591],[5.460326,51.689651],[5.469849,51.689137],[5.478291,51.701431],[5.483229,51.701524],[5.492385,51.706101],[5.499047,51.707025],[5.499655,51.709008],[5.497706,51.711711],[5.487819,51.712068],[5.484596,51.713516],[5.478697,51.723895],[5.480136,51.724464],[5.474244,51.728965],[5.463187,51.725866],[5.462592,51.728199],[5.460073,51.730707],[5.457843,51.729975],[5.454714,51.732869],[5.454194,51.735481],[5.450538,51.739377],[5.450593,51.740702],[5.443733,51.750629],[5.443965,51.753483],[5.438816,51.76503],[5.431118,51.764075],[5.392773,51.760267],[5.389233,51.759226],[5.374033,51.753244],[5.361223,51.751221],[5.355904,51.751435],[5.353514,51.755477],[5.349547,51.754194],[5.332173,51.749648],[5.322041,51.746523],[5.316252,51.744255],[5.303232,51.738278],[5.295996,51.736718],[5.2931,51.736976],[5.284408,51.739575],[5.277168,51.74018],[5.265588,51.739198],[5.255466,51.734899],[5.249679,51.733581],[5.245335,51.734178],[5.235183,51.739594],[5.229384,51.741896],[5.222139,51.743387],[5.213453,51.743078],[5.206494,51.741477]]]}},
{"type":"Feature","id":"NLD:ADM2:NL-NB.heusden","properties":{"shapeName":"Heusden","shapeISO":"","shapeGroup":"NLD","shapeType":"ADM2","adm1ISO":"NL-NB","parentISO":"NL-NB","parentID":"NLD:ADM1:NL-NB","src_shape_id":"6326949B43873207843171"},"geometry":{"type":"Polygon","coordinates":[[[5.1857,51.741917],[5.180146,51.742682],[5.171458,51.743092],[5.165671,51.74292],[5.142087,51.739945],[5.128055,51.737607],[5.111848,51.734391],[5.09924,51.730399],[5.090467,51.726819],[5.08176,51.722344],[5.08354,51.720906],[5.097541,51.717577],[5.101601,51.713205],[5.106855,51.710861],[5.109129,51.708576],[5.111506,51.703576],[5.103053,51.702483],[5.104489,51.693251],[5.106493,51.677327],[5.101509,51.676834],[5.104107,51.674985],[5.101581,51.672442],[5.102718,51.668349],[5.101625,51.661344],[5.106137,51.635956],[5.111141,51.635371],[5.115855,51.637608],[5.126792,51.638177],[5.128466,51.637609],[5.138011,51.640312],[5.146445,51.640517],[5.149728,51.639663],[5.160065,51.639535],[5.154452,51.654919],[5.156958,51.65776],[5.157673,51.663274],[5.161767,51.663447],[5.166798,51.669047],[5.204057,51.669819],[5.202565,51.670898],[5.207749,51.673887],[5.208955,51.673565],[5.223227,51.673782],[5.22417,51.680197],[5.225744,51.683861],[5.226158,51.690031],[5.227113,51.690964],[5.245811,51.694355],[5.248923,51.695501],[5.248918,51.697218],[5.251569,51.699372],[5.247012,51.702735],[5.241845,51.701316],[5.238989,51.702041],[5.236295,51.706324],[5.241204,51.713989],[5.229977,51.710569],[5.228536,51.714768],[5.231032,51.724086],[5.227517,51.727151],[5.224884,51.726655],[5.221744,51.729386],[5.219346,51.72815],[5.216508,51.730644],[5.210015,51.733946],[5.209608,51.738721],[5.206494,51.741477],[5.196195,51.740259],[5.1857,51.741917]]]}},
{"type":"Feature","id":"NLD:ADM2:NL-NB.hilvarenbeek","properties":{"shapeName":"Hilvarenbeek","shapeISO":"","shapeGroup":"NLD","shapeType":"ADM2","adm1ISO":"NL-NB","parentISO":"NL-NB","parentID":"NLD:ADM1:NL-NB","src_shape_id":"6326949B90025582046191"},"geometry":{"type":"Polygon","coordinates":[[[5.04974,51.471108],[5.072317,51.4711],[5.078969,51.471517],[5.081178,51.467838],[5.104572,51.431349],[5.10202,51.428923],[5.119459,51.428275],[5.152444,51.429026],[5.157948,51.428831],[5.158553,51.432174],[5.170765,51.429733],[5.173458,51.42824],[5.178153,51.430261],[5.18498,51.428764],[5.191019,51.430216],[5.191024,51.430225],[5.209814,51.465773],[5.220434,51.472879],[5.225405,51.488822],[5.229966,51.489727],[5.228443,51.4987],[5.24711,51.498878],[5.247891,51.506336],[5.250523,51.506604],[5.25124,51.509633],[5.235942,51.51391],[5.232362,51.50892],[5.226533,51.507474],[5.224434,51.517148],[5.21474,51.511731],[5.211021,51.511851],[5.203033,51.509943],[5.196001,51.509837],[5.190138,51.507409],[5.17965,51.508862],[5.176479,51.511311],[5.170993,51.510569],[5.160968,51.517226],[5.156602,51.518804],[5.148887,51.523658],[5.144966,51.521494],[5.130195,51.530298],[5.126201,51.533593],[5.119676,51.544621],[5.11785,51.545654],[5.113051,51.542049],[5.11252,51.540023],[5.109816,51.539385],[5.108883,51.536361],[5.100059,51.531455],[5.10506,51.528176],[5.09814,51.524952],[5.100489,51.52297],[5.100947,51.52052],[5.095023,51.517251],[5.098441,51.51536],[5.096035,51.509912],[5.088186,51.511297],[5.072997,51.502875],[5.076914,51.500796],[5.062741,51.492826],[5.069292,51.486836],[5.068367,51.485335],[5.05158,51.487132],[5.048791,51.471913],[5.04974,51.471108]]]}},
{"type":"Feature","id":"NLD:ADM2:NL-NB.loon-op-zand","properties":{"shapeName":"Loon op Zand","shapeISO":"","shapeGroup":"NLD","shapeType":"ADM2","adm1ISO":"NL-NB","parentISO":"NL-NB","parentID":"NLD:ADM1:NL-NB","src_shape_id":"6326949B71510094074769"},"geometry":{"type":"Polygon","coordinates":[[[5.004492,51.607887],[5.039925,51.606362],[5.042927,51.606038],[5.04501,51.611097],[5.060386,51.61074],[5.061771,51.609346],[5.07059,51.610291],[5.075468,51.608949],[5.079438,51.610784],[5.093745,51.611249],[5.096003,51.612466],[5.099202,51.617805],[5.102958,51.616911],[5.101216,51.620406],[5.09963,51.626975],[5.098184,51.628822],[5.101369,51.632599],[5.106137,51.635956],[5.101625,51.661344],[5.102718,51.668349],[5.101581,51.672442],[5.104107,51.674985],[5.101509,51.676834],[5.094998,51.674585],[5.088909,51.67474],[5.080175,51.671655],[5.072043,51.670763],[5.060621,51.671113],[5.061013,51.66829],[5.05797,51.668316],[5.058403,51.661727],[5.049177,51.661623],[5.030877,51.666532],[4.992246,51.676251],[4.987266,51.654609],[5.004264,51.607896],[5.004492,51.607887]]]}},
{"type":"Feature","id":"NLD:ADM2:NL-NB.nuenen-gerwen-en-nederwetten","properties":{"shapeName":"Nuenen, Gerwen en Nederwetten","shapeISO":"","shapeGroup":"NLD","shapeType":"ADM2","adm1ISO":"NL-NB","parentISO":"NL-NB","parentID":"NLD:ADM1:NL-NB","src_shape_id":"6326949B11181264963907"},"geometry":{"type":"Polygon","coordinates":[[[5.548678,51.434677],[5.566164,51.441484],[5.571172,51.447731],[5.584708,51.460509],[5.587807,51.463471],[5.582973,51.465548],[5.594875,51.467643],[5.605231,51.470957],[5.603533,51.47259],[5.596223,51.474859],[5.585911,51.47917],[5.570155,51.496936],[5.576729,51.499453],[5.566551,51.501672],[5.557651,51.509369],[5.547913,51.538075],[5.547436,51.537732],[5.530862,51.525048],[5.536732,51.525052],[5.540194,51.526011],[5.544747,51.523537],[5.544029,51.521758],[5.540674,51.520665],[5.541217,51.518875],[5.546272,51.512695],[5.540763,51.509648],[5.538675,51.507596],[5.531027,51.505246],[5.527833,51.502319],[5.518598,51.501995],[5.514621,51.499833],[5.509782,51.498661],[5.511423,51.496922],[5.515594,51.493545],[5.512543,51.49108],[5.510573,51.487354],[5.505555,51.482789],[5.50956,51.479236],[5.507967,51.474116],[5.509151,51.469198],[5.514315,51.4656],[5.517581,51.464347],[5.518162,51.462716],[5.525046,51.459467],[5.529839,51.458698],[5.532088,51.456237],[5.533294,51.45315],[5.537779,51.449812],[5.539463,51.447445],[5.538511,51.443536],[5.541404,51.441043],[5.541502,51.439502],[5.548678,51.434677]]]}},
{"type":"Feature","id":"NLD:ADM2:NL-NB.oirschot","properties":{"shapeName":"Oirschot","shapeISO":"","shapeGroup":"NLD","shapeType":"ADM2","adm1ISO":"NL-NB","parentISO":"NL-NB","parentID":"NLD:ADM1:NL-NB","src_shape_id":"6326949B78651691159408"},"geometry":{"type":"Polygon","coordinates":[[[5.35691,51.544716],[5.350845,51.544236],[5.343931,51.544471],[5.337192,51.546403],[5.332943,51.55114],[5.325443,51.551352],[5.308395,51.54598],[5.27327,51.552821],[5.271932,51.549807],[5.277486,51.548737],[5.276884,51.544863],[5.269861,51.546209],[5.26797,51.543225],[5.263368,51.54423],[5.261036,51.540617],[5.253293,51.540311],[5.249735,51.532059],[5.244006,51.525751],[5.23479,51.530994],[5.230843,51.520937],[5.224434,51.517148],[5.226533,51.507474],[5.232362,51.50892],[5.235942,51.51391],[5.25124,51.509633],[5.250523,51.506604],[5.247891,51.506336],[5.24711,51.498878],[5.228443,51.4987],[5.229966,51.489727],[5.225405,51.488822],[5.220434,51.472879],[5.209814,51.465773],[5.191024,51.430225],[5.19542,51.430783],[5.205019,51.434333],[5.209217,51.4365],[5.209936,51.434171],[5.215771,51.43418],[5.217571,51.430429],[5.22314,51.427921],[5.223537,51.425083],[5.229284,51.425452],[5.237704,51.428559],[5.23917,51.43096],[5.239062,51.433669],[5.252482,51.438011],[5.248819,51.443082],[5.248395,51.445631],[5.258873,51.447124],[5.260442,51.448235],[5.265089,51.448997],[5.271019,51.449033],[5.279252,51.450219],[5.285038,51.4541],[5.294497,51.455283],[5.298067,51.454626],[5.303096,51.459149],[5.318803,51.461481],[5.320423,51.460868],[5.325839,51.463792],[5.330015,51.464075],[5.334727,51.465875],[5.333815,51.468537],[5.356001,51.462314],[5.358388,51.467015],[5.369445,51.465316],[5.379149,51.463842],[5.391185,51.471756],[5.390517,51.485154],[5.391015,51.485555],[5.389935,51.487533],[5.385343,51.486803],[5.366773,51.490842],[5.361294,51.49288],[5.355886,51.496107],[5.353361,51.501654],[5.352552,51.505202],[5.350507,51.508475],[5.350926,51.512419],[5.3494,51.51706],[5.35434,51.520502],[5.353731,51.526084],[5.355927,51.529003],[5.366671,51.530248],[5.368636,51.531867],[5.35691,51.544716]]]}},
{"type":"Feature","id":"NLD:ADM2:NL-NB.oisterwijk","properties":{"shapeName":"Oisterwijk","shapeISO":"","shapeGroup":"NLD","shapeType":"ADM2","adm1ISO":"NL-NB","parentISO":"NL-NB","parentID":"NLD:ADM1:NL-NB","src_shape_id":"6326949B32251552675078"},"geometry":{"type":"Polygon","coordinates":[[[5.26882,51.612538],[5.264176,51.618087],[5.255499,51.624928],[5.246171,51.622655],[5.246668,51.620834],[5.242374,51.617988],[5.23694,51.618137],[5.228192,51.615889],[5.224114,51.616439],[5.22199,51.620161],[5.222395,51.621844],[5.210711,51.615588],[5.201804,51.611343],[5.185527,51.601302],[5.15076,51.580098],[5.144964,51.573876],[5.137354,51.562581],[5.137955,51.559737],[5.137214,51.552862],[5.13912,51.550696],[5.146948,51.546634],[5.138694,51.545956],[5.14188,51.542092],[5.133598,51.53495],[5.135451,51.53358],[5.130195,51.530298],[5.144966,51.521494],[5.148887,51.523658],[5.156602,51.518804],[5.160968,51.517226],[5.170993,51.510569],[5.176479,51.511311],[5.17965,51.508862],[5.190138,51.507409],[5.196001,51.509837],[5.203033,51.509943],[5.211021,51.511851],[5.21474,51.511731],[5.224434,51.517148],[5.230843,51.520937],[5.23479,51.530994],[5.244006,51.525751],[5.249735,51.532059],[5.253293,51.540311],[5.261036,51.540617],[5.263368,51.54423],[5.26797,51.543225],[5.269861,51.546209],[5.276884,51.544863],[5.277486,51.548737],[5.271932,51.549807],[5.27327,51.552821],[5.268899,51.553727],[5.26297,51.55942],[5.246177,51.579478],[5.247648,51.589445],[5.255305,51.593378],[5.257577,51.596215],[5.262725,51.599812],[5.268227,51.600793],[5.276055,51.604534],[5.276502,51.607551],[5.269239,51.609609],[5.26882,51.612538]]]}},
{"type":"Feature","id":"NLD:ADM2:NL-NB.oosterhout","properties":{"shapeName":"Oosterhout","shapeISO":"","shapeGroup":"NLD","shapeType":"ADM2","adm1ISO":"NL-NB","parentISO":"NL-NB","parentID":"NLD:ADM1:NL-NB","src_shape_id":"6326949B60940309425177"},"geometry":{"type":"Polygon","coordinates":[[[4.864238,51.579089],[4.869268,51.578792],[4.868966,51.581003],[4.899712,51.592602],[4.913785,51.598091],[4.913774,51.599707],[4.918496,51.601368],[4.917356,51.60871],[4.911881,51.615399],[4.912228,51.619476],[4.915554,51.622433],[4.904279,51.624333],[4.911822,51.626365],[4.910027,51.62946],[4.912862,51.633683],[4.929202,51.646875],[4.930354,51.649541],[4.932744,51.650618],[4.932459,51.655824],[4.93441,51.657254],[4.931047,51.663552],[4.930942,51.667102],[4.926775,51.669087],[4.925032,51.673009],[4.917731,51.675207],[4.91378,51.675049],[4.912826,51.67659],[4.906551,51.675953],[4.906928,51.674953],[4.898767,51.674129],[4.896586,51.674775],[4.880474,51.674199],[4.87115,51.67586],[4.866203,51.676106],[4.85658,51.680243],[4.856621,51.681668],[4.850462,51.684116],[4.842483,51.683918],[4.842367,51.679654],[4.828561,51.676444],[4.827351,51.676963],[4.821489,51.674632],[4.803864,51.67059],[4.795909,51.669325],[4.781071,51.663902],[4.794388,51.641665],[4.796632,51.640908],[4.787506,51.637048],[4.788243,51.634742],[4.80064,51.633086],[4.806969,51.632607],[4.812201,51.632835],[4.818643,51.631506],[4.82126,51.629559],[4.821866,51.627274],[4.82631,51.626798],[4.828038,51.624578],[4.839101,51.619401],[4.842683,51.616986],[4.839078,51.608934],[4.843551,51.603876],[4.835716,51.599293],[4.834072,51.597412],[4.84202,51.596027],[4.842621,51.585829],[4.848968,51.581529],[4.854397,51.579371],[4.864238,51.579089]]]}},
{"type":"Feature","id":"NLD:ADM2:NL-NB.oss","properties":{"shapeName":"Oss","shapeISO":"","shapeGroup":"NLD","shapeType":"ADM2","adm1ISO":"NL-NB","parentISO":"NL-NB","parentID":"NLD:ADM1:NL-NB","src_shape_id":"6326949B89866166978709"},"geometry":{"type":"Polygon","coordinates":[[[5.353514,51.755477],[5.355904,51.751435],[5.361223,51.751221],[5.374033,51.753244],[5.389233,51.759226],[5.392773,51.760267],[5.431118,51.764075],[5.438816,51.76503],[5.443965,51.753483],[5.443733,51.750629],[5.450593,51.740702],[5.450538,51.739377],[5.454194,51.735481],[5.454714,51.732869],[5.457843,51.729975],[5.460073,51.730707],[5.462592,51.728199],[5.463187,51.725866],[5.474244,51.728965],[5.489162,51.733141],[5.502927,51.736228],[5.506711,51.737557],[5.515214,51.73843],[5.52527,51.740135],[5.53411,51.740316],[5.540502,51.739248],[5.548528,51.736765],[5.560164,51.732361],[5.571979,51.730938],[5.579364,51.73184],[5.580881,51.731448],[5.577477,51.735761],[5.57627,51.744877],[5.596605,51.747413],[5.597324,51.750598],[5.602628,51.751622],[5.61199,51.754454],[5.620034,51.755921],[5.63455,51.757956],[5.633773,51.760833],[5.648218,51.76364],[5.652547,51.761987],[5.660117,51.755799],[5.667279,51.752221],[5.669964,51.762604],[5.673673,51.767704],[5.677242,51.76362],[5.680139,51.761353],[5.68509,51.759517],[5.690858,51.759131],[5.696035,51.76134],[5.698665,51.765981],[5.701047,51.768747],[5.708163,51.772546],[5.711229,51.775034],[5.703088,51.77762],[5.699661,51.780847],[5.697338,51.784449],[5.691572,51.789021],[5.685789,51.791193],[5.679997,51.792089],[5.671303,51.792595],[5.665512,51.793634],[5.657493,51.79803],[5.651741,51.803436],[5.649901,51.806137],[5.646433,51.813335],[5.643031,51.816938],[5.638112,51.819025],[5.630864,51.819634],[5.62506,51.819169],[5.619261,51.81963],[5.607682,51.824713],[5.597976,51.828049],[5.591748,51.829434],[5.585946,51.829624],[5.578688,51.828431],[5.571432,51.827751],[5.561277,51.827829],[5.55586,51.826948],[5.550686,51.823395],[5.548628,51.819803],[5.543832,51.816888],[5.539479,51.81622],[5.535129,51.816666],[5.529333,51.818255],[5.519183,51.818968],[5.512954,51.821644],[5.509236,51.825243],[5.505051,51.827944],[5.498906,51.830098],[5.494555,51.830731],[5.4873,51.829902],[5.481839,51.827066],[5.479293,51.823473],[5.477964,51.81898],[5.474214,51.814641],[5.469859,51.812496],[5.462606,51.810892],[5.448103,51.809597],[5.439403,51.809709],[5.432154,51.810629],[5.427805,51.811799],[5.422007,51.814749],[5.414885,51.82129],[5.410409,51.822545],[5.406058,51.82242],[5.401706,51.820893],[5.394409,51.812723],[5.38349,51.804634],[5.376011,51.796544],[5.372011,51.792948],[5.367187,51.787554],[5.364261,51.783059],[5.361584,51.776767],[5.360615,51.772272],[5.360693,51.764183],[5.359927,51.760587],[5.356424,51.756991],[5.353514,51.755477]]]}},
{"type":"Feature","id":"NLD:ADM2:NL-NB.rucphen","properties":{"shapeName":"Rucphen","shapeISO":"","shapeGroup":"NLD","shapeType":"ADM2","adm1ISO":"NL-NB","parentISO":"NL-NB","parentID":"NLD:ADM1:NL-NB","src_shape_id":"6326949B79033255924519"},"geometry":{"type":"Polygon","coordinates":[[[4.591761,51.561032],[4.533482,51.54927],[4.530358,51.549256],[4.528068,51.551999],[4.528689,51.555487],[4.530904,51.559887],[4.536616,51.565777],[4.530714,51.566173],[4.50945,51.568562],[4.508713,51.565549],[4.504955,51.566026],[4.504153,51.562985],[4.501634,51.563271],[4.500204,51.558536],[4.497472,51.546336],[4.49883,51.544785],[4.507707,51.543479],[4.511653,51.543878],[4.515795,51.542998],[4.523191,51.542557],[4.521408,51.533095],[4.521944,51.531913],[4.519581,51.52713],[4.517573,51.525295],[4.515953,51.52152],[4.513528,51.521423],[4.514331,51.517895],[4.502179,51.516724],[4.498516,51.509863],[4.496652,51.5083],[4.498034,51.501707],[4.490312,51.486991],[4.492861,51.483291],[4.485405,51.481622],[4.486681,51.477353],[4.538184,51.482398],[4.54816,51.473312],[4.5561,51.485634],[4.569198,51.48293],[4.572285,51.482655],[4.575807,51.48814],[4.573975,51.488469],[4.576177,51.492539],[4.583709,51.495764],[4.58973,51.496737],[4.579337,51.510731],[4.610773,51.508337],[4.615019,51.508947],[4.620538,51.510736],[4.619405,51.516172],[4.626334,51.518925],[4.624986,51.52109],[4.631235,51.523352],[4.638716,51.524413],[4.640094,51.543304],[4.635285,51.542351],[4.631753,51.543877],[4.630106,51.54715],[4.625809,51.547412],[4.624766,51.55226],[4.61579,51.553179],[4.607625,51.55467],[4.606571,51.556023],[4.59862,51.559681],[4.592,51.560245],[4.591761,51.561032]]]}},
{"type":"Feature","id":"NLD:ADM2:NL-NB.sint-michielsgestel","properties":{"shapeName":"Sint-Michielsgestel","shapeISO":"","shapeGroup":"NLD","shapeType":"ADM2","adm1ISO":"NL-NB","parentISO":"NL-NB","parentID":"NLD:ADM1:NL-NB","src_shape_id":"6326949B43570757330374"},"geometry":{"type":"Polygon","coordinates":[[[5.380528,51.602902],[5.390391,51.605472],[5.394856,51.605842],[5.391251,51.611369],[5.391086,51.616446],[5.388429,51.61791],[5.388946,51.621343],[5.385916,51.620906],[5.383852,51.624086],[5.386372,51.626497],[5.383375,51.627721],[5.383284,51.631604],[5.375253,51.633649],[5.371596,51.63316],[5.37136,51.637226],[5.376389,51.638327],[5.371867,51.641931],[5.379591,51.644151],[5.378085,51.646645],[5.384191,51.645905],[5.391858,51.64565],[5.400041,51.646567],[5.401496,51.647754],[5.405959,51.648312],[5.405883,51.650205],[5.410656,51.650475],[5.41108,51.652691],[5.415095,51.654079],[5.414643,51.655702],[5.423389,51.653783],[5.427651,51.655845],[5.43402,51.664527],[5.442381,51.6647],[5.44563,51.666417],[5.448826,51.669552],[5.456872,51.687591],[5.452718,51.688475],[5.451678,51.686751],[5.445167,51.688581],[5.447545,51.694931],[5.441353,51.694656],[5.443349,51.697618],[5.439494,51.698657],[5.43933,51.700434],[5.427532,51.70141],[5.406208,51.699086],[5.397181,51.6985],[5.386384,51.700882],[5.374316,51.700139],[5.371822,51.698122],[5.367338,51.696946],[5.36163,51.698674],[5.360317,51.697508],[5.364788,51.689875],[5.369783,51.6844],[5.373478,51.681172],[5.372466,51.680108],[5.35735,51.682003],[5.352126,51.681019],[5.350938,51.677145],[5.355961,51.674004],[5.353692,51.671073],[5.343959,51.667446],[5.342301,51.665425],[5.338882,51.663996],[5.327474,51.673367],[5.319057,51.670372],[5.309393,51.668105],[5.30397,51.665548],[5.304344,51.662671],[5.311268,51.65859],[5.312573,51.653945],[5.316973,51.65217],[5.319148,51.64998],[5.319741,51.645183],[5.318671,51.642054],[5.319558,51.638491],[5.321162,51.636854],[5.317731,51.634634],[5.338404,51.622127],[5.343041,51.622865],[5.341905,51.620047],[5.343415,51.617385],[5.340211,51.614412],[5.334862,51.61364],[5.332372,51.611417],[5.334146,51.606269],[5.335968,51.603085],[5.340492,51.604358],[5.342778,51.600242],[5.345866,51.602738],[5.350984,51.603966],[5.352928,51.60069],[5.360673,51.601774],[5.374894,51.601803],[5.380528,51.602902]]]}},
{"type":"Feature","id":"NLD:ADM2:NL-NB.someren","properties":{"shapeName":"Someren","shapeISO":"","shapeGroup":"NLD","shapeType":"ADM2","adm1ISO":"NL-NB","parentISO":"NL-NB","parentID":"NLD:ADM1:NL-NB","src_shape_id":"6326949B17219588023251"},"geometry":{"type":"Polygon","coordinates":[[[5.693983,51.439239],[5.672237,51.457714],[5.668568,51.456828],[5.656468,51.456559],[5.656298,51.452826],[5.654115,51.449398],[5.653307,51.446385],[5.648265,51.441507],[5.644076,51.440853],[5.642848,51.434343],[5.639015,51.422456],[5.637883,51.41251],[5.637854,51.406781],[5.639001,51.397971],[5.638919,51.389173],[5.654706,51.353877],[5.666768,51.326725],[5.67002,51.325679],[5.672044,51.323634],[5.670317,51.319304],[5.672109,51.315093],[5.770447,51.333804],[5.763804,51.344065],[5.745459,51.371105],[5.740215,51.369793],[5.737031,51.388201],[5.733723,51.391873],[5.727379,51.395617],[5.705569,51.409408],[5.702877,51.412541],[5.700795,51.419891],[5.693983,51.439239]]]}},
{"type":"Feature","id":"NLD:ADM2:NL-NB.son-en-breugel","properties":{"shapeName":"Son en Breugel","shapeISO":"","shapeGroup":"NLD","shapeType":"ADM2","adm1ISO":"NL-NB","parentISO":"NL-NB","parentID":"NLD:ADM1:NL-NB","src_shape_id":"6326949B33588539709853"},"geometry":{"type":"Polygon","coordinates":[[[5.442569,51.493927],[5.448774,51.495096],[5.463894,51.496978],[5.468249,51.496844],[5.470636,51.495594],[5.477217,51.497042],[5.47842,51.496606],[5.511423,51.496922],[5.509782,51.498661],[5.514621,51.499833],[5.518598,51.501995],[5.527833,51.502319],[5.531027,51.505246],[5.538675,51.507596],[5.540763,51.509648],[5.546272,51.512695],[5.541217,51.518875],[5.540674,51.520665],[5.544029,51.521758],[5.544747,51.523537],[5.540194,51.526011],[5.536732,51.525052],[5.530862,51.525048],[5.525047,51.521869],[5.522612,51.52343],[5.518951,51.522269],[5.513014,51.524311],[5.505452,51.521667],[5.50026,51.521397],[5.499937,51.525287],[5.50257,51.527293],[5.49827,51.528529],[5.493448,51.526685],[5.488814,51.533285],[5.488241,51.540328],[5.487144,51.541848],[5.472595,51.540762],[5.465887,51.539839],[5.437411,51.533972],[5.434595,51.53441],[5.431571,51.533347],[5.429833,51.53497],[5.423841,51.534055],[5.43423,51.523549],[5.447506,51.512069],[5.440703,51.496059],[5.442569,51.493927]]]}},
{"type":"Feature","id":"NLD:ADM2:NL-NB.steenbergen","properties":{"shapeName":"Steenbergen","shapeISO":"","shapeGroup":"NLD","shapeType":"ADM2","adm1ISO":"NL-NB","parentISO":"NL-NB","parentID":"NLD:ADM1:NL-NB","src_shape_id":"6326949B69485420920073"},"geometry":{"type":"Polygon","coordinates":[[[4.236119,51.550366],[4.239621,51.550802],[4.242968,51.559206],[4.243023,51.563032],[4.252008,51.570661],[4.267622,51.56801],[4.267162,51.564944],[4.273129,51.564438],[4.298602,51.558829],[4.297813,51.555913],[4.298424,51.553471],[4.317969,51.551217],[4.354446,51.546993],[4.375361,51.543721],[4.411462,51.551598],[4.426878,51.552383],[4.429032,51.555701],[4.438624,51.556523],[4.441078,51.558492],[4.441934,51.567202],[4.443999,51.569096],[4.438917,51.575927],[4.43362,51.581834],[4.43087,51.586842],[4.429416,51.593139],[4.428101,51.604934],[4.426675,51.61174],[4.431745,51.611025],[4.431935,51.613911],[4.435678,51.615151],[4.437828,51.617119],[4.429913,51.622293],[4.427516,51.624726],[4.425002,51.629466],[4.420814,51.630879],[4.413492,51.631164],[4.408896,51.632821],[4.399347,51.639352],[4.397398,51.642787],[4.39489,51.64426],[4.388383,51.645462],[4.380769,51.650585],[4.376452,51.651875],[4.37253,51.655391],[4.361822,51.662979],[4.354343,51.660065],[4.344775,51.656924],[4.33255,51.653749],[4.326248,51.652578],[4.311262,51.650742],[4.299389,51.647513],[4.275003,51.643778],[4.251104,51.645562],[4.242786,51.647063],[4.238168,51.634298],[4.227823,51.631023],[4.21707,51.628432],[4.207211,51.624733],[4.199273,51.619539],[4.194932,51.614882],[4.191166,51.608096],[4.190163,51.600954],[4.192232,51.593902],[4.195718,51.588975],[4.2007,51.584575],[4.22636,51.56514],[4.231169,51.560667],[4.235202,51.553953],[4.236119,51.550366]]]}},
{"type":"Feature","id":"NLD:ADM2:NL-NB.tilburg","properties":{"shapeName":"Tilburg","shapeISO":"","shapeGroup":"NLD","shapeType":"ADM2","adm1ISO":"NL-NB","parentISO":"NL-NB","parentID":"NLD:ADM1:NL-NB","src_shape_id":"6326949B99100278363504"},"geometry":{"type":"Polygon","coordinates":[[[4.947845,51.611171],[4.948807,51.610377],[4.961164,51.606177],[4.968736,51.602057],[4.967774,51.597685],[4.972859,51.597306],[4.973408,51.591982],[4.972352,51.58521],[4.970275,51.577224],[4.966778,51.573662],[4.96899,51.571305],[4.967831,51.568722],[4.964182,51.565243],[4.954419,51.562258],[4.951667,51.560884],[4.951307,51.557038],[4.953423,51.550532],[4.965569,51.549754],[4.974169,51.547107],[4.979565,51.544202],[4.976665,51.542418],[4.975459,51.540133],[4.987628,51.540023],[4.99484,51.538192],[5.001568,51.537488],[5.005837,51.538111],[5.020595,51.53896],[5.02255,51.538418],[5.027384,51.533993],[5.030481,51.529593],[5.04213,51.530992],[5.052274,51.529763],[5.052857,51.531373],[5.051703,51.535091],[5.060322,51.537869],[5.090921,51.535043],[5.096474,51.534967],[5.105075,51.536744],[5.109816,51.539385],[5.11252,51.540023],[5.113051,51.542049],[5.11785,51.545654],[5.119676,51.544621],[5.126201,51.533593],[5.130195,51.530298],[5.135451,51.53358],[5.133598,51.53495],[5.14188,51.542092],[5.138694,51.545956],[5.146948,51.546634],[5.13912,51.550696],[5.137214,51.552862],[5.137955,51.559737],[5.137354,51.562581],[5.144964,51.573876],[5.15076,51.580098],[5.185527,51.601302],[5.201804,51.611343],[5.210711,51.615588],[5.207876,51.620405],[5.202768,51.622622],[5.195688,51.628169],[5.193661,51.630613],[5.191292,51.636886],[5.191821,51.639477],[5.183342,51.640526],[5.172059,51.638896],[5.160065,51.639535],[5.149728,51.639663],[5.146445,51.640517],[5.138011,51.640312],[5.128466,51.637609],[5.126792,51.638177],[5.115855,51.637608],[5.111141,51.635371],[5.106137,51.635956],[5.101369,51.632599],[5.098184,51.628822],[5.09963,51.626975],[5.101216,51.620406],[5.102958,51.616911],[5.099202,51.617805],[5.096003,51.612466],[5.093745,51.611249],[5.079438,51.610784],[5.075468,51.608949],[5.07059,51.610291],[5.061771,51.609346],[5.060386,51.61074],[5.04501,51.611097],[5.042927,51.606038],[5.039925,51.606362],[5.004492,51.607887],[4.986315,51.607909],[4.976794,51.609273],[4.964713,51.613134],[4.957862,51.613758],[4.954462,51.614686],[4.947845,51.611171]]]}},
{"type":"Feature","id":"NLD:ADM2:NL-NB.valkenswaard","properties":{"shapeName":"Valkenswaard","shapeISO":"","shapeGroup":"NLD","shapeType":"ADM2","adm1ISO":"NL-NB","parentISO":"NL-NB","parentID":"NLD:ADM1:NL-NB","src_shape_id":"6326949B31690191590270"},"geometry":{"type":"Polygon","coordinates":[[[5.41741,51.262285],[5.425638,51.269251],[5.433296,51.276333],[5.43837,51.276026],[5.4412,51.27971],[5.44178,51.282105],[5.464835,51.284565],[5.470229,51.288149],[5.476886,51.291391],[5.477612,51.294968],[5.47944,51.296769],[5.484858,51.299999],[5.485655,51.302313],[5.489022,51.306179],[5.490678,51.310298],[5.491257,51.31466],[5.489188,51.318224],[5.48293,51.321341],[5.47702,51.327653],[5.473604,51.333943],[5.478186,51.338503],[5.482158,51.340996],[5.487155,51.342363],[5.496105,51.346623],[5.496675,51.351942],[5.494391,51.353248],[5.493799,51.355392],[5.496096,51.356067],[5.527179,51.366941],[5.516417,51.378335],[5.508478,51.372765],[5.50166,51.37428],[5.496476,51.373137],[5.492478,51.37415],[5.466176,51.370035],[5.441894,51.367485],[5.437279,51.366013],[5.435329,51.368236],[5.429559,51.370075],[5.4232,51.374858],[5.41887,51.371807],[5.420973,51.369213],[5.419867,51.365082],[5.419763,51.358451],[5.421576,51.354128],[5.423321,51.352632],[5.422712,51.348324],[5.424973,51.3442],[5.421388,51.340649],[5.422835,51.337267],[5.423034,51.332581],[5.424289,51.330759],[5.433921,51.32432],[5.425798,51.31199],[5.423926,51.312507],[5.419849,51.318018],[5.416486,51.319391],[5.413651,51.318646],[5.410784,51.319976],[5.400718,51.313501],[5.397671,51.31432],[5.395626,51.309865],[5.394261,51.308785],[5.395368,51.305918],[5.393424,51.29965],[5.39481,51.296127],[5.392664,51.29399],[5.397201,51.29062],[5.387802,51.285238],[5.39801,51.27767],[5.401083,51.274182],[5.403796,51.27347],[5.41741,51.262285]]]}},
{"type":"Feature","id":"NLD:ADM2:NL-NB.veldhoven","properties":{"shapeName":"Veldhoven","shapeISO":"","shapeGroup":"NLD","shapeType":"ADM2","adm1ISO":"NL-NB","parentISO":"NL-NB","parentID":"NLD:ADM1:NL-NB","src_shape_id":"6326949B72030349627304"},"geometry":{"type":"Polygon","coordinates":[[[5.388903,51.376455],[5.39276,51.37738],[5.396539,51.380839],[5.408536,51.379806],[5.413481,51.383905],[5.418,51.382023],[5.4218,51.38341],[5.417708,51.388318],[5.417813,51.390203],[5.421598,51.39287],[5.422981,51.394907],[5.422122,51.396784],[5.423853,51.399648],[5.427276,51.402653],[5.42523,51.404553],[5.429837,51.406116],[5.428514,51.414962],[5.427362,51.417138],[5.427872,51.420148],[5.426784,51.429542],[5.425383,51.431008],[5.419943,51.432853],[5.414488,51.430059],[5.404919,51.437125],[5.400794,51.432967],[5.394911,51.43423],[5.38894,51.437717],[5.387373,51.437801],[5.379685,51.435092],[5.379211,51.436596],[5.373197,51.437608],[5.371248,51.438909],[5.367974,51.438443],[5.366898,51.436205],[5.363665,51.435436],[5.356916,51.438203],[5.35585,51.4342],[5.345718,51.429181],[5.339841,51.425558],[5.31937,51.423795],[5.319995,51.419928],[5.316089,51.419409],[5.317167,51.414819],[5.323663,51.406187],[5.331592,51.406285],[5.335136,51.407402],[5.354362,51.408783],[5.37096,51.397864],[5.370211,51.397621],[5.373946,51.38863],[5.388903,51.376455]]]}},
{"type":"Feature","id":"NLD:ADM2:NL-NB.vught","properties":{"shapeName":"Vught","shapeISO":"","shapeGroup":"NLD","shapeType":"ADM2","adm1ISO":"NL-NB","parentISO":"NL-NB","parentID":"NLD:ADM1:NL-NB","src_shape_id":"6326949B95896723363367"},"geometry":{"type":"Polygon","coordinates":[[[5.317731,51.634634],[5.321162,51.636854],[5.319558,51.638491],[5.318671,51.642054],[5.319741,51.645183],[5.319148,51.64998],[5.316973,51.65217],[5.312573,51.653945],[5.311268,51.65859],[5.304344,51.662671],[5.30397,51.665548],[5.309393,51.668105],[5.319057,51.670372],[5.309944,51.669368],[5.303216,51.667204],[5.29893,51.667124],[5.291922,51.674458],[5.289444,51.678536],[5.288792,51.681648],[5.265688,51.684722],[5.259031,51.683859],[5.254874,51.684367],[5.246867,51.683169],[5.234271,51.685499],[5.231901,51.689257],[5.226158,51.690031],[5.225744,51.683861],[5.22417,51.680197],[5.223227,51.673782],[5.208955,51.673565],[5.207749,51.673887],[5.202565,51.670898],[5.204057,51.669819],[5.166798,51.669047],[5.161767,51.663447],[5.157673,51.663274],[5.156958,51.65776],[5.154452,51.654919],[5.160065,51.639535],[5.172059,51.638896],[5.183342,51.640526],[5.191821,51.639477],[5.191292,51.636886],[5.193661,51.630613],[5.195688,51.628169],[5.202768,51.622622],[5.207876,51.620405],[5.210711,51.615588],[5.222395,51.621844],[5.22199,51.620161],[5.224114,51.616439],[5.228192,51.615889],[5.23694,51.618137],[5.242374,51.617988],[5.246668,51.620834],[5.246171,51.622655],[5.255499,51.624928],[5.264176,51.618087],[5.26882,51.612538],[5.271392,51.615456],[5.27583,51.615761],[5.282078,51.622462],[5.28552,51.622928],[5.290993,51.621318],[5.294666,51.621335],[5.297028,51.624983],[5.299645,51.625709],[5.304332,51.624924],[5.306689,51.627645],[5.306139,51.629696],[5.308275,51.633034],[5.315448,51.63385],[5.317731,51.634634]]]}},
{"type":"Feature","id":"NLD:ADM2:NL-NB.waalre","properties":{"shapeName":"Waalre","shapeISO":"","shapeGroup":"NLD","shapeType":"ADM2","adm1ISO":"NL-NB","parentISO":"NL-NB","parentID":"NLD:ADM1:NL-NB","src_shape_id":"6326949B57624243850384"},"geometry":{"type":"Polygon","coordinates":[[[5.427276,51.402653],[5.423853,51.399648],[5.422122,51.396784],[5.422981,51.394907],[5.421598,51.39287],[5.417813,51.390203],[5.417708,51.388318],[5.4218,51.38341],[5.424529,51.379647],[5.4232,51.374858],[5.429559,51.370075],[5.435329,51.368236],[5.437279,51.366013],[5.441894,51.367485],[5.466176,51.370035],[5.492478,51.37415],[5.496476,51.373137],[5.50166,51.37428],[5.508478,51.372765],[5.516417,51.378335],[5.513025,51.382154],[5.511406,51.385093],[5.504873,51.400154],[5.501544,51.40311],[5.497823,51.404268],[5.487611,51.404739],[5.480845,51.404614],[5.472746,51.405271],[5.453213,51.405288],[5.436188,51.404976],[5.43545,51.403445],[5.431656,51.402338],[5.427276,51.402653]]]}},
{"type":"Feature","id":"NLD:ADM2:NL-NB.waalwijk","properties":{"shapeName":"Waalwijk","shapeISO":"","shapeGroup":"NLD","shapeType":"ADM2","adm1ISO":"NL-NB","parentISO":"NL-NB","parentID":"NLD:ADM1:NL-NB","src_shape_id":"6326949B71985362418068"},"geometry":{"type":"Polygon","coordinates":[[[4.987266,51.654609],[4.992246,51.676251],[5.030877,51.666532],[5.049177,51.661623],[5.058403,51.661727],[5.05797,51.668316],[5.061013,51.66829],[5.060621,51.671113],[5.072043,51.670763],[5.080175,51.671655],[5.088909,51.67474],[5.094998,51.674585],[5.101509,51.676834],[5.106493,51.677327],[5.104489,51.693251],[5.103053,51.702483],[5.111506,51.703576],[5.109129,51.708576],[5.106855,51.710861],[5.101601,51.713205],[5.097541,51.717577],[5.08354,51.720906],[5.08176,51.722344],[5.075058,51.718877],[5.065644,51.714887],[5.054232,51.711903],[5.044988,51.710997],[5.038473,51.710817],[5.027445,51.711073],[5.014822,51.712168],[5.006016,51.713309],[4.996951,51.714959],[4.979471,51.71918],[4.969381,51.721209],[4.960894,51.722413],[4.951534,51.723024],[4.943233,51.722976],[4.93245,51.722012],[4.91799,51.71996],[4.933169,51.67675],[4.942986,51.678858],[4.947506,51.676944],[4.953731,51.670769],[4.956845,51.663333],[4.957765,51.659655],[4.957896,51.651532],[4.987266,51.654609]]]}},
{"type":"Feature","id":"NLD:ADM2:NL-NB.woensdrecht","properties":{"shapeName":"Woensdrecht","shapeISO":"","shapeGroup":"NLD","shapeType":"ADM2","adm1ISO":"NL-NB","parentISO":"NL-NB","parentID":"NLD:ADM1:NL-NB","src_shape_id":"6326949B40585384070761"},"geometry":{"type":"Polygon","coordinates":[[[4.277425,51.376035],[4.306335,51.377026],[4.334505,51.377641],[4.341354,51.357563],[4.348952,51.358642],[4.350974,51.358205],[4.366757,51.357306],[4.378759,51.354921],[4.384543,51.354352],[4.394,51.355679],[4.398739,51.356887],[4.421853,51.36523],[4.431351,51.363853],[4.429815,51.367375],[4.425081,51.371289],[4.431691,51.375049],[4.40684,51.39577],[4.391611,51.408171],[4.38366,51.421076],[4.389723,51.424459],[4.39133,51.427352],[4.395201,51.426902],[4.394665,51.431538],[4.397205,51.431598],[4.398818,51.435243],[4.395415,51.435512],[4.395484,51.43977],[4.39664,51.442016],[4.392033,51.446376],[4.386639,51.445243],[4.379327,51.446789],[4.382709,51.450232],[4.384838,51.449316],[4.391082,51.451487],[4.383412,51.455115],[4.366965,51.456719],[4.344308,51.460587],[4.340389,51.462703],[4.336514,51.4598],[4.32796,51.464241],[4.324215,51.462291],[4.322477,51.4603],[4.311166,51.460173],[4.308471,51.465407],[4.303917,51.466643],[4.297684,51.466222],[4.29791,51.452554],[4.297462,51.450113],[4.295082,51.448823],[4.293706,51.445306],[4.288662,51.444694],[4.285568,51.442895],[4.283173,51.439667],[4.267978,51.440272],[4.265432,51.439681],[4.275852,51.425049],[4.266576,51.420052],[4.263732,51.416449],[4.26416,51.413759],[4.266493,51.408168],[4.269061,51.400348],[4.268634,51.388127],[4.266349,51.386541],[4.268382,51.383546],[4.273698,51.38315],[4.277425,51.376035]]]}},
{"type":"Feature","id":"NLD:ADM2:NL-NB.zundert","properties":{"shapeName":"Zundert","shapeISO":"","shapeGroup":"NLD","shapeType":"ADM2","adm1ISO":"NL-NB","parentISO":"NL-NB","parentID":"NLD:ADM1:NL-NB","src_shape_id":"6326949B5198989789548"},"geometry":{"type":"Polygon","coordinates":[[[4.694187,51.544849],[4.680906,51.540668],[4.659112,51.525494],[4.654292,51.524288],[4.652393,51.521936],[4.643289,51.518189],[4.638157,51.517205],[4.638716,51.524413],[4.631235,51.523352],[4.624986,51.52109],[4.626334,51.518925],[4.619405,51.516172],[4.620538,51.510736],[4.615019,51.508947],[4.610773,51.508337],[4.579337,51.510731],[4.58973,51.496737],[4.583709,51.495764],[4.576177,51.492539],[4.573975,51.488469],[4.575807,51.48814],[4.572285,51.482655],[4.569198,51.48293],[4.5561,51.485634],[4.54816,51.473312],[4.529896,51.44952],[4.535408,51.423029],[4.574727,51.432848],[4.593753,51.430545],[4.630094,51.425917],[4.633936,51.425075],[4.639598,51.422288],[4.645697,51.423136],[4.651716,51.426886],[4.65641,51.424998],[4.664472,51.426159],[4.669689,51.426363],[4.666586,51.444399],[4.68644,51.451271],[4.693096,51.45173],[4.702866,51.46467],[4.703248,51.466968],[4.716909,51.468898],[4.715991,51.470937],[4.720149,51.473231],[4.729151,51.483907],[4.733996,51.485548],[4.743316,51.510002],[4.744059,51.516946],[4.743234,51.525394],[4.740118,51.527858],[4.741835,51.531355],[4.736481,51.533217],[4.732069,51.536334],[4.728094,51.533634],[4.7251,51.5329],[4.72249,51.535158],[4.728417,51.536878],[4.713097,51.545162],[4.703997,51.549799],[4.694187,51.544849]]]}},
{"type":"Feature","id":"NLD:ADM2:NL-NB.gemert-bakel","properties":{"shapeName":"Gemert-Bakel","shapeISO":"","shapeGroup":"NLD","shapeType":"ADM2","adm1ISO":"NL-NB","parentISO":"NL-NB","parentID":"NLD:ADM1:NL-NB","src_shape_id":"6326949B55320992871196"},"geometry":{"type":"Polygon","coordinates":[[[5.651356,51.58236],[5.651806,51.579944],[5.656439,51.57418],[5.652485,51.569678],[5.654825,51.565487],[5.660272,51.5517],[5.666913,51.540564],[5.669975,51.538334],[5.678373,51.528357],[5.674672,51.525888],[5.678957,51.522496],[5.682165,51.518101],[5.685261,51.516012],[5.684069,51.513227],[5.686004,51.512736],[5.684143,51.507698],[5.698705,51.503776],[5.708233,51.502025],[5.707864,51.49696],[5.712423,51.494712],[5.712438,51.490884],[5.718203,51.4888],[5.721717,51.485131],[5.725729,51.48441],[5.728616,51.486094],[5.732474,51.485805],[5.734656,51.484421],[5.738611,51.485251],[5.749348,51.486378],[5.757793,51.488084],[5.764285,51.487927],[5.768499,51.489013],[5.773438,51.488638],[5.778293,51.490164],[5.786501,51.490567],[5.793464,51.491859],[5.799796,51.494185],[5.800986,51.493871],[5.852572,51.504144],[5.838237,51.566414],[5.820552,51.568558],[5.800585,51.578621],[5.788341,51.594191],[5.786677,51.598208],[5.758614,51.593946],[5.732989,51.590443],[5.709392,51.586258],[5.706191,51.587055],[5.699385,51.584116],[5.660585,51.582891],[5.651356,51.58236]]]}},
{"type":"Feature","id":"NLD:ADM2:NL-NB.halderberge","properties":{"shapeName":"Halderberge","shapeISO":"","shapeGroup":"NLD","shapeType":"ADM2","adm1ISO":"NL-NB","parentISO":"NL-NB","parentID":"NLD:ADM1:NL-NB","src_shape_id":"6326949B33385594138749"},"geometry":{"type":"Polygon","coordinates":[[[4.601233,51.625239],[4.594471,51.624128],[4.58818,51.625582],[4.581475,51.628399],[4.57666,51.629865],[4.570849,51.630407],[4.561471,51.629154],[4.557253,51.627303],[4.553339,51.622545],[4.549314,51.619982],[4.543204,51.617668],[4.532347,51.616453],[4.529071,51.615094],[4.519132,51.607834],[4.515406,51.606872],[4.510353,51.606754],[4.504156,51.608017],[4.499586,51.610282],[4.496162,51.613175],[4.493127,51.616959],[4.488088,51.619564],[4.481504,51.619912],[4.476028,51.61836],[4.472764,51.616441],[4.461612,51.614392],[4.453346,51.614288],[4.443536,51.615089],[4.437828,51.617119],[4.435678,51.615151],[4.431935,51.613911],[4.431745,51.611025],[4.426675,51.61174],[4.428101,51.604934],[4.429416,51.593139],[4.43087,51.586842],[4.43362,51.581834],[4.438917,51.575927],[4.443999,51.569096],[4.446628,51.568055],[4.447825,51.566017],[4.453262,51.566561],[4.453184,51.563552],[4.456444,51.563171],[4.457535,51.561459],[4.465671,51.56105],[4.469522,51.563008],[4.473008,51.562213],[4.47359,51.560745],[4.480841,51.560975],[4.498959,51.558942],[4.500204,51.558536],[4.501634,51.563271],[4.504153,51.562985],[4.504955,51.566026],[4.508713,51.565549],[4.50945,51.568562],[4.530714,51.566173],[4.536616,51.565777],[4.530904,51.559887],[4.528689,51.555487],[4.528068,51.551999],[4.530358,51.549256],[4.533482,51.54927],[4.591761,51.561032],[4.590645,51.565979],[4.594695,51.566675],[4.595979,51.575684],[4.598558,51.584378],[4.596755,51.590298],[4.602202,51.595054],[4.608672,51.602165],[4.610606,51.603142],[4.613884,51.608008],[4.610645,51.609696],[4.610928,51.612102],[4.608875,51.615002],[4.603394,51.617749],[4.604293,51.621326],[4.601233,51.625239]]]}},
{"type":"Feature","id":"NLD:ADM2:NL-NB.heeze-leende","properties":{"shapeName":"Heeze-Leende","shapeISO":"","shapeGroup":"NLD","shapeType":"ADM2","adm1ISO":"NL-NB","parentISO":"NL-NB","parentID":"NLD:ADM1:NL-NB","src_shape_id":"6326949B20290330691137"},"geometry":{"type":"Polygon","coordinates":[[[5.504873,51.400154],[5.511406,51.385093],[5.513025,51.382154],[5.516417,51.378335],[5.527179,51.366941],[5.496096,51.356067],[5.493799,51.355392],[5.494391,51.353248],[5.496675,51.351942],[5.496105,51.346623],[5.487155,51.342363],[5.482158,51.340996],[5.478186,51.338503],[5.473604,51.333943],[5.47702,51.327653],[5.48293,51.321341],[5.489188,51.318224],[5.491257,51.31466],[5.490678,51.310298],[5.489022,51.306179],[5.485655,51.302313],[5.484858,51.299999],[5.487569,51.299738],[5.515772,51.295202],[5.533276,51.305588],[5.566075,51.320542],[5.581963,51.325218],[5.605315,51.331805],[5.619073,51.328927],[5.621146,51.331188],[5.631294,51.32754],[5.634929,51.330218],[5.633127,51.331314],[5.634455,51.333398],[5.63859,51.331859],[5.643109,51.334955],[5.642893,51.337294],[5.636636,51.337833],[5.636722,51.340837],[5.640191,51.339574],[5.639924,51.346737],[5.642602,51.348396],[5.648773,51.350167],[5.647527,51.352075],[5.654706,51.353877],[5.638919,51.389173],[5.639001,51.397971],[5.637854,51.406781],[5.637883,51.41251],[5.639015,51.422456],[5.605422,51.41925],[5.594032,51.417245],[5.569079,51.408742],[5.565859,51.407298],[5.564166,51.404784],[5.56066,51.405768],[5.554636,51.405044],[5.54375,51.404665],[5.536379,51.403193],[5.535862,51.404542],[5.525814,51.404697],[5.507606,51.40453],[5.505183,51.403417],[5.504873,51.400154]]]}},
{"type":"Feature","id":"NLD:ADM2:NL-NB.laarbeek","properties":{"shapeName":"Laarbeek","shapeISO":"","shapeGroup":"NLD","shapeType":"ADM2","adm1ISO":"NL-NB","parentISO":"NL-NB","parentID":"NLD:ADM1:NL-NB","src_shape_id":"6326949B42737315583657"},"geometry":{"type":"Polygon","coordinates":[[[5.684143,51.507698],[5.686004,51.512736],[5.684069,51.513227],[5.685261,51.516012],[5.682165,51.518101],[5.678957,51.522496],[5.674672,51.525888],[5.678373,51.528357],[5.669975,51.538334],[5.666913,51.540564],[5.660272,51.5517],[5.654825,51.565487],[5.652485,51.569678],[5.647381,51.567575],[5.645106,51.565806],[5.641669,51.56511],[5.630369,51.558396],[5.627213,51.555277],[5.619233,51.553996],[5.618191,51.555841],[5.614224,51.554604],[5.608275,51.559579],[5.584249,51.562714],[5.553453,51.558304],[5.533082,51.557803],[5.545206,51.541687],[5.543014,51.540014],[5.547436,51.537732],[5.547913,51.538075],[5.557651,51.509369],[5.566551,51.501672],[5.576729,51.499453],[5.579932,51.49876],[5.609653,51.509217],[5.611762,51.507775],[5.610642,51.504623],[5.61508,51.500289],[5.618503,51.498683],[5.625442,51.498366],[5.627824,51.495839],[5.634821,51.494883],[5.641223,51.498384],[5.644827,51.501617],[5.650368,51.503806],[5.653076,51.504061],[5.656403,51.507309],[5.661199,51.504592],[5.664074,51.502071],[5.675105,51.498947],[5.669951,51.504138],[5.672667,51.505441],[5.68296,51.504479],[5.684143,51.507698]]]}},
{"type":"Feature","id":"NLD:ADM2:NL-NB.reusel-de-mierden","properties":{"shapeName":"Reusel-De Mierden","shapeISO":"","shapeGroup":"NLD","shapeType":"ADM2","adm1ISO":"NL-NB","parentISO":"NL-NB","parentID":"NLD:ADM1:NL-NB","src_shape_id":"6326949B37702767177993"},"geometry":{"type":"Polygon","coordinates":[[[5.10202,51.428923],[5.092738,51.419461],[5.071181,51.393487],[5.116563,51.361131],[5.119402,51.35564],[5.124553,51.351254],[5.131687,51.347045],[5.134353,51.3155],[5.16264,51.310317],[5.173063,51.315772],[5.190556,51.32007],[5.196565,51.320359],[5.200255,51.322661],[5.204698,51.325438],[5.193865,51.345226],[5.196037,51.347943],[5.194494,51.351075],[5.192283,51.350877],[5.191933,51.361633],[5.196355,51.363255],[5.192138,51.364797],[5.190436,51.372054],[5.187987,51.374513],[5.188508,51.37762],[5.192963,51.378272],[5.199268,51.382308],[5.197402,51.384018],[5.200959,51.390066],[5.19477,51.399856],[5.190851,51.418211],[5.191019,51.430216],[5.18498,51.428764],[5.178153,51.430261],[5.173458,51.42824],[5.170765,51.429733],[5.158553,51.432174],[5.157948,51.428831],[5.152444,51.429026],[5.119459,51.428275],[5.10202,51.428923]]]}},
{"type":"Feature","id":"NLD:ADM2:NL-NB.roosendaal","properties":{"shapeName":"Roosendaal","shapeISO":"","shapeGroup":"NLD","shapeType":"ADM2","adm1ISO":"NL-NB","parentISO":"NL-NB","parentID":"NLD:ADM1:NL-NB","src_shape_id":"6326949B28559348449199"},"geometry":{"type":"Polygon","coordinates":[[[4.366965,51.456719],[4.383412,51.455115],[4.391082,51.451487],[4.403896,51.455856],[4.442559,51.468689],[4.457049,51.469816],[4.465186,51.471283],[4.471652,51.476315],[4.476513,51.478274],[4.486681,51.477353],[4.485405,51.481622],[4.492861,51.483291],[4.490312,51.486991],[4.498034,51.501707],[4.496652,51.5083],[4.498516,51.509863],[4.502179,51.516724],[4.514331,51.517895],[4.513528,51.521423],[4.515953,51.52152],[4.517573,51.525295],[4.519581,51.52713],[4.521944,51.531913],[4.521408,51.533095],[4.523191,51.542557],[4.515795,51.542998],[4.511653,51.543878],[4.507707,51.543479],[4.49883,51.544785],[4.497472,51.546336],[4.500204,51.558536],[4.498959,51.558942],[4.480841,51.560975],[4.47359,51.560745],[4.473008,51.562213],[4.469522,51.563008],[4.465671,51.56105],[4.457535,51.561459],[4.456444,51.563171],[4.453184,51.563552],[4.453262,51.566561],[4.447825,51.566017],[4.446628,51.568055],[4.443999,51.569096],[4.441934,51.567202],[4.441078,51.558492],[4.438624,51.556523],[4.429032,51.555701],[4.426878,51.552383],[4.411462,51.551598],[4.375361,51.543721],[4.354446,51.546993],[4.317969,51.551217],[4.316308,51.545497],[4.308202,51.546734],[4.306908,51.543505],[4.31572,51.540261],[4.327574,51.535194],[4.329884,51.528263],[4.337645,51.527563],[4.342815,51.526224],[4.340456,51.522669],[4.342193,51.518049],[4.350139,51.518373],[4.351591,51.517665],[4.352463,51.514299],[4.350554,51.505701],[4.349539,51.503481],[4.351714,51.499774],[4.358413,51.49247],[4.363561,51.491311],[4.372797,51.487724],[4.37184,51.484057],[4.371689,51.479007],[4.361631,51.476371],[4.362667,51.471685],[4.361396,51.471219],[4.366965,51.456719]]]}},
{"type":"Feature","id":"NLD:ADM2:NL-NB.cranendonck","properties":{"shapeName":"Cranendonck","shapeISO":"","shapeGroup":"NLD","shapeType":"ADM2","adm1ISO":"NL-NB","parentISO":"NL-NB","parentID":"NLD:ADM1:NL-NB","src_shape_id":"6326949B25939661204192"},"geometry":{"type":"Polygon","coordinates":[[[5.654706,51.353877],[5.647527,51.352075],[5.648773,51.350167],[5.642602,51.348396],[5.639924,51.346737],[5.640191,51.339574],[5.636722,51.340837],[5.636636,51.337833],[5.642893,51.337294],[5.643109,51.334955],[5.63859,51.331859],[5.634455,51.333398],[5.633127,51.331314],[5.634929,51.330218],[5.631294,51.32754],[5.621146,51.331188],[5.619073,51.328927],[5.605315,51.331805],[5.581963,51.325218],[5.566075,51.320542],[5.533276,51.305588],[5.515772,51.295202],[5.519005,51.289475],[5.528684,51.281756],[5.544461,51.271287],[5.55619,51.266664],[5.557929,51.262463],[5.556768,51.26006],[5.555984,51.254389],[5.556593,51.250242],[5.555261,51.247439],[5.555213,51.2444],[5.560449,51.222327],[5.566044,51.220909],[5.594319,51.226073],[5.594413,51.22418],[5.61878,51.229425],[5.623473,51.249025],[5.625259,51.271459],[5.625971,51.273601],[5.633691,51.281168],[5.643995,51.290575],[5.656098,51.301581],[5.672109,51.315093],[5.670317,51.319304],[5.672044,51.323634],[5.67002,51.325679],[5.666768,51.326725],[5.654706,51.353877]]]}},
{"type":"Feature","id":"NLD:ADM2:NL-NB.moerdijk","properties":{"shapeName":"Moerdijk","shapeISO":"","shapeGroup":"NLD","shapeType":"ADM2","adm1ISO":"NL-NB","parentISO":"NL-NB","parentID":"NLD:ADM1:NL-NB","src_shape_id":"6326949B29665837615412"},"geometry":{"type":"Polygon","coordinates":[[[4.620404,51.714124],[4.617063,51.713451],[4.604214,51.70843],[4.597493,51.705509],[4.5893,51.703323],[4.55493,51.696854],[4.54247,51.694824],[4.530433,51.693442],[4.514917,51.692473],[4.500431,51.692904],[4.488801,51.695116],[4.469588,51.699606],[4.42355,51.709475],[4.393621,51.693296],[4.379431,51.683592],[4.378844,51.678167],[4.377412,51.675584],[4.372196,51.669606],[4.365038,51.664591],[4.361822,51.662979],[4.37253,51.655391],[4.376452,51.651875],[4.380769,51.650585],[4.388383,51.645462],[4.39489,51.64426],[4.397398,51.642787],[4.399347,51.639352],[4.408896,51.632821],[4.413492,51.631164],[4.420814,51.630879],[4.425002,51.629466],[4.427516,51.624726],[4.429913,51.622293],[4.437828,51.617119],[4.443536,51.615089],[4.453346,51.614288],[4.461612,51.614392],[4.472764,51.616441],[4.476028,51.61836],[4.481504,51.619912],[4.488088,51.619564],[4.493127,51.616959],[4.496162,51.613175],[4.499586,51.610282],[4.504156,51.608017],[4.510353,51.606754],[4.515406,51.606872],[4.519132,51.607834],[4.529071,51.615094],[4.532347,51.616453],[4.543204,51.617668],[4.549314,51.619982],[4.553339,51.622545],[4.557253,51.627303],[4.561471,51.629154],[4.570849,51.630407],[4.57666,51.629865],[4.581475,51.628399],[4.58818,51.625582],[4.594471,51.624128],[4.601233,51.625239],[4.607847,51.628151],[4.612735,51.628463],[4.618349,51.626951],[4.622535,51.624759],[4.625724,51.624046],[4.631523,51.624468],[4.635701,51.626293],[4.636646,51.628644],[4.640496,51.631168],[4.644985,51.632611],[4.660389,51.634749],[4.665072,51.634319],[4.670924,51.63286],[4.679292,51.632703],[4.683955,51.634116],[4.688805,51.636663],[4.693452,51.637863],[4.69906,51.638073],[4.695325,51.643588],[4.696864,51.647134],[4.692562,51.647552],[4.689171,51.652418],[4.696784,51.654593],[4.694154,51.658354],[4.684903,51.666367],[4.709879,51.673272],[4.706625,51.676753],[4.704605,51.676322],[4.70203,51.679894],[4.704534,51.680507],[4.697313,51.687718],[4.695037,51.683357],[4.692838,51.681753],[4.681305,51.687999],[4.67919,51.686436],[4.673227,51.688987],[4.666952,51.686521],[4.662188,51.69372],[4.659525,51.696756],[4.657403,51.702204],[4.656799,51.70678],[4.655148,51.708679],[4.650865,51.710112],[4.645136,51.719067],[4.620404,51.714124]]]}},
{"type":"Feature","id":"NLD:ADM2:NL-NB.drimmelen","properties":{"shapeName":"Drimmelen","shapeISO":"","shapeGroup":"NLD","shapeType":"ADM2","adm1ISO":"NL-NB","parentISO":"NL-NB","parentID":"NLD:ADM1:NL-NB","src_shape_id":"6326949B3496624998105"},"geometry":{"type":"Polygon","coordinates":[[[4.645136,51.719067],[4.650865,51.710112],[4.655148,51.708679],[4.656799,51.70678],[4.657403,51.702204],[4.659525,51.696756],[4.662188,51.69372],[4.666952,51.686521],[4.673227,51.688987],[4.67919,51.686436],[4.681305,51.687999],[4.692838,51.681753],[4.695037,51.683357],[4.697313,51.687718],[4.704534,51.680507],[4.70203,51.679894],[4.704605,51.676322],[4.706625,51.676753],[4.709879,51.673272],[4.684903,51.666367],[4.694154,51.658354],[4.696784,51.654593],[4.689171,51.652418],[4.692562,51.647552],[4.696864,51.647134],[4.695325,51.643588],[4.69906,51.638073],[4.704333,51.638246],[4.731389,51.642994],[4.74005,51.642479],[4.749937,51.63878],[4.757619,51.637505],[4.761272,51.636001],[4.764889,51.632408],[4.765686,51.629141],[4.768168,51.628866],[4.787506,51.637048],[4.796632,51.640908],[4.794388,51.641665],[4.781071,51.663902],[4.795909,51.669325],[4.803864,51.67059],[4.821489,51.674632],[4.827351,51.676963],[4.828561,51.676444],[4.842367,51.679654],[4.839624,51.684021],[4.831941,51.691791],[4.829274,51.69637],[4.825721,51.707523],[4.82361,51.711288],[4.82978,51.711587],[4.836904,51.712612],[4.840663,51.716324],[4.846937,51.725524],[4.846931,51.735896],[4.85023,51.738574],[4.849278,51.744216],[4.85248,51.74868],[4.853125,51.750749],[4.85194,51.75588],[4.84675,51.757057],[4.84188,51.756687],[4.831657,51.753818],[4.822275,51.753857],[4.812862,51.756635],[4.802501,51.757587],[4.785403,51.755933],[4.782448,51.766569],[4.772109,51.75933],[4.766351,51.758999],[4.764199,51.759858],[4.760892,51.757622],[4.755113,51.755044],[4.750726,51.75229],[4.747901,51.748772],[4.747363,51.746623],[4.73745,51.741301],[4.73365,51.736508],[4.721842,51.734272],[4.698553,51.721992],[4.677286,51.720111],[4.676304,51.724924],[4.675222,51.72421],[4.645136,51.719067]]]}},
{"type":"Feature","id":"NLD:ADM2:NL-NB.bernheze","properties":{"shapeName":"Bernheze","shapeISO":"","shapeGroup":"NLD","shapeType":"ADM2","adm1ISO":"NL-NB","parentISO":"NL-NB","parentID":"NLD:ADM1:NL-NB","src_shape_id":"6326949B36275678342581"},"geometry":{"type":"Polygon","coordinates":[[[5.456872,51.687591],[5.448826,51.669552],[5.44563,51.666417],[5.442381,51.6647],[5.43402,51.664527],[5.427651,51.655845],[5.423389,51.653783],[5.465143,51.643116],[5.46778,51.64228],[5.497201,51.626686],[5.502777,51.6311],[5.504858,51.636078],[5.516879,51.631821],[5.524396,51.630438],[5.5266,51.6327],[5.531118,51.63297],[5.533271,51.635337],[5.542235,51.634537],[5.543145,51.6391],[5.542212,51.640296],[5.564383,51.648156],[5.570299,51.651434],[5.567408,51.653507],[5.571095,51.655096],[5.568909,51.659563],[5.566393,51.661344],[5.561965,51.660777],[5.562239,51.663152],[5.56905,51.67103],[5.573594,51.676948],[5.57698,51.678768],[5.576617,51.680369],[5.581914,51.681235],[5.586863,51.683053],[5.596837,51.690922],[5.600228,51.69829],[5.596855,51.702196],[5.595436,51.707526],[5.599167,51.707035],[5.600151,51.708366],[5.588474,51.724977],[5.580881,51.731448],[5.579364,51.73184],[5.571979,51.730938],[5.560164,51.732361],[5.548528,51.736765],[5.540502,51.739248],[5.53411,51.740316],[5.52527,51.740135],[5.515214,51.73843],[5.506711,51.737557],[5.502927,51.736228],[5.489162,51.733141],[5.474244,51.728965],[5.480136,51.724464],[5.478697,51.723895],[5.484596,51.713516],[5.487819,51.712068],[5.497706,51.711711],[5.499655,51.709008],[5.499047,51.707025],[5.492385,51.706101],[5.483229,51.701524],[5.478291,51.701431],[5.469849,51.689137],[5.460326,51.689651],[5.456872,51.687591]]]}},
{"type":"Feature","id":"NLD:ADM2:NL-NB.alphen-chaam","properties":{"shapeName":"Alphen-Chaam","shapeISO":"","shapeGroup":"NLD","shapeType":"ADM2","adm1ISO":"NL-NB","parentISO":"NL-NB","parentID":"NLD:ADM1:NL-NB","src_shape_id":"6326949B83177775989799"},"geometry":{"type":"Polygon","coordinates":[[[5.010462,51.458244],[5.010775,51.459145],[5.007291,51.464634],[5.010835,51.472307],[5.016522,51.475439],[5.015272,51.476329],[5.008338,51.473299],[5.00641,51.47511],[4.999359,51.479283],[4.999176,51.482016],[4.987993,51.483045],[4.992942,51.487623],[4.997228,51.488538],[5.000363,51.491862],[4.997158,51.49205],[4.992466,51.493945],[4.996756,51.496775],[4.994642,51.497651],[4.986739,51.495329],[4.986303,51.501211],[4.988649,51.503522],[4.992298,51.512247],[4.989917,51.513149],[4.982496,51.514088],[4.984554,51.517882],[4.980868,51.518631],[4.977595,51.521651],[4.969069,51.521093],[4.962572,51.525864],[4.956643,51.518676],[4.911062,51.510081],[4.888909,51.523793],[4.866232,51.538067],[4.854563,51.533927],[4.844738,51.533328],[4.84506,51.528482],[4.84072,51.526733],[4.83489,51.527946],[4.829576,51.527937],[4.833353,51.531329],[4.836806,51.532807],[4.834616,51.535149],[4.834605,51.5386],[4.848468,51.54302],[4.851819,51.544684],[4.864005,51.551939],[4.864545,51.553503],[4.862984,51.55727],[4.843703,51.554237],[4.83978,51.553186],[4.837218,51.549587],[4.830769,51.550352],[4.821069,51.546648],[4.809548,51.541719],[4.800188,51.53729],[4.799192,51.535194],[4.794252,51.534897],[4.772368,51.527887],[4.769313,51.525382],[4.763934,51.523569],[4.760185,51.519308],[4.748909,51.518961],[4.747081,51.515275],[4.753519,51.505764],[4.760023,51.502373],[4.772879,51.504953],[4.780905,51.504047],[4.783056,51.500742],[4.78612,51.498845],[4.790866,51.498159],[4.794909,51.499878],[4.798541,51.49972],[4.803196,51.497855],[4.813386,51.495469],[4.816633,51.494056],[4.818217,51.491051],[4.817403,51.489075],[4.820265,51.485794],[4.821142,51.48307],[4.826876,51.48195],[4.837649,51.481955],[4.841872,51.480728],[4.84508,51.480698],[4.852878,51.479399],[4.853929,51.478442],[4.861949,51.47761],[4.871863,51.47947],[4.882138,51.478309],[4.883077,51.477308],[4.891294,51.478217],[4.897541,51.476144],[4.914044,51.469028],[4.932399,51.459135],[4.944662,51.45679],[4.947162,51.458569],[4.957257,51.45989],[4.95936,51.459285],[4.970076,51.458741],[4.977134,51.460682],[5.010462,51.458244]]]}},
{"type":"Feature","id":"NLD:ADM2:NL-NB.bergeijk","properties":{"shapeName":"Bergeijk","shapeISO":"","shapeGroup":"NLD","shapeType":"ADM2","adm1ISO":"NL-NB","parentISO":"NL-NB","parentID":"NLD:ADM1:NL-NB","src_shape_id":"6326949B35085344325863"},"geometry":{"type":"Polygon","coordinates":[[[5.26341,51.319282],[5.260962,51.317096],[5.259217,51.313885],[5.259448,51.311477],[5.243969,51.309387],[5.241118,51.305665],[5.242192,51.305218],[5.231335,51.279675],[5.225972,51.26826],[5.237914,51.261353],[5.263119,51.266802],[5.296153,51.261481],[5.315926,51.263537],[5.336475,51.263067],[5.342646,51.26593],[5.343109,51.268566],[5.346179,51.273148],[5.346253,51.275744],[5.396109,51.266942],[5.41741,51.262285],[5.403796,51.27347],[5.401083,51.274182],[5.39801,51.27767],[5.387802,51.285238],[5.397201,51.29062],[5.392664,51.29399],[5.39481,51.296127],[5.393424,51.29965],[5.395368,51.305918],[5.394261,51.308785],[5.395626,51.309865],[5.397671,51.31432],[5.400718,51.313501],[5.410784,51.319976],[5.413651,51.318646],[5.416486,51.319391],[5.419849,51.318018],[5.423926,51.312507],[5.425798,51.31199],[5.433921,51.32432],[5.424289,51.330759],[5.423034,51.332581],[5.422835,51.337267],[5.421388,51.340649],[5.424973,51.3442],[5.422712,51.348324],[5.423321,51.352632],[5.421576,51.354128],[5.419763,51.358451],[5.419867,51.365082],[5.420973,51.369213],[5.41887,51.371807],[5.4232,51.374858],[5.424529,51.379647],[5.4218,51.38341],[5.418,51.382023],[5.413481,51.383905],[5.408536,51.379806],[5.396539,51.380839],[5.39276,51.37738],[5.388903,51.376455],[5.388316,51.37549],[5.382604,51.372831],[5.37821,51.369393],[5.376017,51.368809],[5.371533,51.369502],[5.364177,51.366877],[5.355828,51.362554],[5.35245,51.361821],[5.3461,51.357901],[5.342587,51.352672],[5.346988,51.347657],[5.341991,51.344218],[5.34712,51.337453],[5.332202,51.333165],[5.322473,51.33166],[5.322916,51.328847],[5.316671,51.323389],[5.308055,51.321828],[5.292173,51.318237],[5.26341,51.319282]]]}},
{"type":"Feature","id":"NLD:ADM2:NL-NB.bladel","properties":{"shapeName":"Bladel","shapeISO":"","shapeGroup":"NLD","shapeType":"ADM2","adm1ISO":"NL-NB","parentISO":"NL-NB","parentID":"NLD:ADM1:NL-NB","src_shape_id":"6326949B15659642618503"},"geometry":{"type":"Polygon","coordinates":[[[5.237704,51.428559],[5.229284,51.425452],[5.223537,51.425083],[5.22314,51.427921],[5.217571,51.430429],[5.215771,51.43418],[5.209936,51.434171],[5.209217,51.4365],[5.205019,51.434333],[5.19542,51.430783],[5.191024,51.430225],[5.191019,51.430216],[5.190851,51.418211],[5.19477,51.399856],[5.200959,51.390066],[5.197402,51.384018],[5.199268,51.382308],[5.192963,51.378272],[5.188508,51.37762],[5.187987,51.374513],[5.190436,51.372054],[5.192138,51.364797],[5.196355,51.363255],[5.191933,51.361633],[5.192283,51.350877],[5.194494,51.351075],[5.196037,51.347943],[5.193865,51.345226],[5.204698,51.325438],[5.200255,51.322661],[5.241118,51.305665],[5.243969,51.309387],[5.259448,51.311477],[5.259217,51.313885],[5.260962,51.317096],[5.26341,51.319282],[5.285972,51.336339],[5.275298,51.362723],[5.279765,51.375329],[5.285915,51.38447],[5.290323,51.38613],[5.289239,51.388908],[5.298885,51.389687],[5.302711,51.390711],[5.310865,51.390715],[5.310443,51.396055],[5.313649,51.399441],[5.307196,51.406252],[5.302846,51.407531],[5.296115,51.407729],[5.290537,51.404208],[5.286617,51.404751],[5.281897,51.404369],[5.278854,51.40834],[5.272903,51.40947],[5.248775,51.422558],[5.244782,51.426254],[5.24338,51.425482],[5.237704,51.428559]]]}},
{"type":"Feature","id":"NLD:ADM2:NL-NB.geldrop-mierlo","properties":{"shapeName":"Geldrop-Mierlo","shapeISO":"","shapeGroup":"NLD","shapeType":"ADM2","adm1ISO":"NL-NB","parentISO":"NL-NB","parentID":"NLD:ADM1:NL-NB","src_shape_id":"6326949B89092473221427"},"geometry":{"type":"Polygon","coordinates":[[[5.525814,51.404697],[5.535862,51.404542],[5.536379,51.403193],[5.54375,51.404665],[5.554636,51.405044],[5.56066,51.405768],[5.564166,51.404784],[5.565859,51.407298],[5.569079,51.408742],[5.594032,51.417245],[5.605422,51.41925],[5.639015,51.422456],[5.642848,51.434343],[5.644076,51.440853],[5.648265,51.441507],[5.653307,51.446385],[5.654115,51.449398],[5.656298,51.452826],[5.656468,51.456559],[5.643096,51.45606],[5.621015,51.450077],[5.608056,51.449716],[5.608817,51.451698],[5.604795,51.452779],[5.601004,51.45217],[5.597034,51.456497],[5.592821,51.45834],[5.590515,51.45776],[5.584708,51.460509],[5.571172,51.447731],[5.566164,51.441484],[5.548678,51.434677],[5.544215,51.432438],[5.539161,51.431285],[5.531813,51.432008],[5.530348,51.4272],[5.525166,51.427854],[5.525814,51.404697]]]}},
{"type":"Feature","id":"NLD:ADM2:NL-NB.meierijstad","properties":{"shapeName":"Meierijstad","shapeISO":"","shapeGroup":"NLD","shapeType":"ADM2","adm1ISO":"NL-NB","parentISO":"NL-NB","parentID":"NLD:ADM1:NL-NB","src_shape_id":"6326949B86116845039505"},"geometry":{"type":"Polygon","coordinates":[[[5.423841,51.534055],[5.429833,51.53497],[5.431571,51.533347],[5.434595,51.53441],[5.437411,51.533972],[5.465887,51.539839],[5.472595,51.540762],[5.487144,51.541848],[5.488241,51.540328],[5.488814,51.533285],[5.493448,51.526685],[5.49827,51.528529],[5.50257,51.527293],[5.499937,51.525287],[5.50026,51.521397],[5.505452,51.521667],[5.513014,51.524311],[5.518951,51.522269],[5.522612,51.52343],[5.525047,51.521869],[5.530862,51.525048],[5.547436,51.537732],[5.543014,51.540014],[5.545206,51.541687],[5.533082,51.557803],[5.553453,51.558304],[5.584249,51.562714],[5.608275,51.559579],[5.614224,51.554604],[5.618191,51.555841],[5.619233,51.553996],[5.627213,51.555277],[5.630369,51.558396],[5.641669,51.56511],[5.645106,51.565806],[5.647381,51.567575],[5.652485,51.569678],[5.656439,51.57418],[5.651806,51.579944],[5.651356,51.58236],[5.650668,51.586704],[5.648521,51.593638],[5.642883,51.606256],[5.633673,51.615424],[5.626567,51.623401],[5.623199,51.626752],[5.616215,51.6302],[5.60747,51.633777],[5.602272,51.629413],[5.595068,51.634148],[5.593035,51.633787],[5.586825,51.638039],[5.585776,51.639533],[5.588319,51.642716],[5.579746,51.64591],[5.571609,51.651171],[5.570299,51.651434],[5.564383,51.648156],[5.542212,51.640296],[5.543145,51.6391],[5.542235,51.634537],[5.533271,51.635337],[5.531118,51.63297],[5.5266,51.6327],[5.524396,51.630438],[5.516879,51.631821],[5.504858,51.636078],[5.502777,51.6311],[5.497201,51.626686],[5.46778,51.64228],[5.465143,51.643116],[5.423389,51.653783],[5.414643,51.655702],[5.415095,51.654079],[5.41108,51.652691],[5.410656,51.650475],[5.405883,51.650205],[5.405959,51.648312],[5.401496,51.647754],[5.400041,51.646567],[5.391858,51.64565],[5.384191,51.645905],[5.378085,51.646645],[5.379591,51.644151],[5.371867,51.641931],[5.376389,51.638327],[5.37136,51.637226],[5.371596,51.63316],[5.375253,51.633649],[5.383284,51.631604],[5.383375,51.627721],[5.386372,51.626497],[5.383852,51.624086],[5.385916,51.620906],[5.388946,51.621343],[5.388429,51.61791],[5.391086,51.616446],[5.391251,51.611369],[5.394856,51.605842],[5.390391,51.605472],[5.380528,51.602902],[5.386211,51.600869],[5.381442,51.596203],[5.384459,51.593677],[5.386157,51.590614],[5.381442,51.587601],[5.385613,51.586055],[5.389711,51.583404],[5.392925,51.580033],[5.392966,51.57543],[5.395551,51.576574],[5.400159,51.575672],[5.402498,51.571714],[5.399089,51.571372],[5.39816,51.565517],[5.399125,51.563283],[5.40153,51.561931],[5.405197,51.562021],[5.402809,51.557778],[5.404218,51.554559],[5.404232,51.548291],[5.405359,51.548353],[5.410934,51.542269],[5.42015,51.538672],[5.423841,51.534055]]]}},
{"type":"Feature","id":"NLD:ADM2:NL-NB.altena","properties":{"shapeName":"Altena","shapeISO":"","shapeGroup":"NLD","shapeType":"ADM2","adm1ISO":"NL-NB","parentISO":"NL-NB","parentID":"NLD:ADM1:NL-NB","src_shape_id":"6326949B90099876945918"},"geometry":{"type":"Polygon","coordinates":[[[5.000362,51.820933],[4.987756,51.82106],[4.97595,51.822655],[4.962615,51.824764],[4.942442,51.827242],[4.936063,51.828315],[4.926986,51.828306],[4.918598,51.827482],[4.911273,51.825982],[4.904092,51.823948],[4.8894,51.818895],[4.884642,51.816472],[4.876053,51.811883],[4.865809,51.805613],[4.854413,51.800683],[4.845984,51.798757],[4.836108,51.797839],[4.828871,51.798021],[4.816371,51.79966],[4.806875,51.800337],[4.797193,51.79977],[4.781808,51.795936],[4.773538,51.793325],[4.765433,51.789363],[4.758403,51.784415],[4.755239,51.781612],[4.750568,51.775762],[4.744788,51.763488],[4.740769,51.758819],[4.729445,51.750711],[4.717281,51.743819],[4.703745,51.736928],[4.693263,51.732282],[4.681597,51.728419],[4.676304,51.724924],[4.677286,51.720111],[4.698553,51.721992],[4.721842,51.734272],[4.73365,51.736508],[4.73745,51.741301],[4.747363,51.746623],[4.747901,51.748772],[4.750726,51.75229],[4.755113,51.755044],[4.760892,51.757622],[4.764199,51.759858],[4.766351,51.758999],[4.772109,51.75933],[4.782448,51.766569],[4.785403,51.755933],[4.802501,51.757587],[4.812862,51.756635],[4.822275,51.753857],[4.831657,51.753818],[4.84188,51.756687],[4.84675,51.757057],[4.85194,51.75588],[4.853125,51.750749],[4.85248,51.74868],[4.849278,51.744216],[4.85023,51.738574],[4.846931,51.735896],[4.846937,51.725524],[4.840663,51.716324],[4.836904,51.712612],[4.850316,51.715629],[4.862098,51.717673],[4.873054,51.719999],[4.880414,51.720149],[4.89123,51.719662],[4.900263,51.718667],[4.909979,51.719047],[4.91799,51.71996],[4.93245,51.722012],[4.943233,51.722976],[4.951534,51.723024],[4.960894,51.722413],[4.969381,51.721209],[4.979471,51.71918],[4.996951,51.714959],[5.006016,51.713309],[5.014822,51.712168],[5.027445,51.711073],[5.038473,51.710817],[5.044988,51.710997],[5.054232,51.711903],[5.065644,51.714887],[5.075058,51.718877],[5.08176,51.722344],[5.090467,51.726819],[5.09924,51.730399],[5.111848,51.734391],[5.128055,51.737607],[5.126192,51.738742],[5.125733,51.74412],[5.127564,51.745923],[5.138112,51.750726],[5.142714,51.75521],[5.137652,51.757628],[5.135806,51.762116],[5.139599,51.769311],[5.139399,51.771107],[5.135094,51.773828],[5.127838,51.775102],[5.116229,51.778837],[5.10878,51.783702],[5.104857,51.785725],[5.100277,51.787151],[5.094432,51.787594],[5.088593,51.785805],[5.083794,51.78178],[5.079994,51.779943],[5.074248,51.77907],[5.066965,51.780553],[5.061043,51.785283],[5.057118,51.790695],[5.052343,51.795694],[5.047944,51.798213],[5.036133,51.801725],[5.029114,51.803026],[5.024749,51.804524],[5.014539,51.808985],[5.011695,51.811232],[5.010039,51.813914],[5.009324,51.817512],[5.000362,51.820933]]]}},
{"type":"Feature","id":"NLD:ADM2:NL-NB.land-van-cuijk","properties":{"shapeName":"Land van Cuijk","shapeISO":"","shapeGroup":"NLD","shapeType":"ADM2","adm1ISO":"NL-NB","parentISO":"NL-NB","parentID":"NLD:ADM1:NL-NB","src_shape_id":"6326949B56936528103985"},"geometry":{"type":"Polygon","coordinates":[[[5.729745,51.772851],[5.724799,51.774378],[5.720456,51.774956],[5.711229,51.775034],[5.708163,51.772546],[5.701047,51.768747],[5.698665,51.765981],[5.696035,51.76134],[5.690858,51.759131],[5.694241,51.755488],[5.701923,51.755529],[5.69991,51.750468],[5.703493,51.750473],[5.701378,51.744466],[5.698116,51.738507],[5.707911,51.736582],[5.706095,51.732122],[5.709862,51.731808],[5.718811,51.732926],[5.718062,51.731103],[5.711364,51.729523],[5.712697,51.726291],[5.710036,51.726056],[5.705408,51.722432],[5.699959,51.711451],[5.734358,51.677622],[5.747667,51.632698],[5.750477,51.622683],[5.758614,51.593946],[5.786677,51.598208],[5.788341,51.594191],[5.800585,51.578621],[5.820552,51.568558],[5.838237,51.566414],[5.891465,51.560204],[5.906661,51.55203],[5.935444,51.5536],[5.976345,51.561637],[5.99345,51.566697],[6.004251,51.570243],[6.018211,51.563334],[6.031667,51.552338],[6.033686,51.555447],[6.03263,51.55682],[6.037306,51.558149],[6.040135,51.556666],[6.048119,51.558462],[6.04379,51.56143],[6.040175,51.565134],[6.037553,51.570424],[6.037959,51.574829],[6.039591,51.579724],[6.039333,51.582846],[6.037143,51.586254],[6.033388,51.589682],[6.028784,51.592855],[6.02628,51.595576],[6.024046,51.60076],[6.023852,51.616125],[6.020629,51.621291],[6.007227,51.63021],[5.996015,51.63687],[5.981849,51.642612],[5.976606,51.643782],[5.972385,51.64557],[5.967468,51.649284],[5.964255,51.654154],[5.963275,51.661429],[5.964673,51.673772],[5.96371,51.680687],[5.962403,51.684575],[5.956566,51.69894],[5.956178,51.707247],[5.953202,51.710916],[5.948926,51.712872],[5.942956,51.714446],[5.927705,51.717097],[5.919469,51.717671],[5.912001,51.717876],[5.899566,51.720189],[5.893782,51.722063],[5.886634,51.726265],[5.885403,51.728314],[5.883337,51.738164],[5.880597,51.744356],[5.880326,51.748549],[5.876733,51.752093],[5.869187,51.756116],[5.864468,51.757681],[5.852149,51.759317],[5.846354,51.759187],[5.833307,51.758087],[5.818815,51.757305],[5.807219,51.756305],[5.799969,51.755351],[5.789813,51.753382],[5.781114,51.752306],[5.775319,51.7521],[5.765188,51.75279],[5.759403,51.753842],[5.752177,51.755869],[5.745238,51.759144],[5.739428,51.764555],[5.735552,51.769061],[5.729745,51.772851]]]}},
{"type":"Feature","id":"NLD:ADM2:NL-NB.maashorst","properties":{"shapeName":"Maashorst","shapeISO":"","shapeGroup":"NLD","shapeType":"ADM2","adm1ISO":"NL-NB","parentISO":"NL-NB","parentID":"NLD:ADM1:NL-NB","src_shape_id":"6326949B62746426981431"},"geometry":{"type":"Polygon","coordinates":[[[5.750477,51.622683],[5.747667,51.632698],[5.734358,51.677622],[5.699959,51.711451],[5.705408,51.722432],[5.710036,51.726056],[5.712697,51.726291],[5.711364,51.729523],[5.718062,51.731103],[5.718811,51.732926],[5.709862,51.731808],[5.706095,51.732122],[5.707911,51.736582],[5.698116,51.738507],[5.701378,51.744466],[5.703493,51.750473],[5.69991,51.750468],[5.701923,51.755529],[5.694241,51.755488],[5.690858,51.759131],[5.68509,51.759517],[5.680139,51.761353],[5.677242,51.76362],[5.673673,51.767704],[5.669964,51.762604],[5.667279,51.752221],[5.660117,51.755799],[5.652547,51.761987],[5.648218,51.76364],[5.633773,51.760833],[5.63455,51.757956],[5.620034,51.755921],[5.61199,51.754454],[5.602628,51.751622],[5.597324,51.750598],[5.596605,51.747413],[5.57627,51.744877],[5.577477,51.735761],[5.580881,51.731448],[5.588474,51.724977],[5.600151,51.708366],[5.599167,51.707035],[5.595436,51.707526],[5.596855,51.702196],[5.600228,51.69829],[5.596837,51.690922],[5.586863,51.683053],[5.581914,51.681235],[5.576617,51.680369],[5.57698,51.678768],[5.573594,51.676948],[5.56905,51.67103],[5.562239,51.663152],[5.561965,51.660777],[5.566393,51.661344],[5.568909,51.659563],[5.571095,51.655096],[5.567408,51.653507],[5.570299,51.651434],[5.571609,51.651171],[5.579746,51.64591],[5.588319,51.642716],[5.585776,51.639533],[5.586825,51.638039],[5.593035,51.633787],[5.595068,51.634148],[5.602272,51.629413],[5.60747,51.633777],[5.616215,51.6302],[5.623199,51.626752],[5.626567,51.623401],[5.635412,51.625348],[5.650981,51.625711],[5.651299,51.626672],[5.664906,51.628337],[5.672606,51.628688],[5.674302,51.628158],[5.686654,51.628123],[5.74006,51.622496],[5.750477,51.622683]]]}}
]}