{"type":"FeatureCollection","bbox":[4.79208,51.857361,5.627309,52.303393],"features":[
{"type":"Feature","id":"NLD:ADM2:NL-UT.amersfoort","properties":{"shapeName":"Amersfoort","shapeISO":"","shapeGroup":"NLD","shapeType":"ADM2","adm1ISO":"NL-UT","parentISO":"NL-UT","parentID":"NLD:ADM1:NL-UT","src_shape_id":"6326949B34184194665398"},"geometry":{"type":"Polygon","coordinates":[[[5.479923,52.165815],[5.475752,52.165762],[5.44662,52.168007],[5.442932,52.169177],[5.439876,52.171198],[5.440136,52.173219],[5.439043,52.184128],[5.440164,52.192034],[5.439356,52.200688],[5.441147,52.204314],[5.436383,52.205297],[5.42959,52.208358],[5.421029,52.213195],[5.40967,52.21858],[5.407222,52.213405],[5.395523,52.219155],[5.392736,52.205529],[5.381082,52.207132],[5.378428,52.207056],[5.367611,52.20869],[5.364434,52.209845],[5.358364,52.209716],[5.330542,52.214733],[5.32791,52.209086],[5.330072,52.203247],[5.314282,52.203024],[5.309289,52.19452],[5.311758,52.191019],[5.314733,52.191579],[5.320892,52.190158],[5.324366,52.187977],[5.325122,52.185276],[5.323563,52.182839],[5.32574,52.181874],[5.333714,52.183181],[5.337467,52.182324],[5.341555,52.177762],[5.349898,52.175606],[5.343484,52.160271],[5.33872,52.160057],[5.336293,52.145848],[5.330969,52.137291],[5.330643,52.135704],[5.333852,52.131346],[5.331268,52.126631],[5.325386,52.122636],[5.311583,52.114143],[5.306458,52.110272],[5.31092,52.108385],[5.318283,52.113171],[5.328577,52.118528],[5.334036,52.120415],[5.35563,52.136826],[5.370458,52.131571],[5.374614,52.130986],[5.392143,52.13294],[5.397125,52.133952],[5.404485,52.138895],[5.413394,52.147591],[5.417844,52.154785],[5.423608,52.157637],[5.432924,52.159055],[5.438619,52.161326],[5.442868,52.161289],[5.45194,52.15704],[5.454262,52.155145],[5.459582,52.152877],[5.469863,52.15285],[5.476963,52.152167],[5.481342,52.150501],[5.482591,52.15146],[5.484325,52.158008],[5.47814,52.161718],[5.472866,52.161849],[5.472982,52.163823],[5.478883,52.164402],[5.479923,52.165815]]]}},
{"type":"Feature","id":"NLD:ADM2:NL-UT.baarn","properties":{"shapeName":"Baarn","shapeISO":"","shapeGroup":"NLD","shapeType":"ADM2","adm1ISO":"NL-UT","parentISO":"NL-UT","parentID":"NLD:ADM1:NL-UT","src_shape_id":"6326949B71920055315965"},"geometry":{"type":"Polygon","coordinates":[[[5.330542,52.214733],[5.334346,52.220183],[5.335542,52.228453],[5.322509,52.230496],[5.312278,52.23283],[5.308067,52.231775],[5.306748,52.229828],[5.310434,52.227765],[5.311207,52.224568],[5.314586,52.223761],[5.312132,52.221213],[5.305708,52.219683],[5.30097,52.223525],[5.29409,52.22354],[5.287464,52.222884],[5.283695,52.223497],[5.263109,52.224226],[5.22473,52.225198],[5.21896,52.212129],[5.215501,52.204274],[5.216301,52.203042],[5.214232,52.200787],[5.213254,52.190083],[5.216003,52.188062],[5.212075,52.176375],[5.220995,52.178261],[5.222701,52.174688],[5.223046,52.169515],[5.224999,52.1657],[5.236316,52.167459],[5.235985,52.1711],[5.237901,52.171251],[5.239041,52.167623],[5.243172,52.170077],[5.247165,52.174379],[5.262274,52.184118],[5.270216,52.188526],[5.281549,52.192501],[5.282499,52.192075],[5.304018,52.200011],[5.307895,52.203057],[5.31387,52.204181],[5.314282,52.203024],[5.330072,52.203247],[5.32791,52.209086],[5.330542,52.214733]]]}},
{"type":"Feature","id":"NLD:ADM2:NL-UT.de-bilt","properties":{"shapeName":"De Bilt","shapeISO":"","shapeGroup":"NLD","shapeType":"ADM2","adm1ISO":"NL-UT","parentISO":"NL-UT","parentID":"NLD:ADM1:NL-UT","src_shape_id":"6326949B89861616771264"},"geometry":{"type":"Polygon","coordinates":[[[5.215501,52.204274],[5.192586,52.177834],[5.189316,52.177681],[5.143358,52.18027],[5.141703,52.180081],[5.12411,52.180828],[5.121359,52.180956],[5.115294,52.179853],[5.118762,52.172349],[5.09489,52.155349],[5.120529,52.145541],[5.11334,52.13924],[5.107093,52.133211],[5.126523,52.124604],[5.140397,52.120993],[5.146915,52.120382],[5.149182,52.118787],[5.14868,52.115477],[5.15038,52.110875],[5.161915,52.107215],[5.15619,52.098593],[5.160611,52.094782],[5.166874,52.093705],[5.170646,52.093927],[5.186169,52.092927],[5.18974,52.08635],[5.192751,52.086076],[5.205537,52.084912],[5.210587,52.090314],[5.208608,52.093619],[5.212727,52.097674],[5.210819,52.1007],[5.222328,52.103893],[5.220243,52.106991],[5.218219,52.113673],[5.23093,52.116789],[5.229473,52.129538],[5.229574,52.134586],[5.224999,52.1657],[5.223046,52.169515],[5.222701,52.174688],[5.220995,52.178261],[5.212075,52.176375],[5.216003,52.188062],[5.213254,52.190083],[5.214232,52.200787],[5.216301,52.203042],[5.215501,52.204274]]]}},
{"type":"Feature","id":"NLD:ADM2:NL-UT.bunnik","properties":{"shapeName":"Bunnik","shapeISO":"","shapeGroup":"NLD","shapeType":"ADM2","adm1ISO":"NL-UT","parentISO":"NL-UT","parentID":"NLD:ADM1:NL-UT","src_shape_id":"6326949B29533693769224"},"geometry":{"type":"Polygon","coordinates":[[[5.24319,51.998793],[5.259562,52.001],[5.264736,52.00322],[5.266835,51.999442],[5.272219,51.997758],[5.277487,52.000062],[5.275807,52.002484],[5.275701,52.005721],[5.27991,52.010722],[5.271693,52.01461],[5.269884,52.018326],[5.263239,52.02438],[5.270885,52.027424],[5.269353,52.029102],[5.26388,52.03197],[5.257581,52.032638],[5.257752,52.03831],[5.255127,52.037949],[5.251083,52.039225],[5.248976,52.042015],[5.251037,52.045757],[5.248006,52.047413],[5.248959,52.049778],[5.251541,52.052034],[5.251226,52.054816],[5.247423,52.058647],[5.24559,52.058487],[5.224389,52.05942],[5.21846,52.060239],[5.225021,52.064922],[5.206296,52.073687],[5.200548,52.076812],[5.195154,52.077346],[5.193101,52.077884],[5.181401,52.076192],[5.179286,52.077902],[5.171606,52.078675],[5.166917,52.076681],[5.162397,52.07861],[5.160546,52.078046],[5.155657,52.071407],[5.1564,52.069058],[5.159502,52.067263],[5.156899,52.063455],[5.157754,52.058344],[5.15303,52.056757],[5.160743,52.045515],[5.17883,52.045687],[5.17893,52.04634],[5.191556,52.043036],[5.189334,52.039329],[5.189339,52.037268],[5.192503,52.034409],[5.195432,52.036427],[5.199449,52.033717],[5.2009,52.031501],[5.199097,52.025407],[5.200364,52.022742],[5.203527,52.020076],[5.201991,52.01747],[5.219374,52.015216],[5.224035,52.013704],[5.231539,52.009546],[5.234677,52.005677],[5.24319,51.998793]]]}},
{"type":"Feature","id":"NLD:ADM2:NL-UT.bunschoten","properties":{"shapeName":"Bunschoten","shapeISO":"","shapeGroup":"NLD","shapeType":"ADM2","adm1ISO":"NL-UT","parentISO":"NL-UT","parentID":"NLD:ADM1:NL-UT","src_shape_id":"6326949B68264290320811"},"geometry":{"type":"Polygon","coordinates":[[[5.339564,52.287732],[5.327158,52.266564],[5.322367,52.263578],[5.322641,52.261038],[5.328369,52.257171],[5.327184,52.254138],[5.324447,52.253038],[5.316122,52.252474],[5.313159,52.250981],[5.310457,52.245367],[5.311155,52.241184],[5.313319,52.234156],[5.312278,52.23283],[5.322509,52.230496],[5.335542,52.228453],[5.334346,52.220183],[5.330542,52.214733],[5.358364,52.209716],[5.364434,52.209845],[5.367611,52.20869],[5.378428,52.207056],[5.381082,52.207132],[5.392736,52.205529],[5.395523,52.219155],[5.393216,52.220635],[5.394944,52.22552],[5.404644,52.249631],[5.402897,52.249528],[5.393237,52.255157],[5.339564,52.287732]]]}},
{"type":"Feature","id":"NLD:ADM2:NL-UT.eemnes","properties":{"shapeName":"Eemnes","shapeISO":"","shapeGroup":"NLD","shapeType":"ADM2","adm1ISO":"NL-UT","parentISO":"NL-UT","parentID":"NLD:ADM1:NL-UT","src_shape_id":"6326949B88613917422763"},"geometry":{"type":"Polygon","coordinates":[[[5.335462,52.290219],[5.305826,52.27733],[5.265978,52.281927],[5.244081,52.254663],[5.245093,52.254432],[5.222901,52.225262],[5.22473,52.225198],[5.263109,52.224226],[5.283695,52.223497],[5.287464,52.222884],[5.29409,52.22354],[5.30097,52.223525],[5.305708,52.219683],[5.312132,52.221213],[5.314586,52.223761],[5.311207,52.224568],[5.310434,52.227765],[5.306748,52.229828],[5.308067,52.231775],[5.312278,52.23283],[5.313319,52.234156],[5.311155,52.241184],[5.310457,52.245367],[5.313159,52.250981],[5.316122,52.252474],[5.324447,52.253038],[5.327184,52.254138],[5.328369,52.257171],[5.322641,52.261038],[5.322367,52.263578],[5.327158,52.266564],[5.339564,52.287732],[5.335462,52.290219]]]}},
{"type":"Feature","id":"NLD:ADM2:NL-UT.houten","properties":{"shapeName":"Houten","shapeISO":"","shapeGroup":"NLD","shapeType":"ADM2","adm1ISO":"NL-UT","parentISO":"NL-UT","parentID":"NLD:ADM1:NL-UT","src_shape_id":"6326949B44228368891089"},"geometry":{"type":"Polygon","coordinates":[[[5.256266,51.970939],[5.266445,51.976086],[5.271446,51.981134],[5.254141,51.986071],[5.253325,51.992335],[5.256182,51.99374],[5.245385,51.995984],[5.24319,51.998793],[5.234677,52.005677],[5.231539,52.009546],[5.224035,52.013704],[5.219374,52.015216],[5.201991,52.01747],[5.203527,52.020076],[5.200364,52.022742],[5.199097,52.025407],[5.2009,52.031501],[5.199449,52.033717],[5.195432,52.036427],[5.192503,52.034409],[5.189339,52.037268],[5.189334,52.039329],[5.191556,52.043036],[5.17893,52.04634],[5.17883,52.045687],[5.160743,52.045515],[5.15303,52.056757],[5.14519,52.05253],[5.126832,52.054918],[5.124718,52.049915],[5.129493,52.049245],[5.121774,52.030433],[5.130993,52.024724],[5.128386,52.024781],[5.12316,52.009489],[5.119563,51.999924],[5.13677,51.995673],[5.140186,51.993487],[5.142324,51.989539],[5.145249,51.979217],[5.148784,51.97492],[5.155094,51.971586],[5.160953,51.97047],[5.172721,51.969617],[5.180226,51.967448],[5.187335,51.963951],[5.194641,51.961208],[5.200248,51.959939],[5.205988,51.959433],[5.211645,51.960146],[5.219737,51.963871],[5.224372,51.968284],[5.229912,51.975649],[5.234201,51.978063],[5.23978,51.97894],[5.24526,51.978],[5.247575,51.976906],[5.256266,51.970939]]]}},
{"type":"Feature","id":"NLD:ADM2:NL-UT.leusden","properties":{"shapeName":"Leusden","shapeISO":"","shapeGroup":"NLD","shapeType":"ADM2","adm1ISO":"NL-UT","parentISO":"NL-UT","parentID":"NLD:ADM1:NL-UT","src_shape_id":"6326949B9331427196027"},"geometry":{"type":"Polygon","coordinates":[[[5.481342,52.150501],[5.476963,52.152167],[5.469863,52.15285],[5.459582,52.152877],[5.454262,52.155145],[5.45194,52.15704],[5.442868,52.161289],[5.438619,52.161326],[5.432924,52.159055],[5.423608,52.157637],[5.417844,52.154785],[5.413394,52.147591],[5.404485,52.138895],[5.397125,52.133952],[5.392143,52.13294],[5.374614,52.130986],[5.370458,52.131571],[5.35563,52.136826],[5.334036,52.120415],[5.328577,52.118528],[5.318283,52.113171],[5.31092,52.108385],[5.322462,52.101901],[5.326229,52.099776],[5.334297,52.096334],[5.340567,52.095032],[5.366021,52.091765],[5.379327,52.090372],[5.400633,52.08936],[5.400781,52.091879],[5.404521,52.104107],[5.409919,52.103295],[5.41495,52.100141],[5.42019,52.098163],[5.422007,52.096651],[5.424769,52.097044],[5.429169,52.095961],[5.432381,52.096849],[5.437983,52.099791],[5.442135,52.104215],[5.443807,52.107075],[5.457981,52.105336],[5.467516,52.100401],[5.472465,52.101739],[5.475131,52.106891],[5.47638,52.113601],[5.479079,52.117426],[5.486447,52.11536],[5.488014,52.116091],[5.495626,52.115586],[5.498917,52.116018],[5.50377,52.11381],[5.507549,52.115645],[5.503756,52.116586],[5.505354,52.119751],[5.496918,52.119558],[5.495094,52.121938],[5.496759,52.124815],[5.497901,52.130161],[5.501372,52.129932],[5.50501,52.131104],[5.512171,52.132194],[5.513536,52.135774],[5.511685,52.137497],[5.502743,52.139567],[5.497306,52.141444],[5.498983,52.147394],[5.496503,52.147329],[5.485248,52.14906],[5.481342,52.150501]]]}},
{"type":"Feature","id":"NLD:ADM2:NL-UT.lopik","properties":{"shapeName":"Lopik","shapeISO":"","shapeGroup":"NLD","shapeType":"ADM2","adm1ISO":"NL-UT","parentISO":"NL-UT","parentID":"NLD:ADM1:NL-UT","src_shape_id":"6326949B97795105718991"},"geometry":{"type":"Polygon","coordinates":[[[4.877793,51.93803],[4.88511,51.938586],[4.914011,51.942436],[4.918002,51.943987],[4.921328,51.946266],[4.926301,51.950928],[4.934563,51.960611],[4.941567,51.963834],[4.95046,51.9632],[4.958919,51.960502],[4.965298,51.959217],[4.968664,51.959523],[4.976143,51.963445],[4.98594,51.972551],[4.991862,51.975853],[4.998073,51.977872],[5.003009,51.978138],[5.010077,51.975544],[5.016103,51.97214],[5.022375,51.969727],[5.029673,51.969203],[5.034054,51.97017],[5.03883,51.974136],[5.041044,51.978492],[5.044995,51.981959],[5.050328,51.984982],[5.059346,51.989136],[5.062638,51.991233],[5.053082,51.995385],[5.05424,51.996319],[5.042362,52.00569],[5.034063,52.003846],[5.020295,52.025627],[4.995195,52.021721],[4.992162,52.021033],[4.984706,52.021106],[4.976061,52.020361],[4.959297,52.017657],[4.954918,52.017347],[4.920045,52.010014],[4.913888,52.011078],[4.908845,52.010826],[4.892191,52.005014],[4.878306,52.000755],[4.861544,51.994631],[4.835218,51.986143],[4.834102,51.985612],[4.845486,51.975241],[4.847981,51.97492],[4.860937,51.967475],[4.864072,51.963911],[4.865804,51.960416],[4.871223,51.954643],[4.877584,51.939303],[4.877793,51.93803]]]}},
{"type":"Feature","id":"NLD:ADM2:NL-UT.montfoort","properties":{"shapeName":"Montfoort","shapeISO":"","shapeGroup":"NLD","shapeType":"ADM2","adm1ISO":"NL-UT","parentISO":"NL-UT","parentID":"NLD:ADM1:NL-UT","src_shape_id":"6326949B42908335421355"},"geometry":{"type":"Polygon","coordinates":[[[4.995195,52.021721],[4.994046,52.02974],[4.983139,52.027786],[4.978379,52.039723],[4.983276,52.040237],[4.99011,52.052199],[5.000269,52.053719],[5.00443,52.055517],[5.010283,52.053741],[5.017074,52.061143],[5.01801,52.062219],[4.999498,52.066132],[4.996089,52.067343],[4.982953,52.064984],[4.970501,52.06756],[4.956773,52.065933],[4.956333,52.0703],[4.945171,52.075803],[4.939117,52.078034],[4.936142,52.079921],[4.930847,52.079286],[4.924661,52.077591],[4.917797,52.074686],[4.908616,52.072042],[4.905083,52.070015],[4.903041,52.070615],[4.888985,52.068908],[4.873201,52.068746],[4.868225,52.063447],[4.871458,52.059225],[4.875507,52.06158],[4.895412,52.048234],[4.895739,52.05048],[4.906505,52.053476],[4.917118,52.043791],[4.911398,52.040182],[4.926681,52.029987],[4.924026,52.026526],[4.920059,52.025558],[4.912426,52.025291],[4.904975,52.026478],[4.917643,52.013326],[4.920045,52.010014],[4.954918,52.017347],[4.959297,52.017657],[4.976061,52.020361],[4.984706,52.021106],[4.992162,52.021033],[4.995195,52.021721]]]}},
{"type":"Feature","id":"NLD:ADM2:NL-UT.renswoude","properties":{"shapeName":"Renswoude","shapeISO":"","shapeGroup":"NLD","shapeType":"ADM2","adm1ISO":"NL-UT","parentISO":"NL-UT","parentID":"NLD:ADM1:NL-UT","src_shape_id":"6326949B98381179699630"},"geometry":{"type":"Polygon","coordinates":[[[5.531543,52.102267],[5.532817,52.099984],[5.53916,52.097814],[5.538764,52.09637],[5.535079,52.092875],[5.538294,52.09269],[5.537118,52.088644],[5.530856,52.089775],[5.526634,52.084904],[5.531032,52.084017],[5.531245,52.082419],[5.526896,52.08068],[5.522654,52.077542],[5.519437,52.079227],[5.509923,52.07905],[5.509204,52.07697],[5.50507,52.076911],[5.504584,52.07335],[5.502092,52.073345],[5.499882,52.071335],[5.496128,52.071678],[5.495554,52.07083],[5.497876,52.057018],[5.514158,52.054886],[5.515681,52.054191],[5.516431,52.047764],[5.525999,52.041369],[5.529348,52.040202],[5.53142,52.039469],[5.535379,52.041466],[5.538818,52.041265],[5.540729,52.04267],[5.544639,52.049373],[5.557903,52.048865],[5.557574,52.050374],[5.559815,52.05955],[5.560782,52.06859],[5.559212,52.071043],[5.561443,52.073286],[5.562746,52.078278],[5.560589,52.08194],[5.560778,52.084394],[5.556687,52.085483],[5.555264,52.088097],[5.554429,52.095392],[5.550563,52.096394],[5.554236,52.100151],[5.550343,52.10542],[5.54154,52.103737],[5.531543,52.102267]]]}},
{"type":"Feature","id":"NLD:ADM2:NL-UT.rhenen","properties":{"shapeName":"Rhenen","shapeISO":"","shapeGroup":"NLD","shapeType":"ADM2","adm1ISO":"NL-UT","parentISO":"NL-UT","parentID":"NLD:ADM1:NL-UT","src_shape_id":"6326949B30016596145373"},"geometry":{"type":"Polygon","coordinates":[[[5.586617,51.950829],[5.590992,51.949776],[5.60594,51.943125],[5.616428,51.949353],[5.620446,51.948166],[5.620163,51.951498],[5.627309,51.952473],[5.627255,51.954962],[5.624978,51.960065],[5.620258,51.966582],[5.624856,51.970448],[5.626159,51.973888],[5.620083,51.977431],[5.615031,51.982808],[5.613813,51.990343],[5.609972,51.993691],[5.606017,51.994164],[5.602515,51.994998],[5.596556,51.999201],[5.591998,52.001392],[5.590808,52.003025],[5.591113,52.007301],[5.589489,52.009455],[5.570478,51.996958],[5.558045,52.003632],[5.553229,51.999031],[5.551095,51.999807],[5.540339,52.006982],[5.53514,52.008887],[5.532366,52.0109],[5.533676,52.012665],[5.528488,52.013402],[5.512592,52.018516],[5.498294,51.999882],[5.494201,51.994901],[5.490897,51.996561],[5.485293,51.990965],[5.484594,51.98776],[5.480641,51.988864],[5.477849,51.987692],[5.477664,51.983473],[5.486214,51.983826],[5.500751,51.978592],[5.512481,51.973081],[5.519168,51.971507],[5.536086,51.968601],[5.541349,51.966642],[5.545709,51.962256],[5.551061,51.958274],[5.555658,51.956157],[5.561252,51.954502],[5.575574,51.952826],[5.586617,51.950829]]]}},
{"type":"Feature","id":"NLD:ADM2:NL-UT.soest","properties":{"shapeName":"Soest","shapeISO":"","shapeGroup":"NLD","shapeType":"ADM2","adm1ISO":"NL-UT","parentISO":"NL-UT","parentID":"NLD:ADM1:NL-UT","src_shape_id":"6326949B26493124022578"},"geometry":{"type":"Polygon","coordinates":[[[5.314282,52.203024],[5.31387,52.204181],[5.307895,52.203057],[5.304018,52.200011],[5.282499,52.192075],[5.281549,52.192501],[5.270216,52.188526],[5.262274,52.184118],[5.247165,52.174379],[5.243172,52.170077],[5.254794,52.149516],[5.256642,52.143279],[5.255267,52.138886],[5.255915,52.136724],[5.264101,52.12508],[5.271936,52.127046],[5.282138,52.112063],[5.291823,52.114543],[5.298936,52.111805],[5.306458,52.110272],[5.311583,52.114143],[5.325386,52.122636],[5.331268,52.126631],[5.333852,52.131346],[5.330643,52.135704],[5.330969,52.137291],[5.336293,52.145848],[5.33872,52.160057],[5.343484,52.160271],[5.349898,52.175606],[5.341555,52.177762],[5.337467,52.182324],[5.333714,52.183181],[5.32574,52.181874],[5.323563,52.182839],[5.325122,52.185276],[5.324366,52.187977],[5.320892,52.190158],[5.314733,52.191579],[5.311758,52.191019],[5.309289,52.19452],[5.314282,52.203024]]]}},
{"type":"Feature","id":"NLD:ADM2:NL-UT.utrecht","properties":{"shapeName":"Utrecht","shapeISO":"","shapeGroup":"NLD","shapeType":"ADM2","adm1ISO":"NL-UT","parentISO":"NL-UT","parentID":"NLD:ADM1:NL-UT","src_shape_id":"6326949B99313902629116"},"geometry":{"type":"Polygon","coordinates":[[[5.107093,52.133211],[5.103397,52.129848],[5.101084,52.129845],[5.087165,52.135672],[5.076158,52.127049],[5.072328,52.125325],[5.070857,52.126778],[5.066969,52.126003],[5.061205,52.122562],[5.047556,52.129973],[5.042273,52.126599],[5.039482,52.1241],[5.033676,52.116716],[5.032676,52.116768],[5.015189,52.127408],[5.011063,52.130682],[5.007441,52.135716],[5.002154,52.141759],[4.986398,52.135255],[4.985238,52.132438],[4.973938,52.129674],[4.970096,52.122442],[4.977538,52.113575],[4.980121,52.112344],[4.97916,52.108278],[4.976033,52.107713],[4.975624,52.105021],[4.973054,52.101661],[4.97566,52.09979],[4.989327,52.100756],[4.994216,52.090367],[5.005011,52.088486],[5.00323,52.077957],[5.001643,52.078292],[4.999498,52.066132],[5.01801,52.062219],[5.017074,52.061143],[5.021133,52.056245],[5.027119,52.055396],[5.028451,52.050623],[5.039433,52.042871],[5.043872,52.036555],[5.049495,52.031205],[5.061021,52.026282],[5.062801,52.026823],[5.063213,52.029795],[5.064161,52.051459],[5.069238,52.061005],[5.075629,52.062228],[5.081582,52.061238],[5.089986,52.060729],[5.095206,52.058728],[5.097352,52.059481],[5.102085,52.054264],[5.104397,52.049938],[5.107344,52.050026],[5.109359,52.055427],[5.111257,52.058319],[5.117751,52.056639],[5.122007,52.054267],[5.126832,52.054918],[5.14519,52.05253],[5.15303,52.056757],[5.157754,52.058344],[5.156899,52.063455],[5.159502,52.067263],[5.1564,52.069058],[5.155657,52.071407],[5.160546,52.078046],[5.162397,52.07861],[5.166917,52.076681],[5.171606,52.078675],[5.179286,52.077902],[5.181401,52.076192],[5.193101,52.077884],[5.195154,52.077346],[5.192751,52.086076],[5.18974,52.08635],[5.186169,52.092927],[5.170646,52.093927],[5.166874,52.093705],[5.160611,52.094782],[5.15619,52.098593],[5.161915,52.107215],[5.15038,52.110875],[5.14868,52.115477],[5.149182,52.118787],[5.146915,52.120382],[5.140397,52.120993],[5.126523,52.124604],[5.107093,52.133211]]]}},
{"type":"Feature","id":"NLD:ADM2:NL-UT.veenendaal","properties":{"shapeName":"Veenendaal","shapeISO":"","shapeGroup":"NLD","shapeType":"ADM2","adm1ISO":"NL-UT","parentISO":"NL-UT","parentID":"NLD:ADM1:NL-UT","src_shape_id":"6326949B99010432218754"},"geometry":{"type":"Polygon","coordinates":[[[5.557903,52.048865],[5.544639,52.049373],[5.540729,52.04267],[5.538818,52.041265],[5.535379,52.041466],[5.53142,52.039469],[5.529348,52.040202],[5.512592,52.018516],[5.528488,52.013402],[5.533676,52.012665],[5.532366,52.0109],[5.53514,52.008887],[5.540339,52.006982],[5.551095,51.999807],[5.553229,51.999031],[5.558045,52.003632],[5.570478,51.996958],[5.589489,52.009455],[5.586014,52.011776],[5.586922,52.015713],[5.589621,52.015595],[5.590242,52.020267],[5.587199,52.02045],[5.587511,52.026628],[5.586711,52.03129],[5.589589,52.031176],[5.59003,52.034387],[5.583044,52.036579],[5.567386,52.040606],[5.570045,52.043401],[5.570853,52.047997],[5.557903,52.048865]]]}},
{"type":"Feature","id":"NLD:ADM2:NL-UT.woudenberg","properties":{"shapeName":"Woudenberg","shapeISO":"","shapeGroup":"NLD","shapeType":"ADM2","adm1ISO":"NL-UT","parentISO":"NL-UT","parentID":"NLD:ADM1:NL-UT","src_shape_id":"6326949B36718410472652"},"geometry":{"type":"Polygon","coordinates":[[[5.486447,52.11536],[5.479079,52.117426],[5.47638,52.113601],[5.475131,52.106891],[5.472465,52.101739],[5.467516,52.100401],[5.457981,52.105336],[5.443807,52.107075],[5.442135,52.104215],[5.437983,52.099791],[5.432381,52.096849],[5.429169,52.095961],[5.424769,52.097044],[5.422007,52.096651],[5.42019,52.098163],[5.41495,52.100141],[5.409919,52.103295],[5.404521,52.104107],[5.400781,52.091879],[5.400633,52.08936],[5.379327,52.090372],[5.366021,52.091765],[5.340567,52.095032],[5.334297,52.096334],[5.326229,52.099776],[5.322462,52.101901],[5.2983,52.096446],[5.30936,52.092444],[5.326925,52.08673],[5.332251,52.084164],[5.348274,52.082151],[5.379964,52.078639],[5.384527,52.078269],[5.387842,52.075716],[5.391449,52.074577],[5.398663,52.074865],[5.403503,52.075679],[5.405894,52.075221],[5.407061,52.072577],[5.405365,52.071],[5.399537,52.069211],[5.398956,52.066938],[5.401904,52.064304],[5.412684,52.070427],[5.422654,52.073002],[5.425735,52.072166],[5.433381,52.072295],[5.435571,52.072867],[5.438303,52.070215],[5.43657,52.061943],[5.435417,52.059721],[5.430623,52.059048],[5.428335,52.056306],[5.429868,52.052867],[5.435187,52.04785],[5.441602,52.045693],[5.445702,52.045259],[5.448529,52.043123],[5.453458,52.049878],[5.460877,52.048638],[5.466947,52.051172],[5.477194,52.052855],[5.484032,52.055962],[5.491553,52.057325],[5.497876,52.057018],[5.495554,52.07083],[5.496128,52.071678],[5.490696,52.071411],[5.483897,52.069656],[5.480166,52.071297],[5.473825,52.073051],[5.466509,52.076013],[5.465638,52.078303],[5.459243,52.080226],[5.459807,52.08202],[5.466143,52.084719],[5.474721,52.090221],[5.486083,52.093657],[5.484739,52.096625],[5.485236,52.09921],[5.484302,52.105542],[5.493858,52.111105],[5.493879,52.112816],[5.489718,52.114901],[5.486447,52.11536]]]}},
{"type":"Feature","id":"NLD:ADM2:NL-UT.wijk-bij-duurstede","properties":{"shapeName":"Wijk bij Duurstede","shapeISO":"","shapeGroup":"NLD","shapeType":"ADM2","adm1ISO":"NL-UT","parentISO":"NL-UT","parentID":"NLD:ADM1:NL-UT","src_shape_id":"6326949B81496240199161"},"geometry":{"type":"Polygon","coordinates":[[[5.390976,51.97073],[5.391898,51.973292],[5.39495,51.974442],[5.394164,51.975934],[5.38759,51.976309],[5.378394,51.986119],[5.399489,51.987981],[5.415271,51.996698],[5.398849,52.002929],[5.381647,52.002138],[5.355878,52.013476],[5.348437,52.017088],[5.344241,52.020209],[5.34146,52.020255],[5.323558,52.022965],[5.314649,52.027002],[5.291213,52.008358],[5.287995,52.009922],[5.27991,52.010722],[5.275701,52.005721],[5.275807,52.002484],[5.277487,52.000062],[5.272219,51.997758],[5.266835,51.999442],[5.264736,52.00322],[5.259562,52.001],[5.24319,51.998793],[5.245385,51.995984],[5.256182,51.99374],[5.253325,51.992335],[5.254141,51.986071],[5.271446,51.981134],[5.266445,51.976086],[5.256266,51.970939],[5.260886,51.968701],[5.270373,51.965427],[5.275113,51.96426],[5.285046,51.962872],[5.296649,51.962149],[5.303451,51.960771],[5.314856,51.95562],[5.321611,51.954919],[5.333118,51.957201],[5.338079,51.959772],[5.347094,51.966998],[5.354836,51.970185],[5.361844,51.970966],[5.376311,51.96919],[5.383319,51.969307],[5.390976,51.97073]]]}},
{"type":"Feature","id":"NLD:ADM2:NL-UT.ijsselstein","properties":{"shapeName":"IJsselstein","shapeISO":"","shapeGroup":"NLD","shapeType":"ADM2","adm1ISO":"NL-UT","parentISO":"NL-UT","parentID":"NLD:ADM1:NL-UT","src_shape_id":"6326949B52103687367672"},"geometry":{"type":"Polygon","coordinates":[[[5.062638,51.991233],[5.066286,51.994074],[5.070096,51.995569],[5.077535,51.997452],[5.074861,52.003554],[5.068933,52.014169],[5.067998,52.014404],[5.063256,52.024056],[5.062801,52.026823],[5.061021,52.026282],[5.049495,52.031205],[5.043872,52.036555],[5.039433,52.042871],[5.028451,52.050623],[5.027119,52.055396],[5.021133,52.056245],[5.017074,52.061143],[5.010283,52.053741],[5.00443,52.055517],[5.000269,52.053719],[4.99011,52.052199],[4.983276,52.040237],[4.978379,52.039723],[4.983139,52.027786],[4.994046,52.02974],[4.995195,52.021721],[5.020295,52.025627],[5.034063,52.003846],[5.042362,52.00569],[5.05424,51.996319],[5.053082,51.995385],[5.062638,51.991233]]]}},
{"type":"Feature","id":"NLD:ADM2:NL-UT.zeist","properties":{"shapeName":"Zeist","shapeISO":"","shapeGroup":"NLD","shapeType":"ADM2","adm1ISO":"NL-UT","parentISO":"NL-UT","parentID":"NLD:ADM1:NL-UT","src_shape_id":"6326949B68881677079374"},"geometry":{"type":"Polygon","coordinates":[[[5.306458,52.110272],[5.298936,52.111805],[5.291823,52.114543],[5.282138,52.112063],[5.271936,52.127046],[5.264101,52.12508],[5.255915,52.136724],[5.255267,52.138886],[5.256642,52.143279],[5.254794,52.149516],[5.243172,52.170077],[5.239041,52.167623],[5.237901,52.171251],[5.235985,52.1711],[5.236316,52.167459],[5.224999,52.1657],[5.229574,52.134586],[5.229473,52.129538],[5.23093,52.116789],[5.218219,52.113673],[5.220243,52.106991],[5.222328,52.103893],[5.210819,52.1007],[5.212727,52.097674],[5.208608,52.093619],[5.210587,52.090314],[5.205537,52.084912],[5.192751,52.086076],[5.195154,52.077346],[5.200548,52.076812],[5.206296,52.073687],[5.225021,52.064922],[5.21846,52.060239],[5.224389,52.05942],[5.24559,52.058487],[5.247423,52.058647],[5.252278,52.062118],[5.256581,52.063209],[5.257889,52.065882],[5.265268,52.070147],[5.29076,52.086568],[5.320394,52.070335],[5.328099,52.075213],[5.332609,52.078743],[5.332251,52.084164],[5.326925,52.08673],[5.30936,52.092444],[5.2983,52.096446],[5.322462,52.101901],[5.31092,52.108385],[5.306458,52.110272]]]}},
{"type":"Feature","id":"NLD:ADM2:NL-UT.nieuwegein","properties":{"shapeName":"Nieuwegein","shapeISO":"","shapeGroup":"NLD","shapeType":"ADM2","adm1ISO":"NL-UT","parentISO":"NL-UT","parentID":"NLD:ADM1:NL-UT","src_shape_id":"6326949B74966835804561"},"geometry":{"type":"Polygon","coordinates":[[[5.126832,52.054918],[5.122007,52.054267],[5.117751,52.056639],[5.111257,52.058319],[5.109359,52.055427],[5.107344,52.050026],[5.104397,52.049938],[5.102085,52.054264],[5.097352,52.059481],[5.095206,52.058728],[5.089986,52.060729],[5.081582,52.061238],[5.075629,52.062228],[5.069238,52.061005],[5.064161,52.051459],[5.063213,52.029795],[5.062801,52.026823],[5.063256,52.024056],[5.067998,52.014404],[5.068933,52.014169],[5.074861,52.003554],[5.077535,51.997452],[5.090309,52.001606],[5.100416,52.003028],[5.106937,52.00289],[5.11281,52.001944],[5.119563,51.999924],[5.12316,52.009489],[5.128386,52.024781],[5.130993,52.024724],[5.121774,52.030433],[5.129493,52.049245],[5.124718,52.049915],[5.126832,52.054918]]]}},
{"type":"Feature","id":"NLD:ADM2:NL-UT.oudewater","properties":{"shapeName":"Oudewater","shapeISO":"","shapeGroup":"NLD","shapeType":"ADM2","adm1ISO":"NL-UT","parentISO":"NL-UT","parentID":"NLD:ADM1:NL-UT","src_shape_id":"6326949B94693963978568"},"geometry":{"type":"Polygon","coordinates":[[[4.920045,52.010014],[4.917643,52.013326],[4.904975,52.026478],[4.912426,52.025291],[4.920059,52.025558],[4.924026,52.026526],[4.926681,52.029987],[4.911398,52.040182],[4.917118,52.043791],[4.906505,52.053476],[4.895739,52.05048],[4.895412,52.048234],[4.875507,52.06158],[4.871458,52.059225],[4.868225,52.063447],[4.855971,52.059065],[4.848105,52.058183],[4.829491,52.049814],[4.829707,52.049477],[4.818877,52.038236],[4.811884,52.033848],[4.806705,52.033168],[4.809934,52.026766],[4.798701,52.022272],[4.803521,52.013961],[4.815617,52.013981],[4.824995,52.017237],[4.833336,52.016423],[4.8421,52.017006],[4.846876,52.018165],[4.857085,52.006017],[4.853337,52.004748],[4.817807,51.999767],[4.835218,51.986143],[4.861544,51.994631],[4.878306,52.000755],[4.892191,52.005014],[4.908845,52.010826],[4.913888,52.011078],[4.920045,52.010014]]]}},
{"type":"Feature","id":"NLD:ADM2:NL-UT.woerden","properties":{"shapeName":"Woerden","shapeISO":"","shapeGroup":"NLD","shapeType":"ADM2","adm1ISO":"NL-UT","parentISO":"NL-UT","parentID":"NLD:ADM1:NL-UT","src_shape_id":"6326949B31284337672532"},"geometry":{"type":"Polygon","coordinates":[[[4.999498,52.066132],[5.001643,52.078292],[5.00323,52.077957],[5.005011,52.088486],[4.994216,52.090367],[4.989327,52.100756],[4.97566,52.09979],[4.973054,52.101661],[4.975624,52.105021],[4.976033,52.107713],[4.97916,52.108278],[4.980121,52.112344],[4.977538,52.113575],[4.970096,52.122442],[4.960992,52.133368],[4.943916,52.127537],[4.935246,52.13797],[4.923602,52.147319],[4.91504,52.144582],[4.911778,52.144255],[4.911106,52.160657],[4.909638,52.161871],[4.892178,52.161798],[4.887575,52.159959],[4.873624,52.156083],[4.874519,52.138832],[4.864915,52.137392],[4.855239,52.13721],[4.851479,52.139675],[4.848003,52.138995],[4.84253,52.139555],[4.840276,52.141561],[4.832858,52.144763],[4.826005,52.142142],[4.820495,52.142217],[4.816914,52.139469],[4.814038,52.140222],[4.80996,52.138433],[4.807619,52.135224],[4.808878,52.131893],[4.808071,52.129113],[4.80198,52.124858],[4.798341,52.125299],[4.793813,52.124072],[4.79208,52.122288],[4.825315,52.107152],[4.823056,52.105193],[4.823348,52.093369],[4.825623,52.080234],[4.826493,52.079528],[4.826276,52.074644],[4.832995,52.074829],[4.83397,52.072756],[4.830018,52.067186],[4.842191,52.069005],[4.854778,52.068817],[4.865748,52.069047],[4.873201,52.068746],[4.888985,52.068908],[4.903041,52.070615],[4.905083,52.070015],[4.908616,52.072042],[4.917797,52.074686],[4.924661,52.077591],[4.930847,52.079286],[4.936142,52.079921],[4.939117,52.078034],[4.945171,52.075803],[4.956333,52.0703],[4.956773,52.065933],[4.970501,52.06756],[4.982953,52.064984],[4.996089,52.067343],[4.999498,52.066132]]]}},
{"type":"Feature","id":"NLD:ADM2:NL-UT.de-ronde-venen","properties":{"shapeName":"De Ronde Venen","shapeISO":"","shapeGroup":"NLD","shapeType":"ADM2","adm1ISO":"NL-UT","parentISO":"NL-UT","parentID":"NLD:ADM1:NL-UT","src_shape_id":"6326949B84891227552476"},"geometry":{"type":"Polygon","coordinates":[[[4.852054,52.242014],[4.850793,52.238607],[4.84294,52.236739],[4.841807,52.235192],[4.838329,52.235259],[4.834861,52.232867],[4.829559,52.23075],[4.81914,52.228942],[4.814456,52.227225],[4.808717,52.226982],[4.806027,52.227947],[4.801824,52.226894],[4.794576,52.226731],[4.797003,52.220349],[4.802113,52.217679],[4.801563,52.213394],[4.801656,52.203864],[4.802925,52.201028],[4.813595,52.201848],[4.814274,52.199414],[4.82212,52.19617],[4.823445,52.193266],[4.828984,52.189498],[4.83332,52.187617],[4.836158,52.184643],[4.843809,52.180189],[4.851579,52.179023],[4.855582,52.178918],[4.892178,52.161798],[4.909638,52.161871],[4.913834,52.163362],[4.928606,52.167201],[4.935007,52.175855],[4.933995,52.176946],[4.946239,52.186052],[4.948572,52.185785],[4.949993,52.196521],[4.950881,52.198639],[4.960808,52.19782],[4.961387,52.199476],[4.966595,52.200053],[4.968303,52.207843],[4.970004,52.212521],[4.973746,52.220599],[4.982874,52.222416],[4.980413,52.226848],[4.997414,52.230818],[5.00746,52.231705],[5.020818,52.280794],[5.021866,52.282654],[5.021542,52.302457],[5.011768,52.303393],[5.007951,52.301549],[5.003226,52.296065],[5.001788,52.292793],[4.997474,52.289119],[4.983505,52.290368],[4.975147,52.286343],[4.969711,52.283103],[4.967673,52.279583],[4.965708,52.280578],[4.962159,52.28015],[4.961253,52.278394],[4.95524,52.278305],[4.948045,52.278939],[4.942691,52.278184],[4.933863,52.280885],[4.929032,52.279712],[4.926033,52.277971],[4.927616,52.273929],[4.926781,52.272283],[4.929421,52.268404],[4.924658,52.266916],[4.923563,52.263318],[4.918942,52.262047],[4.9176,52.257077],[4.911027,52.25271],[4.905471,52.253189],[4.901795,52.252755],[4.899889,52.251278],[4.896587,52.25123],[4.890741,52.253105],[4.886439,52.251041],[4.882642,52.253707],[4.877419,52.252703],[4.873853,52.250743],[4.870121,52.253283],[4.863087,52.249195],[4.857522,52.247724],[4.855349,52.245677],[4.855184,52.242775],[4.852054,52.242014]]]}},
{"type":"Feature","id":"NLD:ADM2:NL-UT.utrechtse-heuvelrug","properties":{"shapeName":"Utrechtse Heuvelrug","shapeISO":"","shapeGroup":"NLD","shapeType":"ADM2","adm1ISO":"NL-UT","parentISO":"NL-UT","parentID":"NLD:ADM1:NL-UT","src_shape_id":"6326949B53566260910730"},"geometry":{"type":"Polygon","coordinates":[[[5.477664,51.983473],[5.477849,51.987692],[5.480641,51.988864],[5.484594,51.98776],[5.485293,51.990965],[5.490897,51.996561],[5.494201,51.994901],[5.498294,51.999882],[5.512592,52.018516],[5.529348,52.040202],[5.525999,52.041369],[5.516431,52.047764],[5.515681,52.054191],[5.514158,52.054886],[5.497876,52.057018],[5.491553,52.057325],[5.484032,52.055962],[5.477194,52.052855],[5.466947,52.051172],[5.460877,52.048638],[5.453458,52.049878],[5.448529,52.043123],[5.445702,52.045259],[5.441602,52.045693],[5.435187,52.04785],[5.429868,52.052867],[5.428335,52.056306],[5.430623,52.059048],[5.435417,52.059721],[5.43657,52.061943],[5.438303,52.070215],[5.435571,52.072867],[5.433381,52.072295],[5.425735,52.072166],[5.422654,52.073002],[5.412684,52.070427],[5.401904,52.064304],[5.398956,52.066938],[5.399537,52.069211],[5.405365,52.071],[5.407061,52.072577],[5.405894,52.075221],[5.403503,52.075679],[5.398663,52.074865],[5.391449,52.074577],[5.387842,52.075716],[5.384527,52.078269],[5.379964,52.078639],[5.348274,52.082151],[5.332251,52.084164],[5.332609,52.078743],[5.328099,52.075213],[5.320394,52.070335],[5.29076,52.086568],[5.265268,52.070147],[5.257889,52.065882],[5.256581,52.063209],[5.252278,52.062118],[5.247423,52.058647],[5.251226,52.054816],[5.251541,52.052034],[5.248959,52.049778],[5.248006,52.047413],[5.251037,52.045757],[5.248976,52.042015],[5.251083,52.039225],[5.255127,52.037949],[5.257752,52.03831],[5.257581,52.032638],[5.26388,52.03197],[5.269353,52.029102],[5.270885,52.027424],[5.263239,52.02438],[5.269884,52.018326],[5.271693,52.01461],[5.27991,52.010722],[5.287995,52.009922],[5.291213,52.008358],[5.314649,52.027002],[5.323558,52.022965],[5.34146,52.020255],[5.344241,52.020209],[5.348437,52.017088],[5.355878,52.013476],[5.381647,52.002138],[5.398849,52.002929],[5.415271,51.996698],[5.399489,51.987981],[5.378394,51.986119],[5.38759,51.976309],[5.394164,51.975934],[5.39495,51.974442],[5.391898,51.973292],[5.390976,51.97073],[5.402062,51.973616],[5.413514,51.97543],[5.420596,51.977483],[5.433266,51.984552],[5.440601,51.985918],[5.444817,51.985788],[5.453194,51.983809],[5.47099,51.982987],[5.477664,51.983473]]]}},
{"type":"Feature","id":"NLD:ADM2:NL-UT.stichtse-vecht","properties":{"shapeName":"Stichtse Vecht","shapeISO":"","shapeGroup":"NLD","shapeType":"ADM2","adm1ISO":"NL-UT","parentISO":"NL-UT","parentID":"NLD:ADM1:NL-UT","src_shape_id":"6326949B24894131059498"},"geometry":{"type":"Polygon","coordinates":[[[5.115294,52.179853],[5.082452,52.173843],[5.046421,52.165929],[5.044658,52.171287],[5.042099,52.183294],[5.032503,52.184114],[5.035008,52.186944],[5.036427,52.193273],[5.03815,52.195214],[5.037124,52.198053],[5.030972,52.198765],[5.022486,52.202695],[5.025947,52.203956],[5.03665,52.202139],[5.037421,52.204965],[5.035315,52.205233],[5.036444,52.209568],[5.0334,52.209837],[5.034353,52.213118],[5.037129,52.21655],[5.035848,52.21753],[5.036665,52.224361],[5.03873,52.22518],[5.042484,52.22878],[5.042396,52.230548],[5.056224,52.234979],[5.056275,52.237128],[5.045853,52.243382],[5.046663,52.248317],[5.04396,52.252522],[5.043474,52.255336],[5.041144,52.256732],[5.037663,52.253853],[5.034412,52.252923],[5.031105,52.257187],[5.032643,52.259274],[5.031882,52.260948],[5.027197,52.263639],[5.027729,52.267618],[5.02329,52.271509],[5.024355,52.273197],[5.02833,52.272091],[5.030932,52.272503],[5.033277,52.275413],[5.042163,52.27788],[5.048601,52.27703],[5.050551,52.281668],[5.060518,52.285169],[5.062921,52.284506],[5.06441,52.280739],[5.065467,52.285199],[5.059406,52.289297],[5.052768,52.286486],[5.050381,52.287799],[5.047483,52.28502],[5.042778,52.282488],[5.039428,52.283244],[5.033211,52.286258],[5.030527,52.288488],[5.024381,52.281358],[5.021866,52.282654],[5.020818,52.280794],[5.00746,52.231705],[4.997414,52.230818],[4.980413,52.226848],[4.982874,52.222416],[4.973746,52.220599],[4.970004,52.212521],[4.968303,52.207843],[4.966595,52.200053],[4.961387,52.199476],[4.960808,52.19782],[4.950881,52.198639],[4.949993,52.196521],[4.948572,52.185785],[4.946239,52.186052],[4.933995,52.176946],[4.935007,52.175855],[4.928606,52.167201],[4.913834,52.163362],[4.909638,52.161871],[4.911106,52.160657],[4.911778,52.144255],[4.91504,52.144582],[4.923602,52.147319],[4.935246,52.13797],[4.943916,52.127537],[4.960992,52.133368],[4.970096,52.122442],[4.973938,52.129674],[4.985238,52.132438],[4.986398,52.135255],[5.002154,52.141759],[5.007441,52.135716],[5.011063,52.130682],[5.015189,52.127408],[5.032676,52.116768],[5.033676,52.116716],[5.039482,52.1241],[5.042273,52.126599],[5.047556,52.129973],[5.061205,52.122562],[5.066969,52.126003],[5.070857,52.126778],[5.072328,52.125325],[5.076158,52.127049],[5.087165,52.135672],[5.101084,52.129845],[5.103397,52.129848],[5.107093,52.133211],[5.11334,52.13924],[5.120529,52.145541],[5.09489,52.155349],[5.118762,52.172349],[5.115294,52.179853]]]}},
{"type":"Feature","id":"NLD:ADM2:NL-UT.vijfheerenlanden","properties":{"shapeName":"Vijfheerenlanden","shapeISO":"","shapeGroup":"NLD","shapeType":"ADM2","adm1ISO":"NL-UT","parentISO":"NL-UT","parentID":"NLD:ADM1:NL-UT","src_shape_id":"6326949B1292857189709"},"geometry":{"type":"Polygon","coordinates":[[[5.180226,51.967448],[5.172721,51.969617],[5.160953,51.97047],[5.155094,51.971586],[5.148784,51.97492],[5.145249,51.979217],[5.142324,51.989539],[5.140186,51.993487],[5.13677,51.995673],[5.119563,51.999924],[5.11281,52.001944],[5.106937,52.00289],[5.100416,52.003028],[5.090309,52.001606],[5.077535,51.997452],[5.070096,51.995569],[5.066286,51.994074],[5.062638,51.991233],[5.059346,51.989136],[5.050328,51.984982],[5.044995,51.981959],[5.041044,51.978492],[5.03883,51.974136],[5.034054,51.97017],[5.029673,51.969203],[5.022375,51.969727],[5.016103,51.97214],[5.010077,51.975544],[5.003009,51.978138],[4.998073,51.977872],[4.991862,51.975853],[4.98594,51.972551],[4.976143,51.963445],[4.968664,51.959523],[4.965298,51.959217],[4.958919,51.960502],[4.95046,51.9632],[4.941567,51.963834],[4.934563,51.960611],[4.926301,51.950928],[4.929475,51.950191],[4.932615,51.946663],[4.939235,51.928938],[4.942183,51.930102],[4.946256,51.9334],[4.949494,51.931653],[4.956157,51.915591],[4.964785,51.913519],[4.964128,51.910638],[4.968097,51.909997],[4.973763,51.907633],[4.97341,51.89725],[4.974666,51.897217],[4.991455,51.901661],[4.994968,51.902292],[4.996271,51.896925],[4.996325,51.890758],[4.999452,51.884284],[4.998561,51.8819],[4.995511,51.878787],[4.995013,51.876016],[4.996805,51.873555],[5.026955,51.881918],[5.025466,51.880631],[5.022838,51.874365],[5.023148,51.871951],[5.02176,51.868981],[5.027439,51.863597],[5.026907,51.858608],[5.035999,51.858679],[5.043734,51.85923],[5.052999,51.857361],[5.058248,51.857962],[5.063629,51.860608],[5.062046,51.862387],[5.054199,51.865099],[5.052198,51.866643],[5.051947,51.869081],[5.054159,51.87235],[5.061803,51.874236],[5.073658,51.874039],[5.080816,51.875662],[5.086007,51.880365],[5.088159,51.887094],[5.092414,51.889051],[5.098538,51.887866],[5.105759,51.888811],[5.112736,51.887776],[5.117696,51.892675],[5.119065,51.89827],[5.132277,51.914882],[5.13665,51.914811],[5.135674,51.918223],[5.142431,51.924936],[5.148325,51.92935],[5.147946,51.932038],[5.151466,51.933615],[5.153961,51.93729],[5.163576,51.947036],[5.169663,51.955475],[5.180226,51.967448]]]}}
]}