{"type":"FeatureCollection","bbox":[3.30794,51.200183,4.277425,51.78152],"features":[
{"type":"Feature","id":"NLD:ADM2:NL-ZE.borsele","properties":{"shapeName":"Borsele","shapeISO":"","shapeGroup":"NLD","shapeType":"ADM2","adm1ISO":"NL-ZE","parentISO":"NL-ZE","parentID":"NLD:ADM1:NL-ZE","src_shape_id":"6326949B66148717783622"},"geometry":{"type":"Polygon","coordinates":[[[3.935352,51.447013],[3.93385,51.448355],[3.925434,51.45152],[3.925981,51.454584],[3.928511,51.458791],[3.919444,51.462561],[3.916274,51.463402],[3.90913,51.467807],[3.907784,51.469456],[3.912833,51.477135],[3.912879,51.479122],[3.891626,51.48024],[3.880567,51.481021],[3.875413,51.480007],[3.872429,51.480383],[3.869658,51.48257],[3.855113,51.484311],[3.850353,51.484006],[3.848,51.484869],[3.84123,51.485299],[3.832008,51.484935],[3.8201,51.483125],[3.813493,51.482963],[3.803685,51.484471],[3.796927,51.487028],[3.782975,51.494612],[3.773745,51.497474],[3.762507,51.498873],[3.746017,51.499478],[3.73884,51.499989],[3.72685,51.501724],[3.705538,51.502452],[3.699052,51.492341],[3.700363,51.486026],[3.700093,51.483195],[3.70365,51.482271],[3.706393,51.47881],[3.706026,51.477254],[3.700993,51.47365],[3.69568,51.471115],[3.699363,51.4698],[3.709408,51.471476],[3.717425,51.469608],[3.715798,51.467355],[3.714633,51.462629],[3.711236,51.457738],[3.709838,51.453248],[3.702897,51.449998],[3.696394,51.445851],[3.702745,51.441401],[3.709563,51.433556],[3.718054,51.427652],[3.710428,51.423938],[3.714483,51.422472],[3.718538,51.418614],[3.724479,51.414602],[3.733863,51.411365],[3.736601,51.411113],[3.738036,51.394609],[3.775522,51.392175],[3.808232,51.355746],[3.924473,51.378045],[3.963209,51.42201],[3.935352,51.447013]]]}},
{"type":"Feature","id":"NLD:ADM2:NL-ZE.goes","properties":{"shapeName":"Goes","shapeISO":"","shapeGroup":"NLD","shapeType":"ADM2","adm1ISO":"NL-ZE","parentISO":"NL-ZE","parentID":"NLD:ADM1:NL-ZE","src_shape_id":"6326949B11720350341334"},"geometry":{"type":"Polygon","coordinates":[[[3.912879,51.479122],[3.916809,51.481753],[3.91502,51.4848],[3.92092,51.486114],[3.924796,51.485425],[3.925823,51.491868],[3.940302,51.493235],[3.943889,51.49741],[3.956199,51.503404],[3.965231,51.506469],[3.963988,51.511297],[3.963507,51.520613],[3.967938,51.525981],[3.969891,51.525578],[3.97145,51.528448],[3.965771,51.529568],[3.953687,51.531061],[3.946171,51.532634],[3.93798,51.535777],[3.93309,51.536957],[3.932448,51.540449],[3.927541,51.544342],[3.921581,51.54623],[3.914485,51.546976],[3.912243,51.549429],[3.907889,51.550282],[3.898519,51.550217],[3.889838,51.548164],[3.888331,51.547039],[3.870393,51.541827],[3.861928,51.541154],[3.856451,51.541635],[3.852479,51.543193],[3.844547,51.547373],[3.840445,51.550907],[3.834504,51.553018],[3.816827,51.548984],[3.80532,51.54536],[3.801484,51.543431],[3.793583,51.54248],[3.768289,51.552774],[3.762858,51.553417],[3.755988,51.552085],[3.754648,51.55078],[3.743816,51.547689],[3.737895,51.544547],[3.735975,51.542124],[3.729092,51.538721],[3.718796,51.534352],[3.713609,51.530367],[3.738942,51.520091],[3.741265,51.518395],[3.746945,51.516853],[3.745247,51.512472],[3.711105,51.506721],[3.710855,51.503471],[3.70561,51.503642],[3.705538,51.502452],[3.72685,51.501724],[3.73884,51.499989],[3.746017,51.499478],[3.762507,51.498873],[3.773745,51.497474],[3.782975,51.494612],[3.796927,51.487028],[3.803685,51.484471],[3.813493,51.482963],[3.8201,51.483125],[3.832008,51.484935],[3.84123,51.485299],[3.848,51.484869],[3.850353,51.484006],[3.855113,51.484311],[3.869658,51.48257],[3.872429,51.480383],[3.875413,51.480007],[3.880567,51.481021],[3.891626,51.48024],[3.912879,51.479122]]]}},
{"type":"Feature","id":"NLD:ADM2:NL-ZE.hulst","properties":{"shapeName":"Hulst","shapeISO":"","shapeGroup":"NLD","shapeType":"ADM2","adm1ISO":"NL-ZE","parentISO":"NL-ZE","parentID":"NLD:ADM1:NL-ZE","src_shape_id":"6326949B4245688321620"},"geometry":{"type":"Polygon","coordinates":[[[3.924473,51.378045],[3.942561,51.364848],[3.957046,51.364813],[3.957639,51.363737],[3.954669,51.357353],[3.955808,51.354104],[3.959392,51.351323],[3.959701,51.342042],[3.961729,51.332896],[3.956647,51.321997],[3.954194,51.312359],[3.953662,51.30771],[3.957588,51.304702],[3.972567,51.300314],[3.978879,51.300815],[3.982183,51.260175],[3.982237,51.24911],[3.993119,51.248004],[3.994113,51.242826],[3.996895,51.241114],[4.003487,51.243285],[4.005693,51.241876],[4.011291,51.244106],[4.020934,51.245366],[4.023928,51.242743],[4.027342,51.242497],[4.032395,51.243305],[4.036537,51.245679],[4.040552,51.241318],[4.054841,51.242901],[4.061848,51.244573],[4.064077,51.247493],[4.076413,51.252239],[4.078524,51.253557],[4.093273,51.260151],[4.159777,51.290217],[4.166132,51.292893],[4.236806,51.349756],[4.228969,51.354723],[4.220938,51.361459],[4.214837,51.371981],[4.211057,51.379317],[4.209043,51.385768],[4.204535,51.387563],[4.197047,51.38688],[4.189029,51.384134],[4.181008,51.382492],[4.176,51.380086],[4.169024,51.37812],[4.162875,51.377025],[4.146653,51.371689],[4.140282,51.37031],[4.129905,51.368984],[4.118529,51.368999],[4.102551,51.366862],[4.114948,51.391005],[4.048075,51.389896],[4.019778,51.420167],[3.963209,51.42201],[3.924473,51.378045]]]}},
{"type":"Feature","id":"NLD:ADM2:NL-ZE.kapelle","properties":{"shapeName":"Kapelle","shapeISO":"","shapeGroup":"NLD","shapeType":"ADM2","adm1ISO":"NL-ZE","parentISO":"NL-ZE","parentID":"NLD:ADM1:NL-ZE","src_shape_id":"6326949B3037358920764"},"geometry":{"type":"Polygon","coordinates":[[[3.935352,51.447013],[3.937595,51.449098],[3.94216,51.451524],[3.9517,51.454529],[3.955845,51.455287],[3.969212,51.456339],[3.973179,51.455991],[3.987598,51.452181],[3.991451,51.449803],[3.996016,51.454477],[3.998866,51.456273],[4.003493,51.457017],[4.007323,51.458634],[4.006727,51.462547],[4.004916,51.495847],[4.004732,51.504843],[4.014314,51.508442],[4.015206,51.510926],[4.01735,51.512411],[4.013685,51.517693],[4.013078,51.538245],[4.005846,51.539843],[4.00361,51.542054],[3.998434,51.544333],[3.992489,51.545039],[3.987693,51.543284],[3.986017,51.546223],[3.96096,51.551477],[3.93798,51.535777],[3.946171,51.532634],[3.953687,51.531061],[3.965771,51.529568],[3.97145,51.528448],[3.969891,51.525578],[3.967938,51.525981],[3.963507,51.520613],[3.963988,51.511297],[3.965231,51.506469],[3.956199,51.503404],[3.943889,51.49741],[3.940302,51.493235],[3.925823,51.491868],[3.924796,51.485425],[3.92092,51.486114],[3.91502,51.4848],[3.916809,51.481753],[3.912879,51.479122],[3.912833,51.477135],[3.907784,51.469456],[3.90913,51.467807],[3.916274,51.463402],[3.919444,51.462561],[3.928511,51.458791],[3.925981,51.454584],[3.925434,51.45152],[3.93385,51.448355],[3.935352,51.447013]]]}},
{"type":"Feature","id":"NLD:ADM2:NL-ZE.middelburg","properties":{"shapeName":"Middelburg","shapeISO":"","shapeGroup":"NLD","shapeType":"ADM2","adm1ISO":"NL-ZE","parentISO":"NL-ZE","parentID":"NLD:ADM1:NL-ZE","src_shape_id":"6326949B99945652837924"},"geometry":{"type":"Polygon","coordinates":[[[3.705538,51.502452],[3.70561,51.503642],[3.710855,51.503471],[3.711105,51.506721],[3.745247,51.512472],[3.746945,51.516853],[3.741265,51.518395],[3.738942,51.520091],[3.713609,51.530367],[3.711881,51.531067],[3.709607,51.527653],[3.704784,51.523944],[3.700388,51.522353],[3.697565,51.524486],[3.695235,51.531381],[3.696384,51.535184],[3.680837,51.534958],[3.658842,51.519262],[3.656508,51.522173],[3.651691,51.521019],[3.641598,51.519694],[3.634546,51.520543],[3.63394,51.525992],[3.62213,51.52579],[3.617137,51.525257],[3.61316,51.535142],[3.603546,51.533958],[3.602623,51.534911],[3.59296,51.532167],[3.590677,51.529992],[3.593743,51.528666],[3.596637,51.522452],[3.583686,51.519627],[3.582379,51.516682],[3.582986,51.513688],[3.578867,51.512457],[3.583425,51.508662],[3.575298,51.506624],[3.577868,51.504844],[3.578137,51.502414],[3.581522,51.500482],[3.584922,51.494315],[3.584905,51.490864],[3.579632,51.489216],[3.583204,51.48268],[3.584764,51.482892],[3.586981,51.479254],[3.59701,51.477096],[3.599661,51.475295],[3.601763,51.479327],[3.604967,51.47826],[3.608908,51.475525],[3.617724,51.477754],[3.621658,51.475485],[3.629217,51.480915],[3.635056,51.477794],[3.64623,51.470842],[3.651722,51.468873],[3.656938,51.468167],[3.662788,51.468537],[3.666893,51.469615],[3.676143,51.473835],[3.68123,51.475421],[3.695699,51.481002],[3.70365,51.482271],[3.700093,51.483195],[3.700363,51.486026],[3.699052,51.492341],[3.705538,51.502452]]]}},
{"type":"Feature","id":"NLD:ADM2:NL-ZE.reimerswaal","properties":{"shapeName":"Reimerswaal","shapeISO":"","shapeGroup":"NLD","shapeType":"ADM2","adm1ISO":"NL-ZE","parentISO":"NL-ZE","parentID":"NLD:ADM1:NL-ZE","src_shape_id":"6326949B12862747379665"},"geometry":{"type":"Polygon","coordinates":[[[3.963209,51.42201],[4.019778,51.420167],[4.048075,51.389896],[4.114948,51.391005],[4.102551,51.366862],[4.118529,51.368999],[4.129905,51.368984],[4.140282,51.37031],[4.146653,51.371689],[4.162875,51.377025],[4.169024,51.37812],[4.176,51.380086],[4.181008,51.382492],[4.189029,51.384134],[4.197047,51.38688],[4.204535,51.387563],[4.209043,51.385768],[4.211057,51.379317],[4.214837,51.371981],[4.220938,51.361459],[4.228969,51.354723],[4.236806,51.349756],[4.242049,51.353967],[4.226747,51.359759],[4.222067,51.364511],[4.217577,51.373885],[4.277425,51.376035],[4.273698,51.38315],[4.268382,51.383546],[4.266349,51.386541],[4.268634,51.388127],[4.269061,51.400348],[4.266493,51.408168],[4.26416,51.413759],[4.263732,51.416449],[4.266576,51.420052],[4.275852,51.425049],[4.265432,51.439681],[4.230328,51.488904],[4.133909,51.479555],[4.112183,51.506217],[4.060391,51.509632],[4.067526,51.526472],[4.059594,51.52826],[4.055776,51.530016],[4.053625,51.529277],[4.047567,51.531625],[4.045286,51.53139],[4.029495,51.5352],[4.016172,51.537356],[4.013078,51.538245],[4.013685,51.517693],[4.01735,51.512411],[4.015206,51.510926],[4.014314,51.508442],[4.004732,51.504843],[4.004916,51.495847],[4.006727,51.462547],[4.007323,51.458634],[4.003493,51.457017],[3.998866,51.456273],[3.996016,51.454477],[3.991451,51.449803],[3.987598,51.452181],[3.973179,51.455991],[3.969212,51.456339],[3.955845,51.455287],[3.9517,51.454529],[3.94216,51.451524],[3.937595,51.449098],[3.935352,51.447013],[3.963209,51.42201]]]}},
{"type":"Feature","id":"NLD:ADM2:NL-ZE.terneuzen","properties":{"shapeName":"Terneuzen","shapeISO":"","shapeGroup":"NLD","shapeType":"ADM2","adm1ISO":"NL-ZE","parentISO":"NL-ZE","parentID":"NLD:ADM1:NL-ZE","src_shape_id":"6326949B16829541191970"},"geometry":{"type":"Polygon","coordinates":[[[3.738036,51.394609],[3.691471,51.397617],[3.693053,51.365251],[3.693815,51.352474],[3.689816,51.353351],[3.687846,51.355577],[3.682387,51.355274],[3.682868,51.353484],[3.659399,51.351136],[3.659079,51.349968],[3.654434,51.34844],[3.650086,51.348891],[3.647244,51.350049],[3.649599,51.342735],[3.64415,51.341831],[3.653311,51.331751],[3.657973,51.333351],[3.659992,51.324887],[3.663829,51.325239],[3.666205,51.319812],[3.684197,51.321169],[3.703454,51.318458],[3.71241,51.315791],[3.703583,51.309944],[3.70659,51.30746],[3.707016,51.305802],[3.704257,51.303381],[3.705969,51.300232],[3.704927,51.295794],[3.706177,51.288355],[3.698092,51.285015],[3.698182,51.282715],[3.693935,51.27604],[3.70953,51.272634],[3.718915,51.271536],[3.72309,51.273346],[3.730837,51.272385],[3.751727,51.269161],[3.755716,51.269345],[3.762515,51.261782],[3.769265,51.259863],[3.772959,51.261826],[3.773785,51.263976],[3.7783,51.26235],[3.785435,51.258468],[3.795475,51.256054],[3.789453,51.245787],[3.788457,51.226374],[3.789677,51.220015],[3.789568,51.21599],[3.791335,51.213956],[3.797462,51.212763],[3.799293,51.210865],[3.804991,51.210121],[3.806416,51.212621],[3.810575,51.212768],[3.821156,51.209207],[3.826927,51.20936],[3.834263,51.212031],[3.836317,51.213776],[3.842228,51.212129],[3.845818,51.212971],[3.849644,51.211734],[3.852412,51.213217],[3.856065,51.211088],[3.859575,51.210831],[3.870171,51.216267],[3.882613,51.220993],[3.888654,51.222957],[3.893288,51.218808],[3.889806,51.213602],[3.877626,51.208014],[3.879696,51.206035],[3.884525,51.203339],[3.886299,51.200183],[3.894665,51.203498],[3.898807,51.20172],[3.904978,51.203888],[3.911547,51.205445],[3.914543,51.207823],[3.918629,51.207764],[3.916005,51.214635],[3.918675,51.214973],[3.919452,51.217004],[3.92545,51.217107],[3.929419,51.220261],[3.93333,51.214495],[3.93598,51.211893],[3.943138,51.213616],[3.942619,51.214711],[3.953979,51.216454],[3.959074,51.216211],[3.961564,51.22022],[3.963747,51.221022],[3.964723,51.224115],[3.979038,51.225419],[3.986205,51.23416],[3.987989,51.23326],[3.992544,51.236392],[3.999646,51.237811],[4.000009,51.239384],[4.005693,51.241876],[4.003487,51.243285],[3.996895,51.241114],[3.994113,51.242826],[3.993119,51.248004],[3.982237,51.24911],[3.982183,51.260175],[3.978879,51.300815],[3.972567,51.300314],[3.957588,51.304702],[3.953662,51.30771],[3.954194,51.312359],[3.956647,51.321997],[3.961729,51.332896],[3.959701,51.342042],[3.959392,51.351323],[3.955808,51.354104],[3.954669,51.357353],[3.957639,51.363737],[3.957046,51.364813],[3.942561,51.364848],[3.924473,51.378045],[3.808232,51.355746],[3.775522,51.392175],[3.738036,51.394609]]]}},
{"type":"Feature","id":"NLD:ADM2:NL-ZE.tholen","properties":{"shapeName":"Tholen","shapeISO":"","shapeGroup":"NLD","shapeType":"ADM2","adm1ISO":"NL-ZE","parentISO":"NL-ZE","parentID":"NLD:ADM1:NL-ZE","src_shape_id":"6326949B94220918271569"},"geometry":{"type":"Polygon","coordinates":[[[4.013078,51.538245],[4.016172,51.537356],[4.029495,51.5352],[4.045286,51.53139],[4.047567,51.531625],[4.053625,51.529277],[4.055776,51.530016],[4.059594,51.52826],[4.067526,51.526472],[4.060391,51.509632],[4.112183,51.506217],[4.133909,51.479555],[4.230328,51.488904],[4.218927,51.504858],[4.219044,51.510752],[4.220911,51.516009],[4.233359,51.53805],[4.235657,51.543241],[4.236119,51.550366],[4.235202,51.553953],[4.231169,51.560667],[4.22636,51.56514],[4.2007,51.584575],[4.195718,51.588975],[4.192232,51.593902],[4.190163,51.600954],[4.191166,51.608096],[4.194932,51.614882],[4.199273,51.619539],[4.207211,51.624733],[4.21707,51.628432],[4.227823,51.631023],[4.238168,51.634298],[4.242786,51.647063],[4.202701,51.660765],[4.195885,51.639414],[4.191777,51.638374],[4.188646,51.638795],[4.177428,51.642818],[4.172795,51.646135],[4.17001,51.645933],[4.157366,51.650005],[4.151624,51.651305],[4.142989,51.652502],[4.13602,51.654592],[4.126905,51.658018],[4.123828,51.657862],[4.116388,51.655374],[4.114404,51.653352],[4.111305,51.652524],[4.103153,51.646365],[4.09483,51.640945],[4.086125,51.633637],[4.083437,51.629391],[4.088453,51.629071],[4.08277,51.624558],[4.073828,51.620174],[4.070697,51.617369],[4.059593,51.614197],[4.055749,51.612698],[4.052946,51.620996],[4.04374,51.61575],[4.031299,51.609184],[4.028216,51.608907],[4.02333,51.606892],[4.014932,51.60686],[4.00965,51.607844],[3.998109,51.609189],[3.99578,51.60998],[3.986386,51.6115],[3.986198,51.612531],[3.979736,51.613738],[3.978085,51.612697],[3.968371,51.612672],[3.965817,51.613481],[3.95773,51.614103],[3.956026,51.615901],[3.948704,51.619189],[3.948735,51.615292],[3.924762,51.607861],[3.936826,51.556531],[3.96096,51.551477],[3.986017,51.546223],[3.987693,51.543284],[3.992489,51.545039],[3.998434,51.544333],[4.00361,51.542054],[4.005846,51.539843],[4.013078,51.538245]]]}},
{"type":"Feature","id":"NLD:ADM2:NL-ZE.veere","properties":{"shapeName":"Veere","shapeISO":"","shapeGroup":"NLD","shapeType":"ADM2","adm1ISO":"NL-ZE","parentISO":"NL-ZE","parentID":"NLD:ADM1:NL-ZE","src_shape_id":"6326949B71921166023383"},"geometry":{"type":"Polygon","coordinates":[[[3.696384,51.535184],[3.698027,51.539681],[3.698573,51.544583],[3.694676,51.550167],[3.684942,51.556637],[3.677701,51.55957],[3.671079,51.563829],[3.6628,51.566445],[3.65313,51.568464],[3.637207,51.585028],[3.633814,51.588311],[3.631531,51.59429],[3.632777,51.596497],[3.638406,51.595984],[3.654526,51.596094],[3.669009,51.597848],[3.672485,51.599159],[3.681075,51.600142],[3.683865,51.600969],[3.691057,51.601328],[3.696128,51.599646],[3.699094,51.601062],[3.707964,51.598726],[3.748887,51.650323],[3.611343,51.650363],[3.570921,51.604742],[3.48592,51.573629],[3.484568,51.564182],[3.482838,51.562543],[3.479708,51.562074],[3.478098,51.560373],[3.475045,51.559865],[3.472387,51.557432],[3.465989,51.555203],[3.464333,51.553518],[3.456522,51.549898],[3.454622,51.549788],[3.434677,51.542251],[3.432277,51.530483],[3.432579,51.525994],[3.435141,51.523575],[3.439772,51.521342],[3.450514,51.513058],[3.45592,51.510291],[3.476194,51.50072],[3.48606,51.497344],[3.493383,51.493169],[3.496177,51.492492],[3.496893,51.490641],[3.50243,51.486417],[3.50795,51.480144],[3.514614,51.471881],[3.525381,51.462247],[3.528141,51.463744],[3.541448,51.465731],[3.546473,51.467505],[3.548522,51.469544],[3.552763,51.470956],[3.555051,51.467919],[3.557126,51.468064],[3.560298,51.47108],[3.564569,51.47043],[3.566362,51.473005],[3.565966,51.478083],[3.570836,51.476874],[3.574297,51.47744],[3.575704,51.474448],[3.582344,51.475813],[3.583986,51.47848],[3.586981,51.479254],[3.584764,51.482892],[3.583204,51.48268],[3.579632,51.489216],[3.584905,51.490864],[3.584922,51.494315],[3.581522,51.500482],[3.578137,51.502414],[3.577868,51.504844],[3.575298,51.506624],[3.583425,51.508662],[3.578867,51.512457],[3.582986,51.513688],[3.582379,51.516682],[3.583686,51.519627],[3.596637,51.522452],[3.593743,51.528666],[3.590677,51.529992],[3.59296,51.532167],[3.602623,51.534911],[3.603546,51.533958],[3.61316,51.535142],[3.617137,51.525257],[3.62213,51.52579],[3.63394,51.525992],[3.634546,51.520543],[3.641598,51.519694],[3.651691,51.521019],[3.656508,51.522173],[3.658842,51.519262],[3.680837,51.534958],[3.696384,51.535184]]]}},
{"type":"Feature","id":"NLD:ADM2:NL-ZE.vlissingen","properties":{"shapeName":"Vlissingen","shapeISO":"","shapeGroup":"NLD","shapeType":"ADM2","adm1ISO":"NL-ZE","parentISO":"NL-ZE","parentID":"NLD:ADM1:NL-ZE","src_shape_id":"6326949B17750517520147"},"geometry":{"type":"Polygon","coordinates":[[[3.70365,51.482271],[3.695699,51.481002],[3.68123,51.475421],[3.676143,51.473835],[3.666893,51.469615],[3.662788,51.468537],[3.656938,51.468167],[3.651722,51.468873],[3.64623,51.470842],[3.635056,51.477794],[3.629217,51.480915],[3.621658,51.475485],[3.617724,51.477754],[3.608908,51.475525],[3.604967,51.47826],[3.601763,51.479327],[3.599661,51.475295],[3.59701,51.477096],[3.586981,51.479254],[3.583986,51.47848],[3.582344,51.475813],[3.575704,51.474448],[3.574297,51.47744],[3.570836,51.476874],[3.565966,51.478083],[3.566362,51.473005],[3.564569,51.47043],[3.560298,51.47108],[3.557126,51.468064],[3.555051,51.467919],[3.552763,51.470956],[3.548522,51.469544],[3.546473,51.467505],[3.541448,51.465731],[3.528141,51.463744],[3.525381,51.462247],[3.514614,51.471881],[3.50795,51.480144],[3.50243,51.486417],[3.496893,51.490641],[3.496177,51.492492],[3.493383,51.493169],[3.48606,51.497344],[3.476194,51.50072],[3.45592,51.510291],[3.450514,51.513058],[3.439772,51.521342],[3.435141,51.523575],[3.432579,51.525994],[3.432277,51.530483],[3.434677,51.542251],[3.454622,51.549788],[3.456522,51.549898],[3.464333,51.553518],[3.465989,51.555203],[3.472387,51.557432],[3.475045,51.559865],[3.478098,51.560373],[3.479708,51.562074],[3.482838,51.562543],[3.484568,51.564182],[3.48592,51.573629],[3.452584,51.616408],[3.387304,51.592519],[3.349676,51.517209],[3.30794,51.433377],[3.352558,51.378611],[3.363065,51.372881],[3.371988,51.375263],[3.375177,51.376553],[3.380107,51.379889],[3.394527,51.383719],[3.401317,51.384985],[3.40852,51.386894],[3.416598,51.389776],[3.422484,51.391417],[3.429581,51.392501],[3.434602,51.392609],[3.440253,51.391183],[3.444491,51.392072],[3.448103,51.391948],[3.455179,51.394848],[3.465369,51.395864],[3.474152,51.398298],[3.477243,51.398324],[3.482562,51.399573],[3.491418,51.40253],[3.497993,51.40421],[3.503462,51.40783],[3.515009,51.409016],[3.529434,51.408419],[3.55091,51.405996],[3.557387,51.402922],[3.559421,51.406042],[3.691471,51.397617],[3.738036,51.394609],[3.736601,51.411113],[3.733863,51.411365],[3.724479,51.414602],[3.718538,51.418614],[3.714483,51.422472],[3.710428,51.423938],[3.718054,51.427652],[3.709563,51.433556],[3.702745,51.441401],[3.696394,51.445851],[3.702897,51.449998],[3.709838,51.453248],[3.711236,51.457738],[3.714633,51.462629],[3.715798,51.467355],[3.717425,51.469608],[3.709408,51.471476],[3.699363,51.4698],[3.69568,51.471115],[3.700993,51.47365],[3.706026,51.477254],[3.706393,51.47881],[3.70365,51.482271]]]}},
{"type":"Feature","id":"NLD:ADM2:NL-ZE.schouwen-duiveland","properties":{"shapeName":"Schouwen-Duiveland","shapeISO":"","shapeGroup":"NLD","shapeType":"ADM2","adm1ISO":"NL-ZE","parentISO":"NL-ZE","parentID":"NLD:ADM1:NL-ZE","src_shape_id":"6326949B19243153872397"},"geometry":{"type":"Polygon","coordinates":[[[4.202701,51.660765],[4.193764,51.6644],[4.151825,51.685233],[4.12308,51.685754],[4.110027,51.687143],[4.098084,51.690476],[4.073643,51.692698],[4.06059,51.692976],[4.047814,51.694365],[4.040037,51.702697],[4.036705,51.711029],[4.036427,51.720473],[4.035038,51.730194],[4.026259,51.738309],[4.018886,51.742718],[4.013337,51.759012],[3.974492,51.763801],[3.958939,51.772133],[3.940331,51.7738],[3.921445,51.770745],[3.905058,51.764634],[3.89506,51.757413],[3.886172,51.749358],[3.875896,51.747692],[3.84743,51.753401],[3.826214,51.765841],[3.773676,51.78152],[3.685365,51.733636],[3.611343,51.650363],[3.748887,51.650323],[3.707964,51.598726],[3.722539,51.597288],[3.729171,51.597431],[3.743163,51.598303],[3.745093,51.599564],[3.752105,51.600171],[3.759279,51.600059],[3.77428,51.601414],[3.790168,51.603733],[3.801135,51.606643],[3.8148,51.607504],[3.828568,51.606861],[3.838235,51.607069],[3.842327,51.606154],[3.848768,51.60598],[3.85168,51.604546],[3.862973,51.600388],[3.867956,51.597707],[3.874228,51.596965],[3.879043,51.593671],[3.924762,51.607861],[3.948735,51.615292],[3.948704,51.619189],[3.956026,51.615901],[3.95773,51.614103],[3.965817,51.613481],[3.968371,51.612672],[3.978085,51.612697],[3.979736,51.613738],[3.986198,51.612531],[3.986386,51.6115],[3.99578,51.60998],[3.998109,51.609189],[4.00965,51.607844],[4.014932,51.60686],[4.02333,51.606892],[4.028216,51.608907],[4.031299,51.609184],[4.04374,51.61575],[4.052946,51.620996],[4.055749,51.612698],[4.059593,51.614197],[4.070697,51.617369],[4.073828,51.620174],[4.08277,51.624558],[4.088453,51.629071],[4.083437,51.629391],[4.086125,51.633637],[4.09483,51.640945],[4.103153,51.646365],[4.111305,51.652524],[4.114404,51.653352],[4.116388,51.655374],[4.123828,51.657862],[4.126905,51.658018],[4.13602,51.654592],[4.142989,51.652502],[4.151624,51.651305],[4.157366,51.650005],[4.17001,51.645933],[4.172795,51.646135],[4.177428,51.642818],[4.188646,51.638795],[4.191777,51.638374],[4.195885,51.639414],[4.202701,51.660765]]]}},
{"type":"Feature","id":"NLD:ADM2:NL-ZE.noord-beveland","properties":{"shapeName":"Noord-Beveland","shapeISO":"","shapeGroup":"NLD","shapeType":"ADM2","adm1ISO":"NL-ZE","parentISO":"NL-ZE","parentID":"NLD:ADM1:NL-ZE","src_shape_id":"6326949B86621762707137"},"geometry":{"type":"Polygon","coordinates":[[[3.93798,51.535777],[3.96096,51.551477],[3.936826,51.556531],[3.924762,51.607861],[3.879043,51.593671],[3.874228,51.596965],[3.867956,51.597707],[3.862973,51.600388],[3.85168,51.604546],[3.848768,51.60598],[3.842327,51.606154],[3.838235,51.607069],[3.828568,51.606861],[3.8148,51.607504],[3.801135,51.606643],[3.790168,51.603733],[3.77428,51.601414],[3.759279,51.600059],[3.752105,51.600171],[3.745093,51.599564],[3.743163,51.598303],[3.729171,51.597431],[3.722539,51.597288],[3.707964,51.598726],[3.699094,51.601062],[3.696128,51.599646],[3.691057,51.601328],[3.683865,51.600969],[3.681075,51.600142],[3.672485,51.599159],[3.669009,51.597848],[3.654526,51.596094],[3.638406,51.595984],[3.632777,51.596497],[3.631531,51.59429],[3.633814,51.588311],[3.637207,51.585028],[3.65313,51.568464],[3.6628,51.566445],[3.671079,51.563829],[3.677701,51.55957],[3.684942,51.556637],[3.694676,51.550167],[3.698573,51.544583],[3.698027,51.539681],[3.696384,51.535184],[3.695235,51.531381],[3.697565,51.524486],[3.700388,51.522353],[3.704784,51.523944],[3.709607,51.527653],[3.711881,51.531067],[3.713609,51.530367],[3.718796,51.534352],[3.729092,51.538721],[3.735975,51.542124],[3.737895,51.544547],[3.743816,51.547689],[3.754648,51.55078],[3.755988,51.552085],[3.762858,51.553417],[3.768289,51.552774],[3.793583,51.54248],[3.801484,51.543431],[3.80532,51.54536],[3.816827,51.548984],[3.834504,51.553018],[3.840445,51.550907],[3.844547,51.547373],[3.852479,51.543193],[3.856451,51.541635],[3.861928,51.541154],[3.870393,51.541827],[3.888331,51.547039],[3.889838,51.548164],[3.898519,51.550217],[3.907889,51.550282],[3.912243,51.549429],[3.914485,51.546976],[3.921581,51.54623],[3.927541,51.544342],[3.932448,51.540449],[3.93309,51.536957],[3.93798,51.535777]]]}},
{"type":"Feature","id":"NLD:ADM2:NL-ZE.sluis","properties":{"shapeName":"Sluis","shapeISO":"","shapeGroup":"NLD","shapeType":"ADM2","adm1ISO":"NL-ZE","parentISO":"NL-ZE","parentID":"NLD:ADM1:NL-ZE","src_shape_id":"6326949B19414277691711"},"geometry":{"type":"Polygon","coordinates":[[[3.691471,51.397617],[3.559421,51.406042],[3.557387,51.402922],[3.55091,51.405996],[3.529434,51.408419],[3.515009,51.409016],[3.503462,51.40783],[3.497993,51.40421],[3.491418,51.40253],[3.482562,51.399573],[3.477243,51.398324],[3.474152,51.398298],[3.465369,51.395864],[3.455179,51.394848],[3.448103,51.391948],[3.444491,51.392072],[3.440253,51.391183],[3.434602,51.392609],[3.429581,51.392501],[3.422484,51.391417],[3.416598,51.389776],[3.40852,51.386894],[3.401317,51.384985],[3.394527,51.383719],[3.380107,51.379889],[3.375177,51.376553],[3.371988,51.375263],[3.363065,51.372881],[3.374992,51.358887],[3.373708,51.354233],[3.374073,51.348508],[3.383516,51.341205],[3.385343,51.334125],[3.358381,51.314982],[3.376842,51.302448],[3.371559,51.300036],[3.366799,51.299344],[3.366701,51.295772],[3.371892,51.290963],[3.378935,51.288518],[3.380599,51.287307],[3.380385,51.284538],[3.38185,51.282312],[3.380829,51.280764],[3.375536,51.27912],[3.375803,51.277079],[3.37802,51.275229],[3.387176,51.273639],[3.394537,51.265419],[3.396485,51.2642],[3.401581,51.263175],[3.405021,51.26071],[3.406294,51.257777],[3.411089,51.25681],[3.415905,51.259928],[3.418518,51.257373],[3.421226,51.256618],[3.424602,51.254208],[3.425485,51.249501],[3.427517,51.244664],[3.432317,51.24561],[3.448482,51.241562],[3.465567,51.242112],[3.527596,51.246041],[3.528042,51.246349],[3.523154,51.262907],[3.515417,51.287151],[3.529132,51.288744],[3.533617,51.283536],[3.538006,51.283657],[3.542312,51.288007],[3.543429,51.291198],[3.549786,51.291106],[3.553445,51.289586],[3.558103,51.291267],[3.559761,51.295455],[3.562709,51.295857],[3.566485,51.293792],[3.57191,51.291981],[3.571533,51.291028],[3.575674,51.288649],[3.583881,51.288885],[3.583387,51.292255],[3.58793,51.292961],[3.581115,51.298322],[3.585831,51.301676],[3.590834,51.304417],[3.612728,51.297931],[3.618569,51.29591],[3.621472,51.292756],[3.625711,51.293339],[3.640089,51.288329],[3.644376,51.290106],[3.658223,51.290152],[3.676758,51.283065],[3.67791,51.280532],[3.682573,51.281092],[3.689934,51.28061],[3.693935,51.27604],[3.698182,51.282715],[3.698092,51.285015],[3.706177,51.288355],[3.704927,51.295794],[3.705969,51.300232],[3.704257,51.303381],[3.707016,51.305802],[3.70659,51.30746],[3.703583,51.309944],[3.71241,51.315791],[3.703454,51.318458],[3.684197,51.321169],[3.666205,51.319812],[3.663829,51.325239],[3.659992,51.324887],[3.657973,51.333351],[3.653311,51.331751],[3.64415,51.341831],[3.649599,51.342735],[3.647244,51.350049],[3.650086,51.348891],[3.654434,51.34844],[3.659079,51.349968],[3.659399,51.351136],[3.682868,51.353484],[3.682387,51.355274],[3.687846,51.355577],[3.689816,51.353351],[3.693815,51.352474],[3.693053,51.365251],[3.691471,51.397617]]]}}
]}