{"type":"FeatureCollection","bbox":[-70.28645,-21.62774,-68.404871,-18.936775], "features": [
{"type":"Feature","geometry":{"type":"Polygon","coordinates":[[[-69.31789,-19.13651],[-69.2717,-19.23735],[-69.244277,-19.25],[-69.14291,-19.29676],[-69.138292,-19.293251],[-69.132711,-19.288023],[-69.129744,-19.276366],[-69.124869,-19.270431],[-69.12169,-19.269584],[-69.117804,-19.267747],[-69.10749,-19.272056],[-69.105582,-19.276436],[-69.096469,-19.270149],[-69.091735,-19.270573],[-69.089969,-19.272056],[-69.089051,-19.276366],[-69.086013,-19.276931],[-69.079725,-19.27354],[-69.078296,-19.273446],[-69.023193,-19.33155],[-69.102238,-19.496565],[-68.995744,-19.566776],[-68.90864,-19.5997],[-68.906281,-19.601506],[-68.903692,-19.607856],[-68.896293,-19.618461],[-68.887291,-19.629251],[-68.886736,-19.630546],[-68.88242,-19.63369],[-68.881742,-19.634985],[-68.877796,-19.637266],[-68.87533,-19.636835],[-68.870212,-19.633629],[-68.8675,-19.63443],[-68.866513,-19.63665],[-68.860224,-19.638993],[-68.856402,-19.638068],[-68.854244,-19.638685],[-68.850236,-19.645713],[-68.847215,-19.648118],[-68.841234,-19.650029],[-68.840309,-19.651262],[-68.840124,-19.655517],[-68.842604,-19.657535],[-68.839955,-19.661991],[-68.837667,-19.669818],[-68.83562,-19.672106],[-68.834536,-19.675598],[-68.83419,-19.679725],[-68.834316,-19.68626],[-68.83299,-19.692384],[-68.83078,-19.695225],[-68.828823,-19.699108],[-68.828634,-19.702707],[-68.825887,-19.706053],[-68.819605,-19.708515],[-68.815344,-19.711072],[-68.814839,-19.713282],[-68.810356,-19.717575],[-68.812345,-19.720827],[-68.812945,-19.725467],[-68.814996,-19.729192],[-68.815754,-19.733769],[-68.814523,-19.737621],[-68.811859,-19.743613],[-68.707649,-19.761935],[-68.651455,-19.771808],[-68.657135,-19.767514],[-68.657414,-19.76347],[-68.656146,-19.761361],[-68.657534,-19.758491],[-68.660516,-19.756678],[-68.664973,-19.755543],[-68.665989,-19.752169],[-68.673628,-19.750815],[-68.681177,-19.748878],[-68.683267,-19.750149],[-68.687371,-19.750042],[-68.689971,-19.750746],[-68.692751,-19.752837],[-68.693399,-19.750746],[-68.692328,-19.749441],[-68.692499,-19.745706],[-68.695693,-19.74268],[-68.695711,-19.739262],[-68.689419,-19.740254],[-68.687292,-19.741292],[-68.685993,-19.736823],[-68.682928,-19.735477],[-68.685136,-19.732297],[-68.685379,-19.73047],[-68.684241,-19.722818],[-68.68091,-19.717907],[-68.674495,-19.714937],[-68.669225,-19.713414],[-68.66395,-19.711425],[-68.661372,-19.711276],[-68.659611,-19.709774],[-68.652899,-19.70914],[-68.648679,-19.707364],[-68.644514,-19.706954],[-68.64109,-19.705724],[-68.638696,-19.704059],[-68.634555,-19.703179],[-68.626402,-19.702645],[-68.623918,-19.701195],[-68.621921,-19.697289],[-68.619288,-19.69605],[-68.61936,-19.694314],[-68.622921,-19.690706],[-68.62297,-19.685635],[-68.622182,-19.683826],[-68.618407,-19.680116],[-68.618987,-19.675993],[-68.617579,-19.675362],[-68.614347,-19.671974],[-68.610136,-19.672209],[-68.607742,-19.673534],[-68.605658,-19.66818],[-68.598676,-19.658648],[-68.597486,-19.655618],[-68.598467,-19.650273],[-68.601648,-19.647493],[-68.601502,-19.643339],[-68.598753,-19.640678],[-68.572475,-19.605495],[-68.556866,-19.596403],[-68.501907,-19.522623],[-68.458456,-19.464253],[-68.440637,-19.440412],[-68.412392,-19.431041],[-68.412593,-19.421889],[-68.404871,-19.416181],[-68.451462,-19.368096],[-68.499896,-19.330213],[-68.542749,-19.296701],[-68.619774,-19.276486],[-68.628275,-19.25107],[-68.68602,-19.196047],[-68.713058,-19.170255],[-68.736356,-19.155639],[-68.750907,-19.132977],[-68.781363,-19.108266],[-68.805954,-19.083552],[-68.852329,-19.064243],[-68.870898,-19.060375],[-68.889644,-19.043426],[-68.919998,-18.976692],[-68.950179,-18.936775],[-68.956705,-18.944545],[-68.962476,-18.947897],[-68.964289,-18.947599],[-68.965474,-18.944967],[-68.968146,-18.944184],[-68.973144,-18.94719],[-68.975431,-18.947312],[-68.978448,-18.946381],[-68.980143,-18.947511],[-68.98163,-18.950367],[-68.984927,-18.953531],[-68.990534,-18.955727],[-68.992979,-18.955725],[-68.995982,-18.958183],[-68.997616,-18.957977],[-69.000069,-18.956079],[-69.00536,-18.955082],[-69.007461,-18.953382],[-69.008862,-18.950337],[-69.013146,-18.948733],[-69.016119,-18.951485],[-69.019991,-18.953664],[-69.02206,-18.958558],[-69.018873,-18.962741],[-69.023566,-18.966495],[-69.027654,-18.974309],[-69.022854,-18.976839],[-69.020025,-18.980428],[-69.013991,-18.985362],[-69.010899,-18.985589],[-69.01162,-18.988514],[-69.0101,-18.992564],[-69.010253,-18.997788],[-69.014453,-19.003412],[-69.019045,-19.005414],[-69.021177,-19.006988],[-69.025612,-19.006452],[-69.029649,-19.008231],[-69.031841,-19.010062],[-69.033177,-19.01372],[-69.03937,-19.019145],[-69.041262,-19.02318],[-69.044247,-19.025236],[-69.047509,-19.030083],[-69.046706,-19.033218],[-69.050998,-19.030365],[-69.054562,-19.028915],[-69.058959,-19.028185],[-69.060047,-19.026888],[-69.063577,-19.026109],[-69.07223,-19.02723],[-69.070863,-19.028853],[-69.071226,-19.031117],[-69.073541,-19.038531],[-69.074472,-19.047182],[-69.076717,-19.04771],[-69.088439,-19.046096],[-69.095239,-19.048716],[-69.106724,-19.056317],[-69.105942,-19.057712],[-69.103193,-19.058974],[-69.102638,-19.067538],[-69.106726,-19.071348],[-69.113184,-19.075077],[-69.115248,-19.077965],[-69.117807,-19.079293],[-69.125096,-19.07969],[-69.128774,-19.082126],[-69.129032,-19.086101],[-69.131365,-19.087376],[-69.133973,-19.085608],[-69.138376,-19.084345],[-69.140093,-19.082458],[-69.141919,-19.08393],[-69.142126,-19.087083],[-69.145854,-19.090047],[-69.147434,-19.094101],[-69.148278,-19.097865],[-69.152128,-19.101503],[-69.158767,-19.10512],[-69.160006,-19.104951],[-69.162586,-19.101987],[-69.169472,-19.097498],[-69.173612,-19.096985],[-69.178676,-19.095386],[-69.182198,-19.09527],[-69.187312,-19.095821],[-69.191194,-19.095201],[-69.191792,-19.097435],[-69.191404,-19.104544],[-69.193506,-19.106645],[-69.198307,-19.10742],[-69.203552,-19.109892],[-69.207484,-19.106435],[-69.209653,-19.101263],[-69.212038,-19.098696],[-69.218318,-19.097633],[-69.223439,-19.095599],[-69.228477,-19.09515],[-69.232725,-19.093861],[-69.233917,-19.094124],[-69.240302,-19.099386],[-69.244337,-19.100132],[-69.248286,-19.10184],[-69.24959,-19.103495],[-69.253121,-19.103465],[-69.254189,-19.105211],[-69.263135,-19.108616],[-69.273029,-19.109608],[-69.280115,-19.111904],[-69.284067,-19.112696],[-69.288826,-19.114824],[-69.292214,-19.115621],[-69.294118,-19.1177],[-69.294808,-19.122134],[-69.294129,-19.125116],[-69.301618,-19.131786],[-69.303668,-19.132313],[-69.313807,-19.133428],[-69.31789,-19.13651]]]},"properties":{"shapeName":"Colchane","shapeISO":"01403","shapeGroup":"CHL","shapeType":"ADM3","parentISO":"014","adm1ISO":"CL-TA","src_cut_com":"01403","src_cut_prov":"014","src_cut_reg":"01","src_provincia":"Tamarugal","src_region":"Tarapacá"}},
{"type":"Feature","geometry":{"type":"Polygon","coordinates":[[[-68.86081,-21.28512],[-68.873245,-21.25],[-68.900526,-21.172955],[-68.94539,-21.121593],[-68.96735,-21.097406],[-68.966946,-21],[-68.966584,-20.912834],[-68.954464,-20.828322],[-68.956949,-20.825437],[-68.957882,-20.821131],[-68.959391,-20.817358],[-68.962853,-20.812031],[-68.964007,-20.804529],[-68.962853,-20.800223],[-68.963741,-20.795119],[-68.965517,-20.792455],[-68.958104,-20.78593],[-68.956994,-20.783311],[-68.958104,-20.775898],[-68.956106,-20.773146],[-68.955396,-20.769195],[-68.957926,-20.762448],[-68.962409,-20.760406],[-68.961521,-20.759296],[-68.958414,-20.759873],[-68.955795,-20.758142],[-68.954197,-20.755967],[-68.954064,-20.752416],[-68.954686,-20.748243],[-68.957482,-20.741585],[-68.957704,-20.737634],[-68.95948,-20.733595],[-68.958592,-20.730443],[-68.9613,-20.726271],[-68.961965,-20.720056],[-68.961965,-20.716327],[-68.961255,-20.712599],[-68.964185,-20.703943],[-68.962986,-20.70159],[-68.961965,-20.69471],[-68.966404,-20.690892],[-68.966981,-20.689072],[-68.968979,-20.688185],[-68.97475,-20.687252],[-68.975327,-20.685965],[-68.980565,-20.683391],[-68.985359,-20.682414],[-68.987267,-20.681038],[-68.992106,-20.679085],[-68.996278,-20.678552],[-68.998232,-20.676821],[-69.002493,-20.676066],[-69.005955,-20.67722],[-69.011415,-20.675179],[-69.017186,-20.677531],[-69.025542,-20.682291],[-69.033155,-20.685558],[-69.037303,-20.682489],[-69.039974,-20.685614],[-69.042502,-20.685671],[-69.044746,-20.687774],[-69.046763,-20.688285],[-69.047843,-20.685643],[-69.049235,-20.684989],[-69.051763,-20.686353],[-69.056138,-20.685927],[-69.057559,-20.684791],[-69.060712,-20.68641],[-69.064604,-20.685529],[-69.06719,-20.686126],[-69.070712,-20.689336],[-69.0729,-20.694251],[-69.072843,-20.695615],[-69.077161,-20.70212],[-69.077246,-20.703597],[-69.082928,-20.709961],[-69.084604,-20.711069],[-69.088212,-20.711893],[-69.08932,-20.714478],[-69.090656,-20.714166],[-69.097275,-20.715075],[-69.103184,-20.720075],[-69.106423,-20.720927],[-69.110769,-20.7207],[-69.118232,-20.724163],[-69.123059,-20.723299],[-69.126544,-20.723474],[-69.131161,-20.72269],[-69.136563,-20.724258],[-69.141964,-20.723561],[-69.151721,-20.718769],[-69.154907,-20.717963],[-69.16174,-20.717375],[-69.166792,-20.718246],[-69.174023,-20.720686],[-69.180819,-20.720773],[-69.183345,-20.721383],[-69.185163,-20.723656],[-69.189258,-20.726007],[-69.192144,-20.728265],[-69.19698,-20.729089],[-69.198762,-20.730585],[-69.204863,-20.728875],[-69.210439,-20.729659],[-69.21523,-20.733666],[-69.218541,-20.734886],[-69.224639,-20.736193],[-69.23248,-20.736716],[-69.236748,-20.736019],[-69.242584,-20.734034],[-69.248115,-20.726324],[-69.250555,-20.724567],[-69.253127,-20.723822],[-69.257047,-20.721557],[-69.263058,-20.71694],[-69.266657,-20.71326],[-69.269645,-20.711208],[-69.274979,-20.709602],[-69.2782,-20.709154],[-69.286309,-20.709656],[-69.290435,-20.708875],[-69.29655,-20.70652],[-69.29759,-20.70496],[-69.30075,-20.70461],[-69.30368,-20.7031],[-69.31364,-20.70312],[-69.320674,-20.707011],[-69.32359,-20.7094],[-69.32909,-20.71165],[-69.33104,-20.71351],[-69.339091,-20.713923],[-69.34251,-20.71575],[-69.34442,-20.71564],[-69.35133,-20.71873],[-69.35705,-20.71907],[-69.35991,-20.72074],[-69.36412,-20.7206],[-69.36871,-20.7219],[-69.37883,-20.7288],[-69.38201,-20.72895],[-69.38443,-20.73002],[-69.38887,-20.73042],[-69.39117,-20.73186],[-69.39611,-20.73256],[-69.40141,-20.73245],[-69.40616,-20.73094],[-69.417781,-20.731657],[-69.42279,-20.73041],[-69.427047,-20.730373],[-69.4402,-20.72887],[-69.44469,-20.7301],[-69.44918,-20.73009],[-69.45314,-20.73157],[-69.45947,-20.73081],[-69.464763,-20.731788],[-69.46884,-20.73326],[-69.47479,-20.73427],[-69.474888,-20.5],[-69.474992,-20.253166],[-69.45047,-20.253581],[-69.44236,-20.254013],[-69.440794,-20.253403],[-69.425703,-20.25844],[-69.420736,-20.255699],[-69.414618,-20.25546],[-69.411122,-20.255778],[-69.40846,-20.255301],[-69.395587,-20.255301],[-69.389548,-20.255977],[-69.382436,-20.255301],[-69.368292,-20.255142],[-69.360545,-20.254268],[-69.35677,-20.254387],[-69.3435,-20.251527],[-69.340322,-20.249699],[-69.335157,-20.248309],[-69.329158,-20.247395],[-69.321569,-20.248746],[-69.318073,-20.248785],[-69.313941,-20.24966],[-69.304565,-20.250335],[-69.300393,-20.251765],[-69.296023,-20.251606],[-69.288514,-20.248428],[-69.2787,-20.246044],[-69.271469,-20.244812],[-69.25518,-20.243621],[-69.247393,-20.245726],[-69.238295,-20.245488],[-69.235672,-20.245885],[-69.23015,-20.245726],[-69.226216,-20.243978],[-69.218032,-20.243779],[-69.209927,-20.246322],[-69.205,-20.24672],[-69.197491,-20.248229],[-69.194234,-20.249262],[-69.188751,-20.252401],[-69.184698,-20.25546],[-69.180487,-20.256334],[-69.177904,-20.257765],[-69.176236,-20.25995],[-69.171428,-20.264002],[-69.164203,-20.266523],[-69.15498,-20.269406],[-69.148266,-20.269604],[-69.139922,-20.271789],[-69.135007,-20.274176],[-69.131139,-20.27478],[-69.125222,-20.273537],[-69.121686,-20.27469],[-69.119898,-20.276636],[-69.117038,-20.282],[-69.113025,-20.287284],[-69.111475,-20.288556],[-69.108257,-20.289589],[-69.100589,-20.289708],[-69.096855,-20.289191],[-69.092285,-20.287694],[-69.086842,-20.287721],[-69.080287,-20.290979],[-69.07683,-20.29225],[-69.069878,-20.295667],[-69.06801,-20.296939],[-69.061614,-20.295111],[-69.05939,-20.294991],[-69.057536,-20.293571],[-69.054041,-20.288357],[-69.050716,-20.285808],[-69.043623,-20.286196],[-69.036863,-20.28751],[-69.03483,-20.290592],[-69.023798,-20.28899],[-69.020191,-20.287832],[-69.018236,-20.28374],[-69.016426,-20.282241],[-69.013427,-20.281465],[-69.010518,-20.278691],[-69.009394,-20.276501],[-69.009663,-20.271442],[-69.008204,-20.2659],[-69.008515,-20.26047],[-69.008204,-20.255299],[-69.009032,-20.249715],[-69.006136,-20.248784],[-69.000861,-20.248887],[-68.999052,-20.246302],[-68.995277,-20.242992],[-68.991812,-20.241493],[-68.98509,-20.233271],[-68.982866,-20.231409],[-68.97997,-20.223549],[-68.974747,-20.216465],[-68.970162,-20.212958],[-68.967458,-20.211606],[-68.963538,-20.208632],[-68.960969,-20.204711],[-68.961105,-20.202143],[-68.962456,-20.196736],[-68.965544,-20.187359],[-68.962886,-20.184148],[-68.964215,-20.180936],[-68.970195,-20.178832],[-68.982599,-20.178721],[-68.988136,-20.177725],[-68.99096,-20.174347],[-68.991292,-20.171357],[-68.990904,-20.164491],[-68.992787,-20.15995],[-68.995112,-20.156074],[-68.995057,-20.152974],[-68.997604,-20.149651],[-68.994171,-20.148156],[-68.992067,-20.145277],[-68.993174,-20.140404],[-68.996774,-20.136861],[-68.997493,-20.134203],[-69.000926,-20.127447],[-69.00364,-20.123738],[-69.006187,-20.121633],[-69.009066,-20.114324],[-69.008457,-20.105133],[-69.007183,-20.101589],[-69.004636,-20.09943],[-69.000096,-20.099263],[-68.996165,-20.098322],[-68.991292,-20.094834],[-68.987748,-20.087802],[-68.984426,-20.082763],[-68.981657,-20.076617],[-68.980439,-20.071578],[-68.980882,-20.067148],[-68.980162,-20.064213],[-68.980107,-20.060614],[-68.980882,-20.057237],[-68.979664,-20.053527],[-68.975954,-20.046661],[-68.974902,-20.043006],[-68.973296,-20.034479],[-68.971967,-20.030271],[-68.969143,-20.024457],[-68.969088,-20.018753],[-68.971358,-20.011555],[-68.971635,-20.006073],[-68.973794,-20.002807],[-68.97839,-19.999429],[-68.97983,-19.995996],[-68.978833,-19.988742],[-68.979885,-19.985198],[-68.981934,-19.983039],[-68.982266,-19.979938],[-68.980937,-19.975619],[-68.981048,-19.969639],[-68.980384,-19.965265],[-68.978723,-19.961776],[-68.980328,-19.9548],[-68.979332,-19.947269],[-68.979885,-19.942009],[-68.978944,-19.940071],[-68.978723,-19.936804],[-68.979996,-19.933426],[-68.981989,-19.930547],[-68.983761,-19.925785],[-68.98653,-19.92285],[-68.993784,-19.920469],[-68.99478,-19.917313],[-68.996552,-19.916095],[-69.001702,-19.914323],[-69.004802,-19.914378],[-69.01031,-19.91673],[-69.012859,-19.919447],[-69.016323,-19.920724],[-69.022309,-19.921108],[-69.026836,-19.923333],[-69.035047,-19.922259],[-69.041263,-19.924029],[-69.04759,-19.927765],[-69.052239,-19.92842],[-69.054519,-19.929391],[-69.05321,-19.933233],[-69.053295,-19.937412],[-69.052535,-19.940283],[-69.05359,-19.941549],[-69.057643,-19.942816],[-69.060218,-19.942858],[-69.062836,-19.945138],[-69.064482,-19.945602],[-69.067817,-19.944462],[-69.070603,-19.944842],[-69.072503,-19.946193],[-69.079258,-19.955945],[-69.081791,-19.960758],[-69.086477,-19.963333],[-69.094413,-19.963249],[-69.098551,-19.966795],[-69.105305,-19.968526],[-69.109527,-19.970679],[-69.112609,-19.971016],[-69.118308,-19.970594],[-69.125232,-19.968103],[-69.127005,-19.968526],[-69.128609,-19.971396],[-69.134097,-19.975787],[-69.140218,-19.97794],[-69.143005,-19.980431],[-69.143342,-19.98309],[-69.146762,-19.986552],[-69.152377,-19.988789],[-69.158118,-19.990056],[-69.173485,-19.990014],[-69.177453,-19.991449],[-69.184588,-19.99128],[-69.190203,-19.989254],[-69.195944,-19.986045],[-69.20253,-19.98537],[-69.205316,-19.986088],[-69.211269,-19.986003],[-69.216672,-19.984737],[-69.219881,-19.985159],[-69.22634,-19.983639],[-69.233517,-19.981317],[-69.236388,-19.981486],[-69.244029,-19.978658],[-69.248335,-19.976589],[-69.259987,-19.977011],[-69.26881,-19.975322],[-69.273243,-19.975111],[-69.275733,-19.975702],[-69.281277,-19.978738],[-69.287016,-19.979727],[-69.290907,-19.979134],[-69.294733,-19.980057],[-69.297133,-19.981547],[-69.302627,-19.98352],[-69.308614,-19.984928],[-69.312981,-19.987112],[-69.31914,-19.98883],[-69.335301,-19.991139],[-69.345393,-19.991931],[-69.34823,-19.994569],[-69.371725,-20],[-69.5,-20.029566],[-69.75,-20.08719],[-69.815658,-20.102323],[-69.89305,-20.04854],[-69.913774,-20.229016],[-69.96762,-20.321198],[-70.02822,-20.30583],[-70.1095,-20.35131],[-70.077345,-20.465689],[-70.062879,-20.5],[-70.02895,-20.58048],[-70.052363,-20.694933],[-70.03022,-20.75],[-70.011498,-20.796561],[-69.99583,-20.83616],[-69.893207,-21],[-69.819839,-21.117135],[-69.890752,-21.110219],[-69.884216,-21.25],[-69.881666,-21.304525],[-69.897555,-21.325933],[-69.929748,-21.372965],[-69.930629,-21.424629],[-69.923623,-21.426175],[-69.9189,-21.42577],[-69.91571,-21.42829],[-69.91189,-21.42915],[-69.90973,-21.42738],[-69.903795,-21.425319],[-69.89939,-21.43021],[-69.89388,-21.43184],[-69.89075,-21.43159],[-69.88739,-21.43348],[-69.8846,-21.43399],[-69.88095,-21.4369],[-69.87637,-21.43583],[-69.87366,-21.4362],[-69.87165,-21.43407],[-69.86925,-21.43358],[-69.86702,-21.43461],[-69.86331,-21.43436],[-69.86213,-21.43624],[-69.85811,-21.43789],[-69.85518,-21.43733],[-69.8526,-21.43947],[-69.8473,-21.43788],[-69.84137,-21.43686],[-69.83864,-21.43887],[-69.83505,-21.43989],[-69.831522,-21.442466],[-69.828468,-21.440224],[-69.82591,-21.43916],[-69.823297,-21.439977],[-69.81895,-21.43658],[-69.811928,-21.438179],[-69.809318,-21.439734],[-69.805286,-21.439649],[-69.80175,-21.44052],[-69.79564,-21.43845],[-69.79226,-21.44024],[-69.78903,-21.4379],[-69.78688,-21.43756],[-69.78229,-21.44078],[-69.77899,-21.43907],[-69.77946,-21.43667],[-69.78238,-21.43347],[-69.77559,-21.42664],[-69.76793,-21.42309],[-69.767754,-21.421409],[-69.76438,-21.4204],[-69.76316,-21.42201],[-69.76214,-21.42571],[-69.75616,-21.42741],[-69.75615,-21.43022],[-69.75489,-21.43381],[-69.75217,-21.43481],[-69.75051,-21.43668],[-69.7468,-21.43787],[-69.74415,-21.4408],[-69.74235,-21.44077],[-69.74096,-21.44265],[-69.73764,-21.4446],[-69.73565,-21.44422],[-69.73119,-21.44687],[-69.72865,-21.44943],[-69.72497,-21.44898],[-69.72229,-21.452],[-69.71898,-21.45047],[-69.71504,-21.45236],[-69.7128,-21.45213],[-69.71182,-21.45048],[-69.70687,-21.45107],[-69.707133,-21.452429],[-69.70249,-21.45507],[-69.70082,-21.45303],[-69.69809,-21.453],[-69.69542,-21.45055],[-69.689257,-21.453547],[-69.68804,-21.45893],[-69.68409,-21.45863],[-69.67843,-21.46173],[-69.67083,-21.46136],[-69.66702,-21.46213],[-69.66629,-21.47049],[-69.66485,-21.47452],[-69.66106,-21.47848],[-69.66214,-21.48014],[-69.65831,-21.48401],[-69.65471,-21.48675],[-69.65472,-21.48836],[-69.65234,-21.49038],[-69.65031,-21.49496],[-69.64507,-21.49786],[-69.643882,-21.499197],[-69.63954,-21.49948],[-69.639365,-21.500614],[-69.64081,-21.5059],[-69.63831,-21.50754],[-69.635707,-21.510348],[-69.63524,-21.51489],[-69.629965,-21.51977],[-69.62919,-21.52659],[-69.62718,-21.52753],[-69.62601,-21.52949],[-69.6278,-21.53165],[-69.63144,-21.53156],[-69.63209,-21.53301],[-69.627621,-21.53485],[-69.62776,-21.53824],[-69.62507,-21.54082],[-69.62588,-21.54564],[-69.62287,-21.54598],[-69.62077,-21.54774],[-69.61831,-21.54769],[-69.61565,-21.54943],[-69.61341,-21.54873],[-69.6102,-21.5504],[-69.6104,-21.55189],[-69.60705,-21.55288],[-69.6048,-21.55593],[-69.598799,-21.560573],[-69.597233,-21.563747],[-69.59725,-21.56651],[-69.5946,-21.56811],[-69.594163,-21.572641],[-69.59168,-21.57474],[-69.59063,-21.57856],[-69.58768,-21.58272],[-69.58624,-21.58367],[-69.58666,-21.58617],[-69.584471,-21.588159],[-69.58314,-21.59216],[-69.57833,-21.59573],[-69.5778,-21.59701],[-69.57923,-21.59915],[-69.57882,-21.6055],[-69.57291,-21.60977],[-69.5722,-21.61237],[-69.56957,-21.61318],[-69.56604,-21.61667],[-69.56593,-21.62089],[-69.56377,-21.62062],[-69.56276,-21.62316],[-69.55759,-21.62201],[-69.55771,-21.62509],[-69.554697,-21.625781],[-69.55347,-21.62774],[-69.549693,-21.624284],[-69.50373,-21.581123],[-69.454705,-21.533837],[-69.424381,-21.504558],[-69.406268,-21.487295],[-69.366288,-21.449042],[-69.31313,-21.39818],[-69.249901,-21.382458],[-69.002033,-21.320569],[-68.86081,-21.28512]]]},"properties":{"shapeName":"Pozo Almonte","shapeISO":"01401","shapeGroup":"CHL","shapeType":"ADM3","parentISO":"014","adm1ISO":"CL-TA","src_cut_com":"01401","src_cut_prov":"014","src_cut_reg":"01","src_provincia":"Tamarugal","src_region":"Tarapacá"}},
{"type":"Feature","geometry":{"type":"Polygon","coordinates":[[[-70.1095,-20.35131],[-70.02822,-20.30583],[-69.96762,-20.321198],[-69.913774,-20.229016],[-69.89305,-20.04854],[-70,-20.0675],[-70.09894,-20.08504],[-70.1023,-20.11401],[-70.120028,-20.155217],[-70.107819,-20.171585],[-70.110077,-20.205635],[-70.110818,-20.219372],[-70.111242,-20.233589],[-70.119097,-20.23381],[-70.118586,-20.236807],[-70.11985,-20.2422],[-70.11509,-20.24845],[-70.11129,-20.24928],[-70.1109,-20.25332],[-70.11118,-20.25736],[-70.11046,-20.26155],[-70.10882,-20.26254],[-70.1106,-20.26523],[-70.110861,-20.274534],[-70.10991,-20.27453],[-70.12438,-20.31578],[-70.1095,-20.35131]]]},"properties":{"shapeName":"Alto Hospicio","shapeISO":"01107","shapeGroup":"CHL","shapeType":"ADM3","parentISO":"011","adm1ISO":"CL-TA","src_cut_com":"01107","src_cut_prov":"011","src_cut_reg":"01","src_provincia":"Iquique","src_region":"Tarapacá"}},
{"type":"Feature","geometry":{"type":"MultiPolygon","coordinates":[[[[-70.1632,-19.82645],[-70.16515,-19.8268],[-70.16521,-19.82924],[-70.16332,-19.82935],[-70.1632,-19.82645]]],[[[-68.90864,-19.5997],[-68.995744,-19.566776],[-69.102238,-19.496565],[-69.023193,-19.33155],[-69.078296,-19.273446],[-69.079725,-19.27354],[-69.086013,-19.276931],[-69.089051,-19.276366],[-69.089969,-19.272056],[-69.091735,-19.270573],[-69.096469,-19.270149],[-69.105582,-19.276436],[-69.10749,-19.272056],[-69.117804,-19.267747],[-69.12169,-19.269584],[-69.124869,-19.270431],[-69.129744,-19.276366],[-69.132711,-19.288023],[-69.138292,-19.293251],[-69.14291,-19.29676],[-69.150349,-19.300411],[-69.155954,-19.303773],[-69.164023,-19.310722],[-69.167218,-19.31246],[-69.170539,-19.312401],[-69.169964,-19.319241],[-69.171925,-19.322379],[-69.173999,-19.327423],[-69.178717,-19.329636],[-69.182013,-19.338519],[-69.185599,-19.344739],[-69.185487,-19.348214],[-69.186552,-19.353145],[-69.190475,-19.356228],[-69.191427,-19.357741],[-69.194117,-19.358806],[-69.198433,-19.363513],[-69.202019,-19.36497],[-69.205998,-19.363569],[-69.210986,-19.363345],[-69.214292,-19.364017],[-69.219728,-19.363905],[-69.221746,-19.365362],[-69.224884,-19.372536],[-69.224996,-19.376402],[-69.225837,-19.378252],[-69.23004,-19.382735],[-69.231385,-19.385761],[-69.235139,-19.391702],[-69.240912,-19.394392],[-69.248589,-19.393943],[-69.25268,-19.391253],[-69.25722,-19.390861],[-69.259405,-19.391646],[-69.265346,-19.392206],[-69.267083,-19.390301],[-69.272575,-19.386714],[-69.275321,-19.388283],[-69.27661,-19.391365],[-69.278964,-19.393551],[-69.292832,-19.394464],[-69.299879,-19.39573],[-69.300579,-19.396754],[-69.308437,-19.401689],[-69.31497,-19.40793],[-69.31439,-19.41076],[-69.31664,-19.41356],[-69.31689,-19.41743],[-69.3183,-19.42041],[-69.32157,-19.42487],[-69.32033,-19.43229],[-69.31771,-19.43534],[-69.31416,-19.4379],[-69.31242,-19.44046],[-69.31349,-19.44238],[-69.31925,-19.44303],[-69.3202,-19.44568],[-69.32261,-19.44885],[-69.32528,-19.44873],[-69.32865,-19.45014],[-69.33259,-19.45317],[-69.33657,-19.45907],[-69.33629,-19.4611],[-69.33838,-19.46395],[-69.33907,-19.46746],[-69.34087,-19.47199],[-69.34547,-19.47843],[-69.34626,-19.48236],[-69.351495,-19.486478],[-69.35532,-19.49011],[-69.35598,-19.49363],[-69.35844,-19.49587],[-69.36099,-19.49921],[-69.365423,-19.50166],[-69.37003,-19.50255],[-69.37747,-19.51136],[-69.38282,-19.51541],[-69.38634,-19.51676],[-69.39017,-19.51728],[-69.39286,-19.51949],[-69.39878,-19.52046],[-69.401741,-19.523146],[-69.40939,-19.52775],[-69.41498,-19.52855],[-69.4174,-19.52968],[-69.425185,-19.535321],[-69.430934,-19.536976],[-69.43767,-19.53667],[-69.44502,-19.5389],[-69.44911,-19.54217],[-69.455043,-19.545522],[-69.4584,-19.54811],[-69.46197,-19.54881],[-69.46467,-19.54857],[-69.4709,-19.54987],[-69.47262,-19.54936],[-69.47695,-19.54984],[-69.48163,-19.55139],[-69.48518,-19.55338],[-69.48805,-19.55333],[-69.49239,-19.55486],[-69.49804,-19.55578],[-69.50179,-19.55562],[-69.50448,-19.55656],[-69.51086,-19.55602],[-69.51178,-19.55674],[-69.51891,-19.5568],[-69.52371,-19.55832],[-69.52614,-19.55995],[-69.53039,-19.56104],[-69.53548,-19.5643],[-69.54179,-19.56624],[-69.5467,-19.57052],[-69.5526,-19.57308],[-69.55484,-19.5747],[-69.56475,-19.57643],[-69.56708,-19.57844],[-69.57002,-19.57983],[-69.57139,-19.58184],[-69.57517,-19.5832],[-69.57947,-19.583],[-69.58286,-19.58541],[-69.58702,-19.58909],[-69.58805,-19.59267],[-69.59092,-19.5945],[-69.59229,-19.59774],[-69.59711,-19.60588],[-69.59962,-19.60813],[-69.6032,-19.60941],[-69.607505,-19.611712],[-69.61161,-19.61463],[-69.61549,-19.61629],[-69.62319,-19.618],[-69.62506,-19.61778],[-69.63362,-19.61982],[-69.6396,-19.62355],[-69.64657,-19.62534],[-69.64957,-19.62727],[-69.65785,-19.62778],[-69.66609,-19.63208],[-69.66897,-19.63556],[-69.67354,-19.63837],[-69.67581,-19.6388],[-69.67863,-19.64052],[-69.68434,-19.64],[-69.68815,-19.64137],[-69.68899,-19.64322],[-69.69472,-19.64765],[-69.69636,-19.64773],[-69.70047,-19.65148],[-69.70358,-19.65315],[-69.70701,-19.65752],[-69.70818,-19.65765],[-69.7154,-19.66254],[-69.71993,-19.66709],[-69.72372,-19.6703],[-69.72622,-19.67597],[-69.729873,-19.679344],[-69.73359,-19.68374],[-69.73563,-19.68525],[-69.73974,-19.69044],[-69.74228,-19.69192],[-69.74643,-19.69339],[-69.748718,-19.695022],[-69.751612,-19.695784],[-69.750638,-19.503823],[-69.749498,-19.276301],[-69.738728,-19.270001],[-69.734116,-19.265052],[-69.732197,-19.262061],[-69.723667,-19.261079],[-69.717986,-19.261913],[-69.716119,-19.261556],[-69.711669,-19.263185],[-69.707696,-19.263105],[-69.706027,-19.264099],[-69.704001,-19.26688],[-69.700346,-19.267952],[-69.691248,-19.266403],[-69.685567,-19.266363],[-69.680323,-19.267714],[-69.676191,-19.266601],[-69.671979,-19.264853],[-69.665464,-19.264655],[-69.653426,-19.262311],[-69.65283,-19.261754],[-69.643692,-19.259172],[-69.640156,-19.253054],[-69.636581,-19.248366],[-69.634713,-19.246618],[-69.63233,-19.241254],[-69.622079,-19.2374],[-69.615643,-19.236129],[-69.610995,-19.234182],[-69.607101,-19.233229],[-69.60578,-19.232195],[-69.602175,-19.232156],[-69.600731,-19.230828],[-69.601222,-19.222701],[-69.600665,-19.216503],[-69.59558,-19.208517],[-69.585807,-19.204346],[-69.583582,-19.204862],[-69.581714,-19.206849],[-69.580284,-19.210106],[-69.575119,-19.21253],[-69.569081,-19.21392],[-69.56181,-19.213841],[-69.559029,-19.215351],[-69.552474,-19.214556],[-69.547865,-19.213404],[-69.546196,-19.212172],[-69.541548,-19.21102],[-69.539442,-19.206133],[-69.536383,-19.203591],[-69.533761,-19.203273],[-69.530106,-19.203829],[-69.527126,-19.204981],[-69.522438,-19.208279],[-69.518108,-19.209034],[-69.514453,-19.206729],[-69.510917,-19.20371],[-69.506984,-19.201247],[-69.498084,-19.200452],[-69.490297,-19.19926],[-69.485291,-19.197194],[-69.482153,-19.194493],[-69.480127,-19.193579],[-69.476909,-19.188176],[-69.474723,-19.182455],[-69.473055,-19.179713],[-69.465784,-19.170655],[-69.46197,-19.166881],[-69.45915,-19.164775],[-69.458832,-19.162193],[-69.457322,-19.157982],[-69.453557,-19.152452],[-69.451056,-19.151937],[-69.444211,-19.149479],[-69.44298,-19.146738],[-69.440318,-19.145149],[-69.438649,-19.143043],[-69.437497,-19.13768],[-69.437894,-19.135574],[-69.436782,-19.126039],[-69.433484,-19.12147],[-69.430266,-19.118729],[-69.427803,-19.109472],[-69.426134,-19.106612],[-69.425539,-19.101566],[-69.425618,-19.097911],[-69.42391,-19.092388],[-69.421844,-19.088455],[-69.421129,-19.082893],[-69.420056,-19.080271],[-69.415964,-19.07598],[-69.407501,-19.072762],[-69.402893,-19.071411],[-69.400271,-19.068829],[-69.397728,-19.064896],[-69.39615,-19.06125],[-69.395075,-19.055878],[-69.395588,-19.050601],[-69.397723,-19.045397],[-69.399997,-19.04184],[-69.402135,-19.036688],[-69.403716,-19.034259],[-69.40727,-19.03168],[-69.413022,-19.028384],[-69.420522,-19.025262],[-69.436613,-19.023834],[-69.439355,-19.024755],[-69.444292,-19.025357],[-69.448429,-19.025189],[-69.455203,-19.02711],[-69.458197,-19.031393],[-69.458639,-19.033022],[-69.462057,-19.032077],[-69.465808,-19.032062],[-69.471231,-19.036121],[-69.475109,-19.036262],[-69.481214,-19.034412],[-69.485401,-19.032238],[-69.486969,-19.030012],[-69.499279,-19.028742],[-69.506667,-19.027222],[-69.509388,-19.026222],[-69.515397,-19.027059],[-69.522512,-19.025435],[-69.528383,-19.025358],[-69.539424,-19.02911],[-69.54506,-19.028518],[-69.548876,-19.028735],[-69.558032,-19.027462],[-69.562703,-19.028007],[-69.565545,-19.026661],[-69.570764,-19.027652],[-69.575061,-19.02594],[-69.580312,-19.024991],[-69.583459,-19.024894],[-69.585903,-19.023346],[-69.588746,-19.022872],[-69.594872,-19.022976],[-69.600923,-19.02187],[-69.605012,-19.023853],[-69.609864,-19.024207],[-69.616671,-19.023878],[-69.622567,-19.025967],[-69.62769,-19.026075],[-69.64172,-19.021107],[-69.646775,-19.021491],[-69.656628,-19.024984],[-69.659046,-19.025121],[-69.663313,-19.027107],[-69.66591,-19.027715],[-69.67588,-19.026335],[-69.682699,-19.026163],[-69.692138,-19.026519],[-69.706855,-19.026381],[-69.712142,-19.025885],[-69.7148,-19.026115],[-69.727302,-19.030276],[-69.731537,-19.032166],[-69.736694,-19.033483],[-69.741642,-19.033308],[-69.747064,-19.032383],[-69.751011,-19.032666],[-69.753995,-19.03528],[-69.76158,-19.036485],[-69.763851,-19.037384],[-69.766694,-19.037176],[-69.774061,-19.038306],[-69.783245,-19.040291],[-69.788751,-19.040258],[-69.790538,-19.043454],[-69.793119,-19.045732],[-69.802999,-19.046432],[-69.811833,-19.045613],[-69.82168,-19.047086],[-69.828213,-19.047155],[-69.834004,-19.04567],[-69.841186,-19.045431],[-69.846023,-19.04358],[-69.860057,-19.039369],[-69.866342,-19.0395],[-69.870491,-19.038489],[-69.875561,-19.0361],[-69.886463,-19.034675],[-69.894875,-19.039808],[-69.903804,-19.04411],[-69.904714,-19.0451],[-69.910366,-19.046463],[-69.915939,-19.049492],[-69.926274,-19.052372],[-69.931781,-19.053165],[-69.936274,-19.052053],[-69.942631,-19.049148],[-69.94794,-19.04942],[-69.951925,-19.051109],[-69.955609,-19.053452],[-69.962506,-19.059151],[-69.968523,-19.063197],[-69.973266,-19.065074],[-69.977649,-19.063955],[-69.980248,-19.064249],[-69.981579,-19.066092],[-69.988036,-19.069919],[-70.040377,-19.094798],[-70.099431,-19.118854],[-70.130918,-19.154166],[-70.25181,-19.21239],[-70.28645,-19.22905],[-70.28154,-19.23075],[-70.2809,-19.23496],[-70.28122,-19.23851],[-70.28282,-19.24069],[-70.28107,-19.24339],[-70.28196,-19.24626],[-70.28096,-19.24814],[-70.28131,-19.25254],[-70.27913,-19.25363],[-70.27866,-19.25599],[-70.27999,-19.26327],[-70.28004,-19.26702],[-70.28122,-19.26898],[-70.28233,-19.27414],[-70.28174,-19.27627],[-70.28248,-19.27968],[-70.28519,-19.28029],[-70.28366,-19.28818],[-70.28407,-19.29277],[-70.28036,-19.29481],[-70.27775,-19.29449],[-70.27848,-19.29769],[-70.28042,-19.30014],[-70.27929,-19.30233],[-70.2799,-19.30506],[-70.28427,-19.30701],[-70.28542,-19.30877],[-70.28,-19.30932],[-70.27799,-19.31106],[-70.27793,-19.313],[-70.27591,-19.31619],[-70.27388,-19.31682],[-70.27362,-19.31955],[-70.27046,-19.32193],[-70.26992,-19.32347],[-70.26616,-19.32364],[-70.26621,-19.32551],[-70.26213,-19.32544],[-70.25925,-19.3267],[-70.25664,-19.32915],[-70.25562,-19.33257],[-70.25608,-19.33643],[-70.26003,-19.34093],[-70.26349,-19.34244],[-70.26155,-19.34997],[-70.26171,-19.35248],[-70.25681,-19.35747],[-70.25326,-19.3635],[-70.25184,-19.36286],[-70.25028,-19.36515],[-70.24695,-19.36684],[-70.24828,-19.36862],[-70.24434,-19.37264],[-70.24201,-19.37683],[-70.24114,-19.37977],[-70.23816,-19.3843],[-70.23559,-19.38604],[-70.2378,-19.38948],[-70.23727,-19.3903],[-70.23826,-19.39737],[-70.23669,-19.40268],[-70.23457,-19.40436],[-70.23267,-19.40352],[-70.22587,-19.4072],[-70.22568,-19.40984],[-70.22432,-19.41247],[-70.22732,-19.41508],[-70.22854,-19.41809],[-70.22758,-19.41952],[-70.22795,-19.42408],[-70.22899,-19.42607],[-70.22494,-19.43076],[-70.22563,-19.43347],[-70.22499,-19.43649],[-70.2272,-19.43967],[-70.22654,-19.44171],[-70.2228,-19.4427],[-70.22045,-19.44537],[-70.21749,-19.44628],[-70.21799,-19.44898],[-70.21558,-19.45372],[-70.21633,-19.46095],[-70.21891,-19.4636],[-70.21856,-19.46788],[-70.21637,-19.46978],[-70.21559,-19.47198],[-70.21595,-19.47574],[-70.21441,-19.47769],[-70.2149,-19.48075],[-70.21424,-19.48278],[-70.21236,-19.48343],[-70.21216,-19.48777],[-70.20922,-19.49143],[-70.21072,-19.4944],[-70.20844,-19.49631],[-70.2055,-19.49522],[-70.20273,-19.4969],[-70.20222,-19.49832],[-70.20379,-19.50109],[-70.2043,-19.50493],[-70.20385,-19.50679],[-70.20603,-19.5084],[-70.20466,-19.51133],[-70.20296,-19.51292],[-70.20338,-19.51704],[-70.20225,-19.51878],[-70.20196,-19.5218],[-70.20496,-19.52487],[-70.20795,-19.53027],[-70.2105,-19.53246],[-70.21167,-19.53506],[-70.2099,-19.53812],[-70.2097,-19.54183],[-70.21127,-19.54288],[-70.20972,-19.5484],[-70.20675,-19.55223],[-70.20586,-19.55596],[-70.2063,-19.55875],[-70.21202,-19.56089],[-70.21356,-19.56427],[-70.21228,-19.56626],[-70.20643,-19.56704],[-70.20674,-19.57042],[-70.20494,-19.57187],[-70.20404,-19.57416],[-70.20474,-19.57675],[-70.2042,-19.57893],[-70.20548,-19.5815],[-70.20514,-19.58404],[-70.20672,-19.59111],[-70.20848,-19.59302],[-70.21353,-19.59665],[-70.21809,-19.59731],[-70.21887,-19.5982],[-70.2231,-19.59937],[-70.22798,-19.59984],[-70.22992,-19.59872],[-70.2378,-19.59866],[-70.23958,-19.59986],[-70.23962,-19.60326],[-70.23334,-19.60445],[-70.23202,-19.60666],[-70.22859,-19.60605],[-70.22573,-19.60749],[-70.22515,-19.60951],[-70.22122,-19.61403],[-70.21857,-19.61386],[-70.2157,-19.61571],[-70.2126,-19.61513],[-70.20744,-19.61942],[-70.20333,-19.62046],[-70.20349,-19.62331],[-70.20793,-19.627],[-70.20793,-19.62849],[-70.20482,-19.62908],[-70.20305,-19.6285],[-70.20033,-19.63289],[-70.19739,-19.63412],[-70.19245,-19.63536],[-70.19121,-19.63742],[-70.188,-19.63898],[-70.1864,-19.64347],[-70.18375,-19.6455],[-70.1827,-19.64767],[-70.17769,-19.64849],[-70.17305,-19.65246],[-70.17033,-19.65566],[-70.16912,-19.65821],[-70.16955,-19.66107],[-70.17113,-19.66451],[-70.17364,-19.6683],[-70.17301,-19.66901],[-70.17423,-19.67285],[-70.17144,-19.67382],[-70.17065,-19.67594],[-70.16806,-19.67818],[-70.16529,-19.67772],[-70.16347,-19.68165],[-70.16478,-19.68297],[-70.16394,-19.68559],[-70.16658,-19.6894],[-70.16916,-19.68998],[-70.17129,-19.6922],[-70.17098,-19.69363],[-70.17493,-19.69821],[-70.17225,-19.69802],[-70.16741,-19.70193],[-70.1672,-19.70365],[-70.16444,-19.70684],[-70.1643,-19.70951],[-70.16262,-19.71046],[-70.16042,-19.71406],[-70.1573,-19.7144],[-70.15508,-19.71621],[-70.15606,-19.71902],[-70.15401,-19.72009],[-70.15201,-19.72236],[-70.15292,-19.72613],[-70.15178,-19.72796],[-70.15241,-19.72975],[-70.15058,-19.73456],[-70.15267,-19.74146],[-70.1544,-19.74211],[-70.1547,-19.74679],[-70.15317,-19.74824],[-70.15241,-19.75083],[-70.1551,-19.76104],[-70.15718,-19.7652],[-70.15778,-19.76806],[-70.15566,-19.76852],[-70.15151,-19.77441],[-70.14962,-19.77992],[-70.14704,-19.78341],[-70.14678,-19.78537],[-70.1483,-19.78941],[-70.1485,-19.79448],[-70.14958,-19.79737],[-70.15114,-19.79898],[-70.15043,-19.8071],[-70.15131,-19.80915],[-70.15095,-19.81287],[-70.15194,-19.81574],[-70.15374,-19.81845],[-70.15724,-19.81986],[-70.15622,-19.8238],[-70.15763,-19.82688],[-70.16193,-19.82676],[-70.16252,-19.83074],[-70.1595,-19.83097],[-70.15793,-19.83333],[-70.15614,-19.83281],[-70.15319,-19.83402],[-70.14879,-19.83787],[-70.14763,-19.84112],[-70.14752,-19.84383],[-70.14999,-19.84583],[-70.14789,-19.84915],[-70.14319,-19.85226],[-70.14124,-19.85497],[-70.13826,-19.86322],[-70.13986,-19.86536],[-70.13947,-19.86788],[-70.13725,-19.86842],[-70.13646,-19.87269],[-70.13312,-19.87868],[-70.13193,-19.87953],[-70.13145,-19.88458],[-70.13311,-19.88749],[-70.13983,-19.89141],[-70.14286,-19.89355],[-70.14344,-19.89728],[-70.14648,-19.90006],[-70.1471,-19.90288],[-70.14644,-19.90664],[-70.14431,-19.90632],[-70.142,-19.90718],[-70.14059,-19.90989],[-70.13912,-19.91589],[-70.13881,-19.91918],[-70.13764,-19.9237],[-70.13754,-19.9263],[-70.13856,-19.93085],[-70.14195,-19.93312],[-70.14206,-19.93616],[-70.13989,-19.93962],[-70.1401,-19.94185],[-70.13642,-19.94374],[-70.13777,-19.94756],[-70.13793,-19.95469],[-70.13607,-19.95725],[-70.13596,-19.96029],[-70.13775,-19.96323],[-70.13638,-19.96709],[-70.13332,-19.96902],[-70.13261,-19.97224],[-70.12851,-19.97489],[-70.12741,-19.97669],[-70.12741,-19.98],[-70.1261,-19.98435],[-70.12435,-19.98826],[-70.12282,-19.98833],[-70.12471,-19.99464],[-70.12242,-19.999],[-70.12446,-20.0041],[-70.12453,-20.00758],[-70.12279,-20.01041],[-70.12495,-20.01634],[-70.1281,-20.01987],[-70.12668,-20.02179],[-70.12958,-20.03038],[-70.12852,-20.03184],[-70.12822,-20.03773],[-70.12882,-20.04277],[-70.12807,-20.0473],[-70.13054,-20.05107],[-70.13052,-20.05484],[-70.13332,-20.06099],[-70.13192,-20.06388],[-70.09894,-20.08504],[-70,-20.0675],[-69.89305,-20.04854],[-69.815658,-20.102323],[-69.75,-20.08719],[-69.5,-20.029566],[-69.371725,-20],[-69.34823,-19.994569],[-69.345393,-19.991931],[-69.335301,-19.991139],[-69.31914,-19.98883],[-69.312981,-19.987112],[-69.308614,-19.984928],[-69.302627,-19.98352],[-69.297133,-19.981547],[-69.294733,-19.980057],[-69.290907,-19.979134],[-69.287016,-19.979727],[-69.281277,-19.978738],[-69.275733,-19.975702],[-69.273243,-19.975111],[-69.26881,-19.975322],[-69.259987,-19.977011],[-69.248335,-19.976589],[-69.244029,-19.978658],[-69.236388,-19.981486],[-69.233517,-19.981317],[-69.22634,-19.983639],[-69.219881,-19.985159],[-69.216672,-19.984737],[-69.211269,-19.986003],[-69.205316,-19.986088],[-69.20253,-19.98537],[-69.195944,-19.986045],[-69.190203,-19.989254],[-69.184588,-19.99128],[-69.177453,-19.991449],[-69.173485,-19.990014],[-69.158118,-19.990056],[-69.152377,-19.988789],[-69.146762,-19.986552],[-69.143342,-19.98309],[-69.143005,-19.980431],[-69.140218,-19.97794],[-69.134097,-19.975787],[-69.128609,-19.971396],[-69.127005,-19.968526],[-69.125232,-19.968103],[-69.118308,-19.970594],[-69.112609,-19.971016],[-69.109527,-19.970679],[-69.105305,-19.968526],[-69.098551,-19.966795],[-69.094413,-19.963249],[-69.086477,-19.963333],[-69.081791,-19.960758],[-69.079258,-19.955945],[-69.072503,-19.946193],[-69.070603,-19.944842],[-69.067817,-19.944462],[-69.064482,-19.945602],[-69.062836,-19.945138],[-69.060218,-19.942858],[-69.057643,-19.942816],[-69.05359,-19.941549],[-69.052535,-19.940283],[-69.053295,-19.937412],[-69.05321,-19.933233],[-69.054519,-19.929391],[-69.052239,-19.92842],[-69.04759,-19.927765],[-69.041263,-19.924029],[-69.035047,-19.922259],[-69.026836,-19.923333],[-69.022309,-19.921108],[-69.016323,-19.920724],[-69.012859,-19.919447],[-69.01031,-19.91673],[-69.04087,-19.866555],[-69.039717,-19.837119],[-69.014186,-19.8252],[-68.928077,-19.744339],[-68.929286,-19.673677],[-68.90864,-19.5997]]]]},"properties":{"shapeName":"Huara","shapeISO":"01404","shapeGroup":"CHL","shapeType":"ADM3","parentISO":"014","adm1ISO":"CL-TA","src_cut_com":"01404","src_cut_prov":"014","src_cut_reg":"01","src_provincia":"Tamarugal","src_region":"Tarapacá"}},
{"type":"Feature","geometry":{"type":"Polygon","coordinates":[[[-69.31789,-19.13651],[-69.31821,-19.134674],[-69.31235,-19.126671],[-69.312587,-19.123886],[-69.314146,-19.120089],[-69.315279,-19.114282],[-69.314941,-19.103053],[-69.316541,-19.10248],[-69.325735,-19.096268],[-69.327426,-19.094191],[-69.333084,-19.090993],[-69.348099,-19.087047],[-69.354249,-19.084822],[-69.360086,-19.081042],[-69.370162,-19.072159],[-69.383723,-19.0643],[-69.386728,-19.061912],[-69.393846,-19.062158],[-69.39615,-19.06125],[-69.397728,-19.064896],[-69.400271,-19.068829],[-69.402893,-19.071411],[-69.407501,-19.072762],[-69.415964,-19.07598],[-69.420056,-19.080271],[-69.421129,-19.082893],[-69.421844,-19.088455],[-69.42391,-19.092388],[-69.425618,-19.097911],[-69.425539,-19.101566],[-69.426134,-19.106612],[-69.427803,-19.109472],[-69.430266,-19.118729],[-69.433484,-19.12147],[-69.436782,-19.126039],[-69.437894,-19.135574],[-69.437497,-19.13768],[-69.438649,-19.143043],[-69.440318,-19.145149],[-69.44298,-19.146738],[-69.444211,-19.149479],[-69.451056,-19.151937],[-69.453557,-19.152452],[-69.457322,-19.157982],[-69.458832,-19.162193],[-69.45915,-19.164775],[-69.46197,-19.166881],[-69.465784,-19.170655],[-69.473055,-19.179713],[-69.474723,-19.182455],[-69.476909,-19.188176],[-69.480127,-19.193579],[-69.482153,-19.194493],[-69.485291,-19.197194],[-69.490297,-19.19926],[-69.498084,-19.200452],[-69.506984,-19.201247],[-69.510917,-19.20371],[-69.514453,-19.206729],[-69.518108,-19.209034],[-69.522438,-19.208279],[-69.527126,-19.204981],[-69.530106,-19.203829],[-69.533761,-19.203273],[-69.536383,-19.203591],[-69.539442,-19.206133],[-69.541548,-19.21102],[-69.546196,-19.212172],[-69.547865,-19.213404],[-69.552474,-19.214556],[-69.559029,-19.215351],[-69.56181,-19.213841],[-69.569081,-19.21392],[-69.575119,-19.21253],[-69.580284,-19.210106],[-69.581714,-19.206849],[-69.583582,-19.204862],[-69.585807,-19.204346],[-69.59558,-19.208517],[-69.600665,-19.216503],[-69.601222,-19.222701],[-69.600731,-19.230828],[-69.602175,-19.232156],[-69.60578,-19.232195],[-69.607101,-19.233229],[-69.610995,-19.234182],[-69.615643,-19.236129],[-69.622079,-19.2374],[-69.63233,-19.241254],[-69.634713,-19.246618],[-69.636581,-19.248366],[-69.640156,-19.253054],[-69.643692,-19.259172],[-69.65283,-19.261754],[-69.653426,-19.262311],[-69.665464,-19.264655],[-69.671979,-19.264853],[-69.676191,-19.266601],[-69.680323,-19.267714],[-69.685567,-19.266363],[-69.691248,-19.266403],[-69.700346,-19.267952],[-69.704001,-19.26688],[-69.706027,-19.264099],[-69.707696,-19.263105],[-69.711669,-19.263185],[-69.716119,-19.261556],[-69.717986,-19.261913],[-69.723667,-19.261079],[-69.732197,-19.262061],[-69.734116,-19.265052],[-69.738728,-19.270001],[-69.749498,-19.276301],[-69.750638,-19.503823],[-69.751612,-19.695784],[-69.748718,-19.695022],[-69.74643,-19.69339],[-69.74228,-19.69192],[-69.73974,-19.69044],[-69.73563,-19.68525],[-69.73359,-19.68374],[-69.729873,-19.679344],[-69.72622,-19.67597],[-69.72372,-19.6703],[-69.71993,-19.66709],[-69.7154,-19.66254],[-69.70818,-19.65765],[-69.70701,-19.65752],[-69.70358,-19.65315],[-69.70047,-19.65148],[-69.69636,-19.64773],[-69.69472,-19.64765],[-69.68899,-19.64322],[-69.68815,-19.64137],[-69.68434,-19.64],[-69.67863,-19.64052],[-69.67581,-19.6388],[-69.67354,-19.63837],[-69.66897,-19.63556],[-69.66609,-19.63208],[-69.65785,-19.62778],[-69.64957,-19.62727],[-69.64657,-19.62534],[-69.6396,-19.62355],[-69.63362,-19.61982],[-69.62506,-19.61778],[-69.62319,-19.618],[-69.61549,-19.61629],[-69.61161,-19.61463],[-69.607505,-19.611712],[-69.6032,-19.60941],[-69.59962,-19.60813],[-69.59711,-19.60588],[-69.59229,-19.59774],[-69.59092,-19.5945],[-69.58805,-19.59267],[-69.58702,-19.58909],[-69.58286,-19.58541],[-69.57947,-19.583],[-69.57517,-19.5832],[-69.57139,-19.58184],[-69.57002,-19.57983],[-69.56708,-19.57844],[-69.56475,-19.57643],[-69.55484,-19.5747],[-69.5526,-19.57308],[-69.5467,-19.57052],[-69.54179,-19.56624],[-69.53548,-19.5643],[-69.53039,-19.56104],[-69.52614,-19.55995],[-69.52371,-19.55832],[-69.51891,-19.5568],[-69.51178,-19.55674],[-69.51086,-19.55602],[-69.50448,-19.55656],[-69.50179,-19.55562],[-69.49804,-19.55578],[-69.49239,-19.55486],[-69.48805,-19.55333],[-69.48518,-19.55338],[-69.48163,-19.55139],[-69.47695,-19.54984],[-69.47262,-19.54936],[-69.4709,-19.54987],[-69.46467,-19.54857],[-69.46197,-19.54881],[-69.4584,-19.54811],[-69.455043,-19.545522],[-69.44911,-19.54217],[-69.44502,-19.5389],[-69.43767,-19.53667],[-69.430934,-19.536976],[-69.425185,-19.535321],[-69.4174,-19.52968],[-69.41498,-19.52855],[-69.40939,-19.52775],[-69.401741,-19.523146],[-69.39878,-19.52046],[-69.39286,-19.51949],[-69.39017,-19.51728],[-69.38634,-19.51676],[-69.38282,-19.51541],[-69.37747,-19.51136],[-69.37003,-19.50255],[-69.365423,-19.50166],[-69.36099,-19.49921],[-69.35844,-19.49587],[-69.35598,-19.49363],[-69.35532,-19.49011],[-69.351495,-19.486478],[-69.34626,-19.48236],[-69.34547,-19.47843],[-69.34087,-19.47199],[-69.33907,-19.46746],[-69.33838,-19.46395],[-69.33629,-19.4611],[-69.33657,-19.45907],[-69.33259,-19.45317],[-69.32865,-19.45014],[-69.32528,-19.44873],[-69.32261,-19.44885],[-69.3202,-19.44568],[-69.31925,-19.44303],[-69.31349,-19.44238],[-69.31242,-19.44046],[-69.31416,-19.4379],[-69.31771,-19.43534],[-69.32033,-19.43229],[-69.32157,-19.42487],[-69.3183,-19.42041],[-69.31689,-19.41743],[-69.31664,-19.41356],[-69.31439,-19.41076],[-69.31497,-19.40793],[-69.308437,-19.401689],[-69.300579,-19.396754],[-69.299879,-19.39573],[-69.292832,-19.394464],[-69.278964,-19.393551],[-69.27661,-19.391365],[-69.275321,-19.388283],[-69.272575,-19.386714],[-69.267083,-19.390301],[-69.265346,-19.392206],[-69.259405,-19.391646],[-69.25722,-19.390861],[-69.25268,-19.391253],[-69.248589,-19.393943],[-69.240912,-19.394392],[-69.235139,-19.391702],[-69.231385,-19.385761],[-69.23004,-19.382735],[-69.225837,-19.378252],[-69.224996,-19.376402],[-69.224884,-19.372536],[-69.221746,-19.365362],[-69.219728,-19.363905],[-69.214292,-19.364017],[-69.210986,-19.363345],[-69.205998,-19.363569],[-69.202019,-19.36497],[-69.198433,-19.363513],[-69.194117,-19.358806],[-69.191427,-19.357741],[-69.190475,-19.356228],[-69.186552,-19.353145],[-69.185487,-19.348214],[-69.185599,-19.344739],[-69.182013,-19.338519],[-69.178717,-19.329636],[-69.173999,-19.327423],[-69.171925,-19.322379],[-69.169964,-19.319241],[-69.170539,-19.312401],[-69.167218,-19.31246],[-69.164023,-19.310722],[-69.155954,-19.303773],[-69.150349,-19.300411],[-69.14291,-19.29676],[-69.244277,-19.25],[-69.2717,-19.23735],[-69.31789,-19.13651]]]},"properties":{"shapeName":"Camiña","shapeISO":"01402","shapeGroup":"CHL","shapeType":"ADM3","parentISO":"014","adm1ISO":"CL-TA","src_cut_com":"01402","src_cut_prov":"014","src_cut_reg":"01","src_provincia":"Tamarugal","src_region":"Tarapacá"}},
{"type":"Feature","geometry":{"type":"Polygon","coordinates":[[[-70.05827,-21.430016],[-70.05431,-21.427899],[-70.051773,-21.428122],[-70.04763,-21.42575],[-70.044168,-21.425994],[-70.03996,-21.42468],[-70.03562,-21.42646],[-70.03234,-21.42973],[-70.0278,-21.42897],[-70.02099,-21.43409],[-70.01056,-21.43624],[-70.00736,-21.4389],[-70.002233,-21.438341],[-69.99855,-21.43693],[-69.99672,-21.43761],[-69.99238,-21.43535],[-69.98931,-21.43317],[-69.98655,-21.4332],[-69.98363,-21.4348],[-69.97906,-21.4345],[-69.97424,-21.43309],[-69.97187,-21.43313],[-69.9691,-21.43156],[-69.960355,-21.430199],[-69.95688,-21.42737],[-69.951368,-21.425421],[-69.94649,-21.42579],[-69.94298,-21.4254],[-69.93955,-21.42307],[-69.93743,-21.42411],[-69.93476,-21.42371],[-69.930629,-21.424629],[-69.929748,-21.372965],[-69.897555,-21.325933],[-69.881666,-21.304525],[-69.884216,-21.25],[-69.890752,-21.110219],[-69.819839,-21.117135],[-69.893207,-21],[-69.99583,-20.83616],[-70.011498,-20.796561],[-70.03022,-20.75],[-70.052363,-20.694933],[-70.02895,-20.58048],[-70.062879,-20.5],[-70.077345,-20.465689],[-70.1095,-20.35131],[-70.12438,-20.31578],[-70.10991,-20.27453],[-70.110861,-20.274534],[-70.1106,-20.26523],[-70.10882,-20.26254],[-70.11046,-20.26155],[-70.11118,-20.25736],[-70.1109,-20.25332],[-70.11129,-20.24928],[-70.11509,-20.24845],[-70.11985,-20.2422],[-70.118586,-20.236807],[-70.119097,-20.23381],[-70.111242,-20.233589],[-70.110818,-20.219372],[-70.110077,-20.205635],[-70.107819,-20.171585],[-70.120028,-20.155217],[-70.1023,-20.11401],[-70.09894,-20.08504],[-70.13192,-20.06388],[-70.13259,-20.06654],[-70.1314,-20.07046],[-70.12973,-20.07068],[-70.12764,-20.0729],[-70.12596,-20.07707],[-70.12749,-20.07973],[-70.12488,-20.08141],[-70.12295,-20.08492],[-70.122,-20.08984],[-70.12359,-20.09375],[-70.12379,-20.0959],[-70.12664,-20.10119],[-70.12769,-20.10661],[-70.13381,-20.11327],[-70.13109,-20.11848],[-70.13347,-20.12105],[-70.13292,-20.12295],[-70.13349,-20.12652],[-70.13601,-20.13211],[-70.13815,-20.13368],[-70.13795,-20.14176],[-70.13954,-20.14209],[-70.14113,-20.14702],[-70.14408,-20.15051],[-70.14787,-20.15124],[-70.14948,-20.15439],[-70.15235,-20.15693],[-70.15282,-20.16081],[-70.15238,-20.1639],[-70.14589,-20.17128],[-70.14359,-20.17349],[-70.14381,-20.17633],[-70.14207,-20.17639],[-70.14051,-20.17821],[-70.14049,-20.18164],[-70.13886,-20.1844],[-70.13803,-20.19089],[-70.13864,-20.1943],[-70.14047,-20.19979],[-70.14193,-20.20219],[-70.14497,-20.20508],[-70.14768,-20.20514],[-70.14937,-20.20691],[-70.15172,-20.20763],[-70.1521,-20.20995],[-70.15482,-20.21071],[-70.15738,-20.20598],[-70.15955,-20.20491],[-70.16304,-20.20671],[-70.16312,-20.2087],[-70.16146,-20.21039],[-70.15797,-20.20949],[-70.15476,-20.21188],[-70.15902,-20.21524],[-70.1581,-20.21696],[-70.15515,-20.21964],[-70.15497,-20.22134],[-70.1489,-20.22868],[-70.14801,-20.23154],[-70.1494,-20.23461],[-70.15293,-20.23454],[-70.15372,-20.23677],[-70.14564,-20.24192],[-70.14286,-20.24488],[-70.13728,-20.25199],[-70.13525,-20.25655],[-70.13376,-20.25857],[-70.13357,-20.26095],[-70.13093,-20.26391],[-70.13117,-20.26823],[-70.13213,-20.27098],[-70.13114,-20.273],[-70.13258,-20.27477],[-70.13042,-20.27747],[-70.1291,-20.28288],[-70.12989,-20.28728],[-70.13293,-20.28897],[-70.13077,-20.29371],[-70.1293,-20.29548],[-70.13136,-20.29718],[-70.13328,-20.2969],[-70.13685,-20.30019],[-70.13564,-20.30118],[-70.1358,-20.30352],[-70.13731,-20.30465],[-70.13698,-20.30717],[-70.13882,-20.31235],[-70.13778,-20.316],[-70.13894,-20.31834],[-70.1392,-20.32209],[-70.14205,-20.32495],[-70.14291,-20.32877],[-70.14717,-20.33306],[-70.14953,-20.33241],[-70.15174,-20.3332],[-70.15241,-20.33638],[-70.15436,-20.33731],[-70.15428,-20.33985],[-70.1617,-20.34454],[-70.16905,-20.34829],[-70.1707,-20.35039],[-70.17727,-20.3503],[-70.17878,-20.35356],[-70.18051,-20.35495],[-70.18294,-20.36011],[-70.18325,-20.36548],[-70.1815,-20.36967],[-70.18202,-20.37162],[-70.1809,-20.37338],[-70.1829,-20.37685],[-70.18201,-20.3788],[-70.17896,-20.37899],[-70.17784,-20.38364],[-70.17665,-20.38387],[-70.17358,-20.38735],[-70.17174,-20.39096],[-70.16882,-20.39188],[-70.16894,-20.39411],[-70.16774,-20.39666],[-70.16268,-20.40053],[-70.16268,-20.40242],[-70.16484,-20.4039],[-70.15956,-20.40815],[-70.16061,-20.41113],[-70.16368,-20.4139],[-70.16459,-20.41783],[-70.1667,-20.42227],[-70.16522,-20.42302],[-70.16544,-20.42749],[-70.16307,-20.42924],[-70.16325,-20.43104],[-70.16205,-20.43375],[-70.16301,-20.43526],[-70.16236,-20.43792],[-70.15967,-20.44217],[-70.16298,-20.44507],[-70.16231,-20.45131],[-70.16105,-20.4536],[-70.15905,-20.4545],[-70.1605,-20.45792],[-70.15906,-20.46155],[-70.16001,-20.46234],[-70.15953,-20.46536],[-70.1625,-20.4713],[-70.16531,-20.47345],[-70.16962,-20.47355],[-70.16824,-20.4758],[-70.16927,-20.47966],[-70.16603,-20.48107],[-70.16282,-20.48333],[-70.16227,-20.48468],[-70.1627,-20.4888],[-70.16698,-20.49514],[-70.16703,-20.49935],[-70.16643,-20.50058],[-70.16909,-20.50365],[-70.17103,-20.50477],[-70.17339,-20.50437],[-70.17709,-20.50731],[-70.18116,-20.51417],[-70.1825,-20.51419],[-70.18463,-20.51626],[-70.1853,-20.51881],[-70.18482,-20.52128],[-70.1872,-20.52326],[-70.18757,-20.52654],[-70.19097,-20.52684],[-70.19226,-20.52799],[-70.1944,-20.52684],[-70.19706,-20.529],[-70.19769,-20.53418],[-70.20002,-20.53722],[-70.19823,-20.54345],[-70.195,-20.5465],[-70.19428,-20.55134],[-70.19569,-20.55356],[-70.19478,-20.5558],[-70.19627,-20.56089],[-70.19574,-20.56301],[-70.19717,-20.56742],[-70.19346,-20.56713],[-70.19354,-20.57065],[-70.19214,-20.5728],[-70.19043,-20.57809],[-70.19387,-20.58017],[-70.19101,-20.58375],[-70.19285,-20.58817],[-70.19039,-20.59041],[-70.19154,-20.59592],[-70.19417,-20.59728],[-70.1964,-20.59996],[-70.19724,-20.60377],[-70.19629,-20.60598],[-70.19919,-20.61065],[-70.19845,-20.61965],[-70.19762,-20.62073],[-70.1983,-20.62342],[-70.1939,-20.63099],[-70.19284,-20.63472],[-70.19139,-20.63726],[-70.19179,-20.64066],[-70.18868,-20.64399],[-70.18488,-20.64484],[-70.18573,-20.64665],[-70.18307,-20.64869],[-70.18338,-20.65277],[-70.18241,-20.65627],[-70.1824,-20.65926],[-70.18531,-20.66038],[-70.18592,-20.66326],[-70.18898,-20.6673],[-70.18718,-20.66867],[-70.18639,-20.67108],[-70.18742,-20.67595],[-70.19046,-20.67707],[-70.19174,-20.6785],[-70.19177,-20.68126],[-70.18932,-20.68212],[-70.18879,-20.68521],[-70.18927,-20.68894],[-70.1875,-20.69003],[-70.188,-20.69451],[-70.19089,-20.69634],[-70.1915,-20.69857],[-70.1895,-20.70289],[-70.19348,-20.70468],[-70.19343,-20.70641],[-70.19504,-20.7089],[-70.19737,-20.71008],[-70.1969,-20.71155],[-70.19852,-20.71946],[-70.19645,-20.72259],[-70.19702,-20.7237],[-70.19574,-20.72737],[-70.19126,-20.72855],[-70.19059,-20.73049],[-70.18661,-20.73178],[-70.18466,-20.73402],[-70.18369,-20.73717],[-70.18436,-20.74099],[-70.18571,-20.74381],[-70.19104,-20.74733],[-70.19294,-20.74719],[-70.19479,-20.74877],[-70.19729,-20.74954],[-70.19912,-20.75231],[-70.19988,-20.755],[-70.19751,-20.75688],[-70.19649,-20.76078],[-70.19762,-20.76215],[-70.19535,-20.76383],[-70.19383,-20.76751],[-70.19421,-20.77363],[-70.19323,-20.77552],[-70.18788,-20.78313],[-70.18856,-20.78765],[-70.18761,-20.78848],[-70.18798,-20.7927],[-70.18631,-20.79372],[-70.18654,-20.79598],[-70.18575,-20.79914],[-70.19346,-20.80232],[-70.19593,-20.80611],[-70.2012,-20.80708],[-70.20503,-20.80976],[-70.20757,-20.81071],[-70.2026,-20.81546],[-70.19858,-20.81466],[-70.19559,-20.8177],[-70.19481,-20.82041],[-70.19226,-20.81957],[-70.19058,-20.82005],[-70.18443,-20.8263],[-70.18317,-20.82929],[-70.18138,-20.83056],[-70.17935,-20.83358],[-70.17972,-20.8376],[-70.17774,-20.83687],[-70.17361,-20.83851],[-70.17156,-20.84091],[-70.16604,-20.84453],[-70.16169,-20.8487],[-70.15997,-20.85254],[-70.1586,-20.85317],[-70.155,-20.8575],[-70.15543,-20.86037],[-70.15173,-20.8612],[-70.14966,-20.86391],[-70.14667,-20.86663],[-70.1465,-20.86987],[-70.1439,-20.87094],[-70.14285,-20.87355],[-70.14242,-20.88039],[-70.13867,-20.88224],[-70.13739,-20.88529],[-70.13796,-20.88914],[-70.13644,-20.89187],[-70.13646,-20.89413],[-70.13806,-20.89523],[-70.13951,-20.89917],[-70.14171,-20.90179],[-70.13839,-20.9017],[-70.13701,-20.90256],[-70.13659,-20.90686],[-70.13914,-20.9094],[-70.14125,-20.90991],[-70.14266,-20.91377],[-70.14009,-20.91693],[-70.13456,-20.91951],[-70.12859,-20.92886],[-70.12645,-20.93628],[-70.12666,-20.94029],[-70.12781,-20.94474],[-70.12947,-20.94652],[-70.13084,-20.95076],[-70.13571,-20.95557],[-70.13714,-20.95625],[-70.14035,-20.96],[-70.14249,-20.95992],[-70.14267,-20.96223],[-70.1472,-20.96639],[-70.14709,-20.96953],[-70.14846,-20.97046],[-70.14966,-20.97342],[-70.1531,-20.97336],[-70.15745,-20.97729],[-70.15854,-20.97936],[-70.15639,-20.9805],[-70.15537,-20.98259],[-70.1556,-20.9876],[-70.15691,-20.99002],[-70.15902,-20.99123],[-70.16298,-20.99467],[-70.16256,-20.99635],[-70.16527,-20.99756],[-70.16463,-21.0017],[-70.16546,-21.00489],[-70.16741,-21.00809],[-70.17126,-21.01044],[-70.173,-21.01536],[-70.17243,-21.01697],[-70.1779,-21.02409],[-70.17191,-21.02648],[-70.16788,-21.03013],[-70.16584,-21.03028],[-70.16615,-21.03333],[-70.16425,-21.03713],[-70.16365,-21.04226],[-70.16151,-21.04578],[-70.1581,-21.047],[-70.15715,-21.05098],[-70.15534,-21.05355],[-70.15605,-21.05506],[-70.15482,-21.05733],[-70.15174,-21.06069],[-70.15215,-21.0622],[-70.14826,-21.0633],[-70.14404,-21.06789],[-70.14388,-21.07014],[-70.14161,-21.07087],[-70.13866,-21.07341],[-70.13846,-21.07671],[-70.13624,-21.07914],[-70.13241,-21.07908],[-70.12978,-21.08133],[-70.12633,-21.0867],[-70.12526,-21.08717],[-70.12377,-21.0927],[-70.12393,-21.09762],[-70.12073,-21.10941],[-70.1212,-21.11249],[-70.12621,-21.11581],[-70.12701,-21.11691],[-70.12721,-21.12063],[-70.12634,-21.12197],[-70.13189,-21.12563],[-70.13273,-21.12995],[-70.12605,-21.13644],[-70.12579,-21.13901],[-70.12372,-21.14021],[-70.11848,-21.14655],[-70.11682,-21.14749],[-70.11537,-21.15007],[-70.1148,-21.15356],[-70.11586,-21.1566],[-70.11545,-21.15867],[-70.11179,-21.16087],[-70.1099,-21.16688],[-70.11054,-21.1678],[-70.10922,-21.17143],[-70.11082,-21.17428],[-70.10725,-21.17683],[-70.10235,-21.18175],[-70.10279,-21.18343],[-70.09871,-21.18622],[-70.0964,-21.18906],[-70.09446,-21.19368],[-70.09405,-21.19938],[-70.09637,-21.20139],[-70.09551,-21.20628],[-70.09376,-21.20821],[-70.09499,-21.21035],[-70.09343,-21.21507],[-70.09014,-21.21742],[-70.08937,-21.22045],[-70.08615,-21.22378],[-70.08506,-21.22685],[-70.08195,-21.23085],[-70.0826,-21.23234],[-70.08122,-21.23876],[-70.08108,-21.24123],[-70.08276,-21.24313],[-70.08261,-21.24521],[-70.08446,-21.24693],[-70.0871,-21.24793],[-70.08678,-21.25407],[-70.08577,-21.25413],[-70.08504,-21.25767],[-70.08343,-21.25769],[-70.08188,-21.26112],[-70.08,-21.26313],[-70.07924,-21.26802],[-70.07591,-21.27093],[-70.07522,-21.27409],[-70.0717,-21.28154],[-70.07235,-21.28263],[-70.06917,-21.28892],[-70.06782,-21.29039],[-70.06577,-21.29448],[-70.06497,-21.30199],[-70.06579,-21.31028],[-70.06672,-21.31372],[-70.06894,-21.31887],[-70.07204,-21.32274],[-70.07617,-21.32596],[-70.07982,-21.32703],[-70.08163,-21.32876],[-70.08295,-21.33321],[-70.08701,-21.33776],[-70.09428,-21.33826],[-70.09743,-21.33925],[-70.09597,-21.34067],[-70.09518,-21.34498],[-70.09677,-21.34667],[-70.09684,-21.34964],[-70.09522,-21.35053],[-70.09444,-21.3538],[-70.09232,-21.35696],[-70.09108,-21.36118],[-70.09165,-21.36252],[-70.09,-21.36859],[-70.08617,-21.37435],[-70.08725,-21.37716],[-70.0869,-21.37873],[-70.08139,-21.38542],[-70.0795,-21.38889],[-70.0792,-21.3917],[-70.078,-21.39478],[-70.07465,-21.4006],[-70.0724,-21.40302],[-70.07296,-21.40467],[-70.07115,-21.40957],[-70.06901,-21.41163],[-70.06609,-21.41705],[-70.06502,-21.42071],[-70.05915,-21.42835],[-70.05827,-21.430016]]]},"properties":{"shapeName":"Iquique","shapeISO":"01101","shapeGroup":"CHL","shapeType":"ADM3","parentISO":"011","adm1ISO":"CL-TA","src_cut_com":"01101","src_cut_prov":"011","src_cut_reg":"01","src_provincia":"Iquique","src_region":"Tarapacá"}},
{"type":"Feature","geometry":{"type":"Polygon","coordinates":[[[-68.651455,-19.771808],[-68.707649,-19.761935],[-68.811859,-19.743613],[-68.814523,-19.737621],[-68.815754,-19.733769],[-68.814996,-19.729192],[-68.812945,-19.725467],[-68.812345,-19.720827],[-68.810356,-19.717575],[-68.814839,-19.713282],[-68.815344,-19.711072],[-68.819605,-19.708515],[-68.825887,-19.706053],[-68.828634,-19.702707],[-68.828823,-19.699108],[-68.83078,-19.695225],[-68.83299,-19.692384],[-68.834316,-19.68626],[-68.83419,-19.679725],[-68.834536,-19.675598],[-68.83562,-19.672106],[-68.837667,-19.669818],[-68.839955,-19.661991],[-68.842604,-19.657535],[-68.840124,-19.655517],[-68.840309,-19.651262],[-68.841234,-19.650029],[-68.847215,-19.648118],[-68.850236,-19.645713],[-68.854244,-19.638685],[-68.856402,-19.638068],[-68.860224,-19.638993],[-68.866513,-19.63665],[-68.8675,-19.63443],[-68.870212,-19.633629],[-68.87533,-19.636835],[-68.877796,-19.637266],[-68.881742,-19.634985],[-68.88242,-19.63369],[-68.886736,-19.630546],[-68.887291,-19.629251],[-68.896293,-19.618461],[-68.903692,-19.607856],[-68.906281,-19.601506],[-68.90864,-19.5997],[-68.929286,-19.673677],[-68.928077,-19.744339],[-69.014186,-19.8252],[-69.039717,-19.837119],[-69.04087,-19.866555],[-69.01031,-19.91673],[-69.004802,-19.914378],[-69.001702,-19.914323],[-68.996552,-19.916095],[-68.99478,-19.917313],[-68.993784,-19.920469],[-68.98653,-19.92285],[-68.983761,-19.925785],[-68.981989,-19.930547],[-68.979996,-19.933426],[-68.978723,-19.936804],[-68.978944,-19.940071],[-68.979885,-19.942009],[-68.979332,-19.947269],[-68.980328,-19.9548],[-68.978723,-19.961776],[-68.980384,-19.965265],[-68.981048,-19.969639],[-68.980937,-19.975619],[-68.982266,-19.979938],[-68.981934,-19.983039],[-68.979885,-19.985198],[-68.978833,-19.988742],[-68.97983,-19.995996],[-68.97839,-19.999429],[-68.973794,-20.002807],[-68.971635,-20.006073],[-68.971358,-20.011555],[-68.969088,-20.018753],[-68.969143,-20.024457],[-68.971967,-20.030271],[-68.973296,-20.034479],[-68.974902,-20.043006],[-68.975954,-20.046661],[-68.979664,-20.053527],[-68.980882,-20.057237],[-68.980107,-20.060614],[-68.980162,-20.064213],[-68.980882,-20.067148],[-68.980439,-20.071578],[-68.981657,-20.076617],[-68.984426,-20.082763],[-68.987748,-20.087802],[-68.991292,-20.094834],[-68.996165,-20.098322],[-69.000096,-20.099263],[-69.004636,-20.09943],[-69.007183,-20.101589],[-69.008457,-20.105133],[-69.009066,-20.114324],[-69.006187,-20.121633],[-69.00364,-20.123738],[-69.000926,-20.127447],[-68.997493,-20.134203],[-68.996774,-20.136861],[-68.993174,-20.140404],[-68.992067,-20.145277],[-68.994171,-20.148156],[-68.997604,-20.149651],[-68.995057,-20.152974],[-68.995112,-20.156074],[-68.992787,-20.15995],[-68.990904,-20.164491],[-68.991292,-20.171357],[-68.99096,-20.174347],[-68.988136,-20.177725],[-68.982599,-20.178721],[-68.970195,-20.178832],[-68.964215,-20.180936],[-68.962886,-20.184148],[-68.965544,-20.187359],[-68.962456,-20.196736],[-68.961105,-20.202143],[-68.960969,-20.204711],[-68.963538,-20.208632],[-68.967458,-20.211606],[-68.970162,-20.212958],[-68.974747,-20.216465],[-68.97997,-20.223549],[-68.982866,-20.231409],[-68.98509,-20.233271],[-68.991812,-20.241493],[-68.995277,-20.242992],[-68.999052,-20.246302],[-69.000861,-20.248887],[-69.006136,-20.248784],[-69.009032,-20.249715],[-69.008204,-20.255299],[-69.008515,-20.26047],[-69.008204,-20.2659],[-69.009663,-20.271442],[-69.009394,-20.276501],[-69.010518,-20.278691],[-69.013427,-20.281465],[-69.016426,-20.282241],[-69.018236,-20.28374],[-69.020191,-20.287832],[-69.023798,-20.28899],[-69.03483,-20.290592],[-69.036863,-20.28751],[-69.043623,-20.286196],[-69.050716,-20.285808],[-69.054041,-20.288357],[-69.057536,-20.293571],[-69.05939,-20.294991],[-69.061614,-20.295111],[-69.06801,-20.296939],[-69.069878,-20.295667],[-69.07683,-20.29225],[-69.080287,-20.290979],[-69.086842,-20.287721],[-69.092285,-20.287694],[-69.096855,-20.289191],[-69.100589,-20.289708],[-69.108257,-20.289589],[-69.111475,-20.288556],[-69.113025,-20.287284],[-69.117038,-20.282],[-69.119898,-20.276636],[-69.121686,-20.27469],[-69.125222,-20.273537],[-69.131139,-20.27478],[-69.135007,-20.274176],[-69.139922,-20.271789],[-69.148266,-20.269604],[-69.15498,-20.269406],[-69.164203,-20.266523],[-69.171428,-20.264002],[-69.176236,-20.25995],[-69.177904,-20.257765],[-69.180487,-20.256334],[-69.184698,-20.25546],[-69.188751,-20.252401],[-69.194234,-20.249262],[-69.197491,-20.248229],[-69.205,-20.24672],[-69.209927,-20.246322],[-69.218032,-20.243779],[-69.226216,-20.243978],[-69.23015,-20.245726],[-69.235672,-20.245885],[-69.238295,-20.245488],[-69.247393,-20.245726],[-69.25518,-20.243621],[-69.271469,-20.244812],[-69.2787,-20.246044],[-69.288514,-20.248428],[-69.296023,-20.251606],[-69.300393,-20.251765],[-69.304565,-20.250335],[-69.313941,-20.24966],[-69.318073,-20.248785],[-69.321569,-20.248746],[-69.329158,-20.247395],[-69.335157,-20.248309],[-69.340322,-20.249699],[-69.3435,-20.251527],[-69.35677,-20.254387],[-69.360545,-20.254268],[-69.368292,-20.255142],[-69.382436,-20.255301],[-69.389548,-20.255977],[-69.395587,-20.255301],[-69.40846,-20.255301],[-69.411122,-20.255778],[-69.414618,-20.25546],[-69.420736,-20.255699],[-69.425703,-20.25844],[-69.440794,-20.253403],[-69.44236,-20.254013],[-69.45047,-20.253581],[-69.474992,-20.253166],[-69.474888,-20.5],[-69.47479,-20.73427],[-69.46884,-20.73326],[-69.464763,-20.731788],[-69.45947,-20.73081],[-69.45314,-20.73157],[-69.44918,-20.73009],[-69.44469,-20.7301],[-69.4402,-20.72887],[-69.427047,-20.730373],[-69.42279,-20.73041],[-69.417781,-20.731657],[-69.40616,-20.73094],[-69.40141,-20.73245],[-69.39611,-20.73256],[-69.39117,-20.73186],[-69.38887,-20.73042],[-69.38443,-20.73002],[-69.38201,-20.72895],[-69.37883,-20.7288],[-69.36871,-20.7219],[-69.36412,-20.7206],[-69.35991,-20.72074],[-69.35705,-20.71907],[-69.35133,-20.71873],[-69.34442,-20.71564],[-69.34251,-20.71575],[-69.339091,-20.713923],[-69.33104,-20.71351],[-69.32909,-20.71165],[-69.32359,-20.7094],[-69.320674,-20.707011],[-69.31364,-20.70312],[-69.30368,-20.7031],[-69.30075,-20.70461],[-69.29759,-20.70496],[-69.29655,-20.70652],[-69.290435,-20.708875],[-69.286309,-20.709656],[-69.2782,-20.709154],[-69.274979,-20.709602],[-69.269645,-20.711208],[-69.266657,-20.71326],[-69.263058,-20.71694],[-69.257047,-20.721557],[-69.253127,-20.723822],[-69.250555,-20.724567],[-69.248115,-20.726324],[-69.242584,-20.734034],[-69.236748,-20.736019],[-69.23248,-20.736716],[-69.224639,-20.736193],[-69.218541,-20.734886],[-69.21523,-20.733666],[-69.210439,-20.729659],[-69.204863,-20.728875],[-69.198762,-20.730585],[-69.19698,-20.729089],[-69.192144,-20.728265],[-69.189258,-20.726007],[-69.185163,-20.723656],[-69.183345,-20.721383],[-69.180819,-20.720773],[-69.174023,-20.720686],[-69.166792,-20.718246],[-69.16174,-20.717375],[-69.154907,-20.717963],[-69.151721,-20.718769],[-69.141964,-20.723561],[-69.136563,-20.724258],[-69.131161,-20.72269],[-69.126544,-20.723474],[-69.123059,-20.723299],[-69.118232,-20.724163],[-69.110769,-20.7207],[-69.106423,-20.720927],[-69.103184,-20.720075],[-69.097275,-20.715075],[-69.090656,-20.714166],[-69.08932,-20.714478],[-69.088212,-20.711893],[-69.084604,-20.711069],[-69.082928,-20.709961],[-69.077246,-20.703597],[-69.077161,-20.70212],[-69.072843,-20.695615],[-69.0729,-20.694251],[-69.070712,-20.689336],[-69.06719,-20.686126],[-69.064604,-20.685529],[-69.060712,-20.68641],[-69.057559,-20.684791],[-69.056138,-20.685927],[-69.051763,-20.686353],[-69.049235,-20.684989],[-69.047843,-20.685643],[-69.046763,-20.688285],[-69.044746,-20.687774],[-69.042502,-20.685671],[-69.039974,-20.685614],[-69.037303,-20.682489],[-69.033155,-20.685558],[-69.025542,-20.682291],[-69.017186,-20.677531],[-69.011415,-20.675179],[-69.005955,-20.67722],[-69.002493,-20.676066],[-68.998232,-20.676821],[-68.996278,-20.678552],[-68.992106,-20.679085],[-68.987267,-20.681038],[-68.985359,-20.682414],[-68.980565,-20.683391],[-68.975327,-20.685965],[-68.97475,-20.687252],[-68.968979,-20.688185],[-68.966981,-20.689072],[-68.966404,-20.690892],[-68.961965,-20.69471],[-68.962986,-20.70159],[-68.964185,-20.703943],[-68.961255,-20.712599],[-68.961965,-20.716327],[-68.961965,-20.720056],[-68.9613,-20.726271],[-68.958592,-20.730443],[-68.95948,-20.733595],[-68.957704,-20.737634],[-68.957482,-20.741585],[-68.954686,-20.748243],[-68.954064,-20.752416],[-68.954197,-20.755967],[-68.955795,-20.758142],[-68.958414,-20.759873],[-68.961521,-20.759296],[-68.962409,-20.760406],[-68.957926,-20.762448],[-68.955396,-20.769195],[-68.956106,-20.773146],[-68.958104,-20.775898],[-68.956994,-20.783311],[-68.958104,-20.78593],[-68.965517,-20.792455],[-68.963741,-20.795119],[-68.962853,-20.800223],[-68.964007,-20.804529],[-68.962853,-20.812031],[-68.959391,-20.817358],[-68.957882,-20.821131],[-68.956949,-20.825437],[-68.954464,-20.828322],[-68.966584,-20.912834],[-68.966946,-21],[-68.96735,-21.097406],[-68.94539,-21.121593],[-68.900526,-21.172955],[-68.873245,-21.25],[-68.86081,-21.28512],[-68.813963,-21.254928],[-68.778277,-21.231062],[-68.745541,-21.208973],[-68.71329,-21.18679],[-68.658612,-21.149181],[-68.577443,-21.093351],[-68.53576,-21.06468],[-68.499818,-20.986588],[-68.493755,-20.973677],[-68.48597,-20.956648],[-68.478395,-20.94083],[-68.480823,-20.941279],[-68.480762,-20.945195],[-68.483701,-20.946961],[-68.486158,-20.946137],[-68.493111,-20.94598],[-68.49441,-20.943539],[-68.497751,-20.942868],[-68.499079,-20.94144],[-68.502731,-20.942786],[-68.502617,-20.938817],[-68.508012,-20.938075],[-68.512802,-20.936377],[-68.514233,-20.93444],[-68.514204,-20.929671],[-68.516212,-20.927091],[-68.520437,-20.925008],[-68.52415,-20.919763],[-68.525748,-20.918983],[-68.52749,-20.915885],[-68.534539,-20.909307],[-68.540064,-20.908508],[-68.541835,-20.90511],[-68.539551,-20.902212],[-68.539108,-20.900142],[-68.541495,-20.896811],[-68.541586,-20.893282],[-68.540721,-20.891932],[-68.543358,-20.889547],[-68.544149,-20.887534],[-68.549576,-20.881264],[-68.550739,-20.87792],[-68.553288,-20.875839],[-68.552295,-20.871241],[-68.555612,-20.866393],[-68.554204,-20.862122],[-68.550523,-20.858729],[-68.549067,-20.855185],[-68.549368,-20.849754],[-68.548891,-20.845947],[-68.547416,-20.842424],[-68.549209,-20.838202],[-68.550918,-20.836021],[-68.554035,-20.833932],[-68.552818,-20.832177],[-68.547581,-20.831704],[-68.545998,-20.827043],[-68.54662,-20.824399],[-68.545393,-20.820759],[-68.546235,-20.819402],[-68.544319,-20.813747],[-68.541512,-20.810316],[-68.540739,-20.807072],[-68.541066,-20.803104],[-68.54094,-20.796535],[-68.541387,-20.793851],[-68.545764,-20.782925],[-68.543651,-20.778157],[-68.541381,-20.775787],[-68.546189,-20.770059],[-68.549328,-20.763073],[-68.549671,-20.760746],[-68.552711,-20.751594],[-68.553189,-20.7465],[-68.552114,-20.744525],[-68.551961,-20.741379],[-68.554172,-20.736251],[-68.552466,-20.732632],[-68.553228,-20.72872],[-68.551015,-20.726379],[-68.54893,-20.727635],[-68.54646,-20.725251],[-68.539565,-20.724195],[-68.5362,-20.723067],[-68.532118,-20.72289],[-68.530742,-20.721725],[-68.528656,-20.71696],[-68.527585,-20.711948],[-68.527199,-20.705338],[-68.52887,-20.702526],[-68.526187,-20.696498],[-68.523844,-20.695587],[-68.519209,-20.690762],[-68.516065,-20.686932],[-68.504844,-20.677881],[-68.502735,-20.676791],[-68.503525,-20.673803],[-68.501432,-20.669208],[-68.498648,-20.668787],[-68.494721,-20.669174],[-68.490785,-20.666865],[-68.482483,-20.665373],[-68.477047,-20.665689],[-68.468385,-20.65817],[-68.46504,-20.656567],[-68.460062,-20.655722],[-68.454708,-20.651607],[-68.450497,-20.647675],[-68.447668,-20.647692],[-68.444293,-20.645278],[-68.438991,-20.643915],[-68.438816,-20.641782],[-68.441726,-20.635236],[-68.446983,-20.634957],[-68.458513,-20.631487],[-68.459358,-20.626944],[-68.462402,-20.622253],[-68.46539,-20.62327],[-68.467258,-20.620609],[-68.469236,-20.619616],[-68.473885,-20.619396],[-68.475423,-20.618193],[-68.478329,-20.613953],[-68.481286,-20.612877],[-68.482753,-20.610114],[-68.483686,-20.60616],[-68.487389,-20.605317],[-68.489709,-20.607428],[-68.493136,-20.607734],[-68.496494,-20.605779],[-68.499848,-20.605114],[-68.503819,-20.603596],[-68.506392,-20.605669],[-68.509498,-20.606204],[-68.513482,-20.605488],[-68.515237,-20.60447],[-68.517379,-20.601334],[-68.516993,-20.59786],[-68.519172,-20.594995],[-68.518552,-20.591818],[-68.520144,-20.589556],[-68.521336,-20.584902],[-68.526665,-20.579189],[-68.527248,-20.576536],[-68.532701,-20.573495],[-68.534987,-20.569482],[-68.537138,-20.571356],[-68.540241,-20.572751],[-68.547446,-20.573532],[-68.551789,-20.570582],[-68.554444,-20.57035],[-68.556299,-20.571511],[-68.560421,-20.571818],[-68.562876,-20.572599],[-68.567205,-20.572704],[-68.569002,-20.574938],[-68.571793,-20.575615],[-68.577598,-20.571929],[-68.579114,-20.56847],[-68.578545,-20.565016],[-68.581558,-20.559536],[-68.587306,-20.557942],[-68.589372,-20.556197],[-68.590882,-20.553551],[-68.592019,-20.549767],[-68.594226,-20.54828],[-68.597926,-20.550622],[-68.600653,-20.548142],[-68.606031,-20.545238],[-68.608475,-20.545624],[-68.611037,-20.542308],[-68.612056,-20.537718],[-68.622136,-20.531847],[-68.627113,-20.530806],[-68.629794,-20.528731],[-68.633352,-20.528023],[-68.640419,-20.52454],[-68.646598,-20.522878],[-68.650365,-20.524217],[-68.65184,-20.522527],[-68.655321,-20.522079],[-68.658455,-20.520188],[-68.661092,-20.515331],[-68.664268,-20.514843],[-68.666254,-20.516563],[-68.738745,-20.456804],[-68.741535,-20.368338],[-68.739943,-20.370064],[-68.734357,-20.373452],[-68.730833,-20.372819],[-68.728443,-20.369645],[-68.721618,-20.366851],[-68.714182,-20.365326],[-68.710779,-20.366424],[-68.705732,-20.365412],[-68.702213,-20.364223],[-68.691449,-20.361615],[-68.688792,-20.359462],[-68.678548,-20.358572],[-68.674331,-20.356764],[-68.672418,-20.355075],[-68.664664,-20.346561],[-68.662269,-20.342877],[-68.660953,-20.339289],[-68.661236,-20.335494],[-68.661051,-20.32484],[-68.66227,-20.321574],[-68.661346,-20.318349],[-68.664187,-20.317655],[-68.666435,-20.314661],[-68.669077,-20.313418],[-68.670166,-20.309109],[-68.669785,-20.306381],[-68.677833,-20.302182],[-68.67903,-20.296629],[-68.680173,-20.295101],[-68.68717,-20.293944],[-68.69299,-20.295312],[-68.694868,-20.291989],[-68.697616,-20.289451],[-68.696132,-20.288735],[-68.694889,-20.286222],[-68.695047,-20.279061],[-68.693589,-20.275172],[-68.695803,-20.271961],[-68.696192,-20.267486],[-68.697687,-20.261737],[-68.697154,-20.257647],[-68.699286,-20.254185],[-68.701133,-20.248815],[-68.702501,-20.248896],[-68.706091,-20.252105],[-68.710042,-20.25205],[-68.712673,-20.248907],[-68.712773,-20.245652],[-68.710474,-20.242611],[-68.712016,-20.238328],[-68.712915,-20.233474],[-68.712401,-20.23129],[-68.714414,-20.22892],[-68.714986,-20.226892],[-68.710846,-20.224336],[-68.704518,-20.219241],[-68.701311,-20.215548],[-68.69913,-20.213853],[-68.700121,-20.210969],[-68.705791,-20.210645],[-68.708818,-20.209246],[-68.710845,-20.206848],[-68.712801,-20.201894],[-68.712676,-20.194251],[-68.709607,-20.191598],[-68.710256,-20.189835],[-68.710303,-20.185861],[-68.708147,-20.18282],[-68.707335,-20.179638],[-68.703745,-20.177609],[-68.698053,-20.176253],[-68.695212,-20.177837],[-68.692885,-20.178009],[-68.69229,-20.176113],[-68.694359,-20.174624],[-68.699738,-20.164945],[-68.70098,-20.161276],[-68.703488,-20.159477],[-68.701435,-20.154],[-68.701515,-20.152063],[-68.700063,-20.148597],[-68.702044,-20.143731],[-68.702516,-20.140734],[-68.704869,-20.132999],[-68.711482,-20.132725],[-68.717217,-20.135984],[-68.71908,-20.136525],[-68.723495,-20.135295],[-68.732317,-20.135111],[-68.736082,-20.133168],[-68.737673,-20.129572],[-68.740864,-20.125687],[-68.742996,-20.125196],[-68.746263,-20.123135],[-68.748285,-20.123065],[-68.755603,-20.126241],[-68.760281,-20.133074],[-68.762368,-20.134347],[-68.765283,-20.132009],[-68.769178,-20.13064],[-68.773894,-20.129667],[-68.769345,-20.109209],[-68.762128,-20.078154],[-68.692979,-20.068263],[-68.640437,-20.048857],[-68.566251,-20.050079],[-68.551305,-20.021732],[-68.521618,-19.924269],[-68.5423,-19.890019],[-68.528156,-19.845292],[-68.599347,-19.828025],[-68.621291,-19.790133],[-68.625117,-19.785293],[-68.627758,-19.783694],[-68.630256,-19.783675],[-68.632155,-19.781823],[-68.635776,-19.780633],[-68.637531,-19.778497],[-68.640955,-19.777956],[-68.642511,-19.775764],[-68.648039,-19.772662],[-68.651455,-19.771808]]]},"properties":{"shapeName":"Pica","shapeISO":"01405","shapeGroup":"CHL","shapeType":"ADM3","parentISO":"014","adm1ISO":"CL-TA","src_cut_com":"01405","src_cut_prov":"014","src_cut_reg":"01","src_provincia":"Tamarugal","src_region":"Tarapacá"}}
]}