{"type":"FeatureCollection","bbox":[-59.6507,13.0475,-59.4217,13.3346],"features":[
{"type":"Feature","id":"BRB:ADM1:BB-03","properties":{"shapeName":"Saint George","shapeISO":"BB-03","shapeType":"ADM1"},"geometry":{"type":"Polygon","coordinates":[[[-59.5064,13.1363],[-59.54,13.1809],[-59.553,13.1685],[-59.582,13.1576],[-59.5674,13.0972],[-59.5113,13.1245],[-59.5064,13.1363]]]}},
{"type":"Feature","id":"BRB:ADM1:BB-07","properties":{"shapeName":"Saint Lucy","shapeISO":"BB-07","shapeType":"ADM1"},"geometry":{"type":"Polygon","coordinates":[[[-59.5776,13.2982],[-59.5792,13.31],[-59.6125,13.3346],[-59.6365,13.3265],[-59.6507,13.3058],[-59.6468,13.2738],[-59.5776,13.2982]]]}},
{"type":"Feature","id":"BRB:ADM1:BB-02","properties":{"shapeName":"Saint Andrew","shapeISO":"BB-02","shapeType":"ADM1"},"geometry":{"type":"Polygon","coordinates":[[[-59.542,13.2345],[-59.5733,13.2937],[-59.5938,13.2649],[-59.6001,13.2374],[-59.5975,13.2168],[-59.5746,13.2047],[-59.542,13.2345]]]}},
{"type":"Feature","id":"BRB:ADM1:BB-09","properties":{"shapeName":"Saint Peter","shapeISO":"BB-09","shapeType":"ADM1"},"geometry":{"type":"Polygon","coordinates":[[[-59.6468,13.2738],[-59.643,13.2252],[-59.6001,13.2374],[-59.5938,13.2649],[-59.5733,13.2937],[-59.5776,13.2982],[-59.6468,13.2738]]]}},
{"type":"Feature","id":"BRB:ADM1:BB-04","properties":{"shapeName":"Saint James","shapeISO":"BB-04","shapeType":"ADM1"},"geometry":{"type":"Polygon","coordinates":[[[-59.6001,13.2374],[-59.643,13.2252],[-59.6361,13.1361],[-59.6135,13.1453],[-59.6166,13.1886],[-59.5975,13.2168],[-59.6001,13.2374]]]}},
{"type":"Feature","id":"BRB:ADM1:BB-11","properties":{"shapeName":"Saint Thomas","shapeISO":"BB-11","shapeType":"ADM1"},"geometry":{"type":"Polygon","coordinates":[[[-59.553,13.1685],[-59.5746,13.2047],[-59.5975,13.2168],[-59.6166,13.1886],[-59.6135,13.1453],[-59.582,13.1576],[-59.553,13.1685]]]}},
{"type":"Feature","id":"BRB:ADM1:BB-06","properties":{"shapeName":"Saint Joseph","shapeISO":"BB-06","shapeType":"ADM1"},"geometry":{"type":"Polygon","coordinates":[[[-59.54,13.1809],[-59.5097,13.21],[-59.542,13.2345],[-59.5746,13.2047],[-59.553,13.1685],[-59.54,13.1809]]]}},
{"type":"Feature","id":"BRB:ADM1:BB-01","properties":{"shapeName":"Christ Church","shapeISO":"BB-01","shapeType":"ADM1"},"geometry":{"type":"Polygon","coordinates":[[[-59.5674,13.0972],[-59.6071,13.0767],[-59.5386,13.0595],[-59.5158,13.0475],[-59.474,13.0773],[-59.5113,13.1245],[-59.5674,13.0972]]]}},
{"type":"Feature","id":"BRB:ADM1:BB-08","properties":{"shapeName":"Saint Michael","shapeISO":"BB-08","shapeType":"ADM1"},"geometry":{"type":"Polygon","coordinates":[[[-59.582,13.1576],[-59.6135,13.1453],[-59.6361,13.1361],[-59.6071,13.0767],[-59.5674,13.0972],[-59.582,13.1576]]]}},
{"type":"Feature","id":"BRB:ADM1:BB-10","properties":{"shapeName":"Saint Philip","shapeISO":"BB-10","shapeType":"ADM1"},"geometry":{"type":"Polygon","coordinates":[[[-59.474,13.0773],[-59.43,13.1238],[-59.4217,13.1551],[-59.4571,13.1817],[-59.5064,13.1363],[-59.5113,13.1245],[-59.474,13.0773]]]}},
{"type":"Feature","id":"BRB:ADM1:BB-05","properties":{"shapeName":"Saint John","shapeISO":"BB-05","shapeType":"ADM1"},"geometry":{"type":"Polygon","coordinates":[[[-59.5064,13.1363],[-59.4571,13.1817],[-59.5097,13.21],[-59.54,13.1809],[-59.5064,13.1363]]]}}
]}