{"type":"FeatureCollection","bbox":[25.068243,42.762791,26.171846,43.6485],"features":[
{"type":"Feature","id":"BGR:ADM2:BG-04.svishtov","properties":{"shapeName":"Svishtov","shapeISO":"","shapeGroup":"BGR","shapeType":"ADM2","adm1ISO":"BG-04","parentISO":"BG-04","parentID":"BGR:ADM1:BG-04","src_shape_id":"11073933B40806707693338"},"geometry":{"type":"Polygon","coordinates":[[[25.483492,43.622078],[25.478466,43.616166],[25.4681,43.61152],[25.458474,43.60866],[25.45181,43.610984],[25.444899,43.615808],[25.434286,43.61831],[25.421945,43.617595],[25.404421,43.614558],[25.387391,43.613307],[25.368386,43.614022],[25.344197,43.616523],[25.330623,43.622062],[25.314826,43.62903],[25.302485,43.63564],[25.286936,43.644392],[25.259786,43.6485],[25.246705,43.647964],[25.227946,43.643856],[25.215852,43.639212],[25.201241,43.635134],[25.201576,43.629613],[25.205043,43.617469],[25.204627,43.605022],[25.194644,43.585944],[25.188544,43.570878],[25.186326,43.563846],[25.185084,43.5517],[25.193258,43.550684],[25.19922,43.548072],[25.204072,43.543248],[25.205874,43.538826],[25.199497,43.528373],[25.191178,43.520532],[25.186603,43.506858],[25.179532,43.468231],[25.175234,43.463703],[25.167609,43.460181],[25.160399,43.458571],[25.142653,43.456256],[25.13073,43.455552],[25.119916,43.45213],[25.111874,43.448104],[25.107161,43.442769],[25.10619,43.437433],[25.107576,43.433406],[25.116172,43.428876],[25.126571,43.42656],[25.139187,43.42656],[25.156656,43.431191],[25.174957,43.434011],[25.181751,43.435319],[25.191456,43.434313],[25.201438,43.429782],[25.204072,43.423338],[25.204211,43.416893],[25.199913,43.411152],[25.193119,43.406519],[25.178458,43.390005],[25.178024,43.384967],[25.178891,43.379771],[25.189722,43.377409],[25.207486,43.375835],[25.229183,43.374381],[25.231011,43.377334],[25.24079,43.382564],[25.257949,43.395168],[25.271418,43.404016],[25.285256,43.408707],[25.308688,43.409914],[25.329537,43.409914],[25.340976,43.41179],[25.345589,43.414337],[25.365331,43.416749],[25.380091,43.418223],[25.394298,43.419295],[25.39725,43.425058],[25.398357,43.428809],[25.403154,43.433231],[25.411826,43.437786],[25.419206,43.439662],[25.427509,43.442877],[25.435442,43.447164],[25.438394,43.451048],[25.441162,43.457611],[25.446328,43.467253],[25.452417,43.47194],[25.463303,43.47676],[25.471052,43.47917],[25.485259,43.483989],[25.504816,43.492155],[25.506744,43.49982],[25.500203,43.509553],[25.49393,43.514103],[25.488764,43.520659],[25.484705,43.52815],[25.474926,43.543666],[25.468469,43.551422],[25.459428,43.565996],[25.455553,43.570942],[25.454077,43.575888],[25.45666,43.581502],[25.46035,43.585779],[25.468469,43.589654],[25.477878,43.592861],[25.485812,43.597137],[25.492823,43.601948],[25.493746,43.60796],[25.490794,43.613303],[25.483492,43.622078]]]}},
{"type":"Feature","id":"BGR:ADM2:BG-04.polski-trambesh","properties":{"shapeName":"Polski Trambesh","shapeISO":"","shapeGroup":"BGR","shapeType":"ADM2","adm1ISO":"BG-04","parentISO":"BG-04","parentID":"BGR:ADM1:BG-04","src_shape_id":"11073933B28191755272534"},"geometry":{"type":"Polygon","coordinates":[[[25.506744,43.49982],[25.504816,43.492155],[25.485259,43.483989],[25.471052,43.47917],[25.463303,43.47676],[25.452417,43.47194],[25.446328,43.467253],[25.441162,43.457611],[25.438394,43.451048],[25.435442,43.447164],[25.427509,43.442877],[25.419206,43.439662],[25.411826,43.437786],[25.403154,43.433231],[25.398357,43.428809],[25.39725,43.425058],[25.394298,43.419295],[25.402886,43.405713],[25.406352,43.399267],[25.409125,43.390603],[25.409957,43.384658],[25.406768,43.377],[25.400945,43.371155],[25.395677,43.366418],[25.389161,43.362789],[25.386249,43.358052],[25.387358,43.349785],[25.392627,43.344139],[25.39942,43.335972],[25.406768,43.32629],[25.415503,43.319129],[25.429783,43.311765],[25.438656,43.306922],[25.454046,43.296631],[25.468326,43.288861],[25.479001,43.282603],[25.489755,43.275449],[25.49712,43.26914],[25.501047,43.267506],[25.504702,43.265985],[25.521816,43.264723],[25.537413,43.264566],[25.55821,43.267721],[25.57684,43.268509],[25.592221,43.268036],[25.602619,43.266459],[25.616258,43.261303],[25.632757,43.261707],[25.655078,43.265948],[25.668111,43.269178],[25.686411,43.272409],[25.697364,43.275235],[25.702771,43.279676],[25.703326,43.292897],[25.704712,43.300062],[25.711922,43.306721],[25.72232,43.317212],[25.733134,43.323365],[25.742285,43.3275],[25.748801,43.331534],[25.754347,43.334257],[25.759754,43.33577],[25.770291,43.345147],[25.775836,43.348172],[25.780273,43.355632],[25.781105,43.363596],[25.780665,43.368547],[25.768658,43.369824],[25.757034,43.372104],[25.741351,43.376664],[25.726406,43.381492],[25.706664,43.389537],[25.694302,43.395168],[25.686184,43.399324],[25.680096,43.403346],[25.671424,43.407233],[25.660907,43.406965],[25.655003,43.404686],[25.650759,43.400128],[25.644486,43.397715],[25.638213,43.397715],[25.632124,43.398385],[25.611829,43.402943],[25.597991,43.407099],[25.589319,43.409377],[25.58157,43.41313],[25.573821,43.415543],[25.563673,43.419429],[25.555924,43.421573],[25.54061,43.431355],[25.538211,43.436045],[25.540979,43.450244],[25.542824,43.457209],[25.544669,43.478902],[25.546699,43.488273],[25.546883,43.497375],[25.534521,43.497241],[25.521975,43.497642],[25.510536,43.497642],[25.506744,43.49982]]]}},
{"type":"Feature","id":"BGR:ADM2:BG-04.strazhitsa","properties":{"shapeName":"Strazhitsa","shapeISO":"","shapeGroup":"BGR","shapeType":"ADM2","adm1ISO":"BG-04","parentISO":"BG-04","parentID":"BGR:ADM1:BG-04","src_shape_id":"11073933B68259739538921"},"geometry":{"type":"Polygon","coordinates":[[[25.997072,43.318788],[25.98379,43.317225],[25.967554,43.316419],[25.951871,43.319775],[25.942092,43.323534],[25.931022,43.331989],[25.923457,43.341115],[25.922904,43.347287],[25.924195,43.356142],[25.923273,43.362983],[25.916446,43.366605],[25.908143,43.368349],[25.90021,43.367946],[25.89246,43.365398],[25.883051,43.361642],[25.865707,43.35963],[25.848733,43.359093],[25.831943,43.359764],[25.810356,43.363922],[25.790798,43.366337],[25.780665,43.368547],[25.781105,43.363596],[25.780273,43.355632],[25.775836,43.348172],[25.770291,43.345147],[25.759754,43.33577],[25.765308,43.327633],[25.771157,43.322117],[25.777873,43.316916],[25.782855,43.311399],[25.784372,43.30667],[25.779606,43.301153],[25.77354,43.296738],[25.764008,43.294846],[25.757293,43.292008],[25.755343,43.287908],[25.754693,43.280023],[25.759026,43.27056],[25.762709,43.256836],[25.766608,43.251787],[25.77549,43.249735],[25.790654,43.249735],[25.809284,43.249262],[25.822498,43.246264],[25.837879,43.241372],[25.85066,43.236006],[25.857809,43.230167],[25.862792,43.225116],[25.858026,43.218643],[25.851743,43.211539],[25.848711,43.202539],[25.853476,43.191642],[25.858073,43.184634],[25.865608,43.183429],[25.879039,43.185956],[25.892037,43.191326],[25.899402,43.190063],[25.902651,43.184376],[25.90915,43.175056],[25.916732,43.164945],[25.923231,43.154199],[25.93168,43.141555],[25.936879,43.136813],[25.939045,43.130964],[25.947927,43.127011],[25.953126,43.120528],[25.961575,43.111673],[25.97284,43.102658],[25.980422,43.098071],[25.990387,43.095224],[26.008367,43.095698],[26.015299,43.097122],[26.039796,43.096475],[26.041909,43.105834],[26.045415,43.113781],[26.050765,43.126979],[26.054086,43.140982],[26.059622,43.159962],[26.063496,43.169786],[26.069954,43.179474],[26.074197,43.183644],[26.080655,43.187815],[26.088035,43.191985],[26.095046,43.198845],[26.096154,43.204628],[26.094308,43.211487],[26.09293,43.212642],[26.090618,43.214579],[26.082685,43.21942],[26.073644,43.226008],[26.069216,43.232595],[26.064419,43.242273],[26.059437,43.247918],[26.050212,43.250874],[26.041909,43.254772],[26.039326,43.259878],[26.043016,43.263505],[26.059437,43.269954],[26.064788,43.275193],[26.065526,43.280969],[26.065526,43.287551],[26.062758,43.293326],[26.055931,43.299368],[26.047629,43.304471],[26.035636,43.308633],[26.027333,43.312526],[26.018293,43.315748],[26.006669,43.318433],[25.997072,43.318788]]]}},
{"type":"Feature","id":"BGR:ADM2:BG-04.veliko-tarnovo","properties":{"shapeName":"Veliko Tarnovo","shapeISO":"","shapeGroup":"BGR","shapeType":"ADM2","adm1ISO":"BG-04","parentISO":"BG-04","parentID":"BGR:ADM1:BG-04","src_shape_id":"11073933B1752440021495"},"geometry":{"type":"Polygon","coordinates":[[[25.501047,43.267506],[25.496687,43.259675],[25.494304,43.253996],[25.489755,43.247842],[25.484123,43.24437],[25.469608,43.242319],[25.454877,43.247053],[25.447729,43.25084],[25.441446,43.250051],[25.438847,43.246895],[25.436464,43.239794],[25.434081,43.227483],[25.430398,43.213434],[25.426066,43.205065],[25.4226,43.191168],[25.421516,43.183429],[25.421733,43.170633],[25.425199,43.161784],[25.429099,43.154199],[25.425849,43.148826],[25.416751,43.146613],[25.404403,43.1444],[25.394438,43.142345],[25.382956,43.136655],[25.371042,43.135074],[25.36086,43.139026],[25.353278,43.149932],[25.342013,43.154357],[25.336381,43.154989],[25.329665,43.154199],[25.322517,43.149616],[25.303237,43.138236],[25.298037,43.131596],[25.297388,43.126221],[25.289806,43.120528],[25.290672,43.110882],[25.289806,43.102974],[25.287639,43.095224],[25.282873,43.082726],[25.281357,43.072441],[25.281585,43.063889],[25.297556,43.062981],[25.31761,43.061425],[25.32879,43.062463],[25.336066,43.063435],[25.348754,43.0635],[25.358337,43.061166],[25.368098,43.058443],[25.378213,43.054618],[25.390636,43.052349],[25.401461,43.051376],[25.410245,43.051765],[25.421869,43.054294],[25.433138,43.054553],[25.445117,43.052154],[25.451151,43.050079],[25.464626,43.046008],[25.474158,43.045058],[25.486505,43.043316],[25.496254,43.038883],[25.505352,43.0335],[25.517267,43.028907],[25.537197,43.024948],[25.551278,43.020672],[25.55821,43.016871],[25.565575,43.01101],[25.569475,43.006575],[25.570341,43.000238],[25.568608,42.994376],[25.565359,42.990731],[25.555394,42.9836],[25.543479,42.974249],[25.537413,42.96997],[25.531998,42.96141],[25.530265,42.952373],[25.528098,42.938894],[25.527448,42.931757],[25.528748,42.926047],[25.534164,42.918591],[25.534652,42.914926],[25.53763,42.915101],[25.547595,42.91161],[25.561676,42.910341],[25.574241,42.911134],[25.584639,42.910658],[25.590055,42.907168],[25.593954,42.901455],[25.59482,42.890505],[25.594387,42.881299],[25.599803,42.875107],[25.607602,42.87225],[25.611284,42.869868],[25.611718,42.864788],[25.607385,42.860659],[25.602619,42.857483],[25.592437,42.851766],[25.585939,42.846684],[25.581389,42.840172],[25.579006,42.83064],[25.578357,42.82222],[25.580306,42.813957],[25.585505,42.79854],[25.588321,42.787413],[25.591138,42.782325],[25.606085,42.775329],[25.617567,42.768968],[25.630268,42.762791],[25.640313,42.768014],[25.65591,42.772944],[25.669287,42.779702],[25.680457,42.78467],[25.69095,42.790135],[25.691221,42.795997],[25.695337,42.802991],[25.705952,42.822855],[25.713317,42.835406],[25.719166,42.841601],[25.725665,42.84589],[25.729131,42.84986],[25.731297,42.855419],[25.730431,42.860342],[25.725448,42.864946],[25.716133,42.868598],[25.707468,42.873361],[25.703569,42.878759],[25.701402,42.883997],[25.701402,42.889711],[25.704218,42.895583],[25.707468,42.900503],[25.710717,42.910024],[25.709851,42.916529],[25.704002,42.92224],[25.69577,42.92335],[25.683639,42.923667],[25.677573,42.925412],[25.67649,42.929378],[25.679956,42.933184],[25.691654,42.937308],[25.69317,42.943651],[25.692087,42.957446],[25.693387,42.962836],[25.699669,42.965531],[25.723282,42.968226],[25.758809,42.968543],[25.790004,42.968543],[25.814266,42.972506],[25.826398,42.977261],[25.839471,42.985289],[25.837446,42.994376],[25.83528,43.006416],[25.832897,43.01497],[25.829864,43.021464],[25.827264,43.029858],[25.823148,43.037775],[25.817949,43.045691],[25.812317,43.052498],[25.806004,43.058538],[25.804813,43.054784],[25.800931,43.050326],[25.792473,43.043842],[25.786235,43.040397],[25.776252,43.039586],[25.755733,43.041511],[25.735353,43.045767],[25.713724,43.048705],[25.704712,43.05367],[25.704574,43.05833],[25.70291,43.066231],[25.699583,43.075346],[25.685025,43.094078],[25.679757,43.100558],[25.676845,43.109263],[25.67519,43.116417],[25.663709,43.116892],[25.652444,43.118157],[25.632297,43.121477],[25.614967,43.124798],[25.602186,43.130964],[25.596553,43.136497],[25.59417,43.142029],[25.592654,43.151354],[25.588321,43.161468],[25.586805,43.167789],[25.582039,43.178532],[25.574024,43.194959],[25.572941,43.200802],[25.574674,43.206802],[25.578357,43.211697],[25.585722,43.219433],[25.592221,43.224326],[25.59742,43.228904],[25.602836,43.236322],[25.607168,43.243739],[25.609551,43.250367],[25.613234,43.255889],[25.616258,43.261303],[25.602619,43.266459],[25.592221,43.268036],[25.57684,43.268509],[25.55821,43.267721],[25.537413,43.264566],[25.521816,43.264723],[25.504702,43.265985],[25.501047,43.267506]]]}},
{"type":"Feature","id":"BGR:ADM2:BG-04.suhindol","properties":{"shapeName":"Suhindol","shapeISO":"","shapeGroup":"BGR","shapeType":"ADM2","adm1ISO":"BG-04","parentISO":"BG-04","parentID":"BGR:ADM1:BG-04","src_shape_id":"11073933B70573082348436"},"geometry":{"type":"Polygon","coordinates":[[[25.131495,43.29365],[25.130583,43.276711],[25.128416,43.260149],[25.124734,43.252891],[25.122351,43.246895],[25.117801,43.240899],[25.099388,43.227483],[25.095488,43.220222],[25.097871,43.212486],[25.099171,43.201907],[25.096138,43.193537],[25.083357,43.191484],[25.068243,43.191484],[25.06841,43.17632],[25.070793,43.166051],[25.076208,43.16052],[25.08444,43.154515],[25.091806,43.151987],[25.097005,43.148984],[25.10372,43.141871],[25.10762,43.136655],[25.116502,43.12796],[25.122567,43.123849],[25.131882,43.11958],[25.141631,43.115785],[25.155062,43.113413],[25.171742,43.111199],[25.196871,43.110408],[25.217018,43.11104],[25.224167,43.111515],[25.229366,43.113096],[25.24258,43.116259],[25.241714,43.127011],[25.240197,43.134916],[25.236948,43.145823],[25.233265,43.166683],[25.230449,43.176794],[25.228716,43.186114],[25.226983,43.192905],[25.224383,43.19938],[25.22135,43.205381],[25.217018,43.209013],[25.208353,43.210276],[25.198388,43.209486],[25.186473,43.20775],[25.180191,43.210434],[25.172825,43.216275],[25.157661,43.226852],[25.152895,43.233323],[25.150296,43.239163],[25.151162,43.241688],[25.155495,43.243897],[25.163727,43.245475],[25.16546,43.249578],[25.16546,43.254627],[25.163727,43.259044],[25.155963,43.269077],[25.152774,43.275942],[25.15014,43.28331],[25.144855,43.293908],[25.143556,43.293326],[25.135069,43.293057],[25.131495,43.29365]]]}},
{"type":"Feature","id":"BGR:ADM2:BG-04.pavlikeni","properties":{"shapeName":"Pavlikeni","shapeISO":"","shapeGroup":"BGR","shapeType":"ADM2","adm1ISO":"BG-04","parentISO":"BG-04","parentID":"BGR:ADM1:BG-04","src_shape_id":"11073933B6347239980082"},"geometry":{"type":"Polygon","coordinates":[[[25.229183,43.374381],[25.22769,43.37197],[25.230273,43.360166],[25.230458,43.350641],[25.22769,43.339505],[25.221786,43.330916],[25.215513,43.326218],[25.209424,43.32246],[25.180272,43.308767],[25.167911,43.303799],[25.158132,43.301517],[25.150752,43.296549],[25.144855,43.293908],[25.15014,43.28331],[25.152774,43.275942],[25.155963,43.269077],[25.163727,43.259044],[25.16546,43.254627],[25.16546,43.249578],[25.163727,43.245475],[25.155495,43.243897],[25.151162,43.241688],[25.150296,43.239163],[25.152895,43.233323],[25.157661,43.226852],[25.172825,43.216275],[25.180191,43.210434],[25.186473,43.20775],[25.198388,43.209486],[25.208353,43.210276],[25.217018,43.209013],[25.22135,43.205381],[25.224383,43.19938],[25.226983,43.192905],[25.228716,43.186114],[25.230449,43.176794],[25.233265,43.166683],[25.236948,43.145823],[25.240197,43.134916],[25.241714,43.127011],[25.24258,43.116259],[25.255795,43.116575],[25.277458,43.120528],[25.289806,43.120528],[25.297388,43.126221],[25.298037,43.131596],[25.303237,43.138236],[25.322517,43.149616],[25.329665,43.154199],[25.336381,43.154989],[25.342013,43.154357],[25.353278,43.149932],[25.36086,43.139026],[25.371042,43.135074],[25.382956,43.136655],[25.394438,43.142345],[25.404403,43.1444],[25.416751,43.146613],[25.425849,43.148826],[25.429099,43.154199],[25.425199,43.161784],[25.421733,43.170633],[25.421516,43.183429],[25.4226,43.191168],[25.426066,43.205065],[25.430398,43.213434],[25.434081,43.227483],[25.436464,43.239794],[25.438847,43.246895],[25.441446,43.250051],[25.447729,43.25084],[25.454877,43.247053],[25.469608,43.242319],[25.484123,43.24437],[25.489755,43.247842],[25.494304,43.253996],[25.496687,43.259675],[25.501047,43.267506],[25.49712,43.26914],[25.489755,43.275449],[25.479001,43.282603],[25.468326,43.288861],[25.454046,43.296631],[25.438656,43.306922],[25.429783,43.311765],[25.415503,43.319129],[25.406768,43.32629],[25.39942,43.335972],[25.392627,43.344139],[25.387358,43.349785],[25.386249,43.358052],[25.389161,43.362789],[25.395677,43.366418],[25.400945,43.371155],[25.406768,43.377],[25.409957,43.384658],[25.409125,43.390603],[25.406352,43.399267],[25.402886,43.405713],[25.394298,43.419295],[25.380091,43.418223],[25.365331,43.416749],[25.345589,43.414337],[25.340976,43.41179],[25.329537,43.409914],[25.308688,43.409914],[25.285256,43.408707],[25.271418,43.404016],[25.257949,43.395168],[25.24079,43.382564],[25.231011,43.377334],[25.229183,43.374381]]]}},
{"type":"Feature","id":"BGR:ADM2:BG-04.gorna-oryahovitsa","properties":{"shapeName":"Gorna Oryahovitsa","shapeISO":"","shapeGroup":"BGR","shapeType":"ADM2","adm1ISO":"BG-04","parentISO":"BG-04","parentID":"BGR:ADM1:BG-04","src_shape_id":"11073933B91791689207630"},"geometry":{"type":"Polygon","coordinates":[[[25.616258,43.261303],[25.613234,43.255889],[25.609551,43.250367],[25.607168,43.243739],[25.602836,43.236322],[25.59742,43.228904],[25.592221,43.224326],[25.585722,43.219433],[25.578357,43.211697],[25.574674,43.206802],[25.572941,43.200802],[25.574024,43.194959],[25.582039,43.178532],[25.586805,43.167789],[25.588321,43.161468],[25.592654,43.151354],[25.59417,43.142029],[25.596553,43.136497],[25.602186,43.130964],[25.614967,43.124798],[25.632297,43.121477],[25.652444,43.118157],[25.663709,43.116892],[25.67519,43.116417],[25.683223,43.124747],[25.699305,43.134562],[25.713308,43.13871],[25.723568,43.140025],[25.749494,43.142048],[25.764052,43.143566],[25.780412,43.149129],[25.789978,43.154389],[25.798851,43.160154],[25.804674,43.164907],[25.81424,43.169963],[25.8245,43.171682],[25.838919,43.173198],[25.848069,43.175928],[25.85417,43.178759],[25.858073,43.184634],[25.853476,43.191642],[25.848711,43.202539],[25.851743,43.211539],[25.858026,43.218643],[25.862792,43.225116],[25.857809,43.230167],[25.85066,43.236006],[25.837879,43.241372],[25.822498,43.246264],[25.809284,43.249262],[25.790654,43.249735],[25.77549,43.249735],[25.766608,43.251787],[25.762709,43.256836],[25.759026,43.27056],[25.754693,43.280023],[25.755343,43.287908],[25.757293,43.292008],[25.764008,43.294846],[25.77354,43.296738],[25.779606,43.301153],[25.784372,43.30667],[25.782855,43.311399],[25.777873,43.316916],[25.771157,43.322117],[25.765308,43.327633],[25.759754,43.33577],[25.754347,43.334257],[25.748801,43.331534],[25.742285,43.3275],[25.733134,43.323365],[25.72232,43.317212],[25.711922,43.306721],[25.704712,43.300062],[25.703326,43.292897],[25.702771,43.279676],[25.697364,43.275235],[25.686411,43.272409],[25.668111,43.269178],[25.655078,43.265948],[25.632757,43.261707],[25.616258,43.261303]]]}},
{"type":"Feature","id":"BGR:ADM2:BG-04.lyaskovets","properties":{"shapeName":"Lyaskovets","shapeISO":"","shapeGroup":"BGR","shapeType":"ADM2","adm1ISO":"BG-04","parentISO":"BG-04","parentID":"BGR:ADM1:BG-04","src_shape_id":"11073933B52536111444625"},"geometry":{"type":"Polygon","coordinates":[[[25.858073,43.184634],[25.85417,43.178759],[25.848069,43.175928],[25.838919,43.173198],[25.8245,43.171682],[25.81424,43.169963],[25.804674,43.164907],[25.798851,43.160154],[25.789978,43.154389],[25.780412,43.149129],[25.764052,43.143566],[25.749494,43.142048],[25.723568,43.140025],[25.713308,43.13871],[25.699305,43.134562],[25.683223,43.124747],[25.67519,43.116417],[25.676845,43.109263],[25.679757,43.100558],[25.685025,43.094078],[25.699583,43.075346],[25.70291,43.066231],[25.704574,43.05833],[25.704712,43.05367],[25.713724,43.048705],[25.735353,43.045767],[25.755733,43.041511],[25.776252,43.039586],[25.786235,43.040397],[25.792473,43.043842],[25.800931,43.050326],[25.804813,43.054784],[25.806004,43.058538],[25.809527,43.070181],[25.815488,43.077878],[25.822143,43.085877],[25.825748,43.091142],[25.8306,43.096913],[25.839058,43.101266],[25.858052,43.10734],[25.872748,43.113716],[25.883146,43.119384],[25.908102,43.126265],[25.920302,43.1293],[25.930423,43.129806],[25.939045,43.130964],[25.936879,43.136813],[25.93168,43.141555],[25.923231,43.154199],[25.916732,43.164945],[25.90915,43.175056],[25.902651,43.184376],[25.899402,43.190063],[25.892037,43.191326],[25.879039,43.185956],[25.865608,43.183429],[25.858073,43.184634]]]}},
{"type":"Feature","id":"BGR:ADM2:BG-04.elena","properties":{"shapeName":"Elena","shapeISO":"","shapeGroup":"BGR","shapeType":"ADM2","adm1ISO":"BG-04","parentISO":"BG-04","parentID":"BGR:ADM1:BG-04","src_shape_id":"11073933B76671146783782"},"geometry":{"type":"Polygon","coordinates":[[[26.075489,42.98097],[26.060575,42.979955],[26.025914,42.981065],[26.014216,42.983125],[26.00815,42.987879],[26.002085,42.995802],[25.992986,43.009901],[25.989087,43.015604],[25.978472,43.017029],[25.96829,43.015129],[25.959625,43.011961],[25.954209,43.006575],[25.95031,43.001664],[25.941428,42.994217],[25.932763,42.989463],[25.920848,42.988037],[25.908717,42.988671],[25.889654,42.991523],[25.878172,42.996277],[25.872757,43.000079],[25.863875,43.002456],[25.855859,43.001664],[25.852827,42.998812],[25.847194,42.991207],[25.839471,42.985289],[25.826398,42.977261],[25.814266,42.972506],[25.790004,42.968543],[25.758809,42.968543],[25.723282,42.968226],[25.699669,42.965531],[25.693387,42.962836],[25.692087,42.957446],[25.69317,42.943651],[25.691654,42.937308],[25.679956,42.933184],[25.67649,42.929378],[25.677573,42.925412],[25.683639,42.923667],[25.69577,42.92335],[25.704002,42.92224],[25.709851,42.916529],[25.710717,42.910024],[25.707468,42.900503],[25.704218,42.895583],[25.701402,42.889711],[25.701402,42.883997],[25.703569,42.878759],[25.707468,42.873361],[25.716133,42.868598],[25.725448,42.864946],[25.730431,42.860342],[25.731297,42.855419],[25.729131,42.84986],[25.725665,42.84589],[25.719166,42.841601],[25.713317,42.835406],[25.705952,42.822855],[25.695337,42.802991],[25.691221,42.795997],[25.69095,42.790135],[25.728183,42.794358],[25.745446,42.794854],[25.778956,42.791625],[25.795703,42.791134],[25.859515,42.79088],[25.929243,42.791874],[25.966138,42.795848],[25.979338,42.801064],[25.992878,42.809507],[26.000663,42.815963],[26.009125,42.820184],[26.015895,42.824652],[26.026049,42.827135],[26.036489,42.828228],[26.040525,42.832456],[26.049174,42.836685],[26.050039,42.844294],[26.046291,42.865851],[26.055228,42.877471],[26.061859,42.881485],[26.071372,42.886766],[26.082615,42.892258],[26.112886,42.90324],[26.123264,42.905985],[26.134507,42.912742],[26.141138,42.917598],[26.165066,42.932797],[26.170255,42.938707],[26.171408,42.94335],[26.171846,42.949015],[26.164605,42.949647],[26.153165,42.957479],[26.14228,42.9618],[26.132501,42.96693],[26.119586,42.9726],[26.112205,42.97476],[26.098921,42.97584],[26.084345,42.977325],[26.075489,42.98097]]]}},
{"type":"Feature","id":"BGR:ADM2:BG-04.zlataritsa","properties":{"shapeName":"Zlataritsa","shapeISO":"","shapeGroup":"BGR","shapeType":"ADM2","adm1ISO":"BG-04","parentISO":"BG-04","parentID":"BGR:ADM1:BG-04","src_shape_id":"11073933B23075399217747"},"geometry":{"type":"Polygon","coordinates":[[[26.039796,43.096475],[26.015299,43.097122],[26.008367,43.095698],[25.990387,43.095224],[25.980422,43.098071],[25.97284,43.102658],[25.961575,43.111673],[25.953126,43.120528],[25.947927,43.127011],[25.939045,43.130964],[25.930423,43.129806],[25.920302,43.1293],[25.908102,43.126265],[25.883146,43.119384],[25.872748,43.113716],[25.858052,43.10734],[25.839058,43.101266],[25.8306,43.096913],[25.825748,43.091142],[25.822143,43.085877],[25.815488,43.077878],[25.809527,43.070181],[25.806004,43.058538],[25.812317,43.052498],[25.817949,43.045691],[25.823148,43.037775],[25.827264,43.029858],[25.829864,43.021464],[25.832897,43.01497],[25.83528,43.006416],[25.837446,42.994376],[25.839471,42.985289],[25.847194,42.991207],[25.852827,42.998812],[25.855859,43.001664],[25.863875,43.002456],[25.872757,43.000079],[25.878172,42.996277],[25.889654,42.991523],[25.908717,42.988671],[25.920848,42.988037],[25.932763,42.989463],[25.941428,42.994217],[25.95031,43.001664],[25.954209,43.006575],[25.959625,43.011961],[25.96829,43.015129],[25.978472,43.017029],[25.989087,43.015604],[25.992986,43.009901],[26.002085,42.995802],[26.00815,42.987879],[26.014216,42.983125],[26.025914,42.981065],[26.060575,42.979955],[26.075489,42.98097],[26.075489,42.985019],[26.077888,42.994331],[26.094677,43.006071],[26.112021,43.014706],[26.115711,43.019427],[26.111098,43.023204],[26.098552,43.030622],[26.090803,43.037366],[26.081762,43.044108],[26.072721,43.050445],[26.063127,43.057725],[26.050581,43.070262],[26.044492,43.079157],[26.040433,43.088859],[26.039142,43.093575],[26.039796,43.096475]]]}}
]}