{"type":"FeatureCollection","bbox":[24.978638,41.233837,25.946382,41.909743],"features":[
{"type":"Feature","id":"BGR:ADM2:BG-09.krumovgrad","properties":{"shapeName":"Krumovgrad","shapeISO":"","shapeGroup":"BGR","shapeType":"ADM2","adm1ISO":"BG-09","parentISO":"BG-09","parentID":"BGR:ADM1:BG-09","src_shape_id":"11073933B7885609838532"},"geometry":{"type":"Polygon","coordinates":[[[25.843796,41.609329],[25.840367,41.610794],[25.831247,41.626825],[25.828043,41.63401],[25.824356,41.646432],[25.8184,41.650807],[25.802449,41.652165],[25.787507,41.652769],[25.771354,41.654051],[25.764761,41.655103],[25.762609,41.651501],[25.751251,41.641481],[25.737212,41.630163],[25.724907,41.622263],[25.712603,41.618253],[25.700457,41.618489],[25.688153,41.621084],[25.670012,41.624149],[25.658497,41.62356],[25.63168,41.622734],[25.619218,41.624032],[25.611331,41.627215],[25.606756,41.632521],[25.605652,41.638661],[25.601969,41.638823],[25.581173,41.63867],[25.581173,41.619878],[25.580956,41.601414],[25.582906,41.58586],[25.585505,41.575652],[25.591354,41.56609],[25.595904,41.559282],[25.609335,41.548907],[25.611934,41.542422],[25.612151,41.534801],[25.610634,41.527179],[25.599586,41.511283],[25.589838,41.503821],[25.587455,41.49944],[25.587022,41.494248],[25.590921,41.488406],[25.596987,41.482564],[25.598286,41.475585],[25.597203,41.470391],[25.593087,41.464548],[25.593304,41.449286],[25.590488,41.44133],[25.582472,41.437594],[25.559293,41.436295],[25.555177,41.433534],[25.552578,41.427037],[25.552578,41.422002],[25.549978,41.416316],[25.54023,41.414692],[25.528532,41.416479],[25.518783,41.419565],[25.507952,41.423464],[25.494521,41.426225],[25.484556,41.42655],[25.476012,41.42645],[25.476012,41.422357],[25.47432,41.417535],[25.469243,41.411188],[25.46755,41.407127],[25.467212,41.40078],[25.468566,41.395447],[25.473982,41.389099],[25.477705,41.38529],[25.482105,41.379449],[25.484136,41.372337],[25.484475,41.36497],[25.482105,41.356332],[25.481428,41.346931],[25.484136,41.342865],[25.494968,41.343119],[25.506476,41.344898],[25.514261,41.346931],[25.524416,41.347439],[25.533893,41.34566],[25.538294,41.340578],[25.540324,41.332953],[25.539986,41.323549],[25.537955,41.315414],[25.539309,41.309312],[25.548187,41.304125],[25.549982,41.307052],[25.554835,41.309617],[25.567955,41.311102],[25.583411,41.310157],[25.597071,41.304217],[25.612347,41.300166],[25.620795,41.299896],[25.629781,41.304082],[25.640025,41.307727],[25.652606,41.308942],[25.670399,41.305432],[25.684957,41.302327],[25.707064,41.290984],[25.714432,41.291659],[25.712815,41.300166],[25.714432,41.308402],[25.723239,41.313802],[25.739774,41.313937],[25.759724,41.313667],[25.780212,41.320956],[25.78848,41.32676],[25.80142,41.331214],[25.810586,41.334723],[25.822808,41.335668],[25.837905,41.330404],[25.865044,41.323926],[25.874569,41.321091],[25.877984,41.314612],[25.879242,41.309077],[25.884274,41.306647],[25.903685,41.305432],[25.914828,41.306242],[25.923455,41.309617],[25.940529,41.314882],[25.946259,41.31542],[25.946382,41.340172],[25.943542,41.353672],[25.940072,41.36196],[25.934077,41.370603],[25.923351,41.378178],[25.913255,41.382321],[25.878709,41.389541],[25.859622,41.391552],[25.84716,41.396641],[25.840219,41.407053],[25.835802,41.417109],[25.82965,41.426572],[25.827284,41.438872],[25.830439,41.449869],[25.837064,41.457908],[25.847318,41.467011],[25.852523,41.473157],[25.855363,41.480603],[25.85347,41.485802],[25.849368,41.487575],[25.834698,41.491474],[25.814191,41.500926],[25.801098,41.508605],[25.791476,41.511913],[25.78769,41.521362],[25.785008,41.53813],[25.785482,41.569059],[25.786586,41.575431],[25.791949,41.583455],[25.800152,41.592304],[25.806777,41.593838],[25.818766,41.597141],[25.826653,41.600208],[25.832332,41.6041],[25.843796,41.609329]]]}},
{"type":"Feature","id":"BGR:ADM2:BG-09.ardino","properties":{"shapeName":"Ardino","shapeISO":"","shapeGroup":"BGR","shapeType":"ADM2","adm1ISO":"BG-09","parentISO":"BG-09","parentID":"BGR:ADM1:BG-09","src_shape_id":"11073933B86347771396196"},"geometry":{"type":"Polygon","coordinates":[[[25.020231,41.511296],[25.027033,41.508039],[25.034616,41.503334],[25.051296,41.499927],[25.061478,41.499602],[25.079891,41.502847],[25.100688,41.508201],[25.108486,41.509823],[25.129283,41.512094],[25.138165,41.512257],[25.149863,41.509985],[25.165243,41.502198],[25.169519,41.501789],[25.171075,41.50164],[25.179394,41.504444],[25.184939,41.508285],[25.197001,41.512957],[25.204211,41.514203],[25.209202,41.519186],[25.208093,41.52666],[25.205736,41.532472],[25.20629,41.538491],[25.208925,41.542123],[25.213777,41.546066],[25.222512,41.546481],[25.231523,41.544199],[25.239981,41.543576],[25.24511,41.546585],[25.248299,41.551566],[25.249733,41.567073],[25.248577,41.576877],[25.24414,41.582062],[25.234574,41.584655],[25.221784,41.586022],[25.210952,41.587481],[25.205536,41.594123],[25.207053,41.600766],[25.209219,41.607731],[25.209869,41.612914],[25.222867,41.631051],[25.229149,41.638499],[25.238681,41.647079],[25.24648,41.653068],[25.253195,41.659219],[25.255145,41.663912],[25.255795,41.670062],[25.251245,41.673945],[25.238248,41.677667],[25.227633,41.683976],[25.2233,41.692389],[25.214635,41.7008],[25.210302,41.705814],[25.201204,41.714061],[25.192539,41.719721],[25.179324,41.72635],[25.163294,41.728775],[25.140114,41.732494],[25.122567,41.734757],[25.111086,41.737667],[25.108486,41.741223],[25.103937,41.741061],[25.082491,41.741546],[25.058661,41.741384],[25.059528,41.739121],[25.060828,41.728452],[25.063861,41.716649],[25.071009,41.704358],[25.079891,41.693036],[25.08639,41.685109],[25.091373,41.676534],[25.091156,41.6699],[25.084224,41.659866],[25.08379,41.646593],[25.085957,41.635909],[25.089639,41.627651],[25.089206,41.621497],[25.086173,41.616153],[25.077725,41.609351],[25.063427,41.603357],[25.046747,41.598984],[25.030283,41.598498],[25.011653,41.596716],[24.990856,41.593313],[24.984633,41.593712],[24.978777,41.582996],[24.978638,41.575943],[24.987512,41.560073],[24.992087,41.547312],[25.000405,41.534236],[25.008308,41.525103],[25.017874,41.51576],[25.020231,41.511296]]]}},
{"type":"Feature","id":"BGR:ADM2:BG-09.kardzhali","properties":{"shapeName":"Kardzhali","shapeISO":"","shapeGroup":"BGR","shapeType":"ADM2","adm1ISO":"BG-09","parentISO":"BG-09","parentID":"BGR:ADM1:BG-09","src_shape_id":"11073933B12024765433347"},"geometry":{"type":"Polygon","coordinates":[[[25.605652,41.638661],[25.607818,41.64287],[25.616917,41.649183],[25.624065,41.654849],[25.628398,41.663427],[25.630131,41.692712],[25.629698,41.7008],[25.628398,41.707431],[25.625365,41.715355],[25.613667,41.7312],[25.607168,41.739445],[25.592437,41.749627],[25.581606,41.755769],[25.569475,41.761748],[25.560593,41.762879],[25.554202,41.763343],[25.540013,41.761909],[25.519,41.760132],[25.491271,41.76401],[25.475024,41.769504],[25.457694,41.775966],[25.426932,41.789535],[25.411985,41.795188],[25.40267,41.794703],[25.400736,41.792655],[25.398554,41.790343],[25.397254,41.784366],[25.392705,41.777581],[25.389455,41.769342],[25.388589,41.759809],[25.385773,41.744294],[25.377974,41.725542],[25.370392,41.71681],[25.358261,41.711959],[25.333998,41.712283],[25.316668,41.714061],[25.306919,41.71681],[25.298254,41.723116],[25.290889,41.735888],[25.28309,41.73702],[25.277891,41.736535],[25.269442,41.733787],[25.259261,41.733625],[25.253412,41.735242],[25.24583,41.734433],[25.234348,41.721661],[25.229799,41.718912],[25.220484,41.719883],[25.212902,41.724087],[25.207919,41.733302],[25.20272,41.754153],[25.196655,41.757062],[25.181924,41.757708],[25.168276,41.7569],[25.150946,41.756415],[25.140114,41.758677],[25.129716,41.759809],[25.121267,41.756577],[25.115635,41.752052],[25.109136,41.746233],[25.108486,41.741223],[25.111086,41.737667],[25.122567,41.734757],[25.140114,41.732494],[25.163294,41.728775],[25.179324,41.72635],[25.192539,41.719721],[25.201204,41.714061],[25.210302,41.705814],[25.214635,41.7008],[25.2233,41.692389],[25.227633,41.683976],[25.238248,41.677667],[25.251245,41.673945],[25.255795,41.670062],[25.255145,41.663912],[25.253195,41.659219],[25.24648,41.653068],[25.238681,41.647079],[25.229149,41.638499],[25.222867,41.631051],[25.209869,41.612914],[25.209219,41.607731],[25.207053,41.600766],[25.205536,41.594123],[25.210952,41.587481],[25.221784,41.586022],[25.234574,41.584655],[25.24414,41.582062],[25.248577,41.576877],[25.249733,41.567073],[25.254711,41.566576],[25.262294,41.563334],[25.270525,41.561227],[25.286989,41.560092],[25.298037,41.560417],[25.311685,41.561875],[25.328799,41.564145],[25.33356,41.564296],[25.33898,41.564469],[25.358044,41.570304],[25.384473,41.582134],[25.412418,41.590073],[25.445779,41.59866],[25.468525,41.603519],[25.494087,41.61097],[25.509035,41.616801],[25.513151,41.620688],[25.514017,41.627003],[25.515101,41.630565],[25.520733,41.63348],[25.535031,41.638175],[25.550411,41.638823],[25.581173,41.63867],[25.601969,41.638823],[25.605652,41.638661]]]}},
{"type":"Feature","id":"BGR:ADM2:BG-09.kirkovo","properties":{"shapeName":"Kirkovo","shapeISO":"","shapeGroup":"BGR","shapeType":"ADM2","adm1ISO":"BG-09","parentISO":"BG-09","parentID":"BGR:ADM1:BG-09","src_shape_id":"11073933B56746381672176"},"geometry":{"type":"Polygon","coordinates":[[[25.476012,41.42645],[25.476012,41.428448],[25.468227,41.435554],[25.462135,41.439614],[25.450288,41.443674],[25.441487,41.444435],[25.426255,41.443928],[25.412377,41.44139],[25.402223,41.438853],[25.391391,41.431748],[25.378867,41.428956],[25.366344,41.43124],[25.360789,41.434413],[25.359235,41.4353],[25.341634,41.440629],[25.330803,41.441644],[25.316248,41.441137],[25.311171,41.439107],[25.289508,41.42388],[25.279353,41.420834],[25.274276,41.420073],[25.266829,41.420327],[25.260736,41.42185],[25.249905,41.427941],[25.243474,41.429464],[25.23535,41.429464],[25.225196,41.428195],[25.218087,41.425149],[25.214364,41.42185],[25.214703,41.417788],[25.217749,41.411442],[25.218764,41.406111],[25.218426,41.400526],[25.211995,41.397225],[25.200825,41.395701],[25.177469,41.393162],[25.164268,41.389861],[25.156145,41.388337],[25.140622,41.383116],[25.141197,41.381216],[25.145747,41.373901],[25.147046,41.370975],[25.147263,41.343658],[25.148563,41.336501],[25.155928,41.329019],[25.16286,41.32544],[25.171092,41.323976],[25.176291,41.321373],[25.178241,41.317305],[25.178674,41.309983],[25.178209,41.307451],[25.188731,41.300301],[25.19574,41.29463],[25.202211,41.288148],[25.211377,41.281531],[25.220902,41.274237],[25.227552,41.267618],[25.23546,41.251675],[25.245345,41.241405],[25.26188,41.239108],[25.283627,41.235188],[25.301779,41.233837],[25.319932,41.23654],[25.338444,41.239648],[25.34761,41.243973],[25.370794,41.254378],[25.384454,41.255594],[25.404044,41.256675],[25.417883,41.262619],[25.444303,41.272076],[25.4594,41.277074],[25.490672,41.283827],[25.508645,41.282476],[25.522304,41.277749],[25.532908,41.277479],[25.538839,41.281531],[25.542973,41.292065],[25.544394,41.297937],[25.548187,41.304125],[25.539309,41.309312],[25.537955,41.315414],[25.539986,41.323549],[25.540324,41.332953],[25.538294,41.340578],[25.533893,41.34566],[25.524416,41.347439],[25.514261,41.346931],[25.506476,41.344898],[25.494968,41.343119],[25.484136,41.342865],[25.481428,41.346931],[25.482105,41.356332],[25.484475,41.36497],[25.484136,41.372337],[25.482105,41.379449],[25.477705,41.38529],[25.473982,41.389099],[25.468566,41.395447],[25.467212,41.40078],[25.46755,41.407127],[25.469243,41.411188],[25.47432,41.417535],[25.476012,41.422357],[25.476012,41.42645]]]}},
{"type":"Feature","id":"BGR:ADM2:BG-09.dzhebel","properties":{"shapeName":"Dzhebel","shapeISO":"","shapeGroup":"BGR","shapeType":"ADM2","adm1ISO":"BG-09","parentISO":"BG-09","parentID":"BGR:ADM1:BG-09","src_shape_id":"11073933B81813959490559"},"geometry":{"type":"Polygon","coordinates":[[[25.169519,41.501789],[25.170226,41.495546],[25.173042,41.484025],[25.173475,41.470067],[25.171309,41.459028],[25.158961,41.441817],[25.156361,41.436458],[25.15556,41.43155],[25.158874,41.43193],[25.171352,41.430994],[25.176205,41.427564],[25.178007,41.424029],[25.176205,41.417791],[25.17163,41.414048],[25.161231,41.410097],[25.151665,41.404274],[25.144733,41.398866],[25.141128,41.395122],[25.139031,41.388368],[25.140622,41.383116],[25.156145,41.388337],[25.164268,41.389861],[25.177469,41.393162],[25.200825,41.395701],[25.211995,41.397225],[25.218426,41.400526],[25.218764,41.406111],[25.217749,41.411442],[25.214703,41.417788],[25.214364,41.42185],[25.218087,41.425149],[25.225196,41.428195],[25.23535,41.429464],[25.243474,41.429464],[25.249905,41.427941],[25.260736,41.42185],[25.266829,41.420327],[25.274276,41.420073],[25.279353,41.420834],[25.289508,41.42388],[25.311171,41.439107],[25.316248,41.441137],[25.330803,41.441644],[25.341634,41.440629],[25.359235,41.4353],[25.360789,41.434413],[25.36262,41.458135],[25.361605,41.487301],[25.360251,41.512145],[25.361605,41.530645],[25.360251,41.537233],[25.355512,41.54154],[25.341296,41.544073],[25.33588,41.548127],[25.334188,41.555219],[25.33356,41.564296],[25.328799,41.564145],[25.311685,41.561875],[25.298037,41.560417],[25.286989,41.560092],[25.270525,41.561227],[25.262294,41.563334],[25.254711,41.566576],[25.249733,41.567073],[25.248299,41.551566],[25.24511,41.546585],[25.239981,41.543576],[25.231523,41.544199],[25.222512,41.546481],[25.213777,41.546066],[25.208925,41.542123],[25.20629,41.538491],[25.205736,41.532472],[25.208093,41.52666],[25.209202,41.519186],[25.204211,41.514203],[25.197001,41.512957],[25.184939,41.508285],[25.179394,41.504444],[25.171075,41.50164],[25.169519,41.501789]]]}},
{"type":"Feature","id":"BGR:ADM2:BG-09.momchilgrad","properties":{"shapeName":"Momchilgrad","shapeISO":"","shapeGroup":"BGR","shapeType":"ADM2","adm1ISO":"BG-09","parentISO":"BG-09","parentID":"BGR:ADM1:BG-09","src_shape_id":"11073933B78576273925436"},"geometry":{"type":"Polygon","coordinates":[[[25.581173,41.63867],[25.550411,41.638823],[25.535031,41.638175],[25.520733,41.63348],[25.515101,41.630565],[25.514017,41.627003],[25.513151,41.620688],[25.509035,41.616801],[25.494087,41.61097],[25.468525,41.603519],[25.445779,41.59866],[25.412418,41.590073],[25.384473,41.582134],[25.358044,41.570304],[25.33898,41.564469],[25.33356,41.564296],[25.334188,41.555219],[25.33588,41.548127],[25.341296,41.544073],[25.355512,41.54154],[25.360251,41.537233],[25.361605,41.530645],[25.360251,41.512145],[25.361605,41.487301],[25.36262,41.458135],[25.360789,41.434413],[25.366344,41.43124],[25.378867,41.428956],[25.391391,41.431748],[25.402223,41.438853],[25.412377,41.44139],[25.426255,41.443928],[25.441487,41.444435],[25.450288,41.443674],[25.462135,41.439614],[25.468227,41.435554],[25.476012,41.428448],[25.476012,41.42645],[25.484556,41.42655],[25.494521,41.426225],[25.507952,41.423464],[25.518783,41.419565],[25.528532,41.416479],[25.54023,41.414692],[25.549978,41.416316],[25.552578,41.422002],[25.552578,41.427037],[25.555177,41.433534],[25.559293,41.436295],[25.582472,41.437594],[25.590488,41.44133],[25.593304,41.449286],[25.593087,41.464548],[25.597203,41.470391],[25.598286,41.475585],[25.596987,41.482564],[25.590921,41.488406],[25.587022,41.494248],[25.587455,41.49944],[25.589838,41.503821],[25.599586,41.511283],[25.610634,41.527179],[25.612151,41.534801],[25.611934,41.542422],[25.609335,41.548907],[25.595904,41.559282],[25.591354,41.56609],[25.585505,41.575652],[25.582906,41.58586],[25.580956,41.601414],[25.581173,41.619878],[25.581173,41.63867]]]}},
{"type":"Feature","id":"BGR:ADM2:BG-09.chernoochene","properties":{"shapeName":"Chernoochene","shapeISO":"","shapeGroup":"BGR","shapeType":"ADM2","adm1ISO":"BG-09","parentISO":"BG-09","parentID":"BGR:ADM1:BG-09","src_shape_id":"11073933B8745204378686"},"geometry":{"type":"Polygon","coordinates":[[[25.108486,41.741223],[25.109136,41.746233],[25.115635,41.752052],[25.121267,41.756577],[25.129716,41.759809],[25.140114,41.758677],[25.150946,41.756415],[25.168276,41.7569],[25.181924,41.757708],[25.196655,41.757062],[25.20272,41.754153],[25.207919,41.733302],[25.212902,41.724087],[25.220484,41.719883],[25.229799,41.718912],[25.234348,41.721661],[25.24583,41.734433],[25.253412,41.735242],[25.259261,41.733625],[25.269442,41.733787],[25.277891,41.736535],[25.28309,41.73702],[25.290889,41.735888],[25.298254,41.723116],[25.306919,41.71681],[25.316668,41.714061],[25.333998,41.712283],[25.358261,41.711959],[25.370392,41.71681],[25.377974,41.725542],[25.385773,41.744294],[25.388589,41.759809],[25.389455,41.769342],[25.392705,41.777581],[25.397254,41.784366],[25.398554,41.790343],[25.400736,41.792655],[25.392873,41.797628],[25.38286,41.804806],[25.377468,41.815714],[25.374002,41.827481],[25.371306,41.837524],[25.364374,41.846992],[25.355794,41.854141],[25.346674,41.853223],[25.34347,41.848817],[25.339526,41.841105],[25.33016,41.835045],[25.307731,41.830821],[25.304527,41.825311],[25.301076,41.813371],[25.296886,41.809146],[25.289985,41.808595],[25.281358,41.811351],[25.269527,41.82274],[25.263858,41.826229],[25.249316,41.829168],[25.242168,41.83633],[25.240196,41.847164],[25.235267,41.863319],[25.231077,41.873598],[25.228365,41.895251],[25.229351,41.909743],[25.216781,41.90956],[25.206922,41.907542],[25.191394,41.901489],[25.173648,41.890664],[25.157627,41.877269],[25.13988,41.863503],[25.127545,41.853609],[25.119669,41.847898],[25.113261,41.841656],[25.109071,41.833208],[25.108085,41.82678],[25.100691,41.817964],[25.089106,41.808044],[25.080726,41.802716],[25.076289,41.800695],[25.059282,41.79849],[25.05805,41.792242],[25.054353,41.786913],[25.051149,41.780296],[25.04893,41.765223],[25.04967,41.754927],[25.053121,41.747939],[25.058661,41.741384],[25.082491,41.741546],[25.103937,41.741061],[25.108486,41.741223]]]}}
]}