{"type":"FeatureCollection","bbox":[23.314855,43.000238,24.303817,43.80136],"features":[
{"type":"Feature","id":"BGR:ADM2:BG-06.byala-slatina","properties":{"shapeName":"Byala Slatina","shapeISO":"","shapeGroup":"BGR","shapeType":"ADM2","adm1ISO":"BG-06","parentISO":"BG-06","parentID":"BGR:ADM1:BG-06","src_shape_id":"11073933B40288189560521"},"geometry":{"type":"Polygon","coordinates":[[[23.761862,43.355918],[23.775638,43.345543],[23.783941,43.335479],[23.791137,43.324071],[23.798702,43.310244],[23.802023,43.299906],[23.802392,43.291714],[23.802276,43.270221],[23.846857,43.270089],[23.86088,43.269283],[23.866415,43.267133],[23.879787,43.259972],[23.880991,43.25934],[23.89612,43.254772],[23.91494,43.252621],[23.930622,43.251815],[23.945936,43.251815],[23.948075,43.252594],[23.954054,43.254772],[23.957376,43.263371],[23.957745,43.274119],[23.956776,43.287635],[23.958794,43.296658],[23.96456,43.307987],[23.96456,43.315539],[23.961965,43.328123],[23.958217,43.335462],[23.957353,43.347832],[23.957641,43.356427],[23.964202,43.362983],[23.973058,43.367812],[23.980254,43.370629],[23.990033,43.372641],[23.996675,43.374518],[23.998705,43.383637],[24.001841,43.390475],[24.008668,43.398385],[24.01328,43.402273],[24.025827,43.410718],[24.04889,43.4268],[24.055901,43.434839],[24.056639,43.439796],[24.052026,43.446226],[24.036897,43.459754],[24.02841,43.46819],[24.016971,43.485596],[24.01328,43.491887],[24.008483,43.503933],[24.005347,43.51437],[24.003133,43.523602],[24.004055,43.529622],[24.014757,43.544468],[24.019,43.553428],[24.022321,43.563991],[24.024166,43.57522],[24.024572,43.589163],[24.027053,43.591351],[23.997782,43.598607],[23.986527,43.601814],[23.978225,43.602482],[23.96328,43.602883],[23.957376,43.602749],[23.950733,43.601814],[23.934312,43.598474],[23.904976,43.59353],[23.886895,43.591792],[23.869182,43.593262],[23.85719,43.592728],[23.848149,43.590322],[23.840953,43.585111],[23.835972,43.579497],[23.8273,43.572947],[23.816968,43.568001],[23.802207,43.56867],[23.784864,43.570274],[23.771579,43.572279],[23.759456,43.573339],[23.76014,43.571878],[23.757557,43.553428],[23.75442,43.544602],[23.751715,43.542221],[23.768812,43.525609],[23.781727,43.515842],[23.79944,43.502862],[23.810879,43.491218],[23.818444,43.482651],[23.820658,43.472475],[23.820658,43.4627],[23.816414,43.456406],[23.807373,43.449441],[23.800178,43.439394],[23.798702,43.431623],[23.800731,43.424388],[23.80682,43.421439],[23.815447,43.41632],[23.820643,43.41186],[23.820171,43.404825],[23.818163,43.399935],[23.81651,43.388008],[23.813204,43.380628],[23.806119,43.374878],[23.791949,43.369384],[23.77707,43.36389],[23.768923,43.359855],[23.761862,43.355918]]]}},
{"type":"Feature","id":"BGR:ADM2:BG-06.hayredin","properties":{"shapeName":"Hayredin","shapeISO":"","shapeGroup":"BGR","shapeType":"ADM2","adm1ISO":"BG-06","parentISO":"BG-06","parentID":"BGR:ADM1:BG-06","src_shape_id":"11073933B40426802957717"},"geometry":{"type":"Polygon","coordinates":[[[23.759456,43.573339],[23.75065,43.592828],[23.744307,43.598465],[23.734794,43.602849],[23.697316,43.616],[23.684343,43.621218],[23.678578,43.630191],[23.678475,43.631057],[23.676848,43.644796],[23.675118,43.649802],[23.651478,43.661483],[23.627262,43.676288],[23.602823,43.686725],[23.591318,43.679124],[23.586706,43.672719],[23.583016,43.664177],[23.581171,43.655634],[23.580433,43.648425],[23.578957,43.640548],[23.574528,43.6308],[23.565672,43.617177],[23.560875,43.61317],[23.55331,43.609296],[23.549251,43.605822],[23.547406,43.602616],[23.545561,43.594866],[23.544081,43.594196],[23.547989,43.587024],[23.55224,43.581807],[23.560388,43.576503],[23.57444,43.56906],[23.584359,43.563499],[23.60833,43.547068],[23.611282,43.541676],[23.61506,43.532945],[23.616124,43.528316],[23.622869,43.528819],[23.632647,43.527481],[23.637847,43.524239],[23.647223,43.521595],[23.664382,43.51718],[23.676744,43.511426],[23.689475,43.509018],[23.703497,43.508081],[23.714567,43.508884],[23.722317,43.512497],[23.728221,43.51825],[23.731542,43.526277],[23.735785,43.533501],[23.741136,43.537647],[23.749254,43.540055],[23.751715,43.542221],[23.75442,43.544602],[23.757557,43.553428],[23.76014,43.571878],[23.759456,43.573339]]]}},
{"type":"Feature","id":"BGR:ADM2:BG-06.kozloduy","properties":{"shapeName":"Kozloduy","shapeISO":"","shapeGroup":"BGR","shapeType":"ADM2","adm1ISO":"BG-06","parentISO":"BG-06","parentID":"BGR:ADM1:BG-06","src_shape_id":"11073933B76075900542110"},"geometry":{"type":"Polygon","coordinates":[[[23.602823,43.686725],[23.627262,43.676288],[23.651478,43.661483],[23.675118,43.649802],[23.676848,43.644796],[23.678475,43.631057],[23.690213,43.637611],[23.698885,43.639213],[23.716782,43.643352],[23.732095,43.649093],[23.752575,43.655901],[23.766044,43.661508],[23.781543,43.66698],[23.792982,43.672318],[23.809772,43.67819],[23.818259,43.680725],[23.826377,43.683661],[23.830436,43.687263],[23.832835,43.694067],[23.83265,43.702204],[23.831543,43.71114],[23.832281,43.720208],[23.836156,43.730342],[23.8404,43.737941],[23.843536,43.74194],[23.855575,43.754756],[23.828739,43.765722],[23.808993,43.771425],[23.788507,43.775168],[23.769502,43.779267],[23.753706,43.784969],[23.735195,43.790671],[23.712241,43.796372],[23.68361,43.80136],[23.654979,43.800826],[23.640417,43.797619],[23.628323,43.795659],[23.621373,43.795791],[23.622131,43.780584],[23.624529,43.771658],[23.629142,43.765396],[23.633201,43.756468],[23.633201,43.73994],[23.628588,43.733275],[23.622131,43.727009],[23.612721,43.720208],[23.610138,43.71194],[23.606263,43.696868],[23.604418,43.687797],[23.602823,43.686725]]]}},
{"type":"Feature","id":"BGR:ADM2:BG-06.oryahovo","properties":{"shapeName":"Oryahovo","shapeISO":"","shapeGroup":"BGR","shapeType":"ADM2","adm1ISO":"BG-06","parentISO":"BG-06","parentID":"BGR:ADM1:BG-06","src_shape_id":"11073933B25972122565440"},"geometry":{"type":"Polygon","coordinates":[[[24.027053,43.591351],[24.031067,43.594893],[24.040034,43.601948],[24.047967,43.607024],[24.057562,43.60836],[24.068447,43.607158],[24.080809,43.607826],[24.08782,43.610231],[24.094094,43.610765],[24.103503,43.607158],[24.118448,43.602348],[24.126751,43.600611],[24.13081,43.597939],[24.135982,43.596522],[24.137637,43.596069],[24.153504,43.597538],[24.162176,43.600211],[24.166788,43.605154],[24.174907,43.616776],[24.180442,43.625725],[24.187637,43.636008],[24.193911,43.641483],[24.198892,43.645088],[24.205903,43.648025],[24.210331,43.649093],[24.217527,43.648559],[24.225461,43.644954],[24.231734,43.640148],[24.239114,43.638812],[24.245572,43.63948],[24.25572,43.643219],[24.277491,43.64402],[24.286347,43.64669],[24.292067,43.65243],[24.296495,43.667647],[24.300185,43.677122],[24.303322,43.687797],[24.303817,43.696025],[24.296704,43.695274],[24.273504,43.693846],[24.247341,43.690634],[24.234506,43.689206],[24.221178,43.686529],[24.200692,43.683851],[24.181688,43.682423],[24.162683,43.684387],[24.154291,43.687243],[24.138001,43.691883],[24.118996,43.694917],[24.061734,43.70598],[24.043223,43.710619],[24.025205,43.715971],[24.014099,43.719538],[23.98991,43.735056],[23.973867,43.739157],[23.96128,43.741832],[23.938572,43.745398],[23.924751,43.747003],[23.895379,43.748251],[23.877608,43.749499],[23.861621,43.75259],[23.860791,43.749143],[23.861618,43.743769],[23.864215,43.739844],[23.871773,43.733531],[23.880157,43.727899],[23.893618,43.720048],[23.90519,43.71433],[23.911094,43.709977],[23.915582,43.704258],[23.917353,43.698709],[23.920305,43.691281],[23.93046,43.68445],[23.935656,43.679839],[23.938017,43.674715],[23.93542,43.668736],[23.934121,43.661219],[23.936128,43.656008],[23.938925,43.645755],[23.945567,43.637878],[23.951102,43.629999],[23.959959,43.616509],[23.962911,43.608761],[23.96328,43.602883],[23.978225,43.602482],[23.986527,43.601814],[23.997782,43.598607],[24.027053,43.591351]]]}},
{"type":"Feature","id":"BGR:ADM2:BG-06.miziya","properties":{"shapeName":"Miziya","shapeISO":"","shapeGroup":"BGR","shapeType":"ADM2","adm1ISO":"BG-06","parentISO":"BG-06","parentID":"BGR:ADM1:BG-06","src_shape_id":"11073933B80123778719117"},"geometry":{"type":"Polygon","coordinates":[[[23.96328,43.602883],[23.962911,43.608761],[23.959959,43.616509],[23.951102,43.629999],[23.945567,43.637878],[23.938925,43.645755],[23.936128,43.656008],[23.934121,43.661219],[23.93542,43.668736],[23.938017,43.674715],[23.935656,43.679839],[23.93046,43.68445],[23.920305,43.691281],[23.917353,43.698709],[23.915582,43.704258],[23.911094,43.709977],[23.90519,43.71433],[23.893618,43.720048],[23.880157,43.727899],[23.871773,43.733531],[23.864215,43.739844],[23.861618,43.743769],[23.860791,43.749143],[23.861621,43.75259],[23.855575,43.754756],[23.843536,43.74194],[23.8404,43.737941],[23.836156,43.730342],[23.832281,43.720208],[23.831543,43.71114],[23.83265,43.702204],[23.832835,43.694067],[23.830436,43.687263],[23.826377,43.683661],[23.818259,43.680725],[23.809772,43.67819],[23.792982,43.672318],[23.781543,43.66698],[23.766044,43.661508],[23.752575,43.655901],[23.732095,43.649093],[23.716782,43.643352],[23.698885,43.639213],[23.690213,43.637611],[23.678475,43.631057],[23.678578,43.630191],[23.684343,43.621218],[23.697316,43.616],[23.734794,43.602849],[23.744307,43.598465],[23.75065,43.592828],[23.759456,43.573339],[23.771579,43.572279],[23.784864,43.570274],[23.802207,43.56867],[23.816968,43.568001],[23.8273,43.572947],[23.835972,43.579497],[23.840953,43.585111],[23.848149,43.590322],[23.85719,43.592728],[23.869182,43.593262],[23.886895,43.591792],[23.904976,43.59353],[23.934312,43.598474],[23.950733,43.601814],[23.957376,43.602749],[23.96328,43.602883]]]}},
{"type":"Feature","id":"BGR:ADM2:BG-06.krivodol","properties":{"shapeName":"Krivodol","shapeISO":"","shapeGroup":"BGR","shapeType":"ADM2","adm1ISO":"BG-06","parentISO":"BG-06","parentID":"BGR:ADM1:BG-06","src_shape_id":"11073933B19535093433490"},"geometry":{"type":"Polygon","coordinates":[[[23.314855,43.298215],[23.320325,43.293111],[23.33237,43.285375],[23.353389,43.277724],[23.377596,43.273684],[23.394836,43.271362],[23.408297,43.270158],[23.416445,43.268783],[23.418134,43.268029],[23.417389,43.281937],[23.419279,43.288469],[23.423766,43.297838],[23.432268,43.30265],[23.437818,43.307376],[23.439825,43.312875],[23.439825,43.317429],[23.437936,43.324989],[23.440061,43.332204],[23.449036,43.336413],[23.458837,43.340363],[23.468047,43.342424],[23.473833,43.345859],[23.479265,43.350668],[23.490601,43.359941],[23.49556,43.364491],[23.504417,43.370414],[23.513863,43.372646],[23.538661,43.369212],[23.550941,43.369985],[23.560506,43.373933],[23.567001,43.379598],[23.569362,43.386807],[23.569244,43.393243],[23.566292,43.400364],[23.562395,43.411517],[23.560624,43.421466],[23.559089,43.435016],[23.560388,43.443247],[23.571606,43.45782],[23.57503,43.463391],[23.584005,43.473846],[23.592979,43.478366],[23.601466,43.481312],[23.608477,43.487202],[23.610691,43.492155],[23.617149,43.5042],[23.623607,43.514638],[23.637847,43.524239],[23.632647,43.527481],[23.622869,43.528819],[23.616124,43.528316],[23.610322,43.527883],[23.600728,43.52601],[23.592425,43.527481],[23.578588,43.527214],[23.572314,43.523602],[23.562905,43.516912],[23.557,43.511293],[23.548329,43.504869],[23.537258,43.501256],[23.517516,43.500855],[23.502203,43.501524],[23.483937,43.504334],[23.461058,43.50875],[23.452202,43.509955],[23.442054,43.509955],[23.435781,43.508349],[23.430799,43.504736],[23.423604,43.498178],[23.415485,43.483855],[23.407552,43.47127],[23.401832,43.45587],[23.401463,43.428169],[23.401279,43.408439],[23.400858,43.39719],[23.398732,43.391012],[23.396843,43.383718],[23.383854,43.363718],[23.374053,43.355219],[23.367322,43.347663],[23.353625,43.334953],[23.346067,43.328511],[23.336621,43.32181],[23.322451,43.31425],[23.322805,43.31004],[23.322333,43.304798],[23.314855,43.298215]]]}},
{"type":"Feature","id":"BGR:ADM2:BG-06.vratsa","properties":{"shapeName":"Vratsa","shapeISO":"","shapeGroup":"BGR","shapeType":"ADM2","adm1ISO":"BG-06","parentISO":"BG-06","parentID":"BGR:ADM1:BG-06","src_shape_id":"11073933B12847988988129"},"geometry":{"type":"Polygon","coordinates":[[[23.761862,43.355918],[23.75848,43.358422],[23.728959,43.379212],[23.698516,43.401067],[23.679881,43.415275],[23.652574,43.436848],[23.646116,43.443815],[23.641135,43.451316],[23.632278,43.457879],[23.625267,43.464843],[23.621208,43.472074],[23.618625,43.478634],[23.614381,43.482918],[23.608477,43.487202],[23.601466,43.481312],[23.592979,43.478366],[23.584005,43.473846],[23.57503,43.463391],[23.571606,43.45782],[23.560388,43.443247],[23.559089,43.435016],[23.560624,43.421466],[23.562395,43.411517],[23.566292,43.400364],[23.569244,43.393243],[23.569362,43.386807],[23.567001,43.379598],[23.560506,43.373933],[23.550941,43.369985],[23.538661,43.369212],[23.513863,43.372646],[23.504417,43.370414],[23.49556,43.364491],[23.490601,43.359941],[23.479265,43.350668],[23.473833,43.345859],[23.468047,43.342424],[23.458837,43.340363],[23.449036,43.336413],[23.440061,43.332204],[23.437936,43.324989],[23.439825,43.317429],[23.439825,43.312875],[23.437818,43.307376],[23.432268,43.30265],[23.423766,43.297838],[23.419279,43.288469],[23.417389,43.281937],[23.418134,43.268029],[23.425301,43.264828],[23.434039,43.258894],[23.439943,43.252616],[23.443604,43.247714],[23.444903,43.242897],[23.445611,43.236359],[23.444785,43.229476],[23.441006,43.224572],[23.433921,43.220012],[23.407352,43.218205],[23.40133,43.215193],[23.397552,43.212181],[23.393891,43.204004],[23.392946,43.195913],[23.394599,43.189456],[23.39885,43.178952],[23.404637,43.172235],[23.405312,43.168049],[23.411603,43.168101],[23.425891,43.167068],[23.440534,43.165001],[23.456003,43.164139],[23.469818,43.160866],[23.477966,43.157938],[23.483988,43.152338],[23.48694,43.146653],[23.489066,43.139846],[23.497568,43.134762],[23.512919,43.129333],[23.530513,43.122869],[23.540078,43.120715],[23.55779,43.117612],[23.571724,43.116491],[23.591798,43.117008],[23.600418,43.119163],[23.609865,43.1233],[23.618249,43.127868],[23.625334,43.13459],[23.62557,43.140966],[23.621555,43.150443],[23.612463,43.168015],[23.606913,43.17456],[23.603127,43.185797],[23.60202,43.193465],[23.60571,43.20409],[23.611798,43.211083],[23.619917,43.215117],[23.632094,43.217134],[23.641504,43.222109],[23.644087,43.226815],[23.643902,43.232461],[23.641135,43.239719],[23.639843,43.246977],[23.64298,43.252084],[23.653865,43.256384],[23.676559,43.257459],[23.684678,43.259743],[23.690028,43.262027],[23.696855,43.262565],[23.70239,43.260684],[23.709401,43.255175],[23.716597,43.252756],[23.729881,43.251412],[23.74335,43.253428],[23.752944,43.257056],[23.762354,43.262027],[23.773424,43.267402],[23.787078,43.269283],[23.802276,43.270221],[23.802392,43.291714],[23.802023,43.299906],[23.798702,43.310244],[23.791137,43.324071],[23.783941,43.335479],[23.775638,43.345543],[23.761862,43.355918]]]}},
{"type":"Feature","id":"BGR:ADM2:BG-06.borovan","properties":{"shapeName":"Borovan","shapeISO":"","shapeGroup":"BGR","shapeType":"ADM2","adm1ISO":"BG-06","parentISO":"BG-06","parentID":"BGR:ADM1:BG-06","src_shape_id":"11073933B99555279337213"},"geometry":{"type":"Polygon","coordinates":[[[23.751715,43.542221],[23.749254,43.540055],[23.741136,43.537647],[23.735785,43.533501],[23.731542,43.526277],[23.728221,43.51825],[23.722317,43.512497],[23.714567,43.508884],[23.703497,43.508081],[23.689475,43.509018],[23.676744,43.511426],[23.664382,43.51718],[23.647223,43.521595],[23.637847,43.524239],[23.623607,43.514638],[23.617149,43.5042],[23.610691,43.492155],[23.608477,43.487202],[23.614381,43.482918],[23.618625,43.478634],[23.621208,43.472074],[23.625267,43.464843],[23.632278,43.457879],[23.641135,43.451316],[23.646116,43.443815],[23.652574,43.436848],[23.679881,43.415275],[23.698516,43.401067],[23.728959,43.379212],[23.75848,43.358422],[23.761862,43.355918],[23.768923,43.359855],[23.77707,43.36389],[23.791949,43.369384],[23.806119,43.374878],[23.813204,43.380628],[23.81651,43.388008],[23.818163,43.399935],[23.820171,43.404825],[23.820643,43.41186],[23.815447,43.41632],[23.80682,43.421439],[23.800731,43.424388],[23.798702,43.431623],[23.800178,43.439394],[23.807373,43.449441],[23.816414,43.456406],[23.820658,43.4627],[23.820658,43.472475],[23.818444,43.482651],[23.810879,43.491218],[23.79944,43.502862],[23.781727,43.515842],[23.768812,43.525609],[23.751715,43.542221]]]}},
{"type":"Feature","id":"BGR:ADM2:BG-06.mezdra","properties":{"shapeName":"Mezdra","shapeISO":"","shapeGroup":"BGR","shapeType":"ADM2","adm1ISO":"BG-06","parentISO":"BG-06","parentID":"BGR:ADM1:BG-06","src_shape_id":"11073933B35640651728573"},"geometry":{"type":"Polygon","coordinates":[[[23.802276,43.270221],[23.787078,43.269283],[23.773424,43.267402],[23.762354,43.262027],[23.752944,43.257056],[23.74335,43.253428],[23.729881,43.251412],[23.716597,43.252756],[23.709401,43.255175],[23.70239,43.260684],[23.696855,43.262565],[23.690028,43.262027],[23.684678,43.259743],[23.676559,43.257459],[23.653865,43.256384],[23.64298,43.252084],[23.639843,43.246977],[23.641135,43.239719],[23.643902,43.232461],[23.644087,43.226815],[23.641504,43.222109],[23.632094,43.217134],[23.619917,43.215117],[23.611798,43.211083],[23.60571,43.20409],[23.60202,43.193465],[23.603127,43.185797],[23.606913,43.17456],[23.612463,43.168015],[23.621555,43.150443],[23.62557,43.140966],[23.625334,43.13459],[23.618249,43.127868],[23.609865,43.1233],[23.600418,43.119163],[23.591798,43.117008],[23.571724,43.116491],[23.55779,43.117612],[23.540078,43.120715],[23.530513,43.122869],[23.512919,43.129333],[23.497568,43.134762],[23.489066,43.139846],[23.47943,43.13539],[23.473364,43.128434],[23.468165,43.121635],[23.465132,43.116892],[23.464699,43.108036],[23.466865,43.09554],[23.470981,43.08589],[23.475747,43.079087],[23.481379,43.072282],[23.492427,43.061837],[23.500659,43.054873],[23.508458,43.044425],[23.520373,43.030649],[23.530121,43.018296],[23.532504,43.011961],[23.537486,43.00404],[23.545502,43.000713],[23.562615,43.000238],[23.572039,43.003882],[23.578132,43.006852],[23.588963,43.013535],[23.599456,43.022444],[23.606903,43.02962],[23.610626,43.034568],[23.617717,43.041917],[23.624788,43.045159],[23.632414,43.046476],[23.640178,43.045767],[23.649051,43.042119],[23.657647,43.035735],[23.668322,43.031682],[23.67567,43.031276],[23.690228,43.033202],[23.697576,43.035229],[23.707835,43.041917],[23.736396,43.058431],[23.749567,43.062989],[23.759411,43.064205],[23.780978,43.065003],[23.782278,43.071175],[23.785744,43.075922],[23.790943,43.081302],[23.799609,43.087788],[23.806324,43.094275],[23.810657,43.101235],[23.813689,43.114836],[23.815856,43.127802],[23.820838,43.14282],[23.827337,43.15009],[23.834269,43.151987],[23.844884,43.152619],[23.8516,43.151513],[23.861131,43.152619],[23.86828,43.158624],[23.86698,43.165103],[23.855932,43.175372],[23.847267,43.182797],[23.839468,43.188641],[23.836869,43.194959],[23.837952,43.204907],[23.845751,43.209644],[23.854416,43.212013],[23.862215,43.216275],[23.86893,43.221801],[23.87218,43.229535],[23.874129,43.24011],[23.875646,43.251313],[23.879787,43.259972],[23.866415,43.267133],[23.86088,43.269283],[23.846857,43.270089],[23.802276,43.270221]]]}},
{"type":"Feature","id":"BGR:ADM2:BG-06.roman","properties":{"shapeName":"Roman","shapeISO":"","shapeGroup":"BGR","shapeType":"ADM2","adm1ISO":"BG-06","parentISO":"BG-06","parentID":"BGR:ADM1:BG-06","src_shape_id":"11073933B43844677298342"},"geometry":{"type":"Polygon","coordinates":[[[23.879787,43.259972],[23.875646,43.251313],[23.874129,43.24011],[23.87218,43.229535],[23.86893,43.221801],[23.862215,43.216275],[23.854416,43.212013],[23.845751,43.209644],[23.837952,43.204907],[23.836869,43.194959],[23.839468,43.188641],[23.847267,43.182797],[23.855932,43.175372],[23.86698,43.165103],[23.86828,43.158624],[23.861131,43.152619],[23.8516,43.151513],[23.844884,43.152619],[23.834269,43.151987],[23.827337,43.15009],[23.820838,43.14282],[23.815856,43.127802],[23.813689,43.114836],[23.810657,43.101235],[23.806324,43.094275],[23.799609,43.087788],[23.790943,43.081302],[23.785744,43.075922],[23.782278,43.071175],[23.780978,43.065003],[23.785744,43.059305],[23.806107,43.049807],[23.820838,43.047907],[23.837952,43.047433],[23.84835,43.048699],[23.860482,43.050599],[23.873479,43.05044],[23.884311,43.047591],[23.901858,43.042366],[23.923304,43.033816],[23.935002,43.030966],[23.942151,43.031124],[23.951249,43.034291],[23.956449,43.040941],[23.958615,43.056456],[23.962006,43.05914],[23.965547,43.062945],[23.966414,43.073232],[23.964681,43.08146],[23.958182,43.090953],[23.956449,43.098546],[23.956232,43.108826],[23.957532,43.115468],[23.96533,43.117208],[23.979628,43.116575],[23.995659,43.114045],[24.007357,43.113254],[24.026203,43.113887],[24.036168,43.11784],[24.036168,43.1229],[24.032486,43.129857],[24.029236,43.139974],[24.02902,43.160204],[24.029236,43.191642],[24.029236,43.221829],[24.02103,43.223588],[24.014572,43.228025],[24.007192,43.232461],[23.999627,43.235418],[23.986896,43.236493],[23.978594,43.233402],[23.968446,43.232058],[23.957745,43.235015],[23.952025,43.240391],[23.949257,43.247918],[23.948075,43.252594],[23.945936,43.251815],[23.930622,43.251815],[23.91494,43.252621],[23.89612,43.254772],[23.880991,43.25934],[23.879787,43.259972]]]}}
]}