{"type":"FeatureCollection","bbox":[27.070338,42.825056,28.050883,43.597058],"features":[
{"type":"Feature","id":"BGR:ADM2:BG-03.aksakovo","properties":{"shapeName":"Aksakovo","shapeISO":"","shapeGroup":"BGR","shapeType":"ADM2","adm1ISO":"BG-03","parentISO":"BG-03","parentID":"BGR:ADM1:BG-03","src_shape_id":"11073933B20362331933895"},"geometry":{"type":"Polygon","coordinates":[[[27.991213,43.400878],[27.953049,43.400456],[27.930347,43.395154],[27.915103,43.388908],[27.895806,43.37948],[27.876022,43.363802],[27.863374,43.361209],[27.858022,43.36227],[27.851211,43.365689],[27.840509,43.37559],[27.831103,43.382427],[27.825914,43.389498],[27.818455,43.397746],[27.811968,43.404108],[27.804184,43.412944],[27.794455,43.416124],[27.782293,43.418716],[27.774833,43.423191],[27.766563,43.429551],[27.755374,43.435675],[27.744509,43.440267],[27.740617,43.445801],[27.739482,43.45204],[27.736725,43.461457],[27.734617,43.466283],[27.727806,43.473226],[27.71986,43.475815],[27.707211,43.476521],[27.704102,43.476953],[27.701713,43.466316],[27.698576,43.459888],[27.692303,43.450646],[27.684739,43.442609],[27.677358,43.432963],[27.670901,43.425996],[27.664443,43.419563],[27.656694,43.41112],[27.649498,43.405624],[27.649759,43.401211],[27.655402,43.39624],[27.667395,43.391012],[27.675144,43.385917],[27.686953,43.381492],[27.695809,43.376664],[27.703927,43.370226],[27.707433,43.362715],[27.708171,43.356813],[27.703005,43.345409],[27.705588,43.336418],[27.709278,43.331587],[27.719056,43.320312],[27.730865,43.309573],[27.739167,43.302994],[27.747101,43.294803],[27.75116,43.288894],[27.753559,43.281238],[27.754481,43.27291],[27.751979,43.270846],[27.746784,43.268353],[27.739345,43.267665],[27.724938,43.269127],[27.712422,43.269815],[27.700141,43.268955],[27.692111,43.266461],[27.675462,43.255196],[27.663771,43.250896],[27.660583,43.251329],[27.661646,43.243757],[27.663417,43.238682],[27.669085,43.233348],[27.674753,43.229304],[27.68603,43.219958],[27.703005,43.221706],[27.724592,43.22305],[27.741197,43.224932],[27.761862,43.224932],[27.773428,43.224227],[27.777752,43.229268],[27.792743,43.2383],[27.800815,43.24166],[27.807157,43.24544],[27.814365,43.2488],[27.819842,43.253629],[27.82359,43.258878],[27.824455,43.267276],[27.82399,43.27393],[27.832342,43.275193],[27.844335,43.275596],[27.853376,43.274925],[27.870904,43.277208],[27.877177,43.28285],[27.882159,43.288625],[27.89452,43.296414],[27.905591,43.295474],[27.912971,43.284999],[27.913893,43.280029],[27.919797,43.272507],[27.924041,43.268208],[27.938617,43.265118],[27.954853,43.265386],[27.972197,43.26888],[27.993415,43.274387],[28.013895,43.281775],[28.027548,43.289162],[28.036035,43.295474],[28.046552,43.301517],[28.05008,43.30596],[28.050883,43.311657],[28.045491,43.317508],[28.04458,43.322351],[28.040818,43.32823],[28.03255,43.354111],[28.024463,43.364826],[28.020149,43.371359],[28.013859,43.379589],[28.007389,43.387165],[27.998043,43.395654],[27.991213,43.400878]]]}},
{"type":"Feature","id":"BGR:ADM2:BG-03.varna","properties":{"shapeName":"Varna","shapeISO":"","shapeGroup":"BGR","shapeType":"ADM2","adm1ISO":"BG-03","parentISO":"BG-03","parentID":"BGR:ADM1:BG-03","src_shape_id":"11073933B58325335592952"},"geometry":{"type":"Polygon","coordinates":[[[27.773428,43.224227],[27.785536,43.213512],[27.791878,43.208469],[27.797356,43.205738],[27.803698,43.201325],[27.807734,43.1946],[27.807157,43.188294],[27.804275,43.180306],[27.802833,43.170425],[27.803986,43.160542],[27.806004,43.152551],[27.806293,43.141613],[27.818401,43.140562],[27.827338,43.139299],[27.830509,43.13404],[27.830797,43.126256],[27.83022,43.120364],[27.837139,43.116997],[27.857031,43.115734],[27.872887,43.111525],[27.886437,43.108579],[27.907482,43.106264],[27.922382,43.104032],[27.923108,43.105952],[27.933218,43.123376],[27.938272,43.138952],[27.943889,43.150631],[27.945574,43.161693],[27.945574,43.170091],[27.941642,43.169682],[27.930409,43.17132],[27.919176,43.17173],[27.907663,43.17644],[27.906259,43.185655],[27.910471,43.193231],[27.926759,43.201215],[27.938553,43.207765],[27.951752,43.209812],[27.968321,43.21104],[27.981519,43.215133],[27.99528,43.221068],[28.00567,43.228435],[28.015499,43.237028],[28.026451,43.25012],[28.034314,43.265254],[28.041896,43.280385],[28.048636,43.295716],[28.05008,43.30596],[28.046552,43.301517],[28.036035,43.295474],[28.027548,43.289162],[28.013895,43.281775],[27.993415,43.274387],[27.972197,43.26888],[27.954853,43.265386],[27.938617,43.265118],[27.924041,43.268208],[27.919797,43.272507],[27.913893,43.280029],[27.912971,43.284999],[27.905591,43.295474],[27.89452,43.296414],[27.882159,43.288625],[27.877177,43.28285],[27.870904,43.277208],[27.853376,43.274925],[27.844335,43.275596],[27.832342,43.275193],[27.82399,43.27393],[27.824455,43.267276],[27.82359,43.258878],[27.819842,43.253629],[27.814365,43.2488],[27.807157,43.24544],[27.800815,43.24166],[27.792743,43.2383],[27.777752,43.229268],[27.773428,43.224227]]]}},
{"type":"Feature","id":"BGR:ADM2:BG-03.vetrino","properties":{"shapeName":"Vetrino","shapeISO":"","shapeGroup":"BGR","shapeType":"ADM2","adm1ISO":"BG-03","parentISO":"BG-03","parentID":"BGR:ADM1:BG-03","src_shape_id":"11073933B34081717318669"},"geometry":{"type":"Polygon","coordinates":[[[27.509083,43.343455],[27.504478,43.345859],[27.495857,43.349208],[27.494795,43.356335],[27.495976,43.363117],[27.499636,43.369127],[27.498455,43.373762],[27.492079,43.376852],[27.485348,43.37668],[27.475783,43.371873],[27.468462,43.372045],[27.456418,43.375135],[27.443192,43.380285],[27.415679,43.390754],[27.409893,43.393672],[27.403044,43.399335],[27.398557,43.407142],[27.390409,43.414776],[27.382734,43.421552],[27.373996,43.427984],[27.36573,43.432443],[27.348136,43.445476],[27.341405,43.450105],[27.336445,43.452848],[27.328652,43.447962],[27.318143,43.439732],[27.302201,43.428499],[27.29429,43.419494],[27.279648,43.407399],[27.275987,43.403796],[27.272326,43.394959],[27.270791,43.388952],[27.270437,43.380113],[27.276223,43.365006],[27.279293,43.361658],[27.287559,43.358739],[27.301493,43.355648],[27.307058,43.351983],[27.31001,43.348763],[27.309272,43.343664],[27.301338,43.334539],[27.297463,43.328097],[27.293958,43.323265],[27.28874,43.317429],[27.284135,43.312961],[27.275751,43.311673],[27.263706,43.309181],[27.241374,43.306485],[27.238791,43.301114],[27.236392,43.293728],[27.236761,43.285805],[27.238422,43.277477],[27.243219,43.269954],[27.246909,43.265386],[27.255027,43.257862],[27.263145,43.257997],[27.273847,43.257593],[27.297279,43.252084],[27.306504,43.251009],[27.318128,43.251681],[27.325877,43.254368],[27.330121,43.257728],[27.333626,43.263102],[27.340268,43.263371],[27.345065,43.261624],[27.364807,43.241601],[27.376062,43.235015],[27.390823,43.229907],[27.409642,43.22668],[27.450787,43.224664],[27.489717,43.223588],[27.513777,43.222634],[27.513887,43.227218],[27.512596,43.230041],[27.508906,43.235418],[27.507983,43.241601],[27.509275,43.246574],[27.513149,43.253562],[27.517946,43.258937],[27.530124,43.271163],[27.536581,43.275462],[27.54267,43.280835],[27.542116,43.296817],[27.538426,43.302994],[27.5316,43.30917],[27.526249,43.315748],[27.519607,43.322326],[27.513149,43.329574],[27.509644,43.337089],[27.509083,43.343455]]]}},
{"type":"Feature","id":"BGR:ADM2:BG-03.valchi-dol","properties":{"shapeName":"Valchi Dol","shapeISO":"","shapeGroup":"BGR","shapeType":"ADM2","adm1ISO":"BG-03","parentISO":"BG-03","parentID":"BGR:ADM1:BG-03","src_shape_id":"11073933B13135122027765"},"geometry":{"type":"Polygon","coordinates":[[[27.46041,43.588495],[27.452078,43.58765],[27.442115,43.590055],[27.435657,43.592861],[27.428171,43.597058],[27.421635,43.590322],[27.417945,43.585244],[27.410934,43.579363],[27.401708,43.576022],[27.391007,43.573215],[27.3768,43.568536],[27.358719,43.562921],[27.341744,43.558375],[27.331597,43.555033],[27.318681,43.546742],[27.308165,43.539654],[27.303921,43.533769],[27.300969,43.52106],[27.299493,43.517448],[27.300548,43.513851],[27.304681,43.509484],[27.310231,43.507942],[27.324755,43.508884],[27.330777,43.507086],[27.335855,43.504002],[27.336918,43.501518],[27.336564,43.497321],[27.324755,43.484728],[27.315545,43.478302],[27.310467,43.474361],[27.310349,43.47119],[27.3146,43.46819],[27.32936,43.46502],[27.33491,43.459534],[27.336445,43.452848],[27.341405,43.450105],[27.348136,43.445476],[27.36573,43.432443],[27.373996,43.427984],[27.382734,43.421552],[27.390409,43.414776],[27.398557,43.407142],[27.403044,43.399335],[27.409893,43.393672],[27.415679,43.390754],[27.443192,43.380285],[27.456418,43.375135],[27.468462,43.372045],[27.475783,43.371873],[27.485348,43.37668],[27.492079,43.376852],[27.498455,43.373762],[27.499636,43.369127],[27.495976,43.363117],[27.494795,43.356335],[27.495857,43.349208],[27.504478,43.345859],[27.509083,43.343455],[27.514987,43.344915],[27.522898,43.351098],[27.532463,43.361744],[27.536242,43.367066],[27.551947,43.380971],[27.559386,43.384232],[27.574265,43.38818],[27.585837,43.390154],[27.604612,43.390583],[27.620671,43.390154],[27.630354,43.393586],[27.637439,43.397876],[27.643934,43.40045],[27.649759,43.401211],[27.649498,43.405624],[27.656694,43.41112],[27.664443,43.419563],[27.670901,43.425996],[27.677358,43.432963],[27.684739,43.442609],[27.692303,43.450646],[27.698576,43.459888],[27.701713,43.466316],[27.704102,43.476953],[27.69959,43.47758],[27.68759,43.482758],[27.670238,43.485464],[27.651103,43.483817],[27.640563,43.484993],[27.628563,43.49017],[27.62159,43.496523],[27.619482,43.502522],[27.628076,43.510049],[27.628563,43.515224],[27.624995,43.518869],[27.621559,43.526799],[27.609904,43.535984],[27.603063,43.539474],[27.600529,43.543331],[27.588367,43.541494],[27.582792,43.531208],[27.573924,43.522022],[27.56759,43.51651],[27.554667,43.511732],[27.539971,43.509343],[27.523755,43.510079],[27.507792,43.512467],[27.498924,43.515775],[27.493856,43.521471],[27.495377,43.52735],[27.497911,43.53929],[27.497657,43.552146],[27.497911,43.561878],[27.492336,43.571241],[27.487269,43.577115],[27.480174,43.582254],[27.470292,43.585558],[27.46041,43.588495]]]}},
{"type":"Feature","id":"BGR:ADM2:BG-03.suvorovo","properties":{"shapeName":"Suvorovo","shapeISO":"","shapeGroup":"BGR","shapeType":"ADM2","adm1ISO":"BG-03","parentISO":"BG-03","parentID":"BGR:ADM1:BG-03","src_shape_id":"11073933B58570042014583"},"geometry":{"type":"Polygon","coordinates":[[[27.649759,43.401211],[27.643934,43.40045],[27.637439,43.397876],[27.630354,43.393586],[27.620671,43.390154],[27.604612,43.390583],[27.585837,43.390154],[27.574265,43.38818],[27.559386,43.384232],[27.551947,43.380971],[27.536242,43.367066],[27.532463,43.361744],[27.522898,43.351098],[27.514987,43.344915],[27.509083,43.343455],[27.509644,43.337089],[27.513149,43.329574],[27.519607,43.322326],[27.526249,43.315748],[27.5316,43.30917],[27.538426,43.302994],[27.542116,43.296817],[27.54267,43.280835],[27.568086,43.279557],[27.583125,43.279612],[27.606175,43.280767],[27.61736,43.278457],[27.624388,43.274055],[27.628701,43.268267],[27.636022,43.260442],[27.64417,43.254508],[27.656805,43.251842],[27.660583,43.251329],[27.663771,43.250896],[27.675462,43.255196],[27.692111,43.266461],[27.700141,43.268955],[27.712422,43.269815],[27.724938,43.269127],[27.739345,43.267665],[27.746784,43.268353],[27.751979,43.270846],[27.754481,43.27291],[27.753559,43.281238],[27.75116,43.288894],[27.747101,43.294803],[27.739167,43.302994],[27.730865,43.309573],[27.719056,43.320312],[27.709278,43.331587],[27.705588,43.336418],[27.703005,43.345409],[27.708171,43.356813],[27.707433,43.362715],[27.703927,43.370226],[27.695809,43.376664],[27.686953,43.381492],[27.675144,43.385917],[27.667395,43.391012],[27.655402,43.39624],[27.649759,43.401211]]]}},
{"type":"Feature","id":"BGR:ADM2:BG-03.devnya","properties":{"shapeName":"Devnya","shapeISO":"","shapeGroup":"BGR","shapeType":"ADM2","adm1ISO":"BG-03","parentISO":"BG-03","parentID":"BGR:ADM1:BG-03","src_shape_id":"11073933B90109763237234"},"geometry":{"type":"Polygon","coordinates":[[[27.660583,43.251329],[27.656805,43.251842],[27.64417,43.254508],[27.636022,43.260442],[27.628701,43.268267],[27.624388,43.274055],[27.61736,43.278457],[27.606175,43.280767],[27.583125,43.279612],[27.568086,43.279557],[27.54267,43.280835],[27.536581,43.275462],[27.530124,43.271163],[27.517946,43.258937],[27.513149,43.253562],[27.509275,43.246574],[27.507983,43.241601],[27.508906,43.235418],[27.512596,43.230041],[27.513887,43.227218],[27.513777,43.222634],[27.528648,43.221571],[27.535843,43.217134],[27.540456,43.211756],[27.551157,43.204494],[27.562043,43.205839],[27.573482,43.206376],[27.585475,43.206108],[27.596914,43.20288],[27.611859,43.200862],[27.620641,43.20066],[27.629387,43.200459],[27.643779,43.202611],[27.66389,43.204359],[27.675698,43.20799],[27.685846,43.215655],[27.68603,43.219958],[27.674753,43.229304],[27.669085,43.233348],[27.663417,43.238682],[27.661646,43.243757],[27.660583,43.251329]]]}},
{"type":"Feature","id":"BGR:ADM2:BG-03.beloslav","properties":{"shapeName":"Beloslav","shapeISO":"","shapeGroup":"BGR","shapeType":"ADM2","adm1ISO":"BG-03","parentISO":"BG-03","parentID":"BGR:ADM1:BG-03","src_shape_id":"11073933B59808423925546"},"geometry":{"type":"Polygon","coordinates":[[[27.68603,43.219958],[27.685846,43.215655],[27.675698,43.20799],[27.66389,43.204359],[27.643779,43.202611],[27.629387,43.200459],[27.620641,43.20066],[27.620715,43.184048],[27.618686,43.172881],[27.616841,43.159962],[27.618132,43.15404],[27.627542,43.153636],[27.636583,43.155251],[27.642118,43.161981],[27.646177,43.168709],[27.652819,43.173554],[27.664628,43.173957],[27.673484,43.170055],[27.690089,43.160231],[27.703558,43.153636],[27.71389,43.151348],[27.722193,43.151482],[27.734001,43.154578],[27.74212,43.154309],[27.754297,43.151482],[27.763707,43.147982],[27.774039,43.146367],[27.784925,43.142059],[27.793965,43.13802],[27.802453,43.137213],[27.806293,43.141613],[27.806004,43.152551],[27.803986,43.160542],[27.802833,43.170425],[27.804275,43.180306],[27.807157,43.188294],[27.807734,43.1946],[27.803698,43.201325],[27.797356,43.205738],[27.791878,43.208469],[27.785536,43.213512],[27.773428,43.224227],[27.761862,43.224932],[27.741197,43.224932],[27.724592,43.22305],[27.703005,43.221706],[27.68603,43.219958]]]}},
{"type":"Feature","id":"BGR:ADM2:BG-03.avren","properties":{"shapeName":"Avren","shapeISO":"","shapeGroup":"BGR","shapeType":"ADM2","adm1ISO":"BG-03","parentISO":"BG-03","parentID":"BGR:ADM1:BG-03","src_shape_id":"11073933B89730607795710"},"geometry":{"type":"Polygon","coordinates":[[[27.806293,43.141613],[27.802453,43.137213],[27.793965,43.13802],[27.784925,43.142059],[27.774039,43.146367],[27.763707,43.147982],[27.754297,43.151482],[27.74212,43.154309],[27.734001,43.154578],[27.722193,43.151482],[27.71389,43.151348],[27.703558,43.153636],[27.690089,43.160231],[27.673484,43.170055],[27.664628,43.173957],[27.652819,43.173554],[27.646177,43.168709],[27.642118,43.161981],[27.636583,43.155251],[27.627542,43.153636],[27.618132,43.15404],[27.616841,43.159962],[27.618686,43.172881],[27.620715,43.184048],[27.620641,43.20066],[27.611859,43.200862],[27.596914,43.20288],[27.585475,43.206108],[27.573482,43.206376],[27.562043,43.205839],[27.551157,43.204494],[27.550419,43.194944],[27.549312,43.187546],[27.546176,43.180146],[27.541747,43.174495],[27.536581,43.16992],[27.53326,43.164672],[27.534552,43.156463],[27.542301,43.149329],[27.549866,43.143675],[27.557615,43.138694],[27.56315,43.132904],[27.564257,43.127383],[27.560936,43.12267],[27.547283,43.116206],[27.537504,43.114455],[27.52957,43.110279],[27.52422,43.105969],[27.525327,43.100176],[27.528832,43.095192],[27.537873,43.085895],[27.540087,43.080504],[27.537688,43.07417],[27.532522,43.070262],[27.530413,43.068051],[27.528279,43.065814],[27.526803,43.059208],[27.529386,43.053681],[27.537688,43.05085],[27.552449,43.051254],[27.562412,43.048827],[27.57053,43.039658],[27.575696,43.035882],[27.582892,43.032915],[27.589534,43.032645],[27.592302,43.035747],[27.592486,43.04195],[27.595254,43.0464],[27.601527,43.047883],[27.612966,43.045322],[27.622376,43.045861],[27.631048,43.049232],[27.633262,43.055029],[27.634184,43.063792],[27.641564,43.076057],[27.646546,43.081313],[27.652635,43.084143],[27.660015,43.082391],[27.670901,43.076327],[27.677174,43.070531],[27.686953,43.062444],[27.695255,43.054355],[27.69913,43.046805],[27.698945,43.035882],[27.699499,43.027655],[27.7102,43.02172],[27.730311,43.021046],[27.748393,43.024013],[27.772378,43.025227],[27.798209,43.026981],[27.81463,43.026037],[27.828468,43.02226],[27.839722,43.017808],[27.845996,43.017404],[27.857988,43.021181],[27.866845,43.024958],[27.885105,43.024752],[27.888567,43.033534],[27.894745,43.043592],[27.904293,43.054879],[27.914402,43.07601],[27.917211,43.090368],[27.922382,43.104032],[27.907482,43.106264],[27.886437,43.108579],[27.872887,43.111525],[27.857031,43.115734],[27.837139,43.116997],[27.83022,43.120364],[27.830797,43.126256],[27.830509,43.13404],[27.827338,43.139299],[27.818401,43.140562],[27.806293,43.141613]]]}},
{"type":"Feature","id":"BGR:ADM2:BG-03.provadiya","properties":{"shapeName":"Provadiya","shapeISO":"","shapeGroup":"BGR","shapeType":"ADM2","adm1ISO":"BG-03","parentISO":"BG-03","parentID":"BGR:ADM1:BG-03","src_shape_id":"11073933B79104161261823"},"geometry":{"type":"Polygon","coordinates":[[[27.255027,43.257862],[27.254474,43.247112],[27.256688,43.235821],[27.258902,43.229638],[27.274769,43.216327],[27.283625,43.210949],[27.287677,43.205123],[27.285197,43.201164],[27.278585,43.199614],[27.269374,43.198667],[27.262407,43.195654],[27.252488,43.190661],[27.245571,43.186613],[27.236058,43.182198],[27.226833,43.175681],[27.214148,43.168953],[27.209068,43.166869],[27.204923,43.165168],[27.202328,43.160963],[27.194256,43.156967],[27.18676,43.149194],[27.17569,43.136809],[27.170709,43.132096],[27.16831,43.126845],[27.159454,43.117148],[27.15355,43.111357],[27.158849,43.104164],[27.162509,43.096059],[27.165343,43.092179],[27.173609,43.087005],[27.198052,43.084676],[27.206028,43.084588],[27.222001,43.084412],[27.22975,43.08576],[27.23713,43.089128],[27.245064,43.089802],[27.25595,43.08576],[27.278275,43.082121],[27.304659,43.0801],[27.317759,43.079561],[27.326246,43.081987],[27.331228,43.087242],[27.340822,43.092632],[27.352077,43.09829],[27.363516,43.102197],[27.374771,43.105699],[27.391561,43.105834],[27.403369,43.101523],[27.409089,43.093979],[27.409089,43.08293],[27.406506,43.076057],[27.409458,43.067027],[27.417576,43.062578],[27.431967,43.064061],[27.445621,43.067296],[27.460012,43.069453],[27.469203,43.067317],[27.472189,43.066622],[27.479385,43.066488],[27.487319,43.06824],[27.503739,43.071205],[27.513149,43.073496],[27.525327,43.072283],[27.530413,43.068051],[27.532522,43.070262],[27.537688,43.07417],[27.540087,43.080504],[27.537873,43.085895],[27.528832,43.095192],[27.525327,43.100176],[27.52422,43.105969],[27.52957,43.110279],[27.537504,43.114455],[27.547283,43.116206],[27.560936,43.12267],[27.564257,43.127383],[27.56315,43.132904],[27.557615,43.138694],[27.549866,43.143675],[27.542301,43.149329],[27.534552,43.156463],[27.53326,43.164672],[27.536581,43.16992],[27.541747,43.174495],[27.546176,43.180146],[27.549312,43.187546],[27.550419,43.194944],[27.551157,43.204494],[27.540456,43.211756],[27.535843,43.217134],[27.528648,43.221571],[27.513777,43.222634],[27.489717,43.223588],[27.450787,43.224664],[27.409642,43.22668],[27.390823,43.229907],[27.376062,43.235015],[27.364807,43.241601],[27.345065,43.261624],[27.340268,43.263371],[27.333626,43.263102],[27.330121,43.257728],[27.325877,43.254368],[27.318128,43.251681],[27.306504,43.251009],[27.297279,43.252084],[27.273847,43.257593],[27.263145,43.257997],[27.255027,43.257862]]]}},
{"type":"Feature","id":"BGR:ADM2:BG-03.dalgopol","properties":{"shapeName":"Dalgopol","shapeISO":"","shapeGroup":"BGR","shapeType":"ADM2","adm1ISO":"BG-03","parentISO":"BG-03","parentID":"BGR:ADM1:BG-03","src_shape_id":"11073933B78875601583744"},"geometry":{"type":"Polygon","coordinates":[[[27.206028,43.084588],[27.20761,43.075248],[27.210931,43.06514],[27.217942,43.059208],[27.217388,43.049636],[27.211669,43.044243],[27.204104,43.043164],[27.191004,43.038984],[27.171631,43.035747],[27.150229,43.032645],[27.135468,43.028464],[27.125874,43.024148],[27.11628,43.019022],[27.103549,43.016999],[27.081593,43.016055],[27.072368,43.013356],[27.070338,43.009039],[27.080117,42.99838],[27.079733,42.991379],[27.077726,42.984468],[27.080442,42.977385],[27.085755,42.974188],[27.101224,42.973238],[27.113977,42.9703],[27.117165,42.964943],[27.117047,42.957684],[27.115512,42.944979],[27.113977,42.93936],[27.115112,42.935938],[27.122184,42.93587],[27.130302,42.93533],[27.146169,42.938301],[27.156133,42.945055],[27.165911,42.952212],[27.174399,42.956128],[27.192849,42.961935],[27.222739,42.965445],[27.239713,42.965985],[27.260931,42.962205],[27.282518,42.959099],[27.314438,42.952753],[27.333811,42.945055],[27.344512,42.939247],[27.361855,42.928981],[27.375509,42.92182],[27.389347,42.915335],[27.397269,42.913628],[27.398756,42.913308],[27.415731,42.913578],[27.440639,42.916686],[27.458905,42.918172],[27.482833,42.92182],[27.488599,42.924987],[27.48831,42.93343],[27.486292,42.940606],[27.483409,42.960652],[27.482833,42.972465],[27.480238,42.982379],[27.476779,42.988284],[27.471013,42.992923],[27.462076,42.995664],[27.459481,42.998827],[27.461211,43.003465],[27.474403,43.016459],[27.478831,43.02226],[27.479754,43.031566],[27.47385,43.040602],[27.467577,43.048423],[27.467208,43.057321],[27.469203,43.067317],[27.460012,43.069453],[27.445621,43.067296],[27.431967,43.064061],[27.417576,43.062578],[27.409458,43.067027],[27.406506,43.076057],[27.409089,43.08293],[27.409089,43.093979],[27.403369,43.101523],[27.391561,43.105834],[27.374771,43.105699],[27.363516,43.102197],[27.352077,43.09829],[27.340822,43.092632],[27.331228,43.087242],[27.326246,43.081987],[27.317759,43.079561],[27.304659,43.0801],[27.278275,43.082121],[27.25595,43.08576],[27.245064,43.089802],[27.23713,43.089128],[27.22975,43.08576],[27.222001,43.084412],[27.206028,43.084588]]]}},
{"type":"Feature","id":"BGR:ADM2:BG-03.dolni-chiflik","properties":{"shapeName":"Dolni Chiflik","shapeISO":"","shapeGroup":"BGR","shapeType":"ADM2","adm1ISO":"BG-03","parentISO":"BG-03","parentID":"BGR:ADM1:BG-03","src_shape_id":"11073933B45347317573334"},"geometry":{"type":"Polygon","coordinates":[[[27.530413,43.068051],[27.525327,43.072283],[27.513149,43.073496],[27.503739,43.071205],[27.487319,43.06824],[27.479385,43.066488],[27.472189,43.066622],[27.469203,43.067317],[27.467208,43.057321],[27.467577,43.048423],[27.47385,43.040602],[27.479754,43.031566],[27.478831,43.02226],[27.474403,43.016459],[27.461211,43.003465],[27.459481,42.998827],[27.462076,42.995664],[27.471013,42.992923],[27.476779,42.988284],[27.480238,42.982379],[27.482833,42.972465],[27.483409,42.960652],[27.486292,42.940606],[27.48831,42.93343],[27.488599,42.924987],[27.482833,42.92182],[27.458905,42.918172],[27.440639,42.916686],[27.415731,42.913578],[27.398756,42.913308],[27.397269,42.913628],[27.398572,42.909119],[27.40503,42.902361],[27.412225,42.89736],[27.426248,42.892224],[27.438056,42.888304],[27.447466,42.883978],[27.458539,42.882738],[27.46075,42.882491],[27.476248,42.882356],[27.490271,42.885059],[27.499865,42.885465],[27.514441,42.88168],[27.527541,42.881139],[27.543408,42.884113],[27.566102,42.890737],[27.585475,42.895333],[27.611121,42.894522],[27.626251,42.891954],[27.636187,42.889565],[27.638059,42.889115],[27.655956,42.887087],[27.680126,42.885871],[27.698576,42.88533],[27.700606,42.892224],[27.703189,42.898442],[27.710016,42.903848],[27.72533,42.907227],[27.736215,42.908443],[27.761123,42.920064],[27.768319,42.925333],[27.78105,42.929926],[27.794888,42.93533],[27.811309,42.939652],[27.83142,42.946675],[27.845996,42.955048],[27.854667,42.954913],[27.866291,42.952618],[27.882159,42.953023],[27.893574,42.954755],[27.890532,42.96843],[27.884635,42.999861],[27.883793,43.021422],[27.885105,43.024752],[27.866845,43.024958],[27.857988,43.021181],[27.845996,43.017404],[27.839722,43.017808],[27.828468,43.02226],[27.81463,43.026037],[27.798209,43.026981],[27.772378,43.025227],[27.748393,43.024013],[27.730311,43.021046],[27.7102,43.02172],[27.699499,43.027655],[27.698945,43.035882],[27.69913,43.046805],[27.695255,43.054355],[27.686953,43.062444],[27.677174,43.070531],[27.670901,43.076327],[27.660015,43.082391],[27.652635,43.084143],[27.646546,43.081313],[27.641564,43.076057],[27.634184,43.063792],[27.633262,43.055029],[27.631048,43.049232],[27.622376,43.045861],[27.612966,43.045322],[27.601527,43.047883],[27.595254,43.0464],[27.592486,43.04195],[27.592302,43.035747],[27.589534,43.032645],[27.582892,43.032915],[27.575696,43.035882],[27.57053,43.039658],[27.562412,43.048827],[27.552449,43.051254],[27.537688,43.05085],[27.529386,43.053681],[27.526803,43.059208],[27.528279,43.065814],[27.530413,43.068051]]]}},
{"type":"Feature","id":"BGR:ADM2:BG-03.byala","properties":{"shapeName":"Byala","shapeISO":"","shapeGroup":"BGR","shapeType":"ADM2","adm1ISO":"BG-03","parentISO":"BG-03","parentID":"BGR:ADM1:BG-03","src_shape_id":"11073933B92397622596619"},"geometry":{"type":"Polygon","coordinates":[[[27.698576,42.88533],[27.699626,42.873035],[27.700202,42.863104],[27.705103,42.854651],[27.719229,42.850213],[27.732779,42.846408],[27.751518,42.841758],[27.765067,42.834782],[27.774869,42.828017],[27.790437,42.825056],[27.806004,42.825056],[27.823013,42.827594],[27.837716,42.831188],[27.850977,42.833725],[27.873449,42.834832],[27.873402,42.836366],[27.878457,42.843367],[27.887163,42.849749],[27.896711,42.85572],[27.892779,42.862101],[27.893341,42.871363],[27.893902,42.886592],[27.895306,42.910044],[27.896149,42.927319],[27.89643,42.941916],[27.893574,42.954755],[27.882159,42.953023],[27.866291,42.952618],[27.854667,42.954913],[27.845996,42.955048],[27.83142,42.946675],[27.811309,42.939652],[27.794888,42.93533],[27.78105,42.929926],[27.768319,42.925333],[27.761123,42.920064],[27.736215,42.908443],[27.72533,42.907227],[27.710016,42.903848],[27.703189,42.898442],[27.700606,42.892224],[27.698576,42.88533]]]}}
]}