{"type":"FeatureCollection","bbox":[27.208717,43.311657,28.609721,44.012729],"features":[
{"type":"Feature","id":"BGR:ADM2:BG-08.kavarna","properties":{"shapeName":"Kavarna","shapeISO":"","shapeGroup":"BGR","shapeType":"ADM2","adm1ISO":"BG-08","parentISO":"BG-08","parentID":"BGR:ADM1:BG-08","src_shape_id":"11073933B69713463902339"},"geometry":{"type":"Polygon","coordinates":[[[28.583255,43.485155],[28.551422,43.485958],[28.523924,43.480612],[28.512421,43.482307],[28.49984,43.486349],[28.486361,43.490131],[28.478812,43.500561],[28.473241,43.506688],[28.463895,43.51112],[28.444664,43.513857],[28.422198,43.515682],[28.409618,43.520895],[28.409078,43.525717],[28.413032,43.533926],[28.419682,43.539789],[28.427231,43.54487],[28.433342,43.54956],[28.4346,43.553988],[28.434959,43.559068],[28.433701,43.564278],[28.428489,43.569096],[28.423457,43.575086],[28.422917,43.580164],[28.425254,43.58485],[28.430825,43.592661],[28.435319,43.598258],[28.442687,43.603334],[28.450775,43.604766],[28.455088,43.607889],[28.452572,43.624804],[28.452932,43.639244],[28.452299,43.651391],[28.446893,43.662875],[28.438381,43.671112],[28.427799,43.676437],[28.417677,43.675355],[28.402608,43.672776],[28.391558,43.673433],[28.36372,43.666974],[28.351364,43.662911],[28.339569,43.662302],[28.325809,43.661286],[28.324405,43.648283],[28.321596,43.637309],[28.312891,43.632837],[28.304185,43.632431],[28.288459,43.63365],[28.278911,43.635886],[28.273856,43.639951],[28.267117,43.639951],[28.261781,43.624707],[28.256726,43.617591],[28.249144,43.608849],[28.247459,43.603155],[28.249986,43.597054],[28.25448,43.59258],[28.260377,43.585664],[28.262062,43.579358],[28.260377,43.572848],[28.256726,43.567151],[28.245774,43.563284],[28.235945,43.563284],[28.235103,43.547003],[28.239034,43.538657],[28.243527,43.532957],[28.25139,43.523998],[28.260658,43.517279],[28.276945,43.503226],[28.291829,43.494874],[28.295199,43.489373],[28.294918,43.483464],[28.290425,43.476536],[28.282281,43.470422],[28.273014,43.464919],[28.263747,43.458193],[28.257849,43.450039],[28.250829,43.438009],[28.246897,43.42455],[28.24622,43.407692],[28.255603,43.410067],[28.274137,43.415371],[28.290987,43.418023],[28.312329,43.417411],[28.337884,43.412311],[28.363439,43.408231],[28.383658,43.402518],[28.407528,43.39252],[28.440104,43.381295],[28.469309,43.376805],[28.473241,43.381908],[28.48307,43.39252],[28.500481,43.404558],[28.531371,43.424142],[28.550467,43.438213],[28.564508,43.449223],[28.574056,43.46227],[28.583255,43.485155]]]}},
{"type":"Feature","id":"BGR:ADM2:BG-08.shabla","properties":{"shapeName":"Shabla","shapeISO":"","shapeGroup":"BGR","shapeType":"ADM2","adm1ISO":"BG-08","parentISO":"BG-08","parentID":"BGR:ADM1:BG-08","src_shape_id":"11073933B39113223594870"},"geometry":{"type":"Polygon","coordinates":[[[28.583255,43.485155],[28.583885,43.486724],[28.592029,43.497726],[28.605228,43.511984],[28.609721,43.531939],[28.609159,43.543746],[28.60579,43.558808],[28.59905,43.57122],[28.592029,43.579561],[28.584728,43.586885],[28.577426,43.599291],[28.580796,43.653159],[28.573776,43.664536],[28.567036,43.674084],[28.567598,43.684238],[28.572933,43.695204],[28.580235,43.70231],[28.58557,43.708197],[28.585289,43.714287],[28.581077,43.722811],[28.582481,43.73032],[28.57855,43.737827],[28.567036,43.742494],[28.554399,43.744726],[28.528844,43.744928],[28.509186,43.744117],[28.494864,43.740262],[28.479138,43.738233],[28.458357,43.736407],[28.451611,43.737788],[28.449933,43.728088],[28.437857,43.720579],[28.43533,43.712866],[28.431398,43.702716],[28.423816,43.694392],[28.414268,43.687894],[28.401631,43.680177],[28.395172,43.674287],[28.391558,43.673433],[28.402608,43.672776],[28.417677,43.675355],[28.427799,43.676437],[28.438381,43.671112],[28.446893,43.662875],[28.452299,43.651391],[28.452932,43.639244],[28.452572,43.624804],[28.455088,43.607889],[28.450775,43.604766],[28.442687,43.603334],[28.435319,43.598258],[28.430825,43.592661],[28.425254,43.58485],[28.422917,43.580164],[28.423457,43.575086],[28.428489,43.569096],[28.433701,43.564278],[28.434959,43.559068],[28.4346,43.553988],[28.433342,43.54956],[28.427231,43.54487],[28.419682,43.539789],[28.413032,43.533926],[28.409078,43.525717],[28.409618,43.520895],[28.422198,43.515682],[28.444664,43.513857],[28.463895,43.51112],[28.473241,43.506688],[28.478812,43.500561],[28.486361,43.490131],[28.49984,43.486349],[28.512421,43.482307],[28.523924,43.480612],[28.551422,43.485958],[28.583255,43.485155]]]}},
{"type":"Feature","id":"BGR:ADM2:BG-08.general-toshevo","properties":{"shapeName":"General Toshevo","shapeISO":"","shapeGroup":"BGR","shapeType":"ADM2","adm1ISO":"BG-08","parentISO":"BG-08","parentID":"BGR:ADM1:BG-08","src_shape_id":"11073933B10081187632075"},"geometry":{"type":"Polygon","coordinates":[[[28.391558,43.673433],[28.395172,43.674287],[28.401631,43.680177],[28.414268,43.687894],[28.423816,43.694392],[28.431398,43.702716],[28.43533,43.712866],[28.437857,43.720579],[28.449933,43.728088],[28.451611,43.737788],[28.441508,43.739856],[28.429713,43.743305],[28.402193,43.749392],[28.340131,43.758722],[28.258411,43.766226],[28.236507,43.768052],[28.212918,43.773121],[28.192418,43.778799],[28.167143,43.787922],[28.135972,43.798058],[28.105643,43.811029],[28.065766,43.828454],[28.025608,43.845064],[28.010163,43.851545],[27.998649,43.858835],[27.989382,43.875032],[27.978149,43.899521],[27.972533,43.912268],[27.964389,43.931484],[27.957368,43.95696],[27.948101,43.980406],[27.943608,43.993135],[27.936307,44.002226],[27.92732,44.010911],[27.920861,44.012729],[27.907944,44.011517],[27.892779,44.003034],[27.878176,43.994145],[27.866943,43.985659],[27.84869,43.976364],[27.83387,43.9743],[27.837906,43.960559],[27.843118,43.954996],[27.867561,43.935456],[27.883018,43.921735],[27.888589,43.915262],[27.895419,43.908011],[27.897576,43.90063],[27.895778,43.89001],[27.890566,43.880036],[27.883557,43.869282],[27.877806,43.859694],[27.865944,43.852825],[27.856059,43.846085],[27.847072,43.84103],[27.839524,43.833251],[27.834851,43.825472],[27.832155,43.816913],[27.831616,43.801998],[27.840782,43.799533],[27.849948,43.793825],[27.857676,43.785522],[27.865404,43.778255],[27.872953,43.76982],[27.876547,43.762681],[27.890386,43.729833],[27.891645,43.718922],[27.897216,43.710089],[27.906202,43.703853],[27.920221,43.697096],[27.936037,43.690988],[27.955807,43.68449],[27.966411,43.680071],[27.970185,43.674092],[27.970185,43.663171],[27.975038,43.65784],[27.985103,43.652379],[27.999301,43.646137],[28.014218,43.644576],[28.0206,43.645928],[28.029675,43.648998],[28.044233,43.649908],[28.058791,43.649258],[28.071371,43.644186],[28.083593,43.634821],[28.08557,43.623633],[28.088985,43.616607],[28.095994,43.60919],[28.113248,43.605286],[28.127087,43.603204],[28.141824,43.597217],[28.153147,43.588365],[28.161774,43.580424],[28.168963,43.574304],[28.180645,43.572091],[28.193586,43.5717],[28.199876,43.573914],[28.20365,43.577169],[28.207245,43.579122],[28.213535,43.57795],[28.218388,43.572091],[28.229891,43.565059],[28.235945,43.563284],[28.245774,43.563284],[28.256726,43.567151],[28.260377,43.572848],[28.262062,43.579358],[28.260377,43.585664],[28.25448,43.59258],[28.249986,43.597054],[28.247459,43.603155],[28.249144,43.608849],[28.256726,43.617591],[28.261781,43.624707],[28.267117,43.639951],[28.273856,43.639951],[28.278911,43.635886],[28.288459,43.63365],[28.304185,43.632431],[28.312891,43.632837],[28.321596,43.637309],[28.324405,43.648283],[28.325809,43.661286],[28.339569,43.662302],[28.351364,43.662911],[28.36372,43.666974],[28.391558,43.673433]]]}},
{"type":"Feature","id":"BGR:ADM2:BG-08.balchik","properties":{"shapeName":"Balchik","shapeISO":"","shapeGroup":"BGR","shapeType":"ADM2","adm1ISO":"BG-08","parentISO":"BG-08","parentID":"BGR:ADM1:BG-08","src_shape_id":"11073933B15769898773158"},"geometry":{"type":"Polygon","coordinates":[[[28.235945,43.563284],[28.229891,43.565059],[28.218388,43.572091],[28.213535,43.57795],[28.207245,43.579122],[28.20365,43.577169],[28.199876,43.573914],[28.193586,43.5717],[28.180645,43.572091],[28.168963,43.574304],[28.161774,43.580424],[28.153147,43.588365],[28.141824,43.597217],[28.127087,43.603204],[28.113248,43.605286],[28.095994,43.60919],[28.088985,43.616607],[28.08557,43.623633],[28.083593,43.634821],[28.071371,43.644186],[28.058791,43.649258],[28.044233,43.649908],[28.029675,43.648998],[28.0206,43.645928],[28.023564,43.641455],[28.029855,43.635081],[28.033809,43.628577],[28.035426,43.6196],[28.034887,43.615827],[28.029136,43.60919],[28.017993,43.602423],[28.011343,43.593572],[28.004154,43.583158],[28.001637,43.576518],[28.000379,43.570007],[27.995527,43.563366],[27.982586,43.557505],[27.970365,43.549299],[27.964074,43.54474],[27.955807,43.534187],[27.953471,43.523762],[27.95401,43.513336],[27.962097,43.504472],[27.968208,43.492999],[27.978453,43.483872],[27.988158,43.474091],[27.996066,43.467569],[28.0002,43.461438],[27.99966,43.452567],[28.004872,43.430382],[28.003255,43.41746],[28.001637,43.409887],[27.991213,43.400878],[27.998043,43.395654],[28.007389,43.387165],[28.013859,43.379589],[28.020149,43.371359],[28.024463,43.364826],[28.03255,43.354111],[28.040818,43.32823],[28.04458,43.322351],[28.045491,43.317508],[28.050883,43.311657],[28.060431,43.323507],[28.065766,43.337602],[28.072506,43.356594],[28.081773,43.366802],[28.093006,43.375784],[28.114349,43.389051],[28.131198,43.398233],[28.148609,43.402518],[28.169109,43.40007],[28.199157,43.397621],[28.219657,43.399662],[28.23061,43.403742],[28.24622,43.407692],[28.246897,43.42455],[28.250829,43.438009],[28.257849,43.450039],[28.263747,43.458193],[28.273014,43.464919],[28.282281,43.470422],[28.290425,43.476536],[28.294918,43.483464],[28.295199,43.489373],[28.291829,43.494874],[28.276945,43.503226],[28.260658,43.517279],[28.25139,43.523998],[28.243527,43.532957],[28.239034,43.538657],[28.235103,43.547003],[28.235945,43.563284]]]}},
{"type":"Feature","id":"BGR:ADM2:BG-08.dobrichka","properties":{"shapeName":"Dobrichka","shapeISO":"","shapeGroup":"BGR","shapeType":"ADM2","adm1ISO":"BG-08","parentISO":"BG-08","parentID":"BGR:ADM1:BG-08","src_shape_id":"11073933B69228014534523"},"geometry":{"type":"Polygon","coordinates":[[[27.831616,43.801998],[27.826887,43.797269],[27.822671,43.792001],[27.817968,43.78767],[27.810671,43.782519],[27.801428,43.778187],[27.783752,43.77444],[27.767211,43.773737],[27.759428,43.772684],[27.749049,43.757576],[27.744509,43.752774],[27.737049,43.747854],[27.727319,43.74516],[27.717914,43.745746],[27.708671,43.751486],[27.70186,43.770693],[27.693265,43.788724],[27.68613,43.802184],[27.680292,43.809908],[27.670887,43.815993],[27.652887,43.823482],[27.64186,43.834478],[27.634238,43.839742],[27.629211,43.840911],[27.622725,43.838572],[27.618671,43.835648],[27.610076,43.832958],[27.608736,43.831411],[27.606833,43.829214],[27.607482,43.824067],[27.609752,43.818685],[27.609265,43.812483],[27.602455,43.807217],[27.591265,43.803472],[27.573752,43.803121],[27.566292,43.807217],[27.559157,43.813419],[27.550725,43.818217],[27.544563,43.817749],[27.540346,43.813302],[27.532563,43.799727],[27.528509,43.786616],[27.519914,43.771864],[27.511157,43.76191],[27.505319,43.752891],[27.499968,43.736021],[27.496887,43.7161],[27.490816,43.690998],[27.482961,43.678355],[27.474346,43.666076],[27.467758,43.64646],[27.463958,43.631791],[27.462184,43.620053],[27.460664,43.604643],[27.46041,43.588495],[27.470292,43.585558],[27.480174,43.582254],[27.487269,43.577115],[27.492336,43.571241],[27.497911,43.561878],[27.497657,43.552146],[27.497911,43.53929],[27.495377,43.52735],[27.493856,43.521471],[27.498924,43.515775],[27.507792,43.512467],[27.523755,43.510079],[27.539971,43.509343],[27.554667,43.511732],[27.56759,43.51651],[27.573924,43.522022],[27.582792,43.531208],[27.588367,43.541494],[27.600529,43.543331],[27.603063,43.539474],[27.609904,43.535984],[27.621559,43.526799],[27.624995,43.518869],[27.628563,43.515224],[27.628076,43.510049],[27.619482,43.502522],[27.62159,43.496523],[27.628563,43.49017],[27.640563,43.484993],[27.651103,43.483817],[27.670238,43.485464],[27.68759,43.482758],[27.69959,43.47758],[27.704102,43.476953],[27.707211,43.476521],[27.71986,43.475815],[27.727806,43.473226],[27.734617,43.466283],[27.736725,43.461457],[27.739482,43.45204],[27.740617,43.445801],[27.744509,43.440267],[27.755374,43.435675],[27.766563,43.429551],[27.774833,43.423191],[27.782293,43.418716],[27.794455,43.416124],[27.804184,43.412944],[27.811968,43.404108],[27.818455,43.397746],[27.825914,43.389498],[27.831103,43.382427],[27.840509,43.37559],[27.851211,43.365689],[27.858022,43.36227],[27.863374,43.361209],[27.876022,43.363802],[27.895806,43.37948],[27.915103,43.388908],[27.930347,43.395154],[27.953049,43.400456],[27.991213,43.400878],[28.001637,43.409887],[28.003255,43.41746],[28.004872,43.430382],[27.99966,43.452567],[28.0002,43.461438],[27.996066,43.467569],[27.988158,43.474091],[27.978453,43.483872],[27.968208,43.492999],[27.962097,43.504472],[27.95401,43.513336],[27.953471,43.523762],[27.955807,43.534187],[27.964074,43.54474],[27.970365,43.549299],[27.982586,43.557505],[27.995527,43.563366],[28.000379,43.570007],[28.001637,43.576518],[28.004154,43.583158],[28.011343,43.593572],[28.017993,43.602423],[28.029136,43.60919],[28.034887,43.615827],[28.035426,43.6196],[28.033809,43.628577],[28.029855,43.635081],[28.023564,43.641455],[28.0206,43.645928],[28.014218,43.644576],[27.999301,43.646137],[27.985103,43.652379],[27.975038,43.65784],[27.970185,43.663171],[27.970185,43.674092],[27.966411,43.680071],[27.955807,43.68449],[27.936037,43.690988],[27.920221,43.697096],[27.906202,43.703853],[27.897216,43.710089],[27.891645,43.718922],[27.890386,43.729833],[27.876547,43.762681],[27.872953,43.76982],[27.865404,43.778255],[27.857676,43.785522],[27.849948,43.793825],[27.840782,43.799533],[27.831616,43.801998]],[[27.875191,43.614183],[27.873671,43.597487],[27.86911,43.585191],[27.861255,43.573811],[27.856441,43.564999],[27.846053,43.551778],[27.835157,43.539474],[27.83009,43.528452],[27.825782,43.521103],[27.818941,43.519266],[27.809059,43.520368],[27.797657,43.522389],[27.788029,43.525696],[27.772066,43.531575],[27.75813,43.533963],[27.73786,43.534147],[27.724431,43.538739],[27.721897,43.5448],[27.717083,43.552146],[27.707961,43.5549],[27.699093,43.557104],[27.693519,43.563163],[27.695292,43.579868],[27.697826,43.587393],[27.703401,43.589963],[27.712269,43.591981],[27.720884,43.596753],[27.726965,43.60134],[27.732286,43.606661],[27.740394,43.612165],[27.75357,43.610697],[27.77384,43.608129],[27.786509,43.611981],[27.788029,43.616567],[27.79107,43.62097],[27.800951,43.626472],[27.815647,43.627389],[27.845293,43.626105],[27.863282,43.625188],[27.87063,43.621703],[27.875191,43.614183]]]}},
{"type":"Feature","id":"BGR:ADM2:BG-08.dobrich","properties":{"shapeName":"Dobrich","shapeISO":"","shapeGroup":"BGR","shapeType":"ADM2","adm1ISO":"BG-08","parentISO":"BG-08","parentID":"BGR:ADM1:BG-08","src_shape_id":"11073933B27735752337332"},"geometry":{"type":"Polygon","coordinates":[[[27.875191,43.614183],[27.87063,43.621703],[27.863282,43.625188],[27.845293,43.626105],[27.815647,43.627389],[27.800951,43.626472],[27.79107,43.62097],[27.788029,43.616567],[27.786509,43.611981],[27.77384,43.608129],[27.75357,43.610697],[27.740394,43.612165],[27.732286,43.606661],[27.726965,43.60134],[27.720884,43.596753],[27.712269,43.591981],[27.703401,43.589963],[27.697826,43.587393],[27.695292,43.579868],[27.693519,43.563163],[27.699093,43.557104],[27.707961,43.5549],[27.717083,43.552146],[27.721897,43.5448],[27.724431,43.538739],[27.73786,43.534147],[27.75813,43.533963],[27.772066,43.531575],[27.788029,43.525696],[27.797657,43.522389],[27.809059,43.520368],[27.818941,43.519266],[27.825782,43.521103],[27.83009,43.528452],[27.835157,43.539474],[27.846053,43.551778],[27.856441,43.564999],[27.861255,43.573811],[27.86911,43.585191],[27.873671,43.597487],[27.875191,43.614183]]]}},
{"type":"Feature","id":"BGR:ADM2:BG-08.krushari","properties":{"shapeName":"Krushari","shapeISO":"","shapeGroup":"BGR","shapeType":"ADM2","adm1ISO":"BG-08","parentISO":"BG-08","parentID":"BGR:ADM1:BG-08","src_shape_id":"11073933B21836306016820"},"geometry":{"type":"Polygon","coordinates":[[[27.83387,43.9743],[27.831279,43.973939],[27.810498,43.973535],[27.793368,43.970099],[27.768093,43.968078],[27.750402,43.96545],[27.73608,43.965855],[27.722038,43.968886],[27.713333,43.971312],[27.703785,43.976162],[27.699853,43.982022],[27.696523,43.989011],[27.682563,43.988218],[27.672995,43.985885],[27.664563,43.982268],[27.646725,43.971298],[27.638779,43.95916],[27.629049,43.947486],[27.620455,43.938378],[27.617698,43.92997],[27.62159,43.925415],[27.626455,43.920977],[27.626617,43.916421],[27.620779,43.912917],[27.613644,43.909529],[27.597752,43.904855],[27.584091,43.901467],[27.583987,43.892942],[27.585265,43.88312],[27.585103,43.875405],[27.586887,43.861727],[27.591427,43.848864],[27.594995,43.841613],[27.601482,43.836467],[27.608736,43.831411],[27.610076,43.832958],[27.618671,43.835648],[27.622725,43.838572],[27.629211,43.840911],[27.634238,43.839742],[27.64186,43.834478],[27.652887,43.823482],[27.670887,43.815993],[27.680292,43.809908],[27.68613,43.802184],[27.693265,43.788724],[27.70186,43.770693],[27.708671,43.751486],[27.717914,43.745746],[27.727319,43.74516],[27.737049,43.747854],[27.744509,43.752774],[27.749049,43.757576],[27.759428,43.772684],[27.767211,43.773737],[27.783752,43.77444],[27.801428,43.778187],[27.810671,43.782519],[27.817968,43.78767],[27.822671,43.792001],[27.826887,43.797269],[27.831616,43.801998],[27.832155,43.816913],[27.834851,43.825472],[27.839524,43.833251],[27.847072,43.84103],[27.856059,43.846085],[27.865944,43.852825],[27.877806,43.859694],[27.883557,43.869282],[27.890566,43.880036],[27.895778,43.89001],[27.897576,43.90063],[27.895419,43.908011],[27.888589,43.915262],[27.883018,43.921735],[27.867561,43.935456],[27.843118,43.954996],[27.837906,43.960559],[27.83387,43.9743]]]}},
{"type":"Feature","id":"BGR:ADM2:BG-08.tervel","properties":{"shapeName":"Tervel","shapeISO":"","shapeGroup":"BGR","shapeType":"ADM2","adm1ISO":"BG-08","parentISO":"BG-08","parentID":"BGR:ADM1:BG-08","src_shape_id":"11073933B53472032794885"},"geometry":{"type":"Polygon","coordinates":[[[27.608736,43.831411],[27.601482,43.836467],[27.594995,43.841613],[27.591427,43.848864],[27.586887,43.861727],[27.585103,43.875405],[27.585265,43.88312],[27.583987,43.892942],[27.584091,43.901467],[27.57994,43.902082],[27.571822,43.905007],[27.564811,43.909925],[27.56112,43.914045],[27.554109,43.916305],[27.549128,43.914444],[27.545438,43.909127],[27.539718,43.902747],[27.535474,43.888786],[27.529939,43.881207],[27.527172,43.875222],[27.524958,43.868173],[27.520714,43.861255],[27.518131,43.855535],[27.506138,43.850213],[27.49968,43.850213],[27.486027,43.851543],[27.478647,43.854603],[27.472005,43.864581],[27.467577,43.868306],[27.456875,43.871232],[27.447466,43.870966],[27.43824,43.868572],[27.431598,43.862985],[27.42145,43.858595],[27.41407,43.856466],[27.405768,43.850346],[27.404461,43.847243],[27.395487,43.835745],[27.389465,43.829697],[27.378719,43.823904],[27.357937,43.817685],[27.337626,43.813339],[27.320858,43.811806],[27.307869,43.812146],[27.305035,43.802773],[27.295234,43.795869],[27.282482,43.782401],[27.276459,43.778308],[27.270083,43.774898],[27.260754,43.768588],[27.244105,43.762789],[27.228754,43.757843],[27.219425,43.752043],[27.213521,43.745645],[27.211041,43.739247],[27.209639,43.731808],[27.208717,43.717008],[27.214436,43.709807],[27.222923,43.702871],[27.237492,43.693074],[27.241034,43.688037],[27.241271,43.681035],[27.240326,43.675911],[27.225566,43.670103],[27.22078,43.66741],[27.223661,43.661908],[27.227536,43.656702],[27.229712,43.650667],[27.237315,43.650428],[27.244879,43.653765],[27.25392,43.6551],[27.265544,43.654299],[27.273293,43.64976],[27.280673,43.642951],[27.28547,43.63721],[27.291559,43.628263],[27.297648,43.614639],[27.305028,43.608093],[27.314069,43.605822],[27.324032,43.605689],[27.338608,43.609563],[27.350232,43.614372],[27.356874,43.617711],[27.36776,43.62252],[27.376985,43.624123],[27.389162,43.625191],[27.402077,43.623455],[27.408351,43.618379],[27.418314,43.605154],[27.424033,43.599943],[27.428171,43.597058],[27.435657,43.592861],[27.442115,43.590055],[27.452078,43.58765],[27.46041,43.588495],[27.460664,43.604643],[27.462184,43.620053],[27.463958,43.631791],[27.467758,43.64646],[27.474346,43.666076],[27.482961,43.678355],[27.490816,43.690998],[27.496887,43.7161],[27.499968,43.736021],[27.505319,43.752891],[27.511157,43.76191],[27.519914,43.771864],[27.528509,43.786616],[27.532563,43.799727],[27.540346,43.813302],[27.544563,43.817749],[27.550725,43.818217],[27.559157,43.813419],[27.566292,43.807217],[27.573752,43.803121],[27.591265,43.803472],[27.602455,43.807217],[27.609265,43.812483],[27.609752,43.818685],[27.607482,43.824067],[27.606833,43.829214],[27.608736,43.831411]]]}}
]}