{"type":"FeatureCollection","bbox":[22.348203,43.392389,23.051838,44.210323],"features":[
{"type":"Feature","id":"BGR:ADM2:BG-05.dimovo","properties":{"shapeName":"Dimovo","shapeISO":"","shapeGroup":"BGR","shapeType":"ADM2","adm1ISO":"BG-05","parentISO":"BG-05","parentID":"BGR:ADM1:BG-05","src_shape_id":"11073933B50441520760810"},"geometry":{"type":"Polygon","coordinates":[[[22.961316,43.754427],[22.957856,43.761506],[22.956703,43.768793],[22.959298,43.775247],[22.964487,43.780659],[22.974289,43.78274],[22.992163,43.782116],[23.010613,43.780867],[23.023874,43.783156],[23.026469,43.786278],[23.027336,43.791163],[23.020905,43.791384],[23.004122,43.794591],[22.993755,43.79851],[22.98018,43.80332],[22.958954,43.810445],[22.933038,43.819884],[22.911072,43.824692],[22.890586,43.828253],[22.87998,43.829227],[22.872235,43.823521],[22.865027,43.821025],[22.852054,43.818945],[22.831586,43.817696],[22.816018,43.814784],[22.809099,43.808959],[22.799009,43.801053],[22.789496,43.795227],[22.778252,43.793562],[22.767586,43.796475],[22.758649,43.798556],[22.757315,43.79848],[22.740487,43.797516],[22.738895,43.797685],[22.737984,43.78791],[22.73411,43.78125],[22.725807,43.774855],[22.720272,43.769393],[22.710862,43.763663],[22.69315,43.756601],[22.682252,43.753177],[22.66582,43.749429],[22.646793,43.74568],[22.629207,43.745264],[22.625031,43.746445],[22.624883,43.742606],[22.621746,43.734208],[22.621931,43.723942],[22.627466,43.716608],[22.638721,43.71074],[22.649607,43.710607],[22.661415,43.711807],[22.676913,43.706072],[22.703297,43.684461],[22.706803,43.677389],[22.705696,43.670583],[22.701637,43.664711],[22.69684,43.660039],[22.68946,43.657503],[22.686323,43.654433],[22.687061,43.647624],[22.692596,43.639213],[22.69955,43.627895],[22.710216,43.618922],[22.725496,43.610156],[22.73577,43.604486],[22.743888,43.599409],[22.755881,43.595668],[22.764922,43.594064],[22.767321,43.590055],[22.774885,43.589521],[22.784664,43.587917],[22.793577,43.582199],[22.794627,43.584442],[22.793889,43.594732],[22.790199,43.606357],[22.788539,43.61357],[22.788723,43.627862],[22.793889,43.635207],[22.809757,43.647224],[22.821934,43.6547],[22.835403,43.660974],[22.863078,43.677923],[22.880053,43.686863],[22.885957,43.6938],[22.890385,43.702204],[22.894998,43.719008],[22.897765,43.724609],[22.904961,43.730609],[22.920459,43.737141],[22.955146,43.749537],[22.961316,43.754427]]]}},
{"type":"Feature","id":"BGR:ADM2:BG-05.bregovo","properties":{"shapeName":"Bregovo","shapeISO":"","shapeGroup":"BGR","shapeType":"ADM2","adm1ISO":"BG-05","parentISO":"BG-05","parentID":"BGR:ADM1:BG-05","src_shape_id":"11073933B90254200537324"},"geometry":{"type":"Polygon","coordinates":[[[22.762125,44.188417],[22.754431,44.193828],[22.746533,44.197225],[22.734528,44.199037],[22.729789,44.199151],[22.716836,44.203227],[22.70799,44.204813],[22.695985,44.206172],[22.678767,44.210021],[22.670588,44.210323],[22.664691,44.208713],[22.649807,44.192003],[22.639697,44.170454],[22.627622,44.14124],[22.619478,44.117657],[22.620602,44.10193],[22.624252,44.084383],[22.62341,44.074094],[22.615266,44.066023],[22.608731,44.064682],[22.609892,44.052911],[22.615946,44.04483],[22.624595,44.03654],[22.630611,44.035098],[22.631514,44.034882],[22.646793,44.035089],[22.662649,44.037162],[22.67764,44.03882],[22.695225,44.041307],[22.711658,44.045451],[22.72146,44.047316],[22.736451,44.050839],[22.752307,44.051875],[22.762108,44.048974],[22.785171,44.045866],[22.799009,44.047316],[22.804775,44.051253],[22.80391,44.057054],[22.798433,44.062855],[22.792379,44.068655],[22.790965,44.074748],[22.791225,44.091022],[22.790937,44.101374],[22.790361,44.110068],[22.786613,44.114415],[22.780847,44.116071],[22.77018,44.114622],[22.766144,44.112138],[22.760379,44.107377],[22.752595,44.103858],[22.743658,44.104479],[22.740775,44.110689],[22.740775,44.121245],[22.741928,44.12766],[22.738469,44.135937],[22.734144,44.14235],[22.72982,44.149797],[22.728955,44.157244],[22.733568,44.163862],[22.742216,44.172547],[22.753171,44.181851],[22.762125,44.188417]]]}},
{"type":"Feature","id":"BGR:ADM2:BG-05.novo-selo","properties":{"shapeName":"Novo Selo","shapeISO":"","shapeGroup":"BGR","shapeType":"ADM2","adm1ISO":"BG-05","parentISO":"BG-05","parentID":"BGR:ADM1:BG-05","src_shape_id":"11073933B80910522444836"},"geometry":{"type":"Polygon","coordinates":[[[22.790965,44.074748],[22.816214,44.076907],[22.826731,44.079558],[22.837617,44.079425],[22.845551,44.076112],[22.848687,44.071075],[22.850717,44.064711],[22.853853,44.057021],[22.858466,44.053706],[22.870643,44.052645],[22.884297,44.053706],[22.890754,44.057552],[22.899426,44.067363],[22.904408,44.076774],[22.906437,44.082739],[22.91105,44.094003],[22.914924,44.100099],[22.919058,44.103274],[22.914606,44.106215],[22.907498,44.11268],[22.895019,44.122092],[22.883645,44.126401],[22.873062,44.13139],[22.861688,44.135811],[22.851263,44.140573],[22.842417,44.14522],[22.830412,44.147487],[22.82204,44.153041],[22.816669,44.156214],[22.808613,44.158934],[22.794554,44.16596],[22.790289,44.170152],[22.784444,44.179669],[22.777968,44.184653],[22.771491,44.186579],[22.762125,44.188417],[22.753171,44.181851],[22.742216,44.172547],[22.733568,44.163862],[22.728955,44.157244],[22.72982,44.149797],[22.734144,44.14235],[22.738469,44.135937],[22.741928,44.12766],[22.740775,44.121245],[22.740775,44.110689],[22.743658,44.104479],[22.752595,44.103858],[22.760379,44.107377],[22.766144,44.112138],[22.77018,44.114622],[22.780847,44.116071],[22.786613,44.114415],[22.790361,44.110068],[22.790937,44.101374],[22.791225,44.091022],[22.790965,44.074748]]]}},
{"type":"Feature","id":"BGR:ADM2:BG-05.boynitsa","properties":{"shapeName":"Boynitsa","shapeISO":"","shapeGroup":"BGR","shapeType":"ADM2","adm1ISO":"BG-05","parentISO":"BG-05","parentID":"BGR:ADM1:BG-05","src_shape_id":"11073933B70928073521326"},"geometry":{"type":"Polygon","coordinates":[[[22.608731,44.064682],[22.601506,44.063198],[22.566964,44.057951],[22.541971,44.052301],[22.53495,44.048869],[22.53495,44.043419],[22.53832,44.037767],[22.53467,44.029489],[22.523156,44.025047],[22.494231,44.021615],[22.447333,44.01697],[22.429642,44.013537],[22.406895,44.007477],[22.39847,43.98667],[22.400155,43.960397],[22.389203,43.938157],[22.388548,43.935598],[22.400883,43.935316],[22.423081,43.935939],[22.445568,43.936769],[22.461712,43.935939],[22.47382,43.930333],[22.479297,43.923482],[22.490829,43.919328],[22.508414,43.917667],[22.526577,43.918498],[22.537243,43.922859],[22.54791,43.931371],[22.555982,43.936354],[22.563766,43.942167],[22.575586,43.953167],[22.58164,43.961053],[22.582793,43.970391],[22.586252,43.9762],[22.577604,43.990928],[22.580775,43.998187],[22.589135,44.006067],[22.600378,44.01125],[22.611622,44.014982],[22.622288,44.022238],[22.629207,44.028664],[22.630611,44.035098],[22.624595,44.03654],[22.615946,44.04483],[22.609892,44.052911],[22.608731,44.064682]]]}},
{"type":"Feature","id":"BGR:ADM2:BG-05.vidin","properties":{"shapeName":"Vidin","shapeISO":"","shapeGroup":"BGR","shapeType":"ADM2","adm1ISO":"BG-05","parentISO":"BG-05","parentID":"BGR:ADM1:BG-05","src_shape_id":"11073933B7359866387306"},"geometry":{"type":"Polygon","coordinates":[[[22.87998,43.829227],[22.877011,43.8295],[22.863436,43.838936],[22.85381,43.844098],[22.843444,43.85193],[22.835792,43.85727],[22.826907,43.866879],[22.825426,43.877199],[22.82592,43.880935],[22.829622,43.891253],[22.835545,43.901746],[22.838754,43.910993],[22.84369,43.919527],[22.850108,43.936059],[22.857512,43.954541],[22.861461,43.963602],[22.879973,43.986337],[22.88713,43.991487],[22.901939,43.99859],[22.914527,44.001608],[22.926127,44.005691],[22.950809,44.009242],[22.96932,44.012792],[22.977959,44.015099],[22.994989,44.019004],[23.005849,44.022554],[23.014241,44.027523],[23.020915,44.033237],[23.03292,44.041868],[23.036712,44.045387],[23.040503,44.053108],[23.04382,44.058557],[23.043504,44.064119],[23.042398,44.071723],[23.039871,44.076717],[23.035606,44.081596],[23.029287,44.084887],[23.02439,44.088177],[23.012859,44.091808],[23.003539,44.092716],[22.99027,44.092716],[22.971947,44.093056],[22.951885,44.094417],[22.934509,44.09748],[22.922504,44.100997],[22.919058,44.103274],[22.914924,44.100099],[22.91105,44.094003],[22.906437,44.082739],[22.904408,44.076774],[22.899426,44.067363],[22.890754,44.057552],[22.884297,44.053706],[22.870643,44.052645],[22.858466,44.053706],[22.853853,44.057021],[22.850717,44.064711],[22.848687,44.071075],[22.845551,44.076112],[22.837617,44.079425],[22.826731,44.079558],[22.816214,44.076907],[22.790965,44.074748],[22.792379,44.068655],[22.798433,44.062855],[22.80391,44.057054],[22.804775,44.051253],[22.799009,44.047316],[22.785171,44.045866],[22.762108,44.048974],[22.752307,44.051875],[22.736451,44.050839],[22.72146,44.047316],[22.711658,44.045451],[22.695225,44.041307],[22.67764,44.03882],[22.662649,44.037162],[22.646793,44.035089],[22.631514,44.034882],[22.630611,44.035098],[22.629207,44.028664],[22.622288,44.022238],[22.611622,44.014982],[22.600378,44.01125],[22.589135,44.006067],[22.580775,43.998187],[22.577604,43.990928],[22.586252,43.9762],[22.592226,43.979934],[22.609016,43.985244],[22.619717,43.990156],[22.629127,43.995864],[22.641119,44.001173],[22.654035,44.005287],[22.666028,44.009932],[22.678389,44.010595],[22.686877,44.009003],[22.69315,44.004756],[22.693519,43.99958],[22.679865,43.992678],[22.676729,43.98936],[22.67636,43.98312],[22.679312,43.978739],[22.690382,43.969179],[22.699054,43.962672],[22.702375,43.958953],[22.699054,43.953109],[22.693888,43.947663],[22.686323,43.943943],[22.67802,43.938629],[22.67064,43.932252],[22.664367,43.926139],[22.661599,43.91976],[22.66123,43.914843],[22.660337,43.912267],[22.667135,43.912583],[22.678943,43.914311],[22.688722,43.9179],[22.69684,43.921488],[22.703666,43.923614],[22.7116,43.923349],[22.718796,43.917634],[22.719718,43.910058],[22.719349,43.904475],[22.719903,43.898094],[22.721748,43.892908],[22.71898,43.886526],[22.717135,43.880276],[22.717135,43.872163],[22.720272,43.867507],[22.732449,43.86631],[22.742412,43.865911],[22.74887,43.862453],[22.754036,43.856067],[22.757173,43.849015],[22.756988,43.835042],[22.757315,43.79848],[22.758649,43.798556],[22.767586,43.796475],[22.778252,43.793562],[22.789496,43.795227],[22.799009,43.801053],[22.809099,43.808959],[22.816018,43.814784],[22.831586,43.817696],[22.852054,43.818945],[22.865027,43.821025],[22.872235,43.823521],[22.87998,43.829227]]]}},
{"type":"Feature","id":"BGR:ADM2:BG-05.kula","properties":{"shapeName":"Kula","shapeISO":"","shapeGroup":"BGR","shapeType":"ADM2","adm1ISO":"BG-05","parentISO":"BG-05","parentID":"BGR:ADM1:BG-05","src_shape_id":"11073933B81612933082159"},"geometry":{"type":"Polygon","coordinates":[[[22.388548,43.935598],[22.385272,43.922787],[22.380217,43.907817],[22.37095,43.875032],[22.368141,43.858632],[22.365333,43.849722],[22.360365,43.842158],[22.372342,43.839118],[22.388486,43.836831],[22.400306,43.833503],[22.412703,43.829344],[22.437784,43.818529],[22.451333,43.81312],[22.46027,43.810832],[22.478432,43.808543],[22.491982,43.808127],[22.494786,43.807677],[22.497021,43.815741],[22.503663,43.821199],[22.515472,43.832913],[22.517132,43.839434],[22.518239,43.846354],[22.528387,43.848882],[22.540011,43.847685],[22.559568,43.841297],[22.569901,43.839434],[22.57562,43.840499],[22.581709,43.84316],[22.589274,43.847152],[22.596285,43.852874],[22.604034,43.861521],[22.609938,43.870966],[22.610861,43.880276],[22.608462,43.886393],[22.608093,43.88985],[22.608647,43.895169],[22.618241,43.899822],[22.627835,43.900753],[22.638721,43.902747],[22.650714,43.906735],[22.65957,43.910058],[22.660337,43.912267],[22.66123,43.914843],[22.661599,43.91976],[22.664367,43.926139],[22.67064,43.932252],[22.67802,43.938629],[22.686323,43.943943],[22.693888,43.947663],[22.699054,43.953109],[22.702375,43.958953],[22.699054,43.962672],[22.690382,43.969179],[22.679312,43.978739],[22.67636,43.98312],[22.676729,43.98936],[22.679865,43.992678],[22.693519,43.99958],[22.69315,44.004756],[22.686877,44.009003],[22.678389,44.010595],[22.666028,44.009932],[22.654035,44.005287],[22.641119,44.001173],[22.629127,43.995864],[22.619717,43.990156],[22.609016,43.985244],[22.592226,43.979934],[22.586252,43.9762],[22.582793,43.970391],[22.58164,43.961053],[22.575586,43.953167],[22.563766,43.942167],[22.555982,43.936354],[22.54791,43.931371],[22.537243,43.922859],[22.526577,43.918498],[22.508414,43.917667],[22.490829,43.919328],[22.479297,43.923482],[22.47382,43.930333],[22.461712,43.935939],[22.445568,43.936769],[22.423081,43.935939],[22.400883,43.935316],[22.388548,43.935598]]]}},
{"type":"Feature","id":"BGR:ADM2:BG-05.gramada","properties":{"shapeName":"Gramada","shapeISO":"","shapeGroup":"BGR","shapeType":"ADM2","adm1ISO":"BG-05","parentISO":"BG-05","parentID":"BGR:ADM1:BG-05","src_shape_id":"11073933B13074477354821"},"geometry":{"type":"Polygon","coordinates":[[[22.757315,43.79848],[22.756988,43.835042],[22.757173,43.849015],[22.754036,43.856067],[22.74887,43.862453],[22.742412,43.865911],[22.732449,43.86631],[22.720272,43.867507],[22.717135,43.872163],[22.717135,43.880276],[22.71898,43.886526],[22.721748,43.892908],[22.719903,43.898094],[22.719349,43.904475],[22.719718,43.910058],[22.718796,43.917634],[22.7116,43.923349],[22.703666,43.923614],[22.69684,43.921488],[22.688722,43.9179],[22.678943,43.914311],[22.667135,43.912583],[22.660337,43.912267],[22.65957,43.910058],[22.650714,43.906735],[22.638721,43.902747],[22.627835,43.900753],[22.618241,43.899822],[22.608647,43.895169],[22.608093,43.88985],[22.608462,43.886393],[22.610861,43.880276],[22.609938,43.870966],[22.604034,43.861521],[22.596285,43.852874],[22.589274,43.847152],[22.581709,43.84316],[22.57562,43.840499],[22.569901,43.839434],[22.559568,43.841297],[22.540011,43.847685],[22.528387,43.848882],[22.518239,43.846354],[22.517132,43.839434],[22.515472,43.832913],[22.503663,43.821199],[22.497021,43.815741],[22.494786,43.807677],[22.510144,43.805214],[22.530324,43.803342],[22.542721,43.802718],[22.554829,43.800429],[22.567802,43.796892],[22.582793,43.792522],[22.59173,43.791065],[22.599514,43.787319],[22.608739,43.785446],[22.616811,43.78607],[22.625171,43.791065],[22.642469,43.795851],[22.660919,43.798764],[22.677928,43.801885],[22.696667,43.801885],[22.722901,43.799389],[22.738895,43.797685],[22.740487,43.797516],[22.757315,43.79848]]]}},
{"type":"Feature","id":"BGR:ADM2:BG-05.makresh","properties":{"shapeName":"Makresh","shapeISO":"","shapeGroup":"BGR","shapeType":"ADM2","adm1ISO":"BG-05","parentISO":"BG-05","parentID":"BGR:ADM1:BG-05","src_shape_id":"11073933B23443232587918"},"geometry":{"type":"Polygon","coordinates":[[[22.738895,43.797685],[22.722901,43.799389],[22.696667,43.801885],[22.677928,43.801885],[22.660919,43.798764],[22.642469,43.795851],[22.625171,43.791065],[22.616811,43.78607],[22.608739,43.785446],[22.599514,43.787319],[22.59173,43.791065],[22.582793,43.792522],[22.567802,43.796892],[22.554829,43.800429],[22.542721,43.802718],[22.530324,43.803342],[22.510144,43.805214],[22.494786,43.807677],[22.491982,43.808127],[22.478432,43.808543],[22.46027,43.810832],[22.451333,43.81312],[22.437784,43.818529],[22.412703,43.829344],[22.400306,43.833503],[22.388486,43.836831],[22.372342,43.839118],[22.360365,43.842158],[22.355223,43.834329],[22.348484,43.822579],[22.348203,43.801706],[22.353819,43.790355],[22.376004,43.766429],[22.381059,43.755274],[22.383587,43.734175],[22.39173,43.709821],[22.399594,43.69297],[22.408861,43.684645],[22.413632,43.681482],[22.416162,43.684836],[22.425099,43.690048],[22.435766,43.694217],[22.444126,43.702137],[22.446721,43.706097],[22.449315,43.713182],[22.454216,43.721517],[22.467477,43.727142],[22.481027,43.731517],[22.496306,43.738182],[22.502072,43.742765],[22.511009,43.747971],[22.519946,43.75047],[22.534072,43.750262],[22.543009,43.749637],[22.548775,43.746305],[22.558577,43.743806],[22.567514,43.745056],[22.577892,43.749429],[22.59,43.753177],[22.602108,43.753802],[22.613928,43.751095],[22.622577,43.747138],[22.625031,43.746445],[22.629207,43.745264],[22.646793,43.74568],[22.66582,43.749429],[22.682252,43.753177],[22.69315,43.756601],[22.710862,43.763663],[22.720272,43.769393],[22.725807,43.774855],[22.73411,43.78125],[22.737984,43.78791],[22.738895,43.797685]]]}},
{"type":"Feature","id":"BGR:ADM2:BG-05.belogradchik","properties":{"shapeName":"Belogradchik","shapeISO":"","shapeGroup":"BGR","shapeType":"ADM2","adm1ISO":"BG-05","parentISO":"BG-05","parentID":"BGR:ADM1:BG-05","src_shape_id":"11073933B74242079293836"},"geometry":{"type":"Polygon","coordinates":[[[22.625031,43.746445],[22.622577,43.747138],[22.613928,43.751095],[22.602108,43.753802],[22.59,43.753177],[22.577892,43.749429],[22.567514,43.745056],[22.558577,43.743806],[22.548775,43.746305],[22.543009,43.749637],[22.534072,43.750262],[22.519946,43.75047],[22.511009,43.747971],[22.502072,43.742765],[22.496306,43.738182],[22.481027,43.731517],[22.467477,43.727142],[22.454216,43.721517],[22.449315,43.713182],[22.446721,43.706097],[22.444126,43.702137],[22.435766,43.694217],[22.425099,43.690048],[22.416162,43.684836],[22.413632,43.681482],[22.42908,43.67124],[22.443121,43.666162],[22.457162,43.661692],[22.465025,43.656816],[22.470642,43.647673],[22.471203,43.637512],[22.471203,43.616981],[22.473169,43.571627],[22.482156,43.544357],[22.492546,43.517686],[22.500409,43.501596],[22.516135,43.483872],[22.532142,43.472053],[22.538601,43.469199],[22.557978,43.464716],[22.558749,43.463816],[22.567133,43.471136],[22.568609,43.48091],[22.56824,43.496438],[22.570639,43.509955],[22.576912,43.517046],[22.581893,43.521461],[22.588905,43.528552],[22.591303,43.535641],[22.590565,43.546474],[22.586506,43.552626],[22.578388,43.559178],[22.574513,43.564659],[22.576543,43.570007],[22.580602,43.574284],[22.588167,43.57522],[22.607724,43.574819],[22.636507,43.571343],[22.650714,43.571477],[22.659939,43.574953],[22.664182,43.581769],[22.67064,43.590189],[22.682817,43.601413],[22.688906,43.605822],[22.694441,43.607292],[22.702928,43.60649],[22.707357,43.598874],[22.707541,43.591659],[22.705881,43.583774],[22.70791,43.575086],[22.715106,43.572279],[22.728575,43.572546],[22.737984,43.574151],[22.746287,43.578027],[22.764368,43.586046],[22.767321,43.590055],[22.764922,43.594064],[22.755881,43.595668],[22.743888,43.599409],[22.73577,43.604486],[22.725496,43.610156],[22.710216,43.618922],[22.69955,43.627895],[22.692596,43.639213],[22.687061,43.647624],[22.686323,43.654433],[22.68946,43.657503],[22.69684,43.660039],[22.701637,43.664711],[22.705696,43.670583],[22.706803,43.677389],[22.703297,43.684461],[22.676913,43.706072],[22.661415,43.711807],[22.649607,43.710607],[22.638721,43.71074],[22.627466,43.716608],[22.621931,43.723942],[22.621746,43.734208],[22.624883,43.742606],[22.625031,43.746445]]]}},
{"type":"Feature","id":"BGR:ADM2:BG-05.chuprene","properties":{"shapeName":"Chuprene","shapeISO":"","shapeGroup":"BGR","shapeType":"ADM2","adm1ISO":"BG-05","parentISO":"BG-05","parentID":"BGR:ADM1:BG-05","src_shape_id":"11073933B76955204071554"},"geometry":{"type":"Polygon","coordinates":[[[22.767321,43.590055],[22.764368,43.586046],[22.746287,43.578027],[22.737984,43.574151],[22.728575,43.572546],[22.715106,43.572279],[22.70791,43.575086],[22.705881,43.583774],[22.707541,43.591659],[22.707357,43.598874],[22.702928,43.60649],[22.694441,43.607292],[22.688906,43.605822],[22.682817,43.601413],[22.67064,43.590189],[22.664182,43.581769],[22.659939,43.574953],[22.650714,43.571477],[22.636507,43.571343],[22.607724,43.574819],[22.588167,43.57522],[22.580602,43.574284],[22.576543,43.570007],[22.574513,43.564659],[22.578388,43.559178],[22.586506,43.552626],[22.590565,43.546474],[22.591303,43.535641],[22.588905,43.528552],[22.581893,43.521461],[22.576912,43.517046],[22.570639,43.509955],[22.56824,43.496438],[22.568609,43.48091],[22.567133,43.471136],[22.558749,43.463816],[22.565841,43.455543],[22.575108,43.448],[22.594912,43.43743],[22.616479,43.432471],[22.636249,43.429991],[22.647033,43.418112],[22.653862,43.408973],[22.665185,43.403098],[22.686033,43.397744],[22.700052,43.39683],[22.718204,43.397352],[22.737974,43.392389],[22.75182,43.404383],[22.76218,43.411583],[22.783802,43.425979],[22.793261,43.431867],[22.797568,43.439796],[22.798433,43.448378],[22.79555,43.45654],[22.790937,43.465328],[22.789784,43.474534],[22.791225,43.483111],[22.796126,43.490431],[22.802757,43.495451],[22.811208,43.499237],[22.811786,43.525609],[22.811048,43.542596],[22.807174,43.557172],[22.80293,43.565595],[22.797764,43.574151],[22.796657,43.579898],[22.793577,43.582199],[22.784664,43.587917],[22.774885,43.589521],[22.767321,43.590055]]]}},
{"type":"Feature","id":"BGR:ADM2:BG-05.ruzhinsi","properties":{"shapeName":"Ruzhinsi","shapeISO":"","shapeGroup":"BGR","shapeType":"ADM2","adm1ISO":"BG-05","parentISO":"BG-05","parentID":"BGR:ADM1:BG-05","src_shape_id":"11073933B49799465441586"},"geometry":{"type":"Polygon","coordinates":[[[22.793577,43.582199],[22.796657,43.579898],[22.797764,43.574151],[22.80293,43.565595],[22.807174,43.557172],[22.811048,43.542596],[22.811786,43.525609],[22.811208,43.499237],[22.818325,43.501724],[22.836487,43.502979],[22.846289,43.505279],[22.854361,43.511761],[22.864451,43.521169],[22.86964,43.528694],[22.872235,43.537263],[22.878289,43.549174],[22.883766,43.558158],[22.890685,43.566305],[22.900199,43.570483],[22.91173,43.573407],[22.92009,43.574242],[22.922685,43.582387],[22.925568,43.631026],[22.929027,43.656268],[22.934505,43.666488],[22.944018,43.67462],[22.956703,43.677331],[22.974865,43.679624],[22.986685,43.687338],[22.997063,43.694426],[23.010613,43.698177],[23.036559,43.701512],[23.046649,43.705472],[23.050973,43.713182],[23.051838,43.72235],[23.041748,43.733183],[23.033388,43.739849],[23.026469,43.744847],[23.019262,43.748804],[23.011711,43.749553],[23.004559,43.750262],[22.984379,43.749221],[22.961316,43.754427],[22.955146,43.749537],[22.920459,43.737141],[22.904961,43.730609],[22.897765,43.724609],[22.894998,43.719008],[22.890385,43.702204],[22.885957,43.6938],[22.880053,43.686863],[22.863078,43.677923],[22.835403,43.660974],[22.821934,43.6547],[22.809757,43.647224],[22.793889,43.635207],[22.788723,43.627862],[22.788539,43.61357],[22.790199,43.606357],[22.793889,43.594732],[22.794627,43.584442],[22.793577,43.582199]]]}}
]}