{"type":"FeatureCollection","bbox":[22.737974,43.114993,23.633201,43.853176],"features":[
{"type":"Feature","id":"BGR:ADM2:BG-12.lom","properties":{"shapeName":"Lom","shapeISO":"","shapeGroup":"BGR","shapeType":"ADM2","adm1ISO":"BG-12","parentISO":"BG-12","parentID":"BGR:ADM1:BG-12","src_shape_id":"11073933B2112323428088"},"geometry":{"type":"Polygon","coordinates":[[[22.961316,43.754427],[22.984379,43.749221],[23.004559,43.750262],[23.011711,43.749553],[23.018973,43.752761],[23.030217,43.757134],[23.042325,43.759633],[23.054433,43.76109],[23.069424,43.760674],[23.101136,43.751303],[23.116957,43.745539],[23.131717,43.740474],[23.157732,43.732075],[23.174522,43.731142],[23.198508,43.732342],[23.221756,43.735941],[23.252752,43.74114],[23.291547,43.747267],[23.31493,43.753269],[23.335226,43.759399],[23.339915,43.761502],[23.345189,43.766462],[23.355706,43.783514],[23.363086,43.788576],[23.371942,43.791639],[23.392976,43.792438],[23.40626,43.790041],[23.423419,43.788842],[23.430799,43.790174],[23.440025,43.794969],[23.448512,43.800962],[23.462165,43.806821],[23.4808,43.812679],[23.486335,43.817339],[23.489841,43.825725],[23.493314,43.832348],[23.48739,43.836977],[23.478998,43.84125],[23.465917,43.843564],[23.444691,43.852108],[23.430375,43.85282],[23.407175,43.853176],[23.335844,43.851752],[23.299562,43.85015],[23.263774,43.8457],[23.245262,43.842852],[23.230206,43.839292],[23.217866,43.833951],[23.199107,43.827007],[23.177634,43.82113],[23.151965,43.814541],[23.130492,43.807595],[23.100381,43.802073],[23.073971,43.796372],[23.054719,43.7937],[23.036455,43.790849],[23.027336,43.791163],[23.026469,43.786278],[23.023874,43.783156],[23.010613,43.780867],[22.992163,43.782116],[22.974289,43.78274],[22.964487,43.780659],[22.959298,43.775247],[22.956703,43.768793],[22.957856,43.761506],[22.961316,43.754427]]]}},
{"type":"Feature","id":"BGR:ADM2:BG-12.brusartsi","properties":{"shapeName":"Brusartsi","shapeISO":"","shapeGroup":"BGR","shapeType":"ADM2","adm1ISO":"BG-12","parentISO":"BG-12","parentID":"BGR:ADM1:BG-12","src_shape_id":"11073933B17991480709399"},"geometry":{"type":"Polygon","coordinates":[[[22.92009,43.574242],[22.923412,43.570942],[22.928209,43.568803],[22.938541,43.567734],[22.946475,43.569606],[22.957729,43.574685],[22.974888,43.580834],[23.000165,43.586581],[23.02452,43.592594],[23.041863,43.597004],[23.050166,43.604887],[23.057362,43.616643],[23.063451,43.628396],[23.072676,43.641082],[23.089835,43.652297],[23.099429,43.659906],[23.105333,43.667247],[23.112344,43.674186],[23.121569,43.681392],[23.132824,43.686729],[23.140758,43.687797],[23.154227,43.688864],[23.161976,43.690598],[23.166958,43.697135],[23.168249,43.705539],[23.164559,43.717275],[23.158286,43.728342],[23.157732,43.732075],[23.131717,43.740474],[23.116957,43.745539],[23.101136,43.751303],[23.069424,43.760674],[23.054433,43.76109],[23.042325,43.759633],[23.030217,43.757134],[23.018973,43.752761],[23.011711,43.749553],[23.019262,43.748804],[23.026469,43.744847],[23.033388,43.739849],[23.041748,43.733183],[23.051838,43.72235],[23.050973,43.713182],[23.046649,43.705472],[23.036559,43.701512],[23.010613,43.698177],[22.997063,43.694426],[22.986685,43.687338],[22.974865,43.679624],[22.956703,43.677331],[22.944018,43.67462],[22.934505,43.666488],[22.929027,43.656268],[22.925568,43.631026],[22.922685,43.582387],[22.92009,43.574242]]]}},
{"type":"Feature","id":"BGR:ADM2:BG-12.medkovets","properties":{"shapeName":"Medkovets","shapeISO":"","shapeGroup":"BGR","shapeType":"ADM2","adm1ISO":"BG-12","parentISO":"BG-12","parentID":"BGR:ADM1:BG-12","src_shape_id":"11073933B24629330490100"},"geometry":{"type":"Polygon","coordinates":[[[23.157732,43.732075],[23.158286,43.728342],[23.164559,43.717275],[23.168249,43.705539],[23.166958,43.697135],[23.161976,43.690598],[23.154227,43.688864],[23.140758,43.687797],[23.132824,43.686729],[23.121569,43.681392],[23.112344,43.674186],[23.105333,43.667247],[23.099429,43.659906],[23.089835,43.652297],[23.072676,43.641082],[23.063451,43.628396],[23.057362,43.616643],[23.050166,43.604887],[23.041863,43.597004],[23.04869,43.594465],[23.054594,43.594064],[23.062713,43.59206],[23.071384,43.588852],[23.079318,43.583774],[23.089835,43.578294],[23.098506,43.574284],[23.107178,43.569472],[23.119171,43.561718],[23.126367,43.559178],[23.136699,43.557707],[23.149614,43.559445],[23.15478,43.562253],[23.16253,43.57121],[23.168987,43.575354],[23.177843,43.577626],[23.186331,43.583908],[23.193526,43.590456],[23.207733,43.601547],[23.22397,43.611567],[23.228582,43.616643],[23.231534,43.622787],[23.230427,43.63307],[23.229136,43.638545],[23.230796,43.645622],[23.234855,43.648559],[23.268435,43.654166],[23.275262,43.660306],[23.278029,43.669115],[23.279505,43.676989],[23.283011,43.688997],[23.292052,43.700737],[23.293528,43.706739],[23.291867,43.712474],[23.287255,43.717808],[23.286886,43.724742],[23.288362,43.729942],[23.291498,43.735408],[23.291867,43.741407],[23.291547,43.747267],[23.252752,43.74114],[23.221756,43.735941],[23.198508,43.732342],[23.174522,43.731142],[23.157732,43.732075]]]}},
{"type":"Feature","id":"BGR:ADM2:BG-12.chiprovtsi","properties":{"shapeName":"Chiprovtsi","shapeISO":"","shapeGroup":"BGR","shapeType":"ADM2","adm1ISO":"BG-12","parentISO":"BG-12","parentID":"BGR:ADM1:BG-12","src_shape_id":"11073933B7205053971020"},"geometry":{"type":"Polygon","coordinates":[[[22.737974,43.392389],[22.744445,43.387426],[22.751813,43.376584],[22.761519,43.366786],[22.772123,43.354372],[22.788298,43.344178],[22.803475,43.338291],[22.815292,43.342323],[22.848318,43.352117],[22.872304,43.358154],[22.889647,43.363252],[22.914371,43.372506],[22.932821,43.378407],[22.94463,43.384442],[22.958283,43.389269],[22.983929,43.40053],[22.993708,43.40415],[23.006808,43.411656],[23.020645,43.417955],[23.02083,43.423048],[23.012896,43.433633],[23.007915,43.439528],[23.000534,43.451852],[22.997582,43.457611],[22.992416,43.464307],[22.985405,43.470065],[22.984226,43.470373],[22.980792,43.47127],[22.969907,43.471806],[22.959574,43.474082],[22.938356,43.479437],[22.928024,43.481312],[22.915478,43.481178],[22.9033,43.482784],[22.899795,43.485328],[22.897765,43.489478],[22.896474,43.495769],[22.891123,43.498446],[22.868614,43.499115],[22.852377,43.501524],[22.846289,43.505279],[22.836487,43.502979],[22.818325,43.501724],[22.811208,43.499237],[22.802757,43.495451],[22.796126,43.490431],[22.791225,43.483111],[22.789784,43.474534],[22.790937,43.465328],[22.79555,43.45654],[22.798433,43.448378],[22.797568,43.439796],[22.793261,43.431867],[22.783802,43.425979],[22.76218,43.411583],[22.75182,43.404383],[22.737974,43.392389]]]}},
{"type":"Feature","id":"BGR:ADM2:BG-12.yakimovo","properties":{"shapeName":"Yakimovo","shapeISO":"","shapeGroup":"BGR","shapeType":"ADM2","adm1ISO":"BG-12","parentISO":"BG-12","parentID":"BGR:ADM1:BG-12","src_shape_id":"11073933B84038023465214"},"geometry":{"type":"Polygon","coordinates":[[[23.291547,43.747267],[23.291867,43.741407],[23.291498,43.735408],[23.288362,43.729942],[23.286886,43.724742],[23.287255,43.717808],[23.291867,43.712474],[23.293528,43.706739],[23.292052,43.700737],[23.283011,43.688997],[23.279505,43.676989],[23.278029,43.669115],[23.275262,43.660306],[23.268435,43.654166],[23.234855,43.648559],[23.230796,43.645622],[23.229136,43.638545],[23.230427,43.63307],[23.231534,43.622787],[23.228582,43.616643],[23.22397,43.611567],[23.207733,43.601547],[23.193526,43.590456],[23.186331,43.583908],[23.177843,43.577626],[23.192788,43.567734],[23.200906,43.565461],[23.20884,43.562787],[23.214006,43.557841],[23.219541,43.555033],[23.231165,43.553963],[23.244819,43.555835],[23.265852,43.560782],[23.282827,43.562921],[23.298509,43.564258],[23.315668,43.564258],[23.323711,43.564506],[23.330798,43.567199],[23.3391,43.573081],[23.345374,43.578562],[23.352938,43.582972],[23.363455,43.584977],[23.374525,43.585912],[23.381168,43.588184],[23.385411,43.591392],[23.387625,43.596737],[23.392053,43.602081],[23.409212,43.614906],[23.42877,43.626259],[23.429047,43.628825],[23.429692,43.634806],[23.428032,43.639079],[23.422497,43.643619],[23.41198,43.649226],[23.404231,43.651763],[23.397957,43.655768],[23.394267,43.659505],[23.391131,43.66391],[23.388732,43.675654],[23.38781,43.6934],[23.387625,43.702604],[23.383197,43.708206],[23.375632,43.713274],[23.370097,43.719142],[23.367514,43.726209],[23.364747,43.740607],[23.361979,43.746605],[23.355337,43.753402],[23.344267,43.758733],[23.339915,43.761502],[23.335226,43.759399],[23.31493,43.753269],[23.291547,43.747267]]]}},
{"type":"Feature","id":"BGR:ADM2:BG-12.valchedram","properties":{"shapeName":"Valchedram","shapeISO":"","shapeGroup":"BGR","shapeType":"ADM2","adm1ISO":"BG-12","parentISO":"BG-12","parentID":"BGR:ADM1:BG-12","src_shape_id":"11073933B75633273437265"},"geometry":{"type":"Polygon","coordinates":[[[23.339915,43.761502],[23.344267,43.758733],[23.355337,43.753402],[23.361979,43.746605],[23.364747,43.740607],[23.367514,43.726209],[23.370097,43.719142],[23.375632,43.713274],[23.383197,43.708206],[23.387625,43.702604],[23.38781,43.6934],[23.388732,43.675654],[23.391131,43.66391],[23.394267,43.659505],[23.397957,43.655768],[23.404231,43.651763],[23.41198,43.649226],[23.422497,43.643619],[23.428032,43.639079],[23.429692,43.634806],[23.429047,43.628825],[23.432091,43.628396],[23.447036,43.62292],[23.453862,43.619181],[23.461796,43.61357],[23.466778,43.609028],[23.471759,43.602616],[23.47508,43.597538],[23.481354,43.592861],[23.488734,43.590723],[23.501834,43.589788],[23.512904,43.589654],[23.527111,43.589788],[23.539657,43.592193],[23.544081,43.594196],[23.545561,43.594866],[23.547406,43.602616],[23.549251,43.605822],[23.55331,43.609296],[23.560875,43.61317],[23.565672,43.617177],[23.574528,43.6308],[23.578957,43.640548],[23.580433,43.648425],[23.581171,43.655634],[23.583016,43.664177],[23.586706,43.672719],[23.591318,43.679124],[23.602823,43.686725],[23.604418,43.687797],[23.606263,43.696868],[23.610138,43.71194],[23.612721,43.720208],[23.622131,43.727009],[23.628588,43.733275],[23.633201,43.73994],[23.633201,43.756468],[23.629142,43.765396],[23.624529,43.771658],[23.622131,43.780584],[23.621373,43.795791],[23.609565,43.796016],[23.591794,43.798332],[23.57501,43.803142],[23.55872,43.808307],[23.531077,43.818993],[23.520217,43.823445],[23.507876,43.827185],[23.493314,43.832348],[23.489841,43.825725],[23.486335,43.817339],[23.4808,43.812679],[23.462165,43.806821],[23.448512,43.800962],[23.440025,43.794969],[23.430799,43.790174],[23.423419,43.788842],[23.40626,43.790041],[23.392976,43.792438],[23.371942,43.791639],[23.363086,43.788576],[23.355706,43.783514],[23.345189,43.766462],[23.339915,43.761502]]]}},
{"type":"Feature","id":"BGR:ADM2:BG-12.georgi-bamyanovo","properties":{"shapeName":"Georgi Bamyanovo","shapeISO":"","shapeGroup":"BGR","shapeType":"ADM2","adm1ISO":"BG-12","parentISO":"BG-12","parentID":"BGR:ADM1:BG-12","src_shape_id":"11073933B68692797246148"},"geometry":{"type":"Polygon","coordinates":[[[22.803475,43.338291],[22.804473,43.337904],[22.812741,43.327838],[22.818312,43.315547],[22.825322,43.298283],[22.83287,43.28808],[22.843654,43.281669],[22.851202,43.2695],[22.858032,43.259553],[22.863424,43.250783],[22.873129,43.240702],[22.880857,43.234156],[22.89865,43.222632],[22.907637,43.216607],[22.93154,43.211498],[22.950052,43.210974],[22.96461,43.206914],[22.982583,43.200232],[22.986357,43.197219],[22.999981,43.200324],[23.007177,43.203418],[23.011974,43.206511],[23.014252,43.206471],[23.013634,43.211621],[23.010682,43.219555],[23.004594,43.238913],[23.003671,43.248993],[23.005147,43.265118],[23.008099,43.273984],[23.013081,43.279089],[23.021014,43.284059],[23.025627,43.288088],[23.026365,43.297623],[23.021383,43.314674],[23.017509,43.324071],[23.017693,43.330647],[23.020276,43.336284],[23.026734,43.346348],[23.032638,43.357081],[23.039465,43.364191],[23.04869,43.372909],[23.05441,43.378675],[23.064558,43.383101],[23.077657,43.384576],[23.089281,43.385112],[23.097953,43.386587],[23.112344,43.389805],[23.122861,43.398385],[23.133009,43.404686],[23.14205,43.410718],[23.144817,43.414068],[23.144633,43.417419],[23.139835,43.419697],[23.133193,43.420903],[23.123784,43.424388],[23.115665,43.426666],[23.103673,43.432159],[23.088174,43.442341],[23.059391,43.46337],[23.047768,43.472341],[23.042048,43.479437],[23.039465,43.485997],[23.036882,43.495099],[23.032823,43.502862],[23.026365,43.505539],[23.017693,43.505539],[23.009391,43.503799],[23.001826,43.500988],[22.994999,43.49617],[22.99052,43.48687],[22.984379,43.472732],[22.984226,43.470373],[22.985405,43.470065],[22.992416,43.464307],[22.997582,43.457611],[23.000534,43.451852],[23.007915,43.439528],[23.012896,43.433633],[23.02083,43.423048],[23.020645,43.417955],[23.006808,43.411656],[22.993708,43.40415],[22.983929,43.40053],[22.958283,43.389269],[22.94463,43.384442],[22.932821,43.378407],[22.914371,43.372506],[22.889647,43.363252],[22.872304,43.358154],[22.848318,43.352117],[22.815292,43.342323],[22.803475,43.338291]]]}},
{"type":"Feature","id":"BGR:ADM2:BG-12.berkovitsa","properties":{"shapeName":"Berkovitsa","shapeISO":"","shapeGroup":"BGR","shapeType":"ADM2","adm1ISO":"BG-12","parentISO":"BG-12","parentID":"BGR:ADM1:BG-12","src_shape_id":"11073933B24244433397016"},"geometry":{"type":"Polygon","coordinates":[[[23.014252,43.206471],[23.019723,43.206376],[23.025812,43.203149],[23.031531,43.196693],[23.034668,43.189564],[23.036328,43.184721],[23.042048,43.179743],[23.047399,43.178128],[23.066034,43.171266],[23.075074,43.167633],[23.083746,43.161442],[23.091495,43.153367],[23.101828,43.136135],[23.104042,43.12873],[23.115665,43.122535],[23.13264,43.118899],[23.148876,43.116206],[23.162899,43.115128],[23.182087,43.114993],[23.209578,43.117552],[23.202752,43.120111],[23.193711,43.129134],[23.190021,43.134116],[23.186884,43.139501],[23.186515,43.145829],[23.186515,43.15727],[23.189467,43.165345],[23.19408,43.175303],[23.198139,43.181357],[23.204228,43.187949],[23.212161,43.197903],[23.218803,43.205166],[23.229519,43.215709],[23.237195,43.222593],[23.243099,43.229218],[23.242745,43.233176],[23.237785,43.236617],[23.230464,43.239972],[23.224088,43.245563],[23.223733,43.250896],[23.226804,43.256744],[23.231645,43.26027],[23.240265,43.267407],[23.245225,43.271104],[23.26707,43.278584],[23.288561,43.285547],[23.296827,43.287696],[23.300724,43.289587],[23.314855,43.298215],[23.322333,43.304798],[23.322805,43.31004],[23.322451,43.31425],[23.314421,43.320522],[23.305919,43.325762],[23.296591,43.334437],[23.290096,43.343026],[23.282775,43.350926],[23.273446,43.353416],[23.262937,43.352729],[23.254081,43.351355],[23.244398,43.351012],[23.234007,43.351784],[23.210036,43.35479],[23.199763,43.356249],[23.180515,43.360199],[23.171068,43.363375],[23.158434,43.366809],[23.13716,43.371698],[23.119249,43.374665],[23.115621,43.379883],[23.113279,43.385211],[23.112344,43.389805],[23.097953,43.386587],[23.089281,43.385112],[23.077657,43.384576],[23.064558,43.383101],[23.05441,43.378675],[23.04869,43.372909],[23.039465,43.364191],[23.032638,43.357081],[23.026734,43.346348],[23.020276,43.336284],[23.017693,43.330647],[23.017509,43.324071],[23.021383,43.314674],[23.026365,43.297623],[23.025627,43.288088],[23.021014,43.284059],[23.013081,43.279089],[23.008099,43.273984],[23.005147,43.265118],[23.003671,43.248993],[23.004594,43.238913],[23.010682,43.219555],[23.013634,43.211621],[23.014252,43.206471]]]}},
{"type":"Feature","id":"BGR:ADM2:BG-12.varshets","properties":{"shapeName":"Varshets","shapeISO":"","shapeGroup":"BGR","shapeType":"ADM2","adm1ISO":"BG-12","parentISO":"BG-12","parentID":"BGR:ADM1:BG-12","src_shape_id":"11073933B690803490701"},"geometry":{"type":"Polygon","coordinates":[[[23.209578,43.117552],[23.225815,43.119303],[23.237254,43.121593],[23.250907,43.125902],[23.264745,43.127922],[23.287624,43.129942],[23.306997,43.130615],[23.314008,43.133039],[23.320835,43.138828],[23.324894,43.147309],[23.333381,43.162115],[23.337993,43.166691],[23.346112,43.17019],[23.35327,43.171374],[23.364724,43.17034],[23.374407,43.168273],[23.382909,43.167154],[23.405312,43.168049],[23.404637,43.172235],[23.39885,43.178952],[23.394599,43.189456],[23.392946,43.195913],[23.393891,43.204004],[23.397552,43.212181],[23.40133,43.215193],[23.407352,43.218205],[23.433921,43.220012],[23.441006,43.224572],[23.444785,43.229476],[23.445611,43.236359],[23.444903,43.242897],[23.443604,43.247714],[23.439943,43.252616],[23.434039,43.258894],[23.425301,43.264828],[23.418134,43.268029],[23.416445,43.268783],[23.408297,43.270158],[23.394836,43.271362],[23.377596,43.273684],[23.353389,43.277724],[23.33237,43.285375],[23.320325,43.293111],[23.314855,43.298215],[23.300724,43.289587],[23.296827,43.287696],[23.288561,43.285547],[23.26707,43.278584],[23.245225,43.271104],[23.240265,43.267407],[23.231645,43.26027],[23.226804,43.256744],[23.223733,43.250896],[23.224088,43.245563],[23.230464,43.239972],[23.237785,43.236617],[23.242745,43.233176],[23.243099,43.229218],[23.237195,43.222593],[23.229519,43.215709],[23.218803,43.205166],[23.212161,43.197903],[23.204228,43.187949],[23.198139,43.181357],[23.19408,43.175303],[23.189467,43.165345],[23.186515,43.15727],[23.186515,43.145829],[23.186884,43.139501],[23.190021,43.134116],[23.193711,43.129134],[23.202752,43.120111],[23.209578,43.117552]]]}},
{"type":"Feature","id":"BGR:ADM2:BG-12.montana","properties":{"shapeName":"Montana","shapeISO":"","shapeGroup":"BGR","shapeType":"ADM2","adm1ISO":"BG-12","parentISO":"BG-12","parentID":"BGR:ADM1:BG-12","src_shape_id":"11073933B41130432899827"},"geometry":{"type":"Polygon","coordinates":[[[22.846289,43.505279],[22.852377,43.501524],[22.868614,43.499115],[22.891123,43.498446],[22.896474,43.495769],[22.897765,43.489478],[22.899795,43.485328],[22.9033,43.482784],[22.915478,43.481178],[22.928024,43.481312],[22.938356,43.479437],[22.959574,43.474082],[22.969907,43.471806],[22.980792,43.47127],[22.984226,43.470373],[22.984379,43.472732],[22.99052,43.48687],[22.994999,43.49617],[23.001826,43.500988],[23.009391,43.503799],[23.017693,43.505539],[23.026365,43.505539],[23.032823,43.502862],[23.036882,43.495099],[23.039465,43.485997],[23.042048,43.479437],[23.047768,43.472341],[23.059391,43.46337],[23.088174,43.442341],[23.103673,43.432159],[23.115665,43.426666],[23.123784,43.424388],[23.133193,43.420903],[23.139835,43.419697],[23.144633,43.417419],[23.144817,43.414068],[23.14205,43.410718],[23.133009,43.404686],[23.122861,43.398385],[23.112344,43.389805],[23.113279,43.385211],[23.115621,43.379883],[23.119249,43.374665],[23.13716,43.371698],[23.158434,43.366809],[23.171068,43.363375],[23.180515,43.360199],[23.199763,43.356249],[23.210036,43.35479],[23.234007,43.351784],[23.244398,43.351012],[23.254081,43.351355],[23.262937,43.352729],[23.273446,43.353416],[23.282775,43.350926],[23.290096,43.343026],[23.296591,43.334437],[23.305919,43.325762],[23.314421,43.320522],[23.322451,43.31425],[23.336621,43.32181],[23.346067,43.328511],[23.353625,43.334953],[23.367322,43.347663],[23.374053,43.355219],[23.383854,43.363718],[23.396843,43.383718],[23.398732,43.391012],[23.400858,43.39719],[23.401279,43.408439],[23.401463,43.428169],[23.385411,43.428675],[23.376924,43.429881],[23.352385,43.435241],[23.329691,43.443011],[23.31696,43.448503],[23.300724,43.456004],[23.283934,43.462968],[23.274339,43.467253],[23.260871,43.472208],[23.247771,43.475956],[23.233195,43.479437],[23.224708,43.480776],[23.224523,43.485328],[23.227844,43.488541],[23.23504,43.492155],[23.242605,43.493895],[23.260132,43.49443],[23.268989,43.495099],[23.286148,43.499249],[23.297956,43.50313],[23.304783,43.508349],[23.314421,43.516934],[23.320561,43.52327],[23.323277,43.529435],[23.324576,43.553744],[23.323711,43.564506],[23.315668,43.564258],[23.298509,43.564258],[23.282827,43.562921],[23.265852,43.560782],[23.244819,43.555835],[23.231165,43.553963],[23.219541,43.555033],[23.214006,43.557841],[23.20884,43.562787],[23.200906,43.565461],[23.192788,43.567734],[23.177843,43.577626],[23.168987,43.575354],[23.16253,43.57121],[23.15478,43.562253],[23.149614,43.559445],[23.136699,43.557707],[23.126367,43.559178],[23.119171,43.561718],[23.107178,43.569472],[23.098506,43.574284],[23.089835,43.578294],[23.079318,43.583774],[23.071384,43.588852],[23.062713,43.59206],[23.054594,43.594064],[23.04869,43.594465],[23.041863,43.597004],[23.02452,43.592594],[23.000165,43.586581],[22.974888,43.580834],[22.957729,43.574685],[22.946475,43.569606],[22.938541,43.567734],[22.928209,43.568803],[22.923412,43.570942],[22.92009,43.574242],[22.91173,43.573407],[22.900199,43.570483],[22.890685,43.566305],[22.883766,43.558158],[22.878289,43.549174],[22.872235,43.537263],[22.86964,43.528694],[22.864451,43.521169],[22.854361,43.511761],[22.846289,43.505279]]]}},
{"type":"Feature","id":"BGR:ADM2:BG-12.boychinovtsi","properties":{"shapeName":"Boychinovtsi","shapeISO":"","shapeGroup":"BGR","shapeType":"ADM2","adm1ISO":"BG-12","parentISO":"BG-12","parentID":"BGR:ADM1:BG-12","src_shape_id":"11073933B79954965382683"},"geometry":{"type":"Polygon","coordinates":[[[23.323711,43.564506],[23.324576,43.553744],[23.323277,43.529435],[23.320561,43.52327],[23.314421,43.516934],[23.304783,43.508349],[23.297956,43.50313],[23.286148,43.499249],[23.268989,43.495099],[23.260132,43.49443],[23.242605,43.493895],[23.23504,43.492155],[23.227844,43.488541],[23.224523,43.485328],[23.224708,43.480776],[23.233195,43.479437],[23.247771,43.475956],[23.260871,43.472208],[23.274339,43.467253],[23.283934,43.462968],[23.300724,43.456004],[23.31696,43.448503],[23.329691,43.443011],[23.352385,43.435241],[23.376924,43.429881],[23.385411,43.428675],[23.401463,43.428169],[23.401832,43.45587],[23.407552,43.47127],[23.415485,43.483855],[23.423604,43.498178],[23.430799,43.504736],[23.435781,43.508349],[23.442054,43.509955],[23.452202,43.509955],[23.461058,43.50875],[23.483937,43.504334],[23.502203,43.501524],[23.517516,43.500855],[23.537258,43.501256],[23.548329,43.504869],[23.557,43.511293],[23.562905,43.516912],[23.572314,43.523602],[23.578588,43.527214],[23.592425,43.527481],[23.600728,43.52601],[23.610322,43.527883],[23.616124,43.528316],[23.61506,43.532945],[23.611282,43.541676],[23.60833,43.547068],[23.584359,43.563499],[23.57444,43.56906],[23.560388,43.576503],[23.55224,43.581807],[23.547989,43.587024],[23.544081,43.594196],[23.539657,43.592193],[23.527111,43.589788],[23.512904,43.589654],[23.501834,43.589788],[23.488734,43.590723],[23.481354,43.592861],[23.47508,43.597538],[23.471759,43.602616],[23.466778,43.609028],[23.461796,43.61357],[23.453862,43.619181],[23.447036,43.62292],[23.432091,43.628396],[23.429047,43.628825],[23.42877,43.626259],[23.409212,43.614906],[23.392053,43.602081],[23.387625,43.596737],[23.385411,43.591392],[23.381168,43.588184],[23.374525,43.585912],[23.363455,43.584977],[23.352938,43.582972],[23.345374,43.578562],[23.3391,43.573081],[23.330798,43.567199],[23.323711,43.564506]]]}}
]}