{"type":"FeatureCollection","bbox":[22.357492,42.017331,23.518212,42.639225],"features":[
{"type":"Feature","id":"BGR:ADM2:BG-10.treklyano","properties":{"shapeName":"Treklyano","shapeISO":"","shapeGroup":"BGR","shapeType":"ADM2","adm1ISO":"BG-10","parentISO":"BG-10","parentID":"BGR:ADM1:BG-10","src_shape_id":"11073933B38243230659065"},"geometry":{"type":"Polygon","coordinates":[[[22.642835,42.553613],[22.63284,42.555345],[22.624175,42.558377],[22.617026,42.561728],[22.611177,42.568589],[22.607711,42.586614],[22.606411,42.597299],[22.601212,42.606867],[22.597529,42.611969],[22.590597,42.61723],[22.581282,42.621853],[22.562435,42.623287],[22.525175,42.624403],[22.510661,42.6252],[22.49788,42.629025],[22.490081,42.633169],[22.476867,42.637791],[22.463219,42.639225],[22.455848,42.638683],[22.455983,42.629244],[22.449513,42.616151],[22.443043,42.605173],[22.441245,42.598558],[22.440347,42.590223],[22.440706,42.582548],[22.446098,42.568916],[22.453107,42.562959],[22.46443,42.555149],[22.475933,42.550515],[22.484919,42.544292],[22.50361,42.531843],[22.513495,42.524824],[22.532367,42.509987],[22.552316,42.490111],[22.555911,42.481363],[22.555731,42.472614],[22.553216,42.469275],[22.562652,42.469275],[22.571101,42.469914],[22.579332,42.470074],[22.585831,42.468796],[22.587781,42.464801],[22.586048,42.453773],[22.589297,42.442584],[22.59558,42.438267],[22.609227,42.43523],[22.628074,42.433151],[22.654286,42.432991],[22.66945,42.43475],[22.683098,42.440505],[22.69068,42.458408],[22.69328,42.462404],[22.701945,42.464641],[22.706711,42.46512],[22.709094,42.471672],[22.710177,42.478063],[22.708877,42.487968],[22.704545,42.496275],[22.700862,42.500587],[22.686131,42.50953],[22.67075,42.517994],[22.657752,42.526296],[22.642805,42.544014],[22.641938,42.551994],[22.642835,42.553613]]]}},
{"type":"Feature","id":"BGR:ADM2:BG-10.kyustendil","properties":{"shapeName":"Kyustendil","shapeISO":"","shapeGroup":"BGR","shapeType":"ADM2","adm1ISO":"BG-10","parentISO":"BG-10","parentID":"BGR:ADM1:BG-10","src_shape_id":"11073933B74813799456856"},"geometry":{"type":"Polygon","coordinates":[[[22.553216,42.469275],[22.549261,42.464527],[22.542252,42.455246],[22.534703,42.441586],[22.527155,42.426464],[22.521583,42.408419],[22.518887,42.400324],[22.513855,42.394351],[22.503431,42.391962],[22.485997,42.390103],[22.479707,42.387449],[22.465329,42.373641],[22.457061,42.3593],[22.45814,42.34469],[22.457421,42.338712],[22.450411,42.32981],[22.437291,42.325957],[22.417162,42.324628],[22.394157,42.325027],[22.381935,42.323565],[22.373129,42.319977],[22.363064,42.317851],[22.357492,42.312003],[22.360009,42.306952],[22.367377,42.30137],[22.382295,42.291266],[22.401526,42.274911],[22.413927,42.267198],[22.430462,42.250038],[22.436213,42.24312],[22.446457,42.232209],[22.456881,42.215173],[22.465149,42.204124],[22.472877,42.198266],[22.486177,42.195603],[22.496781,42.19041],[22.501993,42.184284],[22.504509,42.16577],[22.507744,42.155245],[22.513855,42.147783],[22.521943,42.140987],[22.540275,42.127792],[22.553395,42.12126],[22.573165,42.110728],[22.587004,42.104595],[22.598327,42.099127],[22.616938,42.091275],[22.623955,42.098189],[22.634682,42.106031],[22.646828,42.118084],[22.661183,42.118318],[22.672067,42.120892],[22.676484,42.12838],[22.678535,42.137739],[22.683109,42.144874],[22.68863,42.148031],[22.700777,42.155633],[22.706613,42.163],[22.708033,42.176445],[22.70898,42.182757],[22.716709,42.197601],[22.721915,42.205313],[22.735323,42.214427],[22.743052,42.220034],[22.754568,42.224006],[22.782331,42.23919],[22.814353,42.255655],[22.844483,42.276784],[22.86357,42.294872],[22.870037,42.30339],[22.874296,42.313539],[22.878713,42.315755],[22.891017,42.316338],[22.891648,42.32112],[22.888336,42.328818],[22.884372,42.336609],[22.87895,42.34335],[22.874267,42.355737],[22.868598,42.359744],[22.862189,42.359561],[22.855535,42.356647],[22.845183,42.357194],[22.836802,42.361018],[22.831626,42.367028],[22.829655,42.376861],[22.825711,42.379775],[22.814619,42.383598],[22.803035,42.388513],[22.795148,42.395249],[22.791451,42.401619],[22.791944,42.407625],[22.781345,42.407625],[22.767789,42.409081],[22.756697,42.412721],[22.745606,42.419999],[22.73624,42.427823],[22.726689,42.43411],[22.721297,42.443774],[22.717446,42.451447],[22.71321,42.457698],[22.706711,42.46512],[22.701945,42.464641],[22.69328,42.462404],[22.69068,42.458408],[22.683098,42.440505],[22.66945,42.43475],[22.654286,42.432991],[22.628074,42.433151],[22.609227,42.43523],[22.59558,42.438267],[22.589297,42.442584],[22.586048,42.453773],[22.587781,42.464801],[22.585831,42.468796],[22.579332,42.470074],[22.571101,42.469914],[22.562652,42.469275],[22.553216,42.469275]]]}},
{"type":"Feature","id":"BGR:ADM2:BG-10.nevestino","properties":{"shapeName":"Nevestino","shapeISO":"","shapeGroup":"BGR","shapeType":"ADM2","adm1ISO":"BG-10","parentISO":"BG-10","parentID":"BGR:ADM1:BG-10","src_shape_id":"11073933B55627339304510"},"geometry":{"type":"Polygon","coordinates":[[[22.616938,42.091275],[22.623668,42.088591],[22.63553,42.081789],[22.644876,42.075919],[22.652784,42.070583],[22.666803,42.065246],[22.678125,42.06151],[22.71425,42.059375],[22.726112,42.056039],[22.733481,42.048966],[22.746961,42.04256],[22.761878,42.037754],[22.777335,42.035218],[22.789017,42.034417],[22.801777,42.034684],[22.810225,42.031614],[22.819391,42.026941],[22.835027,42.022001],[22.849585,42.021601],[22.862345,42.022268],[22.872763,42.017331],[22.896854,42.023821],[22.902375,42.027102],[22.906161,42.032492],[22.911682,42.044911],[22.91184,42.051002],[22.912786,42.060255],[22.912471,42.069975],[22.905214,42.070326],[22.893699,42.070443],[22.883603,42.071263],[22.875716,42.075947],[22.873665,42.080044],[22.874454,42.086484],[22.877925,42.091751],[22.879502,42.097019],[22.89086,42.117733],[22.893068,42.125689],[22.894803,42.142534],[22.896696,42.151189],[22.901113,42.158439],[22.910735,42.167092],[22.914521,42.171184],[22.914679,42.176796],[22.915626,42.182056],[22.922093,42.188602],[22.926352,42.195965],[22.933135,42.201457],[22.937237,42.206598],[22.93629,42.209286],[22.930611,42.209753],[22.92509,42.212207],[22.922566,42.217931],[22.923986,42.234168],[22.926352,42.242577],[22.929665,42.252269],[22.930769,42.262309],[22.930769,42.270014],[22.926668,42.279468],[22.916572,42.289621],[22.908212,42.295222],[22.904268,42.301289],[22.901586,42.308523],[22.897958,42.313189],[22.891017,42.316338],[22.878713,42.315755],[22.874296,42.313539],[22.870037,42.30339],[22.86357,42.294872],[22.844483,42.276784],[22.814353,42.255655],[22.782331,42.23919],[22.754568,42.224006],[22.743052,42.220034],[22.735323,42.214427],[22.721915,42.205313],[22.716709,42.197601],[22.70898,42.182757],[22.708033,42.176445],[22.706613,42.163],[22.700777,42.155633],[22.68863,42.148031],[22.683109,42.144874],[22.678535,42.137739],[22.676484,42.12838],[22.672067,42.120892],[22.661183,42.118318],[22.646828,42.118084],[22.634682,42.106031],[22.623955,42.098189],[22.616938,42.091275]]]}},
{"type":"Feature","id":"BGR:ADM2:BG-10.bobov-dol","properties":{"shapeName":"Bobov Dol","shapeISO":"","shapeGroup":"BGR","shapeType":"ADM2","adm1ISO":"BG-10","parentISO":"BG-10","parentID":"BGR:ADM1:BG-10","src_shape_id":"11073933B90053572352493"},"geometry":{"type":"Polygon","coordinates":[[[22.891017,42.316338],[22.897958,42.313189],[22.901586,42.308523],[22.904268,42.301289],[22.908212,42.295222],[22.916572,42.289621],[22.926668,42.279468],[22.930769,42.270014],[22.930769,42.262309],[22.929665,42.252269],[22.926352,42.242577],[22.923986,42.234168],[22.922566,42.217931],[22.92509,42.212207],[22.930611,42.209753],[22.93629,42.209286],[22.945052,42.210871],[22.952696,42.215712],[22.970521,42.221319],[22.992763,42.229496],[23.006014,42.233818],[23.005698,42.244095],[23.005698,42.25904],[23.006014,42.26301],[23.015951,42.26803],[23.025101,42.268847],[23.041033,42.266862],[23.054283,42.266162],[23.068165,42.269664],[23.077788,42.2762],[23.078892,42.28402],[23.076526,42.291138],[23.069585,42.303506],[23.049867,42.330217],[23.03567,42.352137],[23.033934,42.358549],[23.032414,42.3769],[23.029054,42.378318],[23.026096,42.386329],[23.022646,42.393974],[23.018456,42.398525],[23.006132,42.402165],[22.994547,42.402893],[22.980745,42.400709],[22.972118,42.397797],[22.963491,42.395249],[22.952893,42.391608],[22.925041,42.380867],[22.918386,42.377772],[22.91814,42.373402],[22.920604,42.369031],[22.920358,42.364297],[22.911485,42.362475],[22.898668,42.364479],[22.888562,42.367939],[22.874513,42.367575],[22.869337,42.36375],[22.868598,42.359744],[22.874267,42.355737],[22.87895,42.34335],[22.884372,42.336609],[22.888336,42.328818],[22.891648,42.32112],[22.891017,42.316338]]]}},
{"type":"Feature","id":"BGR:ADM2:BG-10.dupnitsa","properties":{"shapeName":"Dupnitsa","shapeISO":"","shapeGroup":"BGR","shapeType":"ADM2","adm1ISO":"BG-10","parentISO":"BG-10","parentID":"BGR:ADM1:BG-10","src_shape_id":"11073933B59207772718756"},"geometry":{"type":"Polygon","coordinates":[[[23.032414,42.3769],[23.033934,42.358549],[23.03567,42.352137],[23.049867,42.330217],[23.069585,42.303506],[23.076526,42.291138],[23.078892,42.28402],[23.077788,42.2762],[23.068165,42.269664],[23.054283,42.266162],[23.041033,42.266862],[23.025101,42.268847],[23.015951,42.26803],[23.006014,42.26301],[23.005698,42.25904],[23.005698,42.244095],[23.006014,42.233818],[23.018475,42.234285],[23.028571,42.23335],[23.034092,42.229379],[23.032988,42.223305],[23.031253,42.216646],[23.041191,42.209052],[23.052075,42.204729],[23.063117,42.197484],[23.069427,42.191173],[23.087883,42.188602],[23.103342,42.188718],[23.123534,42.193043],[23.138519,42.193744],[23.158237,42.18942],[23.160971,42.188494],[23.16928,42.185679],[23.18395,42.18264],[23.19515,42.179017],[23.209505,42.178432],[23.224333,42.181939],[23.239003,42.183692],[23.253989,42.183576],[23.268501,42.180419],[23.288693,42.179835],[23.300366,42.182991],[23.314247,42.185563],[23.32384,42.193788],[23.313488,42.19817],[23.305354,42.203283],[23.287115,42.211864],[23.252608,42.225189],[23.23289,42.232307],[23.218348,42.238876],[23.207257,42.24508],[23.193947,42.254203],[23.177187,42.266789],[23.170039,42.277185],[23.169546,42.283203],[23.17275,42.291773],[23.178665,42.296878],[23.188278,42.300706],[23.201095,42.303258],[23.20775,42.305993],[23.22032,42.307815],[23.2287,42.310367],[23.238806,42.318751],[23.24201,42.324036],[23.245214,42.33752],[23.245707,42.347175],[23.248911,42.355554],[23.255083,42.363842],[23.249651,42.364661],[23.236341,42.367392],[23.22801,42.370524],[23.223031,42.366846],[23.217116,42.364661],[23.199862,42.362293],[23.185813,42.363204],[23.168806,42.365753],[23.156729,42.368121],[23.13775,42.372491],[23.124687,42.3785],[23.119758,42.384872],[23.117046,42.391426],[23.113103,42.397251],[23.106941,42.400709],[23.0993,42.399617],[23.095849,42.394885],[23.093138,42.388513],[23.088701,42.381959],[23.081554,42.377408],[23.064793,42.376315],[23.048526,42.376497],[23.03423,42.376133],[23.032414,42.3769]]]}},
{"type":"Feature","id":"BGR:ADM2:BG-10.sapareva-banya","properties":{"shapeName":"Sapareva Banya","shapeISO":"","shapeGroup":"BGR","shapeType":"ADM2","adm1ISO":"BG-10","parentISO":"BG-10","parentID":"BGR:ADM1:BG-10","src_shape_id":"11073933B80122271510723"},"geometry":{"type":"Polygon","coordinates":[[[23.32384,42.193788],[23.329263,42.205291],[23.337889,42.21734],[23.34627,42.226831],[23.361551,42.236686],[23.376586,42.246175],[23.386199,42.249641],[23.396304,42.251284],[23.40567,42.253473],[23.407642,42.260952],[23.403945,42.269708],[23.400002,42.274632],[23.392854,42.281379],[23.382009,42.284115],[23.368945,42.28612],[23.357115,42.294143],[23.348981,42.302529],[23.34134,42.315653],[23.334439,42.334787],[23.333453,42.350454],[23.327537,42.356465],[23.315707,42.361929],[23.296235,42.365025],[23.279721,42.36284],[23.261728,42.36284],[23.255083,42.363842],[23.248911,42.355554],[23.245707,42.347175],[23.245214,42.33752],[23.24201,42.324036],[23.238806,42.318751],[23.2287,42.310367],[23.22032,42.307815],[23.20775,42.305993],[23.201095,42.303258],[23.188278,42.300706],[23.178665,42.296878],[23.17275,42.291773],[23.169546,42.283203],[23.170039,42.277185],[23.177187,42.266789],[23.193947,42.254203],[23.207257,42.24508],[23.218348,42.238876],[23.23289,42.232307],[23.252608,42.225189],[23.287115,42.211864],[23.305354,42.203283],[23.313488,42.19817],[23.32384,42.193788]]]}},
{"type":"Feature","id":"BGR:ADM2:BG-10.boboshevo","properties":{"shapeName":"Boboshevo","shapeISO":"","shapeGroup":"BGR","shapeType":"ADM2","adm1ISO":"BG-10","parentISO":"BG-10","parentID":"BGR:ADM1:BG-10","src_shape_id":"11073933B79499040357132"},"geometry":{"type":"Polygon","coordinates":[[[22.914521,42.171184],[22.928207,42.170707],[22.941736,42.167789],[22.962634,42.151774],[22.971417,42.142417],[22.978888,42.134856],[22.985652,42.128492],[22.995949,42.123326],[23.006146,42.121154],[23.019775,42.122652],[23.027549,42.130065],[23.03189,42.135305],[23.04138,42.139348],[23.057634,42.141369],[23.070531,42.142183],[23.073844,42.147213],[23.079523,42.152592],[23.094666,42.159843],[23.124322,42.164871],[23.148457,42.171769],[23.158237,42.178549],[23.160971,42.188494],[23.158237,42.18942],[23.138519,42.193744],[23.123534,42.193043],[23.103342,42.188718],[23.087883,42.188602],[23.069427,42.191173],[23.063117,42.197484],[23.052075,42.204729],[23.041191,42.209052],[23.031253,42.216646],[23.032988,42.223305],[23.034092,42.229379],[23.028571,42.23335],[23.018475,42.234285],[23.006014,42.233818],[22.992763,42.229496],[22.970521,42.221319],[22.952696,42.215712],[22.945052,42.210871],[22.93629,42.209286],[22.937237,42.206598],[22.933135,42.201457],[22.926352,42.195965],[22.922093,42.188602],[22.915626,42.182056],[22.914679,42.176796],[22.914521,42.171184]]]}},
{"type":"Feature","id":"BGR:ADM2:BG-10.rila","properties":{"shapeName":"Rila","shapeISO":"","shapeGroup":"BGR","shapeType":"ADM2","adm1ISO":"BG-10","parentISO":"BG-10","parentID":"BGR:ADM1:BG-10","src_shape_id":"11073933B9064775021717"},"geometry":{"type":"Polygon","coordinates":[[[23.443874,42.05833],[23.453733,42.063637],[23.467536,42.072968],[23.478135,42.077542],[23.479121,42.086871],[23.488713,42.093507],[23.497074,42.098657],[23.508589,42.101232],[23.518212,42.117967],[23.517581,42.123934],[23.511113,42.130252],[23.495496,42.138674],[23.480353,42.143119],[23.466629,42.149552],[23.461108,42.156919],[23.45748,42.165689],[23.45606,42.180186],[23.448331,42.185913],[23.434134,42.188602],[23.417255,42.187082],[23.391385,42.180653],[23.359362,42.17586],[23.337751,42.181238],[23.329075,42.186498],[23.32384,42.193788],[23.314247,42.185563],[23.300366,42.182991],[23.288693,42.179835],[23.268501,42.180419],[23.253989,42.183576],[23.239003,42.183692],[23.224333,42.181939],[23.209505,42.178432],[23.19515,42.179017],[23.18395,42.18264],[23.16928,42.185679],[23.160971,42.188494],[23.158237,42.178549],[23.148457,42.171769],[23.124322,42.164871],[23.094666,42.159843],[23.079523,42.152592],[23.073844,42.147213],[23.070531,42.142183],[23.070058,42.135633],[23.068796,42.129082],[23.070216,42.121711],[23.078892,42.116095],[23.092616,42.113052],[23.115331,42.109659],[23.140097,42.106382],[23.162497,42.101701],[23.176623,42.098556],[23.203353,42.097838],[23.239161,42.096316],[23.279228,42.0914],[23.334754,42.079459],[23.383655,42.065759],[23.404162,42.057678],[23.415046,42.053813],[23.42388,42.053813],[23.432398,42.057795],[23.439812,42.059084],[23.443874,42.05833]]]}},
{"type":"Feature","id":"BGR:ADM2:BG-10.kocherinovo","properties":{"shapeName":"Kocherinovo","shapeISO":"","shapeGroup":"BGR","shapeType":"ADM2","adm1ISO":"BG-10","parentISO":"BG-10","parentID":"BGR:ADM1:BG-10","src_shape_id":"11073933B31543272666548"},"geometry":{"type":"Polygon","coordinates":[[[22.912471,42.069975],[22.915783,42.080092],[22.919634,42.088952],[22.924255,42.095811],[22.930802,42.099811],[22.93812,42.100669],[22.948518,42.098383],[22.952754,42.092381],[22.956605,42.084093],[22.959301,42.077233],[22.963152,42.072373],[22.97047,42.067799],[22.983179,42.065798],[23.001664,42.066084],[23.014758,42.065798],[23.025927,42.063225],[23.029778,42.059222],[23.034014,42.050357],[23.040947,42.047212],[23.052864,42.046902],[23.069112,42.048542],[23.093404,42.054399],[23.117066,42.059786],[23.137731,42.068101],[23.152085,42.077469],[23.17417,42.094795],[23.176623,42.098556],[23.162497,42.101701],[23.140097,42.106382],[23.115331,42.109659],[23.092616,42.113052],[23.078892,42.116095],[23.070216,42.121711],[23.068796,42.129082],[23.070058,42.135633],[23.070531,42.142183],[23.057634,42.141369],[23.04138,42.139348],[23.03189,42.135305],[23.027549,42.130065],[23.019775,42.122652],[23.006146,42.121154],[22.995949,42.123326],[22.985652,42.128492],[22.978888,42.134856],[22.971417,42.142417],[22.962634,42.151774],[22.941736,42.167789],[22.928207,42.170707],[22.914521,42.171184],[22.910735,42.167092],[22.901113,42.158439],[22.896696,42.151189],[22.894803,42.142534],[22.893068,42.125689],[22.89086,42.117733],[22.879502,42.097019],[22.877925,42.091751],[22.874454,42.086484],[22.873665,42.080044],[22.875716,42.075947],[22.883603,42.071263],[22.893699,42.070443],[22.905214,42.070326],[22.912471,42.069975]]]}}
]}