{"type":"FeatureCollection","bbox":[23.760035,41.676366,24.517773,42.62654],"features":[
{"type":"Feature","id":"BGR:ADM2:BG-13.velingrad","properties":{"shapeName":"Velingrad","shapeISO":"","shapeGroup":"BGR","shapeType":"ADM2","adm1ISO":"BG-13","parentISO":"BG-13","parentID":"BGR:ADM1:BG-13","src_shape_id":"11073933B77595570161149"},"geometry":{"type":"Polygon","coordinates":[[[23.803573,42.090698],[23.80373,42.084025],[23.801522,42.074541],[23.798998,42.061777],[23.800891,42.053462],[23.809725,42.046199],[23.827234,42.043856],[23.830389,42.037999],[23.825341,42.033312],[23.818558,42.029094],[23.782908,41.999677],[23.773128,41.988891],[23.767291,41.977869],[23.763555,41.972445],[23.76528,41.959433],[23.768731,41.943485],[23.774153,41.929],[23.778343,41.920198],[23.784259,41.903323],[23.793378,41.879838],[23.798554,41.861667],[23.79954,41.849918],[23.809153,41.845879],[23.819012,41.83835],[23.827392,41.833392],[23.833307,41.828433],[23.833989,41.825894],[23.850807,41.821638],[23.864857,41.817045],[23.880385,41.81429],[23.896406,41.809146],[23.918342,41.798673],[23.946687,41.782686],[23.976757,41.763752],[23.98982,41.752904],[24.001898,41.739664],[24.005095,41.735559],[24.008059,41.731755],[24.032461,41.712806],[24.052425,41.694773],[24.068939,41.682441],[24.078552,41.678943],[24.091122,41.676366],[24.09334,41.683913],[24.096298,41.687963],[24.099995,41.694221],[24.103692,41.698822],[24.108868,41.704158],[24.113305,41.710967],[24.11577,41.718326],[24.117988,41.72826],[24.118235,41.734146],[24.106916,41.737486],[24.098556,41.743136],[24.085936,41.749138],[24.069846,41.760318],[24.054545,41.775613],[24.044449,41.790198],[24.033092,41.794785],[24.015109,41.802782],[24.001227,41.818184],[24.000596,41.833348],[24.001858,41.841105],[24.008641,41.849801],[24.017633,41.866719],[24.023154,41.881989],[24.027255,41.895024],[24.02408,41.905891],[24.020876,41.919281],[24.019644,41.930101],[24.023834,41.949168],[24.030489,41.964748],[24.040101,41.977392],[24.046756,41.986553],[24.053411,41.993881],[24.061791,42.002307],[24.075348,42.012563],[24.082988,42.018789],[24.084221,42.025564],[24.072636,42.043505],[24.069679,42.059428],[24.0682,42.07187],[24.068446,42.084493],[24.071157,42.093822],[24.074115,42.105526],[24.082249,42.130208],[24.086875,42.136268],[24.07521,42.14464],[24.059908,42.150253],[24.049497,42.153177],[24.042073,42.150495],[24.005348,42.132767],[23.965419,42.11668],[23.945701,42.109732],[23.918588,42.102966],[23.908236,42.100772],[23.89123,42.098211],[23.87299,42.097297],[23.845138,42.095285],[23.823202,42.091627],[23.803573,42.090698]]]}},
{"type":"Feature","id":"BGR:ADM2:BG-13.batak","properties":{"shapeName":"Batak","shapeISO":"","shapeGroup":"BGR","shapeType":"ADM2","adm1ISO":"BG-13","parentISO":"BG-13","parentID":"BGR:ADM1:BG-13","src_shape_id":"11073933B78140719028453"},"geometry":{"type":"Polygon","coordinates":[[[24.118235,41.734146],[24.131544,41.734882],[24.150276,41.738928],[24.160382,41.740399],[24.177635,41.744629],[24.197354,41.746284],[24.208445,41.7461],[24.219536,41.740215],[24.22841,41.740215],[24.241473,41.738928],[24.258233,41.738744],[24.272775,41.739112],[24.283374,41.743158],[24.29274,41.744997],[24.301367,41.75033],[24.311226,41.751433],[24.318374,41.755662],[24.327,41.758604],[24.325521,41.762281],[24.321578,41.768532],[24.319113,41.773863],[24.315909,41.782134],[24.312951,41.791507],[24.313937,41.804553],[24.317388,41.815208],[24.320838,41.823474],[24.32774,41.83431],[24.331437,41.839452],[24.340803,41.849367],[24.34869,41.855059],[24.362986,41.856895],[24.371859,41.857445],[24.384183,41.862218],[24.392317,41.867908],[24.402669,41.881306],[24.405685,41.888213],[24.407495,41.896044],[24.385179,41.895963],[24.362937,41.898311],[24.331861,41.911578],[24.302993,41.921086],[24.295264,41.92578],[24.29416,41.93247],[24.293055,41.945846],[24.290374,41.960863],[24.285641,41.969659],[24.281884,41.972613],[24.28012,41.973999],[24.269078,41.975992],[24.256616,41.979628],[24.243366,41.985139],[24.232797,41.991822],[24.220808,42.000615],[24.207084,42.014915],[24.198617,42.018606],[24.188989,42.008592],[24.179746,41.999434],[24.172814,41.989416],[24.165882,41.977679],[24.155868,41.957634],[24.148166,41.939016],[24.142389,41.930422],[24.133531,41.924405],[24.123518,41.922972],[24.099641,41.920679],[24.094249,41.917241],[24.086932,41.909789],[24.085392,41.902337],[24.080385,41.896317],[24.068269,41.894084],[24.056438,41.894084],[24.044607,41.896785],[24.035142,41.897724],[24.027255,41.895024],[24.023154,41.881989],[24.017633,41.866719],[24.008641,41.849801],[24.001858,41.841105],[24.000596,41.833348],[24.001227,41.818184],[24.015109,41.802782],[24.033092,41.794785],[24.044449,41.790198],[24.054545,41.775613],[24.069846,41.760318],[24.085936,41.749138],[24.098556,41.743136],[24.106916,41.737486],[24.118235,41.734146]]]}},
{"type":"Feature","id":"BGR:ADM2:BG-13.panagyurishte","properties":{"shapeName":"Panagyurishte","shapeISO":"","shapeGroup":"BGR","shapeType":"ADM2","adm1ISO":"BG-13","parentISO":"BG-13","parentID":"BGR:ADM1:BG-13","src_shape_id":"11073933B68733286345335"},"geometry":{"type":"Polygon","coordinates":[[[24.15282,42.620092],[24.141462,42.617486],[24.132156,42.612378],[24.130205,42.601889],[24.128054,42.582186],[24.123164,42.571151],[24.116854,42.56755],[24.105339,42.567318],[24.089722,42.571732],[24.076945,42.571616],[24.069215,42.566853],[24.063221,42.562206],[24.049702,42.550042],[24.048708,42.549191],[24.039401,42.54861],[24.0241,42.550354],[24.013373,42.554537],[23.996179,42.563948],[23.987188,42.568479],[23.972675,42.571268],[23.967127,42.571268],[23.962895,42.571268],[23.95343,42.569873],[23.941757,42.567085],[23.923774,42.566969],[23.913521,42.566388],[23.90027,42.558604],[23.897115,42.55535],[23.898624,42.543424],[23.898624,42.535615],[23.903553,42.527987],[23.911441,42.51309],[23.91637,42.505459],[23.923518,42.495646],[23.93387,42.484923],[23.94644,42.472562],[23.960736,42.464017],[23.976264,42.456925],[23.987602,42.452561],[24.001405,42.451288],[24.021862,42.452197],[24.0332,42.457471],[24.038376,42.46038],[24.04996,42.461653],[24.058834,42.460744],[24.072143,42.455288],[24.074093,42.454221],[24.079784,42.451106],[24.095066,42.445468],[24.117742,42.43419],[24.137953,42.42291],[24.152248,42.412357],[24.16679,42.402711],[24.177142,42.391972],[24.183058,42.383416],[24.190206,42.370852],[24.196368,42.36375],[24.206473,42.359015],[24.214114,42.353369],[24.222248,42.345354],[24.234022,42.339988],[24.234818,42.344989],[24.239748,42.353733],[24.255769,42.360836],[24.272529,42.361929],[24.290275,42.367028],[24.300627,42.374676],[24.305064,42.379592],[24.299888,42.385965],[24.292986,42.392518],[24.281895,42.399253],[24.27524,42.405805],[24.274501,42.414904],[24.274994,42.418544],[24.286332,42.423274],[24.29693,42.426367],[24.307529,42.427641],[24.315909,42.431643],[24.319359,42.436737],[24.316155,42.442921],[24.31024,42.449469],[24.30112,42.454197],[24.28781,42.455107],[24.273515,42.45547],[24.265628,42.459653],[24.259959,42.466744],[24.255029,42.476016],[24.251578,42.493829],[24.251085,42.511455],[24.251578,42.522719],[24.256754,42.53507],[24.264888,42.548146],[24.272036,42.558858],[24.281156,42.56267],[24.303338,42.56376],[24.316332,42.565418],[24.309993,42.573925],[24.301613,42.58427],[24.285839,42.607857],[24.277212,42.615657],[24.267974,42.621432],[24.255828,42.622013],[24.243839,42.623986],[24.226487,42.626191],[24.189575,42.62654],[24.170172,42.624566],[24.15282,42.620092]]]}},
{"type":"Feature","id":"BGR:ADM2:BG-13.pazardzhik","properties":{"shapeName":"Pazardzhik","shapeISO":"","shapeGroup":"BGR","shapeType":"ADM2","adm1ISO":"BG-13","parentISO":"BG-13","parentID":"BGR:ADM1:BG-13","src_shape_id":"11073933B15477689161909"},"geometry":{"type":"Polygon","coordinates":[[[24.470353,42.232959],[24.470203,42.239606],[24.467245,42.253108],[24.461084,42.268978],[24.447774,42.28995],[24.446541,42.29706],[24.449746,42.302711],[24.455661,42.307269],[24.462562,42.314924],[24.464534,42.324036],[24.462562,42.332054],[24.454922,42.342985],[24.44802,42.348815],[24.436929,42.355008],[24.422999,42.360878],[24.402682,42.362116],[24.373707,42.372633],[24.352708,42.379196],[24.33282,42.38367],[24.313032,42.381732],[24.305064,42.379592],[24.300627,42.374676],[24.290275,42.367028],[24.272529,42.361929],[24.255769,42.360836],[24.239748,42.353733],[24.234818,42.344989],[24.234022,42.339988],[24.238022,42.338066],[24.250592,42.327498],[24.261437,42.319845],[24.266367,42.31383],[24.268585,42.307633],[24.267106,42.3018],[24.260452,42.294143],[24.254536,42.290132],[24.244184,42.285938],[24.236297,42.282291],[24.230381,42.28065],[24.21436,42.279373],[24.204501,42.276091],[24.20408,42.275557],[24.199325,42.269525],[24.202037,42.263688],[24.207459,42.257851],[24.211403,42.249824],[24.213621,42.236321],[24.214114,42.220991],[24.211649,42.211681],[24.206473,42.201822],[24.199572,42.193057],[24.185523,42.17662],[24.173445,42.161458],[24.165065,42.149216],[24.158164,42.140992],[24.15422,42.133681],[24.152988,42.125455],[24.152511,42.11296],[24.152402,42.110098],[24.153558,42.104098],[24.160105,42.093239],[24.170503,42.080663],[24.182057,42.068943],[24.195536,42.05722],[24.204779,42.048927],[24.216707,42.051471],[24.229957,42.056507],[24.246521,42.068804],[24.254566,42.075712],[24.262768,42.088591],[24.267185,42.099828],[24.276492,42.11785],[24.283906,42.127795],[24.290058,42.134814],[24.305675,42.145575],[24.314509,42.15002],[24.324605,42.150604],[24.330757,42.149435],[24.338486,42.128614],[24.345269,42.121594],[24.354261,42.11551],[24.366486,42.106529],[24.368931,42.107552],[24.379658,42.110127],[24.388964,42.111297],[24.403162,42.114106],[24.416885,42.115978],[24.435696,42.117411],[24.435204,42.125821],[24.441119,42.135509],[24.44802,42.141357],[24.458372,42.145743],[24.471436,42.145926],[24.517773,42.145743],[24.51728,42.155428],[24.511365,42.16566],[24.495344,42.180456],[24.477844,42.19744],[24.470943,42.20949],[24.470353,42.232959]]]}},
{"type":"Feature","id":"BGR:ADM2:BG-13.peshtera","properties":{"shapeName":"Peshtera","shapeISO":"","shapeGroup":"BGR","shapeType":"ADM2","adm1ISO":"BG-13","parentISO":"BG-13","parentID":"BGR:ADM1:BG-13","src_shape_id":"11073933B69702141153845"},"geometry":{"type":"Polygon","coordinates":[[[24.281884,41.972613],[24.29132,41.979628],[24.29416,41.986194],[24.301416,41.992995],[24.310407,42.000497],[24.318768,42.011281],[24.324131,42.025931],[24.327759,42.055102],[24.331072,42.074776],[24.339433,42.091517],[24.347478,42.097721],[24.362779,42.104978],[24.366486,42.106529],[24.354261,42.11551],[24.345269,42.121594],[24.338486,42.128614],[24.330757,42.149435],[24.324605,42.150604],[24.314509,42.15002],[24.305675,42.145575],[24.290058,42.134814],[24.283906,42.127795],[24.276492,42.11785],[24.267185,42.099828],[24.262768,42.088591],[24.254566,42.075712],[24.246521,42.068804],[24.229957,42.056507],[24.216707,42.051471],[24.204779,42.048927],[24.202853,42.028334],[24.198617,42.018606],[24.207084,42.014915],[24.220808,42.000615],[24.232797,41.991822],[24.243366,41.985139],[24.256616,41.979628],[24.269078,41.975992],[24.28012,41.973999],[24.281884,41.972613]]]}},
{"type":"Feature","id":"BGR:ADM2:BG-13.strelcha","properties":{"shapeName":"Strelcha","shapeISO":"","shapeGroup":"BGR","shapeType":"ADM2","adm1ISO":"BG-13","parentISO":"BG-13","parentID":"BGR:ADM1:BG-13","src_shape_id":"11073933B2225307378707"},"geometry":{"type":"Polygon","coordinates":[[[24.316332,42.565418],[24.303338,42.56376],[24.281156,42.56267],[24.272036,42.558858],[24.264888,42.548146],[24.256754,42.53507],[24.251578,42.522719],[24.251085,42.511455],[24.251578,42.493829],[24.255029,42.476016],[24.259959,42.466744],[24.265628,42.459653],[24.273515,42.45547],[24.28781,42.455107],[24.30112,42.454197],[24.31024,42.449469],[24.316155,42.442921],[24.319359,42.436737],[24.315909,42.431643],[24.307529,42.427641],[24.29693,42.426367],[24.286332,42.423274],[24.274994,42.418544],[24.274501,42.414904],[24.27524,42.405805],[24.281895,42.399253],[24.292986,42.392518],[24.299888,42.385965],[24.305064,42.379592],[24.313032,42.381732],[24.33282,42.38367],[24.352708,42.379196],[24.373707,42.372633],[24.402682,42.362116],[24.422999,42.360878],[24.42288,42.368667],[24.419922,42.373402],[24.415239,42.383052],[24.404394,42.401619],[24.403408,42.411811],[24.410063,42.420545],[24.415939,42.425654],[24.414519,42.430312],[24.409945,42.435551],[24.400638,42.443234],[24.38297,42.456736],[24.373348,42.466279],[24.364514,42.477449],[24.361201,42.48501],[24.362306,42.491525],[24.366565,42.496293],[24.381235,42.511063],[24.389438,42.518156],[24.399849,42.528735],[24.406159,42.538848],[24.407578,42.546402],[24.408338,42.555408],[24.396753,42.5614],[24.390098,42.566483],[24.378514,42.567027],[24.365944,42.565212],[24.354359,42.560492],[24.330204,42.556679],[24.319606,42.5614],[24.316332,42.565418]]]}},
{"type":"Feature","id":"BGR:ADM2:BG-13.bratsigovo","properties":{"shapeName":"Bratsigovo","shapeISO":"","shapeGroup":"BGR","shapeType":"ADM2","adm1ISO":"BG-13","parentISO":"BG-13","parentID":"BGR:ADM1:BG-13","src_shape_id":"11073933B60993307230750"},"geometry":{"type":"Polygon","coordinates":[[[24.424648,41.926947],[24.425591,41.935968],[24.431506,41.943669],[24.440133,41.95705],[24.450485,41.982706],[24.450732,42.002124],[24.447774,42.017874],[24.443091,42.027212],[24.434218,42.038014],[24.428056,42.047715],[24.424851,42.058513],[24.429781,42.067662],[24.434711,42.075164],[24.441858,42.082298],[24.447774,42.089432],[24.447281,42.095468],[24.444323,42.104612],[24.435696,42.117411],[24.416885,42.115978],[24.403162,42.114106],[24.388964,42.111297],[24.379658,42.110127],[24.368931,42.107552],[24.366486,42.106529],[24.362779,42.104978],[24.347478,42.097721],[24.339433,42.091517],[24.331072,42.074776],[24.327759,42.055102],[24.324131,42.025931],[24.318768,42.011281],[24.310407,42.000497],[24.301416,41.992995],[24.29416,41.986194],[24.29132,41.979628],[24.281884,41.972613],[24.285641,41.969659],[24.290374,41.960863],[24.293055,41.945846],[24.29416,41.93247],[24.295264,41.92578],[24.302993,41.921086],[24.331861,41.911578],[24.362937,41.898311],[24.385179,41.895963],[24.407495,41.896044],[24.410102,41.906765],[24.409787,41.91463],[24.410102,41.920264],[24.415466,41.926719],[24.424648,41.926947]]]}},
{"type":"Feature","id":"BGR:ADM2:BG-13.lesichovo","properties":{"shapeName":"Lesichovo","shapeISO":"","shapeGroup":"BGR","shapeType":"ADM2","adm1ISO":"BG-13","parentISO":"BG-13","parentID":"BGR:ADM1:BG-13","src_shape_id":"11073933B59856721575573"},"geometry":{"type":"Polygon","coordinates":[[[24.074093,42.454221],[24.073129,42.447468],[24.069432,42.433644],[24.061545,42.418907],[24.056122,42.410901],[24.050207,42.403257],[24.041334,42.395249],[24.018658,42.385236],[23.994503,42.378864],[23.96468,42.374676],[23.964157,42.36799],[23.96258,42.355751],[23.98356,42.355401],[24.006748,42.353536],[24.027728,42.349223],[24.044765,42.342927],[24.057227,42.335815],[24.06748,42.333133],[24.090038,42.336864],[24.109282,42.332666],[24.131367,42.323803],[24.147299,42.314822],[24.16544,42.301289],[24.188155,42.28507],[24.20408,42.275557],[24.204501,42.276091],[24.21436,42.279373],[24.230381,42.28065],[24.236297,42.282291],[24.244184,42.285938],[24.254536,42.290132],[24.260452,42.294143],[24.267106,42.3018],[24.268585,42.307633],[24.266367,42.31383],[24.261437,42.319845],[24.250592,42.327498],[24.238022,42.338066],[24.234022,42.339988],[24.222248,42.345354],[24.214114,42.353369],[24.206473,42.359015],[24.196368,42.36375],[24.190206,42.370852],[24.183058,42.383416],[24.177142,42.391972],[24.16679,42.402711],[24.152248,42.412357],[24.137953,42.42291],[24.117742,42.43419],[24.095066,42.445468],[24.079784,42.451106],[24.074093,42.454221]]]}},
{"type":"Feature","id":"BGR:ADM2:BG-13.septemvri","properties":{"shapeName":"Septemvri","shapeISO":"","shapeGroup":"BGR","shapeType":"ADM2","adm1ISO":"BG-13","parentISO":"BG-13","parentID":"BGR:ADM1:BG-13","src_shape_id":"11073933B92385075338247"},"geometry":{"type":"Polygon","coordinates":[[[24.086875,42.136268],[24.092404,42.131656],[24.105181,42.125338],[24.116381,42.119137],[24.127896,42.116095],[24.140989,42.113637],[24.152511,42.11296],[24.152988,42.125455],[24.15422,42.133681],[24.158164,42.140992],[24.165065,42.149216],[24.173445,42.161458],[24.185523,42.17662],[24.199572,42.193057],[24.206473,42.201822],[24.211649,42.211681],[24.214114,42.220991],[24.213621,42.236321],[24.211403,42.249824],[24.207459,42.257851],[24.202037,42.263688],[24.199325,42.269525],[24.20408,42.275557],[24.188155,42.28507],[24.16544,42.301289],[24.147299,42.314822],[24.131367,42.323803],[24.109282,42.332666],[24.090038,42.336864],[24.06748,42.333133],[24.057227,42.335815],[24.044765,42.342927],[24.027728,42.349223],[24.006748,42.353536],[23.98356,42.355401],[23.96258,42.355751],[23.954061,42.349573],[23.948856,42.339546],[23.948698,42.328001],[23.948856,42.314355],[23.950906,42.307006],[23.966208,42.302923],[23.977092,42.302106],[23.990343,42.296856],[23.997599,42.291605],[23.997126,42.285654],[23.987503,42.279001],[23.98072,42.273166],[23.976934,42.26908],[23.983905,42.262047],[23.994996,42.255662],[24.008306,42.251466],[24.020383,42.250189],[24.043059,42.24727],[24.061052,42.244715],[24.071404,42.242891],[24.078305,42.238876],[24.082249,42.231212],[24.082495,42.221356],[24.081017,42.211133],[24.075101,42.201822],[24.066376,42.185679],[24.05912,42.179017],[24.052494,42.172002],[24.050286,42.16452],[24.049497,42.153177],[24.059908,42.150253],[24.07521,42.14464],[24.086875,42.136268]]]}},
{"type":"Feature","id":"BGR:ADM2:BG-13.rakitovo","properties":{"shapeName":"Rakitovo","shapeISO":"","shapeGroup":"BGR","shapeType":"ADM2","adm1ISO":"BG-13","parentISO":"BG-13","parentID":"BGR:ADM1:BG-13","src_shape_id":"11073933B39000904635626"},"geometry":{"type":"Polygon","coordinates":[[[24.027255,41.895024],[24.035142,41.897724],[24.044607,41.896785],[24.056438,41.894084],[24.068269,41.894084],[24.080385,41.896317],[24.085392,41.902337],[24.086932,41.909789],[24.094249,41.917241],[24.099641,41.920679],[24.123518,41.922972],[24.133531,41.924405],[24.142389,41.930422],[24.148166,41.939016],[24.155868,41.957634],[24.165882,41.977679],[24.172814,41.989416],[24.179746,41.999434],[24.188989,42.008592],[24.198617,42.018606],[24.202853,42.028334],[24.204779,42.048927],[24.195536,42.05722],[24.182057,42.068943],[24.170503,42.080663],[24.160105,42.093239],[24.153558,42.104098],[24.152402,42.110098],[24.152511,42.11296],[24.140989,42.113637],[24.127896,42.116095],[24.116381,42.119137],[24.105181,42.125338],[24.092404,42.131656],[24.086875,42.136268],[24.082249,42.130208],[24.074115,42.105526],[24.071157,42.093822],[24.068446,42.084493],[24.0682,42.07187],[24.069679,42.059428],[24.072636,42.043505],[24.084221,42.025564],[24.082988,42.018789],[24.075348,42.012563],[24.061791,42.002307],[24.053411,41.993881],[24.046756,41.986553],[24.040101,41.977392],[24.030489,41.964748],[24.023834,41.949168],[24.019644,41.930101],[24.020876,41.919281],[24.02408,41.905891],[24.027255,41.895024]]]}},
{"type":"Feature","id":"BGR:ADM2:BG-13.belovo","properties":{"shapeName":"Belovo","shapeISO":"","shapeGroup":"BGR","shapeType":"ADM2","adm1ISO":"BG-13","parentISO":"BG-13","parentID":"BGR:ADM1:BG-13","src_shape_id":"11073933B16762458037381"},"geometry":{"type":"Polygon","coordinates":[[[24.049497,42.153177],[24.050286,42.16452],[24.052494,42.172002],[24.05912,42.179017],[24.066376,42.185679],[24.075101,42.201822],[24.081017,42.211133],[24.082495,42.221356],[24.082249,42.231212],[24.078305,42.238876],[24.071404,42.242891],[24.061052,42.244715],[24.043059,42.24727],[24.020383,42.250189],[24.008306,42.251466],[23.994996,42.255662],[23.983905,42.262047],[23.976934,42.26908],[23.972202,42.266862],[23.962264,42.259741],[23.949487,42.256238],[23.93387,42.258106],[23.921408,42.265228],[23.907053,42.2762],[23.899955,42.277834],[23.892383,42.277134],[23.888913,42.272932],[23.886546,42.265578],[23.877713,42.255304],[23.874873,42.251335],[23.858783,42.237789],[23.843324,42.22751],[23.810356,42.213842],[23.796632,42.20765],[23.78133,42.196549],[23.772655,42.190705],[23.764136,42.185796],[23.760337,42.185677],[23.762559,42.178549],[23.760035,42.173288],[23.760508,42.166975],[23.777229,42.151891],[23.786852,42.144991],[23.789533,42.140429],[23.789691,42.122647],[23.790795,42.110946],[23.796632,42.099243],[23.803573,42.090698],[23.823202,42.091627],[23.845138,42.095285],[23.87299,42.097297],[23.89123,42.098211],[23.908236,42.100772],[23.918588,42.102966],[23.945701,42.109732],[23.965419,42.11668],[24.005348,42.132767],[24.042073,42.150495],[24.049497,42.153177]]]}}
]}