{"type":"FeatureCollection","bbox":[22.434056,42.356647,23.280491,42.895653],"features":[
{"type":"Feature","id":"BGR:ADM2:BG-14.breznik","properties":{"shapeName":"Breznik","shapeISO":"","shapeGroup":"BGR","shapeType":"ADM2","adm1ISO":"BG-14","parentISO":"BG-14","parentID":"BGR:ADM1:BG-14","src_shape_id":"11073933B9138575657820"},"geometry":{"type":"Polygon","coordinates":[[[22.972455,42.77602],[22.962117,42.776124],[22.953886,42.77835],[22.942837,42.780894],[22.92594,42.782325],[22.919103,42.787403],[22.912672,42.794109],[22.906917,42.802057],[22.900825,42.809507],[22.894732,42.817701],[22.886608,42.825645],[22.876115,42.829121],[22.865622,42.829617],[22.856145,42.828873],[22.849037,42.83061],[22.847006,42.835575],[22.846667,42.847488],[22.845888,42.854625],[22.82759,42.854625],[22.805061,42.851607],[22.782748,42.850337],[22.766001,42.849869],[22.765851,42.84716],[22.769317,42.838265],[22.789247,42.822855],[22.810477,42.808712],[22.815242,42.801878],[22.815676,42.795838],[22.814159,42.787572],[22.808094,42.782961],[22.799862,42.779463],[22.793146,42.77517],[22.776466,42.761971],[22.761951,42.758312],[22.750037,42.758312],[22.739422,42.761493],[22.727941,42.762289],[22.717542,42.760857],[22.709744,42.758153],[22.701295,42.752586],[22.69003,42.743041],[22.675083,42.731426],[22.661868,42.726334],[22.640639,42.722992],[22.638256,42.718695],[22.639556,42.705484],[22.639556,42.69211],[22.641289,42.681282],[22.644105,42.667903],[22.653853,42.665195],[22.663385,42.660257],[22.677899,42.654363],[22.69393,42.651495],[22.709094,42.651017],[22.724691,42.652769],[22.72989,42.653725],[22.738989,42.651973],[22.745271,42.6405],[22.753286,42.63811],[22.763035,42.638906],[22.770833,42.642572],[22.774949,42.647193],[22.783831,42.650379],[22.79163,42.650698],[22.799428,42.646715],[22.805927,42.640819],[22.815459,42.633647],[22.827157,42.626794],[22.837339,42.621693],[22.843621,42.61707],[22.847125,42.616521],[22.853802,42.615476],[22.861168,42.620577],[22.8668,42.625997],[22.873516,42.631735],[22.883914,42.636994],[22.892579,42.639225],[22.90991,42.640341],[22.919875,42.639385],[22.933089,42.637313],[22.944354,42.639066],[22.947603,42.646237],[22.949986,42.66201],[22.953886,42.681919],[22.96645,42.697364],[22.968183,42.704688],[22.9658,42.7101],[22.958218,42.715034],[22.952369,42.717422],[22.947603,42.721719],[22.948036,42.726971],[22.953452,42.729676],[22.96775,42.733654],[22.976632,42.740655],[22.98638,42.747496],[22.99469,42.752733],[22.98093,42.761513],[22.973859,42.768943],[22.972455,42.77602]]]}},
{"type":"Feature","id":"BGR:ADM2:BG-14.tran","properties":{"shapeName":"Tran","shapeISO":"","shapeGroup":"BGR","shapeType":"ADM2","adm1ISO":"BG-14","parentISO":"BG-14","parentID":"BGR:ADM1:BG-14","src_shape_id":"11073933B94276854006371"},"geometry":{"type":"Polygon","coordinates":[[[22.766001,42.849869],[22.766501,42.858912],[22.766284,42.870027],[22.761518,42.878282],[22.752203,42.885108],[22.739569,42.893461],[22.731325,42.889727],[22.70814,42.885118],[22.695199,42.883275],[22.685314,42.877611],[22.680102,42.87287],[22.670757,42.868655],[22.661051,42.873133],[22.653143,42.878929],[22.63571,42.883143],[22.627802,42.883801],[22.616838,42.8892],[22.608751,42.894336],[22.599225,42.895653],[22.584488,42.894863],[22.576939,42.889727],[22.56957,42.876558],[22.561303,42.872738],[22.549081,42.872211],[22.534164,42.876294],[22.525178,42.877085],[22.515293,42.876426],[22.511159,42.873397],[22.51026,42.864703],[22.506127,42.85996],[22.498039,42.853241],[22.475933,42.841118],[22.461195,42.834397],[22.45131,42.829257],[22.440886,42.827148],[22.434056,42.820688],[22.434775,42.814492],[22.436932,42.803944],[22.445918,42.787855],[22.452029,42.781919],[22.461195,42.770574],[22.468204,42.764109],[22.477011,42.75408],[22.485458,42.749329],[22.491389,42.74339],[22.49103,42.736922],[22.484919,42.728077],[22.481145,42.71923],[22.476472,42.711307],[22.470541,42.703119],[22.461914,42.693345],[22.456522,42.690042],[22.455623,42.684493],[22.463891,42.677491],[22.469642,42.669695],[22.46425,42.661501],[22.4576,42.648679],[22.455803,42.641805],[22.455848,42.638683],[22.463219,42.639225],[22.476867,42.637791],[22.490081,42.633169],[22.49788,42.629025],[22.510661,42.6252],[22.525175,42.624403],[22.562435,42.623287],[22.581282,42.621853],[22.590597,42.61723],[22.597529,42.611969],[22.601212,42.606867],[22.606411,42.597299],[22.607711,42.586614],[22.611177,42.568589],[22.617026,42.561728],[22.624175,42.558377],[22.63284,42.555345],[22.642835,42.553613],[22.648871,42.564759],[22.652337,42.572577],[22.653636,42.586614],[22.649954,42.599532],[22.640855,42.612128],[22.631973,42.623765],[22.624608,42.63301],[22.623525,42.640341],[22.625258,42.645759],[22.630674,42.65261],[22.639556,42.665355],[22.644105,42.667903],[22.641289,42.681282],[22.639556,42.69211],[22.639556,42.705484],[22.638256,42.718695],[22.640639,42.722992],[22.661868,42.726334],[22.675083,42.731426],[22.69003,42.743041],[22.701295,42.752586],[22.709744,42.758153],[22.717542,42.760857],[22.727941,42.762289],[22.739422,42.761493],[22.750037,42.758312],[22.761951,42.758312],[22.776466,42.761971],[22.793146,42.77517],[22.799862,42.779463],[22.808094,42.782961],[22.814159,42.787572],[22.815676,42.795838],[22.815242,42.801878],[22.810477,42.808712],[22.789247,42.822855],[22.769317,42.838265],[22.765851,42.84716],[22.766001,42.849869]]]}},
{"type":"Feature","id":"BGR:ADM2:BG-14.zemen","properties":{"shapeName":"Zemen","shapeISO":"","shapeGroup":"BGR","shapeType":"ADM2","adm1ISO":"BG-14","parentISO":"BG-14","parentID":"BGR:ADM1:BG-14","src_shape_id":"11073933B509028423034"},"geometry":{"type":"Polygon","coordinates":[[[22.644105,42.667903],[22.639556,42.665355],[22.630674,42.65261],[22.625258,42.645759],[22.623525,42.640341],[22.624608,42.63301],[22.631973,42.623765],[22.640855,42.612128],[22.649954,42.599532],[22.653636,42.586614],[22.652337,42.572577],[22.648871,42.564759],[22.642835,42.553613],[22.641938,42.551994],[22.642805,42.544014],[22.657752,42.526296],[22.67075,42.517994],[22.686131,42.50953],[22.700862,42.500587],[22.704545,42.496275],[22.708877,42.487968],[22.710177,42.478063],[22.709094,42.471672],[22.706711,42.46512],[22.71321,42.457698],[22.717446,42.451447],[22.721297,42.443774],[22.726689,42.43411],[22.73624,42.427823],[22.745606,42.419999],[22.756697,42.412721],[22.767789,42.409081],[22.781345,42.407625],[22.791944,42.407625],[22.802789,42.418726],[22.808211,42.424912],[22.810429,42.435645],[22.810917,42.4498],[22.810183,42.474743],[22.805993,42.484378],[22.796873,42.494919],[22.786521,42.508912],[22.776416,42.520721],[22.770993,42.529985],[22.768035,42.538884],[22.76212,42.55795],[22.761134,42.570295],[22.761627,42.580277],[22.762366,42.584088],[22.772225,42.584996],[22.779127,42.589895],[22.785782,42.595339],[22.789972,42.600419],[22.800077,42.601871],[22.809443,42.601145],[22.818563,42.599875],[22.832119,42.602415],[22.839267,42.604955],[22.847125,42.616521],[22.843621,42.61707],[22.837339,42.621693],[22.827157,42.626794],[22.815459,42.633647],[22.805927,42.640819],[22.799428,42.646715],[22.79163,42.650698],[22.783831,42.650379],[22.774949,42.647193],[22.770833,42.642572],[22.763035,42.638906],[22.753286,42.63811],[22.745271,42.6405],[22.738989,42.651973],[22.72989,42.653725],[22.724691,42.652769],[22.709094,42.651017],[22.69393,42.651495],[22.677899,42.654363],[22.663385,42.660257],[22.653853,42.665195],[22.644105,42.667903]]]}},
{"type":"Feature","id":"BGR:ADM2:BG-14.kovachevtsi","properties":{"shapeName":"Kovachevtsi","shapeISO":"","shapeGroup":"BGR","shapeType":"ADM2","adm1ISO":"BG-14","parentISO":"BG-14","parentID":"BGR:ADM1:BG-14","src_shape_id":"11073933B3545449226215"},"geometry":{"type":"Polygon","coordinates":[[[22.810917,42.4498],[22.820505,42.450451],[22.827919,42.455339],[22.834545,42.458132],[22.843536,42.463137],[22.851423,42.467908],[22.864043,42.473609],[22.87051,42.476867],[22.871457,42.493735],[22.872246,42.504551],[22.874296,42.510598],[22.889913,42.519318],[22.895907,42.525015],[22.894488,42.530014],[22.886443,42.534082],[22.867356,42.535012],[22.855682,42.538615],[22.852685,42.5428],[22.853159,42.551399],[22.855998,42.556047],[22.861046,42.560463],[22.867987,42.563716],[22.874612,42.568944],[22.883603,42.573823],[22.886127,42.578586],[22.885812,42.585555],[22.879975,42.589387],[22.870195,42.591826],[22.859626,42.597981],[22.854578,42.606921],[22.853802,42.615476],[22.847125,42.616521],[22.839267,42.604955],[22.832119,42.602415],[22.818563,42.599875],[22.809443,42.601145],[22.800077,42.601871],[22.789972,42.600419],[22.785782,42.595339],[22.779127,42.589895],[22.772225,42.584996],[22.762366,42.584088],[22.761627,42.580277],[22.761134,42.570295],[22.76212,42.55795],[22.768035,42.538884],[22.770993,42.529985],[22.776416,42.520721],[22.786521,42.508912],[22.796873,42.494919],[22.805993,42.484378],[22.810183,42.474743],[22.810917,42.4498]]]}},
{"type":"Feature","id":"BGR:ADM2:BG-14.pernik","properties":{"shapeName":"Pernik","shapeISO":"","shapeGroup":"BGR","shapeType":"ADM2","adm1ISO":"BG-14","parentISO":"BG-14","parentID":"BGR:ADM1:BG-14","src_shape_id":"11073933B94414140958567"},"geometry":{"type":"Polygon","coordinates":[[[22.853802,42.615476],[22.854578,42.606921],[22.859626,42.597981],[22.870195,42.591826],[22.879975,42.589387],[22.885812,42.585555],[22.899407,42.585722],[22.91814,42.585359],[22.93909,42.582274],[22.951414,42.579188],[22.970393,42.572836],[22.997505,42.561218],[23.019195,42.551777],[23.043596,42.543243],[23.080075,42.524354],[23.101518,42.509093],[23.117786,42.496373],[23.135039,42.483833],[23.148349,42.473471],[23.158208,42.466744],[23.167821,42.461653],[23.187785,42.459834],[23.202327,42.460926],[23.213912,42.465108],[23.226975,42.465835],[23.234616,42.47638],[23.24201,42.483833],[23.251623,42.497464],[23.264686,42.515271],[23.272327,42.524717],[23.277749,42.53053],[23.280491,42.534367],[23.278951,42.546852],[23.275531,42.556861],[23.248418,42.563215],[23.236587,42.572654],[23.215144,42.588081],[23.200848,42.595702],[23.187785,42.596609],[23.174722,42.59552],[23.16363,42.596246],[23.163877,42.602233],[23.166095,42.606043],[23.173243,42.610578],[23.176201,42.621643],[23.174475,42.637964],[23.169546,42.651561],[23.16018,42.666968],[23.153032,42.67313],[23.140955,42.677117],[23.123208,42.67766],[23.109898,42.678929],[23.105462,42.682915],[23.102011,42.697952],[23.09437,42.704473],[23.086006,42.709216],[23.074837,42.714875],[23.060203,42.720534],[23.049034,42.724212],[23.037866,42.730153],[23.031118,42.736365],[23.024602,42.740337],[23.022938,42.746548],[23.022384,42.75398],[23.01462,42.756728],[23.005469,42.756525],[22.998815,42.754896],[22.99469,42.752733],[22.98638,42.747496],[22.976632,42.740655],[22.96775,42.733654],[22.953452,42.729676],[22.948036,42.726971],[22.947603,42.721719],[22.952369,42.717422],[22.958218,42.715034],[22.9658,42.7101],[22.968183,42.704688],[22.96645,42.697364],[22.953886,42.681919],[22.949986,42.66201],[22.947603,42.646237],[22.944354,42.639066],[22.933089,42.637313],[22.919875,42.639385],[22.90991,42.640341],[22.892579,42.639225],[22.883914,42.636994],[22.873516,42.631735],[22.8668,42.625997],[22.861168,42.620577],[22.853802,42.615476]]]}},
{"type":"Feature","id":"BGR:ADM2:BG-14.radomir","properties":{"shapeName":"Radomir","shapeISO":"","shapeGroup":"BGR","shapeType":"ADM2","adm1ISO":"BG-14","parentISO":"BG-14","parentID":"BGR:ADM1:BG-14","src_shape_id":"11073933B43458511352591"},"geometry":{"type":"Polygon","coordinates":[[[22.868598,42.359744],[22.869337,42.36375],[22.874513,42.367575],[22.888562,42.367939],[22.898668,42.364479],[22.911485,42.362475],[22.920358,42.364297],[22.920604,42.369031],[22.91814,42.373402],[22.918386,42.377772],[22.925041,42.380867],[22.952893,42.391608],[22.963491,42.395249],[22.972118,42.397797],[22.980745,42.400709],[22.994547,42.402893],[23.006132,42.402165],[23.018456,42.398525],[23.022646,42.393974],[23.026096,42.386329],[23.029054,42.378318],[23.032414,42.3769],[23.03423,42.376133],[23.048526,42.376497],[23.064793,42.376315],[23.081554,42.377408],[23.088701,42.381959],[23.093138,42.388513],[23.095849,42.394885],[23.0993,42.399617],[23.106941,42.400709],[23.113103,42.397251],[23.117046,42.391426],[23.119758,42.384872],[23.124687,42.3785],[23.13775,42.372491],[23.156729,42.368121],[23.168806,42.365753],[23.185813,42.363204],[23.199862,42.362293],[23.217116,42.364661],[23.223031,42.366846],[23.22801,42.370524],[23.237573,42.378318],[23.24201,42.384508],[23.244475,42.3927],[23.245461,42.405077],[23.242749,42.418544],[23.237573,42.424548],[23.236587,42.432189],[23.233137,42.44092],[23.229193,42.447286],[23.226482,42.458198],[23.226975,42.465835],[23.213912,42.465108],[23.202327,42.460926],[23.187785,42.459834],[23.167821,42.461653],[23.158208,42.466744],[23.148349,42.473471],[23.135039,42.483833],[23.117786,42.496373],[23.101518,42.509093],[23.080075,42.524354],[23.043596,42.543243],[23.019195,42.551777],[22.997505,42.561218],[22.970393,42.572836],[22.951414,42.579188],[22.93909,42.582274],[22.91814,42.585359],[22.899407,42.585722],[22.885812,42.585555],[22.886127,42.578586],[22.883603,42.573823],[22.874612,42.568944],[22.867987,42.563716],[22.861046,42.560463],[22.855998,42.556047],[22.853159,42.551399],[22.852685,42.5428],[22.855682,42.538615],[22.867356,42.535012],[22.886443,42.534082],[22.894488,42.530014],[22.895907,42.525015],[22.889913,42.519318],[22.874296,42.510598],[22.872246,42.504551],[22.871457,42.493735],[22.87051,42.476867],[22.864043,42.473609],[22.851423,42.467908],[22.843536,42.463137],[22.834545,42.458132],[22.827919,42.455339],[22.820505,42.450451],[22.810917,42.4498],[22.810429,42.435645],[22.808211,42.424912],[22.802789,42.418726],[22.791944,42.407625],[22.791451,42.401619],[22.795148,42.395249],[22.803035,42.388513],[22.814619,42.383598],[22.825711,42.379775],[22.829655,42.376861],[22.831626,42.367028],[22.836802,42.361018],[22.845183,42.357194],[22.855535,42.356647],[22.862189,42.359561],[22.868598,42.359744]]]}}
]}