{"type":"FeatureCollection","bbox":[25.454077,43.316419,26.532128,44.023264],"features":[
{"type":"Feature","id":"BGR:ADM2:BG-18.slivo-pole","properties":{"shapeName":"Slivo Pole","shapeISO":"","shapeGroup":"BGR","shapeType":"ADM2","adm1ISO":"BG-18","parentISO":"BG-18","parentID":"BGR:ADM1:BG-18","src_shape_id":"11073933B55453577721373"},"geometry":{"type":"Polygon","coordinates":[[[26.339819,44.018869],[26.332948,44.019892],[26.326778,44.023264],[26.311228,44.021489],[26.299874,44.012969],[26.24977,43.993085],[26.223608,43.988113],[26.198432,43.983851],[26.174491,43.978168],[26.149069,43.971063],[26.12266,43.962003],[26.107604,43.955607],[26.084156,43.939258],[26.07922,43.931082],[26.076655,43.927836],[26.081024,43.922817],[26.088958,43.915906],[26.098921,43.908729],[26.107962,43.903943],[26.122722,43.900088],[26.135637,43.898758],[26.152612,43.897429],[26.164789,43.897296],[26.171985,43.896764],[26.178443,43.894637],[26.185454,43.888653],[26.188406,43.883467],[26.194494,43.879478],[26.205749,43.874956],[26.213683,43.873227],[26.220325,43.868572],[26.224384,43.855136],[26.226598,43.848616],[26.232318,43.84489],[26.243019,43.842096],[26.25575,43.84183],[26.266451,43.843293],[26.279182,43.847285],[26.292835,43.849414],[26.305214,43.852056],[26.304275,43.853539],[26.304275,43.861388],[26.306673,43.878281],[26.311655,43.887856],[26.316821,43.894504],[26.324017,43.902215],[26.330843,43.910855],[26.349663,43.925475],[26.365346,43.934909],[26.371434,43.939426],[26.375125,43.946467],[26.370696,43.952445],[26.369589,43.959617],[26.37125,43.964398],[26.376047,43.96971],[26.380475,43.976084],[26.383612,43.983917],[26.384534,43.988829],[26.381213,43.994802],[26.376232,43.997589],[26.368851,44.00104],[26.359073,44.004756],[26.350216,44.008472],[26.342836,44.012586],[26.340807,44.015239],[26.339819,44.018869]]]}},
{"type":"Feature","id":"BGR:ADM2:BG-18.vetovo","properties":{"shapeName":"Vetovo","shapeISO":"","shapeGroup":"BGR","shapeType":"ADM2","adm1ISO":"BG-18","parentISO":"BG-18","parentID":"BGR:ADM1:BG-18","src_shape_id":"11073933B85006403177115"},"geometry":{"type":"Polygon","coordinates":[[[26.349294,43.785779],[26.341545,43.785113],[26.320142,43.782582],[26.300769,43.781117],[26.281581,43.78045],[26.256119,43.781117],[26.241728,43.783115],[26.232687,43.781516],[26.230288,43.777387],[26.226414,43.768593],[26.217189,43.758466],[26.205749,43.751936],[26.168369,43.739674],[26.155616,43.735579],[26.147468,43.735579],[26.136722,43.738821],[26.127866,43.74556],[26.114995,43.754346],[26.108028,43.757246],[26.097047,43.760913],[26.091142,43.765177],[26.085238,43.770379],[26.079334,43.769697],[26.074965,43.765092],[26.07343,43.760487],[26.071422,43.752384],[26.070122,43.743667],[26.080471,43.734075],[26.087482,43.724342],[26.09357,43.715008],[26.096523,43.705672],[26.102242,43.691932],[26.103349,43.683661],[26.10667,43.671384],[26.109807,43.663777],[26.115526,43.655634],[26.122722,43.64709],[26.127907,43.643064],[26.134243,43.644132],[26.140973,43.648319],[26.144044,43.654385],[26.14794,43.658656],[26.160811,43.659596],[26.179587,43.656692],[26.199543,43.654043],[26.218318,43.651907],[26.248665,43.646781],[26.265713,43.642017],[26.278813,43.636275],[26.291175,43.629598],[26.294607,43.626759],[26.297264,43.627996],[26.312577,43.633872],[26.326969,43.634673],[26.348371,43.636943],[26.370143,43.637744],[26.416269,43.632803],[26.444498,43.633738],[26.466454,43.635608],[26.487119,43.641349],[26.500403,43.64709],[26.509259,43.653098],[26.5183,43.665245],[26.522544,43.671651],[26.528632,43.682727],[26.530662,43.6934],[26.530846,43.70954],[26.529186,43.721542],[26.530662,43.732342],[26.532128,43.738805],[26.528598,43.741515],[26.5113,43.752553],[26.505246,43.754427],[26.500922,43.75755],[26.498525,43.760796],[26.494868,43.760316],[26.486248,43.760487],[26.473495,43.763472],[26.45165,43.767224],[26.437598,43.771146],[26.426852,43.776262],[26.414808,43.783594],[26.409612,43.787857],[26.402881,43.792374],[26.397332,43.792886],[26.390719,43.790925],[26.383162,43.788112],[26.372357,43.786178],[26.358888,43.785779],[26.349294,43.785779]]]}},
{"type":"Feature","id":"BGR:ADM2:BG-18.ivanovo","properties":{"shapeName":"Ivanovo","shapeISO":"","shapeGroup":"BGR","shapeType":"ADM2","adm1ISO":"BG-18","parentISO":"BG-18","parentID":"BGR:ADM1:BG-18","src_shape_id":"11073933B4130110162288"},"geometry":{"type":"Polygon","coordinates":[[[26.070122,43.743667],[26.066079,43.747272],[26.057592,43.753669],[26.046979,43.761084],[26.034581,43.765689],[26.017931,43.76748],[26.003052,43.767053],[25.972705,43.760231],[25.956646,43.756222],[25.947553,43.754602],[25.930786,43.749911],[25.910475,43.749228],[25.900202,43.749569],[25.885796,43.751958],[25.877294,43.753664],[25.868792,43.758013],[25.860497,43.765725],[25.858071,43.764474],[25.845977,43.760731],[25.835364,43.754313],[25.823517,43.747538],[25.810682,43.743972],[25.780077,43.722749],[25.773166,43.715436],[25.76354,43.706694],[25.751245,43.698117],[25.758879,43.691265],[25.767735,43.684061],[25.777698,43.676989],[25.786739,43.672318],[25.794857,43.669916],[25.802238,43.666579],[25.807773,43.664978],[25.816629,43.66084],[25.825485,43.652831],[25.833603,43.646423],[25.840615,43.63988],[25.846654,43.631793],[25.847995,43.629999],[25.851685,43.629198],[25.858142,43.628797],[25.87032,43.632002],[25.886187,43.630934],[25.897257,43.628129],[25.917922,43.620383],[25.931022,43.608895],[25.938587,43.601948],[25.942646,43.597672],[25.950395,43.582705],[25.957591,43.577626],[25.972166,43.572814],[25.984344,43.570675],[26.001318,43.570007],[26.014602,43.569873],[26.02475,43.57121],[26.030839,43.572947],[26.040064,43.574017],[26.046602,43.57426],[26.052647,43.590274],[26.053474,43.59857],[26.052057,43.606009],[26.044027,43.619774],[26.047688,43.62533],[26.061149,43.628834],[26.075555,43.631655],[26.093504,43.636526],[26.114523,43.64191],[26.127907,43.643064],[26.122722,43.64709],[26.115526,43.655634],[26.109807,43.663777],[26.10667,43.671384],[26.103349,43.683661],[26.102242,43.691932],[26.096523,43.705672],[26.09357,43.715008],[26.087482,43.724342],[26.080471,43.734075],[26.070122,43.743667]]]}},
{"type":"Feature","id":"BGR:ADM2:BG-18.ruse","properties":{"shapeName":"Ruse","shapeISO":"","shapeGroup":"BGR","shapeType":"ADM2","adm1ISO":"BG-18","parentISO":"BG-18","parentID":"BGR:ADM1:BG-18","src_shape_id":"11073933B25869413818863"},"geometry":{"type":"Polygon","coordinates":[[[26.305214,43.852056],[26.292835,43.849414],[26.279182,43.847285],[26.266451,43.843293],[26.25575,43.84183],[26.243019,43.842096],[26.232318,43.84489],[26.226598,43.848616],[26.224384,43.855136],[26.220325,43.868572],[26.213683,43.873227],[26.205749,43.874956],[26.194494,43.879478],[26.188406,43.883467],[26.185454,43.888653],[26.178443,43.894637],[26.171985,43.896764],[26.164789,43.897296],[26.152612,43.897429],[26.135637,43.898758],[26.122722,43.900088],[26.107962,43.903943],[26.098921,43.908729],[26.088958,43.915906],[26.081024,43.922817],[26.076655,43.927836],[26.071075,43.920772],[26.058981,43.907081],[26.051082,43.90139],[26.023933,43.88983],[26.006162,43.883248],[25.989625,43.87631],[25.971607,43.865812],[25.956305,43.859405],[25.941002,43.850506],[25.930636,43.838758],[25.925452,43.83128],[25.915827,43.820596],[25.905954,43.807951],[25.896822,43.793522],[25.88843,43.786038],[25.875102,43.776416],[25.86671,43.76893],[25.860497,43.765725],[25.868792,43.758013],[25.877294,43.753664],[25.885796,43.751958],[25.900202,43.749569],[25.910475,43.749228],[25.930786,43.749911],[25.947553,43.754602],[25.956646,43.756222],[25.972705,43.760231],[26.003052,43.767053],[26.017931,43.76748],[26.034581,43.765689],[26.046979,43.761084],[26.057592,43.753669],[26.066079,43.747272],[26.070122,43.743667],[26.071422,43.752384],[26.07343,43.760487],[26.074965,43.765092],[26.079334,43.769697],[26.085238,43.770379],[26.091142,43.765177],[26.097047,43.760913],[26.108028,43.757246],[26.114995,43.754346],[26.127866,43.74556],[26.136722,43.738821],[26.147468,43.735579],[26.155616,43.735579],[26.168369,43.739674],[26.205749,43.751936],[26.217189,43.758466],[26.226414,43.768593],[26.230288,43.777387],[26.232687,43.781516],[26.241728,43.783115],[26.256119,43.781117],[26.281581,43.78045],[26.300769,43.781117],[26.320142,43.782582],[26.341545,43.785113],[26.349294,43.785779],[26.349663,43.793903],[26.349294,43.799497],[26.346526,43.806821],[26.342652,43.813478],[26.337486,43.81867],[26.332873,43.829718],[26.327891,43.836772],[26.323279,43.84143],[26.315161,43.843959],[26.308149,43.847418],[26.305214,43.852056]]]}},
{"type":"Feature","id":"BGR:ADM2:BG-18.tsenovo","properties":{"shapeName":"Tsenovo","shapeISO":"","shapeGroup":"BGR","shapeType":"ADM2","adm1ISO":"BG-18","parentISO":"BG-18","parentID":"BGR:ADM1:BG-18","src_shape_id":"11073933B89639924187161"},"geometry":{"type":"Polygon","coordinates":[[[25.546883,43.497375],[25.550204,43.500052],[25.5574,43.504869],[25.565887,43.509553],[25.575112,43.511962],[25.591902,43.512898],[25.599836,43.511694],[25.607401,43.506877],[25.608877,43.491887],[25.613305,43.486131],[25.621239,43.483588],[25.631571,43.483454],[25.638766,43.483855],[25.649099,43.489879],[25.651866,43.493761],[25.654818,43.502461],[25.655925,43.507278],[25.663675,43.511828],[25.677881,43.512363],[25.690797,43.514905],[25.699099,43.517849],[25.703159,43.520792],[25.71386,43.52708],[25.714967,43.532832],[25.715336,43.542061],[25.716443,43.551556],[25.720502,43.559311],[25.723823,43.569873],[25.724746,43.578161],[25.721794,43.584041],[25.710723,43.590857],[25.681387,43.606624],[25.669948,43.613036],[25.656479,43.620249],[25.635814,43.636275],[25.627327,43.643219],[25.623268,43.64976],[25.617523,43.666049],[25.614216,43.665643],[25.596198,43.660822],[25.585338,43.656001],[25.572504,43.650643],[25.555967,43.644571],[25.538196,43.638498],[25.523634,43.635104],[25.498952,43.634568],[25.489326,43.631531],[25.483492,43.622078],[25.490794,43.613303],[25.493746,43.60796],[25.492823,43.601948],[25.485812,43.597137],[25.477878,43.592861],[25.468469,43.589654],[25.46035,43.585779],[25.45666,43.581502],[25.454077,43.575888],[25.455553,43.570942],[25.459428,43.565996],[25.468469,43.551422],[25.474926,43.543666],[25.484705,43.52815],[25.488764,43.520659],[25.49393,43.514103],[25.500203,43.509553],[25.506744,43.49982],[25.510536,43.497642],[25.521975,43.497642],[25.534521,43.497241],[25.546883,43.497375]]]}},
{"type":"Feature","id":"BGR:ADM2:BG-18.borovo","properties":{"shapeName":"Borovo","shapeISO":"","shapeGroup":"BGR","shapeType":"ADM2","adm1ISO":"BG-18","parentISO":"BG-18","parentID":"BGR:ADM1:BG-18","src_shape_id":"11073933B62798843738598"},"geometry":{"type":"Polygon","coordinates":[[[25.751245,43.698117],[25.749472,43.69688],[25.723309,43.689206],[25.695665,43.677604],[25.676907,43.67207],[25.659136,43.667964],[25.643093,43.667785],[25.627297,43.66725],[25.617523,43.666049],[25.623268,43.64976],[25.627327,43.643219],[25.635814,43.636275],[25.656479,43.620249],[25.669948,43.613036],[25.681387,43.606624],[25.710723,43.590857],[25.721794,43.584041],[25.724746,43.578161],[25.723823,43.569873],[25.720502,43.559311],[25.716443,43.551556],[25.715336,43.542061],[25.714967,43.532832],[25.71386,43.52708],[25.721425,43.526813],[25.729912,43.52494],[25.736369,43.521595],[25.740982,43.516645],[25.753159,43.500453],[25.75851,43.482115],[25.763123,43.474618],[25.769211,43.467253],[25.778436,43.461093],[25.787662,43.459218],[25.801315,43.458281],[25.821426,43.457611],[25.839323,43.458013],[25.843198,43.467655],[25.84246,43.474216],[25.835817,43.481446],[25.829913,43.488541],[25.826592,43.493627],[25.821057,43.5042],[25.817367,43.518518],[25.817367,43.535641],[25.818105,43.548748],[25.820504,43.560648],[25.824009,43.571477],[25.830651,43.588719],[25.83305,43.595935],[25.838401,43.613704],[25.844305,43.627061],[25.846654,43.631793],[25.840615,43.63988],[25.833603,43.646423],[25.825485,43.652831],[25.816629,43.66084],[25.807773,43.664978],[25.802238,43.666579],[25.794857,43.669916],[25.786739,43.672318],[25.777698,43.676989],[25.767735,43.684061],[25.758879,43.691265],[25.751245,43.698117]]]}},
{"type":"Feature","id":"BGR:ADM2:BG-18.byala","properties":{"shapeName":"Byala","shapeISO":"","shapeGroup":"BGR","shapeType":"ADM2","adm1ISO":"BG-18","parentISO":"BG-18","parentID":"BGR:ADM1:BG-18","src_shape_id":"11073933B66669987345293"},"geometry":{"type":"Polygon","coordinates":[[[25.933605,43.401737],[25.928439,43.402809],[25.922904,43.40616],[25.916077,43.41179],[25.906483,43.418357],[25.881575,43.427872],[25.861279,43.435375],[25.851316,43.441805],[25.843567,43.447833],[25.839323,43.458013],[25.821426,43.457611],[25.801315,43.458281],[25.787662,43.459218],[25.778436,43.461093],[25.769211,43.467253],[25.763123,43.474618],[25.75851,43.482115],[25.753159,43.500453],[25.740982,43.516645],[25.736369,43.521595],[25.729912,43.52494],[25.721425,43.526813],[25.71386,43.52708],[25.703159,43.520792],[25.699099,43.517849],[25.690797,43.514905],[25.677881,43.512363],[25.663675,43.511828],[25.655925,43.507278],[25.654818,43.502461],[25.651866,43.493761],[25.649099,43.489879],[25.638766,43.483855],[25.631571,43.483454],[25.621239,43.483588],[25.613305,43.486131],[25.608877,43.491887],[25.607401,43.506877],[25.599836,43.511694],[25.591902,43.512898],[25.575112,43.511962],[25.565887,43.509553],[25.5574,43.504869],[25.550204,43.500052],[25.546883,43.497375],[25.546699,43.488273],[25.544669,43.478902],[25.542824,43.457209],[25.540979,43.450244],[25.538211,43.436045],[25.54061,43.431355],[25.555924,43.421573],[25.563673,43.419429],[25.573821,43.415543],[25.58157,43.41313],[25.589319,43.409377],[25.597991,43.407099],[25.611829,43.402943],[25.632124,43.398385],[25.638213,43.397715],[25.644486,43.397715],[25.650759,43.400128],[25.655003,43.404686],[25.660907,43.406965],[25.671424,43.407233],[25.680096,43.403346],[25.686184,43.399324],[25.694302,43.395168],[25.706664,43.389537],[25.726406,43.381492],[25.741351,43.376664],[25.757034,43.372104],[25.768658,43.369824],[25.780665,43.368547],[25.790798,43.366337],[25.810356,43.363922],[25.831943,43.359764],[25.848733,43.359093],[25.865707,43.35963],[25.883051,43.361642],[25.89246,43.365398],[25.90021,43.367946],[25.908143,43.368349],[25.916446,43.366605],[25.923273,43.362983],[25.924195,43.356142],[25.922904,43.347287],[25.923457,43.341115],[25.931022,43.331989],[25.942092,43.323534],[25.951871,43.319775],[25.967554,43.316419],[25.98379,43.317225],[25.997072,43.318788],[25.996336,43.329171],[25.997259,43.335076],[25.999842,43.340846],[26.003532,43.346482],[26.002425,43.353861],[25.992093,43.364056],[25.985451,43.368885],[25.976041,43.372775],[25.966447,43.375993],[25.958698,43.378944],[25.95021,43.384039],[25.942092,43.386989],[25.936188,43.391816],[25.933605,43.401737]]]}},
{"type":"Feature","id":"BGR:ADM2:BG-18.dve-mogili","properties":{"shapeName":"Dve Mogili","shapeISO":"","shapeGroup":"BGR","shapeType":"ADM2","adm1ISO":"BG-18","parentISO":"BG-18","parentID":"BGR:ADM1:BG-18","src_shape_id":"11073933B86451803729489"},"geometry":{"type":"Polygon","coordinates":[[[26.046602,43.57426],[26.040064,43.574017],[26.030839,43.572947],[26.02475,43.57121],[26.014602,43.569873],[26.001318,43.570007],[25.984344,43.570675],[25.972166,43.572814],[25.957591,43.577626],[25.950395,43.582705],[25.942646,43.597672],[25.938587,43.601948],[25.931022,43.608895],[25.917922,43.620383],[25.897257,43.628129],[25.886187,43.630934],[25.87032,43.632002],[25.858142,43.628797],[25.851685,43.629198],[25.847995,43.629999],[25.846654,43.631793],[25.844305,43.627061],[25.838401,43.613704],[25.83305,43.595935],[25.830651,43.588719],[25.824009,43.571477],[25.820504,43.560648],[25.818105,43.548748],[25.817367,43.535641],[25.817367,43.518518],[25.821057,43.5042],[25.826592,43.493627],[25.829913,43.488541],[25.835817,43.481446],[25.84246,43.474216],[25.843198,43.467655],[25.839323,43.458013],[25.843567,43.447833],[25.851316,43.441805],[25.861279,43.435375],[25.881575,43.427872],[25.906483,43.418357],[25.916077,43.41179],[25.922904,43.40616],[25.928439,43.402809],[25.933605,43.401737],[25.945102,43.406295],[25.954904,43.408808],[25.962399,43.414043],[25.970471,43.421163],[25.976814,43.42556],[25.983156,43.43226],[25.987576,43.439319],[25.992093,43.443564],[26.00276,43.450261],[26.012561,43.462817],[26.016886,43.472023],[26.019192,43.482483],[26.023516,43.496078],[26.026687,43.505279],[26.031012,43.509879],[26.043697,43.51427],[26.058399,43.51636],[26.087805,43.519914],[26.095231,43.521863],[26.094308,43.52815],[26.088035,43.536176],[26.086744,43.541392],[26.081762,43.545137],[26.080286,43.549818],[26.077703,43.555166],[26.07309,43.559579],[26.068662,43.564525],[26.062205,43.569205],[26.055562,43.573482],[26.046602,43.57426]]]}}
]}