{"type":"FeatureCollection","bbox":[26.339819,43.665512,27.696523,44.138334],"features":[
{"type":"Feature","id":"BGR:ADM2:BG-19.kaynardzha","properties":{"shapeName":"Kaynardzha","shapeISO":"","shapeGroup":"BGR","shapeType":"ADM2","adm1ISO":"BG-19","parentISO":"BG-19","parentID":"BGR:ADM1:BG-19","src_shape_id":"11073933B39232129235633"},"geometry":{"type":"Polygon","coordinates":[[[27.696523,43.989011],[27.690586,44.001216],[27.684408,44.015354],[27.683566,44.025855],[27.677949,44.033931],[27.670648,44.040795],[27.667559,44.046447],[27.655483,44.052301],[27.649024,44.053713],[27.645093,44.050484],[27.642285,44.044631],[27.635545,44.038373],[27.62712,44.032518],[27.61336,44.025047],[27.600442,44.022018],[27.581908,44.019797],[27.554387,44.021009],[27.535291,44.024845],[27.522373,44.026057],[27.484743,44.026865],[27.459749,44.025653],[27.445147,44.022018],[27.437082,44.021083],[27.437318,44.015239],[27.435473,44.005287],[27.4292,43.99374],[27.421819,43.986439],[27.414993,43.978474],[27.410749,43.974889],[27.414255,43.968913],[27.415731,43.957094],[27.416653,43.946202],[27.415731,43.935441],[27.410934,43.914178],[27.407982,43.903145],[27.406506,43.884664],[27.405768,43.850346],[27.41407,43.856466],[27.42145,43.858595],[27.431598,43.862985],[27.43824,43.868572],[27.447466,43.870966],[27.456875,43.871232],[27.467577,43.868306],[27.472005,43.864581],[27.478647,43.854603],[27.486027,43.851543],[27.49968,43.850213],[27.506138,43.850213],[27.518131,43.855535],[27.520714,43.861255],[27.524958,43.868173],[27.527172,43.875222],[27.529939,43.881207],[27.535474,43.888786],[27.539718,43.902747],[27.545438,43.909127],[27.549128,43.914444],[27.554109,43.916305],[27.56112,43.914045],[27.564811,43.909925],[27.571822,43.905007],[27.57994,43.902082],[27.584091,43.901467],[27.597752,43.904855],[27.613644,43.909529],[27.620779,43.912917],[27.626617,43.916421],[27.626455,43.920977],[27.62159,43.925415],[27.617698,43.92997],[27.620455,43.938378],[27.629049,43.947486],[27.638779,43.95916],[27.646725,43.971298],[27.664563,43.982268],[27.672995,43.985885],[27.682563,43.988218],[27.696523,43.989011]]]}},
{"type":"Feature","id":"BGR:ADM2:BG-19.dulovo","properties":{"shapeName":"Dulovo","shapeISO":"","shapeGroup":"BGR","shapeType":"ADM2","adm1ISO":"BG-19","parentISO":"BG-19","parentID":"BGR:ADM1:BG-19","src_shape_id":"11073933B33604860566485"},"geometry":{"type":"Polygon","coordinates":[[[27.307869,43.812146],[27.30429,43.814144],[27.287685,43.821599],[27.279751,43.825992],[27.264068,43.831981],[27.249123,43.839301],[27.235285,43.845156],[27.225691,43.850878],[27.224953,43.855535],[27.226429,43.861787],[27.231964,43.873493],[27.231964,43.877483],[27.230304,43.883467],[27.225875,43.887856],[27.219418,43.891313],[27.212222,43.893307],[27.202259,43.898625],[27.195801,43.902747],[27.191373,43.906469],[27.179565,43.907133],[27.172369,43.908862],[27.16259,43.908064],[27.148568,43.903677],[27.14045,43.900885],[27.130487,43.896764],[27.118863,43.895302],[27.112221,43.898227],[27.108715,43.90381],[27.106501,43.912982],[27.104102,43.920691],[27.090449,43.927468],[27.082331,43.928797],[27.0756,43.928855],[27.062257,43.933958],[27.056471,43.935063],[27.049268,43.935488],[27.042537,43.933958],[27.037814,43.930556],[27.035806,43.926644],[27.02754,43.919075],[27.019629,43.914056],[27.008883,43.908271],[26.996012,43.903082],[26.972986,43.901125],[26.967672,43.899423],[26.963894,43.889808],[26.96413,43.882999],[26.959288,43.873807],[26.951849,43.868699],[26.938742,43.866741],[26.929886,43.865805],[26.923155,43.863421],[26.916779,43.862995],[26.914653,43.865975],[26.917605,43.871423],[26.925753,43.87585],[26.92776,43.880701],[26.926816,43.886148],[26.920557,43.889893],[26.917787,43.892119],[26.907697,43.891911],[26.900202,43.889003],[26.886652,43.877574],[26.884922,43.871963],[26.887229,43.864689],[26.890976,43.859908],[26.891841,43.854504],[26.893571,43.850554],[26.911733,43.849514],[26.933067,43.849098],[26.94258,43.847643],[26.947481,43.844108],[26.947193,43.835583],[26.943445,43.829344],[26.937391,43.822273],[26.929607,43.8152],[26.913463,43.802302],[26.906544,43.796475],[26.897319,43.790649],[26.893859,43.787527],[26.894436,43.77941],[26.893571,43.75755],[26.909715,43.752345],[26.925283,43.752136],[26.935949,43.753177],[26.94431,43.750679],[26.95041,43.746472],[26.955761,43.742206],[26.958344,43.735808],[26.960189,43.729142],[26.968491,43.717942],[26.97827,43.713407],[26.989025,43.712731],[27.009636,43.712074],[27.028086,43.717541],[27.043216,43.722875],[27.059268,43.726475],[27.070338,43.727409],[27.081224,43.726475],[27.09211,43.722742],[27.100228,43.717541],[27.104287,43.710874],[27.107608,43.70007],[27.110745,43.694601],[27.117756,43.687396],[27.136391,43.671784],[27.145431,43.666579],[27.152996,43.665512],[27.168864,43.667914],[27.180856,43.672318],[27.193218,43.674453],[27.200598,43.67432],[27.208532,43.672318],[27.212591,43.670183],[27.22078,43.66741],[27.225566,43.670103],[27.240326,43.675911],[27.241271,43.681035],[27.241034,43.688037],[27.237492,43.693074],[27.222923,43.702871],[27.214436,43.709807],[27.208717,43.717008],[27.209639,43.731808],[27.211041,43.739247],[27.213521,43.745645],[27.219425,43.752043],[27.228754,43.757843],[27.244105,43.762789],[27.260754,43.768588],[27.270083,43.774898],[27.276459,43.778308],[27.282482,43.782401],[27.295234,43.795869],[27.305035,43.802773],[27.307869,43.812146]]]}},
{"type":"Feature","id":"BGR:ADM2:BG-19.silistra","properties":{"shapeName":"Silistra","shapeISO":"","shapeGroup":"BGR","shapeType":"ADM2","adm1ISO":"BG-19","parentISO":"BG-19","parentID":"BGR:ADM1:BG-19","src_shape_id":"11073933B30647455597456"},"geometry":{"type":"Polygon","coordinates":[[[27.437082,44.021083],[27.427736,44.019999],[27.406674,44.01798],[27.395441,44.021211],[27.38505,44.026259],[27.376064,44.033729],[27.365674,44.051897],[27.349105,44.059566],[27.338434,44.065418],[27.320742,44.071673],[27.308386,44.075103],[27.295749,44.08055],[27.286481,44.087408],[27.280022,44.094064],[27.278618,44.102938],[27.281707,44.108987],[27.282831,44.116044],[27.282269,44.125519],[27.27244,44.128744],[27.263173,44.127535],[27.252221,44.122899],[27.232563,44.118867],[27.205323,44.119472],[27.183419,44.121487],[27.16657,44.126729],[27.153933,44.131768],[27.139049,44.136202],[27.12844,44.137271],[27.106967,44.136563],[27.090184,44.13426],[27.076609,44.13426],[27.060812,44.138157],[27.031441,44.138334],[27.001083,44.138157],[26.981776,44.136756],[26.981407,44.119837],[26.982329,44.111492],[26.984359,44.103013],[26.986573,44.090691],[26.987495,44.083799],[26.988233,44.073991],[26.990079,44.063651],[26.994876,44.05954],[27.024581,44.058215],[27.030854,44.056226],[27.040633,44.048269],[27.047644,44.04323],[27.049489,44.037527],[27.047644,44.030894],[27.042847,44.024659],[27.040817,44.019883],[27.042109,44.015107],[27.054286,44.002633],[27.057976,43.997324],[27.064249,43.992678],[27.069231,43.985112],[27.073106,43.977146],[27.07698,43.970374],[27.078456,43.963734],[27.081593,43.956828],[27.083622,43.947397],[27.082515,43.938629],[27.082331,43.928797],[27.090449,43.927468],[27.104102,43.920691],[27.106501,43.912982],[27.108715,43.90381],[27.112221,43.898227],[27.118863,43.895302],[27.130487,43.896764],[27.14045,43.900885],[27.148568,43.903677],[27.16259,43.908064],[27.172369,43.908862],[27.179565,43.907133],[27.191373,43.906469],[27.192111,43.918166],[27.197093,43.92481],[27.206133,43.930923],[27.208163,43.936769],[27.208901,43.944076],[27.211484,43.950585],[27.216466,43.955234],[27.225322,43.961211],[27.232518,43.965328],[27.252444,43.972897],[27.264437,43.976349],[27.279751,43.98312],[27.284732,43.9879],[27.286209,43.995598],[27.288423,43.999448],[27.294327,44.002367],[27.305397,44.002102],[27.314069,43.997589],[27.325323,43.992413],[27.330674,43.987501],[27.331966,43.981394],[27.333811,43.975951],[27.341006,43.965062],[27.346357,43.961609],[27.356505,43.959883],[27.366284,43.959485],[27.3768,43.962539],[27.388424,43.969046],[27.398941,43.9721],[27.410749,43.974889],[27.414993,43.978474],[27.421819,43.986439],[27.4292,43.99374],[27.435473,44.005287],[27.437318,44.015239],[27.437082,44.021083]]]}},
{"type":"Feature","id":"BGR:ADM2:BG-19.sitovo","properties":{"shapeName":"Sitovo","shapeISO":"","shapeGroup":"BGR","shapeType":"ADM2","adm1ISO":"BG-19","parentISO":"BG-19","parentID":"BGR:ADM1:BG-19","src_shape_id":"11073933B55826342844923"},"geometry":{"type":"Polygon","coordinates":[[[27.082331,43.928797],[27.082515,43.938629],[27.083622,43.947397],[27.081593,43.956828],[27.078456,43.963734],[27.07698,43.970374],[27.073106,43.977146],[27.069231,43.985112],[27.064249,43.992678],[27.057976,43.997324],[27.054286,44.002633],[27.042109,44.015107],[27.040817,44.019883],[27.042847,44.024659],[27.047644,44.030894],[27.049489,44.037527],[27.047644,44.04323],[27.040633,44.048269],[27.030854,44.056226],[27.024581,44.058215],[26.994876,44.05954],[26.990079,44.063651],[26.988233,44.073991],[26.987495,44.083799],[26.986573,44.090691],[26.984359,44.103013],[26.982329,44.111492],[26.981407,44.119837],[26.981776,44.136756],[26.954681,44.134791],[26.917412,44.128591],[26.883844,44.121681],[26.86185,44.114234],[26.861571,44.106135],[26.863301,44.091436],[26.867049,44.080047],[26.873679,44.066377],[26.879733,44.059126],[26.889247,44.052911],[26.908274,44.042136],[26.91058,44.036955],[26.910868,44.024933],[26.909427,44.009799],[26.909427,44.001505],[26.914616,43.990928],[26.919805,43.985327],[26.923841,43.979312],[26.925283,43.97288],[26.919229,43.969768],[26.915769,43.965826],[26.918652,43.961053],[26.928166,43.959601],[26.938544,43.960638],[26.946328,43.957941],[26.951805,43.950884],[26.953247,43.943204],[26.951805,43.937392],[26.946328,43.927427],[26.930184,43.912268],[26.919517,43.901259],[26.918076,43.896689],[26.917787,43.892119],[26.920557,43.889893],[26.926816,43.886148],[26.92776,43.880701],[26.925753,43.87585],[26.917605,43.871423],[26.914653,43.865975],[26.916779,43.862995],[26.923155,43.863421],[26.929886,43.865805],[26.938742,43.866741],[26.951849,43.868699],[26.959288,43.873807],[26.96413,43.882999],[26.963894,43.889808],[26.967672,43.899423],[26.972986,43.901125],[26.996012,43.903082],[27.008883,43.908271],[27.019629,43.914056],[27.02754,43.919075],[27.035806,43.926644],[27.037814,43.930556],[27.042537,43.933958],[27.049268,43.935488],[27.056471,43.935063],[27.062257,43.933958],[27.0756,43.928855],[27.082331,43.928797]]]}},
{"type":"Feature","id":"BGR:ADM2:BG-19.alfatar","properties":{"shapeName":"Alfatar","shapeISO":"","shapeGroup":"BGR","shapeType":"ADM2","adm1ISO":"BG-19","parentISO":"BG-19","parentID":"BGR:ADM1:BG-19","src_shape_id":"11073933B44794067046829"},"geometry":{"type":"Polygon","coordinates":[[[27.410749,43.974889],[27.398941,43.9721],[27.388424,43.969046],[27.3768,43.962539],[27.366284,43.959485],[27.356505,43.959883],[27.346357,43.961609],[27.341006,43.965062],[27.333811,43.975951],[27.331966,43.981394],[27.330674,43.987501],[27.325323,43.992413],[27.314069,43.997589],[27.305397,44.002102],[27.294327,44.002367],[27.288423,43.999448],[27.286209,43.995598],[27.284732,43.9879],[27.279751,43.98312],[27.264437,43.976349],[27.252444,43.972897],[27.232518,43.965328],[27.225322,43.961211],[27.216466,43.955234],[27.211484,43.950585],[27.208901,43.944076],[27.208163,43.936769],[27.206133,43.930923],[27.197093,43.92481],[27.192111,43.918166],[27.191373,43.906469],[27.195801,43.902747],[27.202259,43.898625],[27.212222,43.893307],[27.219418,43.891313],[27.225875,43.887856],[27.230304,43.883467],[27.231964,43.877483],[27.231964,43.873493],[27.226429,43.861787],[27.224953,43.855535],[27.225691,43.850878],[27.235285,43.845156],[27.249123,43.839301],[27.264068,43.831981],[27.279751,43.825992],[27.287685,43.821599],[27.30429,43.814144],[27.307869,43.812146],[27.320858,43.811806],[27.337626,43.813339],[27.357937,43.817685],[27.378719,43.823904],[27.389465,43.829697],[27.395487,43.835745],[27.404461,43.847243],[27.405768,43.850346],[27.406506,43.884664],[27.407982,43.903145],[27.410934,43.914178],[27.415731,43.935441],[27.416653,43.946202],[27.415731,43.957094],[27.414255,43.968913],[27.410749,43.974889]]]}},
{"type":"Feature","id":"BGR:ADM2:BG-19.tutrakan","properties":{"shapeName":"Tutrakan","shapeISO":"","shapeGroup":"BGR","shapeType":"ADM2","adm1ISO":"BG-19","parentISO":"BG-19","parentID":"BGR:ADM1:BG-19","src_shape_id":"11073933B88856800250230"},"geometry":{"type":"Polygon","coordinates":[[[26.651395,43.869145],[26.655156,43.872587],[26.662652,43.880691],[26.673895,43.888587],[26.680814,43.893989],[26.701859,43.908945],[26.70849,43.916214],[26.711373,43.922651],[26.714256,43.933448],[26.719157,43.938015],[26.726075,43.941751],[26.736454,43.948186],[26.743949,43.953167],[26.750292,43.961468],[26.753751,43.968108],[26.754616,43.974748],[26.753175,43.991757],[26.745679,44.002956],[26.747121,44.01125],[26.754616,44.021616],[26.756634,44.025762],[26.757787,44.039234],[26.757787,44.052082],[26.758075,44.065548],[26.757735,44.075346],[26.738963,44.073468],[26.70268,44.073114],[26.683675,44.070631],[26.658253,44.059635],[26.624192,44.054314],[26.594328,44.052363],[26.547679,44.049702],[26.511644,44.042783],[26.47314,44.037105],[26.437845,44.032137],[26.382805,44.027346],[26.359851,44.024151],[26.34751,44.020424],[26.339819,44.018869],[26.340807,44.015239],[26.342836,44.012586],[26.350216,44.008472],[26.359073,44.004756],[26.368851,44.00104],[26.376232,43.997589],[26.381213,43.994802],[26.384534,43.988829],[26.383612,43.983917],[26.380475,43.976084],[26.376047,43.96971],[26.37125,43.964398],[26.369589,43.959617],[26.370696,43.952445],[26.375125,43.946467],[26.394025,43.945777],[26.414454,43.945777],[26.428742,43.945352],[26.440196,43.943311],[26.456255,43.939655],[26.462749,43.935233],[26.467473,43.929621],[26.473613,43.923412],[26.484713,43.919415],[26.496521,43.91899],[26.506676,43.921711],[26.519193,43.925964],[26.526869,43.930216],[26.538323,43.933618],[26.555208,43.936679],[26.563356,43.935999],[26.570323,43.932937],[26.579534,43.925284],[26.586619,43.918649],[26.591342,43.910823],[26.600316,43.901465],[26.608346,43.889978],[26.620272,43.881723],[26.634324,43.873977],[26.651395,43.869145]]]}},
{"type":"Feature","id":"BGR:ADM2:BG-19.glavinitsa","properties":{"shapeName":"Glavinitsa","shapeISO":"","shapeGroup":"BGR","shapeType":"ADM2","adm1ISO":"BG-19","parentISO":"BG-19","parentID":"BGR:ADM1:BG-19","src_shape_id":"11073933B54949392728040"},"geometry":{"type":"Polygon","coordinates":[[[26.917787,43.892119],[26.918076,43.896689],[26.919517,43.901259],[26.930184,43.912268],[26.946328,43.927427],[26.951805,43.937392],[26.953247,43.943204],[26.951805,43.950884],[26.946328,43.957941],[26.938544,43.960638],[26.928166,43.959601],[26.918652,43.961053],[26.915769,43.965826],[26.919229,43.969768],[26.925283,43.97288],[26.923841,43.979312],[26.919805,43.985327],[26.914616,43.990928],[26.909427,44.001505],[26.909427,44.009799],[26.910868,44.024933],[26.91058,44.036955],[26.908274,44.042136],[26.889247,44.052911],[26.879733,44.059126],[26.873679,44.066377],[26.867049,44.080047],[26.863301,44.091436],[26.861571,44.106135],[26.86185,44.114234],[26.835715,44.106796],[26.81597,44.098998],[26.798692,44.093148],[26.758461,44.075419],[26.757735,44.075346],[26.758075,44.065548],[26.757787,44.052082],[26.757787,44.039234],[26.756634,44.025762],[26.754616,44.021616],[26.747121,44.01125],[26.745679,44.002956],[26.753175,43.991757],[26.754616,43.974748],[26.753751,43.968108],[26.750292,43.961468],[26.743949,43.953167],[26.736454,43.948186],[26.726075,43.941751],[26.719157,43.938015],[26.714256,43.933448],[26.711373,43.922651],[26.70849,43.916214],[26.701859,43.908945],[26.680814,43.893989],[26.673895,43.888587],[26.662652,43.880691],[26.655156,43.872587],[26.651395,43.869145],[26.664908,43.863932],[26.671756,43.860526],[26.68262,43.85397],[26.697735,43.849031],[26.719344,43.842899],[26.731861,43.841366],[26.744141,43.838726],[26.750872,43.831912],[26.75299,43.827056],[26.755389,43.824128],[26.767491,43.822795],[26.775869,43.822664],[26.790075,43.827056],[26.799301,43.828654],[26.811294,43.833711],[26.81812,43.837571],[26.826792,43.841297],[26.832512,43.839301],[26.835279,43.83451],[26.848748,43.815741],[26.851885,43.810149],[26.857973,43.803625],[26.862955,43.799364],[26.872365,43.79377],[26.883804,43.79124],[26.893859,43.787527],[26.897319,43.790649],[26.906544,43.796475],[26.913463,43.802302],[26.929607,43.8152],[26.937391,43.822273],[26.943445,43.829344],[26.947193,43.835583],[26.947481,43.844108],[26.94258,43.847643],[26.933067,43.849098],[26.911733,43.849514],[26.893571,43.850554],[26.891841,43.854504],[26.890976,43.859908],[26.887229,43.864689],[26.884922,43.871963],[26.886652,43.877574],[26.900202,43.889003],[26.907697,43.891911],[26.917787,43.892119]]]}}
]}