{"type":"FeatureCollection","bbox":[24.97548,42.023872,26.173649,42.794854],"features":[
{"type":"Feature","id":"BGR:ADM2:BG-24.pavel-banya","properties":{"shapeName":"Pavel Banya","shapeISO":"","shapeGroup":"BGR","shapeType":"ADM2","adm1ISO":"BG-24","parentISO":"BG-24","parentID":"BGR:ADM1:BG-24","src_shape_id":"11073933B29358282959248"},"geometry":{"type":"Polygon","coordinates":[[[24.988573,42.753859],[24.988883,42.731568],[24.988883,42.700442],[24.990423,42.682892],[24.991193,42.666187],[24.989653,42.64976],[24.989283,42.639596],[24.986572,42.630892],[24.982135,42.620917],[24.975727,42.609853],[24.97548,42.602959],[24.979424,42.596065],[24.987804,42.584451],[24.993473,42.57701],[24.996924,42.569387],[24.99791,42.560492],[24.995967,42.553607],[24.998807,42.546286],[25.003066,42.53908],[25.00906,42.527805],[25.017736,42.521178],[25.030829,42.512923],[25.043764,42.508388],[25.059854,42.50362],[25.076575,42.503039],[25.103707,42.503155],[25.129104,42.506063],[25.138096,42.509435],[25.146299,42.51083],[25.155763,42.507342],[25.169014,42.494432],[25.17138,42.490245],[25.222174,42.490012],[25.222559,42.48987],[25.223682,42.493829],[25.227133,42.498009],[25.230584,42.506368],[25.229105,42.511819],[25.222943,42.518722],[25.214316,42.525625],[25.209387,42.534344],[25.208401,42.544877],[25.207908,42.553411],[25.20988,42.560492],[25.218506,42.575921],[25.225901,42.585903],[25.238471,42.598605],[25.248577,42.612392],[25.257943,42.623456],[25.26509,42.632887],[25.264597,42.640684],[25.261393,42.64431],[25.25326,42.646304],[25.237978,42.653918],[25.222943,42.664612],[25.211851,42.673855],[25.197802,42.687988],[25.185725,42.703024],[25.17907,42.719504],[25.173155,42.73073],[25.1665,42.749919],[25.162556,42.762587],[25.153762,42.775965],[25.147263,42.775011],[25.122567,42.769922],[25.101987,42.764674],[25.085524,42.759108],[25.061261,42.752268],[25.028983,42.748927],[25.003854,42.748927],[24.989773,42.753859],[24.988573,42.753859]]]}},
{"type":"Feature","id":"BGR:ADM2:BG-24.kazanlak","properties":{"shapeName":"Kazanlak","shapeISO":"","shapeGroup":"BGR","shapeType":"ADM2","adm1ISO":"BG-24","parentISO":"BG-24","parentID":"BGR:ADM1:BG-24","src_shape_id":"11073933B88650008851830"},"geometry":{"type":"Polygon","coordinates":[[[25.173042,42.7925],[25.168926,42.79091],[25.16416,42.785982],[25.153762,42.775965],[25.162556,42.762587],[25.1665,42.749919],[25.173155,42.73073],[25.17907,42.719504],[25.185725,42.703024],[25.197802,42.687988],[25.211851,42.673855],[25.222943,42.664612],[25.237978,42.653918],[25.25326,42.646304],[25.261393,42.64431],[25.264597,42.640684],[25.26509,42.632887],[25.257943,42.623456],[25.248577,42.612392],[25.238471,42.598605],[25.225901,42.585903],[25.218506,42.575921],[25.20988,42.560492],[25.207908,42.553411],[25.208401,42.544877],[25.209387,42.534344],[25.214316,42.525625],[25.222943,42.518722],[25.229105,42.511819],[25.230584,42.506368],[25.227133,42.498009],[25.223682,42.493829],[25.222559,42.48987],[25.227537,42.488035],[25.240946,42.476052],[25.248517,42.472795],[25.265081,42.472678],[25.291897,42.475238],[25.315401,42.481404],[25.327942,42.483105],[25.341035,42.486037],[25.352343,42.490012],[25.355547,42.493466],[25.360477,42.500916],[25.363435,42.511092],[25.36935,42.515271],[25.38192,42.516179],[25.39942,42.516179],[25.414948,42.513636],[25.425547,42.509457],[25.43861,42.502188],[25.445265,42.496373],[25.447483,42.490739],[25.450934,42.48565],[25.459807,42.481288],[25.46868,42.48147],[25.480018,42.48565],[25.491356,42.494011],[25.498257,42.502734],[25.507623,42.513454],[25.510088,42.520539],[25.51226,42.537488],[25.507254,42.547703],[25.503017,42.55281],[25.496856,42.56132],[25.493389,42.572098],[25.491849,42.601304],[25.487613,42.632762],[25.485687,42.661372],[25.485687,42.688271],[25.487613,42.731002],[25.488198,42.747645],[25.482105,42.751373],[25.468227,42.758084],[25.459088,42.765042],[25.448595,42.771254],[25.433363,42.777217],[25.4029,42.777963],[25.406285,42.766285],[25.411023,42.761066],[25.41407,42.756593],[25.416317,42.749087],[25.412418,42.7432],[25.404836,42.739223],[25.395521,42.739541],[25.372775,42.743996],[25.352845,42.748927],[25.320784,42.75704],[25.29977,42.760539],[25.264676,42.76213],[25.240631,42.761971],[25.224817,42.764038],[25.212902,42.768332],[25.196438,42.775329],[25.188423,42.78153],[25.180624,42.788049],[25.173042,42.7925]]]}},
{"type":"Feature","id":"BGR:ADM2:BG-24.maglizh","properties":{"shapeName":"Maglizh","shapeISO":"","shapeGroup":"BGR","shapeType":"ADM2","adm1ISO":"BG-24","parentISO":"BG-24","parentID":"BGR:ADM1:BG-24","src_shape_id":"11073933B51329613848937"},"geometry":{"type":"Polygon","coordinates":[[[25.488198,42.747645],[25.487613,42.731002],[25.485687,42.688271],[25.485687,42.661372],[25.487613,42.632762],[25.491849,42.601304],[25.493389,42.572098],[25.496856,42.56132],[25.503017,42.55281],[25.507254,42.547703],[25.51226,42.537488],[25.510088,42.520539],[25.520194,42.520902],[25.53794,42.523991],[25.550017,42.525625],[25.574912,42.525444],[25.599313,42.525625],[25.633573,42.52835],[25.643925,42.533981],[25.649101,42.539611],[25.657235,42.54524],[25.659453,42.549598],[25.666847,42.553956],[25.677818,42.553956],[25.680404,42.559766],[25.685826,42.563397],[25.689277,42.570295],[25.68903,42.580459],[25.691495,42.595339],[25.705051,42.605862],[25.713185,42.615295],[25.71565,42.624363],[25.716389,42.637964],[25.701354,42.64014],[25.688537,42.645216],[25.674981,42.65283],[25.662164,42.664431],[25.651812,42.678023],[25.64146,42.693423],[25.628151,42.714253],[25.617552,42.728558],[25.608468,42.74145],[25.593087,42.742882],[25.584206,42.746859],[25.580306,42.752586],[25.575107,42.75879],[25.568175,42.763561],[25.548448,42.764297],[25.539309,42.761812],[25.528816,42.757338],[25.520015,42.752119],[25.502753,42.747645],[25.488198,42.747645]]]}},
{"type":"Feature","id":"BGR:ADM2:BG-24.nikolaevo","properties":{"shapeName":"Nikolaevo","shapeISO":"","shapeGroup":"BGR","shapeType":"ADM2","adm1ISO":"BG-24","parentISO":"BG-24","parentID":"BGR:ADM1:BG-24","src_shape_id":"11073933B55534088027762"},"geometry":{"type":"Polygon","coordinates":[[[25.677818,42.553956],[25.680157,42.553956],[25.704558,42.552322],[25.72403,42.552322],[25.755086,42.555227],[25.801177,42.560492],[25.80872,42.560484],[25.808079,42.572291],[25.806353,42.581548],[25.803395,42.590621],[25.802163,42.602959],[25.802656,42.622731],[25.80167,42.634156],[25.794276,42.63742],[25.782445,42.638145],[25.76741,42.639958],[25.750649,42.644128],[25.739065,42.647936],[25.728467,42.649386],[25.720579,42.647573],[25.717622,42.642678],[25.716389,42.637964],[25.71565,42.624363],[25.713185,42.615295],[25.705051,42.605862],[25.691495,42.595339],[25.68903,42.580459],[25.689277,42.570295],[25.685826,42.563397],[25.680404,42.559766],[25.677818,42.553956]]]}},
{"type":"Feature","id":"BGR:ADM2:BG-24.gurkovo","properties":{"shapeName":"Gurkovo","shapeISO":"","shapeGroup":"BGR","shapeType":"ADM2","adm1ISO":"BG-24","parentISO":"BG-24","parentID":"BGR:ADM1:BG-24","src_shape_id":"11073933B66006739219622"},"geometry":{"type":"Polygon","coordinates":[[[25.630268,42.762791],[25.625798,42.757199],[25.624282,42.750677],[25.61735,42.745109],[25.608468,42.74145],[25.617552,42.728558],[25.628151,42.714253],[25.64146,42.693423],[25.651812,42.678023],[25.662164,42.664431],[25.674981,42.65283],[25.688537,42.645216],[25.701354,42.64014],[25.716389,42.637964],[25.717622,42.642678],[25.720579,42.647573],[25.728467,42.649386],[25.739065,42.647936],[25.750649,42.644128],[25.76741,42.639958],[25.782445,42.638145],[25.794276,42.63742],[25.80167,42.634156],[25.802656,42.622731],[25.802163,42.602959],[25.803395,42.590621],[25.806353,42.581548],[25.808079,42.572291],[25.80872,42.560484],[25.830281,42.560463],[25.846687,42.565691],[25.860884,42.5715],[25.87161,42.576843],[25.877447,42.582651],[25.877762,42.589271],[25.87445,42.597052],[25.873819,42.60576],[25.863782,42.607857],[25.856388,42.611848],[25.84924,42.619285],[25.845297,42.626902],[25.842585,42.641227],[25.84012,42.656093],[25.831987,42.678204],[25.826811,42.694872],[25.81917,42.707552],[25.811036,42.723307],[25.803888,42.740868],[25.799205,42.752815],[25.795508,42.76892],[25.795703,42.791134],[25.778956,42.791625],[25.745446,42.794854],[25.728183,42.794358],[25.69095,42.790135],[25.680457,42.78467],[25.669287,42.779702],[25.65591,42.772944],[25.640313,42.768014],[25.630268,42.762791]]]}},
{"type":"Feature","id":"BGR:ADM2:BG-24.galabovo","properties":{"shapeName":"Galabovo","shapeISO":"","shapeGroup":"BGR","shapeType":"ADM2","adm1ISO":"BG-24","parentISO":"BG-24","parentID":"BGR:ADM1:BG-24","src_shape_id":"11073933B87561701283327"},"geometry":{"type":"Polygon","coordinates":[[[26.117498,42.161204],[26.110259,42.16566],[26.094484,42.170775],[26.077231,42.174976],[26.065893,42.177534],[26.055295,42.176255],[26.046668,42.17315],[26.036809,42.17041],[26.016598,42.170592],[25.98776,42.169862],[25.97519,42.167487],[25.967056,42.1684],[25.94512,42.177899],[25.928113,42.182648],[25.910613,42.186483],[25.893852,42.188309],[25.863289,42.192692],[25.855895,42.198718],[25.85417,42.204743],[25.847761,42.212594],[25.833219,42.225554],[25.824592,42.227927],[25.811815,42.229533],[25.811194,42.220502],[25.813087,42.216413],[25.810721,42.211739],[25.801887,42.209403],[25.789741,42.207533],[25.772704,42.208234],[25.759611,42.210571],[25.745888,42.211739],[25.739578,42.210571],[25.737527,42.20321],[25.737054,42.190121],[25.739893,42.180653],[25.746203,42.167092],[25.752828,42.155984],[25.761347,42.144874],[25.76671,42.133761],[25.768149,42.122896],[25.770861,42.106989],[25.774065,42.096017],[25.778994,42.084859],[25.78417,42.077542],[25.78836,42.075529],[25.806846,42.076627],[25.822374,42.080835],[25.82755,42.08742],[25.829768,42.096199],[25.831001,42.105709],[25.836423,42.1154],[25.841353,42.120154],[25.849487,42.121251],[25.864768,42.117228],[25.876353,42.117411],[25.888183,42.120702],[25.893606,42.120154],[25.902479,42.115217],[25.920225,42.104795],[25.936739,42.099857],[25.954732,42.096199],[25.964838,42.092907],[25.97445,42.085591],[25.986774,42.074249],[26.00107,42.063454],[26.00945,42.055036],[26.01364,42.044786],[26.014692,42.034627],[26.015556,42.034684],[26.023003,42.030661],[26.03045,42.025633],[26.040266,42.023872],[26.050082,42.024124],[26.060575,42.029102],[26.071189,42.035378],[26.080721,42.040687],[26.099351,42.045513],[26.117548,42.04857],[26.135104,42.049315],[26.136525,42.062185],[26.138543,42.077808],[26.136525,42.086152],[26.130183,42.098988],[26.127877,42.107758],[26.121246,42.124652],[26.117787,42.137266],[26.117498,42.161204]]]}},
{"type":"Feature","id":"BGR:ADM2:BG-24.stara-zagora","properties":{"shapeName":"Stara Zagora","shapeISO":"","shapeGroup":"BGR","shapeType":"ADM2","adm1ISO":"BG-24","parentISO":"BG-24","parentID":"BGR:ADM1:BG-24","src_shape_id":"11073933B13326591098915"},"geometry":{"type":"Polygon","coordinates":[[[25.341035,42.486037],[25.341991,42.475107],[25.341252,42.453834],[25.338787,42.431825],[25.337062,42.411083],[25.33509,42.400709],[25.33509,42.390516],[25.353418,42.388732],[25.370928,42.387916],[25.386544,42.382673],[25.410995,42.376614],[25.431659,42.3737],[25.446487,42.370903],[25.454848,42.367873],[25.460369,42.363211],[25.458003,42.353303],[25.45753,42.342694],[25.460842,42.335931],[25.467783,42.327302],[25.477405,42.318554],[25.485135,42.312606],[25.496177,42.298023],[25.496335,42.290905],[25.490183,42.281102],[25.472673,42.270948],[25.461473,42.265928],[25.454848,42.26336],[25.438442,42.256472],[25.432764,42.251685],[25.431975,42.245846],[25.436865,42.239073],[25.446645,42.23557],[25.455321,42.230197],[25.460684,42.224123],[25.463682,42.217581],[25.470149,42.210454],[25.475512,42.206131],[25.509112,42.20321],[25.543027,42.203093],[25.556076,42.203155],[25.567636,42.20321],[25.578205,42.205547],[25.58625,42.210571],[25.586888,42.211394],[25.594137,42.220735],[25.597449,42.22716],[25.603601,42.243745],[25.611962,42.26301],[25.613224,42.266862],[25.620638,42.281569],[25.627263,42.288804],[25.634046,42.293589],[25.643353,42.297906],[25.653449,42.299539],[25.662125,42.299656],[25.696987,42.288688],[25.707555,42.284837],[25.720491,42.283086],[25.734875,42.282635],[25.739105,42.282503],[25.748254,42.286354],[25.753459,42.293472],[25.753302,42.299539],[25.748569,42.305023],[25.74084,42.310856],[25.729167,42.316105],[25.709291,42.318438],[25.693989,42.318088],[25.685944,42.320187],[25.681528,42.328585],[25.681843,42.335931],[25.684209,42.340945],[25.692096,42.34864],[25.710237,42.359481],[25.722226,42.363794],[25.739105,42.369272],[25.757561,42.376031],[25.768603,42.381391],[25.775544,42.386052],[25.780591,42.390363],[25.791318,42.392576],[25.80378,42.392343],[25.814033,42.389431],[25.823498,42.382207],[25.830281,42.374749],[25.838484,42.370204],[25.849053,42.368223],[25.860253,42.370321],[25.869402,42.378828],[25.875081,42.383722],[25.881706,42.385236],[25.886705,42.385236],[25.887444,42.389788],[25.884979,42.400709],[25.882761,42.408171],[25.878571,42.416542],[25.875367,42.424366],[25.868465,42.431825],[25.860578,42.436009],[25.855156,42.440375],[25.854663,42.445831],[25.856141,42.452197],[25.868219,42.462926],[25.874627,42.468926],[25.876846,42.475652],[25.874874,42.48147],[25.870437,42.489649],[25.863782,42.500008],[25.857867,42.508185],[25.851951,42.515452],[25.84505,42.522901],[25.838149,42.531801],[25.832973,42.542153],[25.830281,42.560463],[25.80872,42.560484],[25.801177,42.560492],[25.755086,42.555227],[25.72403,42.552322],[25.704558,42.552322],[25.680157,42.553956],[25.677818,42.553956],[25.666847,42.553956],[25.659453,42.549598],[25.657235,42.54524],[25.649101,42.539611],[25.643925,42.533981],[25.633573,42.52835],[25.599313,42.525625],[25.574912,42.525444],[25.550017,42.525625],[25.53794,42.523991],[25.520194,42.520902],[25.510088,42.520539],[25.507623,42.513454],[25.498257,42.502734],[25.491356,42.494011],[25.480018,42.48565],[25.46868,42.48147],[25.459807,42.481288],[25.450934,42.48565],[25.447483,42.490739],[25.445265,42.496373],[25.43861,42.502188],[25.425547,42.509457],[25.414948,42.513636],[25.39942,42.516179],[25.38192,42.516179],[25.36935,42.515271],[25.363435,42.511092],[25.360477,42.500916],[25.355547,42.493466],[25.352343,42.490012],[25.341035,42.486037]]]}},
{"type":"Feature","id":"BGR:ADM2:BG-24.radnevo","properties":{"shapeName":"Radnevo","shapeISO":"","shapeGroup":"BGR","shapeType":"ADM2","adm1ISO":"BG-24","parentISO":"BG-24","parentID":"BGR:ADM1:BG-24","src_shape_id":"11073933B62018568648289"},"geometry":{"type":"Polygon","coordinates":[[[26.156306,42.244858],[26.145752,42.244533],[26.129977,42.246175],[26.117653,42.250371],[26.107055,42.25475],[26.093745,42.262412],[26.077724,42.268431],[26.069097,42.274085],[26.060224,42.276273],[26.05283,42.275361],[26.049133,42.272079],[26.038041,42.268613],[26.031386,42.270984],[26.031386,42.277732],[26.026703,42.287944],[26.021527,42.290132],[26.006246,42.291226],[25.989239,42.294508],[25.980366,42.3018],[25.976176,42.308727],[25.969767,42.317111],[25.955965,42.324765],[25.945613,42.325676],[25.938958,42.327134],[25.93107,42.331872],[25.924908,42.339342],[25.919732,42.346447],[25.913078,42.357194],[25.906176,42.369214],[25.903465,42.375405],[25.896071,42.382323],[25.886705,42.385236],[25.881706,42.385236],[25.875081,42.383722],[25.869402,42.378828],[25.860253,42.370321],[25.849053,42.368223],[25.838484,42.370204],[25.830281,42.374749],[25.823498,42.382207],[25.814033,42.389431],[25.80378,42.392343],[25.791318,42.392576],[25.780591,42.390363],[25.775544,42.386052],[25.768603,42.381391],[25.757561,42.376031],[25.739105,42.369272],[25.722226,42.363794],[25.710237,42.359481],[25.692096,42.34864],[25.684209,42.340945],[25.681843,42.335931],[25.681528,42.328585],[25.685944,42.320187],[25.693989,42.318088],[25.709291,42.318438],[25.729167,42.316105],[25.74084,42.310856],[25.748569,42.305023],[25.753302,42.299539],[25.753459,42.293472],[25.748254,42.286354],[25.739105,42.282503],[25.734875,42.282635],[25.734875,42.275908],[25.737833,42.264965],[25.756565,42.250554],[25.765192,42.245992],[25.779241,42.239789],[25.791565,42.233949],[25.803888,42.232672],[25.811815,42.229533],[25.824592,42.227927],[25.833219,42.225554],[25.847761,42.212594],[25.85417,42.204743],[25.855895,42.198718],[25.863289,42.192692],[25.893852,42.188309],[25.910613,42.186483],[25.928113,42.182648],[25.94512,42.177899],[25.967056,42.1684],[25.97519,42.167487],[25.98776,42.169862],[26.016598,42.170592],[26.036809,42.17041],[26.046668,42.17315],[26.055295,42.176255],[26.065893,42.177534],[26.077231,42.174976],[26.094484,42.170775],[26.110259,42.16566],[26.117498,42.161204],[26.132778,42.166974],[26.141426,42.174452],[26.148345,42.181716],[26.153534,42.193251],[26.159877,42.20158],[26.161895,42.212898],[26.173649,42.220578],[26.166796,42.225921],[26.161607,42.233179],[26.156417,42.241076],[26.156306,42.244858]]]}},
{"type":"Feature","id":"BGR:ADM2:BG-24.chirpan","properties":{"shapeName":"Chirpan","shapeISO":"","shapeGroup":"BGR","shapeType":"ADM2","adm1ISO":"BG-24","parentISO":"BG-24","parentID":"BGR:ADM1:BG-24","src_shape_id":"11073933B72875884005592"},"geometry":{"type":"Polygon","coordinates":[[[25.33509,42.390516],[25.326217,42.384508],[25.317836,42.378136],[25.298858,42.365389],[25.28678,42.35519],[25.268541,42.343168],[25.259421,42.334058],[25.252274,42.324218],[25.245126,42.316017],[25.241429,42.308362],[25.239457,42.300706],[25.238471,42.291043],[25.239703,42.286303],[25.24833,42.28375],[25.256957,42.277367],[25.261393,42.271167],[25.261886,42.258398],[25.253506,42.24654],[25.249562,42.239789],[25.247098,42.228109],[25.250548,42.213689],[25.250548,42.193605],[25.249809,42.185387],[25.254245,42.179177],[25.259668,42.172967],[25.268295,42.165112],[25.28259,42.155794],[25.296146,42.145195],[25.306991,42.137702],[25.314879,42.130574],[25.321534,42.125638],[25.327696,42.119422],[25.327771,42.118809],[25.344949,42.119057],[25.358752,42.117046],[25.375512,42.112292],[25.39523,42.103698],[25.4078,42.102235],[25.424561,42.101686],[25.434666,42.103698],[25.438364,42.111012],[25.442307,42.120519],[25.445758,42.126552],[25.44699,42.139347],[25.446004,42.14885],[25.445758,42.156342],[25.449948,42.162006],[25.457096,42.165477],[25.466955,42.169496],[25.475335,42.170775],[25.483962,42.174611],[25.490863,42.17315],[25.495546,42.168035],[25.502447,42.164198],[25.512799,42.160362],[25.532271,42.159631],[25.539172,42.162006],[25.54213,42.167852],[25.539665,42.172419],[25.539912,42.177351],[25.55544,42.184839],[25.556919,42.193788],[25.556076,42.203155],[25.543027,42.203093],[25.509112,42.20321],[25.475512,42.206131],[25.470149,42.210454],[25.463682,42.217581],[25.460684,42.224123],[25.455321,42.230197],[25.446645,42.23557],[25.436865,42.239073],[25.431975,42.245846],[25.432764,42.251685],[25.438442,42.256472],[25.454848,42.26336],[25.461473,42.265928],[25.472673,42.270948],[25.490183,42.281102],[25.496335,42.290905],[25.496177,42.298023],[25.485135,42.312606],[25.477405,42.318554],[25.467783,42.327302],[25.460842,42.335931],[25.45753,42.342694],[25.458003,42.353303],[25.460369,42.363211],[25.454848,42.367873],[25.446487,42.370903],[25.431659,42.3737],[25.410995,42.376614],[25.386544,42.382673],[25.370928,42.387916],[25.353418,42.388732],[25.33509,42.390516]]]}},
{"type":"Feature","id":"BGR:ADM2:BG-24.opan","properties":{"shapeName":"Opan","shapeISO":"","shapeGroup":"BGR","shapeType":"ADM2","adm1ISO":"BG-24","parentISO":"BG-24","parentID":"BGR:ADM1:BG-24","src_shape_id":"11073933B25796021717649"},"geometry":{"type":"Polygon","coordinates":[[[25.811815,42.229533],[25.803888,42.232672],[25.791565,42.233949],[25.779241,42.239789],[25.765192,42.245992],[25.756565,42.250554],[25.737833,42.264965],[25.734875,42.275908],[25.734875,42.282635],[25.720491,42.283086],[25.707555,42.284837],[25.696987,42.288688],[25.662125,42.299656],[25.653449,42.299539],[25.643353,42.297906],[25.634046,42.293589],[25.627263,42.288804],[25.620638,42.281569],[25.613224,42.266862],[25.611962,42.26301],[25.603601,42.243745],[25.597449,42.22716],[25.594137,42.220735],[25.586888,42.211394],[25.591672,42.207665],[25.598573,42.200544],[25.602024,42.187031],[25.601778,42.175342],[25.598327,42.155063],[25.596109,42.145743],[25.597341,42.137885],[25.60301,42.133315],[25.611637,42.133498],[25.62051,42.137885],[25.629629,42.145378],[25.640228,42.151408],[25.65058,42.154332],[25.659207,42.15488],[25.673749,42.152505],[25.679664,42.145012],[25.682129,42.132219],[25.687798,42.124907],[25.69815,42.118691],[25.707516,42.112109],[25.714664,42.10132],[25.719593,42.074615],[25.726495,42.066015],[25.731917,42.061807],[25.748431,42.059794],[25.757304,42.058513],[25.7716,42.06199],[25.779487,42.066564],[25.785896,42.070955],[25.78836,42.075529],[25.78417,42.077542],[25.778994,42.084859],[25.774065,42.096017],[25.770861,42.106989],[25.768149,42.122896],[25.76671,42.133761],[25.761347,42.144874],[25.752828,42.155984],[25.746203,42.167092],[25.739893,42.180653],[25.737054,42.190121],[25.737527,42.20321],[25.739578,42.210571],[25.745888,42.211739],[25.759611,42.210571],[25.772704,42.208234],[25.789741,42.207533],[25.801887,42.209403],[25.810721,42.211739],[25.813087,42.216413],[25.811194,42.220502],[25.811815,42.229533]]]}},
{"type":"Feature","id":"BGR:ADM2:BG-24.bratya-daskalovi","properties":{"shapeName":"Bratya Daskalovi","shapeISO":"","shapeGroup":"BGR","shapeType":"ADM2","adm1ISO":"BG-24","parentISO":"BG-24","parentID":"BGR:ADM1:BG-24","src_shape_id":"11073933B30225728921551"},"geometry":{"type":"Polygon","coordinates":[[[25.17138,42.490245],[25.169487,42.486523],[25.168225,42.480822],[25.163335,42.474191],[25.154817,42.465813],[25.146614,42.459063],[25.141724,42.453128],[25.142039,42.448123],[25.147403,42.441954],[25.155606,42.4359],[25.169457,42.431825],[25.179317,42.42946],[25.187204,42.426185],[25.19238,42.42291],[25.193859,42.41545],[25.192133,42.407079],[25.186957,42.403075],[25.177345,42.402529],[25.160091,42.402893],[25.147768,42.405259],[25.123613,42.414176],[25.112275,42.41545],[25.103402,42.414722],[25.097979,42.411629],[25.0965,42.406897],[25.096007,42.386693],[25.097082,42.371603],[25.100395,42.360297],[25.103392,42.34794],[25.102919,42.333949],[25.104496,42.314005],[25.10702,42.305023],[25.115381,42.300823],[25.129578,42.296739],[25.143301,42.293005],[25.154817,42.289155],[25.159391,42.28472],[25.159105,42.278097],[25.156641,42.273902],[25.143577,42.269343],[25.121395,42.268613],[25.10562,42.268613],[25.092557,42.268248],[25.082451,42.26606],[25.075796,42.262412],[25.067447,42.261055],[25.063981,42.255639],[25.061285,42.248228],[25.057434,42.234827],[25.057819,42.223135],[25.057049,42.203739],[25.058204,42.192898],[25.063981,42.183766],[25.071843,42.174808],[25.074998,42.169664],[25.08604,42.16943],[25.098817,42.168144],[25.108124,42.165221],[25.125634,42.162102],[25.133004,42.162626],[25.142292,42.164571],[25.148046,42.16719],[25.161877,42.171381],[25.18752,42.172952],[25.208923,42.173639],[25.219808,42.174458],[25.228957,42.177497],[25.237317,42.18077],[25.242839,42.183459],[25.249809,42.185387],[25.250548,42.193605],[25.250548,42.213689],[25.247098,42.228109],[25.249562,42.239789],[25.253506,42.24654],[25.261886,42.258398],[25.261393,42.271167],[25.256957,42.277367],[25.24833,42.28375],[25.239703,42.286303],[25.238471,42.291043],[25.239457,42.300706],[25.241429,42.308362],[25.245126,42.316017],[25.252274,42.324218],[25.259421,42.334058],[25.268541,42.343168],[25.28678,42.35519],[25.298858,42.365389],[25.317836,42.378136],[25.326217,42.384508],[25.33509,42.390516],[25.33509,42.400709],[25.337062,42.411083],[25.338787,42.431825],[25.341252,42.453834],[25.341991,42.475107],[25.341035,42.486037],[25.327942,42.483105],[25.315401,42.481404],[25.291897,42.475238],[25.265081,42.472678],[25.248517,42.472795],[25.240946,42.476052],[25.227537,42.488035],[25.222559,42.48987],[25.222174,42.490012],[25.17138,42.490245]]]}}
]}