{"type":"FeatureCollection","bbox":[25.795508,42.244533,26.700591,43.03831],"features":[
{"type":"Feature","id":"BGR:ADM2:BG-20.kotel","properties":{"shapeName":"Kotel","shapeISO":"","shapeGroup":"BGR","shapeType":"ADM2","adm1ISO":"BG-20","parentISO":"BG-20","parentID":"BGR:ADM1:BG-20","src_shape_id":"11073933B62701501875096"},"geometry":{"type":"Polygon","coordinates":[[[26.171846,42.949015],[26.171408,42.94335],[26.170255,42.938707],[26.177151,42.933574],[26.18324,42.930737],[26.186745,42.926954],[26.187668,42.920334],[26.185823,42.909659],[26.185085,42.892765],[26.186745,42.88533],[26.195417,42.877083],[26.202613,42.870592],[26.208886,42.863155],[26.209808,42.856798],[26.207594,42.848277],[26.209255,42.842054],[26.237115,42.842866],[26.251691,42.840025],[26.267374,42.834748],[26.292466,42.823246],[26.308334,42.81472],[26.325308,42.807953],[26.339146,42.803215],[26.366453,42.79956],[26.382874,42.798748],[26.406121,42.801049],[26.423465,42.798883],[26.440808,42.791166],[26.458152,42.781281],[26.46996,42.773156],[26.478447,42.763539],[26.488595,42.752837],[26.489148,42.747553],[26.483429,42.735629],[26.481953,42.726413],[26.484536,42.721533],[26.497267,42.716518],[26.510551,42.710824],[26.520514,42.701062],[26.531215,42.691299],[26.537489,42.683433],[26.550588,42.678007],[26.57033,42.677193],[26.584906,42.679228],[26.598006,42.683975],[26.601327,42.686823],[26.621254,42.691977],[26.635645,42.69279],[26.643579,42.692655],[26.647084,42.699435],[26.650221,42.706757],[26.660184,42.710282],[26.675129,42.707706],[26.685646,42.704045],[26.695056,42.703503],[26.698746,42.703638],[26.700591,42.717602],[26.699299,42.724922],[26.694133,42.73346],[26.68583,42.73861],[26.68048,42.740778],[26.665166,42.752837],[26.655018,42.762997],[26.641365,42.771801],[26.620516,42.780198],[26.610552,42.782771],[26.588043,42.786427],[26.57439,42.789135],[26.565902,42.794145],[26.564426,42.802674],[26.565533,42.815262],[26.569408,42.82284],[26.577895,42.836236],[26.580294,42.847871],[26.576973,42.857745],[26.572545,42.863155],[26.567009,42.870728],[26.561843,42.880463],[26.560921,42.887087],[26.562397,42.894522],[26.566271,42.900739],[26.572176,42.905605],[26.574021,42.911956],[26.571068,42.918037],[26.563873,42.920874],[26.554094,42.917632],[26.545053,42.918037],[26.537489,42.922226],[26.533061,42.927224],[26.525697,42.936899],[26.521643,42.944484],[26.520291,42.956024],[26.523445,42.962946],[26.534255,42.970528],[26.543715,42.977449],[26.551373,42.984369],[26.5545,42.991638],[26.547887,42.995697],[26.540802,42.999411],[26.530662,43.003642],[26.522728,43.005531],[26.498189,43.008095],[26.481215,43.007285],[26.465716,43.005396],[26.446528,43.002833],[26.430476,43.002158],[26.411472,43.003372],[26.3897,43.00742],[26.381029,43.010253],[26.376785,43.013491],[26.375309,43.01565],[26.370512,43.019562],[26.364054,43.019292],[26.359073,43.013896],[26.355198,43.009039],[26.345788,43.005261],[26.337117,43.004047],[26.331028,43.006206],[26.326784,43.010928],[26.326784,43.022125],[26.335456,43.031162],[26.334718,43.033994],[26.331766,43.036826],[26.326969,43.03831],[26.32088,43.037096],[26.311286,43.034534],[26.301692,43.031432],[26.288961,43.030622],[26.284717,43.031162],[26.277706,43.03332],[26.270326,43.034534],[26.263949,43.034783],[26.263949,43.026863],[26.262127,43.011759],[26.257876,43.001915],[26.251971,42.994229],[26.244768,42.98801],[26.229063,42.976694],[26.21572,42.966153],[26.200251,42.957684],[26.187498,42.953104],[26.179587,42.949474],[26.171846,42.949015]]]}},
{"type":"Feature","id":"BGR:ADM2:BG-20.sliven","properties":{"shapeName":"Sliven","shapeISO":"","shapeGroup":"BGR","shapeType":"ADM2","adm1ISO":"BG-20","parentISO":"BG-20","parentID":"BGR:ADM1:BG-20","src_shape_id":"11073933B58208714394261"},"geometry":{"type":"Polygon","coordinates":[[[26.553201,42.578001],[26.561349,42.582609],[26.571386,42.58913],[26.580951,42.596345],[26.60622,42.61086],[26.615313,42.617899],[26.616375,42.623199],[26.620626,42.626501],[26.628892,42.62485],[26.634914,42.624155],[26.639284,42.625372],[26.646959,42.630932],[26.653217,42.637882],[26.656287,42.657424],[26.657114,42.668365],[26.654752,42.677568],[26.648848,42.686335],[26.643579,42.692655],[26.635645,42.69279],[26.621254,42.691977],[26.601327,42.686823],[26.598006,42.683975],[26.584906,42.679228],[26.57033,42.677193],[26.550588,42.678007],[26.537489,42.683433],[26.531215,42.691299],[26.520514,42.701062],[26.510551,42.710824],[26.497267,42.716518],[26.484536,42.721533],[26.481953,42.726413],[26.483429,42.735629],[26.489148,42.747553],[26.488595,42.752837],[26.478447,42.763539],[26.46996,42.773156],[26.458152,42.781281],[26.440808,42.791166],[26.423465,42.798883],[26.406121,42.801049],[26.382874,42.798748],[26.366453,42.79956],[26.339146,42.803215],[26.325308,42.807953],[26.308334,42.81472],[26.292466,42.823246],[26.267374,42.834748],[26.251691,42.840025],[26.237115,42.842866],[26.209255,42.842054],[26.207594,42.848277],[26.209808,42.856798],[26.208886,42.863155],[26.202613,42.870592],[26.195417,42.877083],[26.186745,42.88533],[26.185085,42.892765],[26.185823,42.909659],[26.187668,42.920334],[26.186745,42.926954],[26.18324,42.930737],[26.177151,42.933574],[26.170255,42.938707],[26.165066,42.932797],[26.141138,42.917598],[26.134507,42.912742],[26.123264,42.905985],[26.112886,42.90324],[26.082615,42.892258],[26.071372,42.886766],[26.061859,42.881485],[26.055228,42.877471],[26.046291,42.865851],[26.050039,42.844294],[26.049174,42.836685],[26.040525,42.832456],[26.036489,42.828228],[26.042255,42.825268],[26.061282,42.824422],[26.082327,42.821885],[26.095588,42.819559],[26.099336,42.814484],[26.099913,42.804966],[26.09876,42.791428],[26.096742,42.780638],[26.096453,42.771116],[26.101643,42.766036],[26.111156,42.763497],[26.118652,42.758417],[26.122976,42.747833],[26.124706,42.732376],[26.124994,42.722211],[26.122688,42.706325],[26.119516,42.699545],[26.111733,42.695731],[26.103661,42.69552],[26.097318,42.698062],[26.091841,42.699757],[26.084345,42.699757],[26.081751,42.696155],[26.074255,42.684501],[26.066471,42.673056],[26.056381,42.652068],[26.050039,42.632771],[26.050615,42.622165],[26.05494,42.611345],[26.05667,42.598614],[26.068489,42.597128],[26.079733,42.598826],[26.090111,42.598614],[26.100778,42.593945],[26.107408,42.588851],[26.110291,42.579512],[26.109715,42.566561],[26.111156,42.555944],[26.127012,42.554458],[26.140561,42.550847],[26.146327,42.545325],[26.154111,42.534917],[26.15757,42.521745],[26.155841,42.502832],[26.151805,42.475196],[26.153246,42.459885],[26.156129,42.451164],[26.165066,42.445208],[26.174291,42.443931],[26.189282,42.443931],[26.194471,42.44542],[26.199661,42.44542],[26.203535,42.449028],[26.210362,42.453248],[26.217742,42.456515],[26.227152,42.457196],[26.238591,42.453657],[26.248001,42.451479],[26.25575,42.448484],[26.265713,42.445761],[26.283426,42.443038],[26.292651,42.445488],[26.299109,42.449709],[26.309256,42.458966],[26.315161,42.46618],[26.320327,42.473257],[26.33029,42.481558],[26.336748,42.487272],[26.345419,42.49149],[26.362209,42.498292],[26.365346,42.503597],[26.364239,42.51203],[26.356674,42.521958],[26.347818,42.527397],[26.343574,42.530796],[26.344497,42.537322],[26.358888,42.54711],[26.367006,42.554857],[26.375125,42.558798],[26.386195,42.55907],[26.401693,42.555944],[26.421251,42.554721],[26.43472,42.556624],[26.46258,42.562875],[26.480292,42.568854],[26.489517,42.573067],[26.501141,42.574289],[26.522913,42.578094],[26.553201,42.578001]]]}},
{"type":"Feature","id":"BGR:ADM2:BG-20.tvarditsa","properties":{"shapeName":"Tvarditsa","shapeISO":"","shapeGroup":"BGR","shapeType":"ADM2","adm1ISO":"BG-20","parentISO":"BG-20","parentID":"BGR:ADM1:BG-20","src_shape_id":"11073933B55288364449589"},"geometry":{"type":"Polygon","coordinates":[[[26.036489,42.828228],[26.026049,42.827135],[26.015895,42.824652],[26.009125,42.820184],[26.000663,42.815963],[25.992878,42.809507],[25.979338,42.801064],[25.966138,42.795848],[25.929243,42.791874],[25.859515,42.79088],[25.795703,42.791134],[25.795508,42.76892],[25.799205,42.752815],[25.803888,42.740868],[25.811036,42.723307],[25.81917,42.707552],[25.826811,42.694872],[25.831987,42.678204],[25.84012,42.656093],[25.842585,42.641227],[25.845297,42.626902],[25.84924,42.619285],[25.856388,42.611848],[25.863782,42.607857],[25.873819,42.60576],[25.881233,42.617486],[25.888647,42.624102],[25.897007,42.628048],[25.907576,42.629557],[25.923193,42.629789],[25.939441,42.633155],[25.952218,42.638029],[25.962945,42.639654],[25.976353,42.638145],[25.982821,42.630834],[25.982505,42.62329],[25.979823,42.614119],[25.979035,42.604019],[25.985502,42.59949],[25.997649,42.599955],[26.008218,42.602161],[26.019102,42.601813],[26.032195,42.597748],[26.040082,42.594265],[26.0486,42.592639],[26.05667,42.598614],[26.05494,42.611345],[26.050615,42.622165],[26.050039,42.632771],[26.056381,42.652068],[26.066471,42.673056],[26.074255,42.684501],[26.081751,42.696155],[26.084345,42.699757],[26.091841,42.699757],[26.097318,42.698062],[26.103661,42.69552],[26.111733,42.695731],[26.119516,42.699545],[26.122688,42.706325],[26.124994,42.722211],[26.124706,42.732376],[26.122976,42.747833],[26.118652,42.758417],[26.111156,42.763497],[26.101643,42.766036],[26.096453,42.771116],[26.096742,42.780638],[26.09876,42.791428],[26.099913,42.804966],[26.099336,42.814484],[26.095588,42.819559],[26.082327,42.821885],[26.061282,42.824422],[26.042255,42.825268],[26.036489,42.828228]]]}},
{"type":"Feature","id":"BGR:ADM2:BG-20.nova-zagora","properties":{"shapeName":"Nova Zagora","shapeISO":"","shapeGroup":"BGR","shapeType":"ADM2","adm1ISO":"BG-20","parentISO":"BG-20","parentID":"BGR:ADM1:BG-20","src_shape_id":"11073933B19187847284982"},"geometry":{"type":"Polygon","coordinates":[[[26.199661,42.44542],[26.194471,42.44542],[26.189282,42.443931],[26.174291,42.443931],[26.165066,42.445208],[26.156129,42.451164],[26.153246,42.459885],[26.151805,42.475196],[26.155841,42.502832],[26.15757,42.521745],[26.154111,42.534917],[26.146327,42.545325],[26.140561,42.550847],[26.127012,42.554458],[26.111156,42.555944],[26.109715,42.566561],[26.110291,42.579512],[26.107408,42.588851],[26.100778,42.593945],[26.090111,42.598614],[26.079733,42.598826],[26.068489,42.597128],[26.05667,42.598614],[26.0486,42.592639],[26.040082,42.594265],[26.032195,42.597748],[26.019102,42.601813],[26.008218,42.602161],[25.997649,42.599955],[25.985502,42.59949],[25.979035,42.604019],[25.979823,42.614119],[25.982505,42.62329],[25.982821,42.630834],[25.976353,42.638145],[25.962945,42.639654],[25.952218,42.638029],[25.939441,42.633155],[25.923193,42.629789],[25.907576,42.629557],[25.897007,42.628048],[25.888647,42.624102],[25.881233,42.617486],[25.873819,42.60576],[25.87445,42.597052],[25.877762,42.589271],[25.877447,42.582651],[25.87161,42.576843],[25.860884,42.5715],[25.846687,42.565691],[25.830281,42.560463],[25.832973,42.542153],[25.838149,42.531801],[25.84505,42.522901],[25.851951,42.515452],[25.857867,42.508185],[25.863782,42.500008],[25.870437,42.489649],[25.874874,42.48147],[25.876846,42.475652],[25.874627,42.468926],[25.868219,42.462926],[25.856141,42.452197],[25.854663,42.445831],[25.855156,42.440375],[25.860578,42.436009],[25.868465,42.431825],[25.875367,42.424366],[25.878571,42.416542],[25.882761,42.408171],[25.884979,42.400709],[25.887444,42.389788],[25.886705,42.385236],[25.896071,42.382323],[25.903465,42.375405],[25.906176,42.369214],[25.913078,42.357194],[25.919732,42.346447],[25.924908,42.339342],[25.93107,42.331872],[25.938958,42.327134],[25.945613,42.325676],[25.955965,42.324765],[25.969767,42.317111],[25.976176,42.308727],[25.980366,42.3018],[25.989239,42.294508],[26.006246,42.291226],[26.021527,42.290132],[26.026703,42.287944],[26.031386,42.277732],[26.031386,42.270984],[26.038041,42.268613],[26.049133,42.272079],[26.05283,42.275361],[26.060224,42.276273],[26.069097,42.274085],[26.077724,42.268431],[26.093745,42.262412],[26.107055,42.25475],[26.117653,42.250371],[26.129977,42.246175],[26.145752,42.244533],[26.156306,42.244858],[26.156129,42.250893],[26.159012,42.263482],[26.167084,42.271589],[26.173715,42.281401],[26.180057,42.291425],[26.189571,42.302087],[26.205138,42.32106],[26.210616,42.331504],[26.215805,42.342585],[26.221859,42.350043],[26.223877,42.354943],[26.223877,42.363677],[26.225895,42.372197],[26.224453,42.37816],[26.218111,42.380716],[26.214363,42.38029],[26.208886,42.376882],[26.204562,42.372836],[26.197931,42.368576],[26.190435,42.366446],[26.183228,42.368363],[26.17948,42.373688],[26.172273,42.38029],[26.163336,42.389233],[26.159877,42.397111],[26.158724,42.401582],[26.160453,42.408394],[26.163336,42.413928],[26.170543,42.415418],[26.185823,42.413289],[26.195336,42.413289],[26.202255,42.414992],[26.204273,42.421377],[26.201679,42.432655],[26.201967,42.439463],[26.199661,42.44542]]]}}
]}