{"type":"FeatureCollection","bbox":[24.075101,41.307451,25.178674,41.926947],"features":[
{"type":"Feature","id":"BGR:ADM2:BG-21.rudozem","properties":{"shapeName":"Rudozem","shapeISO":"","shapeGroup":"BGR","shapeType":"ADM2","adm1ISO":"BG-21","parentISO":"BG-21","parentID":"BGR:ADM1:BG-21","src_shape_id":"11073933B34534607262890"},"geometry":{"type":"Polygon","coordinates":[[[24.916018,41.409212],[24.917358,41.421118],[24.91698,41.427822],[24.916942,41.428499],[24.906544,41.445025],[24.900721,41.453235],[24.894066,41.460197],[24.885747,41.465392],[24.879265,41.471325],[24.878249,41.477665],[24.880619,41.484512],[24.884004,41.491611],[24.885358,41.498457],[24.881634,41.505301],[24.875541,41.509864],[24.868095,41.513412],[24.860648,41.519495],[24.858768,41.525595],[24.855463,41.525395],[24.825351,41.525557],[24.815603,41.522637],[24.808021,41.516474],[24.802822,41.510148],[24.796539,41.50447],[24.795456,41.495871],[24.796756,41.486784],[24.791773,41.479318],[24.785058,41.476884],[24.775743,41.470554],[24.765778,41.461301],[24.75473,41.442141],[24.748664,41.434509],[24.741732,41.427687],[24.736605,41.416005],[24.739414,41.408423],[24.741099,41.399787],[24.745873,41.393046],[24.753736,41.384829],[24.759352,41.377033],[24.764126,41.369868],[24.773674,41.363545],[24.78603,41.357644],[24.805126,41.348158],[24.815517,41.345206],[24.817202,41.362913],[24.817483,41.377665],[24.817202,41.389254],[24.817763,41.396627],[24.825065,41.399787],[24.840229,41.398523],[24.857921,41.394942],[24.88151,41.393678],[24.892743,41.399998],[24.900606,41.406528],[24.913805,41.410319],[24.916018,41.409212]]]}},
{"type":"Feature","id":"BGR:ADM2:BG-21.madan","properties":{"shapeName":"Madan","shapeISO":"","shapeGroup":"BGR","shapeType":"ADM2","adm1ISO":"BG-21","parentISO":"BG-21","parentID":"BGR:ADM1:BG-21","src_shape_id":"11073933B42236943021808"},"geometry":{"type":"Polygon","coordinates":[[[24.91698,41.427822],[24.931391,41.427433],[24.942561,41.425911],[24.952019,41.425381],[24.961308,41.427148],[24.965606,41.431826],[24.967963,41.441596],[24.970874,41.446896],[24.985709,41.457599],[24.986946,41.47006],[24.986818,41.478689],[24.990562,41.485855],[25.007892,41.491775],[25.014547,41.497694],[25.018568,41.505171],[25.020231,41.511296],[25.017874,41.51576],[25.008308,41.525103],[25.000405,41.534236],[24.992087,41.547312],[24.987512,41.560073],[24.978638,41.575943],[24.978777,41.582996],[24.984633,41.593712],[24.983274,41.593799],[24.975259,41.599308],[24.967893,41.606921],[24.962478,41.611618],[24.949356,41.611734],[24.944064,41.61178],[24.933883,41.607893],[24.922618,41.606435],[24.91222,41.600118],[24.906154,41.595258],[24.906587,41.589587],[24.908537,41.583106],[24.908754,41.572897],[24.906587,41.561713],[24.901388,41.553122],[24.89229,41.542422],[24.887307,41.536909],[24.875393,41.53026],[24.863478,41.525881],[24.858768,41.525595],[24.860648,41.519495],[24.868095,41.513412],[24.875541,41.509864],[24.881634,41.505301],[24.885358,41.498457],[24.884004,41.491611],[24.880619,41.484512],[24.878249,41.477665],[24.879265,41.471325],[24.885747,41.465392],[24.894066,41.460197],[24.900721,41.453235],[24.906544,41.445025],[24.916942,41.428499],[24.91698,41.427822]]]}},
{"type":"Feature","id":"BGR:ADM2:BG-21.zlatograd","properties":{"shapeName":"Zlatograd","shapeISO":"","shapeGroup":"BGR","shapeType":"ADM2","adm1ISO":"BG-21","parentISO":"BG-21","parentID":"BGR:ADM1:BG-21","src_shape_id":"11073933B5498677004865"},"geometry":{"type":"Polygon","coordinates":[[[24.916018,41.409212],[24.919702,41.40737],[24.927565,41.401051],[24.940483,41.392203],[24.951154,41.385883],[24.969408,41.379562],[24.990189,41.37324],[25.012655,41.368182],[25.032312,41.366917],[25.048185,41.361842],[25.062922,41.355772],[25.069572,41.350105],[25.076222,41.344978],[25.086646,41.338636],[25.101743,41.338366],[25.119177,41.335263],[25.126905,41.330539],[25.136251,41.323521],[25.145776,41.318932],[25.161233,41.312722],[25.173454,41.310292],[25.178209,41.307451],[25.178674,41.309983],[25.178241,41.317305],[25.176291,41.321373],[25.171092,41.323976],[25.16286,41.32544],[25.155928,41.329019],[25.148563,41.336501],[25.147263,41.343658],[25.147046,41.370975],[25.145747,41.373901],[25.141197,41.381216],[25.140622,41.383116],[25.139031,41.388368],[25.141128,41.395122],[25.144733,41.398866],[25.151665,41.404274],[25.161231,41.410097],[25.17163,41.414048],[25.176205,41.417791],[25.178007,41.424029],[25.176205,41.427564],[25.171352,41.430994],[25.158874,41.43193],[25.15556,41.43155],[25.148779,41.430773],[25.136432,41.42785],[25.126033,41.4259],[25.10827,41.425738],[25.090723,41.426388],[25.077292,41.428337],[25.063644,41.433209],[25.052596,41.441654],[25.040681,41.449936],[25.032666,41.457242],[25.023567,41.463087],[25.011219,41.468119],[24.999955,41.469742],[24.986946,41.47006],[24.985709,41.457599],[24.970874,41.446896],[24.967963,41.441596],[24.965606,41.431826],[24.961308,41.427148],[24.952019,41.425381],[24.942561,41.425911],[24.931391,41.427433],[24.91698,41.427822],[24.917358,41.421118],[24.916018,41.409212]]]}},
{"type":"Feature","id":"BGR:ADM2:BG-21.nedelino","properties":{"shapeName":"Nedelino","shapeISO":"","shapeGroup":"BGR","shapeType":"ADM2","adm1ISO":"BG-21","parentISO":"BG-21","parentID":"BGR:ADM1:BG-21","src_shape_id":"11073933B48317710303310"},"geometry":{"type":"Polygon","coordinates":[[[24.986946,41.47006],[24.999955,41.469742],[25.011219,41.468119],[25.023567,41.463087],[25.032666,41.457242],[25.040681,41.449936],[25.052596,41.441654],[25.063644,41.433209],[25.077292,41.428337],[25.090723,41.426388],[25.10827,41.425738],[25.126033,41.4259],[25.136432,41.42785],[25.148779,41.430773],[25.15556,41.43155],[25.156361,41.436458],[25.158961,41.441817],[25.171309,41.459028],[25.173475,41.470067],[25.173042,41.484025],[25.170226,41.495546],[25.169519,41.501789],[25.165243,41.502198],[25.149863,41.509985],[25.138165,41.512257],[25.129283,41.512094],[25.108486,41.509823],[25.100688,41.508201],[25.079891,41.502847],[25.061478,41.499602],[25.051296,41.499927],[25.034616,41.503334],[25.027033,41.508039],[25.020231,41.511296],[25.018568,41.505171],[25.014547,41.497694],[25.007892,41.491775],[24.990562,41.485855],[24.986818,41.478689],[24.986946,41.47006]]]}},
{"type":"Feature","id":"BGR:ADM2:BG-21.devin","properties":{"shapeName":"Devin","shapeISO":"","shapeGroup":"BGR","shapeType":"ADM2","adm1ISO":"BG-21","parentISO":"BG-21","parentID":"BGR:ADM1:BG-21","src_shape_id":"11073933B263247908014"},"geometry":{"type":"Polygon","coordinates":[[[24.557597,41.884849],[24.544659,41.885042],[24.528253,41.887626],[24.519735,41.891853],[24.509166,41.899838],[24.491499,41.913691],[24.482981,41.916038],[24.478248,41.916073],[24.451116,41.916156],[24.439916,41.917682],[24.431082,41.923785],[24.424648,41.926947],[24.415466,41.926719],[24.410102,41.920264],[24.409787,41.91463],[24.410102,41.906765],[24.407495,41.896044],[24.405685,41.888213],[24.402669,41.881306],[24.392317,41.867908],[24.384183,41.862218],[24.371859,41.857445],[24.362986,41.856895],[24.34869,41.855059],[24.340803,41.849367],[24.331437,41.839452],[24.32774,41.83431],[24.320838,41.823474],[24.317388,41.815208],[24.313937,41.804553],[24.312951,41.791507],[24.315909,41.782134],[24.319113,41.773863],[24.321578,41.768532],[24.325521,41.762281],[24.327,41.758604],[24.332669,41.756582],[24.334888,41.747204],[24.333902,41.739112],[24.336366,41.729364],[24.341296,41.721638],[24.344007,41.71391],[24.343761,41.708023],[24.341542,41.703422],[24.337845,41.697533],[24.334888,41.689067],[24.337352,41.680784],[24.344993,41.671763],[24.361507,41.650955],[24.364465,41.643588],[24.364958,41.632536],[24.364711,41.622219],[24.359289,41.614664],[24.353127,41.608951],[24.350416,41.59992],[24.347951,41.58757],[24.348444,41.578721],[24.352141,41.56526],[24.357317,41.555116],[24.365204,41.545893],[24.372105,41.537038],[24.379327,41.533134],[24.392878,41.537616],[24.408885,41.536565],[24.423207,41.53131],[24.434159,41.526895],[24.448481,41.527315],[24.459994,41.529628],[24.469542,41.545183],[24.47544,41.551908],[24.486953,41.557162],[24.496782,41.561364],[24.498979,41.56167],[24.479983,41.576493],[24.471781,41.584635],[24.462947,41.596669],[24.458057,41.603982],[24.452693,41.610234],[24.443702,41.616366],[24.435657,41.619668],[24.414046,41.624267],[24.413099,41.628748],[24.414992,41.634525],[24.417516,41.640184],[24.416885,41.64879],[24.415308,41.654447],[24.415466,41.659986],[24.421144,41.662343],[24.429189,41.661872],[24.439758,41.660694],[24.461054,41.662697],[24.468468,41.66529],[24.475409,41.666468],[24.485031,41.665054],[24.491972,41.666468],[24.496704,41.672595],[24.499071,41.678958],[24.505696,41.686733],[24.528096,41.704401],[24.559329,41.728069],[24.564062,41.737722],[24.565954,41.747491],[24.566822,41.762465],[24.564357,41.769819],[24.559921,41.776069],[24.557209,41.782502],[24.554498,41.790772],[24.551048,41.807493],[24.550308,41.819617],[24.550062,41.833392],[24.550555,41.844777],[24.55228,41.858914],[24.555484,41.866073],[24.557949,41.873965],[24.557597,41.884849]]]}},
{"type":"Feature","id":"BGR:ADM2:BG-21.smolyan","properties":{"shapeName":"Smolyan","shapeISO":"","shapeGroup":"BGR","shapeType":"ADM2","adm1ISO":"BG-21","parentISO":"BG-21","parentID":"BGR:ADM1:BG-21","src_shape_id":"11073933B8406986702049"},"geometry":{"type":"Polygon","coordinates":[[[24.858768,41.525595],[24.863478,41.525881],[24.875393,41.53026],[24.887307,41.536909],[24.89229,41.542422],[24.901388,41.553122],[24.906587,41.561713],[24.908754,41.572897],[24.908537,41.583106],[24.906587,41.589587],[24.906154,41.595258],[24.91222,41.600118],[24.922618,41.606435],[24.933883,41.607893],[24.944064,41.61178],[24.949356,41.611734],[24.943931,41.616691],[24.921748,41.619086],[24.912382,41.624614],[24.909178,41.629588],[24.89858,41.647824],[24.894882,41.660347],[24.888474,41.674341],[24.882312,41.68649],[24.876643,41.695509],[24.869002,41.704342],[24.861855,41.708207],[24.859636,41.713542],[24.851503,41.713174],[24.846573,41.707655],[24.845834,41.700846],[24.840658,41.696981],[24.832524,41.696061],[24.826362,41.697717],[24.820447,41.70195],[24.812559,41.708207],[24.805904,41.714646],[24.797278,41.723661],[24.790869,41.72918],[24.782982,41.732307],[24.781257,41.736169],[24.781257,41.742055],[24.773369,41.741319],[24.764989,41.735985],[24.761785,41.729548],[24.763264,41.720166],[24.76425,41.708391],[24.760306,41.700294],[24.752912,41.695877],[24.743792,41.689803],[24.734673,41.678759],[24.730236,41.666608],[24.722842,41.659058],[24.713476,41.656296],[24.699426,41.656849],[24.693265,41.658322],[24.6908,41.66182],[24.689074,41.667528],[24.680941,41.672131],[24.671575,41.673236],[24.66073,41.676182],[24.654568,41.6806],[24.650131,41.689619],[24.644955,41.698269],[24.639286,41.705814],[24.626962,41.712071],[24.611927,41.716486],[24.602808,41.723845],[24.597139,41.735066],[24.592456,41.746652],[24.587033,41.754375],[24.580625,41.760075],[24.571505,41.762465],[24.566822,41.762465],[24.565954,41.747491],[24.564062,41.737722],[24.559329,41.728069],[24.528096,41.704401],[24.505696,41.686733],[24.499071,41.678958],[24.496704,41.672595],[24.491972,41.666468],[24.485031,41.665054],[24.475409,41.666468],[24.468468,41.66529],[24.461054,41.662697],[24.439758,41.660694],[24.429189,41.661872],[24.421144,41.662343],[24.415466,41.659986],[24.415308,41.654447],[24.416885,41.64879],[24.417516,41.640184],[24.414992,41.634525],[24.413099,41.628748],[24.414046,41.624267],[24.435657,41.619668],[24.443702,41.616366],[24.452693,41.610234],[24.458057,41.603982],[24.462947,41.596669],[24.471781,41.584635],[24.479983,41.576493],[24.498979,41.56167],[24.508858,41.563045],[24.519248,41.565987],[24.532166,41.564936],[24.541433,41.560314],[24.548173,41.55464],[24.551824,41.547705],[24.555755,41.535724],[24.561933,41.508602],[24.56755,41.495352],[24.570639,41.485886],[24.578221,41.478733],[24.593947,41.466529],[24.59844,41.458953],[24.598721,41.450323],[24.601249,41.442114],[24.606303,41.434745],[24.611077,41.432008],[24.629331,41.430956],[24.640283,41.431798],[24.648146,41.434956],[24.656852,41.434956],[24.66303,41.424639],[24.705153,41.420006],[24.726777,41.418532],[24.736605,41.416005],[24.741732,41.427687],[24.748664,41.434509],[24.75473,41.442141],[24.765778,41.461301],[24.775743,41.470554],[24.785058,41.476884],[24.791773,41.479318],[24.796756,41.486784],[24.795456,41.495871],[24.796539,41.50447],[24.802822,41.510148],[24.808021,41.516474],[24.815603,41.522637],[24.825351,41.525557],[24.855463,41.525395],[24.858768,41.525595]]]}},
{"type":"Feature","id":"BGR:ADM2:BG-21.chepelare","properties":{"shapeName":"Chepelare","shapeISO":"","shapeGroup":"BGR","shapeType":"ADM2","adm1ISO":"BG-21","parentISO":"BG-21","parentID":"BGR:ADM1:BG-21","src_shape_id":"11073933B24070550581270"},"geometry":{"type":"Polygon","coordinates":[[[24.657376,41.910988],[24.650506,41.908173],[24.632838,41.902773],[24.605706,41.897842],[24.581256,41.891736],[24.568478,41.886099],[24.560433,41.884807],[24.557597,41.884849],[24.557949,41.873965],[24.555484,41.866073],[24.55228,41.858914],[24.550555,41.844777],[24.550062,41.833392],[24.550308,41.819617],[24.551048,41.807493],[24.554498,41.790772],[24.557209,41.782502],[24.559921,41.776069],[24.564357,41.769819],[24.566822,41.762465],[24.571505,41.762465],[24.580625,41.760075],[24.587033,41.754375],[24.592456,41.746652],[24.597139,41.735066],[24.602808,41.723845],[24.611927,41.716486],[24.626962,41.712071],[24.639286,41.705814],[24.644955,41.698269],[24.650131,41.689619],[24.654568,41.6806],[24.66073,41.676182],[24.671575,41.673236],[24.680941,41.672131],[24.689074,41.667528],[24.6908,41.66182],[24.693265,41.658322],[24.699426,41.656849],[24.713476,41.656296],[24.722842,41.659058],[24.730236,41.666608],[24.734673,41.678759],[24.743792,41.689803],[24.752912,41.695877],[24.760306,41.700294],[24.76425,41.708391],[24.763264,41.720166],[24.761785,41.729548],[24.764989,41.735985],[24.773369,41.741319],[24.781257,41.742055],[24.784461,41.751801],[24.791116,41.762097],[24.793827,41.770003],[24.791855,41.776436],[24.786186,41.779929],[24.777067,41.781767],[24.771151,41.786177],[24.761292,41.790588],[24.750201,41.79261],[24.744778,41.799225],[24.744778,41.807676],[24.746504,41.813923],[24.75094,41.820168],[24.762525,41.830637],[24.766468,41.835596],[24.770658,41.842757],[24.771644,41.850102],[24.770658,41.860382],[24.767947,41.868826],[24.760799,41.881489],[24.761046,41.885526],[24.74675,41.888095],[24.740342,41.890664],[24.724814,41.892499],[24.705835,41.894334],[24.68587,41.89782],[24.672314,41.901122],[24.661716,41.906809],[24.657376,41.910988]]]}},
{"type":"Feature","id":"BGR:ADM2:BG-21.banite","properties":{"shapeName":"Banite","shapeISO":"","shapeGroup":"BGR","shapeType":"ADM2","adm1ISO":"BG-21","parentISO":"BG-21","parentID":"BGR:ADM1:BG-21","src_shape_id":"11073933B67826388916784"},"geometry":{"type":"Polygon","coordinates":[[[24.984633,41.593712],[24.990856,41.593313],[25.011653,41.596716],[25.030283,41.598498],[25.046747,41.598984],[25.063427,41.603357],[25.077725,41.609351],[25.086173,41.616153],[25.089206,41.621497],[25.089639,41.627651],[25.085957,41.635909],[25.08379,41.646593],[25.084224,41.659866],[25.091156,41.6699],[25.091373,41.676534],[25.08639,41.685109],[25.079891,41.693036],[25.071009,41.704358],[25.063861,41.716649],[25.060828,41.728452],[25.059528,41.739121],[25.058661,41.741384],[25.053121,41.747939],[25.04967,41.754927],[25.04893,41.765223],[25.051149,41.780296],[25.054353,41.786913],[25.05805,41.792242],[25.059282,41.79849],[25.04755,41.801253],[25.034931,41.808661],[25.021207,41.819125],[25.012531,41.826413],[25.001173,41.835464],[24.994706,41.839342],[24.986187,41.840047],[24.976723,41.838284],[24.968835,41.834406],[24.953534,41.82512],[24.946278,41.823239],[24.946335,41.815499],[24.944114,41.811963],[24.943205,41.801126],[24.944517,41.789234],[24.949565,41.780351],[24.955118,41.771768],[24.955522,41.766121],[24.954007,41.761301],[24.945628,41.752415],[24.936037,41.748573],[24.919985,41.749176],[24.906659,41.753394],[24.895856,41.75716],[24.884246,41.757385],[24.87728,41.75377],[24.873646,41.747293],[24.872333,41.73863],[24.870011,41.731775],[24.867689,41.726651],[24.862944,41.719945],[24.859636,41.713542],[24.861855,41.708207],[24.869002,41.704342],[24.876643,41.695509],[24.882312,41.68649],[24.888474,41.674341],[24.894882,41.660347],[24.89858,41.647824],[24.909178,41.629588],[24.912382,41.624614],[24.921748,41.619086],[24.943931,41.616691],[24.949356,41.611734],[24.962478,41.611618],[24.967893,41.606921],[24.975259,41.599308],[24.983274,41.593799],[24.984633,41.593712]]]}},
{"type":"Feature","id":"BGR:ADM2:BG-21.dospat","properties":{"shapeName":"Dospat","shapeISO":"","shapeGroup":"BGR","shapeType":"ADM2","adm1ISO":"BG-21","parentISO":"BG-21","parentID":"BGR:ADM1:BG-21","src_shape_id":"11073933B2112298620757"},"geometry":{"type":"Polygon","coordinates":[[[24.091122,41.676366],[24.109115,41.665319],[24.112566,41.656112],[24.113305,41.646167],[24.106157,41.635115],[24.099502,41.627562],[24.09408,41.620929],[24.089643,41.608583],[24.090383,41.596971],[24.088904,41.589414],[24.081509,41.575033],[24.077566,41.563231],[24.075101,41.553272],[24.075348,41.541282],[24.077278,41.534058],[24.082287,41.540138],[24.098856,41.544762],[24.112897,41.545603],[24.143787,41.538247],[24.163164,41.533412],[24.169342,41.528156],[24.17889,41.518485],[24.18563,41.516172],[24.195178,41.515962],[24.197705,41.520587],[24.198267,41.529628],[24.200514,41.536355],[24.207815,41.543922],[24.21961,41.546654],[24.230562,41.551908],[24.241233,41.556531],[24.247973,41.560524],[24.252747,41.565147],[24.26061,41.570399],[24.264571,41.569173],[24.264888,41.581855],[24.264642,41.609688],[24.262177,41.624982],[24.260945,41.640457],[24.26193,41.65114],[24.267846,41.66403],[24.266613,41.67029],[24.260205,41.675077],[24.236297,41.681704],[24.235557,41.685386],[24.229149,41.698269],[24.222987,41.712622],[24.219783,41.722925],[24.219536,41.740215],[24.208445,41.7461],[24.197354,41.746284],[24.177635,41.744629],[24.160382,41.740399],[24.150276,41.738928],[24.131544,41.734882],[24.118235,41.734146],[24.117988,41.72826],[24.11577,41.718326],[24.113305,41.710967],[24.108868,41.704158],[24.103692,41.698822],[24.099995,41.694221],[24.096298,41.687963],[24.09334,41.683913],[24.091122,41.676366]]]}},
{"type":"Feature","id":"BGR:ADM2:BG-21.borino","properties":{"shapeName":"Borino","shapeISO":"","shapeGroup":"BGR","shapeType":"ADM2","adm1ISO":"BG-21","parentISO":"BG-21","parentID":"BGR:ADM1:BG-21","src_shape_id":"11073933B31653322787795"},"geometry":{"type":"Polygon","coordinates":[[[24.327,41.758604],[24.318374,41.755662],[24.311226,41.751433],[24.301367,41.75033],[24.29274,41.744997],[24.283374,41.743158],[24.272775,41.739112],[24.258233,41.738744],[24.241473,41.738928],[24.22841,41.740215],[24.219536,41.740215],[24.219783,41.722925],[24.222987,41.712622],[24.229149,41.698269],[24.235557,41.685386],[24.236297,41.681704],[24.260205,41.675077],[24.266613,41.67029],[24.267846,41.66403],[24.26193,41.65114],[24.260945,41.640457],[24.262177,41.624982],[24.264642,41.609688],[24.264888,41.581855],[24.264571,41.569173],[24.268754,41.567878],[24.274089,41.563045],[24.280548,41.559053],[24.289535,41.551278],[24.296555,41.540559],[24.298802,41.534253],[24.304699,41.527105],[24.308069,41.518695],[24.313685,41.516803],[24.322391,41.517854],[24.328569,41.5229],[24.340645,41.526054],[24.354967,41.525844],[24.368727,41.52269],[24.374624,41.529418],[24.379327,41.533134],[24.372105,41.537038],[24.365204,41.545893],[24.357317,41.555116],[24.352141,41.56526],[24.348444,41.578721],[24.347951,41.58757],[24.350416,41.59992],[24.353127,41.608951],[24.359289,41.614664],[24.364711,41.622219],[24.364958,41.632536],[24.364465,41.643588],[24.361507,41.650955],[24.344993,41.671763],[24.337352,41.680784],[24.334888,41.689067],[24.337845,41.697533],[24.341542,41.703422],[24.343761,41.708023],[24.344007,41.71391],[24.341296,41.721638],[24.336366,41.729364],[24.333902,41.739112],[24.334888,41.747204],[24.332669,41.756582],[24.327,41.758604]]]}}
]}