{"type":"FeatureCollection","bbox":[6.0642,45.8902,10.4538,47.8012],"features":[
{"type":"Feature","id":"CHE:ADM0:CHE","properties":{"shapeName":"Switzerland","shapeISO":"CHE","shapeType":"ADM0"},"geometry":{"type":"Polygon","coordinates":[[[10.4538,46.8644],[10.3679,46.9955],[10.1113,46.8471],[9.858,47.0155],[9.5124,47.108],[9.6495,47.4097],[9.2732,47.6501],[8.9062,47.6518],[8.5582,47.8012],[8.0872,47.5674],[7.5503,47.5755],[7.3785,47.4306],[7.1037,47.4963],[7.0443,47.3405],[6.6654,47.0213],[6.4426,46.9442],[6.4292,46.7608],[6.1319,46.5956],[6.0642,46.4711],[6.2141,46.3155],[6.4829,46.4486],[6.7627,46.4293],[6.8539,46.1226],[7.0669,45.8902],[7.5411,45.9841],[7.8312,45.9145],[8.1106,46.127],[8.0773,46.262],[8.4272,46.2514],[8.6018,46.1228],[9.0021,46.0393],[9.2248,46.2312],[9.2632,46.4851],[9.6743,46.2918],[10.1334,46.414],[10.2954,46.5511],[10.4538,46.8644]]]}}
]}