{"type":"FeatureCollection","bbox":[-62.348159,16.932293,-61.660261,17.728862], "features": [
{"type":"Feature","geometry":{"type":"Polygon","coordinates":[[[-62.345742,16.944074],[-62.34795,16.942763],[-62.347439,16.939739],[-62.348159,16.934204],[-62.346416,16.932293],[-62.344581,16.933249],[-62.34307,16.935649],[-62.342559,16.938161],[-62.343163,16.941562],[-62.345742,16.944074]]]},"properties":{"shapeName":"Redonda","shapeISO":"AG-11","shapeGroup":"ATG","shapeType":"ADM1","src_shape_id":"74100532B54294973205276"}},
{"type":"Feature","geometry":{"type":"MultiPolygon","coordinates":[[[[-61.668757,17.071553],[-61.671807,17.073219],[-61.674058,17.071762],[-61.674058,17.0702],[-61.670391,17.070478],[-61.667813,17.069506],[-61.66538,17.070026],[-61.662948,17.066417],[-61.660261,17.069054],[-61.661568,17.070547],[-61.665163,17.071553],[-61.668757,17.071553]]],[[[-61.743232,17.043626],[-61.732055,17.04265],[-61.721277,17.035111],[-61.717305,17.033104],[-61.713107,17.032127],[-61.708682,17.031748],[-61.699775,17.032344],[-61.695918,17.032236],[-61.693308,17.030934],[-61.691436,17.034243],[-61.68616,17.033755],[-61.686387,17.035545],[-61.689167,17.036033],[-61.690245,17.037877],[-61.68894,17.041023],[-61.684742,17.040481],[-61.68321,17.041186],[-61.682926,17.044223],[-61.680203,17.045199],[-61.678728,17.043084],[-61.674303,17.045254],[-61.67453,17.04726],[-61.676799,17.047477],[-61.676516,17.05084],[-61.674076,17.053227],[-61.677594,17.056101],[-61.678388,17.06006],[-61.677253,17.061308],[-61.679182,17.065321],[-61.67731,17.067165],[-61.679352,17.068033],[-61.67992,17.072046],[-61.682359,17.069497],[-61.687366,17.067668],[-61.689898,17.067268],[-61.695266,17.06789],[-61.699914,17.071799],[-61.699263,17.073354],[-61.700518,17.075065],[-61.703144,17.074909],[-61.704724,17.07291],[-61.709348,17.069733],[-61.711114,17.069245],[-61.713182,17.070977],[-61.710556,17.072243],[-61.705909,17.07562],[-61.704979,17.07693],[-61.705049,17.080462],[-61.7001,17.082128],[-61.698496,17.081995],[-61.692571,17.084105],[-61.693616,17.090013],[-61.691525,17.089058],[-61.69113,17.086148],[-61.689503,17.084283],[-61.684624,17.08315],[-61.684345,17.088703],[-61.682672,17.090391],[-61.683044,17.092501],[-61.685228,17.092456],[-61.685135,17.094522],[-61.681998,17.095033],[-61.680302,17.09661],[-61.680371,17.098364],[-61.685158,17.098142],[-61.686622,17.099475],[-61.682649,17.100741],[-61.683624,17.102229],[-61.687621,17.101163],[-61.689318,17.099275],[-61.692896,17.100141],[-61.694128,17.098542],[-61.69594,17.100874],[-61.698961,17.103206],[-61.702307,17.103828],[-61.704747,17.100941],[-61.703283,17.098542],[-61.707024,17.098853],[-61.706234,17.096476],[-61.710045,17.095921],[-61.71209,17.094033],[-61.713414,17.095433],[-61.71839,17.093002],[-61.717809,17.097513],[-61.718172,17.099353],[-61.722239,17.097756],[-61.727903,17.096472],[-61.730081,17.094911],[-61.732296,17.090642],[-61.733349,17.089948],[-61.735055,17.087486],[-61.739237,17.086846],[-61.742952,17.08176],[-61.743219,17.074084],[-61.746532,17.065031],[-61.744156,17.046733],[-61.743232,17.043626]]]]},"properties":{"shapeName":"Saint Philip","shapeISO":"AG-08","shapeGroup":"ATG","shapeType":"ADM1","src_shape_id":"74100532B52002127383103"}},
{"type":"Feature","geometry":{"type":"Polygon","coordinates":[[[-61.802328,17.170613],[-61.808143,17.169023],[-61.810866,17.169578],[-61.814098,17.168017],[-61.822775,17.167948],[-61.826443,17.171174],[-61.828839,17.17159],[-61.831671,17.173151],[-61.83542,17.170721],[-61.837292,17.170504],[-61.839901,17.168715],[-61.846936,17.166168],[-61.845858,17.162428],[-61.848241,17.158417],[-61.85295,17.154893],[-61.855162,17.154568],[-61.854708,17.149906],[-61.858509,17.1421],[-61.859984,17.136191],[-61.863899,17.131311],[-61.859474,17.132233],[-61.851418,17.129305],[-61.852893,17.126649],[-61.85641,17.127137],[-61.85624,17.125348],[-61.853687,17.125185],[-61.848071,17.12345],[-61.845802,17.120089],[-61.845745,17.118028],[-61.848298,17.117269],[-61.852382,17.1183],[-61.856751,17.120739],[-61.860268,17.119818],[-61.865204,17.120035],[-61.86787,17.121065],[-61.870707,17.125781],[-61.872465,17.126269],[-61.876039,17.125673],[-61.878252,17.12795],[-61.886421,17.130064],[-61.884889,17.126866],[-61.886137,17.124209],[-61.889768,17.123884],[-61.893002,17.121444],[-61.897257,17.120197],[-61.896916,17.116727],[-61.897484,17.114504],[-61.901852,17.109191],[-61.902816,17.107347],[-61.902533,17.103335],[-61.90571,17.100732],[-61.905483,17.099485],[-61.902727,17.098875],[-61.900194,17.099297],[-61.897685,17.101496],[-61.895431,17.102207],[-61.893223,17.101607],[-61.891666,17.102962],[-61.88272,17.104028],[-61.878026,17.105671],[-61.875531,17.105295],[-61.869501,17.10914],[-61.864682,17.104565],[-61.860023,17.099136],[-61.857151,17.096421],[-61.84745,17.093798],[-61.8411,17.093859],[-61.837781,17.09087],[-61.834207,17.08907],[-61.834239,17.086356],[-61.842376,17.073636],[-61.842249,17.067748],[-61.844227,17.064484],[-61.844163,17.059908],[-61.843015,17.056338],[-61.843844,17.052708],[-61.837398,17.054691],[-61.823517,17.059694],[-61.822751,17.059542],[-61.815443,17.05042],[-61.809984,17.053895],[-61.80568,17.057498],[-61.799384,17.064009],[-61.793601,17.064971],[-61.793452,17.073938],[-61.791835,17.080119],[-61.79649,17.081153],[-61.802613,17.081824],[-61.805357,17.084863],[-61.808536,17.089469],[-61.809071,17.09353],[-61.806495,17.104053],[-61.804721,17.113135],[-61.807934,17.113231],[-61.808168,17.115118],[-61.809372,17.14249],[-61.815998,17.14265],[-61.815797,17.155056],[-61.806361,17.156719],[-61.805391,17.15739],[-61.800204,17.157838],[-61.802328,17.170613]]]},"properties":{"shapeName":"Saint John","shapeISO":"AG-04","shapeGroup":"ATG","shapeType":"ADM1","src_shape_id":"74100532B54588500691901"}},
{"type":"Feature","geometry":{"type":"Polygon","coordinates":[[[-61.841774,17.727187],[-61.844043,17.728862],[-61.851361,17.727565],[-61.854028,17.725728],[-61.852439,17.720486],[-61.851418,17.719946],[-61.847674,17.721027],[-61.84705,17.718757],[-61.849829,17.71665],[-61.859247,17.714164],[-61.860552,17.713191],[-61.860949,17.704166],[-61.85902,17.701247],[-61.855219,17.697086],[-61.852779,17.69687],[-61.849376,17.693032],[-61.847447,17.693411],[-61.845972,17.696437],[-61.840752,17.69233],[-61.838143,17.6866],[-61.832697,17.682871],[-61.831562,17.683087],[-61.830824,17.686114],[-61.828328,17.677412],[-61.829803,17.674385],[-61.829747,17.671088],[-61.832129,17.667412],[-61.833945,17.662817],[-61.831505,17.658168],[-61.830371,17.650275],[-61.828442,17.646005],[-61.828555,17.643139],[-61.831619,17.638057],[-61.833718,17.632921],[-61.832129,17.626866],[-61.831789,17.618647],[-61.833264,17.614105],[-61.832186,17.612862],[-61.832867,17.606697],[-61.834625,17.605237],[-61.841717,17.606319],[-61.84722,17.60886],[-61.850964,17.609131],[-61.851361,17.610699],[-61.849943,17.612267],[-61.851248,17.616863],[-61.850113,17.619675],[-61.848298,17.62838],[-61.850624,17.636435],[-61.852723,17.646383],[-61.853687,17.654871],[-61.852893,17.658547],[-61.85919,17.665736],[-61.859701,17.667952],[-61.859304,17.671412],[-61.860892,17.671736],[-61.864806,17.677574],[-61.869345,17.682601],[-61.870082,17.684871],[-61.868324,17.688654],[-61.865601,17.682655],[-61.863445,17.683357],[-61.866055,17.6866],[-61.866906,17.689789],[-61.866792,17.693465],[-61.864239,17.697788],[-61.86458,17.700491],[-61.865884,17.701409],[-61.874508,17.700815],[-61.871784,17.704544],[-61.867757,17.705949],[-61.86753,17.707625],[-61.864863,17.709732],[-61.863785,17.713569],[-61.867019,17.713299],[-61.867189,17.715785],[-61.869856,17.715082],[-61.873883,17.70957],[-61.875756,17.706382],[-61.880067,17.701734],[-61.881996,17.700869],[-61.885627,17.697951],[-61.886705,17.696005],[-61.880521,17.691195],[-61.875529,17.687952],[-61.871501,17.684384],[-61.86804,17.679033],[-61.865544,17.672601],[-61.864409,17.666439],[-61.862254,17.663358],[-61.858055,17.659952],[-61.855503,17.654816],[-61.853971,17.649032],[-61.852326,17.637192],[-61.850113,17.629569],[-61.85017,17.625892],[-61.852496,17.615511],[-61.852836,17.611023],[-61.858623,17.594152],[-61.860438,17.587825],[-61.860438,17.584147],[-61.859587,17.581551],[-61.856467,17.579226],[-61.854652,17.579334],[-61.852723,17.581822],[-61.849205,17.58485],[-61.838086,17.591178],[-61.832526,17.59307],[-61.827874,17.5928],[-61.822428,17.591772],[-61.813068,17.585986],[-61.809153,17.584201],[-61.80382,17.58074],[-61.799112,17.575656],[-61.794063,17.573223],[-61.791907,17.573385],[-61.78487,17.571992],[-61.778552,17.568634],[-61.774123,17.565034],[-61.770674,17.56005],[-61.768568,17.555999],[-61.76668,17.550634],[-61.76668,17.54326],[-61.762032,17.551672],[-61.760253,17.553334],[-61.757167,17.554615],[-61.746504,17.553221],[-61.738615,17.549164],[-61.735335,17.544515],[-61.732144,17.545445],[-61.736133,17.549756],[-61.736665,17.55153],[-61.735513,17.556432],[-61.73826,17.559728],[-61.73897,17.562095],[-61.73826,17.565052],[-61.736488,17.567757],[-61.736044,17.571644],[-61.736222,17.576545],[-61.737108,17.581193],[-61.734715,17.585165],[-61.734537,17.587615],[-61.732055,17.594206],[-61.731435,17.597501],[-61.731878,17.606542],[-61.73436,17.612456],[-61.735158,17.619722],[-61.736665,17.623862],[-61.739413,17.636027],[-61.742781,17.642362],[-61.749607,17.652752],[-61.758116,17.660607],[-61.763346,17.666689],[-61.769906,17.670321],[-61.773008,17.674966],[-61.777529,17.678766],[-61.781518,17.684341],[-61.782848,17.687127],[-61.786571,17.69059],[-61.790825,17.697177],[-61.792687,17.699204],[-61.795612,17.700724],[-61.800665,17.700217],[-61.80554,17.697853],[-61.81272,17.703848],[-61.815734,17.703764],[-61.818925,17.701062],[-61.816709,17.697515],[-61.816089,17.69515],[-61.818216,17.693039],[-61.821584,17.690843],[-61.820343,17.689661],[-61.815734,17.693884],[-61.813341,17.695319],[-61.807579,17.697008],[-61.806515,17.695235],[-61.807933,17.689999],[-61.813961,17.688563],[-61.816177,17.685016],[-61.818039,17.684932],[-61.822205,17.68679],[-61.828676,17.687465],[-61.834969,17.689408],[-61.837097,17.691266],[-61.838604,17.695826],[-61.838249,17.698613],[-61.839047,17.704186],[-61.834083,17.707479],[-61.832399,17.711701],[-61.831158,17.708662],[-61.830626,17.70503],[-61.828764,17.702835],[-61.83036,17.701062],[-61.831069,17.698106],[-61.829562,17.697177],[-61.825839,17.697853],[-61.824421,17.699035],[-61.820432,17.700639],[-61.825662,17.706976],[-61.831675,17.715245],[-61.83593,17.719892],[-61.836951,17.721837],[-61.840015,17.724377],[-61.841774,17.727187]]]},"properties":{"shapeName":"Barbuda","shapeISO":"AG-10","shapeGroup":"ATG","shapeType":"ADM1","src_shape_id":"74100532B56248932917605"}},
{"type":"Feature","geometry":{"type":"Polygon","coordinates":[[[-61.875531,17.105295],[-61.87375,17.102251],[-61.875121,17.095699],[-61.876702,17.095233],[-61.87877,17.092434],[-61.88028,17.088236],[-61.883812,17.086881],[-61.887549,17.088247],[-61.891034,17.088004],[-61.894447,17.08502],[-61.898115,17.084499],[-61.89993,17.086234],[-61.903052,17.08495],[-61.904251,17.082903],[-61.904142,17.080334],[-61.899204,17.080543],[-61.896045,17.078356],[-61.891688,17.079467],[-61.889836,17.075892],[-61.890889,17.073254],[-61.888711,17.066139],[-61.888566,17.063605],[-61.891216,17.05458],[-61.897606,17.051977],[-61.896118,17.048818],[-61.895863,17.046354],[-61.894012,17.04139],[-61.893685,17.037016],[-61.890562,17.027122],[-61.887222,17.024726],[-61.884826,17.024553],[-61.882611,17.022956],[-61.877855,17.023893],[-61.872772,17.023581],[-61.870339,17.022852],[-61.866853,17.022817],[-61.865292,17.022018],[-61.860608,17.022609],[-61.858503,17.020873],[-61.857377,17.017783],[-61.854509,17.018269],[-61.844342,17.01688],[-61.843181,17.016186],[-61.843362,17.013408],[-61.839695,17.01379],[-61.83886,17.012679],[-61.836209,17.012749],[-61.835556,17.0157],[-61.832361,17.015734],[-61.831925,17.011221],[-61.832579,17.006707],[-61.831199,17.004937],[-61.826007,17.006985],[-61.823066,17.007055],[-61.818564,17.00886],[-61.810503,17.009311],[-61.810503,17.012124],[-61.808135,17.014368],[-61.810146,17.019787],[-61.810114,17.029703],[-61.808199,17.035714],[-61.808455,17.037179],[-61.811263,17.042365],[-61.814614,17.047277],[-61.815443,17.05042],[-61.822751,17.059542],[-61.823517,17.059694],[-61.837398,17.054691],[-61.843844,17.052708],[-61.843015,17.056338],[-61.844163,17.059908],[-61.844227,17.064484],[-61.842249,17.067748],[-61.842376,17.073636],[-61.834239,17.086356],[-61.834207,17.08907],[-61.837781,17.09087],[-61.8411,17.093859],[-61.84745,17.093798],[-61.857151,17.096421],[-61.860023,17.099136],[-61.864682,17.104565],[-61.869501,17.10914],[-61.875531,17.105295]]]},"properties":{"shapeName":"Saint Mary","shapeISO":"AG-05","shapeGroup":"ATG","shapeType":"ADM1","src_shape_id":"74100532B19516932260818"}},
{"type":"Feature","geometry":{"type":"Polygon","coordinates":[[[-61.746532,17.065031],[-61.755366,17.065095],[-61.757641,17.064775],[-61.763229,17.061992],[-61.76701,17.061225],[-61.775911,17.062888],[-61.789768,17.064152],[-61.793601,17.064971],[-61.799384,17.064009],[-61.80568,17.057498],[-61.809984,17.053895],[-61.815443,17.05042],[-61.814614,17.047277],[-61.811263,17.042365],[-61.808455,17.037179],[-61.808199,17.035714],[-61.810114,17.029703],[-61.810146,17.019787],[-61.808135,17.014368],[-61.800991,17.014554],[-61.797033,17.012124],[-61.790861,17.010804],[-61.788646,17.008791],[-61.784325,17.007159],[-61.78694,17.010526],[-61.785887,17.013408],[-61.783853,17.015491],[-61.781021,17.020456],[-61.779569,17.021775],[-61.773142,17.021984],[-61.76973,17.020977],[-61.768314,17.018685],[-61.769258,17.015804],[-61.769185,17.012262],[-61.774123,17.0107],[-61.776701,17.008999],[-61.777971,17.00643],[-61.774304,17.005214],[-61.773832,17.002576],[-61.770928,17.000805],[-61.76697,17.004138],[-61.764174,17.005249],[-61.762867,17.00702],[-61.759963,17.004867],[-61.759345,17.003374],[-61.760834,17.000492],[-61.754516,16.997645],[-61.753827,16.998617],[-61.748598,16.998444],[-61.745331,16.998791],[-61.74187,17.004244],[-61.74221,17.006035],[-61.738409,17.005872],[-61.736651,17.001857],[-61.734665,17.002183],[-61.733644,17.004895],[-61.733814,17.007282],[-61.736991,17.009995],[-61.738353,17.011948],[-61.737785,17.015745],[-61.734495,17.016233],[-61.733247,17.012762],[-61.731261,17.016939],[-61.731715,17.020302],[-61.733077,17.022092],[-61.73926,17.026974],[-61.740962,17.031531],[-61.742834,17.034568],[-61.742778,17.036955],[-61.744536,17.039884],[-61.743232,17.043626],[-61.744156,17.046733],[-61.746532,17.065031]]]},"properties":{"shapeName":"Saint Paul","shapeISO":"AG-06","shapeGroup":"ATG","shapeType":"ADM1","src_shape_id":"74100532B93709990123087"}},
{"type":"Feature","geometry":{"type":"MultiPolygon","coordinates":[[[[-61.715204,17.109558],[-61.715808,17.110335],[-61.719479,17.109691],[-61.722291,17.107559],[-61.716946,17.107959],[-61.715204,17.109558]]],[[[-61.733349,17.089948],[-61.732913,17.095535],[-61.733204,17.098971],[-61.731279,17.100637],[-61.730045,17.104627],[-61.726523,17.107057],[-61.730299,17.108445],[-61.73393,17.111429],[-61.736145,17.110249],[-61.743697,17.11077],[-61.745294,17.112748],[-61.744532,17.115524],[-61.740465,17.116495],[-61.738162,17.118108],[-61.730587,17.11893],[-61.7281,17.119818],[-61.725684,17.122905],[-61.718294,17.12708],[-61.719898,17.129989],[-61.7258,17.131765],[-61.72724,17.130522],[-61.727659,17.127524],[-61.730842,17.125081],[-61.733567,17.124996],[-61.736399,17.122255],[-61.739957,17.122186],[-61.744532,17.120729],[-61.745984,17.121527],[-61.746529,17.116426],[-61.749397,17.114899],[-61.75143,17.117016],[-61.751576,17.119965],[-61.754044,17.122255],[-61.753282,17.125343],[-61.746275,17.130652],[-61.745912,17.13263],[-61.747945,17.134365],[-61.747945,17.137314],[-61.751612,17.13714],[-61.750849,17.133497],[-61.752919,17.131138],[-61.756622,17.128189],[-61.763412,17.12406],[-61.763739,17.121978],[-61.761778,17.121665],[-61.759926,17.116981],[-61.760653,17.112192],[-61.764465,17.112643],[-61.769512,17.110874],[-61.769911,17.112435],[-61.767261,17.11424],[-61.769693,17.115766],[-61.771872,17.113615],[-61.776447,17.112435],[-61.777637,17.11349],[-61.782658,17.11285],[-61.783836,17.112093],[-61.783857,17.101245],[-61.783558,17.09973],[-61.780495,17.095452],[-61.780667,17.092279],[-61.782294,17.091113],[-61.788505,17.089229],[-61.790261,17.087776],[-61.790775,17.083334],[-61.791835,17.080119],[-61.793452,17.073938],[-61.793601,17.064971],[-61.789768,17.064152],[-61.775911,17.062888],[-61.76701,17.061225],[-61.763229,17.061992],[-61.757641,17.064775],[-61.755366,17.065095],[-61.746532,17.065031],[-61.743219,17.074084],[-61.742952,17.08176],[-61.739237,17.086846],[-61.735055,17.087486],[-61.733349,17.089948]]]]},"properties":{"shapeName":"Saint Peter","shapeISO":"AG-07","shapeGroup":"ATG","shapeType":"ADM1","src_shape_id":"74100532B3675352926720"}},
{"type":"Feature","geometry":{"type":"MultiPolygon","coordinates":[[[[-61.76363,17.146994],[-61.764102,17.143524],[-61.762976,17.143039],[-61.761488,17.146508],[-61.76363,17.146994]]],[[[-61.75662,17.15923],[-61.757868,17.160964],[-61.760137,17.158362],[-61.75991,17.155977],[-61.761953,17.152779],[-61.75974,17.149201],[-61.758095,17.149526],[-61.756393,17.151857],[-61.75333,17.151912],[-61.750096,17.152833],[-61.748791,17.154351],[-61.745955,17.155435],[-61.747543,17.158796],[-61.751855,17.159338],[-61.75662,17.15923]]],[[[-61.791835,17.080119],[-61.790775,17.083334],[-61.790261,17.087776],[-61.788505,17.089229],[-61.782294,17.091113],[-61.780667,17.092279],[-61.780495,17.095452],[-61.783558,17.09973],[-61.783857,17.101245],[-61.783836,17.112093],[-61.782658,17.11285],[-61.777637,17.11349],[-61.775975,17.118612],[-61.776919,17.124858],[-61.778189,17.125274],[-61.783418,17.122706],[-61.785233,17.123921],[-61.787048,17.122915],[-61.788247,17.12517],[-61.787339,17.12798],[-61.783163,17.130409],[-61.781784,17.132734],[-61.781312,17.1361],[-61.780114,17.13721],[-61.776701,17.13544],[-61.773397,17.13721],[-61.772453,17.13943],[-61.773905,17.141616],[-61.780477,17.143871],[-61.78182,17.145051],[-61.787666,17.148104],[-61.790026,17.154349],[-61.78959,17.15813],[-61.790135,17.159206],[-61.79431,17.15924],[-61.799502,17.163507],[-61.800519,17.169509],[-61.802328,17.170613],[-61.800204,17.157838],[-61.805391,17.15739],[-61.806361,17.156719],[-61.815797,17.155056],[-61.815998,17.14265],[-61.809372,17.14249],[-61.808168,17.115118],[-61.807934,17.113231],[-61.804721,17.113135],[-61.806495,17.104053],[-61.809071,17.09353],[-61.808536,17.089469],[-61.805357,17.084863],[-61.802613,17.081824],[-61.79649,17.081153],[-61.791835,17.080119]]]]},"properties":{"shapeName":"Saint George","shapeISO":"AG-03","shapeGroup":"ATG","shapeType":"ADM1","src_shape_id":"74100532B88993889644511"}}
]}