{"type":"FeatureCollection","bbox":[16.1273,45.7642,22.8828,48.5665],"features":[
{"type":"Feature","id":"HUN:ADM1:HU-PE","properties":{"shapeName":"Pest","shapeISO":"HU-PE","shapeType":"ADM1"},"geometry":{"type":"Polygon","coordinates":[[[18.9663,47.0052],[19.0591,47.0188],[19.2246,47.1132],[19.5996,47.0665],[19.6327,46.9787],[19.759,46.916],[19.8637,46.9646],[20.0747,46.9815],[20.0213,47.1013],[20.0652,47.1564],[19.9578,47.3179],[19.8172,47.3889],[19.6733,47.5078],[19.6457,47.5704],[19.5429,47.7391],[19.4129,47.8037],[19.1288,47.8435],[18.9656,47.924],[19.0134,47.9875],[18.967,48.068],[18.8307,48.0459],[18.7777,47.877],[18.8554,47.8111],[18.9184,47.7595],[18.857,47.6373],[18.6908,47.5747],[18.7807,47.4372],[18.7515,47.401],[18.9121,47.2552],[18.8893,47.0798],[18.9663,47.0052]]]}},
{"type":"Feature","id":"HUN:ADM1:HU-SZ","properties":{"shapeName":"Szabolcs-Szatmár-Bereg","shapeISO":"HU-SZ","shapeType":"ADM1"},"geometry":{"type":"Polygon","coordinates":[[[22.0741,47.5815],[22.1397,47.5961],[22.2335,47.7293],[22.6374,47.7814],[22.748,47.8817],[22.8293,47.9008],[22.8828,48.0415],[22.8355,48.1079],[22.6598,48.0832],[22.4993,48.2472],[22.3619,48.2593],[22.214,48.4149],[22.1173,48.3744],[22.0714,48.3107],[21.9028,48.2363],[21.6391,48.168],[21.4272,48.1749],[21.3559,48.0381],[21.1971,48.0531],[21.0663,47.9464],[21.2173,47.9052],[21.4799,47.9318],[21.4871,47.7699],[21.5583,47.7032],[21.7629,47.6631],[21.832,47.7213],[22.0351,47.6621],[22.0741,47.5815]]]}},
{"type":"Feature","id":"HUN:ADM1:HU-HB","properties":{"shapeName":"Hajdú-Bihar","shapeISO":"HU-HB","shapeType":"ADM1"},"geometry":{"type":"Polygon","coordinates":[[[21.0663,47.9464],[20.981,47.7998],[20.7797,47.6642],[20.7959,47.5907],[20.9325,47.5396],[20.9582,47.3809],[20.9465,47.2131],[21.241,47.1282],[21.223,47.0004],[21.4926,46.9336],[21.6348,47.0247],[21.7588,47.1116],[21.8492,47.3113],[21.993,47.4108],[21.9896,47.5376],[22.0741,47.5815],[22.0351,47.6621],[21.832,47.7213],[21.7629,47.6631],[21.5583,47.7032],[21.4871,47.7699],[21.4799,47.9318],[21.2173,47.9052],[21.0663,47.9464]]]}},
{"type":"Feature","id":"HUN:ADM1:HU-BZ","properties":{"shapeName":"Borsod-Abaúj-Zemplén","shapeISO":"HU-BZ","shapeType":"ADM1"},"geometry":{"type":"Polygon","coordinates":[[[22.1173,48.3744],[22.0655,48.3868],[21.7195,48.3521],[21.633,48.5017],[21.3425,48.5504],[21.1026,48.5088],[20.9725,48.5111],[20.8359,48.5665],[20.5842,48.5276],[20.413,48.4225],[20.3049,48.2826],[20.1668,48.2514],[20.0314,48.169],[20.0512,48.1512],[20.1951,48.0786],[20.4795,48.0735],[20.4253,47.9705],[20.473,47.9127],[20.4892,47.7742],[20.6078,47.6793],[20.7084,47.6682],[20.7797,47.6642],[20.981,47.7998],[21.0663,47.9464],[21.1971,48.0531],[21.3559,48.0381],[21.4272,48.1749],[21.6391,48.168],[21.9028,48.2363],[22.0714,48.3107],[22.1173,48.3744]]]}},
{"type":"Feature","id":"HUN:ADM1:HU-NO","properties":{"shapeName":"Nógrád","shapeISO":"HU-NO","shapeType":"ADM1"},"geometry":{"type":"Polygon","coordinates":[[[19.5429,47.7391],[19.8931,47.9301],[19.9908,48.0141],[19.9545,48.0856],[20.0512,48.1512],[20.0314,48.169],[19.8674,48.1698],[19.6251,48.2482],[19.5296,48.2162],[19.4781,48.1096],[19.1816,48.0587],[18.967,48.068],[19.0134,47.9875],[18.9656,47.924],[19.1288,47.8435],[19.4129,47.8037],[19.5429,47.7391]]]}},
{"type":"Feature","id":"HUN:ADM1:HU-HE","properties":{"shapeName":"Heves","shapeISO":"HU-HE","shapeType":"ADM1"},"geometry":{"type":"Polygon","coordinates":[[[19.6457,47.5704],[19.8337,47.6602],[19.9589,47.6789],[20.0054,47.5625],[20.1243,47.6088],[20.3641,47.4167],[20.6448,47.5682],[20.7084,47.6682],[20.6078,47.6793],[20.4892,47.7742],[20.473,47.9127],[20.4253,47.9705],[20.4795,48.0735],[20.1951,48.0786],[20.0512,48.1512],[19.9545,48.0856],[19.9908,48.0141],[19.8931,47.9301],[19.5429,47.7391],[19.6457,47.5704]]]}},
{"type":"Feature","id":"HUN:ADM1:HU-BE","properties":{"shapeName":"Békés","shapeISO":"HU-BE","shapeType":"ADM1"},"geometry":{"type":"Polygon","coordinates":[[[20.9465,47.2131],[20.8308,47.1371],[20.7858,47.0391],[20.6805,47.0114],[20.6681,46.8984],[20.4574,46.8671],[20.4152,46.7821],[20.5724,46.748],[20.5435,46.6357],[20.5879,46.4735],[20.5601,46.3693],[20.7664,46.3387],[20.7846,46.2763],[21.0259,46.2802],[21.1803,46.3199],[21.3078,46.4809],[21.268,46.5211],[21.334,46.6348],[21.4049,46.6263],[21.5189,46.8405],[21.6657,46.97],[21.6348,47.0247],[21.4926,46.9336],[21.223,47.0004],[21.241,47.1282],[20.9465,47.2131]]]}},
{"type":"Feature","id":"HUN:ADM1:HU-CS","properties":{"shapeName":"Csongrád-Csanád","shapeISO":"HU-CS","shapeType":"ADM1"},"geometry":{"type":"Polygon","coordinates":[[[20.4152,46.7821],[20.3151,46.7318],[20.1785,46.7219],[20.0493,46.7682],[19.9731,46.7073],[19.9872,46.6026],[19.8687,46.5678],[19.9062,46.3902],[19.6722,46.3226],[19.7035,46.1783],[19.8094,46.1329],[19.9418,46.1779],[20.2104,46.1411],[20.5351,46.1948],[20.7148,46.1877],[20.7846,46.2763],[20.7664,46.3387],[20.5601,46.3693],[20.5879,46.4735],[20.5435,46.6357],[20.5724,46.748],[20.4152,46.7821]]]}},
{"type":"Feature","id":"HUN:ADM1:HU-JN","properties":{"shapeName":"Jász-Nagykun-Szolnok","shapeISO":"HU-JN","shapeType":"ADM1"},"geometry":{"type":"Polygon","coordinates":[[[20.0747,46.9815],[20.1375,46.8961],[20.0493,46.7682],[20.1785,46.7219],[20.3151,46.7318],[20.4152,46.7821],[20.4574,46.8671],[20.6681,46.8984],[20.6805,47.0114],[20.7858,47.0391],[20.8308,47.1371],[20.9465,47.2131],[20.9582,47.3809],[20.9325,47.5396],[20.7959,47.5907],[20.7797,47.6642],[20.7084,47.6682],[20.6448,47.5682],[20.3641,47.4167],[20.1243,47.6088],[20.0054,47.5625],[19.9589,47.6789],[19.8337,47.6602],[19.6457,47.5704],[19.6733,47.5078],[19.8172,47.3889],[19.9578,47.3179],[20.0652,47.1564],[20.0213,47.1013],[20.0747,46.9815]]]}},
{"type":"Feature","id":"HUN:ADM1:HU-KE","properties":{"shapeName":"Komárom-Esztergom","shapeISO":"HU-KE","shapeType":"ADM1"},"geometry":{"type":"Polygon","coordinates":[[[18.8554,47.8111],[18.7424,47.8096],[18.6669,47.7469],[18.4418,47.7568],[18.3287,47.725],[18.1088,47.7509],[17.8902,47.733],[17.9504,47.5537],[17.89,47.457],[17.9108,47.3845],[18.0416,47.3259],[18.1328,47.4518],[18.2967,47.4045],[18.5628,47.5717],[18.6908,47.5747],[18.857,47.6373],[18.9184,47.7595],[18.8554,47.8111]]]}},
{"type":"Feature","id":"HUN:ADM1:HU-GS","properties":{"shapeName":"Győr-Moson-Sopron","shapeISO":"HU-GS","shapeType":"ADM1"},"geometry":{"type":"Polygon","coordinates":[[[17.8902,47.733],[17.7515,47.7393],[17.5879,47.8083],[17.3872,47.9737],[17.1966,48.0126],[17.1202,47.9745],[17.0953,47.707],[16.7651,47.6797],[16.7119,47.7402],[16.56,47.7548],[16.4556,47.6529],[16.6544,47.6247],[16.722,47.5423],[16.6635,47.453],[16.8304,47.4501],[17.0819,47.3972],[17.2163,47.4398],[17.3979,47.4546],[17.5246,47.4315],[17.6233,47.4716],[17.7812,47.4621],[17.817,47.3198],[17.9108,47.3845],[17.89,47.457],[17.9504,47.5537],[17.8902,47.733]]]}},
{"type":"Feature","id":"HUN:ADM1:HU-VA","properties":{"shapeName":"Vas","shapeISO":"HU-VA","shapeType":"ADM1"},"geometry":{"type":"Polygon","coordinates":[[[16.6635,47.453],[16.4493,47.3516],[16.5095,47.2843],[16.4325,47.2103],[16.5353,46.9969],[16.3051,47.0109],[16.1273,46.8687],[16.3006,46.8735],[16.3637,46.8343],[16.3854,46.7106],[16.4013,46.7734],[16.6106,46.8409],[16.7199,46.9263],[16.8745,46.9685],[16.9954,46.9528],[17.1195,47.0238],[17.2588,47.1132],[17.277,47.3192],[17.2163,47.4398],[17.0819,47.3972],[16.8304,47.4501],[16.6635,47.453]]]}},
{"type":"Feature","id":"HUN:ADM1:HU-ZA","properties":{"shapeName":"Zala","shapeISO":"HU-ZA","shapeType":"ADM1"},"geometry":{"type":"Polygon","coordinates":[[[16.3854,46.7106],[16.558,46.4882],[16.6875,46.4509],[16.9099,46.2996],[17.018,46.2892],[17.2775,46.4863],[17.2714,46.6599],[17.3223,46.7098],[17.4657,46.7275],[17.3667,46.8072],[17.2902,46.9518],[17.1195,47.0238],[16.9954,46.9528],[16.8745,46.9685],[16.7199,46.9263],[16.6106,46.8409],[16.4013,46.7734],[16.3854,46.7106]]]}},
{"type":"Feature","id":"HUN:ADM1:HU-VE","properties":{"shapeName":"Veszprém","shapeISO":"HU-VE","shapeType":"ADM1"},"geometry":{"type":"Polygon","coordinates":[[[17.9108,47.3845],[17.817,47.3198],[17.7812,47.4621],[17.6233,47.4716],[17.5246,47.4315],[17.3979,47.4546],[17.2163,47.4398],[17.277,47.3192],[17.2588,47.1132],[17.1195,47.0238],[17.2902,46.9518],[17.3667,46.8072],[17.4657,46.7275],[17.5276,46.7285],[17.8889,46.8568],[18.0891,46.9517],[18.198,46.9307],[18.2412,47.0015],[18.2412,47.1951],[18.1278,47.2349],[18.0416,47.3259],[17.9108,47.3845]]]}},
{"type":"Feature","id":"HUN:ADM1:HU-BA","properties":{"shapeName":"Baranya","shapeISO":"HU-BA","shapeType":"ADM1"},"geometry":{"type":"Polygon","coordinates":[[[18.8265,45.9174],[18.8592,46.0363],[18.7973,46.0981],[18.7253,46.1061],[18.3721,46.2829],[18.3467,46.3714],[18.1066,46.282],[17.9641,46.2216],[17.7434,46.1815],[17.6568,45.9506],[17.6579,45.8597],[18.0549,45.7874],[18.3944,45.7642],[18.574,45.8174],[18.6781,45.9191],[18.8265,45.9174]]]}},
{"type":"Feature","id":"HUN:ADM1:HU-SO","properties":{"shapeName":"Somogy","shapeISO":"HU-SO","shapeType":"ADM1"},"geometry":{"type":"Polygon","coordinates":[[[16.9099,46.2996],[16.9681,46.2375],[17.1753,46.1587],[17.4258,45.933],[17.569,45.9445],[17.6579,45.8597],[17.6568,45.9506],[17.7434,46.1815],[17.9641,46.2216],[18.1066,46.282],[18.0838,46.4852],[18.1245,46.6206],[18.2303,46.7564],[18.198,46.9307],[18.0891,46.9517],[17.8889,46.8568],[17.5276,46.7285],[17.4657,46.7275],[17.3223,46.7098],[17.2714,46.6599],[17.2775,46.4863],[17.018,46.2892],[16.9099,46.2996]]]}},
{"type":"Feature","id":"HUN:ADM1:HU-TO","properties":{"shapeName":"Tolna","shapeISO":"HU-TO","shapeType":"ADM1"},"geometry":{"type":"Polygon","coordinates":[[[18.7973,46.0981],[18.8413,46.2],[18.9253,46.2471],[18.9382,46.4324],[18.8737,46.5814],[19.0156,46.6743],[18.9316,46.8213],[18.6715,46.6474],[18.5726,46.7452],[18.4813,46.6985],[18.3167,46.7736],[18.2303,46.7564],[18.1245,46.6206],[18.0838,46.4852],[18.1066,46.282],[18.3467,46.3714],[18.3721,46.2829],[18.7253,46.1061],[18.7973,46.0981]]]}},
{"type":"Feature","id":"HUN:ADM1:HU-BK","properties":{"shapeName":"Bács-Kiskun","shapeISO":"HU-BK","shapeType":"ADM1"},"geometry":{"type":"Polygon","coordinates":[[[18.9663,47.0052],[18.9316,46.8213],[19.0156,46.6743],[18.8737,46.5814],[18.9382,46.4324],[18.9253,46.2471],[18.8413,46.2],[18.7973,46.0981],[18.8592,46.0363],[18.8265,45.9174],[19.007,45.932],[19.1638,45.9974],[19.4004,46.0337],[19.5753,46.1701],[19.7035,46.1783],[19.6722,46.3226],[19.9062,46.3902],[19.8687,46.5678],[19.9872,46.6026],[19.9731,46.7073],[20.0493,46.7682],[20.1375,46.8961],[20.0747,46.9815],[19.8637,46.9646],[19.759,46.916],[19.6327,46.9787],[19.5996,47.0665],[19.2246,47.1132],[19.0591,47.0188],[18.9663,47.0052]]]}},
{"type":"Feature","id":"HUN:ADM1:HU-FE","properties":{"shapeName":"Fejér","shapeISO":"HU-FE","shapeType":"ADM1"},"geometry":{"type":"Polygon","coordinates":[[[18.6908,47.5747],[18.5628,47.5717],[18.2967,47.4045],[18.1328,47.4518],[18.0416,47.3259],[18.1278,47.2349],[18.2412,47.1951],[18.2412,47.0015],[18.198,46.9307],[18.2303,46.7564],[18.3167,46.7736],[18.4813,46.6985],[18.5726,46.7452],[18.6715,46.6474],[18.9316,46.8213],[18.9663,47.0052],[18.8893,47.0798],[18.9121,47.2552],[18.7515,47.401],[18.7807,47.4372],[18.6908,47.5747]]]}}
]}