{"type":"FeatureCollection","bbox":[-62.6504,-27.5806,-54.2453,-19.2867],"features":[
{"type":"Feature","id":"PRY:ADM0:PRY","properties":{"shapeName":"Paraguay","shapeISO":"PRY","shapeType":"ADM0"},"geometry":{"type":"Polygon","coordinates":[[[-62.6504,-22.2345],[-62.2872,-22.4839],[-61.9564,-23.0344],[-61.4918,-23.4132],[-61.1099,-23.607],[-61.0063,-23.8055],[-60.328,-24.018],[-60.0337,-24.007],[-59.341,-24.4876],[-58.8092,-24.7768],[-58.2241,-24.9412],[-57.7541,-25.1809],[-57.5569,-25.4598],[-58.0865,-26.1272],[-58.2479,-26.7582],[-58.6533,-27.1563],[-58.5108,-27.2784],[-58.022,-27.2598],[-57.1801,-27.4873],[-56.9044,-27.4187],[-56.5464,-27.4551],[-56.3675,-27.5806],[-56.1246,-27.2989],[-55.7547,-27.4437],[-55.414,-26.9799],[-54.9753,-26.7878],[-54.7065,-26.4418],[-54.5879,-25.8108],[-54.6098,-25.4328],[-54.261,-24.3295],[-54.2453,-24.0506],[-54.6126,-23.8112],[-54.9436,-23.9692],[-55.398,-23.9768],[-55.5305,-23.6035],[-55.5352,-23.2291],[-55.6378,-23.0007],[-55.6312,-22.6268],[-55.8929,-22.3068],[-56.1968,-22.2793],[-56.4218,-22.0745],[-56.8429,-22.289],[-57.2138,-22.1882],[-57.8439,-22.1437],[-57.9868,-22.0353],[-57.8556,-21.3307],[-57.8602,-20.7303],[-58.1563,-20.2617],[-58.1753,-19.8214],[-59.0895,-19.2867],[-60.0064,-19.2981],[-61.7612,-19.6578],[-61.9442,-20.1041],[-62.2773,-20.5798],[-62.2757,-21.0666],[-62.6504,-22.2345]]]}}
]}