{"type":"FeatureCollection","bbox":[14.216,49.0455,24.1065,54.8241],"features":[
{"type":"Feature","id":"POL:ADM0:POL","properties":{"shapeName":"Poland","shapeISO":"POL","shapeType":"ADM0"},"geometry":{"type":"Polygon","coordinates":[[[18.8332,49.5103],[19.1725,49.4023],[19.4434,49.6018],[19.7518,49.2191],[20.07,49.1831],[20.3295,49.3918],[20.6895,49.4005],[20.9424,49.2959],[21.2744,49.4473],[21.8196,49.3772],[22.0124,49.2111],[22.3901,49.093],[22.7445,49.0455],[22.6409,49.5288],[23.1015,49.9571],[23.7475,50.3894],[24.1065,50.5386],[23.8747,51.1361],[23.634,51.3393],[23.5399,51.6071],[23.6764,51.9941],[23.6375,52.0845],[23.1656,52.2894],[23.3923,52.5096],[23.869,52.67],[23.8937,53.152],[23.5909,53.6113],[23.4325,54.1693],[22.9733,54.3754],[22.6984,54.3429],[20.9296,54.3978],[19.6803,54.4367],[19.0021,54.3449],[18.5881,54.4337],[18.4292,54.7817],[17.8854,54.8241],[17.3374,54.749],[16.94,54.606],[16.5696,54.5572],[16.2201,54.2766],[15.8597,54.25],[14.7819,54.0346],[14.5449,53.704],[14.2639,53.7],[14.4094,53.2724],[14.216,52.818],[14.6448,52.5769],[14.5398,52.4219],[14.7614,52.0767],[14.5858,51.8039],[14.7322,51.5158],[14.9451,51.4492],[15.0195,51.2717],[14.9553,51.064],[15.2271,50.9774],[15.3497,50.7837],[15.8482,50.6752],[16.3316,50.644],[16.3342,50.3719],[16.7012,50.0949],[17.1854,50.3757],[17.8394,49.9736],[18.0916,50.0172],[18.5592,49.9072],[18.6373,49.7003],[18.8332,49.5103]]]}}
]}