{"type":"FeatureCollection","bbox":[-92.2463,13.8585,-88.2326,17.8143], "features": [
{"type":"Feature","geometry":{"type":"Polygon","coordinates":[[[-89.3616,14.4155],[-89.1445,14.7083],[-89.1728,15.0422],[-88.9734,15.1404],[-88.2326,15.7214],[-88.4479,15.8587],[-89.2365,15.8939],[-89.1492,17.0363],[-89.1605,17.8143],[-90.9909,17.802],[-90.992,17.2519],[-91.0669,16.9182],[-90.7353,16.7466],[-90.3988,16.3476],[-90.4857,16.0707],[-91.7238,16.0688],[-92.2047,15.2895],[-92.1617,14.7023],[-92.2463,14.5463],[-91.7626,14.1802],[-91.3165,13.9557],[-90.099,13.8585],[-89.5309,14.2256],[-89.3616,14.4155]]]},"properties":{"shapeName":"Guatemala","shapeISO":"GTM","shapeType":"ADM0"}}
]}