{"type":"FeatureCollection","bbox":[-89.2262,15.8884,-87.5015,18.496], "features": [
{"type":"Feature","geometry":{"type":"Polygon","coordinates":[[[-88.2678,17.0671],[-88.3014,17.1244],[-88.3359,17.1046],[-88.5895,17.1065],[-88.5736,17.0288],[-88.5877,16.9856],[-88.6249,16.9409],[-88.6607,16.9114],[-88.6578,16.8634],[-88.7511,16.7545],[-88.7698,16.7106],[-88.7651,16.6851],[-88.6945,16.6859],[-88.6384,16.695],[-88.5812,16.6632],[-88.582,16.6269],[-88.5414,16.571],[-88.5536,16.5173],[-88.4216,16.5134],[-88.3704,16.5686],[-88.3716,16.6165],[-88.3443,16.6538],[-88.3127,16.6636],[-88.3005,16.7205],[-88.3197,16.7725],[-88.2732,16.8065],[-88.2863,16.8711],[-88.2802,16.914],[-88.2624,16.9285],[-88.3045,16.9583],[-88.3505,16.9465],[-88.3305,16.9869],[-88.3493,17.0176],[-88.279,17.0324],[-88.2678,17.0671]]]},"properties":{"shapeName":"Stann Creek West","shapeISO":"BZ-SC","shapeType":"ADM2"}},
{"type":"Feature","geometry":{"type":"Polygon","coordinates":[[[-88.6088,18.0783],[-88.6237,18.0782],[-88.6618,18.1228],[-88.7051,18.1322],[-88.7184,18.1078],[-88.7164,18.0611],[-88.7708,18.0292],[-88.7669,18.016],[-88.8164,17.9494],[-88.8577,17.9246],[-88.8598,17.8945],[-88.9205,17.9158],[-88.9453,17.9527],[-88.993,17.9597],[-89.001,17.9847],[-89.0375,18.0051],[-89.1242,17.9753],[-89.152,17.9395],[-89.1513,17.5692],[-89.1506,17.3152],[-89.104,17.3539],[-89.0648,17.3806],[-89.0406,17.3654],[-88.9592,17.3819],[-88.9399,17.3782],[-88.9201,17.3802],[-88.8871,17.4105],[-88.7435,17.4082],[-88.7019,17.4386],[-88.6286,17.4577],[-88.6363,17.6162],[-88.6117,17.6743],[-88.5546,17.689],[-88.564,17.7197],[-88.5643,17.7759],[-88.5546,17.8095],[-88.5634,17.8501],[-88.5416,17.9135],[-88.5078,17.9211],[-88.5,17.9542],[-88.522,17.9857],[-88.5471,17.9674],[-88.5674,17.9934],[-88.6273,18.0072],[-88.6088,18.0783]]]},"properties":{"shapeName":"Orange Walk South","shapeISO":"BZ-OW","shapeType":"ADM2"}},
{"type":"Feature","geometry":{"type":"Polygon","coordinates":[[[-88.5043,18.2045],[-88.4996,18.2024],[-88.4814,18.1945],[-88.4407,18.1114],[-88.2759,17.9735],[-88.1819,17.9634],[-88.1605,18.0147],[-88.1596,18.0469],[-88.1168,18.0752],[-88.1016,18.116],[-88.0895,18.2088],[-88.1028,18.2832],[-88.0978,18.3661],[-88.1355,18.3625],[-88.1748,18.3394],[-88.263,18.3544],[-88.3311,18.3303],[-88.3982,18.3744],[-88.4023,18.3728],[-88.4513,18.3481],[-88.4471,18.2344],[-88.5017,18.2327],[-88.5043,18.2045]]]},"properties":{"shapeName":"Corozal South East","shapeISO":"BZ-CZL","shapeType":"ADM2"}},
{"type":"Feature","geometry":{"type":"Polygon","coordinates":[[[-88.5895,17.1065],[-88.5606,17.1237],[-88.5346,17.1874],[-88.5632,17.237],[-88.5616,17.3159],[-88.5692,17.4294],[-88.572,17.4983],[-88.6286,17.4577],[-88.7019,17.4386],[-88.7435,17.4082],[-88.8871,17.4105],[-88.9201,17.3802],[-88.9162,17.3596],[-88.8616,17.2712],[-88.8528,17.2355],[-88.9489,17.211],[-88.9532,17.173],[-88.9305,17.1534],[-88.9113,17.0785],[-88.8714,17.071],[-88.8437,16.9936],[-88.8666,16.9437],[-88.9015,16.9158],[-88.9616,16.8936],[-88.9944,16.9114],[-89.0121,16.874],[-89.0348,16.8688],[-89.039,16.8398],[-89.0806,16.8122],[-89.1324,16.8035],[-89.1653,16.8213],[-89.193,16.4005],[-89.1414,16.4651],[-89.0621,16.4808],[-89.0286,16.5055],[-88.9928,16.5005],[-88.9295,16.5498],[-88.9094,16.5485],[-88.8115,16.6135],[-88.8142,16.6527],[-88.7651,16.6851],[-88.7698,16.7106],[-88.7511,16.7545],[-88.6578,16.8634],[-88.6607,16.9114],[-88.6249,16.9409],[-88.5877,16.9856],[-88.5736,17.0288],[-88.5895,17.1065]],[[-88.7382,17.2573],[-88.7382,17.2123],[-88.7941,17.2253],[-88.7667,17.2728],[-88.7382,17.2573]]]},"properties":{"shapeName":"Cayo South","shapeISO":"BZ-CY","shapeType":"ADM2"}},
{"type":"Feature","geometry":{"type":"Polygon","coordinates":[[[-88.7651,16.6851],[-88.8142,16.6527],[-88.8115,16.6135],[-88.9094,16.5485],[-88.9295,16.5498],[-88.9928,16.5005],[-89.0286,16.5055],[-89.0621,16.4808],[-89.1414,16.4651],[-89.193,16.4005],[-89.2199,15.9949],[-89.1774,16.0135],[-89.1474,16.0442],[-89.0948,16.0709],[-89.065,16.1194],[-89.0428,16.1348],[-88.9937,16.1421],[-88.9766,16.0986],[-88.907,16.1171],[-88.8575,16.1379],[-88.8202,16.1756],[-88.8754,16.2607],[-88.8424,16.3097],[-88.809,16.3196],[-88.7909,16.3592],[-88.7509,16.4039],[-88.7398,16.4392],[-88.6896,16.489],[-88.6323,16.4712],[-88.6284,16.5503],[-88.6038,16.6062],[-88.582,16.6269],[-88.5812,16.6632],[-88.6384,16.695],[-88.6945,16.6859],[-88.7651,16.6851]]]},"properties":{"shapeName":"Toledo West","shapeISO":"BZ-TOL","shapeType":"ADM2"}},
{"type":"Feature","geometry":{"type":"Polygon","coordinates":[[[-88.2624,16.9285],[-88.2275,16.9386],[-88.2182,16.9676],[-88.2353,17.0033],[-88.2486,17.0688],[-88.2678,17.0671],[-88.279,17.0324],[-88.3493,17.0176],[-88.3305,16.9869],[-88.3505,16.9465],[-88.3045,16.9583],[-88.2624,16.9285]]]},"properties":{"shapeName":"Dangriga","shapeISO":"BZ-SC","shapeType":"ADM2"}},
{"type":"Feature","geometry":{"type":"Polygon","coordinates":[[[-88.582,16.6269],[-88.6038,16.6062],[-88.6284,16.5503],[-88.6323,16.4712],[-88.6896,16.489],[-88.7398,16.4392],[-88.7509,16.4039],[-88.7909,16.3592],[-88.809,16.3196],[-88.8424,16.3097],[-88.8754,16.2607],[-88.8202,16.1756],[-88.8575,16.1379],[-88.907,16.1171],[-88.9766,16.0986],[-88.9937,16.1421],[-89.0428,16.1348],[-89.065,16.1194],[-89.0948,16.0709],[-89.1474,16.0442],[-89.1774,16.0135],[-89.2199,15.9949],[-89.2262,15.8957],[-89.1757,15.9133],[-89.1625,15.8991],[-89.1055,15.9116],[-89.0777,15.899],[-89.0218,15.9115],[-88.9573,15.8884],[-88.9128,15.9001],[-88.9348,15.9627],[-88.9161,16.0015],[-88.8558,16.0343],[-88.8313,16.0792],[-88.8096,16.0821],[-88.7975,16.1171],[-88.7504,16.1386],[-88.7509,16.2175],[-88.6974,16.2456],[-88.6609,16.2498],[-88.6372,16.2837],[-88.5916,16.2487],[-88.4929,16.3433],[-88.4841,16.3935],[-88.4476,16.4276],[-88.4332,16.4709],[-88.4084,16.4913],[-88.4216,16.5134],[-88.5536,16.5173],[-88.5414,16.571],[-88.582,16.6269]]]},"properties":{"shapeName":"Toledo East","shapeISO":"BZ-TOL","shapeType":"ADM2"}},
{"type":"Feature","geometry":{"type":"Polygon","coordinates":[[[-89.104,17.3539],[-89.0608,17.2863],[-89.0551,17.2465],[-89.0882,17.1987],[-89.071,17.1534],[-89.0501,17.1807],[-89.0288,17.1487],[-88.9977,17.2164],[-88.998,17.293],[-89.0091,17.3189],[-88.9399,17.3782],[-88.9592,17.3819],[-89.0406,17.3654],[-89.0648,17.3806],[-89.104,17.3539]]]},"properties":{"shapeName":"Cayo North East","shapeISO":"BZ-CY","shapeType":"ADM2"}},
{"type":"Feature","geometry":{"type":"Polygon","coordinates":[[[-89.1506,17.3152],[-89.1502,17.1336],[-89.0854,17.1418],[-89.052,17.128],[-89.071,17.1534],[-89.0882,17.1987],[-89.0551,17.2465],[-89.0608,17.2863],[-89.104,17.3539],[-89.1506,17.3152]]]},"properties":{"shapeName":"Cayo North","shapeISO":"BZ-CY","shapeType":"ADM2"}},
{"type":"Feature","geometry":{"type":"Polygon","coordinates":[[[-89.0348,16.8688],[-89.0492,16.9275],[-89.0258,16.9688],[-89.0564,17.0184],[-89.0779,17.0711],[-89.052,17.128],[-89.0854,17.1418],[-89.1502,17.1336],[-89.15,17.0591],[-89.1653,16.8213],[-89.1324,16.8035],[-89.0806,16.8122],[-89.039,16.8398],[-89.0348,16.8688]]]},"properties":{"shapeName":"Cayo West","shapeISO":"BZ-CY","shapeType":"ADM2"}},
{"type":"Feature","geometry":{"type":"Polygon","coordinates":[[[-88.9399,17.3782],[-89.0091,17.3189],[-88.998,17.293],[-88.9977,17.2164],[-89.0288,17.1487],[-89.0501,17.1807],[-89.071,17.1534],[-89.052,17.128],[-89.0779,17.0711],[-89.0564,17.0184],[-89.0258,16.9688],[-89.0492,16.9275],[-89.0348,16.8688],[-89.0121,16.874],[-88.9944,16.9114],[-88.9616,16.8936],[-88.9015,16.9158],[-88.8666,16.9437],[-88.8437,16.9936],[-88.8714,17.071],[-88.9113,17.0785],[-88.9305,17.1534],[-88.9532,17.173],[-88.9489,17.211],[-88.8528,17.2355],[-88.8616,17.2712],[-88.9162,17.3596],[-88.9201,17.3802],[-88.9399,17.3782]]]},"properties":{"shapeName":"Cayo Central","shapeISO":"BZ-CY","shapeType":"ADM2"}},
{"type":"Feature","geometry":{"type":"Polygon","coordinates":[[[-88.7382,17.2573],[-88.7667,17.2728],[-88.7941,17.2253],[-88.7382,17.2123],[-88.7382,17.2573]]]},"properties":{"shapeName":"Belmopan","shapeISO":"BZ-CY","shapeType":"ADM2"}},
{"type":"Feature","geometry":{"type":"Polygon","coordinates":[[[-88.3982,18.3744],[-88.3839,18.392],[-88.4023,18.3728],[-88.3982,18.3744]]]},"properties":{"shapeName":"Corozal Bay","shapeISO":"BZ-CZL","shapeType":"ADM2"}},
{"type":"Feature","geometry":{"type":"Polygon","coordinates":[[[-88.4023,18.3728],[-88.3839,18.392],[-88.3326,18.4175],[-88.2981,18.4564],[-88.3268,18.4904],[-88.3871,18.4816],[-88.402,18.496],[-88.4431,18.4805],[-88.4779,18.4937],[-88.5171,18.4638],[-88.5507,18.3524],[-88.4815,18.3356],[-88.4513,18.3481],[-88.4023,18.3728]]]},"properties":{"shapeName":"Corozal North","shapeISO":"BZ-CZL","shapeType":"ADM2"}},
{"type":"Feature","geometry":{"type":"Polygon","coordinates":[[[-88.4513,18.3481],[-88.4815,18.3356],[-88.5507,18.3524],[-88.6058,18.2917],[-88.6032,18.2512],[-88.5043,18.2045],[-88.5017,18.2327],[-88.4471,18.2344],[-88.4513,18.3481]]]},"properties":{"shapeName":"Corozal South West","shapeISO":"BZ-CZL","shapeType":"ADM2"}},
{"type":"Feature","geometry":{"type":"Polygon","coordinates":[[[-88.6088,18.0783],[-88.5724,18.08],[-88.5514,18.0882],[-88.5402,18.1301],[-88.5097,18.1518],[-88.4996,18.2024],[-88.5043,18.2045],[-88.6032,18.2512],[-88.6155,18.2233],[-88.6735,18.1942],[-88.6802,18.1598],[-88.7051,18.1322],[-88.6618,18.1228],[-88.6237,18.0782],[-88.6088,18.0783]]]},"properties":{"shapeName":"Orange Walk North","shapeISO":"BZ-OW","shapeType":"ADM2"}},
{"type":"Feature","geometry":{"type":"Polygon","coordinates":[[[-88.5724,18.08],[-88.5463,18.0649],[-88.5067,18.079],[-88.4868,18.1109],[-88.5097,18.1518],[-88.5402,18.1301],[-88.5514,18.0882],[-88.5724,18.08]]]},"properties":{"shapeName":"Orange Walk Central","shapeISO":"BZ-OW","shapeType":"ADM2"}},
{"type":"Feature","geometry":{"type":"Polygon","coordinates":[[[-88.5078,17.9211],[-88.2759,17.9735],[-88.4407,18.1114],[-88.4814,18.1945],[-88.4996,18.2024],[-88.5097,18.1518],[-88.4868,18.1109],[-88.5067,18.079],[-88.5463,18.0649],[-88.5724,18.08],[-88.6088,18.0783],[-88.6273,18.0072],[-88.5674,17.9934],[-88.5471,17.9674],[-88.522,17.9857],[-88.5,17.9542],[-88.5078,17.9211]]]},"properties":{"shapeName":"Orange Walk East","shapeISO":"BZ-OW","shapeType":"ADM2"}},
{"type":"Feature","geometry":{"type":"Polygon","coordinates":[[[-88.2181,17.5152],[-88.252,17.5449],[-88.2853,17.5535],[-88.2438,17.5363],[-88.2248,17.5081],[-88.2122,17.5102],[-88.2181,17.5152]]]},"properties":{"shapeName":"Freetown","shapeISO":"BZ-BZ","shapeType":"ADM2"}},
{"type":"Feature","geometry":{"type":"MultiPolygon","coordinates":[[[[-88.2505,17.473],[-88.2615,17.4653],[-88.2568,17.4494],[-88.2505,17.473]]],[[[-88.2505,17.473],[-88.2265,17.4901],[-88.1943,17.4848],[-88.1986,17.4918],[-88.2225,17.4998],[-88.2505,17.473]]]]},"properties":{"shapeName":"Port Loyola","shapeISO":"BZ-BZ","shapeType":"ADM2"}},
{"type":"Feature","geometry":{"type":"Polygon","coordinates":[[[-88.2248,17.5081],[-88.2615,17.4653],[-88.2505,17.473],[-88.2225,17.4998],[-88.2003,17.4984],[-88.2013,17.5053],[-88.2122,17.5102],[-88.2248,17.5081]]]},"properties":{"shapeName":"Lake Independence","shapeISO":"BZ-BZ","shapeType":"ADM2"}},
{"type":"Feature","geometry":{"type":"Polygon","coordinates":[[[-88.1849,17.4942],[-88.1858,17.5015],[-88.1885,17.498],[-88.1849,17.4942]]]},"properties":{"shapeName":"Fort George","shapeISO":"BZ-BZ","shapeType":"ADM2"}},
{"type":"Feature","geometry":{"type":"Polygon","coordinates":[[[-88.1885,17.498],[-88.195,17.4973],[-88.1907,17.4964],[-88.1891,17.4914],[-88.1921,17.4861],[-88.1849,17.4942],[-88.1885,17.498]]]},"properties":{"shapeName":"Albert","shapeISO":"BZ-BZ","shapeType":"ADM2"}},
{"type":"Feature","geometry":{"type":"Polygon","coordinates":[[[-88.1943,17.4848],[-88.1921,17.4861],[-88.1891,17.4914],[-88.1955,17.4903],[-88.1986,17.4918],[-88.1943,17.4848]]]},"properties":{"shapeName":"Queen Square","shapeISO":"BZ-BZ","shapeType":"ADM2"}},
{"type":"Feature","geometry":{"type":"Polygon","coordinates":[[[-88.1907,17.4964],[-88.1955,17.4903],[-88.1891,17.4914],[-88.1907,17.4964]]]},"properties":{"shapeName":"Mesopotamia","shapeISO":"BZ-BZ","shapeType":"ADM2"}},
{"type":"Feature","geometry":{"type":"Polygon","coordinates":[[[-88.196,17.5047],[-88.1919,17.5026],[-88.1923,17.5125],[-88.1982,17.5118],[-88.196,17.5047]]]},"properties":{"shapeName":"Freetown","shapeISO":"BZ-BZ","shapeType":"ADM2"}},
{"type":"Feature","geometry":{"type":"Polygon","coordinates":[[[-88.2003,17.4984],[-88.195,17.4973],[-88.1885,17.498],[-88.1858,17.5015],[-88.1919,17.5026],[-88.196,17.5047],[-88.2013,17.5053],[-88.2003,17.4984]]]},"properties":{"shapeName":"Pickstock","shapeISO":"BZ-BZ","shapeType":"ADM2"}},
{"type":"Feature","geometry":{"type":"Polygon","coordinates":[[[-88.2122,17.5102],[-88.2013,17.5053],[-88.196,17.5047],[-88.1982,17.5118],[-88.1923,17.5125],[-88.1919,17.5026],[-88.1858,17.5015],[-88.1873,17.5118],[-88.1974,17.5183],[-88.2181,17.5152],[-88.2122,17.5102]]]},"properties":{"shapeName":"Caribbean Shores","shapeISO":"BZ-BZ","shapeType":"ADM2"}},
{"type":"Feature","geometry":{"type":"Polygon","coordinates":[[[-88.1986,17.4918],[-88.1955,17.4903],[-88.1907,17.4964],[-88.195,17.4973],[-88.2003,17.4984],[-88.2225,17.4998],[-88.1986,17.4918]]]},"properties":{"shapeName":"Collet","shapeISO":"BZ-BZ","shapeType":"ADM2"}},
{"type":"Feature","geometry":{"type":"MultiPolygon","coordinates":[[[[-88.6286,17.4577],[-88.572,17.4983],[-88.5692,17.4294],[-88.5506,17.4278],[-88.5231,17.4685],[-88.5124,17.5239],[-88.4903,17.5252],[-88.4714,17.5589],[-88.4,17.5286],[-88.3603,17.525],[-88.3616,17.5533],[-88.3366,17.579],[-88.2891,17.566],[-88.2929,17.6477],[-88.2778,17.6786],[-88.2428,17.7042],[-88.2548,17.765],[-88.227,17.7929],[-88.2008,17.9073],[-88.2057,17.926],[-88.1819,17.9634],[-88.2759,17.9735],[-88.5078,17.9211],[-88.5416,17.9135],[-88.5634,17.8501],[-88.5546,17.8095],[-88.5643,17.7759],[-88.564,17.7197],[-88.5546,17.689],[-88.6117,17.6743],[-88.6363,17.6162],[-88.6286,17.4577]]],[[[-87.8475,18.1857],[-87.8703,18.1816],[-87.9129,18.0994],[-87.8828,18.0744],[-87.833,18.1347],[-87.8475,18.1857]]]]},"properties":{"shapeName":"Belize Rural North","shapeISO":"BZ-BZ","shapeType":"ADM2"}},
{"type":"Feature","geometry":{"type":"MultiPolygon","coordinates":[[[[-87.8226,17.4269],[-87.8115,17.3805],[-87.823,17.3315],[-87.7934,17.3355],[-87.8226,17.4269]]],[[[-87.8123,17.5476],[-87.8002,17.5085],[-87.8271,17.4605],[-87.8094,17.4434],[-87.7867,17.5092],[-87.8123,17.5476]]],[[[-88.3014,17.1244],[-88.3039,17.2403],[-88.2919,17.3071],[-88.2568,17.4494],[-88.2615,17.4653],[-88.2248,17.5081],[-88.2438,17.5363],[-88.2853,17.5535],[-88.2891,17.566],[-88.3366,17.579],[-88.3616,17.5533],[-88.3603,17.525],[-88.4,17.5286],[-88.4714,17.5589],[-88.4903,17.5252],[-88.5124,17.5239],[-88.5231,17.4685],[-88.5506,17.4278],[-88.5692,17.4294],[-88.5616,17.3159],[-88.5632,17.237],[-88.5346,17.1874],[-88.5606,17.1237],[-88.5895,17.1065],[-88.3359,17.1046],[-88.3014,17.1244]]]]},"properties":{"shapeName":"Belize Rural North","shapeISO":"BZ-BZ","shapeType":"ADM2"}}
]}