{"type":"FeatureCollection","bbox":[14.303034,63.406523,21.611206,66.344138],"features":[
{"type":"Feature","id":"SWE:ADM2:SE-AC.sorsele","properties":{"shapeName":"Sorsele","shapeISO":"","shapeGroup":"SWE","shapeType":"ADM2","adm1ISO":"SE-AC","parentISO":"SE-AC","parentID":"SWE:ADM1:SE-AC","src_shape_id":"70781695B2170511041252"},"geometry":{"type":"Polygon","coordinates":[[[15.460599,66.344138],[15.464598,66.338924],[15.468713,66.318547],[15.479687,66.295948],[15.479687,66.284365],[15.460483,66.275536],[15.408358,66.259526],[15.335658,66.24019],[15.199859,66.201474],[15.160079,66.189294],[15.121672,66.176554],[15.080521,66.161036],[15.0476,66.153273],[14.989988,66.14939],[14.945515,66.147428],[14.958205,66.136651],[15.005446,66.109707],[15.059129,66.080122],[15.127843,66.039169],[15.235209,65.981548],[15.310365,65.943937],[15.391963,65.89575],[15.439204,65.863282],[15.525097,65.826376],[15.619579,65.800863],[15.709766,65.776206],[15.845047,65.74094],[16.004893,65.696294],[16.235724,65.639613],[16.34309,65.61192],[16.480652,65.571712],[16.52427,65.546724],[16.574597,65.518932],[16.661832,65.466044],[16.752422,65.420029],[16.856433,65.378127],[16.960443,65.338957],[17.054388,65.316549],[17.144978,65.29973],[17.215437,65.287108],[17.295961,65.27027],[17.383196,65.254826],[17.507338,65.218286],[17.604638,65.19859],[17.72207,65.159153],[17.775752,65.146464],[17.807694,65.133995],[17.837756,65.113219],[17.865671,65.090619],[17.91506,65.074334],[17.936533,65.067093],[17.945122,65.048077],[17.946183,65.047953],[17.983774,65.043547],[18.011689,65.058945],[17.975184,65.075239],[17.97089,65.084287],[17.996658,65.103277],[18.011689,65.115027],[18.033162,65.15295],[18.086845,65.198927],[18.121202,65.229535],[18.157692,65.25111],[18.194211,65.321144],[18.239304,65.372199],[18.265072,65.42762],[18.286545,65.462422],[18.265072,65.497177],[18.273295,65.525004],[18.250101,65.533972],[18.211522,65.552606],[18.166513,65.578316],[18.150998,65.587295],[18.14508,65.590719],[18.112931,65.597804],[18.078638,65.594262],[18.046489,65.591605],[18.020769,65.59869],[17.98219,65.611083],[17.937181,65.618162],[17.909318,65.619047],[17.868596,65.628777],[17.82573,65.636736],[17.774291,65.643808],[17.750715,65.649111],[17.697133,65.65618],[17.660697,65.66413],[17.622118,65.678258],[17.564249,65.696789],[17.448511,65.7479],[17.35635,65.789244],[17.249186,65.840173],[17.037,65.925996],[16.938409,65.962689],[16.844104,66.003689],[16.786235,66.023728],[16.726223,66.041141],[16.679071,66.041141],[16.608342,66.043752],[16.559047,66.048973],[16.520468,66.060282],[16.460455,66.075062],[16.406873,66.09244],[16.355434,66.105466],[16.293279,66.119352],[16.226837,66.147969],[16.158252,66.168761],[16.081093,66.190402],[16.029654,66.203377],[15.986789,66.223259],[15.937493,66.239672],[15.886054,66.255212],[15.811039,66.275916],[15.744597,66.300049],[15.693158,66.308662],[15.637433,66.311246],[15.594567,66.320716],[15.539548,66.328396],[15.529013,66.331568],[15.508822,66.335092],[15.474584,66.342843],[15.460599,66.344138]]]}},
{"type":"Feature","id":"SWE:ADM2:SE-AC.storuman","properties":{"shapeName":"Storuman","shapeISO":"","shapeGroup":"SWE","shapeType":"ADM2","adm1ISO":"SE-AC","parentISO":"SE-AC","parentID":"SWE:ADM1:SE-AC","src_shape_id":"70781695B25837784643259"},"geometry":{"type":"Polygon","coordinates":[[[14.945515,66.147428],[14.839101,66.142734],[14.756798,66.138295],[14.690956,66.13774],[14.610026,66.13552],[14.526352,66.131635],[14.50029,66.12775],[14.503033,66.103868],[14.50852,66.084413],[14.514007,66.071064],[14.52498,66.039331],[14.520865,66.022056],[14.523609,65.995843],[14.548299,65.965134],[14.560645,65.922638],[14.56476,65.880633],[14.594937,65.83912],[14.597681,65.820024],[14.596309,65.79529],[14.583964,65.774473],[14.57299,65.766029],[14.562016,65.746315],[14.553786,65.728842],[14.542812,65.71587],[14.526352,65.693295],[14.520865,65.6577],[14.507148,65.641298],[14.497546,65.62432],[14.489316,65.60903],[14.496174,65.559133],[14.487944,65.538694],[14.489154,65.439308],[14.529524,65.438797],[14.571058,65.434735],[14.593047,65.426608],[14.615035,65.426608],[14.644353,65.421528],[14.685887,65.411364],[14.737194,65.407297],[14.783614,65.410347],[14.805602,65.419495],[14.837364,65.425592],[14.883784,65.425592],[14.927761,65.417462],[14.957079,65.410347],[14.976624,65.40628],[15.030374,65.40628],[15.081681,65.408314],[15.130544,65.40933],[15.162305,65.41543],[15.191623,65.421528],[15.228271,65.418479],[15.255146,65.41238],[15.406622,65.413397],[15.494576,65.410347],[15.555655,65.402213],[15.655825,65.400179],[15.734007,65.397127],[15.78287,65.386954],[15.83662,65.376776],[15.880597,65.365576],[15.970994,65.348258],[16.02963,65.332968],[16.105368,65.32175],[16.151788,65.30134],[16.212868,65.268652],[16.259288,65.235924],[16.327697,65.190856],[16.408321,65.140576],[16.486503,65.094316],[16.545139,65.061372],[16.584229,65.033543],[16.686842,65.000523],[16.760137,64.976765],[16.850535,64.949882],[16.926273,64.926079],[17.006898,64.901218],[17.065534,64.879446],[17.126613,64.861809],[17.158374,64.848313],[17.219453,64.829615],[17.265873,64.815064],[17.322066,64.792182],[17.334282,64.785938],[17.329396,64.773445],[17.341612,64.767197],[17.378259,64.765114],[17.461327,64.764072],[17.505304,64.758863],[17.532961,64.749193],[17.540066,64.749193],[17.568924,64.749193],[17.606451,64.76453],[17.648669,64.779192],[17.675251,64.80583],[17.703396,64.815813],[17.736232,64.825791],[17.742487,64.851054],[17.794086,64.874302],[17.825359,64.890895],[17.858195,64.908803],[17.883213,64.915433],[17.886341,64.933326],[17.889468,64.965767],[17.897286,65.005438],[17.90354,65.025251],[17.931686,65.037132],[17.946183,65.047953],[17.945122,65.048077],[17.936533,65.067093],[17.91506,65.074334],[17.865671,65.090619],[17.837756,65.113219],[17.807694,65.133995],[17.775752,65.146464],[17.72207,65.159153],[17.604638,65.19859],[17.507338,65.218286],[17.383196,65.254826],[17.295961,65.27027],[17.215437,65.287108],[17.144978,65.29973],[17.054388,65.316549],[16.960443,65.338957],[16.856433,65.378127],[16.752422,65.420029],[16.661832,65.466044],[16.574597,65.518932],[16.52427,65.546724],[16.480652,65.571712],[16.34309,65.61192],[16.235724,65.639613],[16.004893,65.696294],[15.845047,65.74094],[15.709766,65.776206],[15.619579,65.800863],[15.525097,65.826376],[15.439204,65.863282],[15.391963,65.89575],[15.310365,65.943937],[15.235209,65.981548],[15.127843,66.039169],[15.059129,66.080122],[15.005446,66.109707],[14.958205,66.136651],[14.945515,66.147428]]]}},
{"type":"Feature","id":"SWE:ADM2:SE-AC.dorotea","properties":{"shapeName":"Dorotea","shapeISO":"","shapeGroup":"SWE","shapeType":"ADM2","adm1ISO":"SE-AC","parentISO":"SE-AC","parentID":"SWE:ADM1:SE-AC","src_shape_id":"70781695B84383625110676"},"geometry":{"type":"Polygon","coordinates":[[[16.883845,63.959952],[16.917003,63.982161],[16.941083,64.00003],[16.944788,64.014642],[16.928117,64.021134],[16.913299,64.030869],[16.891071,64.042222],[16.855878,64.066534],[16.839207,64.086779],[16.828093,64.111861],[16.796604,64.136112],[16.787343,64.155499],[16.765115,64.177292],[16.755854,64.196649],[16.741035,64.211964],[16.733626,64.22727],[16.748445,64.240154],[16.728069,64.249007],[16.708273,64.258713],[16.679331,64.275049],[16.676437,64.290119],[16.676437,64.336536],[16.705379,64.352826],[16.7066,64.359697],[16.708273,64.369106],[16.690908,64.387879],[16.653283,64.422887],[16.630129,64.432881],[16.592504,64.44412],[16.557774,64.452859],[16.525938,64.457851],[16.491207,64.461594],[16.459371,64.46908],[16.392804,64.472822],[16.360968,64.489031],[16.323343,64.499001],[16.253882,64.52391],[16.193104,64.537601],[16.132325,64.561232],[16.111255,64.586532],[16.079766,64.614339],[16.014936,64.656394],[15.966776,64.693633],[15.88898,64.733193],[15.770433,64.780588],[15.663,64.817657],[15.555567,64.853888],[15.507407,64.868052],[15.394417,64.889284],[15.32403,64.901072],[15.246234,64.912069],[15.112869,64.930127],[15.042482,64.939544],[14.949867,64.952094],[14.859104,64.962287],[14.760933,64.968558],[14.698739,64.971257],[14.705542,64.965763],[14.742403,64.945825],[14.769025,64.925004],[14.791551,64.906772],[14.83046,64.879836],[14.857082,64.867662],[14.898039,64.858963],[14.949235,64.845039],[14.990192,64.826753],[15.006574,64.815427],[15.020909,64.795377],[15.031148,64.777057],[15.03934,64.756978],[15.051627,64.746496],[15.102823,64.744749],[15.135588,64.744749],[15.176545,64.732514],[15.217502,64.71765],[15.248219,64.701028],[15.276889,64.682644],[15.309655,64.674761],[15.334229,64.669505],[15.34242,64.649346],[15.303511,64.643208],[15.272793,64.637068],[15.283033,64.620396],[15.326037,64.615129],[15.34242,64.609861],[15.356755,64.59493],[15.373138,64.583506],[15.395664,64.576474],[15.438669,64.573837],[15.442764,64.559765],[15.459147,64.550967],[15.483721,64.545686],[15.516486,64.532481],[15.536965,64.521031],[15.545156,64.496354],[15.571778,64.479596],[15.584065,64.453998],[15.606591,64.446932],[15.631166,64.446932],[15.649596,64.461945],[15.641405,64.503407],[15.65574,64.523674],[15.692601,64.533362],[15.711031,64.528959],[15.719223,64.513102],[15.719223,64.478713],[15.73151,64.459296],[15.743797,64.431027],[15.751988,64.408038],[15.780658,64.400076],[15.823663,64.391226],[15.85438,64.382373],[15.899433,64.369089],[15.942437,64.356684],[15.979298,64.34782],[16.00592,64.334519],[16.020255,64.299906],[16.022303,64.272363],[16.038686,64.260804],[16.067356,64.259025],[16.11036,64.268806],[16.13903,64.276807],[16.200465,64.273251],[16.231183,64.263472],[16.292618,64.235891],[16.388866,64.187783],[16.501498,64.14227],[16.640751,64.073413],[16.700138,64.048331],[16.728808,64.029506],[16.730317,64.028845],[16.759526,64.016051],[16.806626,63.996306],[16.847583,63.978343],[16.866013,63.966661],[16.883845,63.959952]]]}},
{"type":"Feature","id":"SWE:ADM2:SE-AC.asele","properties":{"shapeName":"Åsele","shapeISO":"","shapeGroup":"SWE","shapeType":"ADM2","adm1ISO":"SE-AC","parentISO":"SE-AC","parentID":"SWE:ADM1:SE-AC","src_shape_id":"70781695B85403631212767"},"geometry":{"type":"Polygon","coordinates":[[[16.883845,63.959952],[16.894683,63.955874],[16.931544,63.94868],[16.988884,63.950479],[17.060558,63.940585],[17.132233,63.936086],[17.244864,63.929787],[17.276522,63.923393],[17.320634,63.914483],[17.37183,63.912682],[17.437361,63.908179],[17.484461,63.900973],[17.592997,63.901874],[17.758872,63.896468],[17.840785,63.913583],[17.910412,63.927987],[18.004613,63.94868],[18.135674,63.969358],[18.330219,63.999897],[18.377319,64.008872],[18.397628,64.009762],[18.452555,64.02438],[18.559988,64.043844],[18.672978,64.060053],[18.762837,64.079299],[18.763741,64.079492],[18.721138,64.101345],[18.690807,64.131466],[18.635817,64.155448],[18.583721,64.181931],[18.482423,64.21846],[18.369549,64.270023],[18.288511,64.305182],[18.221945,64.329014],[18.18432,64.349067],[18.198791,64.36535],[18.247992,64.37161],[18.253781,64.386628],[18.236416,64.397886],[18.198791,64.406639],[18.158272,64.410389],[18.114859,64.402888],[18.071446,64.394133],[18.025138,64.395384],[18.004879,64.409139],[17.961466,64.422887],[17.920947,64.435379],[17.857274,64.46409],[17.790707,64.487784],[17.805178,64.502739],[17.83412,64.522665],[17.79939,64.533868],[17.767554,64.528889],[17.729929,64.522665],[17.707444,64.527501],[17.706775,64.527645],[17.680727,64.507722],[17.651785,64.496509],[17.605478,64.489031],[17.567853,64.481551],[17.481027,64.472822],[17.411566,64.467832],[17.333422,64.457851],[17.263961,64.450362],[17.235019,64.44412],[17.171346,64.440375],[17.113462,64.429134],[17.070049,64.424137],[17.038213,64.415389],[16.997694,64.416639],[16.957175,64.404138],[16.931127,64.386628],[16.910868,64.367854],[16.893502,64.357836],[16.818253,64.354078],[16.7066,64.359697],[16.705379,64.352826],[16.676437,64.336536],[16.676437,64.290119],[16.679331,64.275049],[16.708273,64.258713],[16.728069,64.249007],[16.748445,64.240154],[16.733626,64.22727],[16.741035,64.211964],[16.755854,64.196649],[16.765115,64.177292],[16.787343,64.155499],[16.796604,64.136112],[16.828093,64.111861],[16.839207,64.086779],[16.855878,64.066534],[16.891071,64.042222],[16.913299,64.030869],[16.928117,64.021134],[16.944788,64.014642],[16.941083,64.00003],[16.917003,63.982161],[16.883845,63.959952]]]}},
{"type":"Feature","id":"SWE:ADM2:SE-AC.vilhelmina","properties":{"shapeName":"Vilhelmina","shapeISO":"","shapeGroup":"SWE","shapeType":"ADM2","adm1ISO":"SE-AC","parentISO":"SE-AC","parentID":"SWE:ADM1:SE-AC","src_shape_id":"70781695B71787766152021"},"geometry":{"type":"Polygon","coordinates":[[[14.489154,65.439308],[14.489316,65.425988],[14.486573,65.317378],[14.482457,65.299042],[14.465997,65.290442],[14.438563,65.276677],[14.398783,65.261183],[14.376836,65.245679],[14.367234,65.232465],[14.359004,65.22212],[14.345287,65.212345],[14.3398,65.201416],[14.335685,65.185301],[14.332942,65.165721],[14.327455,65.14036],[14.315109,65.128824],[14.303034,65.11155],[14.315879,65.104986],[14.342091,65.10002],[14.36175,65.094501],[14.395826,65.084012],[14.4666,65.054179],[14.559654,65.017672],[14.601593,65.004384],[14.630427,64.994414],[14.683015,64.983955],[14.698739,64.971257],[14.760933,64.968558],[14.859104,64.962287],[14.949867,64.952094],[15.042482,64.939544],[15.112869,64.930127],[15.246234,64.912069],[15.32403,64.901072],[15.394417,64.889284],[15.507407,64.868052],[15.555567,64.853888],[15.663,64.817657],[15.770433,64.780588],[15.88898,64.733193],[15.966776,64.693633],[16.014936,64.656394],[16.079766,64.614339],[16.111255,64.586532],[16.132325,64.561232],[16.193104,64.537601],[16.253882,64.52391],[16.323343,64.499001],[16.360968,64.489031],[16.392804,64.472822],[16.459371,64.46908],[16.491207,64.461594],[16.525938,64.457851],[16.557774,64.452859],[16.592504,64.44412],[16.630129,64.432881],[16.653283,64.422887],[16.690908,64.387879],[16.708273,64.369106],[16.7066,64.359697],[16.818253,64.354078],[16.893502,64.357836],[16.910868,64.367854],[16.931127,64.386628],[16.957175,64.404138],[16.997694,64.416639],[17.038213,64.415389],[17.070049,64.424137],[17.113462,64.429134],[17.171346,64.440375],[17.235019,64.44412],[17.263961,64.450362],[17.333422,64.457851],[17.411566,64.467832],[17.481027,64.472822],[17.567853,64.481551],[17.605478,64.489031],[17.651785,64.496509],[17.680727,64.507722],[17.706775,64.527645],[17.707444,64.527501],[17.686516,64.548797],[17.683622,64.557502],[17.657574,64.564961],[17.651785,64.572418],[17.651785,64.584842],[17.63442,64.587326],[17.619949,64.600985],[17.631526,64.62208],[17.643103,64.628282],[17.669151,64.633242],[17.663362,64.650595],[17.663362,64.662983],[17.643103,64.674128],[17.614161,64.67908],[17.582324,64.681555],[17.556276,64.682793],[17.533123,64.692692],[17.521546,64.703825],[17.504181,64.718661],[17.515757,64.729783],[17.533123,64.7409],[17.540066,64.749193],[17.532961,64.749193],[17.505304,64.758863],[17.461327,64.764072],[17.378259,64.765114],[17.341612,64.767197],[17.329396,64.773445],[17.334282,64.785938],[17.322066,64.792182],[17.265873,64.815064],[17.219453,64.829615],[17.158374,64.848313],[17.126613,64.861809],[17.065534,64.879446],[17.006898,64.901218],[16.926273,64.926079],[16.850535,64.949882],[16.760137,64.976765],[16.686842,65.000523],[16.584229,65.033543],[16.545139,65.061372],[16.486503,65.094316],[16.408321,65.140576],[16.327697,65.190856],[16.259288,65.235924],[16.212868,65.268652],[16.151788,65.30134],[16.105368,65.32175],[16.02963,65.332968],[15.970994,65.348258],[15.880597,65.365576],[15.83662,65.376776],[15.78287,65.386954],[15.734007,65.397127],[15.655825,65.400179],[15.555655,65.402213],[15.494576,65.410347],[15.406622,65.413397],[15.255146,65.41238],[15.228271,65.418479],[15.191623,65.421528],[15.162305,65.41543],[15.130544,65.40933],[15.081681,65.408314],[15.030374,65.40628],[14.976624,65.40628],[14.957079,65.410347],[14.927761,65.417462],[14.883784,65.425592],[14.837364,65.425592],[14.805602,65.419495],[14.783614,65.410347],[14.737194,65.407297],[14.685887,65.411364],[14.644353,65.421528],[14.615035,65.426608],[14.593047,65.426608],[14.571058,65.434735],[14.529524,65.438797],[14.489154,65.439308]]]}},
{"type":"Feature","id":"SWE:ADM2:SE-AC.lycksele","properties":{"shapeName":"Lycksele","shapeISO":"","shapeGroup":"SWE","shapeType":"ADM2","adm1ISO":"SE-AC","parentISO":"SE-AC","parentID":"SWE:ADM1:SE-AC","src_shape_id":"70781695B44534775351427"},"geometry":{"type":"Polygon","coordinates":[[[17.946183,65.047953],[17.931686,65.037132],[17.90354,65.025251],[17.897286,65.005438],[17.889468,64.965767],[17.886341,64.933326],[17.883213,64.915433],[17.858195,64.908803],[17.825359,64.890895],[17.794086,64.874302],[17.742487,64.851054],[17.736232,64.825791],[17.703396,64.815813],[17.675251,64.80583],[17.648669,64.779192],[17.606451,64.76453],[17.568924,64.749193],[17.540066,64.749193],[17.533123,64.7409],[17.515757,64.729783],[17.504181,64.718661],[17.521546,64.703825],[17.533123,64.692692],[17.556276,64.682793],[17.582324,64.681555],[17.614161,64.67908],[17.643103,64.674128],[17.663362,64.662983],[17.663362,64.650595],[17.669151,64.633242],[17.643103,64.628282],[17.631526,64.62208],[17.619949,64.600985],[17.63442,64.587326],[17.651785,64.584842],[17.651785,64.572418],[17.657574,64.564961],[17.683622,64.557502],[17.686516,64.548797],[17.707444,64.527501],[17.729929,64.522665],[17.767554,64.528889],[17.79939,64.533868],[17.83412,64.522665],[17.805178,64.502739],[17.790707,64.487784],[17.857274,64.46409],[17.920947,64.435379],[17.961466,64.422887],[18.004879,64.409139],[18.025138,64.395384],[18.071446,64.394133],[18.114859,64.402888],[18.158272,64.410389],[18.198791,64.406639],[18.236416,64.397886],[18.253781,64.386628],[18.247992,64.37161],[18.198791,64.36535],[18.18432,64.349067],[18.221945,64.329014],[18.288511,64.305182],[18.369549,64.270023],[18.482423,64.21846],[18.583721,64.181931],[18.635817,64.155448],[18.690807,64.131466],[18.721138,64.101345],[18.763741,64.079492],[18.762837,64.079299],[18.849473,64.091228],[18.927451,64.105038],[18.969601,64.1124],[19.013858,64.11884],[19.024395,64.128038],[19.034933,64.138152],[19.051793,64.151938],[19.066545,64.146425],[19.12134,64.145506],[19.121373,64.145771],[19.123448,64.162962],[19.125555,64.189585],[19.142415,64.19876],[19.125555,64.210682],[19.072868,64.233595],[19.03704,64.240923],[19.009643,64.254658],[19.00332,64.293079],[18.984353,64.32323],[18.967493,64.372497],[18.959063,64.440777],[18.992783,64.489834],[19.041255,64.546049],[19.110803,64.616608],[19.157168,64.664448],[19.169813,64.694192],[19.190888,64.706801],[19.20564,64.732901],[19.241468,64.749987],[19.254113,64.776046],[19.272759,64.78346],[19.285725,64.788616],[19.294155,64.811947],[19.268865,64.828087],[19.224608,64.837049],[19.15506,64.863023],[19.058115,64.897915],[18.912698,64.943474],[18.769388,64.985391],[18.74432,64.997379],[18.592358,65.069916],[18.579713,65.085902],[18.562853,65.093003],[18.514381,65.101877],[18.402683,65.15506],[18.320491,65.201066],[18.223546,65.229338],[18.157692,65.25111],[18.121202,65.229535],[18.086845,65.198927],[18.033162,65.15295],[18.011689,65.115027],[17.996658,65.103277],[17.97089,65.084287],[17.975184,65.075239],[18.011689,65.058945],[17.983774,65.043547],[17.946183,65.047953]]]}},
{"type":"Feature","id":"SWE:ADM2:SE-AC.skelleftea","properties":{"shapeName":"Skellefteå","shapeISO":"","shapeGroup":"SWE","shapeType":"ADM2","adm1ISO":"SE-AC","parentISO":"SE-AC","parentID":"SWE:ADM1:SE-AC","src_shape_id":"70781695B28951573568604"},"geometry":{"type":"Polygon","coordinates":[[[19.852202,65.39228],[19.798627,65.349021],[19.765138,65.332254],[19.748394,65.312679],[19.681416,65.28469],[19.654625,65.263678],[19.624485,65.241248],[19.56608,65.210655],[19.562234,65.209722],[19.58499,65.194878],[19.612388,65.175419],[19.648215,65.15506],[19.675613,65.138231],[19.726193,65.101877],[19.757805,65.080574],[19.793633,65.053922],[19.83789,65.035249],[19.903223,65.020123],[19.958018,65.00677],[20.00649,64.991628],[20.04864,64.965778],[20.059178,64.941688],[20.063393,64.924723],[20.092898,64.909535],[20.137155,64.893444],[20.16666,64.878238],[20.177198,64.855861],[20.147693,64.845113],[20.103435,64.840633],[20.088683,64.825397],[20.076038,64.805668],[20.04021,64.77874],[20.021243,64.766164],[20.010705,64.746391],[20.038103,64.731102],[20.069715,64.714004],[20.076038,64.702299],[20.069715,64.687886],[20.029673,64.677071],[19.983308,64.677071],[19.92219,64.689688],[19.894793,64.713103],[19.856858,64.733801],[19.814708,64.757178],[19.793633,64.770656],[19.740945,64.77874],[19.681935,64.776046],[19.641893,64.767961],[19.616603,64.766164],[19.56813,64.777842],[19.528088,64.780536],[19.485938,64.785923],[19.44168,64.789514],[19.393208,64.770656],[19.37424,64.759874],[19.338257,64.754562],[19.343134,64.749268],[19.366063,64.726243],[19.382249,64.704352],[19.409225,64.68475],[19.441596,64.670904],[19.467223,64.657052],[19.488804,64.651278],[19.554895,64.647235],[19.589964,64.642615],[19.620986,64.636838],[19.656055,64.630481],[19.681682,64.616608],[19.710007,64.607356],[19.734286,64.599836],[19.747774,64.591156],[19.76261,64.579],[19.776098,64.563362],[19.784191,64.547136],[19.792284,64.53728],[19.801726,64.530321],[19.824655,64.52568],[19.865119,64.521619],[19.888049,64.512334],[19.913676,64.499562],[19.928513,64.486784],[19.937954,64.475162],[19.950093,64.470512],[19.979767,64.46528],[20.006743,64.464117],[20.031021,64.46121],[20.047207,64.453068],[20.057997,64.44085],[20.064741,64.428627],[20.070137,64.414068],[20.092992,64.404561],[20.106554,64.398919],[20.140274,64.39309],[20.179389,64.379096],[20.206365,64.365678],[20.248178,64.344079],[20.260935,64.333291],[20.288895,64.336925],[20.337368,64.3424],[20.366872,64.33875],[20.409022,64.333273],[20.440635,64.331448],[20.482785,64.329622],[20.497537,64.322317],[20.52915,64.321404],[20.539687,64.32597],[20.548117,64.33875],[20.575515,64.34605],[20.617665,64.356085],[20.640847,64.357909],[20.653492,64.360645],[20.653492,64.393455],[20.678782,64.406203],[20.701965,64.409845],[20.729362,64.420766],[20.7399,64.43714],[20.775727,64.443505],[20.83263,64.457139],[20.872672,64.452595],[20.904285,64.444414],[20.921145,64.432593],[20.956972,64.412575],[20.990692,64.394365],[21.00966,64.377966],[21.015982,64.367939],[21.030735,64.361557],[21.064455,64.360645],[21.081315,64.362469],[21.112927,64.372497],[21.134002,64.368851],[21.15297,64.356997],[21.165615,64.336925],[21.174045,64.315924],[21.188797,64.292165],[21.222517,64.280278],[21.267935,64.276899],[21.30806,64.290331],[21.361556,64.305203],[21.430141,64.339677],[21.465806,64.36758],[21.504213,64.386562],[21.543993,64.405531],[21.586516,64.428632],[21.611206,64.441063],[21.611206,64.465907],[21.605719,64.488957],[21.563197,64.512578],[21.534391,64.5291],[21.519302,64.546202],[21.474036,64.576841],[21.449345,64.595678],[21.413681,64.60568],[21.382132,64.613326],[21.358813,64.606269],[21.334122,64.599209],[21.305316,64.602151],[21.284741,64.613326],[21.243589,64.630376],[21.238103,64.650351],[21.242218,64.673832],[21.271024,64.69612],[21.269652,64.714875],[21.26005,64.737129],[21.243589,64.75059],[21.227129,64.761705],[21.202438,64.775154],[21.166774,64.78918],[21.142083,64.795022],[21.110534,64.796775],[21.084472,64.802031],[21.06664,64.810206],[21.062524,64.818378],[21.081728,64.833549],[21.118764,64.832382],[21.146198,64.830632],[21.168146,64.839381],[21.165402,64.853374],[21.179119,64.871438],[21.196952,64.877262],[21.213412,64.897637],[21.227129,64.912181],[21.258678,64.930205],[21.286112,64.940665],[21.325892,64.952283],[21.353326,64.974922],[21.387618,64.993484],[21.406822,65.009135],[21.458947,65.032884],[21.487753,65.057191],[21.514504,65.08285],[21.44628,65.106263],[21.382651,65.118947],[21.332418,65.134442],[21.282185,65.159777],[21.231951,65.176654],[21.17502,65.182277],[21.004227,65.201948],[20.806643,65.218798],[20.736316,65.234234],[20.619105,65.255269],[20.515289,65.272085],[20.455009,65.28469],[20.394729,65.294489],[20.337798,65.309881],[20.237332,65.329458],[20.133516,65.350417],[20.089981,65.356004],[20.049794,65.365777],[19.979467,65.375546],[19.929234,65.386707],[19.852202,65.39228]]]}},
{"type":"Feature","id":"SWE:ADM2:SE-AC.mala","properties":{"shapeName":"Malå","shapeISO":"","shapeGroup":"SWE","shapeType":"ADM2","adm1ISO":"SE-AC","parentISO":"SE-AC","parentID":"SWE:ADM1:SE-AC","src_shape_id":"70781695B10174824853138"},"geometry":{"type":"Polygon","coordinates":[[[18.273295,65.525004],[18.265072,65.497177],[18.286545,65.462422],[18.265072,65.42762],[18.239304,65.372199],[18.194211,65.321144],[18.157692,65.25111],[18.223546,65.229338],[18.320491,65.201066],[18.402683,65.15506],[18.514381,65.101877],[18.562853,65.093003],[18.579713,65.085902],[18.592358,65.069916],[18.74432,64.997379],[18.828398,65.016563],[18.965386,65.044142],[19.1382,65.093003],[19.311015,65.141775],[19.354506,65.159497],[19.332462,65.185481],[19.302456,65.203465],[19.27245,65.209757],[19.240301,65.218742],[19.221011,65.230418],[19.225298,65.245679],[19.236014,65.254652],[19.242444,65.265416],[19.214581,65.277968],[19.182432,65.285138],[19.152426,65.292306],[19.133136,65.302159],[19.111703,65.307531],[19.075267,65.308427],[19.034545,65.318273],[18.998109,65.331695],[18.968103,65.348685],[18.938097,65.354048],[18.901661,65.366558],[18.865225,65.377276],[18.818073,65.38799],[18.792353,65.397807],[18.766634,65.404944],[18.734485,65.419213],[18.719481,65.442383],[18.672329,65.450399],[18.618747,65.45307],[18.537302,65.453961],[18.509439,65.458412],[18.496579,65.471762],[18.479433,65.485994],[18.449427,65.497553],[18.432281,65.502885],[18.357266,65.502885],[18.331546,65.509106],[18.282251,65.521542],[18.273295,65.525004]]]}},
{"type":"Feature","id":"SWE:ADM2:SE-AC.norsjo","properties":{"shapeName":"Norsjö","shapeISO":"","shapeGroup":"SWE","shapeType":"ADM2","adm1ISO":"SE-AC","parentISO":"SE-AC","parentID":"SWE:ADM1:SE-AC","src_shape_id":"70781695B82980713589977"},"geometry":{"type":"Polygon","coordinates":[[[19.354506,65.159497],[19.311015,65.141775],[19.1382,65.093003],[18.965386,65.044142],[18.828398,65.016563],[18.74432,64.997379],[18.769388,64.985391],[18.912698,64.943474],[19.058115,64.897915],[19.15506,64.863023],[19.224608,64.837049],[19.268865,64.828087],[19.294155,64.811947],[19.285725,64.788616],[19.272759,64.78346],[19.298623,64.772848],[19.328297,64.765374],[19.338257,64.754562],[19.37424,64.759874],[19.393208,64.770656],[19.44168,64.789514],[19.485938,64.785923],[19.528088,64.780536],[19.56813,64.777842],[19.616603,64.766164],[19.641893,64.767961],[19.681935,64.776046],[19.740945,64.77874],[19.793633,64.770656],[19.814708,64.757178],[19.856858,64.733801],[19.894793,64.713103],[19.92219,64.689688],[19.983308,64.677071],[20.029673,64.677071],[20.069715,64.687886],[20.076038,64.702299],[20.069715,64.714004],[20.038103,64.731102],[20.010705,64.746391],[20.021243,64.766164],[20.04021,64.77874],[20.076038,64.805668],[20.088683,64.825397],[20.103435,64.840633],[20.147693,64.845113],[20.177198,64.855861],[20.16666,64.878238],[20.137155,64.893444],[20.092898,64.909535],[20.063393,64.924723],[20.059178,64.941688],[20.04864,64.965778],[20.00649,64.991628],[19.958018,65.00677],[19.903223,65.020123],[19.83789,65.035249],[19.793633,65.053922],[19.757805,65.080574],[19.726193,65.101877],[19.675613,65.138231],[19.648215,65.15506],[19.612388,65.175419],[19.58499,65.194878],[19.562234,65.209722],[19.525358,65.200768],[19.446056,65.178284],[19.411764,65.170185],[19.354506,65.159497]]]}},
{"type":"Feature","id":"SWE:ADM2:SE-AC.robertsfors","properties":{"shapeName":"Robertsfors","shapeISO":"","shapeGroup":"SWE","shapeType":"ADM2","adm1ISO":"SE-AC","parentISO":"SE-AC","parentID":"SWE:ADM1:SE-AC","src_shape_id":"70781695B17714148738486"},"geometry":{"type":"Polygon","coordinates":[[[20.260935,64.333291],[20.276503,64.320125],[20.299433,64.296151],[20.327757,64.272155],[20.379012,64.216476],[20.407336,64.18184],[20.453196,64.143042],[20.50445,64.11067],[20.555704,64.082976],[20.585378,64.055845],[20.6164,64.026325],[20.642028,64.00446],[20.658213,63.990268],[20.648772,63.97311],[20.635284,63.954757],[20.623144,63.923944],[20.615052,63.906152],[20.621796,63.901405],[20.663608,63.897845],[20.690584,63.893097],[20.710816,63.88538],[20.738648,63.880129],[20.745661,63.883918],[20.766236,63.898406],[20.789555,63.91168],[20.795042,63.926153],[20.823848,63.940017],[20.838937,63.953873],[20.851282,63.968927],[20.878716,63.982769],[20.893805,63.996965],[20.902584,64.009664],[20.909607,64.03389],[20.917508,64.04734],[20.925409,64.065391],[20.939455,64.078825],[20.956135,64.088801],[20.97062,64.117223],[20.996683,64.128597],[21.011771,64.154921],[21.044692,64.18122],[21.06664,64.191971],[21.098189,64.201524],[21.159915,64.228375],[21.20381,64.249241],[21.26005,64.274259],[21.267935,64.276899],[21.222517,64.280278],[21.188797,64.292165],[21.174045,64.315924],[21.165615,64.336925],[21.15297,64.356997],[21.134002,64.368851],[21.112927,64.372497],[21.081315,64.362469],[21.064455,64.360645],[21.030735,64.361557],[21.015982,64.367939],[21.00966,64.377966],[20.990692,64.394365],[20.956972,64.412575],[20.921145,64.432593],[20.904285,64.444414],[20.872672,64.452595],[20.83263,64.457139],[20.775727,64.443505],[20.7399,64.43714],[20.729362,64.420766],[20.701965,64.409845],[20.678782,64.406203],[20.653492,64.393455],[20.653492,64.360645],[20.640847,64.357909],[20.617665,64.356085],[20.575515,64.34605],[20.548117,64.33875],[20.539687,64.32597],[20.52915,64.321404],[20.497537,64.322317],[20.482785,64.329622],[20.440635,64.331448],[20.409022,64.333273],[20.366872,64.33875],[20.337368,64.3424],[20.288895,64.336925],[20.260935,64.333291]]]}},
{"type":"Feature","id":"SWE:ADM2:SE-AC.bjurholm","properties":{"shapeName":"Bjurholm","shapeISO":"","shapeGroup":"SWE","shapeType":"ADM2","adm1ISO":"SE-AC","parentISO":"SE-AC","parentID":"SWE:ADM1:SE-AC","src_shape_id":"70781695B45286900623809"},"geometry":{"type":"Polygon","coordinates":[[[18.397628,64.009762],[18.432611,63.999897],[18.459233,63.987326],[18.47152,63.970256],[18.451042,63.954975],[18.430563,63.946881],[18.410085,63.937886],[18.401894,63.920786],[18.420324,63.907279],[18.440803,63.900072],[18.459233,63.891963],[18.469472,63.881146],[18.469472,63.864914],[18.481759,63.854088],[18.512477,63.85138],[18.541147,63.848673],[18.578008,63.838743],[18.618965,63.83784],[18.670161,63.83784],[18.688591,63.825196],[18.747979,63.819775],[18.764372,63.813024],[18.800916,63.819997],[18.813055,63.829517],[18.811707,63.839628],[18.821148,63.856273],[18.844078,63.858651],[18.861612,63.869939],[18.900727,63.871127],[18.925006,63.868157],[18.941191,63.860433],[18.949284,63.845574],[18.961423,63.834275],[18.983004,63.831896],[18.993795,63.839033],[19.016724,63.847952],[19.038305,63.849735],[19.059886,63.844979],[19.080118,63.83368],[19.108443,63.83368],[19.132721,63.838438],[19.150255,63.838438],[19.182627,63.834275],[19.194766,63.821782],[19.236579,63.809283],[19.260857,63.811665],[19.278391,63.819997],[19.289182,63.822972],[19.309414,63.830111],[19.326948,63.836654],[19.343134,63.844979],[19.366063,63.840222],[19.402481,63.831896],[19.421364,63.836654],[19.436201,63.859839],[19.456433,63.880036],[19.484864,63.891623],[19.49285,63.894877],[19.488804,63.912084],[19.483409,63.925129],[19.476665,63.953572],[19.464526,63.984353],[19.449689,64.003869],[19.429457,64.019236],[19.40383,64.04168],[19.382935,64.048146],[19.351226,64.057026],[19.316158,64.080029],[19.289182,64.09005],[19.262206,64.095943],[19.244671,64.103013],[19.23523,64.108314],[19.220393,64.112437],[19.206905,64.12068],[19.177231,64.130687],[19.137148,64.13839],[19.121373,64.145771],[19.12134,64.145506],[19.066545,64.146425],[19.051793,64.151938],[19.034933,64.138152],[19.024395,64.128038],[19.013858,64.11884],[18.969601,64.1124],[18.927451,64.105038],[18.849473,64.091228],[18.762837,64.079299],[18.672978,64.060053],[18.559988,64.043844],[18.452555,64.02438],[18.397628,64.009762]]]}},
{"type":"Feature","id":"SWE:ADM2:SE-AC.vannas","properties":{"shapeName":"Vännäs","shapeISO":"","shapeGroup":"SWE","shapeType":"ADM2","adm1ISO":"SE-AC","parentISO":"SE-AC","parentID":"SWE:ADM1:SE-AC","src_shape_id":"70781695B10556345050301"},"geometry":{"type":"Polygon","coordinates":[[[19.484864,63.891623],[19.494368,63.886975],[19.504905,63.873986],[19.523873,63.857276],[19.561808,63.844273],[19.578668,63.831264],[19.629248,63.823828],[19.67772,63.821038],[19.717763,63.814529],[19.736211,63.813789],[19.740945,63.813599],[19.766235,63.821038],[19.789418,63.83684],[19.797848,63.845202],[19.844213,63.859133],[19.901115,63.873986],[19.936943,63.882337],[19.958018,63.89625],[19.90533,63.901813],[19.867395,63.905521],[19.842105,63.933317],[19.850535,63.945353],[19.907438,63.964786],[19.932728,63.974959],[19.903223,63.993447],[19.884255,64.00361],[19.890578,64.019309],[19.926405,64.032232],[19.928513,64.067276],[19.926405,64.086624],[19.8969,64.097674],[19.861073,64.097674],[19.82946,64.104117],[19.8126,64.108719],[19.779835,64.108719],[19.77888,64.108719],[19.768343,64.086624],[19.73673,64.070962],[19.700903,64.068198],[19.66086,64.068198],[19.646108,64.07557],[19.62714,64.077412],[19.59342,64.061746],[19.572345,64.046993],[19.55127,64.039613],[19.51755,64.047915],[19.471185,64.057136],[19.431143,64.05898],[19.384778,64.048837],[19.382935,64.048146],[19.40383,64.04168],[19.429457,64.019236],[19.449689,64.003869],[19.464526,63.984353],[19.476665,63.953572],[19.483409,63.925129],[19.488804,63.912084],[19.49285,63.894877],[19.484864,63.891623]]]}},
{"type":"Feature","id":"SWE:ADM2:SE-AC.nordmaling","properties":{"shapeName":"Nordmaling","shapeISO":"","shapeGroup":"SWE","shapeType":"ADM2","adm1ISO":"SE-AC","parentISO":"SE-AC","parentID":"SWE:ADM1:SE-AC","src_shape_id":"70781695B22798016989349"},"geometry":{"type":"Polygon","coordinates":[[[18.764372,63.813024],[18.778696,63.807124],[18.78484,63.79537],[18.825797,63.790849],[18.893375,63.797179],[18.924093,63.78904],[18.942523,63.766419],[18.95481,63.742873],[18.995767,63.730187],[19.020341,63.713868],[19.044915,63.693909],[19.077681,63.671211],[19.118638,63.649405],[19.14526,63.620303],[19.188264,63.564745],[19.204647,63.539207],[19.227173,63.52643],[19.249699,63.504512],[19.273812,63.478274],[19.301256,63.466025],[19.324575,63.462961],[19.352009,63.455606],[19.373956,63.45254],[19.387673,63.443956],[19.410992,63.437823],[19.428824,63.427394],[19.453515,63.40898],[19.474091,63.406523],[19.493294,63.413891],[19.50564,63.426166],[19.519357,63.444569],[19.497409,63.459283],[19.480949,63.470927],[19.468604,63.486239],[19.443913,63.522957],[19.443913,63.549852],[19.4494,63.560237],[19.471347,63.561459],[19.509755,63.552907],[19.527587,63.543131],[19.549534,63.533351],[19.563251,63.526626],[19.589314,63.497259],[19.601659,63.485015],[19.614004,63.470314],[19.62635,63.461735],[19.635952,63.453154],[19.653784,63.448249],[19.674359,63.443956],[19.694935,63.455606],[19.704537,63.463574],[19.729228,63.468476],[19.745688,63.47644],[19.74706,63.492974],[19.74706,63.509499],[19.731971,63.525403],[19.727856,63.540075],[19.743449,63.54851],[19.724844,63.55514],[19.708658,63.573154],[19.70731,63.588157],[19.708658,63.596556],[19.720798,63.605551],[19.72889,63.623534],[19.720798,63.63312],[19.705961,63.646295],[19.705961,63.658866],[19.722146,63.671432],[19.735634,63.689372],[19.745076,63.731787],[19.746425,63.745514],[19.739681,63.760426],[19.7181,63.775331],[19.705961,63.792014],[19.710007,63.801543],[19.731588,63.808688],[19.736211,63.813789],[19.717763,63.814529],[19.67772,63.821038],[19.629248,63.823828],[19.578668,63.831264],[19.561808,63.844273],[19.523873,63.857276],[19.504905,63.873986],[19.494368,63.886975],[19.484864,63.891623],[19.456433,63.880036],[19.436201,63.859839],[19.421364,63.836654],[19.402481,63.831896],[19.366063,63.840222],[19.343134,63.844979],[19.326948,63.836654],[19.309414,63.830111],[19.289182,63.822972],[19.278391,63.819997],[19.260857,63.811665],[19.236579,63.809283],[19.194766,63.821782],[19.182627,63.834275],[19.150255,63.838438],[19.132721,63.838438],[19.108443,63.83368],[19.080118,63.83368],[19.059886,63.844979],[19.038305,63.849735],[19.016724,63.847952],[18.993795,63.839033],[18.983004,63.831896],[18.961423,63.834275],[18.949284,63.845574],[18.941191,63.860433],[18.925006,63.868157],[18.900727,63.871127],[18.861612,63.869939],[18.844078,63.858651],[18.821148,63.856273],[18.811707,63.839628],[18.813055,63.829517],[18.800916,63.819997],[18.764372,63.813024]]]}},
{"type":"Feature","id":"SWE:ADM2:SE-AC.umea","properties":{"shapeName":"Umeå","shapeISO":"","shapeGroup":"SWE","shapeType":"ADM2","adm1ISO":"SE-AC","parentISO":"SE-AC","parentID":"SWE:ADM1:SE-AC","src_shape_id":"70781695B42306672423643"},"geometry":{"type":"MultiPolygon","coordinates":[[[[20.847877,63.807903],[20.82605,63.786563],[20.82761,63.772786],[20.846318,63.757624],[20.861909,63.734865],[20.879059,63.70242],[20.902445,63.701039],[20.921154,63.723134],[20.933626,63.745902],[20.921154,63.773475],[20.896209,63.802397],[20.847877,63.807903]]],[[[20.092992,64.404561],[20.083625,64.399502],[20.082276,64.386094],[20.084973,64.37268],[20.08902,64.360426],[20.075532,64.35634],[20.041812,64.354589],[20.013487,64.343495],[20.002697,64.324801],[20.001348,64.300831],[20.013487,64.289715],[20.051253,64.285034],[20.067439,64.275083],[20.06609,64.257514],[20.051253,64.244623],[20.020231,64.214716],[20.009441,64.188888],[19.986511,64.172439],[19.974372,64.151277],[19.967628,64.138336],[19.939303,64.132452],[19.917722,64.137748],[19.906932,64.145984],[19.874561,64.152453],[19.834097,64.150689],[19.797679,64.144219],[19.772052,64.127744],[19.779835,64.108719],[19.8126,64.108719],[19.82946,64.104117],[19.861073,64.097674],[19.8969,64.097674],[19.926405,64.086624],[19.928513,64.067276],[19.926405,64.032232],[19.890578,64.019309],[19.884255,64.00361],[19.903223,63.993447],[19.932728,63.974959],[19.907438,63.964786],[19.850535,63.945353],[19.842105,63.933317],[19.867395,63.905521],[19.90533,63.901813],[19.958018,63.89625],[19.936943,63.882337],[19.901115,63.873986],[19.844213,63.859133],[19.797848,63.845202],[19.789418,63.83684],[19.766235,63.821038],[19.740945,63.813599],[19.736211,63.813789],[19.731588,63.808688],[19.710007,63.801543],[19.705961,63.792014],[19.7181,63.775331],[19.739681,63.760426],[19.746425,63.745514],[19.745076,63.731787],[19.735634,63.689372],[19.722146,63.671432],[19.705961,63.658866],[19.705961,63.646295],[19.720798,63.63312],[19.72889,63.623534],[19.720798,63.605551],[19.708658,63.596556],[19.70731,63.588157],[19.708658,63.573154],[19.724844,63.55514],[19.743449,63.54851],[19.74706,63.550463],[19.796441,63.559016],[19.845822,63.576113],[19.915779,63.608447],[19.969276,63.638307],[20.036489,63.654139],[20.087242,63.665703],[20.154456,63.671787],[20.210696,63.665703],[20.266936,63.665703],[20.313574,63.663269],[20.361583,63.671179],[20.402735,63.690641],[20.410965,63.711911],[20.434284,63.758651],[20.454859,63.791383],[20.500126,63.801074],[20.530303,63.791989],[20.537162,63.777446],[20.539905,63.76229],[20.546764,63.750158],[20.575569,63.755618],[20.59203,63.776234],[20.60026,63.78896],[20.619464,63.793806],[20.651013,63.799257],[20.667474,63.810762],[20.675704,63.825893],[20.675704,63.841015],[20.689421,63.859755],[20.715483,63.867611],[20.738648,63.880129],[20.710816,63.88538],[20.690584,63.893097],[20.663608,63.897845],[20.621796,63.901405],[20.615052,63.906152],[20.623144,63.923944],[20.635284,63.954757],[20.648772,63.97311],[20.658213,63.990268],[20.642028,64.00446],[20.6164,64.026325],[20.585378,64.055845],[20.555704,64.082976],[20.50445,64.11067],[20.453196,64.143042],[20.407336,64.18184],[20.379012,64.216476],[20.327757,64.272155],[20.299433,64.296151],[20.276503,64.320125],[20.260935,64.333291],[20.248178,64.344079],[20.206365,64.365678],[20.179389,64.379096],[20.140274,64.39309],[20.106554,64.398919],[20.092992,64.404561]]]]}},
{"type":"Feature","id":"SWE:ADM2:SE-AC.vindeln","properties":{"shapeName":"Vindeln","shapeISO":"","shapeGroup":"SWE","shapeType":"ADM2","adm1ISO":"SE-AC","parentISO":"SE-AC","parentID":"SWE:ADM1:SE-AC","src_shape_id":"70781695B31589151940817"},"geometry":{"type":"Polygon","coordinates":[[[19.121373,64.145771],[19.137148,64.13839],[19.177231,64.130687],[19.206905,64.12068],[19.220393,64.112437],[19.23523,64.108314],[19.244671,64.103013],[19.262206,64.095943],[19.289182,64.09005],[19.316158,64.080029],[19.351226,64.057026],[19.382935,64.048146],[19.384778,64.048837],[19.431143,64.05898],[19.471185,64.057136],[19.51755,64.047915],[19.55127,64.039613],[19.572345,64.046993],[19.59342,64.061746],[19.62714,64.077412],[19.646108,64.07557],[19.66086,64.068198],[19.700903,64.068198],[19.73673,64.070962],[19.768343,64.086624],[19.77888,64.108719],[19.779835,64.108719],[19.772052,64.127744],[19.797679,64.144219],[19.834097,64.150689],[19.874561,64.152453],[19.906932,64.145984],[19.917722,64.137748],[19.939303,64.132452],[19.967628,64.138336],[19.974372,64.151277],[19.986511,64.172439],[20.009441,64.188888],[20.020231,64.214716],[20.051253,64.244623],[20.06609,64.257514],[20.067439,64.275083],[20.051253,64.285034],[20.013487,64.289715],[20.001348,64.300831],[20.002697,64.324801],[20.013487,64.343495],[20.041812,64.354589],[20.075532,64.35634],[20.08902,64.360426],[20.084973,64.37268],[20.082276,64.386094],[20.083625,64.399502],[20.092992,64.404561],[20.070137,64.414068],[20.064741,64.428627],[20.057997,64.44085],[20.047207,64.453068],[20.031021,64.46121],[20.006743,64.464117],[19.979767,64.46528],[19.950093,64.470512],[19.937954,64.475162],[19.928513,64.486784],[19.913676,64.499562],[19.888049,64.512334],[19.865119,64.521619],[19.824655,64.52568],[19.801726,64.530321],[19.792284,64.53728],[19.784191,64.547136],[19.776098,64.563362],[19.76261,64.579],[19.747774,64.591156],[19.734286,64.599836],[19.710007,64.607356],[19.681682,64.616608],[19.656055,64.630481],[19.620986,64.636838],[19.589964,64.642615],[19.554895,64.647235],[19.488804,64.651278],[19.467223,64.657052],[19.441596,64.670904],[19.409225,64.68475],[19.382249,64.704352],[19.366063,64.726243],[19.343134,64.749268],[19.338257,64.754562],[19.328297,64.765374],[19.298623,64.772848],[19.272759,64.78346],[19.254113,64.776046],[19.241468,64.749987],[19.20564,64.732901],[19.190888,64.706801],[19.169813,64.694192],[19.157168,64.664448],[19.110803,64.616608],[19.041255,64.546049],[18.992783,64.489834],[18.959063,64.440777],[18.967493,64.372497],[18.984353,64.32323],[19.00332,64.293079],[19.009643,64.254658],[19.03704,64.240923],[19.072868,64.233595],[19.125555,64.210682],[19.142415,64.19876],[19.125555,64.189585],[19.123448,64.162962],[19.121373,64.145771]]]}}
]}