{"type":"FeatureCollection","bbox":[17.261424,58.815814,19.083841,60.22212],"features":[
{"type":"Feature","id":"SWE:ADM2:SE-AB.norrtalje","properties":{"shapeName":"Norrtälje","shapeISO":"","shapeGroup":"SWE","shapeType":"ADM2","adm1ISO":"SE-AB","parentISO":"SE-AB","parentID":"SWE:ADM1:SE-AB","src_shape_id":"70781695B82449789410879"},"geometry":{"type":"MultiPolygon","coordinates":[[[[18.899618,59.656495],[18.851199,59.642903],[18.81085,59.629305],[18.77588,59.61162],[18.762431,59.599372],[18.765121,59.587118],[18.79471,59.585756],[18.829679,59.600733],[18.875409,59.621144],[18.904998,59.640184],[18.910378,59.64834],[18.899618,59.656495]]],[[[18.383747,60.06977],[18.380774,60.069207],[18.387363,60.058685],[18.411083,60.049475],[18.438757,60.042238],[18.462478,60.021173],[18.440075,59.998777],[18.421626,59.983618],[18.403177,59.975047],[18.379456,59.969771],[18.370231,59.958558],[18.392634,59.944041],[18.40713,59.932158],[18.405812,59.920932],[18.371549,59.895163],[18.34124,59.881941],[18.303023,59.87665],[18.262171,59.862759],[18.227908,59.851509],[18.168607,59.849524],[18.122491,59.834271],[18.127755,59.816412],[18.110623,59.803821],[18.072668,59.767743],[18.092174,59.768674],[18.09712,59.767952],[18.107994,59.768248],[18.126154,59.765611],[18.168345,59.755766],[18.171826,59.74612],[18.179405,59.732371],[18.215722,59.7097],[18.21697,59.709414],[18.221376,59.701743],[18.221247,59.691472],[18.235158,59.6914],[18.242507,59.695892],[18.255406,59.696661],[18.274447,59.695374],[18.294119,59.692382],[18.312558,59.700753],[18.325235,59.704899],[18.340291,59.713823],[18.355172,59.717867],[18.360566,59.711052],[18.390801,59.717617],[18.395952,59.713902],[18.400636,59.704894],[18.407291,59.694363],[18.427288,59.689345],[18.439206,59.678182],[18.429601,59.662167],[18.416227,59.643955],[18.428652,59.634681],[18.426561,59.626332],[18.430143,59.616548],[18.453173,59.609801],[18.45642,59.593678],[18.460757,59.577487],[18.461001,59.576574],[18.467588,59.572819],[18.474097,59.565558],[18.504298,59.571605],[18.511463,59.596105],[18.528812,59.60484],[18.57303,59.604075],[18.611645,59.601666],[18.641754,59.590687],[18.665689,59.593562],[18.677033,59.588214],[18.679318,59.587137],[18.699024,59.597846],[18.728421,59.616322],[18.747344,59.670693],[18.785923,59.693413],[18.818073,59.710714],[18.841649,59.717199],[18.893088,59.713956],[18.944527,59.711795],[19.006682,59.710714],[19.066694,59.724764],[19.081697,59.748527],[19.073124,59.76472],[19.034545,59.770116],[18.998109,59.771195],[18.942383,59.771195],[18.899518,59.770116],[18.805213,59.770116],[18.781637,59.774432],[18.773064,59.777669],[18.775207,59.788455],[18.80307,59.790612],[18.820216,59.802473],[18.833076,59.807862],[18.895231,59.804629],[18.935954,59.801395],[18.968103,59.807862],[18.987393,59.826181],[19.000252,59.831567],[19.034545,59.836952],[19.064551,59.841259],[19.083841,59.856331],[19.083841,59.883228],[19.070981,59.901505],[19.023828,59.918698],[18.989536,59.931586],[18.968103,59.939103],[18.944527,59.961641],[18.92738,59.979875],[18.890945,60.014171],[18.871655,60.040939],[18.865225,60.067687],[18.845936,60.082655],[18.833076,60.096549],[18.828789,60.121116],[18.8095,60.124319],[18.78378,60.113641],[18.779494,60.098686],[18.762347,60.091206],[18.749488,60.093343],[18.728055,60.115777],[18.704478,60.126454],[18.678759,60.142463],[18.618747,60.153132],[18.567308,60.157398],[18.537634,60.167499],[18.521779,60.161788],[18.49147,60.156542],[18.482245,60.146704],[18.480927,60.128331],[18.467749,60.107322],[18.446664,60.098782],[18.440075,60.082355],[18.41899,60.076439],[18.383747,60.06977]]],[[[18.738523,60.22212],[18.734717,60.208884],[18.738523,60.19186],[18.761361,60.176719],[18.776587,60.18429],[18.77278,60.206993],[18.761361,60.220229],[18.738523,60.22212]]]]}},
{"type":"Feature","id":"SWE:ADM2:SE-AB.nykvarn","properties":{"shapeName":"Nykvarn","shapeISO":"","shapeGroup":"SWE","shapeType":"ADM2","adm1ISO":"SE-AB","parentISO":"SE-AB","parentID":"SWE:ADM1:SE-AB","src_shape_id":"70781695B30902194250212"},"geometry":{"type":"Polygon","coordinates":[[[17.264477,59.200999],[17.264682,59.19953],[17.297263,59.182843],[17.309798,59.167851],[17.326546,59.147343],[17.324493,59.125078],[17.331452,59.124397],[17.389592,59.118214],[17.394691,59.117755],[17.424423,59.114005],[17.456293,59.1149],[17.475992,59.115026],[17.482165,59.116689],[17.485498,59.127136],[17.486429,59.140717],[17.489898,59.155765],[17.523484,59.166576],[17.539193,59.171382],[17.540428,59.176907],[17.535842,59.182917],[17.53361,59.189246],[17.539904,59.193817],[17.549271,59.201962],[17.534676,59.22254],[17.524901,59.235723],[17.513015,59.245024],[17.505999,59.243184],[17.483804,59.238434],[17.455994,59.244489],[17.429113,59.25005],[17.338127,59.254858],[17.313249,59.249513],[17.290873,59.261332],[17.270914,59.261787],[17.26794,59.259537],[17.261424,59.222879],[17.264477,59.200999]]]}},
{"type":"Feature","id":"SWE:ADM2:SE-AB.sodertalje","properties":{"shapeName":"Södertälje","shapeISO":"","shapeGroup":"SWE","shapeType":"ADM2","adm1ISO":"SE-AB","parentISO":"SE-AB","parentID":"SWE:ADM1:SE-AB","src_shape_id":"70781695B28053547140840"},"geometry":{"type":"Polygon","coordinates":[[[17.331452,59.124397],[17.323328,59.102527],[17.323328,59.075852],[17.352651,59.044025],[17.401522,59.002102],[17.405711,59.002254],[17.438404,59.003444],[17.457171,59.009887],[17.507215,59.009887],[17.534323,58.999148],[17.553089,58.990556],[17.563515,58.973363],[17.588537,58.965839],[17.610283,58.964237],[17.611401,58.982986],[17.621159,58.994212],[17.615568,59.022322],[17.618119,59.046383],[17.633948,59.060766],[17.634434,59.068378],[17.62099,59.076164],[17.621936,59.082286],[17.628722,59.087952],[17.636973,59.090643],[17.646121,59.094176],[17.654166,59.096686],[17.649352,59.103721],[17.654493,59.106051],[17.654847,59.109141],[17.659692,59.107939],[17.66979,59.107658],[17.677682,59.109693],[17.68203,59.113704],[17.679462,59.129529],[17.67694,59.137701],[17.671309,59.146945],[17.664631,59.152216],[17.658091,59.156042],[17.656454,59.163115],[17.664834,59.168814],[17.670347,59.166957],[17.676365,59.160487],[17.681999,59.151167],[17.692783,59.139817],[17.701648,59.143708],[17.722218,59.152224],[17.732274,59.157223],[17.730338,59.176884],[17.718614,59.179396],[17.710288,59.18229],[17.710952,59.194513],[17.702784,59.20401],[17.68611,59.216049],[17.679051,59.224906],[17.670251,59.225902],[17.66276,59.223401],[17.651309,59.223998],[17.646208,59.22625],[17.642941,59.230623],[17.643674,59.237297],[17.661114,59.239141],[17.661897,59.244894],[17.656487,59.251089],[17.649648,59.256732],[17.642858,59.255206],[17.628226,59.253529],[17.61061,59.25387],[17.612024,59.245312],[17.616921,59.234737],[17.621259,59.223984],[17.630081,59.214859],[17.625597,59.207805],[17.616504,59.208049],[17.608961,59.214018],[17.596131,59.226376],[17.586958,59.240033],[17.580787,59.251207],[17.562189,59.265833],[17.53783,59.26839],[17.517641,59.275164],[17.437803,59.303836],[17.418036,59.308303],[17.390507,59.317241],[17.363961,59.32333],[17.377934,59.290033],[17.379099,59.276088],[17.40393,59.257928],[17.426049,59.250683],[17.429113,59.25005],[17.455994,59.244489],[17.483804,59.238434],[17.505999,59.243184],[17.513015,59.245024],[17.524901,59.235723],[17.534676,59.22254],[17.549271,59.201962],[17.539904,59.193817],[17.53361,59.189246],[17.535842,59.182917],[17.540428,59.176907],[17.539193,59.171382],[17.523484,59.166576],[17.489898,59.155765],[17.486429,59.140717],[17.485498,59.127136],[17.482165,59.116689],[17.475992,59.115026],[17.456293,59.1149],[17.424423,59.114005],[17.394691,59.117755],[17.389592,59.118214],[17.331452,59.124397]]]}},
{"type":"Feature","id":"SWE:ADM2:SE-AB.varmdo","properties":{"shapeName":"Värmdö","shapeISO":"","shapeGroup":"SWE","shapeType":"ADM2","adm1ISO":"SE-AB","parentISO":"SE-AB","parentID":"SWE:ADM1:SE-AB","src_shape_id":"70781695B62142289931887"},"geometry":{"type":"MultiPolygon","coordinates":[[[[18.344519,59.327373],[18.350934,59.326804],[18.361668,59.326652],[18.367035,59.324522],[18.361668,59.31798],[18.356003,59.317219],[18.351531,59.315241],[18.345567,59.314328],[18.3402,59.309611],[18.339604,59.30611],[18.342287,59.30398],[18.345567,59.298804],[18.34676,59.295302],[18.330659,59.286166],[18.334535,59.2851],[18.342884,59.280988],[18.347654,59.280379],[18.367334,59.279922],[18.375348,59.278819],[18.385844,59.271604],[18.388706,59.268289],[18.395195,59.263998],[18.399965,59.26273],[18.404354,59.260584],[18.41256,59.258048],[18.420575,59.245072],[18.431643,59.240387],[18.436605,59.239118],[18.44233,59.236581],[18.448818,59.235214],[18.45397,59.234921],[18.45855,59.233652],[18.467328,59.232481],[18.473053,59.227502],[18.475916,59.221839],[18.482022,59.217542],[18.485075,59.216468],[18.498433,59.214123],[18.50454,59.213733],[18.521905,59.210998],[18.526295,59.21217],[18.529157,59.214123],[18.533737,59.214612],[18.54595,59.220569],[18.551102,59.221448],[18.55988,59.224378],[18.560453,59.231212],[18.561407,59.23414],[18.581635,59.237069],[18.587932,59.239411],[18.593466,59.243608],[18.612549,59.246926],[18.620564,59.246633],[18.627625,59.248389],[18.628197,59.25239],[18.627052,59.253658],[18.630297,59.256097],[18.637477,59.259962],[18.639564,59.262705],[18.644931,59.264077],[18.658348,59.266058],[18.66461,59.268496],[18.671468,59.272],[18.681904,59.278703],[18.687569,59.281445],[18.701285,59.284948],[18.70218,59.289212],[18.69234,59.292105],[18.678326,59.291801],[18.663716,59.290735],[18.654472,59.286775],[18.644334,59.285862],[18.635687,59.283577],[18.624357,59.282816],[18.61899,59.281293],[18.613325,59.28114],[18.604678,59.279617],[18.598118,59.279922],[18.590664,59.278398],[18.585297,59.278703],[18.572177,59.277637],[18.56353,59.277789],[18.551305,59.277332],[18.534906,59.275809],[18.532222,59.271086],[18.534906,59.269258],[18.543254,59.265753],[18.545043,59.264077],[18.539676,59.25981],[18.535204,59.259962],[18.525662,59.262553],[18.518804,59.263924],[18.505685,59.268496],[18.491671,59.276875],[18.477657,59.281902],[18.467519,59.2851],[18.451716,59.287994],[18.445454,59.288451],[18.427266,59.286471],[18.420706,59.286319],[18.410867,59.290735],[18.409674,59.293323],[18.41355,59.300326],[18.419514,59.303523],[18.42339,59.306872],[18.431739,59.312502],[18.435018,59.315394],[18.43144,59.322544],[18.433826,59.324826],[18.442473,59.327108],[18.44456,59.329846],[18.443665,59.333344],[18.439789,59.335321],[18.432037,59.340643],[18.419215,59.3487],[18.390591,59.35554],[18.381646,59.354932],[18.376875,59.353868],[18.360004,59.354696],[18.358016,59.352814],[18.35755,59.344501],[18.352425,59.339274],[18.346368,59.330958],[18.344519,59.327373]]],[[[18.735631,59.347083],[18.742939,59.365708],[18.716142,59.373155],[18.669857,59.373155],[18.679602,59.355776],[18.684474,59.337146],[18.713706,59.332176],[18.735631,59.347083]]],[[[18.484273,59.413557],[18.477284,59.415216],[18.468898,59.415927],[18.462376,59.41569],[18.452592,59.413794],[18.446069,59.413557],[18.442771,59.415064],[18.434124,59.413092],[18.433826,59.411119],[18.436211,59.40945],[18.436807,59.406112],[18.443069,59.402318],[18.455592,59.398372],[18.455592,59.395487],[18.459767,59.392299],[18.460363,59.389415],[18.464537,59.381823],[18.464537,59.37514],[18.460959,59.372861],[18.457978,59.367544],[18.452909,59.361163],[18.451716,59.357364],[18.454996,59.351284],[18.459767,59.348852],[18.46245,59.345356],[18.463643,59.340035],[18.466028,59.335473],[18.462748,59.331823],[18.459767,59.323153],[18.456785,59.318589],[18.456189,59.313568],[18.452909,59.30885],[18.452014,59.302153],[18.454101,59.299108],[18.458574,59.296825],[18.470501,59.294693],[18.477955,59.294389],[18.482428,59.293475],[18.495249,59.287232],[18.503896,59.284491],[18.511052,59.281597],[18.521786,59.282968],[18.531626,59.284643],[18.559952,59.286319],[18.568599,59.286471],[18.572773,59.287385],[18.579333,59.287689],[18.592155,59.289212],[18.601994,59.291039],[18.60915,59.293475],[18.610939,59.29652],[18.61571,59.300174],[18.622866,59.310524],[18.623164,59.313263],[18.620481,59.321479],[18.614816,59.327412],[18.603783,59.332735],[18.590365,59.335169],[18.58142,59.337754],[18.572475,59.339578],[18.565915,59.340187],[18.554287,59.339883],[18.551305,59.338818],[18.54564,59.339122],[18.54236,59.345508],[18.551007,59.346572],[18.553392,59.347636],[18.569792,59.34718],[18.578439,59.348092],[18.58798,59.346724],[18.596031,59.34642],[18.606467,59.347788],[18.609448,59.3487],[18.611536,59.35174],[18.610641,59.356908],[18.607063,59.361619],[18.596925,59.364202],[18.592155,59.364506],[18.58798,59.363594],[18.576053,59.359643],[18.571879,59.360251],[18.570686,59.36253],[18.556076,59.367241],[18.546833,59.371646],[18.541764,59.373165],[18.534608,59.376507],[18.523873,59.380152],[18.516419,59.383189],[18.513437,59.383645],[18.510362,59.389842],[18.506169,59.40099],[18.50384,59.404547],[18.498715,59.409763],[18.492659,59.412608],[18.484273,59.413557]]]]}},
{"type":"Feature","id":"SWE:ADM2:SE-AB.nynashamn","properties":{"shapeName":"Nynäshamn","shapeISO":"","shapeGroup":"SWE","shapeType":"ADM2","adm1ISO":"SE-AB","parentISO":"SE-AB","parentID":"SWE:ADM1:SE-AB","src_shape_id":"70781695B48387323711272"},"geometry":{"type":"Polygon","coordinates":[[[17.923282,59.123788],[17.90327,59.119358],[17.896904,59.113885],[17.896166,59.106738],[17.899823,59.104043],[17.880511,59.090186],[17.86445,59.087968],[17.847403,59.089776],[17.82705,59.093755],[17.808489,59.097003],[17.789386,59.094568],[17.777275,59.093657],[17.764019,59.088673],[17.757695,59.07758],[17.759666,59.065604],[17.745436,59.054443],[17.736628,59.040474],[17.737869,59.030501],[17.747765,59.013686],[17.75281,59.002378],[17.756441,58.990339],[17.753121,58.95655],[17.765718,58.921083],[17.780721,58.907803],[17.797867,58.89009],[17.802154,58.87569],[17.82573,58.8502],[17.83216,58.833566],[17.83859,58.815814],[17.853593,58.816924],[17.868596,58.825801],[17.892172,58.842439],[17.900745,58.86461],[17.915748,58.886767],[17.941468,58.904483],[17.945754,58.929933],[17.947898,58.96089],[17.969331,58.980777],[17.98219,58.998444],[17.987757,59.003305],[17.992503,58.99759],[17.994084,58.98975],[18.005335,58.989298],[18.011809,58.995672],[18.001601,59.027166],[18.002456,59.036731],[18.000432,59.040609],[17.996086,59.04325],[17.975106,59.046804],[17.95951,59.055348],[17.958177,59.071136],[17.976337,59.084559],[17.982956,59.099017],[17.974753,59.101172],[17.974878,59.106591],[17.967646,59.115953],[17.953511,59.116953],[17.938694,59.114182],[17.923282,59.123788]]]}},
{"type":"Feature","id":"SWE:ADM2:SE-AB.haninge","properties":{"shapeName":"Haninge","shapeISO":"","shapeGroup":"SWE","shapeType":"ADM2","adm1ISO":"SE-AB","parentISO":"SE-AB","parentID":"SWE:ADM1:SE-AB","src_shape_id":"70781695B75191882374760"},"geometry":{"type":"MultiPolygon","coordinates":[[[[18.22444,58.911835],[18.264789,58.922945],[18.299759,58.936827],[18.334728,58.947929],[18.334728,58.964575],[18.315898,58.971509],[18.245959,58.960415],[18.20561,58.947929],[18.165261,58.934051],[18.151811,58.911835],[18.18947,58.907667],[18.22444,58.911835]]],[[[18.213416,59.022904],[18.20915,59.024368],[18.197776,59.024807],[18.190952,59.025685],[18.184696,59.027148],[18.17389,59.028172],[18.166781,59.02788],[18.157682,59.026416],[18.142895,59.021587],[18.106782,59.021879],[18.099104,59.020562],[18.091995,59.017342],[18.089151,59.013682],[18.086592,59.012511],[18.08517,59.010022],[18.088014,59.007387],[18.089151,59.000943],[18.086876,58.995817],[18.078914,58.99113],[18.068109,58.986735],[18.063559,58.984244],[18.057303,58.975598],[18.057303,58.968709],[18.062706,58.967829],[18.072659,58.968416],[18.080052,58.971787],[18.086876,58.975744],[18.095123,58.976917],[18.104222,58.975598],[18.110478,58.972813],[18.124696,58.971787],[18.137208,58.973399],[18.14716,58.974132],[18.149151,58.976038],[18.150004,58.979701],[18.146876,58.982632],[18.143748,58.989958],[18.148582,58.994499],[18.154269,58.99611],[18.161378,58.993913],[18.167634,58.993913],[18.169909,58.99611],[18.171046,59.004604],[18.176449,59.01134],[18.179577,59.013097],[18.190952,59.015],[18.206023,59.016024],[18.209435,59.017635],[18.213416,59.022904]]],[[[18.437206,59.047191],[18.443177,59.050701],[18.451992,59.054503],[18.458817,59.058889],[18.460239,59.061375],[18.461376,59.073799],[18.480428,59.081982],[18.486968,59.086219],[18.490665,59.092354],[18.490949,59.096881],[18.488106,59.099364],[18.477016,59.111045],[18.47147,59.114756],[18.461056,59.109054],[18.445089,59.100855],[18.433981,59.092298],[18.422179,59.086235],[18.420791,59.083738],[18.4076,59.082668],[18.386773,59.076961],[18.374971,59.074106],[18.377206,59.071607],[18.381187,59.070437],[18.382893,59.068391],[18.38005,59.063714],[18.369244,59.058012],[18.360429,59.052748],[18.354457,59.048653],[18.358154,59.045728],[18.358438,59.042364],[18.363557,59.041925],[18.366116,59.043681],[18.370666,59.044266],[18.372941,59.039877],[18.37095,59.03739],[18.358723,59.031538],[18.353604,59.027733],[18.352467,59.024807],[18.354173,59.022611],[18.354457,59.018367],[18.357585,59.014853],[18.362135,59.012804],[18.376922,59.008704],[18.38204,59.008704],[18.387727,59.009583],[18.394836,59.011633],[18.398817,59.012072],[18.405357,59.00519],[18.409907,59.003872],[18.418438,59.003286],[18.422703,59.004751],[18.426969,59.008119],[18.43095,59.009876],[18.430381,59.013097],[18.432087,59.025099],[18.433509,59.037976],[18.437206,59.047191]]],[[[18.002456,59.036731],[18.016356,59.034172],[18.018346,59.031684],[18.018915,59.028172],[18.023749,59.025392],[18.028867,59.023928],[18.034555,59.024221],[18.037967,59.028465],[18.040526,59.039585],[18.043085,59.043242],[18.046498,59.045582],[18.059009,59.049385],[18.077208,59.050408],[18.086308,59.050554],[18.096545,59.052748],[18.101947,59.056111],[18.108203,59.064883],[18.113037,59.069122],[18.11645,59.07073],[18.139483,59.073945],[18.143748,59.075114],[18.147445,59.078037],[18.18498,59.085488],[18.195786,59.087972],[18.210572,59.0925],[18.217112,59.097465],[18.217397,59.100532],[18.211141,59.103453],[18.210004,59.106665],[18.216544,59.111774],[18.226781,59.115424],[18.233605,59.116445],[18.240714,59.116737],[18.250098,59.117759],[18.253795,59.116883],[18.262041,59.112358],[18.263463,59.108417],[18.256354,59.105935],[18.254932,59.103745],[18.24498,59.103161],[18.229624,59.097904],[18.227349,59.09396],[18.232752,59.088848],[18.233321,59.085926],[18.230477,59.083443],[18.223653,59.08242],[18.221662,59.080667],[18.215406,59.079352],[18.205738,59.074676],[18.204032,59.071607],[18.204601,59.068391],[18.20716,59.067222],[18.208582,59.063714],[18.214269,59.062836],[18.217681,59.064883],[18.225359,59.067514],[18.235027,59.073653],[18.244411,59.076575],[18.261757,59.080375],[18.270572,59.081836],[18.293107,59.085022],[18.305992,59.087077],[18.313101,59.089359],[18.321099,59.093011],[18.325542,59.095749],[18.321543,59.100541],[18.315323,59.101226],[18.291774,59.102138],[18.289108,59.101226],[18.281111,59.100998],[18.277112,59.10191],[18.279778,59.106473],[18.291774,59.114913],[18.311768,59.119246],[18.315323,59.12107],[18.331318,59.124263],[18.340204,59.125175],[18.346869,59.123351],[18.356643,59.123122],[18.365974,59.127455],[18.375749,59.132926],[18.378859,59.135205],[18.385079,59.135889],[18.390411,59.134521],[18.396631,59.129506],[18.410849,59.130418],[18.413959,59.13247],[18.421513,59.134066],[18.42951,59.137029],[18.434842,59.143182],[18.445061,59.153663],[18.44906,59.158903],[18.449948,59.16323],[18.442575,59.165634],[18.434655,59.164619],[18.427201,59.162589],[18.41963,59.161515],[18.409264,59.161694],[18.405537,59.163007],[18.393773,59.165574],[18.378748,59.168022],[18.377081,59.166858],[18.369619,59.165365],[18.36052,59.162007],[18.355606,59.160794],[18.350511,59.160701],[18.335223,59.163127],[18.322484,59.169283],[18.320118,59.17264],[18.311565,59.177396],[18.307015,59.178702],[18.297188,59.185042],[18.291182,59.192592],[18.266432,59.203869],[18.25169,59.21039],[18.242773,59.214023],[18.232218,59.216724],[18.223846,59.217376],[18.217476,59.216072],[18.207831,59.215234],[18.202371,59.21393],[18.185446,59.210856],[18.178488,59.209035],[18.159604,59.203775],[18.127938,59.193897],[18.120658,59.192686],[18.110467,59.188491],[18.102277,59.18672],[18.098092,59.182618],[18.099795,59.177512],[18.106667,59.171126],[18.106434,59.169455],[18.092341,59.161694],[18.094204,59.156977],[18.087915,59.152916],[18.082441,59.151363],[18.067532,59.150945],[18.055535,59.149392],[18.043539,59.145211],[18.03655,59.143598],[18.0263,59.145032],[18.018613,59.14539],[18.012906,59.146525],[18.003122,59.151243],[17.999628,59.153573],[17.990893,59.155304],[17.987631,59.156797],[17.980828,59.157388],[17.977964,59.157275],[17.969229,59.15411],[17.966433,59.152378],[17.961076,59.151721],[17.953505,59.147839],[17.950477,59.1476],[17.944071,59.144255],[17.937665,59.142762],[17.933471,59.14079],[17.921358,59.137086],[17.918446,59.135413],[17.923282,59.123788],[17.938694,59.114182],[17.953511,59.116953],[17.967646,59.115953],[17.974878,59.106591],[17.974753,59.101172],[17.982956,59.099017],[17.976337,59.084559],[17.958177,59.071136],[17.95951,59.055348],[17.975106,59.046804],[17.996086,59.04325],[18.000432,59.040609],[18.002456,59.036731]]]]}},
{"type":"Feature","id":"SWE:ADM2:SE-AB.tyreso","properties":{"shapeName":"Tyresö","shapeISO":"","shapeGroup":"SWE","shapeType":"ADM2","adm1ISO":"SE-AB","parentISO":"SE-AB","parentID":"SWE:ADM1:SE-AB","src_shape_id":"70781695B80728861937235"},"geometry":{"type":"Polygon","coordinates":[[[18.378748,59.168022],[18.369619,59.176091],[18.373441,59.182804],[18.376717,59.187279],[18.385452,59.188678],[18.395462,59.19194],[18.400558,59.194643],[18.405107,59.197998],[18.402741,59.201819],[18.397464,59.205918],[18.39346,59.211415],[18.387272,59.216166],[18.380539,59.216631],[18.361612,59.220636],[18.355242,59.222592],[18.349783,59.229017],[18.346325,59.230972],[18.337407,59.233579],[18.336679,59.236185],[18.329036,59.237395],[18.31757,59.242887],[18.302829,59.248005],[18.290272,59.253123],[18.280445,59.254798],[18.269921,59.255601],[18.257491,59.254681],[18.250951,59.253082],[18.244126,59.253518],[18.233321,59.256426],[18.22479,59.253955],[18.198629,59.247267],[18.192373,59.245958],[18.190257,59.2442],[18.192942,59.242177],[18.192658,59.236942],[18.185833,59.232869],[18.181568,59.231269],[18.168336,59.230685],[18.170762,59.225304],[18.173321,59.222248],[18.177871,59.21177],[18.178488,59.209035],[18.185446,59.210856],[18.202371,59.21393],[18.207831,59.215234],[18.217476,59.216072],[18.223846,59.217376],[18.232218,59.216724],[18.242773,59.214023],[18.25169,59.21039],[18.266432,59.203869],[18.291182,59.192592],[18.297188,59.185042],[18.307015,59.178702],[18.311565,59.177396],[18.320118,59.17264],[18.322484,59.169283],[18.335223,59.163127],[18.350511,59.160701],[18.355606,59.160794],[18.36052,59.162007],[18.369619,59.165365],[18.377081,59.166858],[18.378748,59.168022]]]}},
{"type":"Feature","id":"SWE:ADM2:SE-AB.nacka","properties":{"shapeName":"Nacka","shapeISO":"","shapeGroup":"SWE","shapeType":"ADM2","adm1ISO":"SE-AB","parentISO":"SE-AB","parentID":"SWE:ADM1:SE-AB","src_shape_id":"70781695B29923564052107"},"geometry":{"type":"MultiPolygon","coordinates":[[[[18.269921,59.255601],[18.265886,59.2561],[18.257878,59.259635],[18.254238,59.262798],[18.256058,59.265867],[18.270799,59.265774],[18.283538,59.264751],[18.306833,59.261031],[18.321574,59.259077],[18.32667,59.257496],[18.329946,59.257403],[18.339409,59.259542],[18.341593,59.261868],[18.338317,59.264379],[18.336315,59.267541],[18.324304,59.270145],[18.315933,59.271261],[18.302101,59.272377],[18.298462,59.273958],[18.290818,59.28372],[18.290454,59.286601],[18.286086,59.290412],[18.281901,59.291063],[18.271527,59.293851],[18.265158,59.29255],[18.242773,59.293014],[18.223846,59.292085],[18.211835,59.292643],[18.208741,59.296638],[18.204009,59.299333],[18.206375,59.302399],[18.206557,59.308995],[18.204191,59.311689],[18.202917,59.316982],[18.202917,59.326546],[18.202189,59.328125],[18.192726,59.328217],[18.18945,59.327011],[18.181261,59.325432],[18.179077,59.323482],[18.167975,59.321811],[18.159968,59.319397],[18.156146,59.319025],[18.141041,59.314754],[18.128666,59.314103],[18.12448,59.312896],[18.115199,59.312339],[18.107191,59.314011],[18.100176,59.314475],[18.099058,59.304148],[18.101256,59.302901],[18.112614,59.301156],[18.117133,59.299535],[18.118232,59.284629],[18.122629,59.282882],[18.135941,59.275769],[18.145834,59.269966],[18.149254,59.266096],[18.155727,59.261353],[18.158658,59.257357],[18.165619,59.253861],[18.171115,59.249802],[18.175145,59.24924],[18.190257,59.2442],[18.192373,59.245958],[18.198629,59.247267],[18.22479,59.253955],[18.233321,59.256426],[18.244126,59.253518],[18.250951,59.253082],[18.257491,59.254681],[18.269921,59.255601]]],[[[18.360004,59.354696],[18.35332,59.355084],[18.342287,59.35706],[18.335429,59.356148],[18.32559,59.355692],[18.311874,59.356452],[18.307103,59.35782],[18.300841,59.358276],[18.289338,59.35735],[18.26882,59.357225],[18.265522,59.356478],[18.261614,59.351934],[18.249645,59.348447],[18.248424,59.347015],[18.243294,59.345458],[18.231814,59.342843],[18.226318,59.341161],[18.223021,59.336864],[18.222124,59.324066],[18.220633,59.313263],[18.222422,59.305806],[18.228088,59.301696],[18.233157,59.302153],[18.238822,59.300783],[18.250152,59.300326],[18.258203,59.298956],[18.276988,59.304132],[18.281759,59.304893],[18.28474,59.306719],[18.291896,59.309611],[18.295773,59.313111],[18.298456,59.318284],[18.302332,59.331215],[18.304718,59.332279],[18.312172,59.332431],[18.329168,59.33015],[18.339306,59.327412],[18.344519,59.327373],[18.346368,59.330958],[18.352425,59.339274],[18.35755,59.344501],[18.358016,59.352814],[18.360004,59.354696]]]]}},
{"type":"Feature","id":"SWE:ADM2:SE-AB.stockholm","properties":{"shapeName":"Stockholm","shapeISO":"","shapeGroup":"SWE","shapeType":"ADM2","adm1ISO":"SE-AB","parentISO":"SE-AB","parentID":"SWE:ADM1:SE-AB","src_shape_id":"70781695B5805413017960"},"geometry":{"type":"MultiPolygon","coordinates":[[[[18.190257,59.2442],[18.175145,59.24924],[18.171115,59.249802],[18.165619,59.253861],[18.158658,59.257357],[18.155727,59.261353],[18.149254,59.266096],[18.145834,59.269966],[18.135941,59.275769],[18.122629,59.282882],[18.118232,59.284629],[18.117133,59.299535],[18.112614,59.301156],[18.101256,59.302901],[18.099058,59.304148],[18.100176,59.314475],[18.093724,59.315497],[18.077527,59.316982],[18.062786,59.320604],[18.051502,59.320604],[18.046771,59.31949],[18.036397,59.319118],[18.025478,59.31754],[18.009463,59.314568],[17.99272,59.315218],[17.987442,59.315032],[17.983984,59.313546],[17.98271,59.311503],[17.967787,59.309738],[17.954866,59.308809],[17.946495,59.307509],[17.943583,59.306301],[17.924838,59.30305],[17.913555,59.301377],[17.908277,59.298125],[17.906275,59.293386],[17.902999,59.292643],[17.894628,59.29255],[17.879887,59.290319],[17.873699,59.285486],[17.869149,59.276933],[17.873699,59.274237],[17.87704,59.271199],[17.895851,59.271257],[17.907964,59.277446],[17.924736,59.28173],[17.936849,59.281968],[17.943838,59.281016],[17.95036,59.276256],[17.959212,59.271972],[17.968064,59.264591],[17.97645,59.262924],[18.003472,59.259352],[18.013721,59.256733],[18.025369,59.252922],[18.032357,59.248873],[18.045868,59.246729],[18.055652,59.243631],[18.068697,59.240296],[18.078946,59.236721],[18.084158,59.234375],[18.098447,59.233563],[18.104554,59.234],[18.118965,59.239185],[18.129468,59.239185],[18.145712,59.238685],[18.151086,59.237873],[18.160734,59.234562],[18.168336,59.230685],[18.181568,59.231269],[18.185833,59.232869],[18.192658,59.236942],[18.192942,59.242177],[18.190257,59.2442]]],[[[18.062311,59.328876],[18.062155,59.322934],[18.063171,59.3211],[18.068642,59.322735],[18.072472,59.325646],[18.066298,59.329514],[18.062311,59.328876]]],[[[17.965842,59.35583],[17.963014,59.357364],[17.960628,59.360859],[17.95377,59.365873],[17.946614,59.367544],[17.941247,59.367544],[17.929022,59.369519],[17.925146,59.371039],[17.925444,59.37757],[17.926935,59.381215],[17.931408,59.382278],[17.944527,59.383341],[17.948105,59.384252],[17.954963,59.387593],[17.959137,59.390781],[17.967188,59.392148],[17.970804,59.393564],[17.970841,59.393578],[17.962716,59.402014],[17.958839,59.407022],[17.948105,59.408843],[17.932004,59.412333],[17.927531,59.414306],[17.921568,59.418553],[17.918288,59.42007],[17.91471,59.425531],[17.909343,59.430232],[17.905169,59.432204],[17.899205,59.433417],[17.892944,59.433568],[17.883998,59.43099],[17.881091,59.428336],[17.881315,59.426289],[17.883998,59.424317],[17.8837,59.416278],[17.88042,59.410057],[17.869388,59.400952],[17.867003,59.396854],[17.858952,59.394273],[17.845832,59.387137],[17.837186,59.383949],[17.833011,59.383493],[17.82675,59.385771],[17.826153,59.387441],[17.822277,59.390629],[17.821681,59.392755],[17.818699,59.395639],[17.813928,59.397461],[17.809456,59.397764],[17.797529,59.394425],[17.785767,59.388194],[17.793653,59.383493],[17.829433,59.364354],[17.853585,59.353108],[17.869984,59.3487],[17.877439,59.346268],[17.887875,59.341251],[17.89354,59.336233],[17.904572,59.329541],[17.910834,59.327868],[17.919481,59.327716],[17.928426,59.325891],[17.934986,59.32011],[17.941247,59.317524],[17.961225,59.317676],[17.968977,59.320262],[17.974344,59.324826],[17.976431,59.328477],[17.97673,59.331671],[17.979711,59.340947],[17.985078,59.344748],[17.989253,59.343075],[17.99462,59.339274],[18.001478,59.335625],[18.006547,59.332127],[18.018772,59.329237],[18.025928,59.328477],[18.047098,59.328477],[18.064988,59.330454],[18.083177,59.329998],[18.086158,59.33091],[18.101663,59.322849],[18.111503,59.319958],[18.12343,59.319197],[18.129989,59.320871],[18.133568,59.323305],[18.13476,59.32726],[18.133568,59.331519],[18.130884,59.334864],[18.12015,59.341859],[18.11031,59.34566],[18.10375,59.349156],[18.095103,59.352652],[18.085562,59.357972],[18.079897,59.363138],[18.072442,59.367393],[18.064392,59.371342],[18.057688,59.375413],[18.053965,59.376163],[18.049412,59.375486],[18.038916,59.371111],[18.036435,59.36907],[18.037389,59.358665],[18.031665,59.351953],[18.021551,59.351175],[18.017352,59.350202],[18.014872,59.348256],[18.005712,59.344365],[17.999987,59.343878],[17.986438,59.344754],[17.985377,59.345964],[17.969872,59.354324],[17.965842,59.35583]]]]}},
{"type":"Feature","id":"SWE:ADM2:SE-AB.huddinge","properties":{"shapeName":"Huddinge","shapeISO":"","shapeGroup":"SWE","shapeType":"ADM2","adm1ISO":"SE-AB","parentISO":"SE-AB","parentID":"SWE:ADM1:SE-AB","src_shape_id":"70781695B98440364310876"},"geometry":{"type":"Polygon","coordinates":[[[18.178488,59.209035],[18.177871,59.21177],[18.173321,59.222248],[18.170762,59.225304],[18.168336,59.230685],[18.160734,59.234562],[18.151086,59.237873],[18.145712,59.238685],[18.129468,59.239185],[18.118965,59.239185],[18.104554,59.234],[18.098447,59.233563],[18.084158,59.234375],[18.078946,59.236721],[18.068697,59.240296],[18.055652,59.243631],[18.045868,59.246729],[18.032357,59.248873],[18.025369,59.252922],[18.013721,59.256733],[18.003472,59.259352],[17.97645,59.262924],[17.968064,59.264591],[17.959212,59.271972],[17.95036,59.276256],[17.943838,59.281016],[17.936849,59.281968],[17.924736,59.28173],[17.907964,59.277446],[17.895851,59.271257],[17.87704,59.271199],[17.877564,59.266972],[17.876749,59.252684],[17.879733,59.243058],[17.900975,59.233623],[17.914952,59.23124],[17.920077,59.22981],[17.923338,59.226711],[17.924736,59.219321],[17.925668,59.207159],[17.931258,59.203105],[17.936383,59.197141],[17.941508,59.193085],[17.955485,59.190221],[17.961541,59.189744],[17.962939,59.187358],[17.964337,59.179004],[17.9662,59.175423],[17.965735,59.171126],[17.96853,59.168022],[17.978779,59.159664],[17.980828,59.157388],[17.987631,59.156797],[17.990893,59.155304],[17.999628,59.153573],[18.003122,59.151243],[18.012906,59.146525],[18.018613,59.14539],[18.0263,59.145032],[18.03655,59.143598],[18.043539,59.145211],[18.055535,59.149392],[18.067532,59.150945],[18.082441,59.151363],[18.087915,59.152916],[18.094204,59.156977],[18.092341,59.161694],[18.106434,59.169455],[18.106667,59.171126],[18.099795,59.177512],[18.098092,59.182618],[18.102277,59.18672],[18.110467,59.188491],[18.120658,59.192686],[18.127938,59.193897],[18.159604,59.203775],[18.178488,59.209035]]]}},
{"type":"Feature","id":"SWE:ADM2:SE-AB.salem","properties":{"shapeName":"Salem","shapeISO":"","shapeGroup":"SWE","shapeType":"ADM2","adm1ISO":"SE-AB","parentISO":"SE-AB","parentID":"SWE:ADM1:SE-AB","src_shape_id":"70781695B90671145668871"},"geometry":{"type":"Polygon","coordinates":[[[17.730338,59.176884],[17.734317,59.17634],[17.74356,59.178784],[17.776359,59.186728],[17.782322,59.189629],[17.782322,59.191157],[17.773973,59.19925],[17.770395,59.203677],[17.759661,59.214514],[17.758468,59.216803],[17.759363,59.229772],[17.758468,59.237093],[17.754592,59.239838],[17.739385,59.248072],[17.73372,59.250816],[17.731633,59.25356],[17.73218,59.255611],[17.730226,59.255482],[17.724053,59.257804],[17.721025,59.260305],[17.712406,59.264413],[17.708329,59.267091],[17.707514,59.269532],[17.701574,59.274828],[17.698545,59.276673],[17.690276,59.278875],[17.680259,59.282385],[17.671407,59.284586],[17.663603,59.284824],[17.658246,59.285895],[17.648578,59.285954],[17.646598,59.281433],[17.64357,59.280184],[17.635184,59.279648],[17.627031,59.279946],[17.623886,59.28173],[17.616548,59.283575],[17.596748,59.279708],[17.594418,59.274174],[17.593603,59.269948],[17.596049,59.265425],[17.601174,59.262031],[17.61061,59.25387],[17.628226,59.253529],[17.642858,59.255206],[17.649648,59.256732],[17.656487,59.251089],[17.661897,59.244894],[17.661114,59.239141],[17.643674,59.237297],[17.642941,59.230623],[17.646208,59.22625],[17.651309,59.223998],[17.66276,59.223401],[17.670251,59.225902],[17.679051,59.224906],[17.68611,59.216049],[17.702784,59.20401],[17.710952,59.194513],[17.710288,59.18229],[17.718614,59.179396],[17.730338,59.176884]]]}},
{"type":"Feature","id":"SWE:ADM2:SE-AB.botkyrka","properties":{"shapeName":"Botkyrka","shapeISO":"","shapeGroup":"SWE","shapeType":"ADM2","adm1ISO":"SE-AB","parentISO":"SE-AB","parentID":"SWE:ADM1:SE-AB","src_shape_id":"70781695B67027071836241"},"geometry":{"type":"Polygon","coordinates":[[[17.692783,59.139817],[17.695033,59.132234],[17.695852,59.126956],[17.700991,59.11449],[17.699717,59.107856],[17.691164,59.095333],[17.6908,59.075324],[17.691164,59.070741],[17.69353,59.06438],[17.69626,59.062696],[17.706997,59.060638],[17.719554,59.06279],[17.734477,59.066064],[17.737025,59.067842],[17.739937,59.074576],[17.739937,59.080468],[17.736479,59.084863],[17.735205,59.091127],[17.732657,59.09795],[17.735751,59.102063],[17.738663,59.104492],[17.753586,59.109445],[17.765597,59.114396],[17.772695,59.116918],[17.774151,59.11533],[17.773969,59.108136],[17.773241,59.105614],[17.774879,59.102249],[17.777275,59.093657],[17.789386,59.094568],[17.808489,59.097003],[17.82705,59.093755],[17.847403,59.089776],[17.86445,59.087968],[17.880511,59.090186],[17.899823,59.104043],[17.896166,59.106738],[17.896904,59.113885],[17.90327,59.119358],[17.923282,59.123788],[17.918446,59.135413],[17.921358,59.137086],[17.933471,59.14079],[17.937665,59.142762],[17.944071,59.144255],[17.950477,59.1476],[17.953505,59.147839],[17.961076,59.151721],[17.966433,59.152378],[17.969229,59.15411],[17.977964,59.157275],[17.980828,59.157388],[17.978779,59.159664],[17.96853,59.168022],[17.965735,59.171126],[17.9662,59.175423],[17.964337,59.179004],[17.962939,59.187358],[17.961541,59.189744],[17.955485,59.190221],[17.941508,59.193085],[17.936383,59.197141],[17.931258,59.203105],[17.925668,59.207159],[17.924736,59.219321],[17.923338,59.226711],[17.920077,59.22981],[17.914952,59.23124],[17.900975,59.233623],[17.879733,59.243058],[17.874536,59.240474],[17.869994,59.236721],[17.865102,59.238092],[17.865335,59.240951],[17.855085,59.254232],[17.851009,59.255363],[17.843205,59.258995],[17.835518,59.26096],[17.819444,59.260781],[17.811641,59.259829],[17.796033,59.259769],[17.783221,59.259114],[17.773554,59.259293],[17.761091,59.262091],[17.753171,59.262448],[17.744436,59.260603],[17.737098,59.25703],[17.73218,59.255611],[17.731633,59.25356],[17.73372,59.250816],[17.739385,59.248072],[17.754592,59.239838],[17.758468,59.237093],[17.759363,59.229772],[17.758468,59.216803],[17.759661,59.214514],[17.770395,59.203677],[17.773973,59.19925],[17.782322,59.191157],[17.782322,59.189629],[17.776359,59.186728],[17.74356,59.178784],[17.734317,59.17634],[17.730338,59.176884],[17.732274,59.157223],[17.722218,59.152224],[17.701648,59.143708],[17.692783,59.139817]]]}},
{"type":"Feature","id":"SWE:ADM2:SE-AB.upplands-bro","properties":{"shapeName":"Upplands-Bro","shapeISO":"","shapeGroup":"SWE","shapeType":"ADM2","adm1ISO":"SE-AB","parentISO":"SE-AB","parentID":"SWE:ADM1:SE-AB","src_shape_id":"70781695B36454711221889"},"geometry":{"type":"Polygon","coordinates":[[[17.511455,59.518333],[17.529194,59.495481],[17.53758,59.489568],[17.544102,59.486257],[17.553886,59.484601],[17.556681,59.48673],[17.554818,59.489805],[17.551556,59.492643],[17.55342,59.495718],[17.557147,59.498319],[17.568794,59.499501],[17.576715,59.495718],[17.579044,59.490988],[17.579976,59.472771],[17.583703,59.467564],[17.590691,59.466854],[17.601407,59.466854],[17.604202,59.470641],[17.602804,59.474664],[17.59535,59.483891],[17.597214,59.488386],[17.604202,59.49288],[17.613054,59.495008],[17.625633,59.495245],[17.638212,59.49217],[17.650326,59.487203],[17.656382,59.485784],[17.666166,59.482235],[17.671757,59.479633],[17.674086,59.4749],[17.674552,59.470404],[17.676881,59.466617],[17.682006,59.461646],[17.68387,59.457148],[17.685733,59.448387],[17.691324,59.444834],[17.70204,59.443176],[17.715085,59.442466],[17.716948,59.436307],[17.727198,59.433938],[17.738379,59.440571],[17.742106,59.44365],[17.738379,59.444124],[17.738379,59.448624],[17.740243,59.46283],[17.742106,59.470167],[17.745368,59.478686],[17.749095,59.481289],[17.755151,59.482472],[17.761208,59.481999],[17.763071,59.47845],[17.766799,59.475137],[17.767264,59.471351],[17.769594,59.468984],[17.773787,59.467801],[17.784502,59.471824],[17.788167,59.472289],[17.790969,59.486446],[17.794249,59.491896],[17.796932,59.506273],[17.797564,59.507066],[17.803194,59.51414],[17.807368,59.517014],[17.82019,59.522912],[17.826451,59.528205],[17.825259,59.533043],[17.821084,59.537125],[17.811543,59.544682],[17.806474,59.551029],[17.801107,59.559188],[17.800809,59.565834],[17.806474,59.575801],[17.805537,59.579902],[17.804983,59.584105],[17.797529,59.588784],[17.784707,59.593916],[17.77457,59.599499],[17.766817,59.601008],[17.75161,59.602517],[17.739684,59.604025],[17.727459,59.606892],[17.709568,59.613227],[17.691678,59.617601],[17.679453,59.619259],[17.670806,59.619712],[17.665141,59.621521],[17.656792,59.629964],[17.65053,59.632829],[17.640691,59.635843],[17.62936,59.639912],[17.617732,59.643529],[17.603718,59.646543],[17.589405,59.650008],[17.580162,59.651665],[17.566589,59.656149],[17.559349,59.644798],[17.526249,59.635931],[17.512539,59.615515],[17.520464,59.590015],[17.540254,59.583101],[17.542596,59.575201],[17.55202,59.565987],[17.536818,59.532514],[17.511455,59.518333]]]}},
{"type":"Feature","id":"SWE:ADM2:SE-AB.sigtuna","properties":{"shapeName":"Sigtuna","shapeISO":"","shapeGroup":"SWE","shapeType":"ADM2","adm1ISO":"SE-AB","parentISO":"SE-AB","parentID":"SWE:ADM1:SE-AB","src_shape_id":"70781695B39328954210913"},"geometry":{"type":"Polygon","coordinates":[[[17.666852,59.718219],[17.634271,59.702491],[17.632927,59.686976],[17.578312,59.676527],[17.575091,59.66948],[17.566589,59.656149],[17.580162,59.651665],[17.589405,59.650008],[17.603718,59.646543],[17.617732,59.643529],[17.62936,59.639912],[17.640691,59.635843],[17.65053,59.632829],[17.656792,59.629964],[17.665141,59.621521],[17.670806,59.619712],[17.679453,59.619259],[17.691678,59.617601],[17.709568,59.613227],[17.727459,59.606892],[17.739684,59.604025],[17.75161,59.602517],[17.766817,59.601008],[17.77457,59.599499],[17.784707,59.593916],[17.797529,59.588784],[17.804983,59.584105],[17.805537,59.579902],[17.810127,59.580038],[17.819444,59.578623],[17.842739,59.576972],[17.850193,59.575792],[17.855318,59.574376],[17.859977,59.570129],[17.877681,59.564466],[17.883272,59.563758],[17.893987,59.56541],[17.902373,59.565882],[17.919611,59.568478],[17.929395,59.569421],[17.953155,59.569657],[17.960144,59.568242],[17.969928,59.568242],[17.988832,59.571388],[18.004404,59.573905],[18.015119,59.576972],[18.025369,59.578387],[18.02863,59.581218],[18.022107,59.587115],[18.0263,59.592067],[18.031425,59.605506],[18.037016,59.617996],[18.037948,59.627656],[18.038414,59.641787],[18.037948,59.648615],[18.041675,59.650262],[18.051459,59.650733],[18.057515,59.64885],[18.067299,59.647908],[18.082673,59.650733],[18.093389,59.65191],[18.113422,59.653087],[18.126933,59.655441],[18.127865,59.660854],[18.137183,59.67403],[18.147898,59.683673],[18.15908,59.690963],[18.167466,59.694959],[18.176784,59.69778],[18.17725,59.701306],[18.173988,59.705067],[18.175852,59.706477],[18.187499,59.708122],[18.199146,59.709062],[18.21697,59.709414],[18.215722,59.7097],[18.179405,59.732371],[18.171826,59.74612],[18.168345,59.755766],[18.126154,59.765611],[18.107994,59.768248],[18.09712,59.767952],[18.092174,59.768674],[18.072668,59.767743],[18.053958,59.766849],[18.018954,59.766849],[17.973654,59.755443],[17.922177,59.74507],[17.887173,59.727428],[17.845991,59.720161],[17.78216,59.695235],[17.716994,59.699855],[17.708033,59.709778],[17.687443,59.71497],[17.673029,59.7212],[17.666852,59.718219]]]}},
{"type":"Feature","id":"SWE:ADM2:SE-AB.vallentuna","properties":{"shapeName":"Vallentuna","shapeISO":"","shapeGroup":"SWE","shapeType":"ADM2","adm1ISO":"SE-AB","parentISO":"SE-AB","parentID":"SWE:ADM1:SE-AB","src_shape_id":"70781695B12821480851485"},"geometry":{"type":"Polygon","coordinates":[[[18.21697,59.709414],[18.199146,59.709062],[18.187499,59.708122],[18.175852,59.706477],[18.173988,59.705067],[18.17725,59.701306],[18.176784,59.69778],[18.167466,59.694959],[18.15908,59.690963],[18.147898,59.683673],[18.137183,59.67403],[18.127865,59.660854],[18.126933,59.655441],[18.113422,59.653087],[18.093389,59.65191],[18.082673,59.650733],[18.067299,59.647908],[18.057515,59.64885],[18.051459,59.650733],[18.041675,59.650262],[18.037948,59.648615],[18.038414,59.641787],[18.037948,59.627656],[18.037016,59.617996],[18.031425,59.605506],[18.0263,59.592067],[18.022107,59.587115],[18.02863,59.581218],[18.025369,59.578387],[18.015119,59.576972],[18.004404,59.573905],[17.988832,59.571388],[17.989253,59.568402],[17.99134,59.564928],[17.983289,59.561454],[17.980606,59.558433],[17.982097,59.555562],[18.003863,59.540148],[18.013106,59.534253],[18.018175,59.530473],[18.024437,59.522459],[18.025652,59.516026],[18.034277,59.51414],[18.0468,59.513989],[18.067374,59.511719],[18.075424,59.510358],[18.089736,59.508542],[18.099278,59.509753],[18.109117,59.510509],[18.111801,59.509299],[18.113292,59.50597],[18.121939,59.499161],[18.131778,59.498707],[18.135655,59.497042],[18.14683,59.495701],[18.156825,59.498858],[18.165174,59.503247],[18.173224,59.504003],[18.177697,59.505062],[18.184853,59.505365],[18.200656,59.50476],[18.214074,59.503095],[18.220932,59.501733],[18.226299,59.504003],[18.23912,59.510812],[18.25701,59.512476],[18.264465,59.514594],[18.269235,59.518224],[18.282355,59.529263],[18.291002,59.530927],[18.301438,59.531683],[18.323502,59.535916],[18.330957,59.536672],[18.336622,59.538183],[18.340796,59.538334],[18.344374,59.543927],[18.347952,59.546496],[18.360476,59.550425],[18.368526,59.554656],[18.372104,59.55526],[18.374788,59.554051],[18.393871,59.5539],[18.39894,59.556922],[18.404605,59.564928],[18.403412,59.5681],[18.407885,59.569157],[18.429055,59.568855],[18.435317,59.56961],[18.440982,59.57112],[18.447542,59.573688],[18.460757,59.577487],[18.45642,59.593678],[18.453173,59.609801],[18.430143,59.616548],[18.426561,59.626332],[18.428652,59.634681],[18.416227,59.643955],[18.429601,59.662167],[18.439206,59.678182],[18.427288,59.689345],[18.407291,59.694363],[18.400636,59.704894],[18.395952,59.713902],[18.390801,59.717617],[18.360566,59.711052],[18.355172,59.717867],[18.340291,59.713823],[18.325235,59.704899],[18.312558,59.700753],[18.294119,59.692382],[18.274447,59.695374],[18.255406,59.696661],[18.242507,59.695892],[18.235158,59.6914],[18.221247,59.691472],[18.221376,59.701743],[18.21697,59.709414]]]}},
{"type":"Feature","id":"SWE:ADM2:SE-AB.vaxholm","properties":{"shapeName":"Vaxholm","shapeISO":"","shapeGroup":"SWE","shapeType":"ADM2","adm1ISO":"SE-AB","parentISO":"SE-AB","parentID":"SWE:ADM1:SE-AB","src_shape_id":"70781695B74265456300359"},"geometry":{"type":"MultiPolygon","coordinates":[[[[18.20173,59.423456],[18.19635,59.421436],[18.190626,59.422601],[18.186236,59.422698],[18.180702,59.42396],[18.173833,59.423765],[18.170016,59.42163],[18.166772,59.417358],[18.165818,59.407065],[18.160474,59.398226],[18.158185,59.395603],[18.161047,59.394631],[18.178794,59.392397],[18.193488,59.391231],[18.200358,59.390259],[18.205129,59.387733],[18.213907,59.385886],[18.234325,59.386178],[18.241004,59.386955],[18.252836,59.386761],[18.270774,59.387344],[18.281651,59.388316],[18.294628,59.390453],[18.298444,59.391522],[18.301116,59.395894],[18.299017,59.398712],[18.292147,59.399974],[18.27917,59.399392],[18.274209,59.400363],[18.27211,59.401917],[18.28127,59.407842],[18.284895,59.409687],[18.285086,59.411921],[18.282224,59.415805],[18.272301,59.422601],[18.264286,59.429589],[18.261042,59.429589],[18.255889,59.427648],[18.239478,59.427842],[18.23465,59.428961],[18.227265,59.425319],[18.219822,59.418329],[18.215624,59.418329],[18.20173,59.423456]]],[[[18.330957,59.444029],[18.32708,59.444029],[18.322012,59.442816],[18.316943,59.440543],[18.314855,59.438268],[18.314557,59.430839],[18.311576,59.429019],[18.310979,59.426896],[18.307103,59.423407],[18.30591,59.420525],[18.311576,59.417492],[18.317539,59.415974],[18.322608,59.417492],[18.324099,59.419615],[18.329764,59.421436],[18.33692,59.426289],[18.347356,59.428109],[18.354512,59.428109],[18.358985,59.429322],[18.358985,59.431749],[18.356003,59.434023],[18.351531,59.435843],[18.341691,59.438572],[18.335727,59.443574],[18.330957,59.444029]]]]}},
{"type":"Feature","id":"SWE:ADM2:SE-AB.sundbyberg","properties":{"shapeName":"Sundbyberg","shapeISO":"","shapeGroup":"SWE","shapeType":"ADM2","adm1ISO":"SE-AB","parentISO":"SE-AB","parentID":"SWE:ADM1:SE-AB","src_shape_id":"70781695B91357499899745"},"geometry":{"type":"Polygon","coordinates":[[[17.965842,59.35583],[17.972286,59.361147],[17.979492,59.368179],[17.981934,59.369797],[17.984621,59.374339],[17.984133,59.377014],[17.978881,59.382489],[17.974729,59.388646],[17.97192,59.390076],[17.970804,59.393564],[17.967188,59.392148],[17.959137,59.390781],[17.954963,59.387593],[17.948105,59.384252],[17.944527,59.383341],[17.931408,59.382278],[17.926935,59.381215],[17.925444,59.37757],[17.925146,59.371039],[17.929022,59.369519],[17.941247,59.367544],[17.946614,59.367544],[17.95377,59.365873],[17.960628,59.360859],[17.963014,59.357364],[17.965842,59.35583]]]}},
{"type":"Feature","id":"SWE:ADM2:SE-AB.solna","properties":{"shapeName":"Solna","shapeISO":"","shapeGroup":"SWE","shapeType":"ADM2","adm1ISO":"SE-AB","parentISO":"SE-AB","parentID":"SWE:ADM1:SE-AB","src_shape_id":"70781695B78362616734409"},"geometry":{"type":"Polygon","coordinates":[[[18.053965,59.376163],[18.051272,59.378633],[18.046502,59.380911],[18.037855,59.383797],[18.023841,59.387745],[18.01907,59.390174],[17.997888,59.397837],[17.994603,59.398269],[17.990255,59.398032],[17.987011,59.396574],[17.974607,59.392591],[17.970841,59.393578],[17.970804,59.393564],[17.97192,59.390076],[17.974729,59.388646],[17.978881,59.382489],[17.984133,59.377014],[17.984621,59.374339],[17.981934,59.369797],[17.979492,59.368179],[17.972286,59.361147],[17.965842,59.35583],[17.969872,59.354324],[17.985377,59.345964],[17.986438,59.344754],[17.999987,59.343878],[18.005712,59.344365],[18.014872,59.348256],[18.017352,59.350202],[18.021551,59.351175],[18.031665,59.351953],[18.037389,59.358665],[18.036435,59.36907],[18.038916,59.371111],[18.049412,59.375486],[18.053965,59.376163]]]}},
{"type":"Feature","id":"SWE:ADM2:SE-AB.upplands-vasby","properties":{"shapeName":"Upplands Väsby","shapeISO":"","shapeGroup":"SWE","shapeType":"ADM2","adm1ISO":"SE-AB","parentISO":"SE-AB","parentID":"SWE:ADM1:SE-AB","src_shape_id":"70781695B23311697219676"},"geometry":{"type":"Polygon","coordinates":[[[17.797564,59.507066],[17.820488,59.502793],[17.836291,59.49795],[17.833309,59.493409],[17.83152,59.482055],[17.827095,59.476674],[17.836589,59.478118],[17.842851,59.479936],[17.856268,59.482661],[17.866406,59.484175],[17.869686,59.485841],[17.869984,59.488263],[17.874457,59.493864],[17.881017,59.494469],[17.888173,59.492955],[17.900994,59.492653],[17.90487,59.493864],[17.912921,59.49795],[17.92455,59.501582],[17.929917,59.498101],[17.934389,59.496134],[17.949596,59.493561],[17.955559,59.491442],[17.958243,59.489171],[17.964206,59.481904],[17.962716,59.478724],[17.958839,59.474938],[17.975537,59.469183],[17.982395,59.468425],[17.986867,59.467062],[17.995128,59.467512],[17.996409,59.472515],[17.999391,59.476604],[17.999689,59.484024],[17.996111,59.490988],[17.993427,59.493409],[17.990744,59.498404],[17.999092,59.503095],[18.01251,59.509148],[18.025652,59.516026],[18.024437,59.522459],[18.018175,59.530473],[18.013106,59.534253],[18.003863,59.540148],[17.982097,59.555562],[17.980606,59.558433],[17.983289,59.561454],[17.99134,59.564928],[17.989253,59.568402],[17.988832,59.571388],[17.969928,59.568242],[17.960144,59.568242],[17.953155,59.569657],[17.929395,59.569421],[17.919611,59.568478],[17.902373,59.565882],[17.893987,59.56541],[17.883272,59.563758],[17.877681,59.564466],[17.859977,59.570129],[17.855318,59.574376],[17.850193,59.575792],[17.842739,59.576972],[17.819444,59.578623],[17.810127,59.580038],[17.805537,59.579902],[17.806474,59.575801],[17.800809,59.565834],[17.801107,59.559188],[17.806474,59.551029],[17.811543,59.544682],[17.821084,59.537125],[17.825259,59.533043],[17.826451,59.528205],[17.82019,59.522912],[17.807368,59.517014],[17.803194,59.51414],[17.797564,59.507066]]]}},
{"type":"Feature","id":"SWE:ADM2:SE-AB.sollentuna","properties":{"shapeName":"Sollentuna","shapeISO":"","shapeGroup":"SWE","shapeType":"ADM2","adm1ISO":"SE-AB","parentISO":"SE-AB","parentID":"SWE:ADM1:SE-AB","src_shape_id":"70781695B54178975412741"},"geometry":{"type":"Polygon","coordinates":[[[17.970841,59.393578],[17.974607,59.392591],[17.987011,59.396574],[17.990255,59.398032],[17.994603,59.398269],[17.994071,59.409201],[17.995789,59.413668],[17.99846,59.415999],[17.998269,59.418814],[18.00533,59.425124],[18.016017,59.43221],[18.017543,59.435315],[18.017834,59.440614],[18.011437,59.449189],[18.00762,59.453553],[18.003231,59.456657],[17.999858,59.462502],[17.996263,59.464885],[17.995128,59.467512],[17.986867,59.467062],[17.982395,59.468425],[17.975537,59.469183],[17.958839,59.474938],[17.962716,59.478724],[17.964206,59.481904],[17.958243,59.489171],[17.955559,59.491442],[17.949596,59.493561],[17.934389,59.496134],[17.929917,59.498101],[17.92455,59.501582],[17.912921,59.49795],[17.90487,59.493864],[17.900994,59.492653],[17.888173,59.492955],[17.881017,59.494469],[17.874457,59.493864],[17.869984,59.488263],[17.869686,59.485841],[17.866406,59.484175],[17.856268,59.482661],[17.842851,59.479936],[17.836589,59.478118],[17.827095,59.476674],[17.822676,59.472437],[17.8195,59.471321],[17.817913,59.469087],[17.835011,59.46555],[17.83782,59.461827],[17.838675,59.4586],[17.842705,59.456304],[17.849422,59.454318],[17.860048,59.452704],[17.86359,59.450779],[17.868841,59.445813],[17.868108,59.436934],[17.869574,59.435505],[17.870795,59.429543],[17.874093,59.428673],[17.881091,59.428336],[17.883998,59.43099],[17.892944,59.433568],[17.899205,59.433417],[17.905169,59.432204],[17.909343,59.430232],[17.91471,59.425531],[17.918288,59.42007],[17.921568,59.418553],[17.927531,59.414306],[17.932004,59.412333],[17.948105,59.408843],[17.958839,59.407022],[17.962716,59.402014],[17.970841,59.393578]]]}},
{"type":"Feature","id":"SWE:ADM2:SE-AB.taby","properties":{"shapeName":"Täby","shapeISO":"","shapeGroup":"SWE","shapeType":"ADM2","adm1ISO":"SE-AB","parentISO":"SE-AB","parentID":"SWE:ADM1:SE-AB","src_shape_id":"70781695B44466819558577"},"geometry":{"type":"Polygon","coordinates":[[[18.025652,59.516026],[18.01251,59.509148],[17.999092,59.503095],[17.990744,59.498404],[17.993427,59.493409],[17.996111,59.490988],[17.999689,59.484024],[17.999391,59.476604],[17.996409,59.472515],[17.995128,59.467512],[17.996263,59.464885],[17.999858,59.462502],[18.003231,59.456657],[18.00762,59.453553],[18.011437,59.449189],[18.017834,59.440614],[18.033382,59.44298],[18.041015,59.446764],[18.046358,59.444435],[18.051893,59.440943],[18.054182,59.435606],[18.050938,59.430657],[18.049984,59.425027],[18.058381,59.424154],[18.07422,59.42095],[18.094323,59.417911],[18.099576,59.424166],[18.105241,59.426896],[18.112099,59.428867],[18.114485,59.430384],[18.109416,59.435691],[18.115379,59.438572],[18.136847,59.446303],[18.142815,59.449134],[18.140628,59.450838],[18.139483,59.454232],[18.134903,59.458014],[18.134712,59.459857],[18.144826,59.465965],[18.147116,59.468389],[18.148643,59.475756],[18.147498,59.480214],[18.148261,59.492132],[18.14683,59.495701],[18.135655,59.497042],[18.131778,59.498707],[18.121939,59.499161],[18.113292,59.50597],[18.111801,59.509299],[18.109117,59.510509],[18.099278,59.509753],[18.089736,59.508542],[18.075424,59.510358],[18.067374,59.511719],[18.0468,59.513989],[18.034277,59.51414],[18.025652,59.516026]]]}},
{"type":"Feature","id":"SWE:ADM2:SE-AB.jarfalla","properties":{"shapeName":"Järfälla","shapeISO":"","shapeGroup":"SWE","shapeType":"ADM2","adm1ISO":"SE-AB","parentISO":"SE-AB","parentID":"SWE:ADM1:SE-AB","src_shape_id":"70781695B58172703423372"},"geometry":{"type":"Polygon","coordinates":[[[17.881091,59.428336],[17.874093,59.428673],[17.870795,59.429543],[17.869574,59.435505],[17.868108,59.436934],[17.868841,59.445813],[17.86359,59.450779],[17.860048,59.452704],[17.849422,59.454318],[17.842705,59.456304],[17.838675,59.4586],[17.83782,59.461827],[17.835011,59.46555],[17.817913,59.469087],[17.8195,59.471321],[17.822676,59.472437],[17.827095,59.476674],[17.83152,59.482055],[17.833309,59.493409],[17.836291,59.49795],[17.820488,59.502793],[17.797564,59.507066],[17.796932,59.506273],[17.794249,59.491896],[17.790969,59.486446],[17.788167,59.472289],[17.794845,59.467517],[17.794547,59.463123],[17.790373,59.458427],[17.784111,59.453881],[17.781726,59.450547],[17.776955,59.441907],[17.770992,59.434326],[17.768606,59.430081],[17.765326,59.426592],[17.76473,59.422952],[17.761748,59.414457],[17.762046,59.40854],[17.763835,59.403987],[17.767414,59.399282],[17.773973,59.395791],[17.785767,59.388194],[17.797529,59.394425],[17.809456,59.397764],[17.813928,59.397461],[17.818699,59.395639],[17.821681,59.392755],[17.822277,59.390629],[17.826153,59.387441],[17.82675,59.385771],[17.833011,59.383493],[17.837186,59.383949],[17.845832,59.387137],[17.858952,59.394273],[17.867003,59.396854],[17.869388,59.400952],[17.88042,59.410057],[17.8837,59.416278],[17.883998,59.424317],[17.881315,59.426289],[17.881091,59.428336]]]}},
{"type":"Feature","id":"SWE:ADM2:SE-AB.ekero","properties":{"shapeName":"Ekerö","shapeISO":"","shapeGroup":"SWE","shapeType":"ADM2","adm1ISO":"SE-AB","parentISO":"SE-AB","parentID":"SWE:ADM1:SE-AB","src_shape_id":"70781695B4978180418475"},"geometry":{"type":"MultiPolygon","coordinates":[[[[17.819844,59.351564],[17.811257,59.351759],[17.804959,59.346797],[17.800761,59.341737],[17.798662,59.337748],[17.798853,59.331811],[17.808585,59.323731],[17.815646,59.320615],[17.823279,59.31526],[17.82824,59.313896],[17.83034,59.310293],[17.838354,59.304448],[17.852667,59.300746],[17.857628,59.301721],[17.863926,59.304546],[17.870223,59.308637],[17.872322,59.310877],[17.873085,59.314383],[17.876329,59.319836],[17.884535,59.326359],[17.883963,59.332103],[17.881482,59.332687],[17.871368,59.332395],[17.862208,59.336677],[17.857628,59.342029],[17.849422,59.34884],[17.844461,59.351272],[17.8374,59.352926],[17.831294,59.353315],[17.822516,59.352829],[17.819844,59.351564]]],[[[17.45698,59.412608],[17.455117,59.409763],[17.455583,59.395061],[17.455117,59.390316],[17.451855,59.387944],[17.456514,59.38225],[17.459776,59.380351],[17.470957,59.376554],[17.477014,59.373469],[17.482839,59.366153],[17.483793,59.363625],[17.481122,59.359151],[17.491617,59.348062],[17.497533,59.343684],[17.50612,59.339499],[17.513181,59.338137],[17.522913,59.339207],[17.530165,59.345338],[17.527112,59.347575],[17.524822,59.354774],[17.525203,59.359345],[17.532455,59.367611],[17.532264,59.372278],[17.528447,59.378402],[17.523677,59.379958],[17.514708,59.388024],[17.507265,59.401334],[17.493716,59.408036],[17.491617,59.413183],[17.489518,59.414834],[17.483221,59.416484],[17.472725,59.416775],[17.45698,59.412608]]],[[[17.57718,59.426289],[17.567043,59.426289],[17.557501,59.425834],[17.548556,59.423559],[17.542294,59.423104],[17.53156,59.420525],[17.524702,59.41734],[17.521124,59.414912],[17.517248,59.413547],[17.517248,59.410512],[17.521422,59.404443],[17.521422,59.400952],[17.525394,59.396283],[17.526157,59.392494],[17.529402,59.387927],[17.540088,59.383748],[17.549439,59.38472],[17.557644,59.386275],[17.566804,59.376653],[17.570239,59.371889],[17.576536,59.3645],[17.57959,59.363722],[17.585505,59.360415],[17.592184,59.359832],[17.597909,59.361193],[17.602871,59.358276],[17.605924,59.352926],[17.603825,59.351467],[17.601535,59.346505],[17.611458,59.344267],[17.61413,59.342613],[17.615275,59.337845],[17.617183,59.334925],[17.618901,59.32928],[17.617756,59.326359],[17.613939,59.321492],[17.617756,59.31711],[17.617374,59.314188],[17.62348,59.309806],[17.630923,59.306786],[17.646571,59.302305],[17.674623,59.295583],[17.686072,59.291003],[17.688935,59.289346],[17.698286,59.286617],[17.70153,59.28457],[17.708018,59.282718],[17.712789,59.280379],[17.719468,59.278526],[17.738551,59.278039],[17.758397,59.277942],[17.763358,59.277552],[17.768511,59.276089],[17.775571,59.272677],[17.785685,59.270629],[17.799044,59.268874],[17.811638,59.268581],[17.821371,59.270336],[17.835492,59.273944],[17.837973,59.276577],[17.833965,59.282523],[17.83034,59.284083],[17.818126,59.287494],[17.813737,59.289346],[17.803433,59.291685],[17.802669,59.295193],[17.799807,59.296265],[17.78664,59.296557],[17.777671,59.294706],[17.766603,59.291392],[17.763168,59.292562],[17.753244,59.292854],[17.74542,59.295777],[17.738741,59.296947],[17.733207,59.299188],[17.713361,59.304059],[17.704201,59.307468],[17.690843,59.311169],[17.687599,59.313799],[17.682828,59.31487],[17.675004,59.318376],[17.668325,59.320421],[17.661646,59.320907],[17.654776,59.320713],[17.645044,59.322855],[17.6418,59.326944],[17.636075,59.339499],[17.633404,59.342419],[17.633213,59.344948],[17.630541,59.347575],[17.630732,59.350883],[17.627679,59.353315],[17.622526,59.362263],[17.621954,59.364402],[17.616611,59.371695],[17.611267,59.379958],[17.597528,59.397643],[17.595428,59.402403],[17.587795,59.413086],[17.583406,59.41862],[17.579399,59.424833],[17.57718,59.426289]]],[[[17.59581,59.45142],[17.589513,59.449771],[17.581116,59.445503],[17.580162,59.443077],[17.585505,59.438226],[17.589322,59.427842],[17.592375,59.423668],[17.599245,59.416678],[17.604207,59.412892],[17.615847,59.400557],[17.619282,59.395603],[17.620427,59.392105],[17.623099,59.388899],[17.624053,59.384526],[17.63035,59.375389],[17.634358,59.372375],[17.639701,59.365278],[17.645998,59.358276],[17.655158,59.351759],[17.659738,59.347478],[17.669661,59.339597],[17.67405,59.33658],[17.680729,59.330545],[17.689507,59.325483],[17.70401,59.324997],[17.711834,59.320907],[17.714697,59.31711],[17.722903,59.310975],[17.725765,59.309708],[17.733971,59.308053],[17.752481,59.30552],[17.758015,59.30591],[17.766603,59.307566],[17.774617,59.30854],[17.777671,59.310098],[17.781487,59.315065],[17.78206,59.317889],[17.779006,59.323439],[17.774999,59.326652],[17.768892,59.329085],[17.768129,59.333855],[17.771755,59.341835],[17.771564,59.350105],[17.768129,59.355455],[17.767557,59.359151],[17.765648,59.362458],[17.764885,59.366833],[17.759542,59.370723],[17.752672,59.374514],[17.746756,59.381707],[17.73378,59.389384],[17.726719,59.393077],[17.723857,59.39366],[17.718704,59.390453],[17.718704,59.385109],[17.712407,59.381707],[17.705155,59.383068],[17.699812,59.384817],[17.697141,59.389482],[17.693706,59.393757],[17.688935,59.397449],[17.692179,59.40318],[17.703438,59.406094],[17.712025,59.406191],[17.717559,59.406774],[17.716605,59.409299],[17.708209,59.414057],[17.704965,59.416775],[17.698476,59.420271],[17.689507,59.420853],[17.678439,59.424251],[17.672905,59.422795],[17.668898,59.420465],[17.664509,59.420368],[17.648861,59.425998],[17.644662,59.429492],[17.633785,59.434733],[17.631304,59.437741],[17.624053,59.439099],[17.617756,59.441234],[17.611458,59.442592],[17.60726,59.445503],[17.606687,59.44754],[17.597718,59.451323],[17.59581,59.45142]]]]}},
{"type":"Feature","id":"SWE:ADM2:SE-AB.danderyd","properties":{"shapeName":"Danderyd","shapeISO":"","shapeGroup":"SWE","shapeType":"ADM2","adm1ISO":"SE-AB","parentISO":"SE-AB","parentID":"SWE:ADM1:SE-AB","src_shape_id":"70781695B902417386827"},"geometry":{"type":"Polygon","coordinates":[[[18.057688,59.375413],[18.066777,59.382582],[18.072442,59.384708],[18.083475,59.390933],[18.092122,59.400497],[18.093314,59.41643],[18.094323,59.417911],[18.07422,59.42095],[18.058381,59.424154],[18.049984,59.425027],[18.050938,59.430657],[18.054182,59.435606],[18.051893,59.440943],[18.046358,59.444435],[18.041015,59.446764],[18.033382,59.44298],[18.017834,59.440614],[18.017543,59.435315],[18.016017,59.43221],[18.00533,59.425124],[17.998269,59.418814],[17.99846,59.415999],[17.995789,59.413668],[17.994071,59.409201],[17.994603,59.398269],[17.997888,59.397837],[18.01907,59.390174],[18.023841,59.387745],[18.037855,59.383797],[18.046502,59.380911],[18.051272,59.378633],[18.053965,59.376163],[18.057688,59.375413]]]}},
{"type":"Feature","id":"SWE:ADM2:SE-AB.lidingo","properties":{"shapeName":"Lidingö","shapeISO":"","shapeGroup":"SWE","shapeType":"ADM2","adm1ISO":"SE-AB","parentISO":"SE-AB","parentID":"SWE:ADM1:SE-AB","src_shape_id":"70781695B7495287433606"},"geometry":{"type":"Polygon","coordinates":[[[18.143239,59.385571],[18.120209,59.389967],[18.107424,59.390065],[18.102653,59.38851],[18.102081,59.385012],[18.103607,59.383262],[18.103035,59.379958],[18.10876,59.378014],[18.118874,59.376264],[18.123072,59.368681],[18.122881,59.363527],[18.127079,59.357303],[18.134712,59.349521],[18.139674,59.346116],[18.159139,59.342127],[18.166963,59.341543],[18.180893,59.341446],[18.187763,59.340472],[18.19635,59.342224],[18.204938,59.344851],[18.213907,59.346894],[18.219632,59.350105],[18.22154,59.353996],[18.218296,59.360318],[18.218677,59.363625],[18.220777,59.3645],[18.241577,59.36518],[18.244058,59.366056],[18.241959,59.371111],[18.24005,59.372375],[18.231463,59.374903],[18.224593,59.374709],[18.212762,59.371986],[18.207419,59.373639],[18.196541,59.37432],[18.193106,59.373056],[18.185855,59.374125],[18.184328,59.375583],[18.179367,59.376944],[18.171543,59.377722],[18.163719,59.380638],[18.159139,59.381707],[18.156276,59.384234],[18.143239,59.385571]]]}},
{"type":"Feature","id":"SWE:ADM2:SE-AB.osteraker","properties":{"shapeName":"Österåker","shapeISO":"","shapeGroup":"SWE","shapeType":"ADM2","adm1ISO":"SE-AB","parentISO":"SE-AB","parentID":"SWE:ADM1:SE-AB","src_shape_id":"70781695B57297019096090"},"geometry":{"type":"MultiPolygon","coordinates":[[[[18.668486,59.555562],[18.66789,59.558433],[18.675642,59.561756],[18.678922,59.564475],[18.674748,59.567496],[18.670275,59.5681],[18.660137,59.56523],[18.647912,59.560246],[18.642844,59.55662],[18.638967,59.556318],[18.633302,59.554051],[18.613921,59.549065],[18.611153,59.547171],[18.600161,59.543704],[18.597107,59.541414],[18.592155,59.533799],[18.582452,59.529153],[18.570483,59.522897],[18.565476,59.518065],[18.567185,59.514224],[18.557049,59.508089],[18.55485,59.503503],[18.561934,59.502698],[18.569262,59.502698],[18.57549,59.501086],[18.576834,59.499784],[18.572315,59.494019],[18.561079,59.48447],[18.550209,59.487137],[18.545813,59.494763],[18.539217,59.496313],[18.530913,59.496313],[18.525295,59.495321],[18.520531,59.491539],[18.517234,59.487137],[18.5176,59.483726],[18.519677,59.481555],[18.523951,59.479571],[18.525172,59.476966],[18.522852,59.461145],[18.527737,59.455745],[18.536042,59.450655],[18.538973,59.447613],[18.543004,59.441901],[18.543004,59.438921],[18.540195,59.435754],[18.538607,59.430164],[18.53934,59.426188],[18.542637,59.424511],[18.550698,59.424759],[18.558636,59.426623],[18.565231,59.433083],[18.56804,59.434698],[18.570605,59.447613],[18.574635,59.45258],[18.587948,59.452269],[18.590757,59.453138],[18.595398,59.459655],[18.597596,59.467474],[18.596008,59.474732],[18.592344,59.483912],[18.598695,59.491787],[18.606023,59.495383],[18.622511,59.494949],[18.630571,59.496685],[18.637166,59.499164],[18.639975,59.503627],[18.642907,59.506602],[18.647181,59.509143],[18.649868,59.512489],[18.663058,59.523145],[18.675344,59.531985],[18.679817,59.534555],[18.681904,59.537881],[18.678922,59.542264],[18.67922,59.548007],[18.680711,59.552843],[18.678624,59.554656],[18.675046,59.55526],[18.669977,59.553145],[18.668486,59.555562]]],[[[18.460757,59.577487],[18.447542,59.573688],[18.440982,59.57112],[18.435317,59.56961],[18.429055,59.568855],[18.407885,59.569157],[18.403412,59.5681],[18.404605,59.564928],[18.39894,59.556922],[18.393871,59.5539],[18.374788,59.554051],[18.372104,59.55526],[18.368526,59.554656],[18.360476,59.550425],[18.347952,59.546496],[18.344374,59.543927],[18.340796,59.538334],[18.336622,59.538183],[18.330957,59.536672],[18.323502,59.535916],[18.301438,59.531683],[18.291002,59.530927],[18.282355,59.529263],[18.269235,59.518224],[18.264465,59.514594],[18.25701,59.512476],[18.23912,59.510812],[18.226299,59.504003],[18.220932,59.501733],[18.214074,59.503095],[18.200656,59.50476],[18.184853,59.505365],[18.177697,59.505062],[18.173224,59.504003],[18.165174,59.503247],[18.156825,59.498858],[18.14683,59.495701],[18.148261,59.492132],[18.147498,59.480214],[18.148643,59.475756],[18.147116,59.468389],[18.144826,59.465965],[18.134712,59.459857],[18.134903,59.458014],[18.139483,59.454232],[18.140628,59.450838],[18.142815,59.449134],[18.15116,59.451001],[18.153545,59.450092],[18.156229,59.446758],[18.156229,59.443574],[18.157719,59.439633],[18.160701,59.436752],[18.167261,59.435691],[18.182468,59.437662],[18.192605,59.440088],[18.196183,59.441452],[18.20006,59.440846],[18.202743,59.437965],[18.204532,59.429474],[18.203041,59.424621],[18.20173,59.423456],[18.215624,59.418329],[18.219822,59.418329],[18.227265,59.425319],[18.23465,59.428961],[18.230509,59.43483],[18.233562,59.437644],[18.239478,59.440264],[18.247111,59.440652],[18.259324,59.439293],[18.268675,59.435703],[18.274018,59.435218],[18.296154,59.439002],[18.300925,59.441137],[18.305696,59.445211],[18.30894,59.44948],[18.308558,59.454038],[18.304932,59.45753],[18.293483,59.45976],[18.282796,59.463057],[18.282796,59.465384],[18.290429,59.469843],[18.298444,59.470134],[18.305123,59.469746],[18.309321,59.466353],[18.317718,59.462184],[18.322298,59.461796],[18.324588,59.46296],[18.329359,59.463154],[18.344243,59.462378],[18.35035,59.456851],[18.357029,59.45656],[18.366189,59.457724],[18.377829,59.455881],[18.384317,59.455881],[18.39405,59.457724],[18.412751,59.471006],[18.414087,59.472945],[18.413896,59.479826],[18.422292,59.48409],[18.429544,59.485834],[18.438513,59.486803],[18.448436,59.488644],[18.453779,59.491066],[18.467328,59.500075],[18.472099,59.504723],[18.47687,59.507338],[18.487938,59.512082],[18.497479,59.517698],[18.523432,59.530957],[18.527249,59.533279],[18.542706,59.534343],[18.548622,59.535988],[18.556064,59.542953],[18.576864,59.549821],[18.592703,59.555429],[18.596711,59.557653],[18.614267,59.564517],[18.635067,59.570414],[18.657327,59.577502],[18.677033,59.588214],[18.665689,59.593562],[18.641754,59.590687],[18.611645,59.601666],[18.57303,59.604075],[18.528812,59.60484],[18.511463,59.596105],[18.504298,59.571605],[18.474097,59.565558],[18.467588,59.572819],[18.461001,59.576574],[18.460757,59.577487]]]]}}
]}