{"type":"FeatureCollection","bbox":[15.378181,65.08285,24.168064,69.06195],"features":[
{"type":"Feature","id":"SWE:ADM2:SE-BD.kiruna","properties":{"shapeName":"Kiruna","shapeISO":"","shapeGroup":"SWE","shapeType":"ADM2","adm1ISO":"SE-BD","parentISO":"SE-BD","parentID":"SWE:ADM1:SE-BD","src_shape_id":"70781695B94600430897975"},"geometry":{"type":"Polygon","coordinates":[[[23.211081,68.140207],[23.196897,68.140207],[23.17495,68.143271],[23.151631,68.145314],[23.136542,68.151441],[23.122825,68.155524],[23.121453,68.164709],[23.131055,68.175421],[23.13517,68.190205],[23.1434,68.196319],[23.142029,68.205998],[23.129683,68.214654],[23.12694,68.224833],[23.131055,68.23806],[23.11871,68.250262],[23.080302,68.259409],[23.063841,68.270584],[23.050124,68.286829],[23.048753,68.298498],[23.044638,68.307119],[23.01446,68.317764],[22.987026,68.327898],[22.914326,68.344102],[22.87729,68.353718],[22.834767,68.36333],[22.832023,68.371926],[22.830652,68.382036],[22.796359,68.387594],[22.768925,68.388604],[22.734632,68.394161],[22.722287,68.399716],[22.707198,68.407289],[22.66056,68.417888],[22.649587,68.424446],[22.63587,68.426464],[22.608436,68.425455],[22.585117,68.422933],[22.552196,68.42949],[22.526133,68.43554],[22.500071,68.445621],[22.463035,68.452172],[22.441088,68.461238],[22.387591,68.465267],[22.351927,68.462749],[22.334095,68.462749],[22.314891,68.472315],[22.302545,68.480367],[22.255907,68.483889],[22.185951,68.48741],[22.142056,68.48741],[22.107763,68.486404],[22.065241,68.491434],[22.011744,68.495457],[22.002142,68.511039],[21.977451,68.5241],[21.971965,68.53615],[21.969221,68.543677],[21.929442,68.557722],[21.906123,68.57276],[21.873202,68.584784],[21.827936,68.595299],[21.782669,68.597802],[21.75935,68.597301],[21.747005,68.5963],[21.722314,68.600305],[21.682535,68.608811],[21.682535,68.618815],[21.688022,68.626815],[21.682535,68.634313],[21.655101,68.648301],[21.600233,68.665774],[21.556338,68.675752],[21.554966,68.683732],[21.51793,68.689216],[21.468549,68.691709],[21.435628,68.697191],[21.420539,68.704167],[21.405451,68.710144],[21.401335,68.721596],[21.408194,68.731052],[21.410937,68.745477],[21.39722,68.758899],[21.371158,68.768836],[21.342352,68.771817],[21.291599,68.775293],[21.280625,68.782741],[21.253191,68.79614],[21.239474,68.809532],[21.210669,68.822915],[21.164031,68.838271],[21.102304,68.85807],[21.092702,68.867468],[21.03509,68.878345],[20.985709,68.893663],[20.940443,68.903046],[20.899292,68.907489],[20.884203,68.913412],[20.869114,68.9218],[20.84991,68.93413],[20.860884,68.943003],[20.892433,68.947931],[20.89792,68.957291],[20.903407,68.969601],[20.878716,68.982887],[20.848539,68.998133],[20.821104,69.006489],[20.806016,69.017298],[20.788184,69.03301],[20.759378,69.042825],[20.723713,69.049692],[20.690793,69.055577],[20.663358,69.056558],[20.589286,69.058028],[20.537162,69.06048],[20.457603,69.06146],[20.399991,69.06195],[20.357468,69.06048],[20.284768,69.06195],[20.206581,69.059499],[20.154456,69.056558],[20.0869,69.050091],[20.095473,69.034759],[20.176918,68.988698],[20.264792,68.946391],[20.296942,68.933298],[20.314088,68.919426],[20.320518,68.879303],[20.303372,68.83369],[20.296942,68.794187],[20.277652,68.764707],[20.245503,68.754613],[20.232643,68.745291],[20.228357,68.728969],[20.228357,68.712634],[20.21764,68.704073],[20.189777,68.697845],[20.176918,68.683826],[20.172631,68.669017],[20.159771,68.65888],[20.123335,68.650298],[20.095473,68.641714],[20.08047,68.630783],[20.044034,68.614377],[20.007598,68.604996],[19.981878,68.594047],[19.960446,68.581528],[19.960446,68.569785],[19.949729,68.560386],[19.949729,68.554901],[19.975449,68.547064],[20.026887,68.533734],[20.089043,68.521181],[20.149055,68.506265],[20.179061,68.501553],[20.185491,68.494483],[20.174774,68.485052],[20.161915,68.470112],[20.142625,68.463032],[20.123335,68.457524],[20.0869,68.446503],[20.035461,68.414986],[19.981878,68.395266],[19.949729,68.381056],[19.906863,68.365258],[19.883287,68.363677],[19.756833,68.381056],[19.705394,68.39132],[19.638952,68.404734],[19.559651,68.419717],[19.495352,68.429962],[19.446056,68.437053],[19.360325,68.456737],[19.26602,68.469326],[19.167429,68.488982],[19.073124,68.501553],[19.017399,68.514902],[18.929524,68.525104],[18.873798,68.530596],[18.835219,68.530596],[18.813786,68.521966],[18.743058,68.517257],[18.683046,68.514902],[18.610174,68.518826],[18.565165,68.526674],[18.537302,68.539224],[18.496579,68.55255],[18.453714,68.568219],[18.412991,68.583876],[18.372269,68.586224],[18.337976,68.580745],[18.316543,68.576049],[18.277964,68.570568],[18.220095,68.561169],[18.187946,68.558819],[18.160083,68.554901],[18.121504,68.55255],[18.106501,68.544712],[18.102214,68.516472],[18.106501,68.42681],[18.108644,68.366838],[18.125791,68.317004],[18.13222,68.271822],[18.14508,68.236089],[18.149367,68.217803],[18.149367,68.197912],[18.121504,68.181986],[18.091498,68.150898],[18.052919,68.118171],[18.01434,68.088597],[17.992907,68.070194],[17.956471,68.034947],[17.922178,68.020512],[17.917892,68.002858],[17.909318,67.982779],[17.896482,67.97556],[17.899479,67.97231],[17.962901,67.964291],[18.010053,67.952226],[18.063635,67.94096],[18.119361,67.928077],[18.15151,67.918411],[18.190089,67.907128],[18.217952,67.89584],[18.269391,67.882125],[18.299397,67.875668],[18.363696,67.867595],[18.385128,67.865172],[18.427994,67.870017],[18.458,67.873247],[18.631607,67.86921],[18.923094,67.865172],[18.95953,67.871632],[18.987393,67.874054],[19.043118,67.873247],[19.092414,67.870017],[19.111703,67.863557],[19.143853,67.859519],[19.169572,67.86598],[19.203865,67.868403],[19.244587,67.866788],[19.390331,67.866788],[19.458916,67.858711],[19.482492,67.846591],[19.518928,67.844166],[19.570367,67.841741],[19.626093,67.830421],[19.666815,67.826377],[19.771836,67.819905],[19.810415,67.809384],[19.848995,67.800478],[19.889717,67.791568],[19.928296,67.781845],[19.975449,67.764819],[20.039747,67.755085],[20.091186,67.751027],[20.116906,67.750216],[20.146912,67.739663],[20.181204,67.735604],[20.209067,67.733167],[20.232643,67.734791],[20.260506,67.743723],[20.286225,67.751027],[20.316231,67.749404],[20.339808,67.740475],[20.363384,67.729918],[20.39339,67.715293],[20.412679,67.707164],[20.442685,67.701473],[20.479121,67.695779],[20.519844,67.686016],[20.609862,67.672992],[20.646298,67.654258],[20.744889,67.624904],[20.830621,67.593063],[20.918495,67.552179],[20.980651,67.528433],[21.047093,67.507124],[21.096388,67.503024],[21.147827,67.499743],[21.197123,67.494822],[21.227129,67.482513],[21.254992,67.483333],[21.272138,67.490719],[21.297858,67.494001],[21.375016,67.490719],[21.426455,67.487437],[21.462891,67.478408],[21.499327,67.47184],[21.576485,67.466912],[21.685793,67.46527],[21.705082,67.460341],[21.743662,67.458697],[21.769381,67.458697],[21.803674,67.448014],[21.82725,67.43897],[21.848683,67.427455],[21.863686,67.414288],[21.852969,67.3937],[21.878689,67.384636],[21.895835,67.374744],[21.913154,67.369833],[21.955847,67.378866],[21.966564,67.399467],[21.987996,67.408525],[22.009429,67.415934],[22.018002,67.430746],[22.033005,67.441437],[22.060868,67.461984],[22.067298,67.488258],[22.088731,67.499743],[22.11445,67.52024],[22.138027,67.546449],[22.198039,67.593063],[22.258051,67.634693],[22.300917,67.668106],[22.341639,67.699033],[22.384505,67.72342],[22.431657,67.75265],[22.468093,67.768874],[22.545251,67.789138],[22.63527,67.81505],[22.718858,67.83123],[22.76601,67.841741],[22.800303,67.85144],[22.823879,67.863557],[22.856028,67.890194],[22.903181,67.93935],[22.980339,67.987599],[23.021061,68.004463],[23.051067,68.015699],[23.07893,68.042161],[23.10465,68.055781],[23.115366,68.070994],[23.134656,68.080597],[23.158232,68.086997],[23.160375,68.095794],[23.175378,68.106985],[23.203241,68.119769],[23.211081,68.140207]]]}},
{"type":"Feature","id":"SWE:ADM2:SE-BD.pajala","properties":{"shapeName":"Pajala","shapeISO":"","shapeGroup":"SWE","shapeType":"ADM2","adm1ISO":"SE-BD","parentISO":"SE-BD","parentID":"SWE:ADM1:SE-BD","src_shape_id":"70781695B61999332123961"},"geometry":{"type":"Polygon","coordinates":[[[21.913154,67.369833],[21.910838,67.358247],[21.908695,67.344217],[21.882975,67.332656],[21.850826,67.312824],[21.837966,67.299594],[21.82082,67.292148],[21.80796,67.273939],[21.822963,67.25903],[21.844396,67.23665],[21.870116,67.220058],[21.908695,67.181023],[21.934414,67.156074],[21.97085,67.121101],[21.99657,67.097758],[22.024432,67.079401],[22.093018,66.994948],[22.118737,66.975675],[22.13374,66.956387],[22.150886,66.942121],[22.157316,66.924486],[22.142313,66.898431],[22.118737,66.879923],[22.101591,66.863086],[22.112307,66.849607],[22.144456,66.842022],[22.151956,66.84095],[22.168033,66.838651],[22.185179,66.833592],[22.213042,66.831062],[22.234475,66.827689],[22.260194,66.816723],[22.294487,66.809128],[22.324493,66.80744],[22.348069,66.802375],[22.375932,66.804907],[22.388791,66.813348],[22.414511,66.80744],[22.431657,66.793086],[22.442374,66.781259],[22.45952,66.777034],[22.510959,66.772808],[22.560254,66.763509],[22.592404,66.754205],[22.637413,66.744052],[22.690995,66.731355],[22.729574,66.722887],[22.774583,66.714416],[22.806733,66.704246],[22.845312,66.697464],[22.905324,66.682198],[22.937473,66.674562],[22.958906,66.666074],[22.982482,66.661829],[23.012488,66.662678],[23.028519,66.669027],[23.029635,66.669469],[23.093933,66.673713],[23.119653,66.677956],[23.141086,66.682198],[23.160375,66.689833],[23.188238,66.691529],[23.207528,66.679653],[23.22896,66.678805],[23.271826,66.684743],[23.314692,66.688984],[23.363988,66.687288],[23.39185,66.695769],[23.39828,66.708484],[23.38542,66.718652],[23.370417,66.733049],[23.366131,66.749975],[23.348985,66.764354],[23.344698,66.793086],[23.325408,66.806596],[23.316835,66.829376],[23.293259,66.856347],[23.273969,66.884131],[23.271826,66.910201],[23.25468,66.925326],[23.246107,66.94296],[23.226817,66.959743],[23.220387,66.970645],[23.246107,66.976514],[23.269683,66.97819],[23.336125,66.972322],[23.370417,66.962259],[23.389707,66.957226],[23.428286,66.95387],[23.473295,66.955548],[23.539737,66.955548],[23.599749,66.949675],[23.659761,66.940442],[23.694054,66.929526],[23.745493,66.924486],[23.861231,66.922806],[23.885129,66.922112],[23.860802,66.942054],[23.852572,66.954407],[23.814164,66.974267],[23.793588,66.990894],[23.733233,67.031073],[23.697569,67.05301],[23.668763,67.082406],[23.659161,67.100561],[23.635842,67.119768],[23.563142,67.15654],[23.554912,67.169317],[23.570001,67.184214],[23.591948,67.190065],[23.587833,67.203355],[23.563142,67.224605],[23.550797,67.232569],[23.541195,67.237877],[23.548053,67.256445],[23.576859,67.267049],[23.600178,67.271289],[23.645444,67.277648],[23.694826,67.286124],[23.723631,67.293009],[23.731862,67.305184],[23.741464,67.3237],[23.753809,67.33586],[23.749694,67.345901],[23.727747,67.357521],[23.714029,67.368608],[23.718145,67.37969],[23.734605,67.397621],[23.729118,67.41712],[23.735977,67.426599],[23.708543,67.433444],[23.664648,67.440286],[23.633099,67.443969],[23.605665,67.448178],[23.574116,67.450282],[23.548053,67.451334],[23.530221,67.448704],[23.508274,67.448178],[23.454777,67.45186],[23.425972,67.467109],[23.405396,67.474467],[23.386192,67.478671],[23.393051,67.494953],[23.412254,67.514371],[23.43283,67.522764],[23.457521,67.530104],[23.471238,67.539015],[23.458892,67.552637],[23.460264,67.561016],[23.495928,67.567298],[23.530221,67.567821],[23.542566,67.575148],[23.542566,67.591887],[23.541195,67.614361],[23.549425,67.626895],[23.535708,67.637857],[23.509645,67.647249],[23.493185,67.655594],[23.487698,67.670191],[23.483583,67.683217],[23.482211,67.698317],[23.478096,67.712888],[23.473981,67.731088],[23.468494,67.762775],[23.483583,67.777306],[23.484955,67.787161],[23.479468,67.797012],[23.469866,67.808413],[23.461636,67.816701],[23.457521,67.824468],[23.465751,67.84672],[23.473981,67.859648],[23.483583,67.869468],[23.495928,67.883933],[23.543938,67.893227],[23.564514,67.895291],[23.598806,67.898388],[23.623497,67.903033],[23.650931,67.92057],[23.648188,67.937579],[23.648188,67.952516],[23.639957,67.968987],[23.604293,67.979276],[23.550797,67.990074],[23.528849,68.000867],[23.456149,68.031676],[23.414998,68.043475],[23.394422,68.05168],[23.375218,68.061932],[23.364245,68.073716],[23.347784,68.094195],[23.324465,68.118746],[23.32035,68.132034],[23.309377,68.142761],[23.29566,68.148888],[23.273712,68.15042],[23.253137,68.143782],[23.236676,68.140207],[23.211081,68.140207],[23.203241,68.119769],[23.175378,68.106985],[23.160375,68.095794],[23.158232,68.086997],[23.134656,68.080597],[23.115366,68.070994],[23.10465,68.055781],[23.07893,68.042161],[23.051067,68.015699],[23.021061,68.004463],[22.980339,67.987599],[22.903181,67.93935],[22.856028,67.890194],[22.823879,67.863557],[22.800303,67.85144],[22.76601,67.841741],[22.718858,67.83123],[22.63527,67.81505],[22.545251,67.789138],[22.468093,67.768874],[22.431657,67.75265],[22.384505,67.72342],[22.341639,67.699033],[22.300917,67.668106],[22.258051,67.634693],[22.198039,67.593063],[22.138027,67.546449],[22.11445,67.52024],[22.088731,67.499743],[22.067298,67.488258],[22.060868,67.461984],[22.033005,67.441437],[22.018002,67.430746],[22.009429,67.415934],[21.987996,67.408525],[21.966564,67.399467],[21.955847,67.378866],[21.913154,67.369833]]]}},
{"type":"Feature","id":"SWE:ADM2:SE-BD.arjeplog","properties":{"shapeName":"Arjeplog","shapeISO":"","shapeGroup":"SWE","shapeType":"ADM2","adm1ISO":"SE-BD","parentISO":"SE-BD","parentID":"SWE:ADM1:SE-BD","src_shape_id":"70781695B22534233820232"},"geometry":{"type":"Polygon","coordinates":[[[19.011975,66.177426],[18.988769,66.196757],[18.854902,66.253072],[18.785058,66.278841],[18.735586,66.304583],[18.709394,66.327963],[18.738496,66.35132],[18.764687,66.387482],[18.753047,66.417771],[18.732675,66.438719],[18.715215,66.481723],[18.671562,66.521175],[18.601718,66.542036],[18.523144,66.566352],[18.4533,66.581392],[18.351445,66.601047],[18.185566,66.650693],[17.996406,66.677207],[17.900371,66.697937],[17.783965,66.710597],[17.725761,66.724401],[17.653007,66.726701],[17.620996,66.735898],[17.594804,66.758875],[17.548242,66.781832],[17.466758,66.826535],[17.32707,66.88944],[17.213574,66.944207],[17.102988,66.985201],[17.041875,67.005673],[16.95166,67.029534],[16.870175,67.055641],[16.736308,67.082854],[16.634453,67.117958],[16.526777,67.151881],[16.419101,67.188014],[16.404728,67.189325],[16.3983,67.161897],[16.394014,67.1261],[16.394014,67.093587],[16.387584,67.062701],[16.364007,67.047661],[16.338288,67.032612],[16.295422,67.019227],[16.224694,66.989084],[16.117529,66.953031],[16.059918,66.922168],[15.994076,66.883962],[15.958412,66.86349],[15.930977,66.835987],[15.896685,66.812774],[15.83633,66.772233],[15.797922,66.737044],[15.727965,66.697464],[15.679956,66.652385],[15.625087,66.615392],[15.60314,66.594695],[15.58668,66.579978],[15.533183,66.556523],[15.461854,66.527037],[15.420703,66.507906],[15.391898,66.490403],[15.378181,66.471244],[15.387782,66.456455],[15.396013,66.437818],[15.402871,66.41368],[15.419332,66.401053],[15.42619,66.385123],[15.428934,66.367533],[15.453624,66.353233],[15.460599,66.344138],[15.474584,66.342843],[15.508822,66.335092],[15.529013,66.331568],[15.539548,66.328396],[15.594567,66.320716],[15.637433,66.311246],[15.693158,66.308662],[15.744597,66.300049],[15.811039,66.275916],[15.886054,66.255212],[15.937493,66.239672],[15.986789,66.223259],[16.029654,66.203377],[16.081093,66.190402],[16.158252,66.168761],[16.226837,66.147969],[16.293279,66.119352],[16.355434,66.105466],[16.406873,66.09244],[16.460455,66.075062],[16.520468,66.060282],[16.559047,66.048973],[16.608342,66.043752],[16.679071,66.041141],[16.726223,66.041141],[16.786235,66.023728],[16.844104,66.003689],[16.938409,65.962689],[17.037,65.925996],[17.249186,65.840173],[17.35635,65.789244],[17.448511,65.7479],[17.564249,65.696789],[17.622118,65.678258],[17.660697,65.66413],[17.697133,65.65618],[17.750715,65.649111],[17.774291,65.643808],[17.82573,65.636736],[17.868596,65.628777],[17.909318,65.619047],[17.937181,65.618162],[17.98219,65.611083],[18.020769,65.59869],[18.046489,65.591605],[18.078638,65.594262],[18.112931,65.597804],[18.14508,65.590719],[18.150998,65.587295],[18.254449,65.585845],[18.270832,65.596846],[18.266736,65.612917],[18.250353,65.623907],[18.242162,65.638271],[18.26264,65.648406],[18.311789,65.645873],[18.39575,65.645028],[18.408037,65.653472],[18.42442,65.692277],[18.430563,65.725974],[18.451042,65.738599],[18.467424,65.767193],[18.477664,65.770555],[18.506333,65.782318],[18.504286,65.795755],[18.483807,65.799952],[18.461281,65.80331],[18.469472,65.814219],[18.457185,65.835186],[18.455137,65.860323],[18.440803,65.881251],[18.414181,65.902999],[18.414181,65.920551],[18.422372,65.937256],[18.440803,65.953116],[18.461281,65.978137],[18.496094,66.008131],[18.557529,66.032267],[18.582104,66.043079],[18.614869,66.048899],[18.655826,66.044742],[18.707022,66.038089],[18.745931,66.023115],[18.811462,66.025611],[18.823749,66.035594],[18.854466,66.051393],[18.88928,66.097901],[18.940476,66.131068],[18.991672,66.165848],[19.011975,66.177426]]]}},
{"type":"Feature","id":"SWE:ADM2:SE-BD.overtornea","properties":{"shapeName":"Övertorneå","shapeISO":"","shapeGroup":"SWE","shapeType":"ADM2","adm1ISO":"SE-BD","parentISO":"SE-BD","parentID":"SWE:ADM1:SE-BD","src_shape_id":"70781695B64947384355586"},"geometry":{"type":"Polygon","coordinates":[[[23.028519,66.669027],[23.03937,66.659625],[23.045516,66.650232],[23.038492,66.632829],[23.046009,66.610491],[23.050124,66.548336],[23.074815,66.498062],[23.087503,66.439223],[23.106793,66.407505],[23.121796,66.390343],[23.138942,66.376605],[23.177522,66.357702],[23.175378,66.349966],[23.151802,66.340506],[23.121796,66.331904],[23.126083,66.315551],[23.145372,66.297464],[23.168948,66.281951],[23.196811,66.262115],[23.211814,66.250033],[23.231104,66.235354],[23.237534,66.212023],[23.224206,66.169745],[23.222531,66.164431],[23.209671,66.134965],[23.205384,66.119352],[23.218244,66.101124],[23.25468,66.088965],[23.276113,66.081146],[23.308262,66.071585],[23.327552,66.057672],[23.335519,66.057133],[23.353271,66.055933],[23.38542,66.057672],[23.428286,66.072454],[23.471152,66.08549],[23.522591,66.094177],[23.55474,66.097651],[23.571887,66.103729],[23.606179,66.113278],[23.631899,66.115881],[23.676908,66.114146],[23.685481,66.105466],[23.713344,66.105466],[23.734777,66.109806],[23.758353,66.117617],[23.771212,66.126293],[23.758353,66.1367],[23.786215,66.150569],[23.833368,66.155768],[23.882978,66.168942],[23.860802,66.172675],[23.825138,66.176554],[23.788102,66.179324],[23.766154,66.195385],[23.727747,66.21918],[23.707171,66.225264],[23.692082,66.241296],[23.68248,66.261183],[23.663276,66.286572],[23.649559,66.303667],[23.638586,66.31469],[23.649559,66.343327],[23.65779,66.361484],[23.664648,66.373031],[23.679737,66.382375],[23.681109,66.395012],[23.670135,66.404348],[23.65779,66.417522],[23.649559,66.435076],[23.649559,66.451523],[23.671507,66.467958],[23.687967,66.475077],[23.704428,66.478909],[23.719516,66.484383],[23.712658,66.499703],[23.723631,66.506813],[23.763411,66.51064],[23.790845,66.519933],[23.797703,66.531407],[23.808677,66.543968],[23.852572,66.554886],[23.86766,66.572889],[23.881377,66.588155],[23.886864,66.606679],[23.877262,66.618114],[23.877262,66.646405],[23.878634,66.671948],[23.888236,66.690952],[23.901953,66.725665],[23.897838,66.74192],[23.882749,66.752209],[23.871776,66.764117],[23.877262,66.774938],[23.90744,66.779806],[23.919785,66.792782],[23.934874,66.793863],[23.966423,66.788458],[23.982884,66.787917],[23.993857,66.80251],[23.993857,66.816014],[23.989742,66.826812],[23.945848,66.869957],[23.919785,66.901727],[23.885129,66.922112],[23.861231,66.922806],[23.745493,66.924486],[23.694054,66.929526],[23.659761,66.940442],[23.599749,66.949675],[23.539737,66.955548],[23.473295,66.955548],[23.428286,66.95387],[23.389707,66.957226],[23.370417,66.962259],[23.336125,66.972322],[23.269683,66.97819],[23.246107,66.976514],[23.220387,66.970645],[23.226817,66.959743],[23.246107,66.94296],[23.25468,66.925326],[23.271826,66.910201],[23.273969,66.884131],[23.293259,66.856347],[23.316835,66.829376],[23.325408,66.806596],[23.344698,66.793086],[23.348985,66.764354],[23.366131,66.749975],[23.370417,66.733049],[23.38542,66.718652],[23.39828,66.708484],[23.39185,66.695769],[23.363988,66.687288],[23.314692,66.688984],[23.271826,66.684743],[23.22896,66.678805],[23.207528,66.679653],[23.188238,66.691529],[23.160375,66.689833],[23.141086,66.682198],[23.119653,66.677956],[23.093933,66.673713],[23.029635,66.669469],[23.028519,66.669027]]]}},
{"type":"Feature","id":"SWE:ADM2:SE-BD.haparanda","properties":{"shapeName":"Haparanda","shapeISO":"","shapeGroup":"SWE","shapeType":"ADM2","adm1ISO":"SE-BD","parentISO":"SE-BD","parentID":"SWE:ADM1:SE-BD","src_shape_id":"70781695B66074520393344"},"geometry":{"type":"Polygon","coordinates":[[[23.335519,66.057133],[23.332391,66.045705],[23.366531,66.025896],[23.417741,65.998137],[23.456759,65.966375],[23.507969,65.93358],[23.529916,65.919654],[23.556741,65.899746],[23.581127,65.879823],[23.598197,65.854898],[23.588442,65.825954],[23.571906,65.786788],[23.61801,65.78629],[23.694826,65.781789],[23.871776,65.771659],[23.926644,65.769407],[23.952706,65.775599],[23.985627,65.781227],[24.025406,65.789666],[24.063814,65.796977],[24.099478,65.798102],[24.124169,65.805974],[24.158462,65.808784],[24.168064,65.821709],[24.162577,65.840804],[24.147488,65.887919],[24.128284,65.904724],[24.131028,65.923757],[24.122797,65.936625],[24.102222,65.942217],[24.077531,65.953399],[24.059699,65.971278],[24.047354,65.988588],[24.052841,66.005885],[24.026778,66.023171],[24.007574,66.047685],[23.969167,66.078851],[23.951334,66.089417],[23.937617,66.109979],[23.938989,66.126639],[23.936246,66.13774],[23.928015,66.155491],[23.893723,66.167133],[23.882978,66.168942],[23.833368,66.155768],[23.786215,66.150569],[23.758353,66.1367],[23.771212,66.126293],[23.758353,66.117617],[23.734777,66.109806],[23.713344,66.105466],[23.685481,66.105466],[23.676908,66.114146],[23.631899,66.115881],[23.606179,66.113278],[23.571887,66.103729],[23.55474,66.097651],[23.522591,66.094177],[23.471152,66.08549],[23.428286,66.072454],[23.38542,66.057672],[23.353271,66.055933],[23.335519,66.057133]]]}},
{"type":"Feature","id":"SWE:ADM2:SE-BD.kalix","properties":{"shapeName":"Kalix","shapeISO":"","shapeGroup":"SWE","shapeType":"ADM2","adm1ISO":"SE-BD","parentISO":"SE-BD","parentID":"SWE:ADM1:SE-BD","src_shape_id":"70781695B60696857291405"},"geometry":{"type":"Polygon","coordinates":[[[23.224206,66.169745],[23.081119,66.176613],[22.989038,66.179765],[22.967188,66.17283],[22.957824,66.162741],[22.940656,66.155171],[22.911003,66.155171],[22.889153,66.166525],[22.875107,66.173461],[22.840772,66.176613],[22.793951,66.177874],[22.761176,66.184177],[22.72372,66.195518],[22.672217,66.208743],[22.620714,66.221331],[22.587939,66.229511],[22.553604,66.238316],[22.534876,66.24649],[22.494298,66.248376],[22.467766,66.240203],[22.449037,66.22259],[22.430309,66.210002],[22.400656,66.191108],[22.385049,66.184177],[22.350714,66.177243],[22.328864,66.152647],[22.317451,66.145724],[22.316378,66.145074],[22.328864,66.115391],[22.360078,66.093264],[22.424066,66.03818],[22.492737,65.983611],[22.528633,65.960098],[22.531754,65.941653],[22.533315,65.923195],[22.542679,65.905362],[22.552043,65.884965],[22.573893,65.863914],[22.581696,65.837096],[22.603546,65.812809],[22.625396,65.797457],[22.619678,65.781981],[22.624896,65.780664],[22.638613,65.767155],[22.65233,65.763777],[22.679764,65.768844],[22.694853,65.782352],[22.703083,65.805974],[22.681136,65.829012],[22.670162,65.854835],[22.675649,65.872784],[22.697596,65.873906],[22.733261,65.86942],[22.753836,65.862129],[22.774412,65.852591],[22.818306,65.829012],[22.836139,65.816091],[22.847112,65.8026],[22.881405,65.794166],[22.90198,65.783477],[22.936273,65.770533],[22.973309,65.758145],[23.024062,65.739553],[23.056983,65.730534],[23.073443,65.722639],[23.083045,65.711357],[23.107736,65.705714],[23.125568,65.71305],[23.154374,65.725459],[23.180436,65.735607],[23.201012,65.753076],[23.222959,65.766029],[23.254508,65.772785],[23.316235,65.772222],[23.336811,65.758709],[23.369732,65.752513],[23.406768,65.752513],[23.427343,65.756456],[23.431458,65.769407],[23.450662,65.779538],[23.473981,65.784603],[23.506902,65.784603],[23.565885,65.786853],[23.571906,65.786788],[23.588442,65.825954],[23.598197,65.854898],[23.581127,65.879823],[23.556741,65.899746],[23.529916,65.919654],[23.507969,65.93358],[23.456759,65.966375],[23.417741,65.998137],[23.366531,66.025896],[23.332391,66.045705],[23.335519,66.057133],[23.327552,66.057672],[23.308262,66.071585],[23.276113,66.081146],[23.25468,66.088965],[23.218244,66.101124],[23.205384,66.119352],[23.209671,66.134965],[23.222531,66.164431],[23.224206,66.169745]]]}},
{"type":"Feature","id":"SWE:ADM2:SE-BD.overkalix","properties":{"shapeName":"Överkalix","shapeISO":"","shapeGroup":"SWE","shapeType":"ADM2","adm1ISO":"SE-BD","parentISO":"SE-BD","parentID":"SWE:ADM1:SE-BD","src_shape_id":"70781695B62511504929607"},"geometry":{"type":"Polygon","coordinates":[[[22.151956,66.84095],[22.102563,66.813957],[22.076031,66.807812],[22.041696,66.791211],[22.032332,66.774599],[22.022968,66.746888],[21.98239,66.713593],[21.976147,66.701868],[21.966783,66.693224],[21.93869,66.68396],[21.937129,66.674693],[21.954297,66.66913],[21.991754,66.658002],[22.02765,66.642538],[22.054182,66.627064],[22.069788,66.609102],[22.091638,66.592367],[22.077592,66.534017],[22.063546,66.483626],[22.049499,66.459328],[22.015164,66.45247],[21.977707,66.4506],[21.951176,66.447482],[21.941812,66.442492],[21.942286,66.436611],[21.943372,66.423148],[21.966783,66.409411],[21.985511,66.396291],[21.999557,66.38504],[22.016725,66.365651],[22.067479,66.32703],[22.11186,66.292588],[22.157375,66.257954],[22.185342,66.235021],[22.2223,66.210858],[22.257259,66.187479],[22.277236,66.162059],[22.299211,66.150754],[22.317451,66.145724],[22.328864,66.152647],[22.350714,66.177243],[22.385049,66.184177],[22.400656,66.191108],[22.430309,66.210002],[22.449037,66.22259],[22.467766,66.240203],[22.494298,66.248376],[22.534876,66.24649],[22.553604,66.238316],[22.587939,66.229511],[22.620714,66.221331],[22.672217,66.208743],[22.72372,66.195518],[22.761176,66.184177],[22.793951,66.177874],[22.840772,66.176613],[22.875107,66.173461],[22.889153,66.166525],[22.911003,66.155171],[22.940656,66.155171],[22.957824,66.162741],[22.967188,66.17283],[22.989038,66.179765],[23.081119,66.176613],[23.224206,66.169745],[23.237534,66.212023],[23.231104,66.235354],[23.211814,66.250033],[23.196811,66.262115],[23.168948,66.281951],[23.145372,66.297464],[23.126083,66.315551],[23.121796,66.331904],[23.151802,66.340506],[23.175378,66.349966],[23.177522,66.357702],[23.138942,66.376605],[23.121796,66.390343],[23.106793,66.407505],[23.087503,66.439223],[23.074815,66.498062],[23.050124,66.548336],[23.046009,66.610491],[23.038492,66.632829],[23.045516,66.650232],[23.03937,66.659625],[23.028519,66.669027],[23.012488,66.662678],[22.982482,66.661829],[22.958906,66.666074],[22.937473,66.674562],[22.905324,66.682198],[22.845312,66.697464],[22.806733,66.704246],[22.774583,66.714416],[22.729574,66.722887],[22.690995,66.731355],[22.637413,66.744052],[22.592404,66.754205],[22.560254,66.763509],[22.510959,66.772808],[22.45952,66.777034],[22.442374,66.781259],[22.431657,66.793086],[22.414511,66.80744],[22.388791,66.813348],[22.375932,66.804907],[22.348069,66.802375],[22.324493,66.80744],[22.294487,66.809128],[22.260194,66.816723],[22.234475,66.827689],[22.213042,66.831062],[22.185179,66.833592],[22.168033,66.838651],[22.151956,66.84095]]]}},
{"type":"Feature","id":"SWE:ADM2:SE-BD.alvsbyn","properties":{"shapeName":"Älvsbyn","shapeISO":"","shapeGroup":"SWE","shapeType":"ADM2","adm1ISO":"SE-BD","parentISO":"SE-BD","parentID":"SWE:ADM1:SE-BD","src_shape_id":"70781695B9243274568958"},"geometry":{"type":"Polygon","coordinates":[[[21.324356,65.669321],[21.324073,65.669566],[21.318119,65.674719],[21.293733,65.692793],[21.204267,65.72784],[21.070907,65.787291],[20.919556,65.854978],[20.799383,65.892615],[20.68077,65.929562],[20.571521,65.958826],[20.462273,65.989327],[20.381116,66.009006],[20.322903,66.025465],[20.32181,66.024231],[20.29996,66.007102],[20.215683,65.953103],[20.172044,65.922906],[20.16418,65.917464],[20.103313,65.886878],[20.078342,65.863914],[20.078342,65.84029],[20.081463,65.814088],[20.114238,65.785298],[20.111019,65.731912],[20.132966,65.694801],[20.140282,65.663667],[20.152475,65.637526],[20.169545,65.624445],[20.179299,65.612365],[20.179593,65.610302],[20.214481,65.609164],[20.237046,65.610718],[20.259611,65.618999],[20.28343,65.622104],[20.337335,65.606576],[20.376197,65.608647],[20.40503,65.618999],[20.440131,65.621069],[20.461442,65.631416],[20.485261,65.635553],[20.515348,65.632967],[20.536659,65.627277],[20.559224,65.618999],[20.615637,65.595701],[20.694614,65.57653],[20.725954,65.563049],[20.778606,65.557863],[20.82499,65.549043],[20.852569,65.542816],[20.876388,65.53451],[20.893938,65.531395],[20.916503,65.53451],[20.9328,65.535029],[20.959126,65.529318],[20.990466,65.529318],[21.029328,65.544373],[21.058161,65.554231],[21.089502,65.562012],[21.134632,65.570827],[21.138393,65.579639],[21.125856,65.590003],[21.112067,65.603987],[21.152182,65.621586],[21.191044,65.635553],[21.224892,65.642793],[21.268768,65.657265],[21.324356,65.669321]]]}},
{"type":"Feature","id":"SWE:ADM2:SE-BD.pitea","properties":{"shapeName":"Piteå","shapeISO":"","shapeGroup":"SWE","shapeType":"ADM2","adm1ISO":"SE-BD","parentISO":"SE-BD","parentID":"SWE:ADM1:SE-BD","src_shape_id":"70781695B63326994968930"},"geometry":{"type":"Polygon","coordinates":[[[20.179593,65.610302],[20.181738,65.595242],[20.147597,65.566006],[20.106142,65.55289],[20.059808,65.540776],[20.02323,65.528657],[19.996405,65.519564],[19.942756,65.515522],[19.91837,65.519564],[19.872037,65.528657],[19.837897,65.534717],[19.803757,65.535727],[19.769617,65.539766],[19.740354,65.548852],[19.701336,65.546834],[19.652565,65.523606],[19.637933,65.505413],[19.630617,65.489231],[19.603793,65.480125],[19.601354,65.467977],[19.62574,65.459876],[19.667196,65.451772],[19.701336,65.438598],[19.737915,65.430488],[19.767178,65.422375],[19.794003,65.411215],[19.818388,65.403097],[19.852202,65.39228],[19.929234,65.386707],[19.979467,65.375546],[20.049794,65.365777],[20.089981,65.356004],[20.133516,65.350417],[20.237332,65.329458],[20.337798,65.309881],[20.394729,65.294489],[20.455009,65.28469],[20.515289,65.272085],[20.619105,65.255269],[20.736316,65.234234],[20.806643,65.218798],[21.004227,65.201948],[21.17502,65.182277],[21.231951,65.176654],[21.282185,65.159777],[21.332418,65.134442],[21.382651,65.118947],[21.44628,65.106263],[21.514504,65.08285],[21.534391,65.101696],[21.545364,65.132862],[21.579657,65.1369],[21.586516,65.155925],[21.578285,65.182999],[21.55771,65.199114],[21.543993,65.21177],[21.520674,65.226143],[21.539878,65.237637],[21.570055,65.240509],[21.605719,65.235913],[21.650986,65.21982],[21.668818,65.210619],[21.683907,65.206018],[21.707226,65.204292],[21.730545,65.203142],[21.738775,65.21292],[21.723686,65.227293],[21.700367,65.241084],[21.704482,65.259461],[21.672933,65.288722],[21.660588,65.305346],[21.634525,65.317378],[21.604348,65.324824],[21.582401,65.33284],[21.559082,65.338564],[21.524789,65.34772],[21.504213,65.353441],[21.495983,65.362592],[21.495983,65.376883],[21.516559,65.38774],[21.543993,65.39231],[21.581029,65.399163],[21.616693,65.411152],[21.649614,65.416288],[21.69488,65.418571],[21.782669,65.413435],[21.827936,65.410581],[21.848511,65.406585],[21.864972,65.405444],[21.901822,65.406466],[21.864362,65.429474],[21.852169,65.440625],[21.825345,65.455824],[21.79852,65.466965],[21.76438,65.476076],[21.722924,65.491255],[21.640012,65.522595],[21.554662,65.561971],[21.476627,65.591212],[21.435171,65.605316],[21.401031,65.617399],[21.364452,65.620419],[21.344943,65.63149],[21.342505,65.653616],[21.324356,65.669321],[21.268768,65.657265],[21.224892,65.642793],[21.191044,65.635553],[21.152182,65.621586],[21.112067,65.603987],[21.125856,65.590003],[21.138393,65.579639],[21.134632,65.570827],[21.089502,65.562012],[21.058161,65.554231],[21.029328,65.544373],[20.990466,65.529318],[20.959126,65.529318],[20.9328,65.535029],[20.916503,65.53451],[20.893938,65.531395],[20.876388,65.53451],[20.852569,65.542816],[20.82499,65.549043],[20.778606,65.557863],[20.725954,65.563049],[20.694614,65.57653],[20.615637,65.595701],[20.559224,65.618999],[20.536659,65.627277],[20.515348,65.632967],[20.485261,65.635553],[20.461442,65.631416],[20.440131,65.621069],[20.40503,65.618999],[20.376197,65.608647],[20.337335,65.606576],[20.28343,65.622104],[20.259611,65.618999],[20.237046,65.610718],[20.214481,65.609164],[20.179593,65.610302]]]}},
{"type":"Feature","id":"SWE:ADM2:SE-BD.lulea","properties":{"shapeName":"Luleå","shapeISO":"","shapeGroup":"SWE","shapeType":"ADM2","adm1ISO":"SE-BD","parentISO":"SE-BD","parentID":"SWE:ADM1:SE-BD","src_shape_id":"70781695B74672839302489"},"geometry":{"type":"Polygon","coordinates":[[[22.317451,66.145724],[22.299211,66.150754],[22.277236,66.162059],[22.257259,66.187479],[22.2223,66.210858],[22.185342,66.235021],[22.157375,66.257954],[22.11186,66.292588],[22.097467,66.289116],[22.066272,66.28577],[22.045475,66.282006],[22.041316,66.272385],[22.036116,66.263178],[22.017399,66.257736],[22.001802,66.24978],[21.985165,66.228413],[21.997643,66.214996],[22.01636,66.20409],[22.0122,66.193599],[21.997643,66.183104],[21.985165,66.175545],[21.95501,66.169664],[21.957089,66.16126],[21.971647,66.146126],[21.974766,66.133087],[21.996603,66.118357],[22.01636,66.110357],[22.019479,66.101512],[22.004921,66.092664],[21.989324,66.084235],[21.936293,66.065258],[21.918615,66.053866],[21.906137,66.036978],[21.869743,66.016276],[21.840628,66.002324],[21.822951,65.987942],[21.82711,65.976938],[21.842708,65.968046],[21.871823,65.965929],[21.900938,65.964235],[21.927974,65.959152],[21.95293,65.949831],[21.988284,65.918877],[22.002842,65.907843],[22.01636,65.898928],[22.01116,65.892133],[22.022599,65.884062],[22.035077,65.876839],[22.032997,65.868763],[22.008041,65.857707],[21.996603,65.8492],[21.984125,65.841541],[21.959169,65.83388],[21.934213,65.833454],[21.874943,65.816847],[21.854146,65.810456],[21.852066,65.799376],[21.871823,65.787011],[21.877022,65.772081],[21.866624,65.757141],[21.83023,65.751163],[21.803194,65.744329],[21.753282,65.727237],[21.744964,65.712271],[21.716888,65.698581],[21.686733,65.695158],[21.648259,65.688309],[21.618104,65.684884],[21.584829,65.688309],[21.562993,65.696014],[21.550515,65.705427],[21.534918,65.717831],[21.51932,65.728092],[21.493324,65.73322],[21.471488,65.731938],[21.45901,65.722107],[21.467328,65.709277],[21.464209,65.692162],[21.452771,65.690021],[21.405978,65.69259],[21.370624,65.693874],[21.338389,65.684028],[21.324073,65.669566],[21.324356,65.669321],[21.342505,65.653616],[21.344943,65.63149],[21.364452,65.620419],[21.401031,65.617399],[21.435171,65.605316],[21.476627,65.591212],[21.554662,65.561971],[21.640012,65.522595],[21.722924,65.491255],[21.76438,65.476076],[21.79852,65.466965],[21.825345,65.455824],[21.852169,65.440625],[21.864362,65.429474],[21.901822,65.406466],[21.906123,65.406585],[21.9363,65.414006],[21.969221,65.42941],[21.98431,65.433403],[21.999399,65.448226],[21.987053,65.461332],[21.969221,65.473862],[21.932185,65.487524],[21.918468,65.501179],[21.910238,65.517669],[21.923955,65.525058],[21.98431,65.522217],[22.047408,65.517669],[22.062497,65.51369],[22.084444,65.508572],[22.09679,65.508004],[22.12148,65.51369],[22.126967,65.538694],[22.147543,65.551186],[22.191437,65.549483],[22.246306,65.550051],[22.291572,65.544373],[22.327236,65.539262],[22.372502,65.53699],[22.391706,65.544941],[22.398565,65.562538],[22.380733,65.586361],[22.369759,65.601665],[22.372502,65.622055],[22.369759,65.678046],[22.356042,65.738426],[22.356042,65.758709],[22.361529,65.787416],[22.358785,65.799227],[22.35467,65.814405],[22.356042,65.834066],[22.3629,65.841927],[22.39445,65.849785],[22.453433,65.845295],[22.464407,65.83912],[22.474009,65.83182],[22.493212,65.822271],[22.526133,65.813281],[22.522018,65.796977],[22.538479,65.793041],[22.583745,65.790228],[22.607064,65.785165],[22.619678,65.781981],[22.625396,65.797457],[22.603546,65.812809],[22.581696,65.837096],[22.573893,65.863914],[22.552043,65.884965],[22.542679,65.905362],[22.533315,65.923195],[22.531754,65.941653],[22.528633,65.960098],[22.492737,65.983611],[22.424066,66.03818],[22.360078,66.093264],[22.328864,66.115391],[22.316378,66.145074],[22.317451,66.145724]]]}},
{"type":"Feature","id":"SWE:ADM2:SE-BD.boden","properties":{"shapeName":"Boden","shapeISO":"","shapeGroup":"SWE","shapeType":"ADM2","adm1ISO":"SE-BD","parentISO":"SE-BD","parentID":"SWE:ADM1:SE-BD","src_shape_id":"70781695B99694780009800"},"geometry":{"type":"Polygon","coordinates":[[[21.942286,66.436611],[21.916653,66.435879],[21.890683,66.439872],[21.847733,66.435081],[21.781809,66.424297],[21.692912,66.407912],[21.616001,66.401515],[21.490771,66.365651],[21.429904,66.342491],[21.362794,66.321816],[21.319094,66.310531],[21.28632,66.30426],[21.269152,66.292967],[21.233256,66.29485],[21.223318,66.296587],[21.19736,66.301124],[21.159903,66.323696],[21.103718,66.340612],[21.069383,66.359589],[21.013295,66.381093],[20.984032,66.397697],[20.952331,66.406483],[20.898682,66.395744],[20.864542,66.391838],[20.818209,66.38207],[20.769437,66.37523],[20.713349,66.361545],[20.674332,66.323382],[20.632876,66.293007],[20.588982,66.247865],[20.472691,66.154998],[20.358383,66.065499],[20.322903,66.025465],[20.381116,66.009006],[20.462273,65.989327],[20.571521,65.958826],[20.68077,65.929562],[20.799383,65.892615],[20.919556,65.854978],[21.070907,65.787291],[21.204267,65.72784],[21.293733,65.692793],[21.318119,65.674719],[21.324073,65.669566],[21.338389,65.684028],[21.370624,65.693874],[21.405978,65.69259],[21.452771,65.690021],[21.464209,65.692162],[21.467328,65.709277],[21.45901,65.722107],[21.471488,65.731938],[21.493324,65.73322],[21.51932,65.728092],[21.534918,65.717831],[21.550515,65.705427],[21.562993,65.696014],[21.584829,65.688309],[21.618104,65.684884],[21.648259,65.688309],[21.686733,65.695158],[21.716888,65.698581],[21.744964,65.712271],[21.753282,65.727237],[21.803194,65.744329],[21.83023,65.751163],[21.866624,65.757141],[21.877022,65.772081],[21.871823,65.787011],[21.852066,65.799376],[21.854146,65.810456],[21.874943,65.816847],[21.934213,65.833454],[21.959169,65.83388],[21.984125,65.841541],[21.996603,65.8492],[22.008041,65.857707],[22.032997,65.868763],[22.035077,65.876839],[22.022599,65.884062],[22.01116,65.892133],[22.01636,65.898928],[22.002842,65.907843],[21.988284,65.918877],[21.95293,65.949831],[21.927974,65.959152],[21.900938,65.964235],[21.871823,65.965929],[21.842708,65.968046],[21.82711,65.976938],[21.822951,65.987942],[21.840628,66.002324],[21.869743,66.016276],[21.906137,66.036978],[21.918615,66.053866],[21.936293,66.065258],[21.989324,66.084235],[22.004921,66.092664],[22.019479,66.101512],[22.01636,66.110357],[21.996603,66.118357],[21.974766,66.133087],[21.971647,66.146126],[21.957089,66.16126],[21.95501,66.169664],[21.985165,66.175545],[21.997643,66.183104],[22.0122,66.193599],[22.01636,66.20409],[21.997643,66.214996],[21.985165,66.228413],[22.001802,66.24978],[22.017399,66.257736],[22.036116,66.263178],[22.041316,66.272385],[22.045475,66.282006],[22.066272,66.28577],[22.097467,66.289116],[22.11186,66.292588],[22.067479,66.32703],[22.016725,66.365651],[21.999557,66.38504],[21.985511,66.396291],[21.966783,66.409411],[21.943372,66.423148],[21.942286,66.436611]]]}},
{"type":"Feature","id":"SWE:ADM2:SE-BD.gallivare","properties":{"shapeName":"Gällivare","shapeISO":"","shapeGroup":"SWE","shapeType":"ADM2","adm1ISO":"SE-BD","parentISO":"SE-BD","parentID":"SWE:ADM1:SE-BD","src_shape_id":"70781695B62555588892194"},"geometry":{"type":"Polygon","coordinates":[[[17.896482,67.97556],[17.823587,67.992419],[17.703563,68.030136],[17.645694,68.041359],[17.484947,68.074996],[17.399216,68.094195],[17.330631,68.11178],[17.281335,68.117372],[17.255615,68.117372],[17.236326,68.102989],[17.214893,68.090996],[17.189174,68.073395],[17.101299,68.040558],[17.002707,68.011687],[16.908403,67.978761],[16.820528,67.945789],[16.767985,67.923125],[16.796025,67.910075],[16.825825,67.901668],[16.885425,67.886248],[16.945025,67.862398],[16.997175,67.837117],[17.064225,67.82517],[17.133137,67.821655],[17.1648,67.81603],[17.205775,67.797034],[17.250475,67.782249],[17.30635,67.760407],[17.36595,67.74842],[17.4181,67.738544],[17.453487,67.732193],[17.548242,67.714719],[17.734492,67.673851],[17.874179,67.647304],[17.944023,67.629589],[17.993496,67.618511],[18.054609,67.604101],[18.112812,67.589682],[18.168105,67.566372],[18.229218,67.538592],[18.26123,67.51857],[18.331074,67.497418],[18.418379,67.460634],[18.461696,67.442066],[18.485536,67.436578],[18.57136,67.433834],[18.640496,67.433377],[18.704864,67.431089],[18.735856,67.425599],[18.778768,67.416445],[18.831216,67.396753],[18.901465,67.364506],[19.00041,67.327517],[19.070254,67.308439],[19.128457,67.284852],[19.177929,67.26574],[19.241953,67.239859],[19.300156,67.213951],[19.340898,67.193655],[19.393281,67.185757],[19.468945,67.178986],[19.530058,67.17447],[19.582441,67.164308],[19.655195,67.134926],[19.710488,67.113431],[19.75123,67.082854],[19.75705,67.059045],[19.75705,67.039753],[19.774511,67.006809],[19.815254,66.981788],[19.890918,66.95674],[20.027695,66.912274],[20.167382,66.871157],[20.353632,66.816226],[20.568984,66.754282],[20.711582,66.709447],[20.790156,66.682967],[20.86582,66.650693],[20.953125,66.618377],[20.976406,66.580236],[21.028789,66.522334],[21.072441,66.460811],[21.159746,66.388648],[21.200488,66.332636],[21.223318,66.296587],[21.233256,66.29485],[21.269152,66.292967],[21.28632,66.30426],[21.319094,66.310531],[21.362794,66.321816],[21.429904,66.342491],[21.490771,66.365651],[21.616001,66.401515],[21.692912,66.407912],[21.781809,66.424297],[21.847733,66.435081],[21.890683,66.439872],[21.916653,66.435879],[21.942286,66.436611],[21.941812,66.442492],[21.951176,66.447482],[21.977707,66.4506],[22.015164,66.45247],[22.049499,66.459328],[22.063546,66.483626],[22.077592,66.534017],[22.091638,66.592367],[22.069788,66.609102],[22.054182,66.627064],[22.02765,66.642538],[21.991754,66.658002],[21.954297,66.66913],[21.937129,66.674693],[21.93869,66.68396],[21.966783,66.693224],[21.976147,66.701868],[21.98239,66.713593],[22.022968,66.746888],[22.032332,66.774599],[22.041696,66.791211],[22.076031,66.807812],[22.102563,66.813957],[22.151956,66.84095],[22.144456,66.842022],[22.112307,66.849607],[22.101591,66.863086],[22.118737,66.879923],[22.142313,66.898431],[22.157316,66.924486],[22.150886,66.942121],[22.13374,66.956387],[22.118737,66.975675],[22.093018,66.994948],[22.024432,67.079401],[21.99657,67.097758],[21.97085,67.121101],[21.934414,67.156074],[21.908695,67.181023],[21.870116,67.220058],[21.844396,67.23665],[21.822963,67.25903],[21.80796,67.273939],[21.82082,67.292148],[21.837966,67.299594],[21.850826,67.312824],[21.882975,67.332656],[21.908695,67.344217],[21.910838,67.358247],[21.913154,67.369833],[21.895835,67.374744],[21.878689,67.384636],[21.852969,67.3937],[21.863686,67.414288],[21.848683,67.427455],[21.82725,67.43897],[21.803674,67.448014],[21.769381,67.458697],[21.743662,67.458697],[21.705082,67.460341],[21.685793,67.46527],[21.576485,67.466912],[21.499327,67.47184],[21.462891,67.478408],[21.426455,67.487437],[21.375016,67.490719],[21.297858,67.494001],[21.272138,67.490719],[21.254992,67.483333],[21.227129,67.482513],[21.197123,67.494822],[21.147827,67.499743],[21.096388,67.503024],[21.047093,67.507124],[20.980651,67.528433],[20.918495,67.552179],[20.830621,67.593063],[20.744889,67.624904],[20.646298,67.654258],[20.609862,67.672992],[20.519844,67.686016],[20.479121,67.695779],[20.442685,67.701473],[20.412679,67.707164],[20.39339,67.715293],[20.363384,67.729918],[20.339808,67.740475],[20.316231,67.749404],[20.286225,67.751027],[20.260506,67.743723],[20.232643,67.734791],[20.209067,67.733167],[20.181204,67.735604],[20.146912,67.739663],[20.116906,67.750216],[20.091186,67.751027],[20.039747,67.755085],[19.975449,67.764819],[19.928296,67.781845],[19.889717,67.791568],[19.848995,67.800478],[19.810415,67.809384],[19.771836,67.819905],[19.666815,67.826377],[19.626093,67.830421],[19.570367,67.841741],[19.518928,67.844166],[19.482492,67.846591],[19.458916,67.858711],[19.390331,67.866788],[19.244587,67.866788],[19.203865,67.868403],[19.169572,67.86598],[19.143853,67.859519],[19.111703,67.863557],[19.092414,67.870017],[19.043118,67.873247],[18.987393,67.874054],[18.95953,67.871632],[18.923094,67.865172],[18.631607,67.86921],[18.458,67.873247],[18.427994,67.870017],[18.385128,67.865172],[18.363696,67.867595],[18.299397,67.875668],[18.269391,67.882125],[18.217952,67.89584],[18.190089,67.907128],[18.15151,67.918411],[18.119361,67.928077],[18.063635,67.94096],[18.010053,67.952226],[17.962901,67.964291],[17.899479,67.97231],[17.896482,67.97556]]]}},
{"type":"Feature","id":"SWE:ADM2:SE-BD.jokkmokk","properties":{"shapeName":"Jokkmokk","shapeISO":"","shapeGroup":"SWE","shapeType":"ADM2","adm1ISO":"SE-BD","parentISO":"SE-BD","parentID":"SWE:ADM1:SE-BD","src_shape_id":"70781695B36834641182296"},"geometry":{"type":"Polygon","coordinates":[[[19.011975,66.177426],[19.035332,66.157968],[19.096445,66.125009],[19.134277,66.113228],[19.157558,66.107335],[19.212851,66.10262],[19.282695,66.097904],[19.329257,66.08493],[19.37,66.058963],[19.439843,66.051876],[19.509687,66.049514],[19.553339,66.049514],[19.602812,66.057782],[19.631914,66.051876],[19.669746,66.047151],[19.719218,66.044788],[19.768691,66.031787],[19.821074,66.030605],[19.885097,66.019962],[19.922929,66.002215],[19.981132,65.982087],[20.018964,65.960757],[20.042246,65.950085],[20.088808,65.942968],[20.172044,65.922906],[20.215683,65.953103],[20.29996,66.007102],[20.32181,66.024231],[20.322903,66.025465],[20.358383,66.065499],[20.472691,66.154998],[20.588982,66.247865],[20.632876,66.293007],[20.674332,66.323382],[20.713349,66.361545],[20.769437,66.37523],[20.818209,66.38207],[20.864542,66.391838],[20.898682,66.395744],[20.952331,66.406483],[20.984032,66.397697],[21.013295,66.381093],[21.069383,66.359589],[21.103718,66.340612],[21.159903,66.323696],[21.19736,66.301124],[21.223318,66.296587],[21.200488,66.332636],[21.159746,66.388648],[21.072441,66.460811],[21.028789,66.522334],[20.976406,66.580236],[20.953125,66.618377],[20.86582,66.650693],[20.790156,66.682967],[20.711582,66.709447],[20.568984,66.754282],[20.353632,66.816226],[20.167382,66.871157],[20.027695,66.912274],[19.890918,66.95674],[19.815254,66.981788],[19.774511,67.006809],[19.75705,67.039753],[19.75705,67.059045],[19.75123,67.082854],[19.710488,67.113431],[19.655195,67.134926],[19.582441,67.164308],[19.530058,67.17447],[19.468945,67.178986],[19.393281,67.185757],[19.340898,67.193655],[19.300156,67.213951],[19.241953,67.239859],[19.177929,67.26574],[19.128457,67.284852],[19.070254,67.308439],[19.00041,67.327517],[18.901465,67.364506],[18.831216,67.396753],[18.778768,67.416445],[18.735856,67.425599],[18.704864,67.431089],[18.640496,67.433377],[18.57136,67.433834],[18.485536,67.436578],[18.461696,67.442066],[18.418379,67.460634],[18.331074,67.497418],[18.26123,67.51857],[18.229218,67.538592],[18.168105,67.566372],[18.112812,67.589682],[18.054609,67.604101],[17.993496,67.618511],[17.944023,67.629589],[17.874179,67.647304],[17.734492,67.673851],[17.548242,67.714719],[17.453487,67.732193],[17.4181,67.738544],[17.36595,67.74842],[17.30635,67.760407],[17.250475,67.782249],[17.205775,67.797034],[17.1648,67.81603],[17.133137,67.821655],[17.064225,67.82517],[16.997175,67.837117],[16.945025,67.862398],[16.885425,67.886248],[16.825825,67.901668],[16.796025,67.910075],[16.767985,67.923125],[16.762659,67.920828],[16.741226,67.91277],[16.71765,67.900678],[16.694074,67.892614],[16.672641,67.859519],[16.646922,67.811812],[16.612629,67.754273],[16.578336,67.704725],[16.533327,67.646108],[16.477602,67.602865],[16.447596,67.580805],[16.406873,67.549723],[16.381154,67.543175],[16.338288,67.541537],[16.293279,67.541537],[16.258986,67.535805],[16.239697,67.529253],[16.171112,67.523518],[16.147535,67.51942],[16.134676,67.513683],[16.115386,67.494822],[16.10467,67.481692],[16.07895,67.457054],[16.081093,67.424164],[16.10467,67.410995],[16.166825,67.373094],[16.239697,67.326873],[16.295422,67.285528],[16.336145,67.257373],[16.372581,67.23582],[16.39187,67.213418],[16.404728,67.189325],[16.419101,67.188014],[16.526777,67.151881],[16.634453,67.117958],[16.736308,67.082854],[16.870175,67.055641],[16.95166,67.029534],[17.041875,67.005673],[17.102988,66.985201],[17.213574,66.944207],[17.32707,66.88944],[17.466758,66.826535],[17.548242,66.781832],[17.594804,66.758875],[17.620996,66.735898],[17.653007,66.726701],[17.725761,66.724401],[17.783965,66.710597],[17.900371,66.697937],[17.996406,66.677207],[18.185566,66.650693],[18.351445,66.601047],[18.4533,66.581392],[18.523144,66.566352],[18.601718,66.542036],[18.671562,66.521175],[18.715215,66.481723],[18.732675,66.438719],[18.753047,66.417771],[18.764687,66.387482],[18.738496,66.35132],[18.709394,66.327963],[18.735586,66.304583],[18.785058,66.278841],[18.854902,66.253072],[18.988769,66.196757],[19.011975,66.177426]]]}},
{"type":"Feature","id":"SWE:ADM2:SE-BD.arvidsjaur","properties":{"shapeName":"Arvidsjaur","shapeISO":"","shapeGroup":"SWE","shapeType":"ADM2","adm1ISO":"SE-BD","parentISO":"SE-BD","parentID":"SWE:ADM1:SE-BD","src_shape_id":"70781695B53013800846692"},"geometry":{"type":"Polygon","coordinates":[[[18.150998,65.587295],[18.166513,65.578316],[18.211522,65.552606],[18.250101,65.533972],[18.273295,65.525004],[18.282251,65.521542],[18.331546,65.509106],[18.357266,65.502885],[18.432281,65.502885],[18.449427,65.497553],[18.479433,65.485994],[18.496579,65.471762],[18.509439,65.458412],[18.537302,65.453961],[18.618747,65.45307],[18.672329,65.450399],[18.719481,65.442383],[18.734485,65.419213],[18.766634,65.404944],[18.792353,65.397807],[18.818073,65.38799],[18.865225,65.377276],[18.901661,65.366558],[18.938097,65.354048],[18.968103,65.348685],[18.998109,65.331695],[19.034545,65.318273],[19.075267,65.308427],[19.111703,65.307531],[19.133136,65.302159],[19.152426,65.292306],[19.182432,65.285138],[19.214581,65.277968],[19.242444,65.265416],[19.236014,65.254652],[19.225298,65.245679],[19.221011,65.230418],[19.240301,65.218742],[19.27245,65.209757],[19.302456,65.203465],[19.332462,65.185481],[19.354506,65.159497],[19.411764,65.170185],[19.446056,65.178284],[19.525358,65.200768],[19.562234,65.209722],[19.56608,65.210655],[19.624485,65.241248],[19.654625,65.263678],[19.681416,65.28469],[19.748394,65.312679],[19.765138,65.332254],[19.798627,65.349021],[19.852202,65.39228],[19.818388,65.403097],[19.794003,65.411215],[19.767178,65.422375],[19.737915,65.430488],[19.701336,65.438598],[19.667196,65.451772],[19.62574,65.459876],[19.601354,65.467977],[19.603793,65.480125],[19.630617,65.489231],[19.637933,65.505413],[19.652565,65.523606],[19.701336,65.546834],[19.740354,65.548852],[19.769617,65.539766],[19.803757,65.535727],[19.837897,65.534717],[19.872037,65.528657],[19.91837,65.519564],[19.942756,65.515522],[19.996405,65.519564],[20.02323,65.528657],[20.059808,65.540776],[20.106142,65.55289],[20.147597,65.566006],[20.181738,65.595242],[20.179593,65.610302],[20.179299,65.612365],[20.169545,65.624445],[20.152475,65.637526],[20.140282,65.663667],[20.132966,65.694801],[20.111019,65.731912],[20.114238,65.785298],[20.081463,65.814088],[20.078342,65.84029],[20.078342,65.863914],[20.103313,65.886878],[20.16418,65.917464],[20.172044,65.922906],[20.088808,65.942968],[20.042246,65.950085],[20.018964,65.960757],[19.981132,65.982087],[19.922929,66.002215],[19.885097,66.019962],[19.821074,66.030605],[19.768691,66.031787],[19.719218,66.044788],[19.669746,66.047151],[19.631914,66.051876],[19.602812,66.057782],[19.553339,66.049514],[19.509687,66.049514],[19.439843,66.051876],[19.37,66.058963],[19.329257,66.08493],[19.282695,66.097904],[19.212851,66.10262],[19.157558,66.107335],[19.134277,66.113228],[19.096445,66.125009],[19.035332,66.157968],[19.011975,66.177426],[18.991672,66.165848],[18.940476,66.131068],[18.88928,66.097901],[18.854466,66.051393],[18.823749,66.035594],[18.811462,66.025611],[18.745931,66.023115],[18.707022,66.038089],[18.655826,66.044742],[18.614869,66.048899],[18.582104,66.043079],[18.557529,66.032267],[18.496094,66.008131],[18.461281,65.978137],[18.440803,65.953116],[18.422372,65.937256],[18.414181,65.920551],[18.414181,65.902999],[18.440803,65.881251],[18.455137,65.860323],[18.457185,65.835186],[18.469472,65.814219],[18.461281,65.80331],[18.483807,65.799952],[18.504286,65.795755],[18.506333,65.782318],[18.477664,65.770555],[18.467424,65.767193],[18.451042,65.738599],[18.430563,65.725974],[18.42442,65.692277],[18.408037,65.653472],[18.39575,65.645028],[18.311789,65.645873],[18.26264,65.648406],[18.242162,65.638271],[18.250353,65.623907],[18.266736,65.612917],[18.270832,65.596846],[18.254449,65.585845],[18.150998,65.587295]]]}}
]}