{"type":"FeatureCollection","bbox":[14.418495,57.725295,16.914833,59.043481],"features":[
{"type":"Feature","id":"SWE:ADM2:SE-E.odeshog","properties":{"shapeName":"Ödeshög","shapeISO":"","shapeGroup":"SWE","shapeType":"ADM2","adm1ISO":"SE-E","parentISO":"SE-E","parentID":"SWE:ADM1:SE-E","src_shape_id":"70781695B38762641138003"},"geometry":{"type":"Polygon","coordinates":[[[14.948974,58.16242],[14.935957,58.173864],[14.905077,58.191501],[14.889636,58.219974],[14.89221,58.249778],[14.910224,58.267378],[14.917944,58.284969],[14.904317,58.299559],[14.897357,58.309311],[14.894783,58.336338],[14.89221,58.357945],[14.874196,58.364695],[14.849366,58.375112],[14.848462,58.375491],[14.812435,58.371443],[14.791848,58.366045],[14.760967,58.359295],[14.712072,58.359295],[14.706926,58.366045],[14.706926,58.37819],[14.693505,58.383662],[14.69298,58.383281],[14.544914,58.393869],[14.54458,58.393773],[14.490289,58.323191],[14.421942,58.209967],[14.418495,58.202184],[14.419363,58.202559],[14.443005,58.162672],[14.51866,58.146456],[14.542302,58.141465],[14.56221,58.129203],[14.602034,58.127585],[14.622302,58.124017],[14.672854,58.115408],[14.695912,58.123236],[14.720616,58.129324],[14.756849,58.118887],[14.77826,58.124976],[14.812846,58.114538],[14.847433,58.111928],[14.908371,58.112798],[14.921546,58.121497],[14.926487,58.139758],[14.92484,58.150189],[14.94131,58.15801],[14.948974,58.16242]]]}},
{"type":"Feature","id":"SWE:ADM2:SE-E.vadstena","properties":{"shapeName":"Vadstena","shapeISO":"","shapeGroup":"SWE","shapeType":"ADM2","adm1ISO":"SE-E","parentISO":"SE-E","parentID":"SWE:ADM1:SE-E","src_shape_id":"70781695B1956121953089"},"geometry":{"type":"Polygon","coordinates":[[[14.849366,58.375112],[14.860147,58.380101],[14.875958,58.386731],[14.906526,58.386731],[14.923391,58.375127],[14.959229,58.375679],[14.979256,58.384521],[15.0035,58.393914],[15.007716,58.418763],[15.023527,58.42925],[15.026258,58.44164],[15.026689,58.443595],[15.018256,58.45242],[15.009824,58.45628],[15.001392,58.467307],[15.015094,58.475024],[15.03723,58.499816],[15.018256,58.511931],[15.000413,58.517895],[15.001392,58.52043],[14.960769,58.534853],[14.721983,58.507693],[14.662897,58.523619],[14.545742,58.395459],[14.544914,58.393869],[14.69298,58.383281],[14.693505,58.383662],[14.706926,58.37819],[14.706926,58.366045],[14.712072,58.359295],[14.760967,58.359295],[14.791848,58.366045],[14.812435,58.371443],[14.848462,58.375491],[14.849366,58.375112]]]}},
{"type":"Feature","id":"SWE:ADM2:SE-E.boxholm","properties":{"shapeName":"Boxholm","shapeISO":"","shapeGroup":"SWE","shapeType":"ADM2","adm1ISO":"SE-E","parentISO":"SE-E","parentID":"SWE:ADM1:SE-E","src_shape_id":"70781695B81557548138278"},"geometry":{"type":"Polygon","coordinates":[[[15.084781,58.05683],[15.10436,58.056202],[15.14224,58.050102],[15.168592,58.043129],[15.204825,58.040514],[15.245999,58.033539],[15.269057,58.026563],[15.297056,58.015224],[15.311878,57.993407],[15.348112,57.982931],[15.389286,57.98555],[15.396563,57.993815],[15.400815,57.998644],[15.387639,58.011734],[15.385992,58.025691],[15.405756,58.037898],[15.390933,58.053588],[15.409049,58.07711],[15.415637,58.092782],[15.409572,58.096165],[15.385992,58.109318],[15.364581,58.124976],[15.339877,58.124976],[15.316819,58.138889],[15.300564,58.153706],[15.278939,58.171909],[15.282233,58.186672],[15.277292,58.206635],[15.26741,58.223985],[15.255881,58.236992],[15.242706,58.261259],[15.226236,58.272521],[15.204825,58.275985],[15.190003,58.288107],[15.168592,58.293301],[15.152122,58.29936],[15.125771,58.302821],[15.106007,58.313204],[15.08789,58.314069],[15.059892,58.319259],[15.031893,58.329638],[15.008836,58.333961],[14.972602,58.316664],[14.951192,58.314934],[14.921546,58.305417],[14.904317,58.299559],[14.917944,58.284969],[14.910224,58.267378],[14.89221,58.249778],[14.889636,58.219974],[14.905077,58.191501],[14.935957,58.173864],[14.948974,58.16242],[14.959427,58.168435],[14.982484,58.170172],[15.002248,58.163223],[15.008836,58.14932],[15.020365,58.142366],[15.031893,58.127585],[15.038481,58.118018],[15.05001,58.106707],[15.058245,58.093653],[15.061539,58.07798],[15.068127,58.067529],[15.084781,58.05683]]]}},
{"type":"Feature","id":"SWE:ADM2:SE-E.ydre","properties":{"shapeName":"Ydre","shapeISO":"","shapeGroup":"SWE","shapeType":"ADM2","adm1ISO":"SE-E","parentISO":"SE-E","parentID":"SWE:ADM1:SE-E","src_shape_id":"70781695B77319052576645"},"geometry":{"type":"Polygon","coordinates":[[[15.568644,57.823012],[15.550689,57.828045],[15.542454,57.848209],[15.557277,57.863105],[15.549042,57.881499],[15.524337,57.887628],[15.50128,57.898132],[15.483163,57.907759],[15.461753,57.913883],[15.435401,57.928753],[15.432107,57.940119],[15.448577,57.965463],[15.451871,57.977691],[15.438695,57.983804],[15.396563,57.993815],[15.389286,57.98555],[15.348112,57.982931],[15.311878,57.993407],[15.297056,58.015224],[15.269057,58.026563],[15.245999,58.033539],[15.204825,58.040514],[15.168592,58.043129],[15.14224,58.050102],[15.10436,58.056202],[15.084781,58.05683],[15.095203,58.043059],[15.106798,58.032458],[15.106798,58.018504],[15.087825,58.014037],[15.050932,58.012362],[15.036176,58.006219],[15.031959,57.983874],[15.028797,57.962632],[15.028385,57.955852],[15.027743,57.945294],[15.028599,57.928753],[15.05176,57.912352],[15.056907,57.902782],[15.064833,57.885877],[15.078009,57.880623],[15.084596,57.870989],[15.084596,57.858725],[15.096125,57.84032],[15.112595,57.818397],[15.112595,57.807869],[15.115889,57.786804],[15.127418,57.78417],[15.132359,57.776267],[15.133135,57.770882],[15.134006,57.764849],[15.138946,57.756063],[15.147181,57.746396],[15.160357,57.742001],[15.180121,57.740243],[15.191649,57.738485],[15.211413,57.736726],[15.249293,57.737606],[15.265763,57.734089],[15.298703,57.73321],[15.32176,57.736726],[15.344818,57.725295],[15.372816,57.725295],[15.384345,57.734089],[15.410696,57.738485],[15.455393,57.738485],[15.455393,57.758445],[15.47416,57.779575],[15.513778,57.780687],[15.536715,57.781798],[15.557567,57.797359],[15.565908,57.821798],[15.568644,57.823012]]]}},
{"type":"Feature","id":"SWE:ADM2:SE-E.kinda","properties":{"shapeName":"Kinda","shapeISO":"","shapeGroup":"SWE","shapeType":"ADM2","adm1ISO":"SE-E","parentISO":"SE-E","parentID":"SWE:ADM1:SE-E","src_shape_id":"70781695B68012298271842"},"geometry":{"type":"Polygon","coordinates":[[[16.07421,57.897313],[16.078863,57.907203],[16.072608,57.926031],[16.055926,57.934888],[16.049671,57.951489],[16.028819,57.957021],[16.030904,57.976929],[16.053841,57.983563],[16.083034,57.994616],[16.078863,58.012294],[16.053841,58.026651],[16.028819,58.037691],[16.003797,58.047624],[15.999626,58.056451],[16.016308,58.068584],[16.026734,58.072995],[16.030904,58.08843],[16.03149,58.088695],[16.018428,58.097134],[16.020075,58.104967],[16.031604,58.116278],[16.034898,58.126715],[16.020075,58.13715],[15.99043,58.144974],[15.982195,58.167566],[15.959137,58.179726],[15.929492,58.184936],[15.911375,58.195353],[15.896553,58.209238],[15.876789,58.219649],[15.850437,58.22572],[15.84181,58.22572],[15.805969,58.22572],[15.7895,58.222251],[15.77303,58.214444],[15.751619,58.211841],[15.736796,58.207503],[15.723621,58.194485],[15.695622,58.186672],[15.6808,58.191013],[15.662683,58.207503],[15.642919,58.214444],[15.618215,58.216179],[15.583628,58.218781],[15.573746,58.198825],[15.567159,58.172778],[15.550689,58.161485],[15.534219,58.145843],[15.540807,58.138889],[15.527631,58.118018],[15.512809,58.104097],[15.489751,58.099745],[15.451871,58.098875],[15.409572,58.096165],[15.415637,58.092782],[15.409049,58.07711],[15.390933,58.053588],[15.405756,58.037898],[15.385992,58.025691],[15.387639,58.011734],[15.400815,57.998644],[15.396563,57.993815],[15.438695,57.983804],[15.451871,57.977691],[15.448577,57.965463],[15.432107,57.940119],[15.435401,57.928753],[15.461753,57.913883],[15.483163,57.907759],[15.50128,57.898132],[15.524337,57.887628],[15.549042,57.881499],[15.557277,57.863105],[15.542454,57.848209],[15.550689,57.828045],[15.568644,57.823012],[15.59093,57.832901],[15.615952,57.840671],[15.622208,57.870625],[15.638889,57.881713],[15.682678,57.883931],[15.736893,57.887256],[15.774426,57.882822],[15.801534,57.862862],[15.822385,57.849549],[15.851578,57.841781],[15.880771,57.850658],[15.905793,57.849549],[15.918304,57.840671],[15.939156,57.834011],[15.964178,57.836231],[15.987115,57.849549],[15.995456,57.859534],[16.007967,57.866189],[16.028819,57.875061],[16.051756,57.883931],[16.072608,57.893906],[16.07421,57.897313]]]}},
{"type":"Feature","id":"SWE:ADM2:SE-E.valdemarsvik","properties":{"shapeName":"Valdemarsvik","shapeISO":"","shapeGroup":"SWE","shapeType":"ADM2","adm1ISO":"SE-E","parentISO":"SE-E","parentID":"SWE:ADM1:SE-E","src_shape_id":"70781695B36298278943399"},"geometry":{"type":"Polygon","coordinates":[[[16.760739,58.016855],[16.769089,58.020015],[16.801238,58.033634],[16.816241,58.056321],[16.807668,58.088058],[16.792665,58.099386],[16.792665,58.123163],[16.811955,58.132217],[16.844104,58.137874],[16.852677,58.159364],[16.869824,58.170669],[16.850534,58.184231],[16.826958,58.215855],[16.809811,58.245194],[16.794808,58.267747],[16.795351,58.2706],[16.759565,58.288107],[16.720037,58.289838],[16.69698,58.290704],[16.682157,58.306283],[16.662394,58.318395],[16.636042,58.330502],[16.62616,58.342606],[16.591574,58.356433],[16.558634,58.371119],[16.542165,58.378892],[16.502637,58.388389],[16.468051,58.395295],[16.4417,58.397884],[16.393937,58.402199],[16.356057,58.413415],[16.313236,58.419453],[16.285237,58.416866],[16.275356,58.403062],[16.288531,58.384936],[16.296766,58.368528],[16.27865,58.357297],[16.288525,58.34027],[16.290178,58.337419],[16.309942,58.326179],[16.324765,58.302821],[16.346175,58.295898],[16.372527,58.28551],[16.398878,58.279449],[16.423583,58.269922],[16.451581,58.259527],[16.46311,58.245661],[16.449934,58.23179],[16.453228,58.220516],[16.444994,58.212709],[16.421936,58.201428],[16.413701,58.173647],[16.414789,58.150103],[16.425004,58.150103],[16.445856,58.142399],[16.458367,58.134695],[16.481304,58.118178],[16.500071,58.118178],[16.516752,58.125887],[16.533434,58.131392],[16.556371,58.132493],[16.573052,58.125887],[16.585563,58.10496],[16.598074,58.095043],[16.60016,58.077406],[16.606415,58.065275],[16.618926,58.057554],[16.623097,58.033275],[16.639778,58.026651],[16.66063,58.016712],[16.714845,58.014503],[16.760739,58.016855]]]}},
{"type":"Feature","id":"SWE:ADM2:SE-E.linkoping","properties":{"shapeName":"Linköping","shapeISO":"","shapeGroup":"SWE","shapeType":"ADM2","adm1ISO":"SE-E","parentISO":"SE-E","parentID":"SWE:ADM1:SE-E","src_shape_id":"70781695B57213599568931"},"geometry":{"type":"Polygon","coordinates":[[[15.409572,58.096165],[15.451871,58.098875],[15.489751,58.099745],[15.512809,58.104097],[15.527631,58.118018],[15.540807,58.138889],[15.534219,58.145843],[15.550689,58.161485],[15.567159,58.172778],[15.573746,58.198825],[15.583628,58.218781],[15.618215,58.216179],[15.642919,58.214444],[15.662683,58.207503],[15.6808,58.191013],[15.695622,58.186672],[15.723621,58.194485],[15.736796,58.207503],[15.751619,58.211841],[15.77303,58.214444],[15.7895,58.222251],[15.805969,58.22572],[15.84181,58.22572],[15.838909,58.289838],[15.835615,58.302821],[15.824086,58.320124],[15.825733,58.333961],[15.840556,58.344335],[15.873495,58.352977],[15.899846,58.358161],[15.929492,58.371119],[15.967372,58.37371],[15.99043,58.379755],[16.026663,58.387526],[16.064543,58.394431],[16.067321,58.40098],[16.071131,58.409964],[16.067837,58.426353],[16.039839,58.443595],[16.032388,58.443967],[16.005253,58.445319],[15.983842,58.454798],[15.99043,58.465137],[15.988783,58.484943],[15.97396,58.496133],[15.947609,58.511621],[15.927845,58.532261],[15.8982,58.540858],[15.84879,58.543436],[15.792793,58.551171],[15.768089,58.57007],[15.751619,58.579515],[15.71868,58.592392],[15.689034,58.611269],[15.661036,58.627563],[15.641272,58.642993],[15.639661,58.658078],[15.623156,58.661843],[15.603392,58.66013],[15.586922,58.651563],[15.563865,58.648135],[15.542454,58.661843],[15.51775,58.6627],[15.502613,58.6627],[15.481516,58.6627],[15.458459,58.673833],[15.435401,58.675546],[15.417284,58.67212],[15.390933,58.646421],[15.402462,58.630993],[15.395874,58.6147],[15.410696,58.599257],[15.395874,58.582091],[15.384345,58.528822],[15.397521,58.506459],[15.395874,58.484943],[15.367875,58.47375],[15.341524,58.465998],[15.335556,58.458194],[15.331642,58.453075],[15.313525,58.443595],[15.300349,58.431526],[15.308584,58.423765],[15.354699,58.41514],[15.356346,58.394431],[15.369522,58.376301],[15.384345,58.367664],[15.385992,58.34952],[15.379404,58.334825],[15.366228,58.325314],[15.35964,58.308013],[15.381051,58.29936],[15.389286,58.283778],[15.385992,58.255194],[15.405756,58.239593],[15.404109,58.216179],[15.395874,58.197089],[15.374463,58.18754],[15.344818,58.171041],[15.318466,58.161485],[15.300564,58.153706],[15.316819,58.138889],[15.339877,58.124976],[15.364581,58.124976],[15.385992,58.109318],[15.409572,58.096165]]]}},
{"type":"Feature","id":"SWE:ADM2:SE-E.atvidaberg","properties":{"shapeName":"Åtvidaberg","shapeISO":"","shapeGroup":"SWE","shapeType":"ADM2","adm1ISO":"SE-E","parentISO":"SE-E","parentID":"SWE:ADM1:SE-E","src_shape_id":"70781695B49758831077864"},"geometry":{"type":"Polygon","coordinates":[[[16.414789,58.150103],[16.413701,58.173647],[16.421936,58.201428],[16.444994,58.212709],[16.453228,58.220516],[16.449934,58.23179],[16.46311,58.245661],[16.451581,58.259527],[16.423583,58.269922],[16.398878,58.279449],[16.372527,58.28551],[16.346175,58.295898],[16.324765,58.302821],[16.309942,58.326179],[16.290178,58.337419],[16.288525,58.34027],[16.22924,58.338284],[16.201242,58.344335],[16.193007,58.352113],[16.178184,58.363345],[16.165009,58.368528],[16.148539,58.378892],[16.110659,58.385799],[16.090895,58.393568],[16.067321,58.40098],[16.064543,58.394431],[16.026663,58.387526],[15.99043,58.379755],[15.967372,58.37371],[15.929492,58.371119],[15.899846,58.358161],[15.873495,58.352977],[15.840556,58.344335],[15.825733,58.333961],[15.824086,58.320124],[15.835615,58.302821],[15.838909,58.289838],[15.84181,58.22572],[15.850437,58.22572],[15.876789,58.219649],[15.896553,58.209238],[15.911375,58.195353],[15.929492,58.184936],[15.959137,58.179726],[15.982195,58.167566],[15.99043,58.144974],[16.020075,58.13715],[16.034898,58.126715],[16.031604,58.116278],[16.020075,58.104967],[16.018428,58.097134],[16.03149,58.088695],[16.0455,58.095043],[16.083034,58.097247],[16.103885,58.097247],[16.130993,58.103858],[16.147674,58.099451],[16.164356,58.089532],[16.185208,58.097247],[16.193548,58.109367],[16.185208,58.125887],[16.195634,58.133594],[16.222741,58.140198],[16.235252,58.149002],[16.251934,58.157804],[16.2707,58.165504],[16.291552,58.165504],[16.306148,58.160004],[16.32283,58.152303],[16.333256,58.146801],[16.343682,58.142399],[16.364534,58.144601],[16.397897,58.150103],[16.414789,58.150103]]]}},
{"type":"Feature","id":"SWE:ADM2:SE-E.mjolby","properties":{"shapeName":"Mjölby","shapeISO":"","shapeGroup":"SWE","shapeType":"ADM2","adm1ISO":"SE-E","parentISO":"SE-E","parentID":"SWE:ADM1:SE-E","src_shape_id":"70781695B90308748952791"},"geometry":{"type":"Polygon","coordinates":[[[14.904317,58.299559],[14.921546,58.305417],[14.951192,58.314934],[14.972602,58.316664],[15.008836,58.333961],[15.031893,58.329638],[15.059892,58.319259],[15.08789,58.314069],[15.106007,58.313204],[15.125771,58.302821],[15.152122,58.29936],[15.168592,58.293301],[15.190003,58.288107],[15.204825,58.275985],[15.226236,58.272521],[15.242706,58.261259],[15.255881,58.236992],[15.26741,58.223985],[15.277292,58.206635],[15.282233,58.186672],[15.278939,58.171909],[15.300564,58.153706],[15.318466,58.161485],[15.344818,58.171041],[15.374463,58.18754],[15.395874,58.197089],[15.404109,58.216179],[15.405756,58.239593],[15.385992,58.255194],[15.389286,58.283778],[15.381051,58.29936],[15.35964,58.308013],[15.366228,58.325314],[15.379404,58.334825],[15.385992,58.34952],[15.384345,58.367664],[15.369522,58.376301],[15.356346,58.394431],[15.354699,58.41514],[15.308584,58.423765],[15.300349,58.431526],[15.313525,58.443595],[15.331642,58.453075],[15.335556,58.458194],[15.292115,58.468582],[15.273998,58.48236],[15.252587,58.490969],[15.199884,58.49269],[15.166945,58.485804],[15.155416,58.472027],[15.137299,58.459106],[15.099419,58.456522],[15.079656,58.448766],[15.046716,58.444457],[15.026258,58.44164],[15.023527,58.42925],[15.007716,58.418763],[15.0035,58.393914],[14.979256,58.384521],[14.959229,58.375679],[14.923391,58.375127],[14.906526,58.386731],[14.875958,58.386731],[14.860147,58.380101],[14.849366,58.375112],[14.874196,58.364695],[14.89221,58.357945],[14.894783,58.336338],[14.897357,58.309311],[14.904317,58.299559]]]}},
{"type":"Feature","id":"SWE:ADM2:SE-E.motala","properties":{"shapeName":"Motala","shapeISO":"","shapeGroup":"SWE","shapeType":"ADM2","adm1ISO":"SE-E","parentISO":"SE-E","parentID":"SWE:ADM1:SE-E","src_shape_id":"70781695B67213820771723"},"geometry":{"type":"Polygon","coordinates":[[[15.026258,58.44164],[15.046716,58.444457],[15.079656,58.448766],[15.099419,58.456522],[15.137299,58.459106],[15.155416,58.472027],[15.166945,58.485804],[15.199884,58.49269],[15.252587,58.490969],[15.273998,58.48236],[15.292115,58.468582],[15.335556,58.458194],[15.341524,58.465998],[15.367875,58.47375],[15.395874,58.484943],[15.397521,58.506459],[15.384345,58.528822],[15.395874,58.582091],[15.410696,58.599257],[15.395874,58.6147],[15.402462,58.630993],[15.390933,58.646421],[15.417284,58.67212],[15.435401,58.675546],[15.458459,58.673833],[15.481516,58.6627],[15.502613,58.6627],[15.504677,58.704538],[15.509823,58.721912],[15.530411,58.743283],[15.512397,58.761971],[15.504677,58.772646],[15.481516,58.788652],[15.466076,58.805983],[15.455782,58.817977],[15.448062,58.829966],[15.450012,58.853172],[15.432502,58.856527],[15.405097,58.866338],[15.374529,58.870153],[15.355113,58.877178],[15.353448,58.877781],[15.303952,58.881873],[15.267925,58.871232],[15.234471,58.853933],[15.19587,58.84062],[15.164989,58.835294],[15.141829,58.817977],[15.141829,58.807316],[15.131535,58.792652],[15.113521,58.785985],[15.095508,58.767309],[15.080067,58.744618],[15.059365,58.735841],[15.041446,58.725445],[15.027743,58.717236],[15.01404,58.710668],[14.987689,58.714499],[14.959229,58.717784],[14.958265,58.715495],[14.901959,58.687007],[14.824383,58.671645],[14.78438,58.656515],[14.662897,58.523619],[14.721983,58.507693],[14.960769,58.534853],[15.001392,58.52043],[15.000413,58.517895],[15.018256,58.511931],[15.03723,58.499816],[15.015094,58.475024],[15.001392,58.467307],[15.009824,58.45628],[15.018256,58.45242],[15.026689,58.443595],[15.026258,58.44164]]]}},
{"type":"Feature","id":"SWE:ADM2:SE-E.finspang","properties":{"shapeName":"Finspång","shapeISO":"","shapeGroup":"SWE","shapeType":"ADM2","adm1ISO":"SE-E","parentISO":"SE-E","parentID":"SWE:ADM1:SE-E","src_shape_id":"70781695B24148973800204"},"geometry":{"type":"Polygon","coordinates":[[[15.639661,58.658078],[15.672828,58.661912],[15.689693,58.672326],[15.718153,58.672874],[15.76664,58.676162],[15.797207,58.670134],[15.824613,58.658622],[15.853073,58.651494],[15.901559,58.644913],[15.9511,58.642171],[15.985884,58.649301],[15.991155,58.657526],[15.986938,58.665201],[15.976398,58.675066],[15.975344,58.686024],[15.985884,58.694241],[16.008019,58.705193],[16.016452,58.711215],[16.022776,58.739123],[16.041749,58.749514],[16.04702,58.760995],[16.055452,58.776298],[16.063885,58.782854],[16.088128,58.789956],[16.101831,58.798693],[16.103939,58.81125],[16.101831,58.822711],[16.110263,58.836896],[16.126074,58.842896],[16.149264,58.846168],[16.159804,58.854891],[16.181939,58.861433],[16.198934,58.865795],[16.173243,58.892351],[16.141951,58.905113],[16.112306,58.919569],[16.100777,58.940819],[16.067837,58.953562],[16.02831,58.962055],[16.003018,58.974326],[16.000312,58.975639],[15.950903,58.985824],[15.921257,58.997702],[15.911375,59.014664],[15.880083,59.031618],[15.852084,59.043481],[15.822439,59.033313],[15.812557,59.01636],[15.79444,58.991764],[15.781265,58.987521],[15.766442,58.990915],[15.746678,59.004488],[15.721974,59.007881],[15.684093,59.011273],[15.679583,59.010344],[15.651154,59.004488],[15.621509,58.996006],[15.605039,58.984127],[15.600983,58.977855],[15.59351,58.966301],[15.600098,58.947616],[15.616568,58.93657],[15.583628,58.917869],[15.578687,58.893202],[15.529278,58.890649],[15.48481,58.890649],[15.469394,58.857617],[15.460962,58.851075],[15.450012,58.853172],[15.448062,58.829966],[15.455782,58.817977],[15.466076,58.805983],[15.481516,58.788652],[15.504677,58.772646],[15.512397,58.761971],[15.530411,58.743283],[15.509823,58.721912],[15.504677,58.704538],[15.502613,58.6627],[15.51775,58.6627],[15.542454,58.661843],[15.563865,58.648135],[15.586922,58.651563],[15.603392,58.66013],[15.623156,58.661843],[15.639661,58.658078]]]}},
{"type":"Feature","id":"SWE:ADM2:SE-E.norrkoping","properties":{"shapeName":"Norrköping","shapeISO":"","shapeGroup":"SWE","shapeType":"ADM2","adm1ISO":"SE-E","parentISO":"SE-E","parentID":"SWE:ADM1:SE-E","src_shape_id":"70781695B31876776123918"},"geometry":{"type":"Polygon","coordinates":[[[16.032388,58.443967],[16.039839,58.454798],[16.062897,58.481499],[16.085954,58.488387],[16.100777,58.505599],[16.1156,58.527102],[16.138657,58.542577],[16.17489,58.553748],[16.202889,58.546874],[16.240769,58.542577],[16.26218,58.547733],[16.30006,58.542577],[16.336293,58.539998],[16.356057,58.528822],[16.367586,58.517642],[16.384056,58.50732],[16.413701,58.497854],[16.443347,58.501297],[16.474639,58.499576],[16.520754,58.495273],[16.542165,58.489247],[16.556987,58.481499],[16.581692,58.470305],[16.634395,58.465137],[16.662394,58.463414],[16.685451,58.453075],[16.70079,58.445048],[16.709077,58.44765],[16.747656,58.44765],[16.781949,58.448772],[16.809811,58.457743],[16.841961,58.463348],[16.865537,58.476798],[16.906259,58.489123],[16.914833,58.505922],[16.895543,58.521594],[16.86125,58.548444],[16.829101,58.574156],[16.792665,58.592031],[16.745513,58.605432],[16.69836,58.617711],[16.644778,58.623291],[16.612629,58.623291],[16.591196,58.627755],[16.56762,58.637795],[16.533327,58.638911],[16.471172,58.634449],[16.430449,58.625523],[16.421876,58.615479],[16.406873,58.609897],[16.351148,58.611014],[16.321142,58.61213],[16.286849,58.617711],[16.256843,58.621059],[16.24184,58.640026],[16.24184,58.6679],[16.265416,58.676815],[16.284706,58.683499],[16.321142,58.685727],[16.374724,58.685727],[16.436879,58.684613],[16.473315,58.676815],[16.526897,58.671243],[16.563333,58.665671],[16.606199,58.656753],[16.651208,58.651178],[16.726223,58.648948],[16.755342,58.64516],[16.754624,58.654133],[16.739801,58.67212],[16.711803,58.687531],[16.667334,58.699512],[16.640983,58.707212],[16.608044,58.717476],[16.583339,58.729446],[16.528989,58.728592],[16.50099,58.721751],[16.443347,58.726027],[16.397231,58.731156],[16.377468,58.741413],[16.379115,58.775581],[16.356057,58.792652],[16.309942,58.808862],[16.303354,58.829327],[16.296221,58.839293],[16.286884,58.852336],[16.247357,58.861705],[16.199595,58.865112],[16.198934,58.865795],[16.181939,58.861433],[16.159804,58.854891],[16.149264,58.846168],[16.126074,58.842896],[16.110263,58.836896],[16.101831,58.822711],[16.103939,58.81125],[16.101831,58.798693],[16.088128,58.789956],[16.063885,58.782854],[16.055452,58.776298],[16.04702,58.760995],[16.041749,58.749514],[16.022776,58.739123],[16.016452,58.711215],[16.008019,58.705193],[15.985884,58.694241],[15.975344,58.686024],[15.976398,58.675066],[15.986938,58.665201],[15.991155,58.657526],[15.985884,58.649301],[15.9511,58.642171],[15.901559,58.644913],[15.853073,58.651494],[15.824613,58.658622],[15.797207,58.670134],[15.76664,58.676162],[15.718153,58.672874],[15.689693,58.672326],[15.672828,58.661912],[15.639661,58.658078],[15.641272,58.642993],[15.661036,58.627563],[15.689034,58.611269],[15.71868,58.592392],[15.751619,58.579515],[15.768089,58.57007],[15.792793,58.551171],[15.84879,58.543436],[15.8982,58.540858],[15.927845,58.532261],[15.947609,58.511621],[15.97396,58.496133],[15.988783,58.484943],[15.99043,58.465137],[15.983842,58.454798],[16.005253,58.445319],[16.032388,58.443967]]]}},
{"type":"Feature","id":"SWE:ADM2:SE-E.soderkoping","properties":{"shapeName":"Söderköping","shapeISO":"","shapeGroup":"SWE","shapeType":"ADM2","adm1ISO":"SE-E","parentISO":"SE-E","parentID":"SWE:ADM1:SE-E","src_shape_id":"70781695B48628112229025"},"geometry":{"type":"MultiPolygon","coordinates":[[[[16.832031,58.400473],[16.823797,58.384936],[16.823797,58.367664],[16.86003,58.346063],[16.8765,58.332232],[16.901204,58.330502],[16.91438,58.341741],[16.896263,58.352977],[16.879794,58.362481],[16.858383,58.379755],[16.856736,58.395295],[16.848501,58.39961],[16.832031,58.400473]]],[[[16.795351,58.2706],[16.801238,58.301549],[16.803382,58.326316],[16.786235,58.344318],[16.775519,58.36231],[16.762659,58.371303],[16.734796,58.381418],[16.691931,58.406129],[16.683357,58.430823],[16.69836,58.444286],[16.70079,58.445048],[16.685451,58.453075],[16.662394,58.463414],[16.634395,58.465137],[16.581692,58.470305],[16.556987,58.481499],[16.542165,58.489247],[16.520754,58.495273],[16.474639,58.499576],[16.443347,58.501297],[16.413701,58.497854],[16.384056,58.50732],[16.367586,58.517642],[16.356057,58.528822],[16.336293,58.539998],[16.30006,58.542577],[16.26218,58.547733],[16.240769,58.542577],[16.202889,58.546874],[16.17489,58.553748],[16.138657,58.542577],[16.1156,58.527102],[16.100777,58.505599],[16.085954,58.488387],[16.062897,58.481499],[16.039839,58.454798],[16.032388,58.443967],[16.039839,58.443595],[16.067837,58.426353],[16.071131,58.409964],[16.067321,58.40098],[16.090895,58.393568],[16.110659,58.385799],[16.148539,58.378892],[16.165009,58.368528],[16.178184,58.363345],[16.193007,58.352113],[16.201242,58.344335],[16.22924,58.338284],[16.288525,58.34027],[16.27865,58.357297],[16.296766,58.368528],[16.288531,58.384936],[16.275356,58.403062],[16.285237,58.416866],[16.313236,58.419453],[16.356057,58.413415],[16.393937,58.402199],[16.4417,58.397884],[16.468051,58.395295],[16.502637,58.388389],[16.542165,58.378892],[16.558634,58.371119],[16.591574,58.356433],[16.62616,58.342606],[16.636042,58.330502],[16.662394,58.318395],[16.682157,58.306283],[16.69698,58.290704],[16.720037,58.289838],[16.759565,58.288107],[16.795351,58.2706]]]]}}
]}