{"type":"FeatureCollection","bbox":[13.124925,56.901841,15.668082,58.202559],"features":[
{"type":"Feature","id":"SWE:ADM2:SE-F.vetlanda","properties":{"shapeName":"Vetlanda","shapeISO":"","shapeGroup":"SWE","shapeType":"ADM2","adm1ISO":"SE-F","parentISO":"SE-F","parentID":"SWE:ADM1:SE-F","src_shape_id":"70781695B55162633112415"},"geometry":{"type":"Polygon","coordinates":[[[15.551503,57.232319],[15.549226,57.239711],[15.540885,57.260016],[15.513778,57.274674],[15.488756,57.285945],[15.484585,57.300592],[15.492926,57.315233],[15.490841,57.327618],[15.515863,57.335496],[15.53046,57.352374],[15.53046,57.372616],[15.526289,57.400712],[15.536715,57.410822],[15.522119,57.433277],[15.499182,57.446743],[15.509608,57.469177],[15.526289,57.48263],[15.559652,57.490475],[15.582589,57.487113],[15.601356,57.477025],[15.613867,57.465812],[15.636804,57.47254],[15.640974,57.483751],[15.645145,57.511762],[15.663911,57.52296],[15.661826,57.533036],[15.640974,57.550941],[15.628463,57.572192],[15.615952,57.585607],[15.616823,57.58623],[15.594745,57.580006],[15.527837,57.580006],[15.525264,57.566207],[15.504677,57.553783],[15.48409,57.533067],[15.406888,57.527541],[15.368287,57.520632],[15.33226,57.537211],[15.296232,57.538593],[15.267925,57.54826],[15.239617,57.552402],[15.213884,57.544117],[15.175283,57.537211],[15.123815,57.538593],[15.090361,57.54826],[15.049187,57.564826],[15.020879,57.567587],[14.987425,57.574487],[14.979705,57.585524],[14.959118,57.600695],[14.920517,57.611724],[14.89221,57.619994],[14.885209,57.620462],[14.877078,57.610787],[14.875431,57.585193],[14.877078,57.555164],[14.873784,57.515381],[14.865549,57.498571],[14.854021,57.483523],[14.847433,57.461384],[14.8412,57.430228],[14.845786,57.405532],[14.857315,57.382458],[14.845786,57.337154],[14.839198,57.308699],[14.814493,57.291794],[14.804612,57.276662],[14.812846,57.263304],[14.811847,57.248707],[14.831814,57.247001],[14.869087,57.226083],[14.900838,57.210387],[14.918784,57.196928],[14.920165,57.181967],[14.931208,57.166042],[14.967432,57.16221],[15.004539,57.16221],[15.02486,57.167958],[15.038112,57.185678],[15.059316,57.193338],[15.076986,57.201474],[15.101561,57.213262],[15.107909,57.216307],[15.12823,57.217743],[15.156502,57.210088],[15.171521,57.215829],[15.16622,57.240697],[15.157385,57.250257],[15.176822,57.255037],[15.192725,57.245956],[15.214813,57.236394],[15.228949,57.236394],[15.243085,57.245],[15.263406,57.247868],[15.288144,57.24739],[15.335853,57.24739],[15.381795,57.248824],[15.402116,57.251213],[15.417135,57.248346],[15.45297,57.244445],[15.464844,57.236796],[15.485766,57.232818],[15.525347,57.231594],[15.547399,57.230675],[15.551548,57.232172],[15.551503,57.232319]]]}},
{"type":"Feature","id":"SWE:ADM2:SE-F.varnamo","properties":{"shapeName":"Värnamo","shapeISO":"","shapeGroup":"SWE","shapeType":"ADM2","adm1ISO":"SE-F","parentISO":"SE-F","parentID":"SWE:ADM1:SE-F","src_shape_id":"70781695B84556885124155"},"geometry":{"type":"Polygon","coordinates":[[[14.326987,56.90203],[14.348648,56.911639],[14.369355,56.921435],[14.376258,56.933489],[14.392823,56.94855],[14.401106,56.956831],[14.420433,56.97113],[14.424574,56.983167],[14.405248,57.004223],[14.396965,57.014746],[14.390062,57.028272],[14.374877,57.04029],[14.365214,57.053056],[14.374877,57.074822],[14.390062,57.089826],[14.391443,57.105574],[14.387302,57.116818],[14.372116,57.137049],[14.388682,57.152776],[14.387302,57.169994],[14.403867,57.172988],[14.41724,57.173824],[14.416133,57.193043],[14.434146,57.206984],[14.45216,57.225098],[14.454733,57.245988],[14.457307,57.264084],[14.472747,57.28217],[14.477894,57.300248],[14.462454,57.318316],[14.439293,57.332209],[14.426426,57.354427],[14.423853,57.38218],[14.403266,57.405754],[14.402742,57.405674],[14.367238,57.400209],[14.336357,57.383568],[14.313197,57.362755],[14.30805,57.346097],[14.29261,57.332209],[14.272023,57.339154],[14.238569,57.351651],[14.202541,57.348874],[14.181954,57.336376],[14.15622,57.332209],[14.13306,57.334987],[14.102179,57.336376],[14.061327,57.328107],[14.068725,57.311368],[14.032697,57.303028],[14.01983,57.293296],[13.983803,57.287733],[13.952922,57.290515],[13.942629,57.301638],[13.937482,57.314147],[13.916895,57.305808],[13.893734,57.290515],[13.873147,57.28217],[13.86028,57.26965],[13.83712,57.2613],[13.806239,57.266867],[13.735624,57.274503],[13.729037,57.275215],[13.703303,57.262692],[13.703303,57.236241],[13.705877,57.220919],[13.687863,57.201408],[13.682716,57.183282],[13.71617,57.167938],[13.734184,57.169333],[13.744478,57.183282],[13.754771,57.176308],[13.767638,57.162356],[13.762491,57.147003],[13.744478,57.130247],[13.759918,57.112086],[13.783079,57.079933],[13.7885,57.053403],[13.803361,57.053807],[13.839253,57.0478],[13.848917,57.034281],[13.871004,57.026769],[13.899994,57.032779],[13.91794,57.038788],[13.941408,57.04029],[13.953833,57.053807],[13.964876,57.061314],[13.989725,57.066568],[14.010432,57.056059],[14.025617,57.059062],[14.039422,57.068069],[14.06151,57.075573],[14.100163,57.073322],[14.131914,57.061314],[14.137436,57.050803],[14.155382,57.043294],[14.17885,57.050053],[14.188513,57.044045],[14.187133,57.020758],[14.20784,56.999712],[14.225786,56.979406],[14.239591,56.954572],[14.245113,56.941773],[14.272722,56.922942],[14.282385,56.916915],[14.307234,56.907117],[14.326561,56.901841],[14.326987,56.90203]]]}},
{"type":"Feature","id":"SWE:ADM2:SE-F.gnosjo","properties":{"shapeName":"Gnosjö","shapeISO":"","shapeGroup":"SWE","shapeType":"ADM2","adm1ISO":"SE-F","parentISO":"SE-F","parentID":"SWE:ADM1:SE-F","src_shape_id":"70781695B2934686109995"},"geometry":{"type":"Polygon","coordinates":[[[14.061327,57.328107],[14.050711,57.333598],[14.053285,57.358591],[14.042991,57.369694],[14.022404,57.38218],[14.01211,57.401595],[13.994097,57.405754],[13.963216,57.398822],[13.950349,57.409913],[13.940055,57.421],[13.919468,57.432084],[13.919468,57.448703],[13.929762,57.465315],[13.927035,57.487459],[13.896308,57.488835],[13.865427,57.497133],[13.8294,57.486069],[13.806239,57.494367],[13.777932,57.49575],[13.739331,57.486069],[13.713597,57.487452],[13.698157,57.481919],[13.68529,57.459778],[13.664703,57.444549],[13.644115,57.433469],[13.633822,57.411299],[13.618382,57.397436],[13.618382,57.383568],[13.592648,57.371082],[13.623528,57.365531],[13.667276,57.366919],[13.70073,57.364143],[13.721317,57.341931],[13.726464,57.322485],[13.734184,57.303028],[13.734184,57.287733],[13.735624,57.274503],[13.806239,57.266867],[13.83712,57.2613],[13.86028,57.26965],[13.873147,57.28217],[13.893734,57.290515],[13.916895,57.305808],[13.937482,57.314147],[13.942629,57.301638],[13.952922,57.290515],[13.983803,57.287733],[14.01983,57.293296],[14.032697,57.303028],[14.068725,57.311368],[14.061327,57.328107]]]}},
{"type":"Feature","id":"SWE:ADM2:SE-F.gislaved","properties":{"shapeName":"Gislaved","shapeISO":"","shapeGroup":"SWE","shapeType":"ADM2","adm1ISO":"SE-F","parentISO":"SE-F","parentID":"SWE:ADM1:SE-F","src_shape_id":"70781695B29714549657152"},"geometry":{"type":"Polygon","coordinates":[[[13.708167,57.003305],[13.732957,57.024515],[13.739859,57.038037],[13.749522,57.049302],[13.775751,57.053056],[13.7885,57.053403],[13.783079,57.079933],[13.759918,57.112086],[13.744478,57.130247],[13.762491,57.147003],[13.767638,57.162356],[13.754771,57.176308],[13.744478,57.183282],[13.734184,57.169333],[13.71617,57.167938],[13.682716,57.183282],[13.687863,57.201408],[13.705877,57.220919],[13.703303,57.236241],[13.703303,57.262692],[13.729037,57.275215],[13.735624,57.274503],[13.734184,57.287733],[13.734184,57.303028],[13.726464,57.322485],[13.721317,57.341931],[13.70073,57.364143],[13.667276,57.366919],[13.623528,57.365531],[13.592648,57.371082],[13.618382,57.383568],[13.618382,57.397436],[13.633822,57.411299],[13.644115,57.433469],[13.664703,57.444549],[13.68529,57.459778],[13.698157,57.481919],[13.713597,57.487452],[13.739331,57.486069],[13.777932,57.49575],[13.806239,57.494367],[13.8294,57.486069],[13.865427,57.497133],[13.896308,57.488835],[13.927035,57.487459],[13.938305,57.495031],[13.936658,57.53572],[13.933365,57.564882],[13.921836,57.582544],[13.911954,57.593138],[13.903719,57.603728],[13.897131,57.615197],[13.879015,57.618726],[13.862441,57.629306],[13.827958,57.628427],[13.824665,57.612551],[13.824665,57.596668],[13.808195,57.587841],[13.785137,57.589607],[13.770315,57.591372],[13.74561,57.583427],[13.725433,57.582562],[13.725846,57.578129],[13.697518,57.564564],[13.647978,57.53968],[13.625842,57.510816],[13.593166,57.48023],[13.571031,57.46436],[13.543626,57.443379],[13.532031,57.425791],[13.518328,57.413304],[13.504625,57.40138],[13.486706,57.389453],[13.463517,57.381499],[13.446652,57.367292],[13.416084,57.35649],[13.397111,57.345686],[13.361273,57.336016],[13.333868,57.329189],[13.331834,57.317111],[13.330705,57.310407],[13.31384,57.296742],[13.299084,57.28535],[13.276948,57.276804],[13.247435,57.273385],[13.233732,57.266546],[13.223191,57.254575],[13.216867,57.24203],[13.20211,57.231192],[13.193677,57.216355],[13.184191,57.20551],[13.174704,57.192947],[13.159948,57.187236],[13.144137,57.178667],[13.138846,57.174524],[13.142173,57.174424],[13.146061,57.166522],[13.135371,57.159672],[13.12954,57.148603],[13.12954,57.137004],[13.130512,57.121181],[13.126408,57.112946],[13.124925,57.109969],[13.132517,57.09265],[13.153774,57.076148],[13.161366,57.060465],[13.170476,57.054685],[13.188697,57.053859],[13.203881,57.067069],[13.212991,57.076148],[13.247914,57.088526],[13.269171,57.10832],[13.301057,57.115741],[13.337499,57.122335],[13.360274,57.128929],[13.384569,57.133873],[13.436194,57.134697],[13.462006,57.134697],[13.47719,57.128929],[13.4863,57.121511],[13.518186,57.128929],[13.527297,57.124808],[13.53337,57.110794],[13.551591,57.103373],[13.574367,57.101723],[13.591069,57.095125],[13.615363,57.091001],[13.629029,57.0844],[13.635102,57.067895],[13.635102,57.055511],[13.636621,57.032383],[13.644212,57.02164],[13.662433,57.013374],[13.677617,57.008414],[13.697356,57.007587],[13.708167,57.003305]]]}},
{"type":"Feature","id":"SWE:ADM2:SE-F.mullsjo","properties":{"shapeName":"Mullsjö","shapeISO":"","shapeGroup":"SWE","shapeType":"ADM2","adm1ISO":"SE-F","parentISO":"SE-F","parentID":"SWE:ADM1:SE-F","src_shape_id":"70781695B30148016618551"},"geometry":{"type":"Polygon","coordinates":[[[13.981854,58.043036],[13.974539,58.049231],[13.959716,58.063173],[13.930071,58.064915],[13.898778,58.064915],[13.872427,58.076239],[13.83784,58.076239],[13.828113,58.073667],[13.808195,58.0684],[13.813136,58.056202],[13.806548,58.03877],[13.791725,58.025691],[13.778549,58.020457],[13.758786,58.016968],[13.740669,58.003008],[13.734081,57.989915],[13.748904,57.975944],[13.7595,57.964704],[13.760433,57.963716],[13.771962,57.962842],[13.791725,57.961968],[13.809842,57.956726],[13.81643,57.94886],[13.818077,57.935748],[13.813136,57.920881],[13.796666,57.905133],[13.78349,57.872741],[13.781956,57.870599],[13.808812,57.869949],[13.834546,57.863105],[13.847413,57.853522],[13.873147,57.848044],[13.896308,57.85626],[13.901455,57.861737],[13.906601,57.867212],[13.904028,57.887737],[13.904028,57.912352],[13.919468,57.92192],[13.942629,57.932852],[13.955496,57.946511],[13.955496,57.990188],[13.960642,58.014733],[13.976083,58.026999],[13.981854,58.043036]]]}},
{"type":"Feature","id":"SWE:ADM2:SE-F.habo","properties":{"shapeName":"Habo","shapeISO":"","shapeGroup":"SWE","shapeType":"ADM2","adm1ISO":"SE-F","parentISO":"SE-F","parentID":"SWE:ADM1:SE-F","src_shape_id":"70781695B50055255303815"},"geometry":{"type":"Polygon","coordinates":[[[13.901455,57.861737],[13.940055,57.869949],[13.960642,57.874055],[13.973509,57.865843],[13.983803,57.848044],[13.999243,57.834347],[14.032697,57.839827],[14.048138,57.850783],[14.050711,57.874055],[14.089312,57.880897],[14.112473,57.882265],[14.112473,57.883081],[14.128173,57.883614],[14.138089,57.888226],[14.154571,57.892267],[14.182941,57.903575],[14.213676,57.909855],[14.285046,58.08089],[14.323648,58.148968],[14.338619,58.168178],[14.273973,58.164167],[14.242985,58.163656],[14.227486,58.157889],[14.201821,58.158879],[14.167234,58.163223],[14.164189,58.161081],[14.157352,58.156272],[14.162293,58.138019],[14.170528,58.115408],[14.155705,58.107577],[14.134295,58.097134],[14.131001,58.083205],[14.112884,58.072755],[14.098062,58.05446],[14.07171,58.044001],[14.045358,58.035283],[14.002537,58.035283],[13.982774,58.042257],[13.981854,58.043036],[13.976083,58.026999],[13.960642,58.014733],[13.955496,57.990188],[13.955496,57.946511],[13.942629,57.932852],[13.919468,57.92192],[13.904028,57.912352],[13.904028,57.887737],[13.906601,57.867212],[13.901455,57.861737]]]}},
{"type":"Feature","id":"SWE:ADM2:SE-F.tranas","properties":{"shapeName":"Tranås","shapeISO":"","shapeGroup":"SWE","shapeType":"ADM2","adm1ISO":"SE-F","parentISO":"SE-F","parentID":"SWE:ADM1:SE-F","src_shape_id":"70781695B97967886830889"},"geometry":{"type":"Polygon","coordinates":[[[15.028385,57.955852],[15.028797,57.962632],[15.031959,57.983874],[15.036176,58.006219],[15.050932,58.012362],[15.087825,58.014037],[15.106798,58.018504],[15.106798,58.032458],[15.095203,58.043059],[15.084781,58.05683],[15.068127,58.067529],[15.061539,58.07798],[15.058245,58.093653],[15.05001,58.106707],[15.038481,58.118018],[15.031893,58.127585],[15.020365,58.142366],[15.008836,58.14932],[15.002248,58.163223],[14.982484,58.170172],[14.959427,58.168435],[14.948974,58.16242],[14.94131,58.15801],[14.92484,58.150189],[14.926487,58.139758],[14.921546,58.121497],[14.908371,58.112798],[14.847433,58.111928],[14.812846,58.114538],[14.77826,58.124976],[14.756849,58.118887],[14.720616,58.129324],[14.695912,58.123236],[14.672854,58.115408],[14.622302,58.124017],[14.620151,58.105837],[14.633327,58.088429],[14.641562,58.07798],[14.65309,58.062302],[14.659678,58.03877],[14.651476,58.02733],[14.656384,58.011734],[14.674501,57.997771],[14.682736,57.986423],[14.704146,57.972451],[14.733792,57.966336],[14.755202,57.977691],[14.774966,57.975071],[14.799671,57.966336],[14.826022,57.966336],[14.845786,57.968957],[14.878725,57.970704],[14.891901,57.976818],[14.918252,57.971577],[14.952839,57.969831],[14.972602,57.962842],[14.990719,57.955852],[15.028385,57.955852]]]}},
{"type":"Feature","id":"SWE:ADM2:SE-F.aneby","properties":{"shapeName":"Aneby","shapeISO":"","shapeGroup":"SWE","shapeType":"ADM2","adm1ISO":"SE-F","parentISO":"SE-F","parentID":"SWE:ADM1:SE-F","src_shape_id":"70781695B68897114765136"},"geometry":{"type":"Polygon","coordinates":[[[14.651476,58.02733],[14.622984,58.021295],[14.602957,58.011245],[14.600848,57.97549],[14.579767,57.966546],[14.535497,57.967664],[14.522848,57.960955],[14.51547,57.936902],[14.511253,57.917312],[14.502821,57.906114],[14.516524,57.893231],[14.533389,57.883145],[14.557632,57.882024],[14.571335,57.885386],[14.585038,57.894911],[14.606119,57.895471],[14.618768,57.889869],[14.626146,57.872496],[14.631416,57.852871],[14.645119,57.844457],[14.654606,57.826501],[14.654606,57.809097],[14.656714,57.796741],[14.674633,57.784943],[14.674633,57.783218],[14.687677,57.785048],[14.720616,57.800849],[14.763437,57.821028],[14.802965,57.824537],[14.865549,57.827168],[14.893548,57.835936],[14.919899,57.842073],[14.951192,57.834183],[14.967662,57.82366],[14.975896,57.807869],[14.982484,57.794705],[14.994013,57.78417],[14.998691,57.781868],[15.015424,57.773633],[15.051657,57.768363],[15.133135,57.770882],[15.132359,57.776267],[15.127418,57.78417],[15.115889,57.786804],[15.112595,57.807869],[15.112595,57.818397],[15.096125,57.84032],[15.084596,57.858725],[15.084596,57.870989],[15.078009,57.880623],[15.064833,57.885877],[15.056907,57.902782],[15.05176,57.912352],[15.028599,57.928753],[15.027743,57.945294],[15.028385,57.955852],[14.990719,57.955852],[14.972602,57.962842],[14.952839,57.969831],[14.918252,57.971577],[14.891901,57.976818],[14.878725,57.970704],[14.845786,57.968957],[14.826022,57.966336],[14.799671,57.966336],[14.774966,57.975071],[14.755202,57.977691],[14.733792,57.966336],[14.704146,57.972451],[14.682736,57.986423],[14.674501,57.997771],[14.656384,58.011734],[14.651476,58.02733]]]}},
{"type":"Feature","id":"SWE:ADM2:SE-F.savsjo","properties":{"shapeName":"Sävsjö","shapeISO":"","shapeGroup":"SWE","shapeType":"ADM2","adm1ISO":"SE-F","parentISO":"SE-F","parentID":"SWE:ADM1:SE-F","src_shape_id":"70781695B29308499168486"},"geometry":{"type":"Polygon","coordinates":[[[14.50926,57.182905],[14.512925,57.183463],[14.540534,57.18496],[14.564002,57.193188],[14.580568,57.207396],[14.601275,57.208892],[14.627504,57.211134],[14.638548,57.220104],[14.648211,57.229819],[14.670299,57.233555],[14.715854,57.236544],[14.743464,57.244014],[14.805585,57.249242],[14.811847,57.248707],[14.812846,57.263304],[14.804612,57.276662],[14.814493,57.291794],[14.839198,57.308699],[14.845786,57.337154],[14.857315,57.382458],[14.845786,57.405532],[14.8412,57.430228],[14.840845,57.432139],[14.802965,57.436572],[14.789789,57.44898],[14.766731,57.463155],[14.760143,57.486179],[14.738733,57.493261],[14.692618,57.49149],[14.66956,57.478211],[14.646502,57.460498],[14.611916,57.464927],[14.597093,57.480867],[14.585565,57.490605],[14.562507,57.495916],[14.54439,57.506534],[14.534509,57.520688],[14.514745,57.520688],[14.494243,57.514893],[14.483452,57.511842],[14.475218,57.499456],[14.46863,57.493261],[14.419221,57.483523],[14.399457,57.471127],[14.392198,57.446717],[14.402091,57.410053],[14.402742,57.405674],[14.403266,57.405754],[14.423853,57.38218],[14.426426,57.354427],[14.439293,57.332209],[14.462454,57.318316],[14.477894,57.300248],[14.472747,57.28217],[14.457307,57.264084],[14.454733,57.245988],[14.45216,57.225098],[14.434146,57.206984],[14.416133,57.193043],[14.41724,57.173824],[14.43976,57.175233],[14.468749,57.176729],[14.50926,57.182905]]]}},
{"type":"Feature","id":"SWE:ADM2:SE-F.vaggeryd","properties":{"shapeName":"Vaggeryd","shapeISO":"","shapeGroup":"SWE","shapeType":"ADM2","adm1ISO":"SE-F","parentISO":"SE-F","parentID":"SWE:ADM1:SE-F","src_shape_id":"70781695B19954774542686"},"geometry":{"type":"Polygon","coordinates":[[[14.402742,57.405674],[14.402091,57.410053],[14.392198,57.446717],[14.399457,57.471127],[14.419221,57.483523],[14.46863,57.493261],[14.475218,57.499456],[14.483452,57.511842],[14.494243,57.514893],[14.478512,57.523341],[14.455454,57.537488],[14.422515,57.541024],[14.404398,57.549862],[14.384634,57.553396],[14.371459,57.559581],[14.368165,57.569298],[14.350048,57.570181],[14.349238,57.577564],[14.336279,57.577564],[14.319414,57.583215],[14.294117,57.587735],[14.281468,57.584345],[14.261441,57.58152],[14.255117,57.597339],[14.254063,57.609763],[14.254063,57.628392],[14.246684,57.640805],[14.231927,57.651523],[14.215062,57.65829],[14.199251,57.657162],[14.173954,57.646446],[14.163413,57.63742],[14.138116,57.634035],[14.123359,57.639113],[14.101224,57.64701],[14.078034,57.645882],[14.052737,57.648703],[14.035872,57.65829],[14.016899,57.667311],[14.001088,57.675203],[13.985277,57.658854],[13.978953,57.645318],[13.96525,57.644754],[13.932574,57.636292],[13.914655,57.641369],[13.890412,57.643062],[13.86933,57.63742],[13.862441,57.629306],[13.879015,57.618726],[13.897131,57.615197],[13.903719,57.603728],[13.911954,57.593138],[13.921836,57.582544],[13.933365,57.564882],[13.936658,57.53572],[13.938305,57.495031],[13.927035,57.487459],[13.929762,57.465315],[13.919468,57.448703],[13.919468,57.432084],[13.940055,57.421],[13.950349,57.409913],[13.963216,57.398822],[13.994097,57.405754],[14.01211,57.401595],[14.022404,57.38218],[14.042991,57.369694],[14.053285,57.358591],[14.050711,57.333598],[14.061327,57.328107],[14.102179,57.336376],[14.13306,57.334987],[14.15622,57.332209],[14.181954,57.336376],[14.202541,57.348874],[14.238569,57.351651],[14.272023,57.339154],[14.29261,57.332209],[14.30805,57.346097],[14.313197,57.362755],[14.336357,57.383568],[14.367238,57.400209],[14.402742,57.405674]]]}},
{"type":"Feature","id":"SWE:ADM2:SE-F.eksjo","properties":{"shapeName":"Eksjö","shapeISO":"","shapeGroup":"SWE","shapeType":"ADM2","adm1ISO":"SE-F","parentISO":"SE-F","parentID":"SWE:ADM1:SE-F","src_shape_id":"70781695B54746446562471"},"geometry":{"type":"Polygon","coordinates":[[[15.665475,57.623807],[15.668082,57.625824],[15.659741,57.639219],[15.618037,57.651494],[15.570078,57.670457],[15.53046,57.68718],[15.499182,57.699438],[15.472074,57.711693],[15.459563,57.718376],[15.455393,57.738485],[15.410696,57.738485],[15.384345,57.734089],[15.372816,57.725295],[15.344818,57.725295],[15.32176,57.736726],[15.298703,57.73321],[15.265763,57.734089],[15.249293,57.737606],[15.211413,57.736726],[15.191649,57.738485],[15.180121,57.740243],[15.160357,57.742001],[15.147181,57.746396],[15.138946,57.756063],[15.134006,57.764849],[15.133135,57.770882],[15.051657,57.768363],[15.015424,57.773633],[14.998691,57.781868],[14.984852,57.772645],[14.964265,57.7699],[14.943678,57.746561],[14.917944,57.708087],[14.894783,57.69021],[14.876769,57.670949],[14.866476,57.654431],[14.835595,57.648923],[14.820155,57.637905],[14.815008,57.626884],[14.851036,57.62275],[14.885209,57.620462],[14.89221,57.619994],[14.920517,57.611724],[14.959118,57.600695],[14.979705,57.585524],[14.987425,57.574487],[15.020879,57.567587],[15.049187,57.564826],[15.090361,57.54826],[15.123815,57.538593],[15.175283,57.537211],[15.213884,57.544117],[15.239617,57.552402],[15.267925,57.54826],[15.296232,57.538593],[15.33226,57.537211],[15.368287,57.520632],[15.406888,57.527541],[15.48409,57.533067],[15.504677,57.553783],[15.525264,57.566207],[15.527837,57.580006],[15.594745,57.580006],[15.616823,57.58623],[15.634719,57.599018],[15.649315,57.611306],[15.665475,57.623807]]]}},
{"type":"Feature","id":"SWE:ADM2:SE-F.nassjo","properties":{"shapeName":"Nässjö","shapeISO":"","shapeGroup":"SWE","shapeType":"ADM2","adm1ISO":"SE-F","parentISO":"SE-F","parentID":"SWE:ADM1:SE-F","src_shape_id":"70781695B63607124803210"},"geometry":{"type":"Polygon","coordinates":[[[14.885209,57.620462],[14.851036,57.62275],[14.815008,57.626884],[14.820155,57.637905],[14.835595,57.648923],[14.866476,57.654431],[14.876769,57.670949],[14.894783,57.69021],[14.917944,57.708087],[14.943678,57.746561],[14.964265,57.7699],[14.984852,57.772645],[14.998691,57.781868],[14.994013,57.78417],[14.982484,57.794705],[14.975896,57.807869],[14.967662,57.82366],[14.951192,57.834183],[14.919899,57.842073],[14.893548,57.835936],[14.865549,57.827168],[14.802965,57.824537],[14.763437,57.821028],[14.720616,57.800849],[14.687677,57.785048],[14.674633,57.783218],[14.674633,57.773141],[14.638795,57.767519],[14.606119,57.764708],[14.580821,57.768082],[14.553416,57.763584],[14.527064,57.755149],[14.502821,57.754587],[14.477523,57.7484],[14.464875,57.738274],[14.476469,57.721953],[14.468037,57.706752],[14.462767,57.700557],[14.446956,57.694361],[14.440631,57.683656],[14.423766,57.672384],[14.402685,57.663928],[14.381604,57.651523],[14.399523,57.642498],[14.401631,57.628392],[14.382658,57.621619],[14.364739,57.611457],[14.366847,57.596774],[14.355252,57.577564],[14.349238,57.577564],[14.350048,57.570181],[14.368165,57.569298],[14.371459,57.559581],[14.384634,57.553396],[14.404398,57.549862],[14.422515,57.541024],[14.455454,57.537488],[14.478512,57.523341],[14.494243,57.514893],[14.514745,57.520688],[14.534509,57.520688],[14.54439,57.506534],[14.562507,57.495916],[14.585565,57.490605],[14.597093,57.480867],[14.611916,57.464927],[14.646502,57.460498],[14.66956,57.478211],[14.692618,57.49149],[14.738733,57.493261],[14.760143,57.486179],[14.766731,57.463155],[14.789789,57.44898],[14.802965,57.436572],[14.840845,57.432139],[14.8412,57.430228],[14.847433,57.461384],[14.854021,57.483523],[14.865549,57.498571],[14.873784,57.515381],[14.877078,57.555164],[14.875431,57.585193],[14.877078,57.610787],[14.885209,57.620462]]]}},
{"type":"Feature","id":"SWE:ADM2:SE-F.jonkoping","properties":{"shapeName":"Jönköping","shapeISO":"","shapeGroup":"SWE","shapeType":"ADM2","adm1ISO":"SE-F","parentISO":"SE-F","parentID":"SWE:ADM1:SE-F","src_shape_id":"70781695B94890902843100"},"geometry":{"type":"Polygon","coordinates":[[[13.862441,57.629306],[13.86933,57.63742],[13.890412,57.643062],[13.914655,57.641369],[13.932574,57.636292],[13.96525,57.644754],[13.978953,57.645318],[13.985277,57.658854],[14.001088,57.675203],[14.016899,57.667311],[14.035872,57.65829],[14.052737,57.648703],[14.078034,57.645882],[14.101224,57.64701],[14.123359,57.639113],[14.138116,57.634035],[14.163413,57.63742],[14.173954,57.646446],[14.199251,57.657162],[14.215062,57.65829],[14.231927,57.651523],[14.246684,57.640805],[14.254063,57.628392],[14.254063,57.609763],[14.255117,57.597339],[14.261441,57.58152],[14.281468,57.584345],[14.294117,57.587735],[14.319414,57.583215],[14.336279,57.577564],[14.349238,57.577564],[14.355252,57.577564],[14.366847,57.596774],[14.364739,57.611457],[14.382658,57.621619],[14.401631,57.628392],[14.399523,57.642498],[14.381604,57.651523],[14.402685,57.663928],[14.423766,57.672384],[14.440631,57.683656],[14.446956,57.694361],[14.462767,57.700557],[14.468037,57.706752],[14.476469,57.721953],[14.464875,57.738274],[14.477523,57.7484],[14.502821,57.754587],[14.527064,57.755149],[14.553416,57.763584],[14.580821,57.768082],[14.606119,57.764708],[14.638795,57.767519],[14.674633,57.773141],[14.674633,57.783218],[14.674633,57.784943],[14.656714,57.796741],[14.654606,57.809097],[14.654606,57.826501],[14.645119,57.844457],[14.631416,57.852871],[14.626146,57.872496],[14.618768,57.889869],[14.606119,57.895471],[14.585038,57.894911],[14.571335,57.885386],[14.557632,57.882024],[14.533389,57.883145],[14.516524,57.893231],[14.502821,57.906114],[14.511253,57.917312],[14.51547,57.936902],[14.522848,57.960955],[14.535497,57.967664],[14.579767,57.966546],[14.600848,57.97549],[14.602957,58.011245],[14.622984,58.021295],[14.651476,58.02733],[14.659678,58.03877],[14.65309,58.062302],[14.641562,58.07798],[14.633327,58.088429],[14.620151,58.105837],[14.622302,58.124017],[14.602034,58.127585],[14.56221,58.129203],[14.542302,58.141465],[14.51866,58.146456],[14.443005,58.162672],[14.419363,58.202559],[14.418495,58.202184],[14.339823,58.168253],[14.338619,58.168178],[14.323648,58.148968],[14.285046,58.08089],[14.213676,57.909855],[14.182941,57.903575],[14.154571,57.892267],[14.138089,57.888226],[14.128173,57.883614],[14.112473,57.883081],[14.112473,57.882265],[14.089312,57.880897],[14.050711,57.874055],[14.048138,57.850783],[14.032697,57.839827],[13.999243,57.834347],[13.983803,57.848044],[13.973509,57.865843],[13.960642,57.874055],[13.940055,57.869949],[13.901455,57.861737],[13.896308,57.85626],[13.873147,57.848044],[13.847413,57.853522],[13.834546,57.863105],[13.808812,57.869949],[13.781956,57.870599],[13.770315,57.854343],[13.765374,57.82366],[13.796666,57.802604],[13.785137,57.78417],[13.76208,57.769241],[13.743963,57.756063],[13.760433,57.743759],[13.740669,57.727934],[13.743963,57.708582],[13.753334,57.702323],[13.763727,57.695382],[13.753845,57.676013],[13.737375,57.663682],[13.717612,57.651346],[13.70773,57.639007],[13.70773,57.621372],[13.724199,57.610787],[13.724199,57.595786],[13.725433,57.582562],[13.74561,57.583427],[13.770315,57.591372],[13.785137,57.589607],[13.808195,57.587841],[13.824665,57.596668],[13.824665,57.612551],[13.827958,57.628427],[13.862441,57.629306]]]}}
]}