{"type":"FeatureCollection","bbox":[13.334462,56.38485,15.851578,57.255037],"features":[
{"type":"Feature","id":"SWE:ADM2:SE-G.markaryd","properties":{"shapeName":"Markaryd","shapeISO":"","shapeGroup":"SWE","shapeType":"ADM2","adm1ISO":"SE-G","parentISO":"SE-G","parentID":"SWE:ADM1:SE-G","src_shape_id":"70781695B56962203648696"},"geometry":{"type":"Polygon","coordinates":[[[13.600063,56.430182],[13.613424,56.432197],[13.641449,56.444739],[13.689491,56.446952],[13.720815,56.449116],[13.72139,56.449155],[13.717275,56.458538],[13.726993,56.473181],[13.741129,56.476109],[13.7641,56.483427],[13.782654,56.488305],[13.795023,56.499523],[13.797673,56.509274],[13.804741,56.517561],[13.81711,56.522922],[13.840965,56.52341],[13.851567,56.531206],[13.858635,56.541924],[13.862169,56.559942],[13.848917,56.575032],[13.831247,56.594008],[13.83213,56.612001],[13.828596,56.629014],[13.82628,56.630607],[13.821528,56.633874],[13.798557,56.64019],[13.794139,56.655248],[13.79944,56.666902],[13.806508,56.678552],[13.800324,56.693594],[13.784421,56.69893],[13.764984,56.692624],[13.747314,56.682434],[13.723459,56.67564],[13.686352,56.673213],[13.652779,56.674669],[13.629808,56.680008],[13.615672,56.690683],[13.595351,56.696505],[13.568846,56.691654],[13.537923,56.680978],[13.520253,56.672242],[13.508768,56.655734],[13.489331,56.642619],[13.464593,56.642134],[13.444357,56.640862],[13.445304,56.640341],[13.445304,56.627815],[13.43923,56.615285],[13.445304,56.604422],[13.465043,56.593555],[13.463525,56.58185],[13.483264,56.561774],[13.503003,56.542526],[13.503003,56.530804],[13.46808,56.507351],[13.46808,56.491427],[13.483264,56.482206],[13.498447,56.469627],[13.498447,56.453688],[13.49491,56.440976],[13.528014,56.431459],[13.584064,56.427769],[13.600063,56.430182]]]}},
{"type":"Feature","id":"SWE:ADM2:SE-G.ljungby","properties":{"shapeName":"Ljungby","shapeISO":"","shapeGroup":"SWE","shapeType":"ADM2","adm1ISO":"SE-G","parentISO":"SE-G","parentID":"SWE:ADM1:SE-G","src_shape_id":"70781695B43314679953791"},"geometry":{"type":"Polygon","coordinates":[[[13.351023,56.855935],[13.345091,56.854314],[13.334462,56.841028],[13.351164,56.828568],[13.355719,56.810287],[13.360274,56.765376],[13.351164,56.710412],[13.351325,56.710355],[13.372421,56.702911],[13.389124,56.694574],[13.413418,56.677895],[13.425565,56.651194],[13.444357,56.640862],[13.464593,56.642134],[13.489331,56.642619],[13.508768,56.655734],[13.520253,56.672242],[13.537923,56.680978],[13.568846,56.691654],[13.595351,56.696505],[13.615672,56.690683],[13.629808,56.680008],[13.652779,56.674669],[13.686352,56.673213],[13.723459,56.67564],[13.747314,56.682434],[13.764984,56.692624],[13.784421,56.69893],[13.800324,56.693594],[13.806508,56.678552],[13.79944,56.666902],[13.794139,56.655248],[13.798557,56.64019],[13.821528,56.633874],[13.82628,56.630607],[13.850297,56.630229],[13.902755,56.630989],[13.924843,56.652243],[13.937267,56.659831],[13.957974,56.661349],[13.97592,56.656796],[13.995247,56.652243],[14.00491,56.662107],[14.009052,56.671969],[14.007671,56.685619],[14.010432,56.700022],[14.025617,56.706085],[14.047705,56.713662],[14.06289,56.728811],[14.086358,56.739413],[14.098782,56.739413],[14.111207,56.735627],[14.115348,56.716692],[14.125011,56.708358],[14.145719,56.70078],[14.154001,56.694716],[14.194035,56.694716],[14.218884,56.700022],[14.232688,56.709873],[14.249254,56.72351],[14.258917,56.730326],[14.268581,56.740927],[14.285146,56.750768],[14.298951,56.758336],[14.321039,56.768929],[14.32518,56.7833],[14.325137,56.785236],[14.324241,56.825806],[14.324241,56.867842],[14.328659,56.896322],[14.326987,56.90203],[14.326561,56.901841],[14.307234,56.907117],[14.282385,56.916915],[14.272722,56.922942],[14.245113,56.941773],[14.239591,56.954572],[14.225786,56.979406],[14.20784,56.999712],[14.187133,57.020758],[14.188513,57.044045],[14.17885,57.050053],[14.155382,57.043294],[14.137436,57.050803],[14.131914,57.061314],[14.100163,57.073322],[14.06151,57.075573],[14.039422,57.068069],[14.025617,57.059062],[14.010432,57.056059],[13.989725,57.066568],[13.964876,57.061314],[13.953833,57.053807],[13.941408,57.04029],[13.91794,57.038788],[13.899994,57.032779],[13.871004,57.026769],[13.848917,57.034281],[13.839253,57.0478],[13.803361,57.053807],[13.7885,57.053403],[13.775751,57.053056],[13.749522,57.049302],[13.739859,57.038037],[13.732957,57.024515],[13.708167,57.003305],[13.714058,57.000972],[13.714058,56.961257],[13.707985,56.945525],[13.688246,56.938899],[13.657878,56.933929],[13.630547,56.922329],[13.588032,56.9215],[13.557664,56.913212],[13.528815,56.902435],[13.510595,56.89663],[13.490856,56.902435],[13.458969,56.901606],[13.440749,56.890825],[13.404308,56.889166],[13.38305,56.88253],[13.375458,56.862615],[13.351023,56.855935]]]}},
{"type":"Feature","id":"SWE:ADM2:SE-G.almhult","properties":{"shapeName":"Älmhult","shapeISO":"","shapeGroup":"SWE","shapeType":"ADM2","adm1ISO":"SE-G","parentISO":"SE-G","parentID":"SWE:ADM1:SE-G","src_shape_id":"70781695B11327054975431"},"geometry":{"type":"Polygon","coordinates":[[[14.540725,56.480238],[14.567104,56.481695],[14.594211,56.481695],[14.609841,56.475221],[14.620602,56.494829],[14.630265,56.50702],[14.626124,56.51616],[14.610938,56.531389],[14.610938,56.56259],[14.607485,56.565852],[14.601275,56.571717],[14.58609,56.582362],[14.580568,56.590724],[14.562622,56.596045],[14.544676,56.597565],[14.537773,56.604404],[14.488076,56.610482],[14.47013,56.607443],[14.456325,56.598325],[14.450803,56.608203],[14.454945,56.624154],[14.453564,56.649208],[14.465989,56.665142],[14.475652,56.675761],[14.446662,56.681828],[14.431477,56.696232],[14.430096,56.721237],[14.425955,56.737898],[14.409389,56.752281],[14.362453,56.778006],[14.334844,56.785568],[14.325137,56.785236],[14.32518,56.7833],[14.321039,56.768929],[14.298951,56.758336],[14.285146,56.750768],[14.268581,56.740927],[14.258917,56.730326],[14.249254,56.72351],[14.232688,56.709873],[14.218884,56.700022],[14.194035,56.694716],[14.154001,56.694716],[14.145719,56.70078],[14.125011,56.708358],[14.115348,56.716692],[14.111207,56.735627],[14.098782,56.739413],[14.086358,56.739413],[14.06289,56.728811],[14.047705,56.713662],[14.025617,56.706085],[14.010432,56.700022],[14.007671,56.685619],[14.009052,56.671969],[14.00491,56.662107],[13.995247,56.652243],[13.97592,56.656796],[13.957974,56.661349],[13.937267,56.659831],[13.924843,56.652243],[13.902755,56.630989],[13.850297,56.630229],[13.82628,56.630607],[13.828596,56.629014],[13.83213,56.612001],[13.831247,56.594008],[13.848917,56.575032],[13.862169,56.559942],[13.858635,56.541924],[13.851567,56.531206],[13.840965,56.52341],[13.81711,56.522922],[13.804741,56.517561],[13.797673,56.509274],[13.795023,56.499523],[13.782654,56.488305],[13.7641,56.483427],[13.741129,56.476109],[13.726993,56.473181],[13.717275,56.458538],[13.72139,56.449155],[13.741537,56.463175],[13.772648,56.469027],[13.818522,56.473634],[13.868567,56.472482],[13.9061,56.472482],[13.939463,56.482847],[13.985337,56.492057],[14.010359,56.490906],[14.052063,56.493208],[14.062489,56.502416],[14.068745,56.519674],[14.085426,56.543822],[14.108363,56.557615],[14.120874,56.562211],[14.143811,56.54957],[14.158408,56.540373],[14.185515,56.531175],[14.202197,56.523125],[14.2439,56.521974],[14.283519,56.526575],[14.302285,56.526575],[14.341904,56.521974],[14.375267,56.511621],[14.416971,56.502416],[14.431567,56.494359],[14.492037,56.494359],[14.519145,56.493208],[14.535826,56.487452],[14.540725,56.480238]]]}},
{"type":"Feature","id":"SWE:ADM2:SE-G.alvesta","properties":{"shapeName":"Alvesta","shapeISO":"","shapeGroup":"SWE","shapeType":"ADM2","adm1ISO":"SE-G","parentISO":"SE-G","parentID":"SWE:ADM1:SE-G","src_shape_id":"70781695B73042132081687"},"geometry":{"type":"Polygon","coordinates":[[[14.325137,56.785236],[14.334844,56.785568],[14.362453,56.778006],[14.409389,56.752281],[14.425955,56.737898],[14.430096,56.721237],[14.431477,56.696232],[14.446662,56.681828],[14.475652,56.675761],[14.465989,56.665142],[14.453564,56.649208],[14.454945,56.624154],[14.450803,56.608203],[14.456325,56.598325],[14.47013,56.607443],[14.488076,56.610482],[14.537773,56.604404],[14.544676,56.597565],[14.562622,56.596045],[14.580568,56.590724],[14.58609,56.582362],[14.601275,56.571717],[14.607485,56.565852],[14.654377,56.568543],[14.668513,56.591035],[14.690503,56.600547],[14.687361,56.621292],[14.674796,56.626476],[14.66066,56.641162],[14.666943,56.652388],[14.68422,56.658432],[14.704639,56.667927],[14.708326,56.670459],[14.717204,56.676556],[14.710921,56.689497],[14.693644,56.703296],[14.68422,56.730878],[14.688932,56.793724],[14.682649,56.810924],[14.663801,56.827257],[14.629246,56.828975],[14.605686,56.837568],[14.586838,56.847877],[14.585268,56.863335],[14.599404,56.87192],[14.627676,56.876211],[14.632388,56.894231],[14.651236,56.903667],[14.654377,56.913957],[14.651236,56.935387],[14.670084,56.942242],[14.681079,56.952521],[14.685791,56.965367],[14.703068,56.974785],[14.703068,56.988479],[14.682649,57.004734],[14.668513,57.014997],[14.659089,57.038932],[14.659089,57.084196],[14.652807,57.112351],[14.622964,57.115762],[14.582126,57.130257],[14.552284,57.137928],[14.533435,57.142189],[14.528723,57.158377],[14.517729,57.172003],[14.50926,57.182905],[14.468749,57.176729],[14.43976,57.175233],[14.41724,57.173824],[14.403867,57.172988],[14.387302,57.169994],[14.388682,57.152776],[14.372116,57.137049],[14.387302,57.116818],[14.391443,57.105574],[14.390062,57.089826],[14.374877,57.074822],[14.365214,57.053056],[14.374877,57.04029],[14.390062,57.028272],[14.396965,57.014746],[14.405248,57.004223],[14.424574,56.983167],[14.420433,56.97113],[14.401106,56.956831],[14.392823,56.94855],[14.376258,56.933489],[14.369355,56.921435],[14.348648,56.911639],[14.326987,56.90203],[14.328659,56.896322],[14.324241,56.867842],[14.324241,56.825806],[14.325137,56.785236]]]}},
{"type":"Feature","id":"SWE:ADM2:SE-G.tingsryd","properties":{"shapeName":"Tingsryd","shapeISO":"","shapeGroup":"SWE","shapeType":"ADM2","adm1ISO":"SE-G","parentISO":"SE-G","parentID":"SWE:ADM1:SE-G","src_shape_id":"70781695B44136897167596"},"geometry":{"type":"Polygon","coordinates":[[[14.713067,56.409982],[14.715152,56.409085],[14.756856,56.411392],[14.804815,56.410238],[14.831922,56.402162],[14.844434,56.395238],[14.869456,56.39293],[14.881967,56.38485],[14.894478,56.38485],[14.91533,56.395238],[14.944522,56.397546],[14.944602,56.397766],[14.950778,56.414852],[14.973715,56.424079],[14.990397,56.436762],[15.002908,56.451746],[15.013334,56.463268],[15.052952,56.474786],[15.082145,56.479392],[15.13636,56.478241],[15.165552,56.460963],[15.186404,56.451746],[15.205171,56.450593],[15.219767,56.458659],[15.228108,56.474786],[15.240619,56.487452],[15.261471,56.493208],[15.292748,56.493208],[15.3136,56.481695],[15.330282,56.480544],[15.353219,56.487452],[15.36156,56.51047],[15.36573,56.51814],[15.357389,56.524275],[15.355304,56.540373],[15.367815,56.562211],[15.374071,56.578293],[15.388667,56.590925],[15.407434,56.598961],[15.407434,56.609291],[15.390752,56.624206],[15.3699,56.633382],[15.371227,56.633868],[15.358592,56.637455],[15.346465,56.644521],[15.33823,56.660817],[15.333289,56.679821],[15.325054,56.690676],[15.293762,56.705144],[15.273998,56.712376],[15.265763,56.722318],[15.247646,56.735871],[15.216354,56.738581],[15.208119,56.729547],[15.16118,56.729547],[15.147181,56.729547],[15.124124,56.721414],[15.112595,56.709664],[15.124124,56.694293],[15.12083,56.678916],[15.117536,56.668963],[15.101066,56.649953],[15.073068,56.640898],[15.063186,56.653575],[15.05001,56.666248],[15.030246,56.673487],[15.005542,56.690676],[15.002248,56.706952],[14.974249,56.71328],[14.946251,56.709664],[14.933075,56.699719],[14.896842,56.699719],[14.863902,56.675297],[14.84908,56.662627],[14.829316,56.657196],[14.807906,56.659912],[14.773319,56.666248],[14.753556,56.663532],[14.730498,56.671677],[14.708326,56.670459],[14.704639,56.667927],[14.68422,56.658432],[14.666943,56.652388],[14.66066,56.641162],[14.674796,56.626476],[14.687361,56.621292],[14.690503,56.600547],[14.668513,56.591035],[14.654377,56.568543],[14.607485,56.565852],[14.610938,56.56259],[14.610938,56.531389],[14.626124,56.51616],[14.630265,56.50702],[14.620602,56.494829],[14.609841,56.475221],[14.635915,56.46442],[14.652597,56.448288],[14.683874,56.433304],[14.696385,56.417159],[14.713067,56.409982]]]}},
{"type":"Feature","id":"SWE:ADM2:SE-G.lessebo","properties":{"shapeName":"Lessebo","shapeISO":"","shapeGroup":"SWE","shapeType":"ADM2","adm1ISO":"SE-G","parentISO":"SE-G","parentID":"SWE:ADM1:SE-G","src_shape_id":"70781695B14820024771032"},"geometry":{"type":"Polygon","coordinates":[[[15.570256,56.85694],[15.555482,56.879148],[15.567993,56.895095],[15.572163,56.908759],[15.551311,56.91559],[15.541453,56.929578],[15.52269,56.925099],[15.50128,56.91521],[15.478222,56.908917],[15.456812,56.914311],[15.44693,56.926896],[15.423872,56.93139],[15.394227,56.919705],[15.37611,56.911614],[15.366228,56.898125],[15.353053,56.889129],[15.333289,56.892727],[15.306937,56.897225],[15.292115,56.890029],[15.288821,56.86483],[15.259175,56.859428],[15.211413,56.856727],[15.20812,56.855526],[15.186709,56.847721],[15.148828,56.841416],[15.117536,56.838713],[15.099419,56.830604],[15.08789,56.81979],[15.101066,56.807169],[15.092831,56.797249],[15.081303,56.78011],[15.106007,56.766573],[15.137299,56.750322],[15.157063,56.737678],[15.16118,56.729547],[15.208119,56.729547],[15.216354,56.738581],[15.247646,56.735871],[15.265763,56.722318],[15.273998,56.712376],[15.293762,56.705144],[15.325054,56.690676],[15.333289,56.679821],[15.33823,56.660817],[15.346465,56.644521],[15.358592,56.637455],[15.371227,56.633868],[15.388667,56.640262],[15.407434,56.644849],[15.424115,56.667771],[15.413689,56.678082],[15.428285,56.696405],[15.4262,56.710142],[15.449137,56.726162],[15.436626,56.742174],[15.411604,56.747892],[15.401178,56.758181],[15.388667,56.77875],[15.374071,56.791314],[15.392837,56.807299],[15.407434,56.810724],[15.438711,56.813007],[15.469989,56.822136],[15.499182,56.82556],[15.551311,56.836968],[15.567993,56.847232],[15.572163,56.854074],[15.570256,56.85694]]]}},
{"type":"Feature","id":"SWE:ADM2:SE-G.uppvidinge","properties":{"shapeName":"Uppvidinge","shapeISO":"","shapeGroup":"SWE","shapeType":"ADM2","adm1ISO":"SE-G","parentISO":"SE-G","parentID":"SWE:ADM1:SE-G","src_shape_id":"70781695B81795147571937"},"geometry":{"type":"Polygon","coordinates":[[[15.747859,57.086566],[15.724382,57.096133],[15.69936,57.110855],[15.678508,57.122177],[15.663911,57.139152],[15.645145,57.153857],[15.624293,57.158381],[15.601356,57.166296],[15.58676,57.17647],[15.580504,57.196809],[15.574248,57.214879],[15.553397,57.226169],[15.551548,57.232172],[15.547399,57.230675],[15.525347,57.231594],[15.485766,57.232818],[15.464844,57.236796],[15.45297,57.244445],[15.417135,57.248346],[15.402116,57.251213],[15.381795,57.248824],[15.335853,57.24739],[15.288144,57.24739],[15.263406,57.247868],[15.243085,57.245],[15.228949,57.236394],[15.214813,57.236394],[15.192725,57.245956],[15.176822,57.255037],[15.157385,57.250257],[15.16622,57.240697],[15.171521,57.215829],[15.156502,57.210088],[15.12823,57.217743],[15.107909,57.216307],[15.101561,57.213262],[15.107654,57.199122],[15.107654,57.182166],[15.124124,57.172346],[15.145534,57.162524],[15.15871,57.152699],[15.152122,57.131253],[15.137299,57.121419],[15.143887,57.110689],[15.163651,57.099061],[15.165298,57.082954],[15.173533,57.069526],[15.188356,57.06684],[15.227883,57.060572],[15.236118,57.052511],[15.249293,57.0328],[15.257528,57.012181],[15.260822,56.997831],[15.244353,56.98527],[15.227883,56.979886],[15.216354,56.968217],[15.193296,56.961932],[15.178474,56.957442],[15.176827,56.946664],[15.176827,56.93139],[15.186709,56.919705],[15.188356,56.899024],[15.201531,56.889129],[15.211413,56.871131],[15.20812,56.855526],[15.211413,56.856727],[15.259175,56.859428],[15.288821,56.86483],[15.292115,56.890029],[15.306937,56.897225],[15.333289,56.892727],[15.353053,56.889129],[15.366228,56.898125],[15.37611,56.911614],[15.394227,56.919705],[15.423872,56.93139],[15.44693,56.926896],[15.456812,56.914311],[15.478222,56.908917],[15.50128,56.91521],[15.52269,56.925099],[15.541453,56.929578],[15.540885,56.930384],[15.547141,56.945172],[15.567993,56.955407],[15.59093,56.953133],[15.609697,56.942898],[15.636804,56.94176],[15.665997,56.932659],[15.682678,56.930384],[15.724382,56.939485],[15.766085,56.940623],[15.822385,56.940623],[15.832811,56.951996],[15.843237,56.967912],[15.851578,56.98723],[15.845322,57.009945],[15.832811,57.029241],[15.81196,57.046259],[15.782767,57.062135],[15.764,57.073471],[15.749404,57.085937],[15.747859,57.086566]]]}},
{"type":"Feature","id":"SWE:ADM2:SE-G.vaxjo","properties":{"shapeName":"Växjö","shapeISO":"","shapeGroup":"SWE","shapeType":"ADM2","adm1ISO":"SE-G","parentISO":"SE-G","parentID":"SWE:ADM1:SE-G","src_shape_id":"70781695B32930756633279"},"geometry":{"type":"Polygon","coordinates":[[[14.708326,56.670459],[14.730498,56.671677],[14.753556,56.663532],[14.773319,56.666248],[14.807906,56.659912],[14.829316,56.657196],[14.84908,56.662627],[14.863902,56.675297],[14.896842,56.699719],[14.933075,56.699719],[14.946251,56.709664],[14.974249,56.71328],[15.002248,56.706952],[15.005542,56.690676],[15.030246,56.673487],[15.05001,56.666248],[15.063186,56.653575],[15.073068,56.640898],[15.101066,56.649953],[15.117536,56.668963],[15.12083,56.678916],[15.124124,56.694293],[15.112595,56.709664],[15.124124,56.721414],[15.147181,56.729547],[15.16118,56.729547],[15.157063,56.737678],[15.137299,56.750322],[15.106007,56.766573],[15.081303,56.78011],[15.092831,56.797249],[15.101066,56.807169],[15.08789,56.81979],[15.099419,56.830604],[15.117536,56.838713],[15.148828,56.841416],[15.186709,56.847721],[15.20812,56.855526],[15.211413,56.871131],[15.201531,56.889129],[15.188356,56.899024],[15.186709,56.919705],[15.176827,56.93139],[15.176827,56.946664],[15.178474,56.957442],[15.193296,56.961932],[15.216354,56.968217],[15.227883,56.979886],[15.244353,56.98527],[15.260822,56.997831],[15.257528,57.012181],[15.249293,57.0328],[15.236118,57.052511],[15.227883,57.060572],[15.188356,57.06684],[15.173533,57.069526],[15.165298,57.082954],[15.163651,57.099061],[15.143887,57.110689],[15.137299,57.121419],[15.152122,57.131253],[15.15871,57.152699],[15.145534,57.162524],[15.124124,57.172346],[15.107654,57.182166],[15.107654,57.199122],[15.101561,57.213262],[15.076986,57.201474],[15.059316,57.193338],[15.038112,57.185678],[15.02486,57.167958],[15.004539,57.16221],[14.967432,57.16221],[14.931208,57.166042],[14.920165,57.181967],[14.918784,57.196928],[14.900838,57.210387],[14.869087,57.226083],[14.831814,57.247001],[14.811847,57.248707],[14.805585,57.249242],[14.743464,57.244014],[14.715854,57.236544],[14.670299,57.233555],[14.648211,57.229819],[14.638548,57.220104],[14.627504,57.211134],[14.601275,57.208892],[14.580568,57.207396],[14.564002,57.193188],[14.540534,57.18496],[14.512925,57.183463],[14.50926,57.182905],[14.517729,57.172003],[14.528723,57.158377],[14.533435,57.142189],[14.552284,57.137928],[14.582126,57.130257],[14.622964,57.115762],[14.652807,57.112351],[14.659089,57.084196],[14.659089,57.038932],[14.668513,57.014997],[14.682649,57.004734],[14.703068,56.988479],[14.703068,56.974785],[14.685791,56.965367],[14.681079,56.952521],[14.670084,56.942242],[14.651236,56.935387],[14.654377,56.913957],[14.651236,56.903667],[14.632388,56.894231],[14.627676,56.876211],[14.599404,56.87192],[14.585268,56.863335],[14.586838,56.847877],[14.605686,56.837568],[14.629246,56.828975],[14.663801,56.827257],[14.682649,56.810924],[14.688932,56.793724],[14.68422,56.730878],[14.693644,56.703296],[14.710921,56.689497],[14.717204,56.676556],[14.708326,56.670459]]]}}
]}