{"type":"FeatureCollection","bbox":[15.355304,56.210103,17.143522,58.165504],"features":[
{"type":"Feature","id":"SWE:ADM2:SE-H.torsas","properties":{"shapeName":"Torsås","shapeISO":"","shapeGroup":"SWE","shapeType":"ADM2","adm1ISO":"SE-H","parentISO":"SE-H","parentID":"SWE:ADM1:SE-H","src_shape_id":"70781695B75785870323724"},"geometry":{"type":"Polygon","coordinates":[[[16.082955,56.343438],[16.087523,56.348924],[16.111099,56.37267],[16.126102,56.398774],[16.138962,56.43197],[16.136819,56.461586],[16.160764,56.486933],[16.111314,56.490834],[16.072217,56.498028],[16.055926,56.505221],[16.036378,56.517805],[16.023345,56.526791],[16.003797,56.544756],[15.977732,56.546552],[15.954925,56.537571],[15.92886,56.537571],[15.909312,56.544756],[15.870214,56.54296],[15.80831,56.544756],[15.775729,56.553736],[15.773551,56.552936],[15.756181,56.546552],[15.720342,56.526791],[15.704051,56.505221],[15.691019,56.489035],[15.673689,56.474147],[15.699276,56.455064],[15.739312,56.435148],[15.775344,56.414483],[15.8007,56.385681],[15.820717,56.368686],[15.839401,56.356118],[15.858084,56.347985],[15.882105,56.341328],[15.922141,56.341328],[15.946162,56.344287],[15.975521,56.33615],[15.998208,56.329492],[16.019561,56.330232],[16.03424,56.340589],[16.056927,56.344287],[16.082955,56.343438]]]}},
{"type":"Feature","id":"SWE:ADM2:SE-H.kalmar","properties":{"shapeName":"Kalmar","shapeISO":"","shapeGroup":"SWE","shapeType":"ADM2","adm1ISO":"SE-H","parentISO":"SE-H","parentID":"SWE:ADM1:SE-H","src_shape_id":"70781695B81651026792808"},"geometry":{"type":"Polygon","coordinates":[[[16.160764,56.486933],[16.162538,56.488812],[16.188258,56.518383],[16.207547,56.536115],[16.216121,56.555019],[16.239697,56.5987],[16.26113,56.628185],[16.297566,56.651757],[16.325428,56.654114],[16.368294,56.672959],[16.402587,56.696503],[16.413303,56.743547],[16.436879,56.762348],[16.460455,56.771744],[16.460455,56.790531],[16.454026,56.806962],[16.439023,56.818694],[16.434736,56.837457],[16.436879,56.851524],[16.462599,56.865585],[16.471172,56.883153],[16.471172,56.899544],[16.477602,56.910076],[16.487663,56.915568],[16.459931,56.916514],[16.417576,56.914736],[16.365446,56.918293],[16.332865,56.928962],[16.313316,56.936072],[16.285297,56.939485],[16.276956,56.94631],[16.243593,56.950859],[16.241593,56.949456],[16.228997,56.940623],[16.216485,56.932659],[16.189378,56.928108],[16.176867,56.914451],[16.181037,56.899651],[16.174782,56.887122],[16.14976,56.873451],[16.143504,56.864333],[16.124737,56.865473],[16.118482,56.850653],[16.122652,56.807299],[16.137248,56.798166],[16.143504,56.781034],[16.139334,56.768466],[16.122652,56.763895],[16.089289,56.763895],[16.064267,56.761609],[16.051756,56.757037],[16.051756,56.747892],[16.068437,56.741031],[16.068437,56.736456],[16.064267,56.725018],[16.076778,56.718153],[16.085119,56.707853],[16.074693,56.694115],[16.062182,56.689535],[16.020478,56.689535],[16.007967,56.698695],[15.995456,56.706708],[15.947497,56.710142],[15.9329,56.698695],[15.930815,56.6861],[15.937071,56.671209],[15.947497,56.666626],[15.9329,56.65975],[15.92456,56.648288],[15.907878,56.643702],[15.899537,56.623059],[15.878685,56.621912],[15.859919,56.615028],[15.839067,56.617323],[15.81196,56.615028],[15.797363,56.605848],[15.779112,56.605848],[15.778597,56.605848],[15.770256,56.590925],[15.761915,56.585184],[15.749404,56.564509],[15.773551,56.552936],[15.775729,56.553736],[15.80831,56.544756],[15.870214,56.54296],[15.909312,56.544756],[15.92886,56.537571],[15.954925,56.537571],[15.977732,56.546552],[16.003797,56.544756],[16.023345,56.526791],[16.036378,56.517805],[16.055926,56.505221],[16.072217,56.498028],[16.111314,56.490834],[16.160764,56.486933]]]}},
{"type":"Feature","id":"SWE:ADM2:SE-H.emmaboda","properties":{"shapeName":"Emmaboda","shapeISO":"","shapeGroup":"SWE","shapeType":"ADM2","adm1ISO":"SE-H","parentISO":"SE-H","parentID":"SWE:ADM1:SE-H","src_shape_id":"70781695B16590141300701"},"geometry":{"type":"Polygon","coordinates":[[[15.48565,56.509038],[15.565908,56.531175],[15.593015,56.520824],[15.611782,56.508169],[15.640974,56.489754],[15.672586,56.47497],[15.673689,56.474147],[15.691019,56.489035],[15.704051,56.505221],[15.720342,56.526791],[15.756181,56.546552],[15.773551,56.552936],[15.749404,56.564509],[15.761915,56.585184],[15.770256,56.590925],[15.778597,56.605848],[15.779112,56.605848],[15.77134,56.627234],[15.752657,56.64118],[15.732639,56.649251],[15.705949,56.656587],[15.700611,56.666855],[15.691269,56.679319],[15.664579,56.680785],[15.649899,56.688115],[15.665913,56.69984],[15.679258,56.719617],[15.701945,56.73792],[15.704614,56.751825],[15.711287,56.76353],[15.727301,56.773768],[15.733974,56.791314],[15.748653,56.805199],[15.736643,56.814696],[15.713956,56.82346],[15.692604,56.816887],[15.680593,56.826381],[15.67392,56.837333],[15.663244,56.844632],[15.660575,56.85193],[15.639223,56.857038],[15.593276,56.857779],[15.570256,56.85694],[15.572163,56.854074],[15.567993,56.847232],[15.551311,56.836968],[15.499182,56.82556],[15.469989,56.822136],[15.438711,56.813007],[15.407434,56.810724],[15.392837,56.807299],[15.374071,56.791314],[15.388667,56.77875],[15.401178,56.758181],[15.411604,56.747892],[15.436626,56.742174],[15.449137,56.726162],[15.4262,56.710142],[15.428285,56.696405],[15.413689,56.678082],[15.424115,56.667771],[15.407434,56.644849],[15.388667,56.640262],[15.371227,56.633868],[15.3699,56.633382],[15.390752,56.624206],[15.407434,56.609291],[15.407434,56.598961],[15.388667,56.590925],[15.374071,56.578293],[15.367815,56.562211],[15.355304,56.540373],[15.357389,56.524275],[15.36573,56.51814],[15.367815,56.521974],[15.432456,56.524275],[15.469989,56.517373],[15.4825,56.508169],[15.48565,56.509038]]]}},
{"type":"Feature","id":"SWE:ADM2:SE-H.nybro","properties":{"shapeName":"Nybro","shapeISO":"","shapeGroup":"SWE","shapeType":"ADM2","adm1ISO":"SE-H","parentISO":"SE-H","parentID":"SWE:ADM1:SE-H","src_shape_id":"70781695B56315309655935"},"geometry":{"type":"Polygon","coordinates":[[[16.241593,56.949456],[16.234863,56.965189],[16.23249,56.989755],[16.226397,56.9926],[16.215883,56.997509],[16.189786,57.007845],[16.161316,57.011721],[16.123356,57.010429],[16.102004,57.00397],[16.073534,56.99234],[16.045065,56.994924],[16.026085,57.001386],[16.023712,57.018179],[16.016595,57.036256],[16.004733,57.04271],[15.995243,57.058194],[15.985753,57.08012],[15.962028,57.090433],[15.947793,57.102033],[15.928813,57.111052],[15.900344,57.116204],[15.852894,57.114916],[15.831542,57.109763],[15.805444,57.090433],[15.774602,57.086566],[15.747859,57.086566],[15.749404,57.085937],[15.764,57.073471],[15.782767,57.062135],[15.81196,57.046259],[15.832811,57.029241],[15.845322,57.009945],[15.851578,56.98723],[15.843237,56.967912],[15.832811,56.951996],[15.822385,56.940623],[15.766085,56.940623],[15.724382,56.939485],[15.682678,56.930384],[15.665997,56.932659],[15.636804,56.94176],[15.609697,56.942898],[15.59093,56.953133],[15.567993,56.955407],[15.547141,56.945172],[15.540885,56.930384],[15.541453,56.929578],[15.551311,56.91559],[15.572163,56.908759],[15.567993,56.895095],[15.555482,56.879148],[15.570256,56.85694],[15.593276,56.857779],[15.639223,56.857038],[15.660575,56.85193],[15.663244,56.844632],[15.67392,56.837333],[15.680593,56.826381],[15.692604,56.816887],[15.713956,56.82346],[15.736643,56.814696],[15.748653,56.805199],[15.733974,56.791314],[15.727301,56.773768],[15.711287,56.76353],[15.704614,56.751825],[15.701945,56.73792],[15.679258,56.719617],[15.665913,56.69984],[15.649899,56.688115],[15.664579,56.680785],[15.691269,56.679319],[15.700611,56.666855],[15.705949,56.656587],[15.732639,56.649251],[15.752657,56.64118],[15.77134,56.627234],[15.779112,56.605848],[15.797363,56.605848],[15.81196,56.615028],[15.839067,56.617323],[15.859919,56.615028],[15.878685,56.621912],[15.899537,56.623059],[15.907878,56.643702],[15.92456,56.648288],[15.9329,56.65975],[15.947497,56.666626],[15.937071,56.671209],[15.930815,56.6861],[15.9329,56.698695],[15.947497,56.710142],[15.995456,56.706708],[16.007967,56.698695],[16.020478,56.689535],[16.062182,56.689535],[16.074693,56.694115],[16.085119,56.707853],[16.076778,56.718153],[16.064267,56.725018],[16.068437,56.736456],[16.068437,56.741031],[16.051756,56.747892],[16.051756,56.757037],[16.064267,56.761609],[16.089289,56.763895],[16.122652,56.763895],[16.139334,56.768466],[16.143504,56.781034],[16.137248,56.798166],[16.122652,56.807299],[16.118482,56.850653],[16.124737,56.865473],[16.143504,56.864333],[16.14976,56.873451],[16.174782,56.887122],[16.181037,56.899651],[16.176867,56.914451],[16.189378,56.928108],[16.216485,56.932659],[16.228997,56.940623],[16.241593,56.949456]]]}},
{"type":"Feature","id":"SWE:ADM2:SE-H.monsteras","properties":{"shapeName":"Mönsterås","shapeISO":"","shapeGroup":"SWE","shapeType":"ADM2","adm1ISO":"SE-H","parentISO":"SE-H","parentID":"SWE:ADM1:SE-H","src_shape_id":"70781695B14809952368056"},"geometry":{"type":"Polygon","coordinates":[[[16.487663,56.915568],[16.501178,56.922946],[16.509751,56.956853],[16.524754,56.987226],[16.537614,57.01174],[16.56762,57.042068],[16.58048,57.065381],[16.58048,57.093336],[16.569763,57.111962],[16.552617,57.131741],[16.53177,57.155389],[16.507698,57.156114],[16.474483,57.154827],[16.450758,57.168979],[16.436523,57.192125],[16.408054,57.203692],[16.372467,57.210117],[16.341624,57.221679],[16.339252,57.239656],[16.339252,57.257625],[16.32739,57.264041],[16.296547,57.27302],[16.27045,57.260192],[16.25147,57.252492],[16.213511,57.252492],[16.177923,57.249925],[16.173763,57.247393],[16.158944,57.238372],[16.166061,57.221679],[16.166061,57.199837],[16.168434,57.186983],[16.154199,57.16512],[16.144709,57.14968],[16.161316,57.132946],[16.185041,57.118781],[16.196903,57.108475],[16.220628,57.098167],[16.230118,57.087855],[16.253843,57.076252],[16.268078,57.064644],[16.263333,57.054324],[16.26096,57.034965],[16.263333,57.014304],[16.26096,57.001386],[16.226397,56.9926],[16.23249,56.989755],[16.234863,56.965189],[16.241593,56.949456],[16.243593,56.950859],[16.276956,56.94631],[16.285297,56.939485],[16.313316,56.936072],[16.332865,56.928962],[16.365446,56.918293],[16.417576,56.914736],[16.459931,56.916514],[16.487663,56.915568]]]}},
{"type":"Feature","id":"SWE:ADM2:SE-H.hogsby","properties":{"shapeName":"Högsby","shapeISO":"","shapeGroup":"SWE","shapeType":"ADM2","adm1ISO":"SE-H","parentISO":"SE-H","parentID":"SWE:ADM1:SE-H","src_shape_id":"70781695B22116404340246"},"geometry":{"type":"Polygon","coordinates":[[[16.226397,56.9926],[16.26096,57.001386],[16.263333,57.014304],[16.26096,57.034965],[16.263333,57.054324],[16.268078,57.064644],[16.253843,57.076252],[16.230118,57.087855],[16.220628,57.098167],[16.196903,57.108475],[16.185041,57.118781],[16.161316,57.132946],[16.144709,57.14968],[16.154199,57.16512],[16.168434,57.186983],[16.166061,57.199837],[16.166061,57.221679],[16.158944,57.238372],[16.173763,57.247393],[16.170806,57.260192],[16.175551,57.275585],[16.189786,57.285845],[16.144709,57.285845],[16.111494,57.28328],[16.102004,57.275585],[16.085397,57.270455],[16.061672,57.276868],[16.056086,57.278029],[16.03083,57.28328],[15.997615,57.274303],[15.9644,57.27302],[15.931186,57.27815],[15.905089,57.274303],[15.864756,57.274303],[15.848149,57.270455],[15.822052,57.258908],[15.798327,57.251209],[15.793582,57.234521],[15.765112,57.234521],[15.757995,57.244791],[15.736643,57.255059],[15.7058,57.260192],[15.679703,57.260192],[15.653606,57.266606],[15.625136,57.261475],[15.608529,57.242224],[15.601411,57.235805],[15.551503,57.232319],[15.551548,57.232172],[15.553397,57.226169],[15.574248,57.214879],[15.580504,57.196809],[15.58676,57.17647],[15.601356,57.166296],[15.624293,57.158381],[15.645145,57.153857],[15.663911,57.139152],[15.678508,57.122177],[15.69936,57.110855],[15.724382,57.096133],[15.747859,57.086566],[15.774602,57.086566],[15.805444,57.090433],[15.831542,57.109763],[15.852894,57.114916],[15.900344,57.116204],[15.928813,57.111052],[15.947793,57.102033],[15.962028,57.090433],[15.985753,57.08012],[15.995243,57.058194],[16.004733,57.04271],[16.016595,57.036256],[16.023712,57.018179],[16.026085,57.001386],[16.045065,56.994924],[16.073534,56.99234],[16.102004,57.00397],[16.123356,57.010429],[16.161316,57.011721],[16.189786,57.007845],[16.215883,56.997509],[16.226397,56.9926]]]}},
{"type":"Feature","id":"SWE:ADM2:SE-H.oskarshamn","properties":{"shapeName":"Oskarshamn","shapeISO":"","shapeGroup":"SWE","shapeType":"ADM2","adm1ISO":"SE-H","parentISO":"SE-H","parentID":"SWE:ADM1:SE-H","src_shape_id":"70781695B81120519064145"},"geometry":{"type":"Polygon","coordinates":[[[16.53177,57.155389],[16.509751,57.179401],[16.490461,57.195661],[16.477602,57.221198],[16.481888,57.246717],[16.509751,57.27106],[16.537614,57.303492],[16.559047,57.327798],[16.597626,57.352087],[16.625489,57.378671],[16.642635,57.401772],[16.666211,57.417934],[16.685501,57.443317],[16.689787,57.460614],[16.685501,57.492879],[16.685501,57.511303],[16.670498,57.538922],[16.638348,57.574566],[16.630969,57.595332],[16.614459,57.597374],[16.571755,57.599917],[16.543285,57.610085],[16.514815,57.594831],[16.495835,57.583387],[16.486345,57.568122],[16.472111,57.556669],[16.462621,57.545212],[16.415171,57.538846],[16.358232,57.540119],[16.323529,57.542447],[16.320272,57.542666],[16.30841,57.533752],[16.294175,57.529931],[16.256215,57.528657],[16.244353,57.514644],[16.227745,57.510821],[16.210544,57.50158],[16.204021,57.498075],[16.194531,57.487875],[16.175551,57.482774],[16.158944,57.480224],[16.144709,57.475122],[16.142336,57.457259],[16.142336,57.445771],[16.130474,57.444494],[16.118611,57.43811],[16.109122,57.430448],[16.090142,57.43811],[16.080652,57.444494],[16.068789,57.450877],[16.054555,57.461087],[16.023712,57.461087],[15.997615,57.449601],[16.014222,57.436833],[16.03083,57.430448],[16.04981,57.416397],[16.0593,57.398505],[16.056927,57.372931],[16.04981,57.363976],[16.056927,57.346059],[16.056927,57.32429],[16.052182,57.319167],[16.056086,57.278029],[16.061672,57.276868],[16.085397,57.270455],[16.102004,57.275585],[16.111494,57.28328],[16.144709,57.285845],[16.189786,57.285845],[16.175551,57.275585],[16.170806,57.260192],[16.173763,57.247393],[16.177923,57.249925],[16.213511,57.252492],[16.25147,57.252492],[16.27045,57.260192],[16.296547,57.27302],[16.32739,57.264041],[16.339252,57.257625],[16.339252,57.239656],[16.341624,57.221679],[16.372467,57.210117],[16.408054,57.203692],[16.436523,57.192125],[16.450758,57.168979],[16.474483,57.154827],[16.507698,57.156114],[16.53177,57.155389]]]}},
{"type":"Feature","id":"SWE:ADM2:SE-H.hultsfred","properties":{"shapeName":"Hultsfred","shapeISO":"","shapeGroup":"SWE","shapeType":"ADM2","adm1ISO":"SE-H","parentISO":"SE-H","parentID":"SWE:ADM1:SE-H","src_shape_id":"70781695B5554293763510"},"geometry":{"type":"Polygon","coordinates":[[[16.056086,57.278029],[16.052182,57.319167],[16.056927,57.32429],[16.056927,57.346059],[16.04981,57.363976],[16.056927,57.372931],[16.0593,57.398505],[16.04981,57.416397],[16.03083,57.430448],[16.014222,57.436833],[15.997615,57.449601],[16.023712,57.461087],[16.054555,57.461087],[16.068789,57.450877],[16.080652,57.444494],[16.090142,57.43811],[16.109122,57.430448],[16.118611,57.43811],[16.130474,57.444494],[16.142336,57.445771],[16.142336,57.457259],[16.144709,57.475122],[16.158944,57.480224],[16.175551,57.482774],[16.194531,57.487875],[16.204021,57.498075],[16.210544,57.50158],[16.194531,57.527384],[16.166061,57.529931],[16.154199,57.538846],[16.125729,57.543939],[16.092514,57.549031],[16.075907,57.561759],[16.0593,57.571939],[16.047437,57.583387],[16.033202,57.598645],[16.007105,57.612627],[15.985753,57.611356],[15.966773,57.606272],[15.957283,57.594831],[15.933558,57.588474],[15.905089,57.58593],[15.876619,57.580843],[15.855267,57.570666],[15.838659,57.559214],[15.807817,57.565577],[15.8007,57.582115],[15.793582,57.597374],[15.78172,57.607543],[15.74376,57.607543],[15.71529,57.612627],[15.686821,57.621521],[15.665475,57.623807],[15.649315,57.611306],[15.634719,57.599018],[15.616823,57.58623],[15.615952,57.585607],[15.628463,57.572192],[15.640974,57.550941],[15.661826,57.533036],[15.663911,57.52296],[15.645145,57.511762],[15.640974,57.483751],[15.636804,57.47254],[15.613867,57.465812],[15.601356,57.477025],[15.582589,57.487113],[15.559652,57.490475],[15.526289,57.48263],[15.509608,57.469177],[15.499182,57.446743],[15.522119,57.433277],[15.536715,57.410822],[15.526289,57.400712],[15.53046,57.372616],[15.53046,57.352374],[15.515863,57.335496],[15.490841,57.327618],[15.492926,57.315233],[15.484585,57.300592],[15.488756,57.285945],[15.513778,57.274674],[15.540885,57.260016],[15.549226,57.239711],[15.551503,57.232319],[15.601411,57.235805],[15.608529,57.242224],[15.625136,57.261475],[15.653606,57.266606],[15.679703,57.260192],[15.7058,57.260192],[15.736643,57.255059],[15.757995,57.244791],[15.765112,57.234521],[15.793582,57.234521],[15.798327,57.251209],[15.822052,57.258908],[15.848149,57.270455],[15.864756,57.274303],[15.905089,57.274303],[15.931186,57.27815],[15.9644,57.27302],[15.997615,57.274303],[16.03083,57.28328],[16.056086,57.278029]]]}},
{"type":"Feature","id":"SWE:ADM2:SE-H.vimmerby","properties":{"shapeName":"Vimmerby","shapeISO":"","shapeGroup":"SWE","shapeType":"ADM2","adm1ISO":"SE-H","parentISO":"SE-H","parentID":"SWE:ADM1:SE-H","src_shape_id":"70781695B52045533675939"},"geometry":{"type":"Polygon","coordinates":[[[16.323529,57.542447],[16.303665,57.560487],[16.27994,57.577027],[16.268078,57.598645],[16.249098,57.608814],[16.234863,57.624062],[16.230118,57.643113],[16.211138,57.646922],[16.187413,57.644383],[16.156571,57.652],[16.144709,57.665961],[16.128101,57.673574],[16.120984,57.692599],[16.135219,57.701474],[16.161316,57.710346],[16.175551,57.71795],[16.182668,57.736952],[16.182668,57.77619],[16.170806,57.790103],[16.156571,57.801483],[16.130474,57.814122],[16.130474,57.844439],[16.128101,57.862112],[16.111494,57.868422],[16.099632,57.8823],[16.087769,57.894911],[16.07421,57.897313],[16.072608,57.893906],[16.051756,57.883931],[16.028819,57.875061],[16.007967,57.866189],[15.995456,57.859534],[15.987115,57.849549],[15.964178,57.836231],[15.939156,57.834011],[15.918304,57.840671],[15.905793,57.849549],[15.880771,57.850658],[15.851578,57.841781],[15.822385,57.849549],[15.801534,57.862862],[15.774426,57.882822],[15.736893,57.887256],[15.682678,57.883931],[15.638889,57.881713],[15.622208,57.870625],[15.615952,57.840671],[15.59093,57.832901],[15.568644,57.823012],[15.565908,57.821798],[15.557567,57.797359],[15.536715,57.781798],[15.513778,57.780687],[15.47416,57.779575],[15.455393,57.758445],[15.455393,57.738485],[15.459563,57.718376],[15.472074,57.711693],[15.499182,57.699438],[15.53046,57.68718],[15.570078,57.670457],[15.618037,57.651494],[15.659741,57.639219],[15.668082,57.625824],[15.665475,57.623807],[15.686821,57.621521],[15.71529,57.612627],[15.74376,57.607543],[15.78172,57.607543],[15.793582,57.597374],[15.8007,57.582115],[15.807817,57.565577],[15.838659,57.559214],[15.855267,57.570666],[15.876619,57.580843],[15.905089,57.58593],[15.933558,57.588474],[15.957283,57.594831],[15.966773,57.606272],[15.985753,57.611356],[16.007105,57.612627],[16.033202,57.598645],[16.047437,57.583387],[16.0593,57.571939],[16.075907,57.561759],[16.092514,57.549031],[16.125729,57.543939],[16.154199,57.538846],[16.166061,57.529931],[16.194531,57.527384],[16.210544,57.50158],[16.227745,57.510821],[16.244353,57.514644],[16.256215,57.528657],[16.294175,57.529931],[16.30841,57.533752],[16.320272,57.542666],[16.323529,57.542447]]]}},
{"type":"Feature","id":"SWE:ADM2:SE-H.vastervik","properties":{"shapeName":"Västervik","shapeISO":"","shapeGroup":"SWE","shapeType":"ADM2","adm1ISO":"SE-H","parentISO":"SE-H","parentID":"SWE:ADM1:SE-H","src_shape_id":"70781695B21983327863025"},"geometry":{"type":"Polygon","coordinates":[[[16.630969,57.595332],[16.629775,57.598692],[16.644778,57.625097],[16.664068,57.642308],[16.681214,57.658364],[16.691931,57.69389],[16.715507,57.708778],[16.715507,57.748831],[16.681214,57.773984],[16.649065,57.807114],[16.623345,57.825379],[16.597626,57.840213],[16.55476,57.861883],[16.529041,57.88126],[16.511894,57.891514],[16.511894,57.90746],[16.546187,57.90746],[16.57405,57.909737],[16.614772,57.916568],[16.642635,57.912014],[16.672641,57.901766],[16.706934,57.891514],[16.728367,57.885818],[16.756229,57.874422],[16.779805,57.878981],[16.796952,57.890375],[16.801238,57.908598],[16.792665,57.935916],[16.764802,57.955253],[16.732653,57.984808],[16.739083,58.008662],[16.760739,58.016855],[16.714845,58.014503],[16.66063,58.016712],[16.639778,58.026651],[16.623097,58.033275],[16.618926,58.057554],[16.606415,58.065275],[16.60016,58.077406],[16.598074,58.095043],[16.585563,58.10496],[16.573052,58.125887],[16.556371,58.132493],[16.533434,58.131392],[16.516752,58.125887],[16.500071,58.118178],[16.481304,58.118178],[16.458367,58.134695],[16.445856,58.142399],[16.425004,58.150103],[16.414789,58.150103],[16.397897,58.150103],[16.364534,58.144601],[16.343682,58.142399],[16.333256,58.146801],[16.32283,58.152303],[16.306148,58.160004],[16.291552,58.165504],[16.2707,58.165504],[16.251934,58.157804],[16.235252,58.149002],[16.222741,58.140198],[16.195634,58.133594],[16.185208,58.125887],[16.193548,58.109367],[16.185208,58.097247],[16.164356,58.089532],[16.147674,58.099451],[16.130993,58.103858],[16.103885,58.097247],[16.083034,58.097247],[16.0455,58.095043],[16.03149,58.088695],[16.030904,58.08843],[16.026734,58.072995],[16.016308,58.068584],[15.999626,58.056451],[16.003797,58.047624],[16.028819,58.037691],[16.053841,58.026651],[16.078863,58.012294],[16.083034,57.994616],[16.053841,57.983563],[16.030904,57.976929],[16.028819,57.957021],[16.049671,57.951489],[16.055926,57.934888],[16.072608,57.926031],[16.078863,57.907203],[16.07421,57.897313],[16.087769,57.894911],[16.099632,57.8823],[16.111494,57.868422],[16.128101,57.862112],[16.130474,57.844439],[16.130474,57.814122],[16.156571,57.801483],[16.170806,57.790103],[16.182668,57.77619],[16.182668,57.736952],[16.175551,57.71795],[16.161316,57.710346],[16.135219,57.701474],[16.120984,57.692599],[16.128101,57.673574],[16.144709,57.665961],[16.156571,57.652],[16.187413,57.644383],[16.211138,57.646922],[16.230118,57.643113],[16.234863,57.624062],[16.249098,57.608814],[16.268078,57.598645],[16.27994,57.577027],[16.303665,57.560487],[16.323529,57.542447],[16.358232,57.540119],[16.415171,57.538846],[16.462621,57.545212],[16.472111,57.556669],[16.486345,57.568122],[16.495835,57.583387],[16.514815,57.594831],[16.543285,57.610085],[16.571755,57.599917],[16.614459,57.597374],[16.630969,57.595332]]]}},
{"type":"Feature","id":"SWE:ADM2:SE-H.borgholm","properties":{"shapeName":"Borgholm","shapeISO":"","shapeGroup":"SWE","shapeType":"ADM2","adm1ISO":"SE-H","parentISO":"SE-H","parentID":"SWE:ADM1:SE-H","src_shape_id":"70781695B15457803066593"},"geometry":{"type":"Polygon","coordinates":[[[16.723953,56.67833],[16.733083,56.699107],[16.75918,56.732959],[16.76867,56.771981],[16.78765,56.792776],[16.820865,56.817455],[16.856452,56.838225],[16.884922,56.857686],[16.884922,56.89917],[16.887294,56.943196],[16.884922,56.974242],[16.911019,56.998801],[16.927626,57.013013],[16.939489,57.036256],[16.956096,57.058194],[16.979821,57.071093],[16.991683,57.095589],[17.013035,57.117493],[17.032015,57.148393],[17.05574,57.176696],[17.079465,57.207547],[17.079465,57.222963],[17.062858,57.24094],[17.060485,57.269172],[17.069975,57.287127],[17.08421,57.299946],[17.105562,57.306354],[17.136404,57.31148],[17.143522,57.32301],[17.138777,57.342218],[17.129287,57.352459],[17.115052,57.369093],[17.086582,57.37421],[17.04625,57.362696],[17.005918,57.338377],[16.982193,57.326852],[16.970331,57.314042],[16.960841,57.308917],[16.953724,57.280715],[16.941861,57.267889],[16.932371,57.249925],[16.929999,57.233237],[16.929999,57.213971],[16.908646,57.199837],[16.896784,57.179268],[16.894412,57.159974],[16.894412,57.123932],[16.877804,57.10461],[16.858824,57.086566],[16.854079,57.068514],[16.8351,57.055614],[16.832727,57.040128],[16.813747,57.022053],[16.79714,56.996217],[16.761553,56.957428],[16.747318,56.934136],[16.723593,56.913419],[16.697496,56.897874],[16.659536,56.892691],[16.633439,56.868061],[16.616832,56.848606],[16.600224,56.825245],[16.574127,56.795375],[16.559892,56.774581],[16.5765,56.771981],[16.609714,56.770681],[16.633439,56.761579],[16.638184,56.745971],[16.633439,56.73426],[16.614459,56.721245],[16.612087,56.709526],[16.619204,56.696502],[16.654791,56.696502],[16.669026,56.688685],[16.688006,56.693897],[16.706986,56.688685],[16.723953,56.67833]]]}},
{"type":"Feature","id":"SWE:ADM2:SE-H.morbylanga","properties":{"shapeName":"Mörbylånga","shapeISO":"","shapeGroup":"SWE","shapeType":"ADM2","adm1ISO":"SE-H","parentISO":"SE-H","parentID":"SWE:ADM1:SE-H","src_shape_id":"70781695B97428107441054"},"geometry":{"type":"Polygon","coordinates":[[[16.559892,56.774581],[16.536168,56.745971],[16.512443,56.714735],[16.495835,56.696502],[16.457876,56.648273],[16.424661,56.614345],[16.408054,56.584306],[16.396191,56.562088],[16.379584,56.542473],[16.365349,56.52154],[16.372467,56.490118],[16.393819,56.475707],[16.396191,56.453426],[16.393819,56.429819],[16.405681,56.406198],[16.417544,56.383876],[16.419916,56.362854],[16.410426,56.340506],[16.391446,56.32867],[16.384329,56.315514],[16.381956,56.291822],[16.398564,56.25362],[16.403309,56.22989],[16.408054,56.210103],[16.438896,56.214061],[16.469738,56.232527],[16.483973,56.257574],[16.521933,56.301037],[16.536168,56.343136],[16.569382,56.386502],[16.600224,56.441624],[16.609714,56.471776],[16.635812,56.513687],[16.647674,56.556859],[16.671399,56.584306],[16.697496,56.599981],[16.723593,56.627397],[16.716476,56.661314],[16.723953,56.67833],[16.706986,56.688685],[16.688006,56.693897],[16.669026,56.688685],[16.654791,56.696502],[16.619204,56.696502],[16.612087,56.709526],[16.614459,56.721245],[16.633439,56.73426],[16.638184,56.745971],[16.633439,56.761579],[16.609714,56.770681],[16.5765,56.771981],[16.559892,56.774581]]]}}
]}