{"type":"FeatureCollection","bbox":[14.429482,56.000546,16.08538,56.531175],"features":[
{"type":"Feature","id":"SWE:ADM2:SE-K.olofstrom","properties":{"shapeName":"Olofström","shapeISO":"","shapeGroup":"SWE","shapeType":"ADM2","adm1ISO":"SE-K","parentISO":"SE-K","parentID":"SWE:ADM1:SE-K","src_shape_id":"70781695B37822340313581"},"geometry":{"type":"Polygon","coordinates":[[[14.433157,56.331692],[14.444078,56.323619],[14.458674,56.317837],[14.460759,56.278499],[14.467015,56.258815],[14.471529,56.257627],[14.506634,56.248389],[14.569189,56.250706],[14.590041,56.246072],[14.5978,56.220197],[14.631745,56.222894],[14.663022,56.22869],[14.663606,56.229037],[14.692215,56.246072],[14.700556,56.25534],[14.725578,56.271553],[14.748515,56.279657],[14.752685,56.294702],[14.761026,56.306271],[14.765197,56.327087],[14.74643,56.344425],[14.723493,56.368686],[14.713067,56.381387],[14.713067,56.409982],[14.696385,56.417159],[14.683874,56.433304],[14.652597,56.448288],[14.635915,56.46442],[14.609841,56.475221],[14.594211,56.481695],[14.567104,56.481695],[14.540725,56.480238],[14.542082,56.478241],[14.52123,56.462115],[14.502463,56.450593],[14.46493,56.434456],[14.444078,56.417159],[14.429482,56.389468],[14.429482,56.35598],[14.431567,56.332868],[14.433157,56.331692]]]}},
{"type":"Feature","id":"SWE:ADM2:SE-K.solvesborg","properties":{"shapeName":"Sölvesborg","shapeISO":"","shapeGroup":"SWE","shapeType":"ADM2","adm1ISO":"SE-K","parentISO":"SE-K","parentID":"SWE:ADM1:SE-K","src_shape_id":"70781695B90758337491220"},"geometry":{"type":"Polygon","coordinates":[[[14.558763,56.048276],[14.561502,56.048456],[14.600081,56.038878],[14.627944,56.02331],[14.64509,56.005339],[14.683669,56.000546],[14.728678,56.001744],[14.760828,56.014925],[14.769401,56.038878],[14.760828,56.06162],[14.739395,56.071192],[14.720105,56.093915],[14.700816,56.11543],[14.683669,56.136933],[14.683669,56.167971],[14.70292,56.181069],[14.69013,56.198541],[14.677619,56.219416],[14.663606,56.229037],[14.663022,56.22869],[14.631745,56.222894],[14.5978,56.220197],[14.598382,56.218256],[14.615063,56.19042],[14.608808,56.161402],[14.594211,56.135848],[14.57753,56.114928],[14.560848,56.09167],[14.558763,56.068398],[14.558763,56.048276]]]}},
{"type":"Feature","id":"SWE:ADM2:SE-K.karlshamn","properties":{"shapeName":"Karlshamn","shapeISO":"","shapeGroup":"SWE","shapeType":"ADM2","adm1ISO":"SE-K","parentISO":"SE-K","parentID":"SWE:ADM1:SE-K","src_shape_id":"70781695B12582384293132"},"geometry":{"type":"Polygon","coordinates":[[[14.663606,56.229037],[14.677619,56.219416],[14.69013,56.198541],[14.70292,56.181069],[14.737252,56.181095],[14.773687,56.178709],[14.805837,56.163197],[14.867992,56.162004],[14.979443,56.163197],[15.075889,56.162144],[15.075889,56.219416],[15.090485,56.236802],[15.077974,56.250706],[15.069634,56.275026],[15.050867,56.283129],[15.046697,56.295859],[15.036271,56.301644],[15.030015,56.313211],[15.042526,56.3294],[15.048782,56.351359],[15.046697,56.37215],[15.038356,56.380233],[15.02376,56.390622],[15.007078,56.394084],[14.973939,56.395432],[14.950024,56.395432],[14.944602,56.397766],[14.944522,56.397546],[14.91533,56.395238],[14.894478,56.38485],[14.881967,56.38485],[14.869456,56.39293],[14.844434,56.395238],[14.831922,56.402162],[14.804815,56.410238],[14.756856,56.411392],[14.715152,56.409085],[14.713067,56.409982],[14.713067,56.381387],[14.723493,56.368686],[14.74643,56.344425],[14.765197,56.327087],[14.761026,56.306271],[14.752685,56.294702],[14.748515,56.279657],[14.725578,56.271553],[14.700556,56.25534],[14.692215,56.246072],[14.663606,56.229037]]]}},
{"type":"Feature","id":"SWE:ADM2:SE-K.ronneby","properties":{"shapeName":"Ronneby","shapeISO":"","shapeGroup":"SWE","shapeType":"ADM2","adm1ISO":"SE-K","parentISO":"SE-K","parentID":"SWE:ADM1:SE-K","src_shape_id":"70781695B61980194146420"},"geometry":{"type":"Polygon","coordinates":[[[15.075889,56.162144],[15.088751,56.162004],[15.125187,56.159617],[15.165909,56.158423],[15.253784,56.159617],[15.294507,56.152455],[15.320226,56.139321],[15.384525,56.142903],[15.403814,56.150067],[15.418817,56.163197],[15.438107,56.176323],[15.485259,56.185866],[15.515536,56.184813],[15.511693,56.196221],[15.505437,56.215937],[15.490841,56.224053],[15.484585,56.244914],[15.503352,56.250706],[15.488756,56.266921],[15.492926,56.284287],[15.509608,56.297016],[15.490841,56.307428],[15.432456,56.306271],[15.409519,56.312055],[15.397008,56.328244],[15.384497,56.340959],[15.390752,56.351359],[15.388667,56.365221],[15.3699,56.374459],[15.346963,56.376769],[15.328197,56.388313],[15.3136,56.399854],[15.328197,56.406777],[15.359474,56.412545],[15.36573,56.426385],[15.384497,56.430998],[15.415774,56.433304],[15.436626,56.435609],[15.438711,56.449441],[15.451222,56.465571],[15.480415,56.469027],[15.501267,56.467875],[15.509608,56.472482],[15.505437,56.488603],[15.490841,56.501265],[15.48565,56.509038],[15.4825,56.508169],[15.469989,56.517373],[15.432456,56.524275],[15.367815,56.521974],[15.36573,56.51814],[15.36156,56.51047],[15.353219,56.487452],[15.330282,56.480544],[15.3136,56.481695],[15.292748,56.493208],[15.261471,56.493208],[15.240619,56.487452],[15.228108,56.474786],[15.219767,56.458659],[15.205171,56.450593],[15.186404,56.451746],[15.165552,56.460963],[15.13636,56.478241],[15.082145,56.479392],[15.052952,56.474786],[15.013334,56.463268],[15.002908,56.451746],[14.990397,56.436762],[14.973715,56.424079],[14.950778,56.414852],[14.944602,56.397766],[14.950024,56.395432],[14.973939,56.395432],[15.007078,56.394084],[15.02376,56.390622],[15.038356,56.380233],[15.046697,56.37215],[15.048782,56.351359],[15.042526,56.3294],[15.030015,56.313211],[15.036271,56.301644],[15.046697,56.295859],[15.050867,56.283129],[15.069634,56.275026],[15.077974,56.250706],[15.090485,56.236802],[15.075889,56.219416],[15.075889,56.162144]]]}},
{"type":"Feature","id":"SWE:ADM2:SE-K.karlskrona","properties":{"shapeName":"Karlskrona","shapeISO":"","shapeGroup":"SWE","shapeType":"ADM2","adm1ISO":"SE-K","parentISO":"SE-K","parentID":"SWE:ADM1:SE-K","src_shape_id":"70781695B53871800350845"},"geometry":{"type":"Polygon","coordinates":[[[15.515536,56.184813],[15.519552,56.184673],[15.570991,56.177516],[15.654579,56.177516],[15.804609,56.173937],[15.815326,56.162004],[15.808896,56.145292],[15.787463,56.128572],[15.78532,56.107064],[15.821755,56.103479],[15.838902,56.090328],[15.864621,56.086741],[15.898914,56.102283],[15.911774,56.140515],[15.933206,56.163197],[15.950353,56.177516],[15.976072,56.200176],[16.008222,56.214481],[16.025368,56.227589],[16.038228,56.252602],[16.053231,56.278787],[16.076807,56.295442],[16.08538,56.312089],[16.074664,56.333481],[16.082955,56.343438],[16.056927,56.344287],[16.03424,56.340589],[16.019561,56.330232],[15.998208,56.329492],[15.975521,56.33615],[15.946162,56.344287],[15.922141,56.341328],[15.882105,56.341328],[15.858084,56.347985],[15.839401,56.356118],[15.820717,56.368686],[15.8007,56.385681],[15.775344,56.414483],[15.739312,56.435148],[15.699276,56.455064],[15.673689,56.474147],[15.672586,56.47497],[15.640974,56.489754],[15.611782,56.508169],[15.593015,56.520824],[15.565908,56.531175],[15.48565,56.509038],[15.490841,56.501265],[15.505437,56.488603],[15.509608,56.472482],[15.501267,56.467875],[15.480415,56.469027],[15.451222,56.465571],[15.438711,56.449441],[15.436626,56.435609],[15.415774,56.433304],[15.384497,56.430998],[15.36573,56.426385],[15.359474,56.412545],[15.328197,56.406777],[15.3136,56.399854],[15.328197,56.388313],[15.346963,56.376769],[15.3699,56.374459],[15.388667,56.365221],[15.390752,56.351359],[15.384497,56.340959],[15.397008,56.328244],[15.409519,56.312055],[15.432456,56.306271],[15.490841,56.307428],[15.509608,56.297016],[15.492926,56.284287],[15.488756,56.266921],[15.503352,56.250706],[15.484585,56.244914],[15.490841,56.224053],[15.505437,56.215937],[15.511693,56.196221],[15.515536,56.184813]]]}}
]}