{"type":"FeatureCollection","bbox":[12.467509,55.339391,14.615063,56.562211],"features":[
{"type":"Feature","id":"SWE:ADM2:SE-M.hoganas","properties":{"shapeName":"Höganäs","shapeISO":"","shapeGroup":"SWE","shapeType":"ADM2","adm1ISO":"SE-M","parentISO":"SE-M","parentID":"SWE:ADM1:SE-M","src_shape_id":"70781695B23199884308581"},"geometry":{"type":"Polygon","coordinates":[[[12.771525,56.233546],[12.75471,56.233546],[12.705414,56.246648],[12.692554,56.253792],[12.643259,56.272838],[12.570387,56.301388],[12.523235,56.3109],[12.486799,56.312089],[12.467509,56.299009],[12.497515,56.277597],[12.525378,56.240693],[12.548954,56.210906],[12.553241,56.193022],[12.568244,56.167971],[12.590859,56.147298],[12.613285,56.153273],[12.650819,56.167207],[12.675841,56.167207],[12.690437,56.174173],[12.705034,56.183458],[12.713374,56.1939],[12.740482,56.200861],[12.757163,56.213618],[12.767589,56.22753],[12.771525,56.233546]]]}},
{"type":"Feature","id":"SWE:ADM2:SE-M.helsingborg","properties":{"shapeName":"Helsingborg","shapeISO":"","shapeGroup":"SWE","shapeType":"ADM2","adm1ISO":"SE-M","parentISO":"SE-M","parentID":"SWE:ADM1:SE-M","src_shape_id":"70781695B77389935020700"},"geometry":{"type":"Polygon","coordinates":[[[12.590859,56.147298],[12.613253,56.126183],[12.649689,56.089132],[12.686124,56.058031],[12.718274,56.016123],[12.751911,55.981002],[12.8364,55.981002],[12.861422,55.969335],[12.88853,55.965834],[12.909382,55.974002],[12.928148,55.975169],[12.940659,55.968168],[12.961511,55.964667],[12.962936,55.964977],[12.999045,55.972835],[13.007385,55.983336],[12.996537,55.997494],[12.994874,55.999663],[12.969852,56.007825],[12.942745,56.024142],[12.94483,56.036958],[12.949,56.060249],[12.949,56.078872],[12.926063,56.098649],[12.905211,56.119578],[12.895828,56.124809],[12.88853,56.128876],[12.863508,56.152112],[12.857772,56.157918],[12.840571,56.175333],[12.828059,56.195061],[12.834315,56.215937],[12.821804,56.234485],[12.817211,56.237965],[12.816865,56.23712],[12.780429,56.233546],[12.771525,56.233546],[12.767589,56.22753],[12.757163,56.213618],[12.740482,56.200861],[12.713374,56.1939],[12.705034,56.183458],[12.690437,56.174173],[12.675841,56.167207],[12.650819,56.167207],[12.613285,56.153273],[12.590859,56.147298]]]}},
{"type":"Feature","id":"SWE:ADM2:SE-M.bastad","properties":{"shapeName":"Båstad","shapeISO":"","shapeGroup":"SWE","shapeType":"ADM2","adm1ISO":"SE-M","parentISO":"SE-M","parentID":"SWE:ADM1:SE-M","src_shape_id":"70781695B81213219414601"},"geometry":{"type":"Polygon","coordinates":[[[13.000789,56.393213],[12.996959,56.396392],[12.992789,56.405624],[13.007385,56.419466],[13.011556,56.433304],[12.996959,56.458659],[12.978193,56.46442],[12.918868,56.470301],[12.894023,56.459217],[12.851158,56.449742],[12.808292,56.453296],[12.771856,56.46869],[12.743993,56.46869],[12.688268,56.460402],[12.649689,56.44145],[12.628256,56.420118],[12.643259,56.394029],[12.677551,56.389283],[12.701127,56.383351],[12.73542,56.365548],[12.750423,56.341797],[12.756226,56.337703],[12.7801,56.342114],[12.819719,56.344425],[12.838485,56.353669],[12.863508,56.357135],[12.903126,56.364066],[12.905211,56.389468],[12.915637,56.401008],[12.94483,56.390622],[12.969852,56.389468],[13.000789,56.393213]]]}},
{"type":"Feature","id":"SWE:ADM2:SE-M.angelholm","properties":{"shapeName":"Ängelholm","shapeISO":"","shapeGroup":"SWE","shapeType":"ADM2","adm1ISO":"SE-M","parentISO":"SE-M","parentID":"SWE:ADM1:SE-M","src_shape_id":"70781695B30639939072107"},"geometry":{"type":"Polygon","coordinates":[[[12.857772,56.157918],[12.865593,56.15908],[12.907297,56.160241],[12.94483,56.161402],[12.965682,56.174173],[12.986534,56.178815],[12.996959,56.198541],[13.015726,56.20666],[13.031713,56.211447],[13.042834,56.214778],[13.044919,56.232167],[13.088708,56.234485],[13.122071,56.23912],[13.145008,56.250706],[13.157316,56.253745],[13.163774,56.25534],[13.167945,56.273868],[13.178371,56.292388],[13.195052,56.302801],[13.224245,56.316681],[13.22633,56.331712],[13.243805,56.343098],[13.228415,56.354825],[13.197137,56.374459],[13.172115,56.380233],[13.132497,56.380233],[13.076197,56.377923],[13.042834,56.377923],[13.009471,56.386005],[13.000789,56.393213],[12.969852,56.389468],[12.94483,56.390622],[12.915637,56.401008],[12.905211,56.389468],[12.903126,56.364066],[12.863508,56.357135],[12.838485,56.353669],[12.819719,56.344425],[12.7801,56.342114],[12.756226,56.337703],[12.773999,56.325163],[12.799719,56.304955],[12.827581,56.263316],[12.817211,56.237965],[12.821804,56.234485],[12.834315,56.215937],[12.828059,56.195061],[12.840571,56.175333],[12.857772,56.157918]]]}},
{"type":"Feature","id":"SWE:ADM2:SE-M.astorp","properties":{"shapeName":"Åstorp","shapeISO":"","shapeGroup":"SWE","shapeType":"ADM2","adm1ISO":"SE-M","parentISO":"SE-M","parentID":"SWE:ADM1:SE-M","src_shape_id":"70781695B3781926649981"},"geometry":{"type":"Polygon","coordinates":[[[12.895828,56.124809],[12.913552,56.12539],[12.949,56.132362],[12.957341,56.145143],[12.990704,56.146304],[13.013641,56.138172],[13.042834,56.133524],[13.074111,56.124227],[13.094963,56.114928],[13.102216,56.114928],[13.115815,56.114928],[13.119441,56.117354],[13.126241,56.121903],[13.128326,56.132362],[13.147093,56.148627],[13.134582,56.164885],[13.109559,56.176494],[13.090793,56.188099],[13.063685,56.20666],[13.031713,56.211447],[13.015726,56.20666],[12.996959,56.198541],[12.986534,56.178815],[12.965682,56.174173],[12.94483,56.161402],[12.907297,56.160241],[12.865593,56.15908],[12.857772,56.157918],[12.863508,56.152112],[12.88853,56.128876],[12.895828,56.124809]]]}},
{"type":"Feature","id":"SWE:ADM2:SE-M.bjuv","properties":{"shapeName":"Bjuv","shapeISO":"","shapeGroup":"SWE","shapeType":"ADM2","adm1ISO":"SE-M","parentISO":"SE-M","parentID":"SWE:ADM1:SE-M","src_shape_id":"70781695B11789611241227"},"geometry":{"type":"Polygon","coordinates":[[[12.996537,55.997494],[13.009471,55.999663],[13.026152,56.013653],[13.047004,56.029968],[13.049089,56.04977],[13.05743,56.073054],[13.086622,56.083526],[13.099134,56.09516],[13.102216,56.114928],[13.094963,56.114928],[13.074111,56.124227],[13.042834,56.133524],[13.013641,56.138172],[12.990704,56.146304],[12.957341,56.145143],[12.949,56.132362],[12.913552,56.12539],[12.895828,56.124809],[12.905211,56.119578],[12.926063,56.098649],[12.949,56.078872],[12.949,56.060249],[12.94483,56.036958],[12.942745,56.024142],[12.969852,56.007825],[12.994874,55.999663],[12.996537,55.997494]]]}},
{"type":"Feature","id":"SWE:ADM2:SE-M.landskrona","properties":{"shapeName":"Landskrona","shapeISO":"","shapeGroup":"SWE","shapeType":"ADM2","adm1ISO":"SE-M","parentISO":"SE-M","parentID":"SWE:ADM1:SE-M","src_shape_id":"70781695B51244524104"},"geometry":{"type":"Polygon","coordinates":[[[12.751911,55.981002],[12.784716,55.946576],[12.814722,55.905748],[12.849014,55.863675],[12.896205,55.848843],[13.007385,55.855975],[13.0616,55.851294],[13.107474,55.864167],[13.107388,55.864328],[13.101219,55.875866],[13.082452,55.887562],[13.053259,55.888732],[13.032408,55.880545],[13.011556,55.878206],[13.003215,55.889901],[12.996959,55.903931],[13.026152,55.916786],[13.024067,55.931974],[12.992789,55.947156],[12.965682,55.958831],[12.962936,55.964977],[12.961511,55.964667],[12.940659,55.968168],[12.928148,55.975169],[12.909382,55.974002],[12.88853,55.965834],[12.861422,55.969335],[12.8364,55.981002],[12.751911,55.981002]]]}},
{"type":"Feature","id":"SWE:ADM2:SE-M.kavlinge","properties":{"shapeName":"Kävlinge","shapeISO":"","shapeGroup":"SWE","shapeType":"ADM2","adm1ISO":"SE-M","parentISO":"SE-M","parentID":"SWE:ADM1:SE-M","src_shape_id":"70781695B14589656511888"},"geometry":{"type":"Polygon","coordinates":[[[12.896205,55.848843],[12.932603,55.837206],[12.941176,55.813128],[12.939032,55.774571],[12.939032,55.758896],[12.964752,55.742009],[12.994758,55.739596],[13.004814,55.734996],[13.017811,55.75402],[13.040748,55.770445],[13.065771,55.786863],[13.080367,55.786863],[13.086622,55.782172],[13.092878,55.772791],[13.153348,55.772791],[13.158604,55.776855],[13.17003,55.78569],[13.172115,55.816163],[13.215904,55.816163],[13.238352,55.821013],[13.243011,55.82202],[13.240926,55.838416],[13.234671,55.860656],[13.203393,55.862997],[13.182995,55.861852],[13.161689,55.860656],[13.128326,55.860656],[13.107388,55.864328],[13.107474,55.864167],[13.0616,55.851294],[13.007385,55.855975],[12.896205,55.848843]]]}},
{"type":"Feature","id":"SWE:ADM2:SE-M.svalov","properties":{"shapeName":"Svalöv","shapeISO":"","shapeGroup":"SWE","shapeType":"ADM2","adm1ISO":"SE-M","parentISO":"SE-M","parentID":"SWE:ADM1:SE-M","src_shape_id":"70781695B22737117685830"},"geometry":{"type":"Polygon","coordinates":[[[12.962936,55.964977],[12.965682,55.958831],[12.992789,55.947156],[13.024067,55.931974],[13.026152,55.916786],[12.996959,55.903931],[13.003215,55.889901],[13.011556,55.878206],[13.032408,55.880545],[13.053259,55.888732],[13.082452,55.887562],[13.101219,55.875866],[13.107388,55.864328],[13.128326,55.860656],[13.161689,55.860656],[13.182995,55.861852],[13.190882,55.875866],[13.178371,55.887562],[13.153348,55.899255],[13.157519,55.909775],[13.178371,55.929638],[13.195052,55.922629],[13.213819,55.919123],[13.240926,55.929638],[13.272204,55.933142],[13.284715,55.923797],[13.303482,55.920292],[13.305567,55.935478],[13.305567,55.948324],[13.303482,55.972835],[13.311822,55.994999],[13.347271,56.008991],[13.366037,56.031133],[13.362187,56.037586],[13.357697,56.045112],[13.330589,56.050935],[13.255522,56.048606],[13.234671,56.056757],[13.211734,56.074217],[13.195052,56.089344],[13.163774,56.103301],[13.132497,56.114928],[13.119441,56.117354],[13.115815,56.114928],[13.102216,56.114928],[13.099134,56.09516],[13.086622,56.083526],[13.05743,56.073054],[13.049089,56.04977],[13.047004,56.029968],[13.026152,56.013653],[13.009471,55.999663],[12.996537,55.997494],[13.007385,55.983336],[12.999045,55.972835],[12.962936,55.964977]]]}},
{"type":"Feature","id":"SWE:ADM2:SE-M.klippan","properties":{"shapeName":"Klippan","shapeISO":"","shapeGroup":"SWE","shapeType":"ADM2","adm1ISO":"SE-M","parentISO":"SE-M","parentID":"SWE:ADM1:SE-M","src_shape_id":"70781695B13105561347564"},"geometry":{"type":"Polygon","coordinates":[[[13.031713,56.211447],[13.063685,56.20666],[13.090793,56.188099],[13.109559,56.176494],[13.134582,56.164885],[13.147093,56.148627],[13.128326,56.132362],[13.126241,56.121903],[13.119441,56.117354],[13.132497,56.114928],[13.163774,56.103301],[13.195052,56.089344],[13.211734,56.074217],[13.234671,56.056757],[13.255522,56.048606],[13.330589,56.050935],[13.357697,56.045112],[13.362187,56.037586],[13.386889,56.036958],[13.412484,56.035715],[13.434848,56.034628],[13.457785,56.042782],[13.468211,56.053264],[13.482808,56.062578],[13.499489,56.081199],[13.524511,56.083526],[13.541193,56.099812],[13.537772,56.10315],[13.532852,56.107952],[13.486978,56.11144],[13.453615,56.118416],[13.433914,56.131593],[13.407741,56.146304],[13.3994,56.155596],[13.336845,56.155596],[13.328504,56.161402],[13.326419,56.1939],[13.307652,56.211299],[13.299311,56.234485],[13.292311,56.243237],[13.290971,56.244914],[13.263863,56.243755],[13.253437,56.229849],[13.224245,56.226371],[13.207563,56.234485],[13.172115,56.246072],[13.157316,56.253745],[13.145008,56.250706],[13.122071,56.23912],[13.088708,56.234485],[13.044919,56.232167],[13.042834,56.214778],[13.031713,56.211447]]]}},
{"type":"Feature","id":"SWE:ADM2:SE-M.orkelljunga","properties":{"shapeName":"Örkelljunga","shapeISO":"","shapeGroup":"SWE","shapeType":"ADM2","adm1ISO":"SE-M","parentISO":"SE-M","parentID":"SWE:ADM1:SE-M","src_shape_id":"70781695B2310974409616"},"geometry":{"type":"Polygon","coordinates":[[[13.157316,56.253745],[13.172115,56.246072],[13.207563,56.234485],[13.224245,56.226371],[13.253437,56.229849],[13.263863,56.243755],[13.290971,56.244914],[13.292311,56.243237],[13.302481,56.248019],[13.322499,56.253209],[13.337178,56.265068],[13.359865,56.285814],[13.386555,56.295443],[13.434598,56.296183],[13.444558,56.301018],[13.465292,56.31025],[13.478637,56.325053],[13.49999,56.327272],[13.524011,56.329492],[13.537356,56.33763],[13.528014,56.355379],[13.528014,56.370164],[13.54136,56.390114],[13.557374,56.401193],[13.58273,56.410054],[13.598744,56.426293],[13.600063,56.430182],[13.584064,56.427769],[13.528014,56.431459],[13.49491,56.440976],[13.494651,56.44105],[13.422587,56.44105],[13.372293,56.416006],[13.280545,56.379078],[13.261778,56.351359],[13.245097,56.342114],[13.243805,56.343098],[13.22633,56.331712],[13.224245,56.316681],[13.195052,56.302801],[13.178371,56.292388],[13.167945,56.273868],[13.163774,56.25534],[13.157316,56.253745]]]}},
{"type":"Feature","id":"SWE:ADM2:SE-M.perstorp","properties":{"shapeName":"Perstorp","shapeISO":"","shapeGroup":"SWE","shapeType":"ADM2","adm1ISO":"SE-M","parentISO":"SE-M","parentID":"SWE:ADM1:SE-M","src_shape_id":"70781695B63196163664063"},"geometry":{"type":"Polygon","coordinates":[[[13.433914,56.131593],[13.461956,56.138172],[13.478637,56.154435],[13.489063,56.168368],[13.499489,56.185778],[13.484402,56.217755],[13.491235,56.232475],[13.485256,56.248137],[13.456217,56.278021],[13.451947,56.293191],[13.444558,56.301018],[13.434598,56.296183],[13.386555,56.295443],[13.359865,56.285814],[13.337178,56.265068],[13.322499,56.253209],[13.302481,56.248019],[13.292311,56.243237],[13.299311,56.234485],[13.307652,56.211299],[13.326419,56.1939],[13.328504,56.161402],[13.336845,56.155596],[13.3994,56.155596],[13.407741,56.146304],[13.433914,56.131593]]]}},
{"type":"Feature","id":"SWE:ADM2:SE-M.hassleholm","properties":{"shapeName":"Hässleholm","shapeISO":"","shapeGroup":"SWE","shapeType":"ADM2","adm1ISO":"SE-M","parentISO":"SE-M","parentID":"SWE:ADM1:SE-M","src_shape_id":"70781695B37771083391359"},"geometry":{"type":"Polygon","coordinates":[[[13.537772,56.10315],[13.549367,56.107627],[13.572054,56.110603],[13.590737,56.102417],[13.596075,56.089018],[13.621431,56.077103],[13.648121,56.071145],[13.66547,56.059225],[13.694829,56.051028],[13.693495,56.0309],[13.688157,56.013746],[13.662801,56.004794],[13.65079,55.989867],[13.653745,55.986562],[13.656128,55.983895],[13.681484,55.983149],[13.718851,55.983149],[13.741537,55.981656],[13.760221,55.969708],[13.772872,55.966985],[13.777569,55.965974],[13.794918,55.968214],[13.805594,55.983149],[13.798922,56.001063],[13.80426,56.015238],[13.81627,56.024189],[13.837623,56.048047],[13.852302,56.048047],[13.868317,56.043574],[13.893673,56.043574],[13.919028,56.047301],[13.927035,56.056244],[13.94305,56.07189],[13.968406,56.08455],[14.003103,56.111347],[14.020452,56.126226],[14.021786,56.155968],[14.033797,56.166371],[14.051146,56.17603],[14.051032,56.177735],[14.049811,56.196081],[14.02579,56.206475],[14.021786,56.220575],[14.01111,56.23467],[13.99643,56.247277],[13.99643,56.264327],[14.016448,56.276184],[14.028459,56.296924],[14.024455,56.313952],[14.016448,56.33837],[14.003,56.345823],[14.000434,56.347245],[13.96974,56.346506],[13.95506,56.347985],[13.959064,56.359076],[13.964402,56.370164],[13.964402,56.384943],[13.935043,56.393069],[13.936377,56.4071],[13.933708,56.417436],[13.925701,56.425555],[13.907018,56.421127],[13.882996,56.416698],[13.852302,56.410054],[13.818939,56.412269],[13.78958,56.418912],[13.766893,56.429983],[13.738868,56.43441],[13.720815,56.449116],[13.689491,56.446952],[13.641449,56.444739],[13.613424,56.432197],[13.600063,56.430182],[13.598744,56.426293],[13.58273,56.410054],[13.557374,56.401193],[13.54136,56.390114],[13.528014,56.370164],[13.528014,56.355379],[13.537356,56.33763],[13.524011,56.329492],[13.49999,56.327272],[13.478637,56.325053],[13.465292,56.31025],[13.444558,56.301018],[13.451947,56.293191],[13.456217,56.278021],[13.485256,56.248137],[13.491235,56.232475],[13.484402,56.217755],[13.499489,56.185778],[13.489063,56.168368],[13.478637,56.154435],[13.461956,56.138172],[13.433914,56.131593],[13.453615,56.118416],[13.486978,56.11144],[13.532852,56.107952],[13.537772,56.10315]]]}},
{"type":"Feature","id":"SWE:ADM2:SE-M.osby","properties":{"shapeName":"Osby","shapeISO":"","shapeGroup":"SWE","shapeType":"ADM2","adm1ISO":"SE-M","parentISO":"SE-M","parentID":"SWE:ADM1:SE-M","src_shape_id":"70781695B63851832202754"},"geometry":{"type":"Polygon","coordinates":[[[14.003,56.345823],[14.013939,56.348133],[14.035292,56.354285],[14.057498,56.360909],[14.086537,56.361382],[14.094224,56.372736],[14.123263,56.388341],[14.156573,56.398741],[14.177071,56.412446],[14.18732,56.421422],[14.193299,56.432285],[14.208672,56.451642],[14.231733,56.465328],[14.257356,56.476179],[14.271875,56.47099],[14.271021,56.457306],[14.253939,56.440785],[14.247961,56.421422],[14.245398,56.402995],[14.246252,56.375574],[14.265896,56.370844],[14.277854,56.383613],[14.289811,56.393069],[14.315434,56.392596],[14.332516,56.381248],[14.33764,56.365167],[14.322267,56.350499],[14.304331,56.343873],[14.298352,56.334405],[14.301768,56.324461],[14.310309,56.321619],[14.332516,56.319724],[14.365295,56.31756],[14.368387,56.317356],[14.411092,56.32304],[14.433157,56.331692],[14.431567,56.332868],[14.429482,56.35598],[14.429482,56.389468],[14.444078,56.417159],[14.46493,56.434456],[14.502463,56.450593],[14.52123,56.462115],[14.542082,56.478241],[14.540725,56.480238],[14.535826,56.487452],[14.519145,56.493208],[14.492037,56.494359],[14.431567,56.494359],[14.416971,56.502416],[14.375267,56.511621],[14.341904,56.521974],[14.302285,56.526575],[14.283519,56.526575],[14.2439,56.521974],[14.202197,56.523125],[14.185515,56.531175],[14.158408,56.540373],[14.143811,56.54957],[14.120874,56.562211],[14.108363,56.557615],[14.085426,56.543822],[14.068745,56.519674],[14.062489,56.502416],[14.052063,56.493208],[14.010359,56.490906],[13.985337,56.492057],[13.939463,56.482847],[13.9061,56.472482],[13.868567,56.472482],[13.818522,56.473634],[13.772648,56.469027],[13.741537,56.463175],[13.72139,56.449155],[13.720815,56.449116],[13.738868,56.43441],[13.766893,56.429983],[13.78958,56.418912],[13.818939,56.412269],[13.852302,56.410054],[13.882996,56.416698],[13.907018,56.421127],[13.925701,56.425555],[13.933708,56.417436],[13.936377,56.4071],[13.935043,56.393069],[13.964402,56.384943],[13.964402,56.370164],[13.959064,56.359076],[13.95506,56.347985],[13.96974,56.346506],[14.000434,56.347245],[14.003,56.345823]]]}},
{"type":"Feature","id":"SWE:ADM2:SE-M.ostra-goinge","properties":{"shapeName":"Östra Göinge","shapeISO":"","shapeGroup":"SWE","shapeType":"ADM2","adm1ISO":"SE-M","parentISO":"SE-M","parentID":"SWE:ADM1:SE-M","src_shape_id":"70781695B77141748378348"},"geometry":{"type":"Polygon","coordinates":[[[14.051032,56.177735],[14.07083,56.173012],[14.085426,56.163724],[14.110448,56.15908],[14.133385,56.15095],[14.166748,56.148627],[14.170919,56.161402],[14.181345,56.17069],[14.212622,56.177655],[14.241815,56.184618],[14.266837,56.202021],[14.283519,56.214778],[14.304371,56.240279],[14.293945,56.254182],[14.306456,56.268079],[14.331478,56.281972],[14.35233,56.292388],[14.365295,56.31756],[14.332516,56.319724],[14.310309,56.321619],[14.301768,56.324461],[14.298352,56.334405],[14.304331,56.343873],[14.322267,56.350499],[14.33764,56.365167],[14.332516,56.381248],[14.315434,56.392596],[14.289811,56.393069],[14.277854,56.383613],[14.265896,56.370844],[14.246252,56.375574],[14.245398,56.402995],[14.247961,56.421422],[14.253939,56.440785],[14.271021,56.457306],[14.271875,56.47099],[14.257356,56.476179],[14.231733,56.465328],[14.208672,56.451642],[14.193299,56.432285],[14.18732,56.421422],[14.177071,56.412446],[14.156573,56.398741],[14.123263,56.388341],[14.094224,56.372736],[14.086537,56.361382],[14.057498,56.360909],[14.035292,56.354285],[14.013939,56.348133],[14.003,56.345823],[14.016448,56.33837],[14.024455,56.313952],[14.028459,56.296924],[14.016448,56.276184],[13.99643,56.264327],[13.99643,56.247277],[14.01111,56.23467],[14.021786,56.220575],[14.02579,56.206475],[14.049811,56.196081],[14.051032,56.177735]]]}},
{"type":"Feature","id":"SWE:ADM2:SE-M.bromolla","properties":{"shapeName":"Bromölla","shapeISO":"","shapeGroup":"SWE","shapeType":"ADM2","adm1ISO":"SE-M","parentISO":"SE-M","parentID":"SWE:ADM1:SE-M","src_shape_id":"70781695B19839460749296"},"geometry":{"type":"Polygon","coordinates":[[[14.496982,56.037237],[14.525066,56.046062],[14.558763,56.048276],[14.558763,56.068398],[14.560848,56.09167],[14.57753,56.114928],[14.594211,56.135848],[14.608808,56.161402],[14.615063,56.19042],[14.598382,56.218256],[14.5978,56.220197],[14.590041,56.246072],[14.569189,56.250706],[14.506634,56.248389],[14.471529,56.257627],[14.460759,56.240279],[14.441993,56.220575],[14.454504,56.20434],[14.450334,56.184618],[14.477441,56.174173],[14.467015,56.153273],[14.481611,56.147466],[14.479526,56.114928],[14.462845,56.097486],[14.439908,56.09167],[14.410715,56.078872],[14.410715,56.067234],[14.427397,56.059085],[14.458674,56.056757],[14.492037,56.043947],[14.496982,56.037237]]]}},
{"type":"Feature","id":"SWE:ADM2:SE-M.kristianstad","properties":{"shapeName":"Kristianstad","shapeISO":"","shapeGroup":"SWE","shapeType":"ADM2","adm1ISO":"SE-M","parentISO":"SE-M","parentID":"SWE:ADM1:SE-M","src_shape_id":"70781695B54182185465620"},"geometry":{"type":"Polygon","coordinates":[[[13.772872,55.966985],[13.776819,55.952994],[13.797671,55.942486],[13.795585,55.929638],[13.812267,55.916786],[13.833119,55.912112],[13.851885,55.920292],[13.876908,55.924965],[13.891504,55.935478],[13.910271,55.949492],[13.926952,55.935478],[13.929037,55.913281],[13.939463,55.89224],[13.920697,55.871187],[13.912356,55.855975],[13.918611,55.84427],[13.949889,55.832561],[13.970741,55.826705],[13.976997,55.810304],[13.987529,55.801425],[13.989508,55.799757],[14.0187,55.793897],[14.045808,55.783345],[14.066659,55.792724],[14.085426,55.806789],[14.102108,55.800929],[14.120874,55.783345],[14.123445,55.783345],[14.164663,55.783345],[14.204282,55.789207],[14.220654,55.787754],[14.250725,55.821557],[14.265728,55.840817],[14.293591,55.890127],[14.317167,55.91656],[14.342886,55.939374],[14.366463,55.965774],[14.415758,55.988559],[14.450051,56.011331],[14.490773,56.035286],[14.496982,56.037237],[14.492037,56.043947],[14.458674,56.056757],[14.427397,56.059085],[14.410715,56.067234],[14.410715,56.078872],[14.439908,56.09167],[14.462845,56.097486],[14.479526,56.114928],[14.481611,56.147466],[14.467015,56.153273],[14.477441,56.174173],[14.450334,56.184618],[14.454504,56.20434],[14.441993,56.220575],[14.460759,56.240279],[14.471529,56.257627],[14.467015,56.258815],[14.460759,56.278499],[14.458674,56.317837],[14.444078,56.323619],[14.433157,56.331692],[14.411092,56.32304],[14.368387,56.317356],[14.365295,56.31756],[14.35233,56.292388],[14.331478,56.281972],[14.306456,56.268079],[14.293945,56.254182],[14.304371,56.240279],[14.283519,56.214778],[14.266837,56.202021],[14.241815,56.184618],[14.212622,56.177655],[14.181345,56.17069],[14.170919,56.161402],[14.166748,56.148627],[14.133385,56.15095],[14.110448,56.15908],[14.085426,56.163724],[14.07083,56.173012],[14.051032,56.177735],[14.051146,56.17603],[14.033797,56.166371],[14.021786,56.155968],[14.020452,56.126226],[14.003103,56.111347],[13.968406,56.08455],[13.94305,56.07189],[13.927035,56.056244],[13.919028,56.047301],[13.893673,56.043574],[13.868317,56.043574],[13.852302,56.048047],[13.837623,56.048047],[13.81627,56.024189],[13.80426,56.015238],[13.798922,56.001063],[13.805594,55.983149],[13.794918,55.968214],[13.777569,55.965974],[13.772872,55.966985]]]}},
{"type":"Feature","id":"SWE:ADM2:SE-M.simrishamn","properties":{"shapeName":"Simrishamn","shapeISO":"","shapeGroup":"SWE","shapeType":"ADM2","adm1ISO":"SE-M","parentISO":"SE-M","parentID":"SWE:ADM1:SE-M","src_shape_id":"70781695B62390377140785"},"geometry":{"type":"Polygon","coordinates":[[[14.123445,55.783345],[14.124544,55.776544],[14.144562,55.764533],[14.156573,55.752518],[14.140558,55.738997],[14.107195,55.725472],[14.085843,55.711942],[14.083174,55.696151],[14.089847,55.663797],[14.111199,55.647233],[14.132551,55.641961],[14.151235,55.640455],[14.184598,55.631416],[14.185932,55.614085],[14.17659,55.5975],[14.160576,55.586188],[14.161911,55.5628],[14.157907,55.546949],[14.139224,55.534868],[14.117872,55.525804],[14.096519,55.515983],[14.094368,55.512328],[14.092516,55.509182],[14.099188,55.505403],[14.132551,55.506159],[14.156573,55.509938],[14.16458,55.498601],[14.165914,55.476673],[14.168583,55.469109],[14.183263,55.460031],[14.211288,55.445652],[14.236644,55.435811],[14.266919,55.434093],[14.33217,55.47446],[14.353603,55.501176],[14.370749,55.540003],[14.368606,55.566674],[14.330027,55.603015],[14.297877,55.632063],[14.272158,55.669552],[14.235722,55.703382],[14.210003,55.721493],[14.201429,55.750454],[14.216432,55.783009],[14.220654,55.787754],[14.204282,55.789207],[14.164663,55.783345],[14.123445,55.783345]]]}},
{"type":"Feature","id":"SWE:ADM2:SE-M.tomelilla","properties":{"shapeName":"Tomelilla","shapeISO":"","shapeGroup":"SWE","shapeType":"ADM2","adm1ISO":"SE-M","parentISO":"SE-M","parentID":"SWE:ADM1:SE-M","src_shape_id":"70781695B70463852837114"},"geometry":{"type":"Polygon","coordinates":[[[13.987529,55.801425],[13.960315,55.784518],[13.957709,55.781586],[13.949889,55.772791],[13.929037,55.75754],[13.920697,55.74111],[13.935293,55.72937],[13.960315,55.717627],[13.979082,55.710579],[13.987422,55.695305],[14.006189,55.684726],[14.010359,55.674145],[13.979082,55.658856],[13.964485,55.655327],[13.954059,55.643562],[13.954059,55.635324],[13.951974,55.623552],[13.920697,55.615309],[13.9061,55.615309],[13.878993,55.609421],[13.872904,55.594515],[13.872737,55.594107],[13.885248,55.581144],[13.9061,55.569356],[13.916526,55.550488],[13.929037,55.54223],[13.956145,55.517447],[13.983252,55.505639],[14.008274,55.496191],[14.033297,55.497372],[14.047893,55.50682],[14.07083,55.511544],[14.094368,55.512328],[14.096519,55.515983],[14.117872,55.525804],[14.139224,55.534868],[14.157907,55.546949],[14.161911,55.5628],[14.160576,55.586188],[14.17659,55.5975],[14.185932,55.614085],[14.184598,55.631416],[14.151235,55.640455],[14.132551,55.641961],[14.111199,55.647233],[14.089847,55.663797],[14.083174,55.696151],[14.085843,55.711942],[14.107195,55.725472],[14.140558,55.738997],[14.156573,55.752518],[14.144562,55.764533],[14.124544,55.776544],[14.123445,55.783345],[14.120874,55.783345],[14.102108,55.800929],[14.085426,55.806789],[14.066659,55.792724],[14.045808,55.783345],[14.0187,55.793897],[13.989508,55.799757],[13.987529,55.801425]]]}},
{"type":"Feature","id":"SWE:ADM2:SE-M.ystad","properties":{"shapeName":"Ystad","shapeISO":"","shapeGroup":"SWE","shapeType":"ADM2","adm1ISO":"SE-M","parentISO":"SE-M","parentID":"SWE:ADM1:SE-M","src_shape_id":"70781695B99189289928954"},"geometry":{"type":"Polygon","coordinates":[[[14.094368,55.512328],[14.07083,55.511544],[14.047893,55.50682],[14.033297,55.497372],[14.008274,55.496191],[13.983252,55.505639],[13.956145,55.517447],[13.929037,55.54223],[13.916526,55.550488],[13.9061,55.569356],[13.885248,55.581144],[13.872737,55.594107],[13.872904,55.594515],[13.831034,55.590572],[13.808097,55.583501],[13.795585,55.566998],[13.774734,55.563461],[13.743456,55.552847],[13.722604,55.551667],[13.711495,55.547896],[13.691326,55.54105],[13.685071,55.53043],[13.674645,55.510363],[13.664219,55.500916],[13.655878,55.483196],[13.655878,55.461922],[13.67673,55.444185],[13.684968,55.429494],[13.714903,55.431921],[13.824211,55.434353],[13.901369,55.433137],[13.965668,55.433137],[14.014963,55.422191],[14.068546,55.401508],[14.107125,55.395422],[14.154277,55.395422],[14.203573,55.401508],[14.237865,55.416109],[14.266919,55.434093],[14.236644,55.435811],[14.211288,55.445652],[14.183263,55.460031],[14.168583,55.469109],[14.165914,55.476673],[14.16458,55.498601],[14.156573,55.509938],[14.132551,55.506159],[14.099188,55.505403],[14.092516,55.509182],[14.094368,55.512328]]]}},
{"type":"Feature","id":"SWE:ADM2:SE-M.hoor","properties":{"shapeName":"Höör","shapeISO":"","shapeGroup":"SWE","shapeType":"ADM2","adm1ISO":"SE-M","parentISO":"SE-M","parentID":"SWE:ADM1:SE-M","src_shape_id":"70781695B95937301884210"},"geometry":{"type":"Polygon","coordinates":[[[13.412484,56.035715],[13.413997,56.007825],[13.411911,55.975169],[13.422337,55.967001],[13.443189,55.967001],[13.4557,55.954161],[13.476552,55.942486],[13.489063,55.930806],[13.480722,55.919123],[13.464041,55.912112],[13.457785,55.898085],[13.466126,55.867677],[13.472382,55.853634],[13.482808,55.845441],[13.497404,55.829048],[13.499489,55.819677],[13.520341,55.806789],[13.534937,55.809133],[13.541193,55.818506],[13.543278,55.830219],[13.549534,55.836074],[13.570385,55.846611],[13.577336,55.848172],[13.591237,55.851294],[13.599578,55.861827],[13.597493,55.882884],[13.578726,55.89107],[13.591237,55.909775],[13.595408,55.92847],[13.612089,55.936646],[13.641282,55.951827],[13.645452,55.964667],[13.653745,55.986562],[13.65079,55.989867],[13.662801,56.004794],[13.688157,56.013746],[13.693495,56.0309],[13.694829,56.051028],[13.66547,56.059225],[13.648121,56.071145],[13.621431,56.077103],[13.596075,56.089018],[13.590737,56.102417],[13.572054,56.110603],[13.549367,56.107627],[13.537772,56.10315],[13.541193,56.099812],[13.524511,56.083526],[13.499489,56.081199],[13.482808,56.062578],[13.468211,56.053264],[13.457785,56.042782],[13.434848,56.034628],[13.412484,56.035715]]]}},
{"type":"Feature","id":"SWE:ADM2:SE-M.vellinge","properties":{"shapeName":"Vellinge","shapeISO":"","shapeGroup":"SWE","shapeType":"ADM2","adm1ISO":"SE-M","parentISO":"SE-M","parentID":"SWE:ADM1:SE-M","src_shape_id":"70781695B48074135992982"},"geometry":{"type":"Polygon","coordinates":[[[12.996639,55.388506],[13.024067,55.399216],[13.038663,55.415789],[13.063685,55.42999],[13.082452,55.44182],[13.080367,55.459558],[13.080367,55.479651],[13.103304,55.487922],[13.124156,55.486741],[13.17003,55.485559],[13.186711,55.498554],[13.187059,55.500916],[13.188797,55.512724],[13.163774,55.523349],[13.147093,55.536331],[13.145008,55.551667],[13.13513,55.555392],[13.132497,55.556385],[13.099134,55.548129],[13.047004,55.537511],[13.019897,55.537511],[12.982363,55.535151],[12.947697,55.5218],[12.936132,55.519785],[12.943319,55.5121],[12.949749,55.481748],[12.951892,55.447727],[12.934746,55.42584],[12.919743,55.42584],[12.902597,55.439217],[12.889737,55.441648],[12.868304,55.430705],[12.851158,55.413676],[12.842585,55.401508],[12.846871,55.390553],[12.887594,55.389336],[12.906883,55.394205],[12.926173,55.394205],[12.947606,55.397856],[12.971182,55.396639],[12.996639,55.388506]]]}},
{"type":"Feature","id":"SWE:ADM2:SE-M.trelleborg","properties":{"shapeName":"Trelleborg","shapeISO":"","shapeGroup":"SWE","shapeType":"ADM2","adm1ISO":"SE-M","parentISO":"SE-M","parentID":"SWE:ADM1:SE-M","src_shape_id":"70781695B21975001691252"},"geometry":{"type":"Polygon","coordinates":[[[12.996639,55.388506],[13.005474,55.385683],[13.046197,55.379595],[13.093349,55.371071],[13.127642,55.371071],[13.159791,55.368635],[13.200514,55.361326],[13.245523,55.35036],[13.305535,55.346704],[13.359117,55.339391],[13.404126,55.345486],[13.427702,55.363762],[13.472711,55.378378],[13.513172,55.386422],[13.509915,55.425257],[13.50783,55.445368],[13.476552,55.454828],[13.482808,55.470197],[13.505745,55.479651],[13.499489,55.498554],[13.489063,55.511544],[13.46716,55.514406],[13.461956,55.515086],[13.439019,55.50682],[13.420252,55.502097],[13.3994,55.498554],[13.363952,55.502097],[13.320163,55.508001],[13.301397,55.505639],[13.265948,55.505639],[13.249267,55.502097],[13.215904,55.500916],[13.187059,55.500916],[13.186711,55.498554],[13.17003,55.485559],[13.124156,55.486741],[13.103304,55.487922],[13.080367,55.479651],[13.080367,55.459558],[13.082452,55.44182],[13.063685,55.42999],[13.038663,55.415789],[13.024067,55.399216],[12.996639,55.388506]]]}},
{"type":"Feature","id":"SWE:ADM2:SE-M.skurup","properties":{"shapeName":"Skurup","shapeISO":"","shapeGroup":"SWE","shapeType":"ADM2","adm1ISO":"SE-M","parentISO":"SE-M","parentID":"SWE:ADM1:SE-M","src_shape_id":"70781695B43697052539522"},"geometry":{"type":"Polygon","coordinates":[[[13.711495,55.547896],[13.695497,55.551667],[13.666304,55.563461],[13.632941,55.563461],[13.605834,55.566998],[13.589152,55.576429],[13.576641,55.589394],[13.556922,55.59019],[13.547448,55.590572],[13.532852,55.58468],[13.524511,55.570535],[13.503659,55.562282],[13.480722,55.552847],[13.477177,55.548434],[13.470297,55.53987],[13.468211,55.524529],[13.46716,55.514406],[13.489063,55.511544],[13.499489,55.498554],[13.505745,55.479651],[13.482808,55.470197],[13.476552,55.454828],[13.50783,55.445368],[13.509915,55.425257],[13.513172,55.386422],[13.515577,55.386901],[13.569159,55.390553],[13.601309,55.401508],[13.644174,55.422191],[13.669894,55.428273],[13.684968,55.429494],[13.67673,55.444185],[13.655878,55.461922],[13.655878,55.483196],[13.664219,55.500916],[13.674645,55.510363],[13.685071,55.53043],[13.691326,55.54105],[13.711495,55.547896]]]}},
{"type":"Feature","id":"SWE:ADM2:SE-M.sjobo","properties":{"shapeName":"Sjöbo","shapeISO":"","shapeGroup":"SWE","shapeType":"ADM2","adm1ISO":"SE-M","parentISO":"SE-M","parentID":"SWE:ADM1:SE-M","src_shape_id":"70781695B31496650101497"},"geometry":{"type":"Polygon","coordinates":[[[13.957709,55.781586],[13.908185,55.784518],[13.883163,55.791552],[13.860226,55.799757],[13.833119,55.806789],[13.818522,55.802101],[13.7935,55.789207],[13.776819,55.776309],[13.760137,55.76458],[13.716348,55.76458],[13.697582,55.759887],[13.674645,55.7505],[13.633877,55.748205],[13.632941,55.748153],[13.622515,55.731719],[13.610548,55.720486],[13.610004,55.719976],[13.628771,55.707055],[13.645452,55.684726],[13.630856,55.664737],[13.599578,55.658856],[13.5683,55.654151],[13.557874,55.630615],[13.555789,55.602354],[13.556922,55.59019],[13.576641,55.589394],[13.589152,55.576429],[13.605834,55.566998],[13.632941,55.563461],[13.666304,55.563461],[13.695497,55.551667],[13.711495,55.547896],[13.722604,55.551667],[13.743456,55.552847],[13.774734,55.563461],[13.795585,55.566998],[13.808097,55.583501],[13.831034,55.590572],[13.872904,55.594515],[13.878993,55.609421],[13.9061,55.615309],[13.920697,55.615309],[13.951974,55.623552],[13.954059,55.635324],[13.954059,55.643562],[13.964485,55.655327],[13.979082,55.658856],[14.010359,55.674145],[14.006189,55.684726],[13.987422,55.695305],[13.979082,55.710579],[13.960315,55.717627],[13.935293,55.72937],[13.920697,55.74111],[13.929037,55.75754],[13.949889,55.772791],[13.957709,55.781586]]]}},
{"type":"Feature","id":"SWE:ADM2:SE-M.horby","properties":{"shapeName":"Hörby","shapeISO":"","shapeGroup":"SWE","shapeType":"ADM2","adm1ISO":"SE-M","parentISO":"SE-M","parentID":"SWE:ADM1:SE-M","src_shape_id":"70781695B77585109803763"},"geometry":{"type":"Polygon","coordinates":[[[13.653745,55.986562],[13.645452,55.964667],[13.641282,55.951827],[13.612089,55.936646],[13.595408,55.92847],[13.591237,55.909775],[13.578726,55.89107],[13.597493,55.882884],[13.599578,55.861827],[13.591237,55.851294],[13.577336,55.848172],[13.595408,55.843099],[13.641282,55.839587],[13.651708,55.826705],[13.626685,55.807961],[13.607919,55.788035],[13.599578,55.773964],[13.622515,55.768099],[13.633877,55.748205],[13.674645,55.7505],[13.697582,55.759887],[13.716348,55.76458],[13.760137,55.76458],[13.776819,55.776309],[13.7935,55.789207],[13.818522,55.802101],[13.833119,55.806789],[13.860226,55.799757],[13.883163,55.791552],[13.908185,55.784518],[13.957709,55.781586],[13.960315,55.784518],[13.987529,55.801425],[13.976997,55.810304],[13.970741,55.826705],[13.949889,55.832561],[13.918611,55.84427],[13.912356,55.855975],[13.920697,55.871187],[13.939463,55.89224],[13.929037,55.913281],[13.926952,55.935478],[13.910271,55.949492],[13.891504,55.935478],[13.876908,55.924965],[13.851885,55.920292],[13.833119,55.912112],[13.812267,55.916786],[13.795585,55.929638],[13.797671,55.942486],[13.776819,55.952994],[13.772872,55.966985],[13.760221,55.969708],[13.741537,55.981656],[13.718851,55.983149],[13.681484,55.983149],[13.656128,55.983895],[13.653745,55.986562]]]}},
{"type":"Feature","id":"SWE:ADM2:SE-M.eslov","properties":{"shapeName":"Eslöv","shapeISO":"","shapeGroup":"SWE","shapeType":"ADM2","adm1ISO":"SE-M","parentISO":"SE-M","parentID":"SWE:ADM1:SE-M","src_shape_id":"70781695B18480802794079"},"geometry":{"type":"Polygon","coordinates":[[[13.238352,55.821013],[13.249267,55.817334],[13.255522,55.807961],[13.280545,55.805617],[13.305567,55.805617],[13.320163,55.797413],[13.328504,55.783345],[13.347271,55.778655],[13.388974,55.778655],[13.409826,55.768099],[13.45153,55.76106],[13.476552,55.762233],[13.497404,55.751673],[13.522426,55.746979],[13.549534,55.738763],[13.572471,55.725848],[13.610548,55.720486],[13.622515,55.731719],[13.632941,55.748153],[13.633877,55.748205],[13.622515,55.768099],[13.599578,55.773964],[13.607919,55.788035],[13.626685,55.807961],[13.651708,55.826705],[13.641282,55.839587],[13.595408,55.843099],[13.577336,55.848172],[13.570385,55.846611],[13.549534,55.836074],[13.543278,55.830219],[13.541193,55.818506],[13.534937,55.809133],[13.520341,55.806789],[13.499489,55.819677],[13.497404,55.829048],[13.482808,55.845441],[13.472382,55.853634],[13.466126,55.867677],[13.457785,55.898085],[13.464041,55.912112],[13.480722,55.919123],[13.489063,55.930806],[13.476552,55.942486],[13.4557,55.954161],[13.443189,55.967001],[13.422337,55.967001],[13.411911,55.975169],[13.413997,56.007825],[13.412484,56.035715],[13.386889,56.036958],[13.362187,56.037586],[13.366037,56.031133],[13.347271,56.008991],[13.311822,55.994999],[13.303482,55.972835],[13.305567,55.948324],[13.305567,55.935478],[13.303482,55.920292],[13.284715,55.923797],[13.272204,55.933142],[13.240926,55.929638],[13.213819,55.919123],[13.195052,55.922629],[13.178371,55.929638],[13.157519,55.909775],[13.153348,55.899255],[13.178371,55.887562],[13.190882,55.875866],[13.182995,55.861852],[13.203393,55.862997],[13.234671,55.860656],[13.240926,55.838416],[13.243011,55.82202],[13.238352,55.821013]]]}},
{"type":"Feature","id":"SWE:ADM2:SE-M.lund","properties":{"shapeName":"Lund","shapeISO":"","shapeGroup":"SWE","shapeType":"ADM2","adm1ISO":"SE-M","parentISO":"SE-M","parentID":"SWE:ADM1:SE-M","src_shape_id":"70781695B29606605667306"},"geometry":{"type":"Polygon","coordinates":[[[13.158604,55.776855],[13.167945,55.768099],[13.167945,55.745805],[13.169196,55.735945],[13.17003,55.72937],[13.195052,55.72115],[13.215904,55.710579],[13.245097,55.704705],[13.28263,55.704705],[13.305567,55.70353],[13.322248,55.69648],[13.332674,55.6812],[13.359782,55.668266],[13.382719,55.656504],[13.380634,55.641208],[13.363952,55.629438],[13.353526,55.628261],[13.353596,55.62767],[13.355611,55.610599],[13.357697,55.590572],[13.380634,55.585858],[13.397315,55.576429],[13.418167,55.572893],[13.443189,55.549308],[13.477177,55.548434],[13.480722,55.552847],[13.503659,55.562282],[13.524511,55.570535],[13.532852,55.58468],[13.547448,55.590572],[13.556922,55.59019],[13.555789,55.602354],[13.557874,55.630615],[13.5683,55.654151],[13.599578,55.658856],[13.630856,55.664737],[13.645452,55.684726],[13.628771,55.707055],[13.610004,55.719976],[13.610548,55.720486],[13.572471,55.725848],[13.549534,55.738763],[13.522426,55.746979],[13.497404,55.751673],[13.476552,55.762233],[13.45153,55.76106],[13.409826,55.768099],[13.388974,55.778655],[13.347271,55.778655],[13.328504,55.783345],[13.320163,55.797413],[13.305567,55.805617],[13.280545,55.805617],[13.255522,55.807961],[13.249267,55.817334],[13.238352,55.821013],[13.215904,55.816163],[13.172115,55.816163],[13.17003,55.78569],[13.158604,55.776855]]]}},
{"type":"Feature","id":"SWE:ADM2:SE-M.svedala","properties":{"shapeName":"Svedala","shapeISO":"","shapeGroup":"SWE","shapeType":"ADM2","adm1ISO":"SE-M","parentISO":"SE-M","parentID":"SWE:ADM1:SE-M","src_shape_id":"70781695B13433668994781"},"geometry":{"type":"Polygon","coordinates":[[[13.187059,55.500916],[13.215904,55.500916],[13.249267,55.502097],[13.265948,55.505639],[13.301397,55.505639],[13.320163,55.508001],[13.363952,55.502097],[13.3994,55.498554],[13.420252,55.502097],[13.439019,55.50682],[13.461956,55.515086],[13.46716,55.514406],[13.468211,55.524529],[13.470297,55.53987],[13.477177,55.548434],[13.443189,55.549308],[13.418167,55.572893],[13.397315,55.576429],[13.380634,55.585858],[13.357697,55.590572],[13.355611,55.610599],[13.353596,55.62767],[13.330589,55.628261],[13.295141,55.642385],[13.249267,55.643562],[13.220074,55.632969],[13.18685,55.623591],[13.178371,55.621197],[13.17003,55.597641],[13.161689,55.587037],[13.145008,55.576429],[13.136667,55.565819],[13.13513,55.555392],[13.145008,55.551667],[13.147093,55.536331],[13.163774,55.523349],[13.188797,55.512724],[13.187059,55.500916]]]}},
{"type":"Feature","id":"SWE:ADM2:SE-M.malmo","properties":{"shapeName":"Malmö","shapeISO":"","shapeGroup":"SWE","shapeType":"ADM2","adm1ISO":"SE-M","parentISO":"SE-M","parentID":"SWE:ADM1:SE-M","src_shape_id":"70781695B15028769687560"},"geometry":{"type":"Polygon","coordinates":[[[13.13513,55.555392],[13.136667,55.565819],[13.145008,55.576429],[13.161689,55.587037],[13.17003,55.597641],[13.178371,55.621197],[13.18685,55.623591],[13.176285,55.631792],[13.17291,55.631904],[13.140837,55.632969],[13.11373,55.638854],[13.097048,55.647092],[13.080431,55.652607],[13.050483,55.642951],[13.003331,55.633273],[12.960465,55.615121],[12.930459,55.58606],[12.9176,55.560614],[12.924029,55.532726],[12.936132,55.519785],[12.947697,55.5218],[12.982363,55.535151],[13.019897,55.537511],[13.047004,55.537511],[13.099134,55.548129],[13.132497,55.556385],[13.13513,55.555392]]]}},
{"type":"Feature","id":"SWE:ADM2:SE-M.burlov","properties":{"shapeName":"Burlöv","shapeISO":"","shapeGroup":"SWE","shapeType":"ADM2","adm1ISO":"SE-M","parentISO":"SE-M","parentID":"SWE:ADM1:SE-M","src_shape_id":"70781695B8533917899851"},"geometry":{"type":"Polygon","coordinates":[[[13.17291,55.631904],[13.1742,55.643562],[13.161689,55.644738],[13.145008,55.652975],[13.145008,55.661209],[13.157519,55.671794],[13.153348,55.683551],[13.143429,55.685415],[13.134582,55.687077],[13.101219,55.668266],[13.073676,55.667448],[13.080431,55.652607],[13.097048,55.647092],[13.11373,55.638854],[13.140837,55.632969],[13.17291,55.631904]]]}},
{"type":"Feature","id":"SWE:ADM2:SE-M.lomma","properties":{"shapeName":"Lomma","shapeISO":"","shapeGroup":"SWE","shapeType":"ADM2","adm1ISO":"SE-M","parentISO":"SE-M","parentID":"SWE:ADM1:SE-M","src_shape_id":"70781695B45241162189836"},"geometry":{"type":"Polygon","coordinates":[[[13.004814,55.734996],[13.029051,55.723907],[13.039767,55.703382],[13.065487,55.685262],[13.073676,55.667448],[13.101219,55.668266],[13.134582,55.687077],[13.143429,55.685415],[13.145008,55.70588],[13.147093,55.723499],[13.169196,55.735945],[13.167945,55.745805],[13.167945,55.768099],[13.158604,55.776855],[13.153348,55.772791],[13.092878,55.772791],[13.086622,55.782172],[13.080367,55.786863],[13.065771,55.786863],[13.040748,55.770445],[13.017811,55.75402],[13.004814,55.734996]]]}},
{"type":"Feature","id":"SWE:ADM2:SE-M.staffanstorp","properties":{"shapeName":"Staffanstorp","shapeISO":"","shapeGroup":"SWE","shapeType":"ADM2","adm1ISO":"SE-M","parentISO":"SE-M","parentID":"SWE:ADM1:SE-M","src_shape_id":"70781695B74587424027080"},"geometry":{"type":"Polygon","coordinates":[[[13.169196,55.735945],[13.147093,55.723499],[13.145008,55.70588],[13.143429,55.685415],[13.153348,55.683551],[13.157519,55.671794],[13.145008,55.661209],[13.145008,55.652975],[13.161689,55.644738],[13.1742,55.643562],[13.17291,55.631904],[13.176285,55.631792],[13.18685,55.623591],[13.220074,55.632969],[13.249267,55.643562],[13.295141,55.642385],[13.330589,55.628261],[13.353596,55.62767],[13.353526,55.628261],[13.363952,55.629438],[13.380634,55.641208],[13.382719,55.656504],[13.359782,55.668266],[13.332674,55.6812],[13.322248,55.69648],[13.305567,55.70353],[13.28263,55.704705],[13.245097,55.704705],[13.215904,55.710579],[13.195052,55.72115],[13.17003,55.72937],[13.169196,55.735945]]]}}
]}