{"type":"FeatureCollection","bbox":[11.912226,56.342114,13.714058,57.605459],"features":[
{"type":"Feature","id":"SWE:ADM2:SE-N.kungsbacka","properties":{"shapeName":"Kungsbacka","shapeISO":"","shapeGroup":"SWE","shapeType":"ADM2","adm1ISO":"SE-N","parentISO":"SE-N","parentID":"SWE:ADM1:SE-N","src_shape_id":"70781695B93011743740918"},"geometry":{"type":"Polygon","coordinates":[[[12.416852,57.359283],[12.418713,57.367394],[12.426176,57.384829],[12.442346,57.39723],[12.447725,57.420332],[12.446206,57.433411],[12.444688,57.449754],[12.426467,57.462006],[12.412802,57.462006],[12.385471,57.471805],[12.36725,57.472621],[12.361177,57.478336],[12.368769,57.490579],[12.385471,57.502001],[12.368769,57.515867],[12.356622,57.52239],[12.350548,57.535433],[12.353585,57.558247],[12.370287,57.56802],[12.370287,57.581047],[12.353585,57.587558],[12.339919,57.598137],[12.309241,57.605189],[12.308033,57.605459],[12.282221,57.602205],[12.257926,57.594068],[12.245779,57.584302],[12.218448,57.580232],[12.182007,57.580232],[12.137974,57.57779],[12.124309,57.567206],[12.107606,57.563134],[12.063573,57.563134],[12.037761,57.567206],[12.027132,57.57372],[12.023399,57.574053],[11.990691,57.576976],[11.912226,57.570869],[11.916684,57.557323],[11.9274,57.470988],[11.914541,57.446777],[11.916684,57.42832],[11.931687,57.4087],[11.94026,57.387913],[11.957406,57.370583],[11.995986,57.361336],[12.028135,57.368271],[12.030278,57.387913],[12.038851,57.413317],[12.038851,57.436396],[12.062428,57.447931],[12.09672,57.438704],[12.101007,57.407545],[12.098863,57.380982],[12.08386,57.362492],[12.08386,57.350931],[12.091384,57.346195],[12.130382,57.346673],[12.153158,57.341757],[12.174415,57.336021],[12.177452,57.326186],[12.194154,57.321267],[12.219967,57.326186],[12.235151,57.33766],[12.259445,57.33766],[12.277665,57.326186],[12.303478,57.321267],[12.324735,57.318808],[12.332327,57.325366],[12.353585,57.331924],[12.36725,57.342577],[12.374842,57.354865],[12.400655,57.356503],[12.416852,57.359283]]]}},
{"type":"Feature","id":"SWE:ADM2:SE-N.varberg","properties":{"shapeName":"Varberg","shapeISO":"","shapeGroup":"SWE","shapeType":"ADM2","adm1ISO":"SE-N","parentISO":"SE-N","parentID":"SWE:ADM1:SE-N","src_shape_id":"70781695B45101098387914"},"geometry":{"type":"Polygon","coordinates":[[[12.091384,57.346195],[12.09672,57.342836],[12.105293,57.322012],[12.10315,57.269902],[12.12244,57.224679],[12.156732,57.199145],[12.178165,57.185209],[12.210314,57.141046],[12.238177,57.113126],[12.261753,57.086349],[12.28533,57.058388],[12.317479,57.024574],[12.329993,57.009088],[12.355862,57.010429],[12.410429,57.013013],[12.446016,57.022053],[12.460251,57.025927],[12.514818,57.033674],[12.536171,57.025927],[12.562268,57.014304],[12.578875,57.022053],[12.600228,57.037547],[12.628697,57.040128],[12.63107,57.054324],[12.604972,57.067224],[12.619207,57.078831],[12.628697,57.090433],[12.614462,57.099455],[12.619207,57.117493],[12.625376,57.129753],[12.637523,57.145407],[12.64967,57.156114],[12.661817,57.170934],[12.678519,57.185748],[12.675482,57.205491],[12.648152,57.216181],[12.663335,57.23262],[12.677001,57.242481],[12.707369,57.245767],[12.724071,57.255623],[12.758994,57.269583],[12.788604,57.296254],[12.774178,57.298305],[12.772659,57.307328],[12.768104,57.317168],[12.760512,57.327825],[12.746847,57.334382],[12.740773,57.345035],[12.730144,57.34995],[12.70585,57.351588],[12.686111,57.354046],[12.667891,57.359779],[12.639041,57.361417],[12.613229,57.353227],[12.6026,57.345854],[12.581343,57.336841],[12.563122,57.325366],[12.547938,57.309788],[12.526681,57.301587],[12.509978,57.297485],[12.490239,57.289281],[12.467464,57.291742],[12.455317,57.299946],[12.45228,57.315528],[12.455317,57.330284],[12.449243,57.33766],[12.424949,57.345035],[12.415839,57.354865],[12.416852,57.359283],[12.400655,57.356503],[12.374842,57.354865],[12.36725,57.342577],[12.353585,57.331924],[12.332327,57.325366],[12.324735,57.318808],[12.303478,57.321267],[12.277665,57.326186],[12.259445,57.33766],[12.235151,57.33766],[12.219967,57.326186],[12.194154,57.321267],[12.177452,57.326186],[12.174415,57.336021],[12.153158,57.341757],[12.130382,57.346673],[12.091384,57.346195]]]}},
{"type":"Feature","id":"SWE:ADM2:SE-N.hylte","properties":{"shapeName":"Hylte","shapeISO":"","shapeGroup":"SWE","shapeType":"ADM2","adm1ISO":"SE-N","parentISO":"SE-N","parentID":"SWE:ADM1:SE-N","src_shape_id":"70781695B16577787693192"},"geometry":{"type":"Polygon","coordinates":[[[13.351023,56.855935],[13.375458,56.862615],[13.38305,56.88253],[13.404308,56.889166],[13.440749,56.890825],[13.458969,56.901606],[13.490856,56.902435],[13.510595,56.89663],[13.528815,56.902435],[13.557664,56.913212],[13.588032,56.9215],[13.630547,56.922329],[13.657878,56.933929],[13.688246,56.938899],[13.707985,56.945525],[13.714058,56.961257],[13.714058,57.000972],[13.708167,57.003305],[13.697356,57.007587],[13.677617,57.008414],[13.662433,57.013374],[13.644212,57.02164],[13.636621,57.032383],[13.635102,57.055511],[13.635102,57.067895],[13.629029,57.0844],[13.615363,57.091001],[13.591069,57.095125],[13.574367,57.101723],[13.551591,57.103373],[13.53337,57.110794],[13.527297,57.124808],[13.518186,57.128929],[13.4863,57.121511],[13.47719,57.128929],[13.462006,57.134697],[13.436194,57.134697],[13.384569,57.133873],[13.360274,57.128929],[13.337499,57.122335],[13.301057,57.115741],[13.269171,57.10832],[13.247914,57.088526],[13.212991,57.076148],[13.203881,57.067069],[13.188697,57.053859],[13.170476,57.054685],[13.161366,57.060465],[13.153774,57.076148],[13.132517,57.09265],[13.124925,57.109969],[13.126408,57.112946],[13.10082,57.111052],[13.072351,57.108475],[13.058116,57.091722],[13.055743,57.069804],[13.034391,57.060774],[13.010666,57.065934],[12.989314,57.069804],[12.960844,57.073673],[12.951354,57.056904],[12.944237,57.045291],[12.920512,57.037547],[12.892042,57.033674],[12.87069,57.022053],[12.873062,57.00397],[12.887297,56.997509],[12.903905,56.988462],[12.911022,56.983292],[12.946609,56.979413],[12.956099,56.971655],[12.959651,56.970042],[12.970334,56.965189],[12.977451,56.957428],[12.994059,56.940607],[13.008294,56.938019],[13.029646,56.93543],[13.03534,56.895801],[13.050524,56.886678],[13.058116,56.876723],[13.076336,56.868425],[13.096075,56.866765],[13.115814,56.878382],[13.126443,56.888337],[13.155292,56.909896],[13.181105,56.913212],[13.214509,56.907409],[13.22362,56.892484],[13.208436,56.884189],[13.19477,56.875893],[13.193252,56.864275],[13.211473,56.858465],[13.240322,56.857634],[13.258543,56.859295],[13.27069,56.868425],[13.293465,56.873404],[13.31776,56.873404],[13.32687,56.864275],[13.351023,56.855935]]]}},
{"type":"Feature","id":"SWE:ADM2:SE-N.falkenberg","properties":{"shapeName":"Falkenberg","shapeISO":"","shapeGroup":"SWE","shapeType":"ADM2","adm1ISO":"SE-N","parentISO":"SE-N","parentID":"SWE:ADM1:SE-N","src_shape_id":"70781695B60260564619256"},"geometry":{"type":"Polygon","coordinates":[[[12.329993,57.009088],[12.341055,56.995399],[12.345342,56.961527],[12.358201,56.947502],[12.373204,56.926455],[12.390351,56.915927],[12.471796,56.89252],[12.512518,56.871442],[12.551097,56.859726],[12.611109,56.818694],[12.628256,56.802268],[12.629532,56.79644],[12.655743,56.798648],[12.675482,56.818598],[12.70585,56.835214],[12.736218,56.84435],[12.760512,56.859295],[12.789361,56.874233],[12.822766,56.877552],[12.869836,56.885019],[12.889575,56.889166],[12.900204,56.899118],[12.904759,56.913212],[12.918424,56.926472],[12.921461,56.948838],[12.944237,56.963741],[12.959651,56.970042],[12.956099,56.971655],[12.946609,56.979413],[12.911022,56.983292],[12.903905,56.988462],[12.887297,56.997509],[12.873062,57.00397],[12.87069,57.022053],[12.892042,57.033674],[12.920512,57.037547],[12.944237,57.045291],[12.951354,57.056904],[12.960844,57.073673],[12.989314,57.069804],[13.010666,57.065934],[13.034391,57.060774],[13.055743,57.069804],[13.058116,57.091722],[13.072351,57.108475],[13.10082,57.111052],[13.126408,57.112946],[13.130512,57.121181],[13.12954,57.137004],[13.12954,57.148603],[13.135371,57.159672],[13.146061,57.166522],[13.142173,57.174424],[13.138846,57.174524],[13.124682,57.174951],[13.111077,57.172317],[13.094557,57.172317],[13.080952,57.175478],[13.070263,57.192857],[13.060545,57.196542],[13.028477,57.197595],[12.976001,57.199701],[12.948792,57.203912],[12.948792,57.217595],[12.95851,57.229169],[12.959481,57.240739],[12.97503,57.2481],[12.98086,57.257562],[12.977945,57.269648],[12.957538,57.27963],[12.930328,57.282781],[12.906034,57.284357],[12.883501,57.293383],[12.844023,57.296665],[12.817455,57.299057],[12.816692,57.299126],[12.803027,57.294204],[12.788604,57.296254],[12.758994,57.269583],[12.724071,57.255623],[12.707369,57.245767],[12.677001,57.242481],[12.663335,57.23262],[12.648152,57.216181],[12.675482,57.205491],[12.678519,57.185748],[12.661817,57.170934],[12.64967,57.156114],[12.637523,57.145407],[12.625376,57.129753],[12.619207,57.117493],[12.614462,57.099455],[12.628697,57.090433],[12.619207,57.078831],[12.604972,57.067224],[12.63107,57.054324],[12.628697,57.040128],[12.600228,57.037547],[12.578875,57.022053],[12.562268,57.014304],[12.536171,57.025927],[12.514818,57.033674],[12.460251,57.025927],[12.446016,57.022053],[12.410429,57.013013],[12.355862,57.010429],[12.329993,57.009088]]]}},
{"type":"Feature","id":"SWE:ADM2:SE-N.laholm","properties":{"shapeName":"Laholm","shapeISO":"","shapeGroup":"SWE","shapeType":"ADM2","adm1ISO":"SE-N","parentISO":"SE-N","parentID":"SWE:ADM1:SE-N","src_shape_id":"70781695B78273070971821"},"geometry":{"type":"Polygon","coordinates":[[[13.000789,56.393213],[13.009471,56.386005],[13.042834,56.377923],[13.076197,56.377923],[13.132497,56.380233],[13.172115,56.380233],[13.197137,56.374459],[13.228415,56.354825],[13.243805,56.343098],[13.245097,56.342114],[13.261778,56.351359],[13.280545,56.379078],[13.372293,56.416006],[13.422587,56.44105],[13.494651,56.44105],[13.49491,56.440976],[13.498447,56.453688],[13.498447,56.469627],[13.483264,56.482206],[13.46808,56.491427],[13.46808,56.507351],[13.503003,56.530804],[13.503003,56.542526],[13.483264,56.561774],[13.463525,56.58185],[13.465043,56.593555],[13.445304,56.604422],[13.43923,56.615285],[13.445304,56.627815],[13.445304,56.640341],[13.444357,56.640862],[13.425565,56.651194],[13.413418,56.677895],[13.389124,56.694574],[13.372421,56.702911],[13.351325,56.710355],[13.316241,56.704578],[13.298021,56.697909],[13.257024,56.698743],[13.225138,56.697909],[13.211473,56.688737],[13.193252,56.656202],[13.164403,56.651194],[13.132517,56.637836],[13.109741,56.635331],[13.106704,56.629486],[13.056597,56.620297],[13.05356,56.611107],[13.042932,56.595227],[13.023193,56.588539],[13.014082,56.578505],[12.977641,56.576832],[12.946044,56.576832],[12.949749,56.550294],[12.956179,56.508923],[12.949749,56.484078],[12.918868,56.470301],[12.978193,56.46442],[12.996959,56.458659],[13.011556,56.433304],[13.007385,56.419466],[12.992789,56.405624],[12.996959,56.396392],[13.000789,56.393213]]]}},
{"type":"Feature","id":"SWE:ADM2:SE-N.halmstad","properties":{"shapeName":"Halmstad","shapeISO":"","shapeGroup":"SWE","shapeType":"ADM2","adm1ISO":"SE-N","parentISO":"SE-N","parentID":"SWE:ADM1:SE-N","src_shape_id":"70781695B21714207094800"},"geometry":{"type":"Polygon","coordinates":[[[12.959651,56.970042],[12.944237,56.963741],[12.921461,56.948838],[12.918424,56.926472],[12.904759,56.913212],[12.900204,56.899118],[12.889575,56.889166],[12.869836,56.885019],[12.822766,56.877552],[12.789361,56.874233],[12.760512,56.859295],[12.736218,56.84435],[12.70585,56.835214],[12.675482,56.818598],[12.655743,56.798648],[12.629532,56.79644],[12.634686,56.772919],[12.638972,56.745897],[12.645402,56.728264],[12.679695,56.709446],[12.694698,56.69768],[12.707557,56.683556],[12.72899,56.674137],[12.739707,56.65647],[12.750423,56.649401],[12.769713,56.639973],[12.795432,56.641152],[12.816865,56.655292],[12.846871,56.657648],[12.887594,56.648222],[12.915456,56.63408],[12.921886,56.614035],[12.945462,56.580998],[12.946044,56.576832],[12.977641,56.576832],[13.014082,56.578505],[13.023193,56.588539],[13.042932,56.595227],[13.05356,56.611107],[13.056597,56.620297],[13.106704,56.629486],[13.109741,56.635331],[13.132517,56.637836],[13.164403,56.651194],[13.193252,56.656202],[13.211473,56.688737],[13.225138,56.697909],[13.257024,56.698743],[13.298021,56.697909],[13.316241,56.704578],[13.351325,56.710355],[13.351164,56.710412],[13.360274,56.765376],[13.355719,56.810287],[13.351164,56.828568],[13.334462,56.841028],[13.345091,56.854314],[13.351023,56.855935],[13.32687,56.864275],[13.31776,56.873404],[13.293465,56.873404],[13.27069,56.868425],[13.258543,56.859295],[13.240322,56.857634],[13.211473,56.858465],[13.193252,56.864275],[13.19477,56.875893],[13.208436,56.884189],[13.22362,56.892484],[13.214509,56.907409],[13.181105,56.913212],[13.155292,56.909896],[13.126443,56.888337],[13.115814,56.878382],[13.096075,56.866765],[13.076336,56.868425],[13.058116,56.876723],[13.050524,56.886678],[13.03534,56.895801],[13.029646,56.93543],[13.008294,56.938019],[12.994059,56.940607],[12.977451,56.957428],[12.970334,56.965189],[12.959651,56.970042]]]}}
]}