{"type":"FeatureCollection","bbox":[11.095804,57.172317,14.78438,59.261088],"features":[
{"type":"Feature","id":"SWE:ADM2:SE-O.partille","properties":{"shapeName":"Partille","shapeISO":"","shapeGroup":"SWE","shapeType":"ADM2","adm1ISO":"SE-O","parentISO":"SE-O","parentID":"SWE:ADM1:SE-O","src_shape_id":"70781695B82968096890663"},"geometry":{"type":"Polygon","coordinates":[[[12.099998,57.69411],[12.100327,57.69401],[12.106465,57.69215],[12.143978,57.695893],[12.170363,57.702302],[12.199145,57.724723],[12.22433,57.736888],[12.226705,57.742909],[12.229128,57.74905],[12.221995,57.791978],[12.206608,57.787877],[12.156833,57.783195],[12.127554,57.778512],[12.115842,57.761335],[12.092418,57.751962],[12.086562,57.736336],[12.092418,57.714447],[12.101202,57.69411],[12.099998,57.69411]]]}},
{"type":"Feature","id":"SWE:ADM2:SE-O.molndal","properties":{"shapeName":"Mölndal","shapeISO":"","shapeGroup":"SWE","shapeType":"ADM2","adm1ISO":"SE-O","parentISO":"SE-O","parentID":"SWE:ADM1:SE-O","src_shape_id":"70781695B68601782286735"},"geometry":{"type":"Polygon","coordinates":[[[12.309241,57.605189],[12.311878,57.618259],[12.305482,57.623112],[12.297487,57.629177],[12.269903,57.637523],[12.238722,57.641374],[12.219533,57.6433],[12.199145,57.651643],[12.166765,57.649076],[12.147576,57.641374],[12.131985,57.642016],[12.119993,57.653568],[12.1068,57.665758],[12.097206,57.678584],[12.094808,57.690765],[12.100327,57.69401],[12.099998,57.69411],[12.071923,57.69411],[12.01922,57.692546],[11.98994,57.683155],[11.98994,57.658102],[12.001652,57.637733],[12.01922,57.618922],[12.025076,57.593824],[12.023399,57.574053],[12.027132,57.57372],[12.037761,57.567206],[12.063573,57.563134],[12.107606,57.563134],[12.124309,57.567206],[12.137974,57.57779],[12.182007,57.580232],[12.218448,57.580232],[12.245779,57.584302],[12.257926,57.594068],[12.282221,57.602205],[12.308033,57.605459],[12.309241,57.605189]]]}},
{"type":"Feature","id":"SWE:ADM2:SE-O.mark","properties":{"shapeName":"Mark","shapeISO":"","shapeGroup":"SWE","shapeType":"ADM2","adm1ISO":"SE-O","parentISO":"SE-O","parentID":"SWE:ADM1:SE-O","src_shape_id":"70781695B92952656574297"},"geometry":{"type":"Polygon","coordinates":[[[12.416852,57.359283],[12.415839,57.354865],[12.424949,57.345035],[12.449243,57.33766],[12.455317,57.330284],[12.45228,57.315528],[12.455317,57.299946],[12.467464,57.291742],[12.490239,57.289281],[12.509978,57.297485],[12.526681,57.301587],[12.547938,57.309788],[12.563122,57.325366],[12.581343,57.336841],[12.6026,57.345854],[12.613229,57.353227],[12.639041,57.361417],[12.667891,57.359779],[12.686111,57.354046],[12.70585,57.351588],[12.730144,57.34995],[12.740773,57.345035],[12.746847,57.334382],[12.760512,57.327825],[12.768104,57.317168],[12.772659,57.307328],[12.774178,57.298305],[12.788604,57.296254],[12.803027,57.294204],[12.816692,57.299126],[12.817455,57.299057],[12.843162,57.313833],[12.850358,57.328079],[12.852757,57.33973],[12.865949,57.348143],[12.887536,57.35526],[12.89833,57.361729],[12.904326,57.380481],[12.905525,57.395994],[12.917518,57.410208],[12.927113,57.42829],[12.927113,57.451526],[12.91512,57.468943],[12.89713,57.474747],[12.893533,57.490864],[12.921116,57.515348],[12.928312,57.524364],[12.954696,57.535954],[12.972685,57.555904],[12.98228,57.570056],[12.98228,57.578939],[12.98228,57.582273],[12.955895,57.582916],[12.940305,57.577773],[12.907924,57.582273],[12.889935,57.589345],[12.870746,57.59513],[12.857554,57.601556],[12.833568,57.609266],[12.809582,57.595772],[12.7796,57.586774],[12.752017,57.579702],[12.719636,57.582273],[12.706444,57.586774],[12.696849,57.591273],[12.674063,57.597058],[12.672864,57.609266],[12.696849,57.636239],[12.692052,57.646509],[12.677828,57.650568],[12.674063,57.651643],[12.646479,57.645867],[12.616497,57.638165],[12.590169,57.633467],[12.584117,57.632387],[12.534946,57.631745],[12.495369,57.623397],[12.474981,57.624682],[12.450996,57.631103],[12.423412,57.631103],[12.401825,57.637523],[12.377839,57.642016],[12.355053,57.633671],[12.328668,57.62725],[12.305482,57.623112],[12.311878,57.618259],[12.309241,57.605189],[12.339919,57.598137],[12.353585,57.587558],[12.370287,57.581047],[12.370287,57.56802],[12.353585,57.558247],[12.350548,57.535433],[12.356622,57.52239],[12.368769,57.515867],[12.385471,57.502001],[12.368769,57.490579],[12.361177,57.478336],[12.36725,57.472621],[12.385471,57.471805],[12.412802,57.462006],[12.426467,57.462006],[12.444688,57.449754],[12.446206,57.433411],[12.447725,57.420332],[12.442346,57.39723],[12.426176,57.384829],[12.418713,57.367394],[12.416852,57.359283]]]}},
{"type":"Feature","id":"SWE:ADM2:SE-O.svenljunga","properties":{"shapeName":"Svenljunga","shapeISO":"","shapeGroup":"SWE","shapeType":"ADM2","adm1ISO":"SE-O","parentISO":"SE-O","parentID":"SWE:ADM1:SE-O","src_shape_id":"70781695B82404495889294"},"geometry":{"type":"Polygon","coordinates":[[[13.138846,57.174524],[13.144137,57.178667],[13.159948,57.187236],[13.174704,57.192947],[13.184191,57.20551],[13.193677,57.216355],[13.20211,57.231192],[13.216867,57.24203],[13.223191,57.254575],[13.233732,57.266546],[13.247435,57.273385],[13.276948,57.276804],[13.299084,57.28535],[13.31384,57.296742],[13.330705,57.310407],[13.331834,57.317111],[13.30166,57.322929],[13.266525,57.330833],[13.281165,57.345054],[13.292876,57.354532],[13.292876,57.382951],[13.272381,57.390841],[13.248957,57.409771],[13.263597,57.431843],[13.269453,57.449177],[13.251885,57.466502],[13.254813,57.480671],[13.269453,57.493261],[13.289948,57.505846],[13.298732,57.52],[13.298732,57.553004],[13.284092,57.560857],[13.254813,57.562428],[13.231389,57.554575],[13.205038,57.554575],[13.166975,57.560857],[13.178686,57.57499],[13.184542,57.587547],[13.205038,57.601669],[13.222606,57.626761],[13.234317,57.634599],[13.237245,57.662801],[13.234859,57.669181],[13.228461,57.686286],[13.210894,57.690981],[13.169903,57.687851],[13.149407,57.669065],[13.140623,57.648703],[13.111344,57.631464],[13.061569,57.615785],[13.026433,57.592255],[12.98228,57.578939],[12.98228,57.570056],[12.972685,57.555904],[12.954696,57.535954],[12.928312,57.524364],[12.921116,57.515348],[12.893533,57.490864],[12.89713,57.474747],[12.91512,57.468943],[12.927113,57.451526],[12.927113,57.42829],[12.917518,57.410208],[12.905525,57.395994],[12.904326,57.380481],[12.89833,57.361729],[12.887536,57.35526],[12.865949,57.348143],[12.852757,57.33973],[12.850358,57.328079],[12.843162,57.313833],[12.817455,57.299057],[12.844023,57.296665],[12.883501,57.293383],[12.906034,57.284357],[12.930328,57.282781],[12.957538,57.27963],[12.977945,57.269648],[12.98086,57.257562],[12.97503,57.2481],[12.959481,57.240739],[12.95851,57.229169],[12.948792,57.217595],[12.948792,57.203912],[12.976001,57.199701],[13.028477,57.197595],[13.060545,57.196542],[13.070263,57.192857],[13.080952,57.175478],[13.094557,57.172317],[13.111077,57.172317],[13.124682,57.174951],[13.138846,57.174524]]]}},
{"type":"Feature","id":"SWE:ADM2:SE-O.tranemo","properties":{"shapeName":"Tranemo","shapeISO":"","shapeGroup":"SWE","shapeType":"ADM2","adm1ISO":"SE-O","parentISO":"SE-O","parentID":"SWE:ADM1:SE-O","src_shape_id":"70781695B94862964500573"},"geometry":{"type":"Polygon","coordinates":[[[13.725433,57.582562],[13.724199,57.595786],[13.724199,57.610787],[13.70773,57.621372],[13.70773,57.639007],[13.717612,57.651346],[13.737375,57.663682],[13.753845,57.676013],[13.763727,57.695382],[13.753334,57.702323],[13.720356,57.703498],[13.694005,57.698805],[13.676437,57.675328],[13.632518,57.672196],[13.585671,57.687851],[13.556391,57.683155],[13.521256,57.658102],[13.503688,57.644002],[13.450985,57.637733],[13.421706,57.640868],[13.389499,57.647136],[13.369003,57.640868],[13.357291,57.651836],[13.342651,57.676893],[13.331252,57.696697],[13.33094,57.69724],[13.289948,57.687851],[13.248957,57.672196],[13.234859,57.669181],[13.237245,57.662801],[13.234317,57.634599],[13.222606,57.626761],[13.205038,57.601669],[13.184542,57.587547],[13.178686,57.57499],[13.166975,57.560857],[13.205038,57.554575],[13.231389,57.554575],[13.254813,57.562428],[13.284092,57.560857],[13.298732,57.553004],[13.298732,57.52],[13.289948,57.505846],[13.269453,57.493261],[13.254813,57.480671],[13.251885,57.466502],[13.269453,57.449177],[13.263597,57.431843],[13.248957,57.409771],[13.272381,57.390841],[13.292876,57.382951],[13.292876,57.354532],[13.281165,57.345054],[13.266525,57.330833],[13.30166,57.322929],[13.331834,57.317111],[13.333868,57.329189],[13.361273,57.336016],[13.397111,57.345686],[13.416084,57.35649],[13.446652,57.367292],[13.463517,57.381499],[13.486706,57.389453],[13.504625,57.40138],[13.518328,57.413304],[13.532031,57.425791],[13.543626,57.443379],[13.571031,57.46436],[13.593166,57.48023],[13.625842,57.510816],[13.647978,57.53968],[13.697518,57.564564],[13.725846,57.578129],[13.725433,57.582562]]]}},
{"type":"Feature","id":"SWE:ADM2:SE-O.harryda","properties":{"shapeName":"Härryda","shapeISO":"","shapeGroup":"SWE","shapeType":"ADM2","adm1ISO":"SE-O","parentISO":"SE-O","parentID":"SWE:ADM1:SE-O","src_shape_id":"70781695B40038989009726"},"geometry":{"type":"Polygon","coordinates":[[[12.100327,57.69401],[12.094808,57.690765],[12.097206,57.678584],[12.1068,57.665758],[12.119993,57.653568],[12.131985,57.642016],[12.147576,57.641374],[12.166765,57.649076],[12.199145,57.651643],[12.219533,57.6433],[12.238722,57.641374],[12.269903,57.637523],[12.297487,57.629177],[12.305482,57.623112],[12.328668,57.62725],[12.355053,57.633671],[12.377839,57.642016],[12.401825,57.637523],[12.423412,57.631103],[12.450996,57.631103],[12.474981,57.624682],[12.495369,57.623397],[12.534946,57.631745],[12.584117,57.632387],[12.590169,57.633467],[12.590169,57.658102],[12.578457,57.664367],[12.56089,57.680024],[12.540394,57.701934],[12.540394,57.719139],[12.519898,57.73321],[12.481835,57.736336],[12.464313,57.747247],[12.326654,57.74415],[12.226705,57.742909],[12.22433,57.736888],[12.199145,57.724723],[12.170363,57.702302],[12.143978,57.695893],[12.106465,57.69215],[12.100327,57.69401]]]}},
{"type":"Feature","id":"SWE:ADM2:SE-O.ulricehamn","properties":{"shapeName":"Ulricehamn","shapeISO":"","shapeGroup":"SWE","shapeType":"ADM2","adm1ISO":"SE-O","parentISO":"SE-O","parentID":"SWE:ADM1:SE-O","src_shape_id":"70781695B39673713776629"},"geometry":{"type":"Polygon","coordinates":[[[13.7595,57.964704],[13.726212,57.959029],[13.709347,57.952069],[13.683113,57.944113],[13.664374,57.940135],[13.636266,57.938145],[13.63814,57.945108],[13.651257,57.958034],[13.643761,57.969962],[13.62877,57.978906],[13.626896,57.990827],[13.613779,58.012672],[13.598788,58.01962],[13.576301,58.028551],[13.550067,58.021605],[13.52758,58.013665],[13.514463,58.006716],[13.510715,57.987847],[13.478859,57.984867],[13.456373,57.993807],[13.43576,57.996786],[13.405672,57.996786],[13.40203,57.996786],[13.385165,57.986854],[13.355183,57.973938],[13.323327,57.969962],[13.30084,57.965987],[13.278354,57.955052],[13.257741,57.935161],[13.239002,57.923222],[13.20902,57.91725],[13.180912,57.913269],[13.155741,57.907763],[13.149056,57.9063],[13.14156,57.894351],[13.145308,57.878412],[13.164047,57.86147],[13.169668,57.845517],[13.179038,57.83654],[13.195903,57.825566],[13.220263,57.811593],[13.24275,57.797615],[13.278354,57.788627],[13.280228,57.771642],[13.263363,57.756649],[13.263153,57.739705],[13.280806,57.724543],[13.315346,57.707325],[13.334534,57.701584],[13.331252,57.696697],[13.342651,57.676893],[13.357291,57.651836],[13.369003,57.640868],[13.389499,57.647136],[13.421706,57.640868],[13.450985,57.637733],[13.503688,57.644002],[13.521256,57.658102],[13.556391,57.683155],[13.585671,57.687851],[13.632518,57.672196],[13.676437,57.675328],[13.694005,57.698805],[13.720356,57.703498],[13.753334,57.702323],[13.743963,57.708582],[13.740669,57.727934],[13.760433,57.743759],[13.743963,57.756063],[13.76208,57.769241],[13.785137,57.78417],[13.796666,57.802604],[13.765374,57.82366],[13.770315,57.854343],[13.781956,57.870599],[13.78349,57.872741],[13.796666,57.905133],[13.813136,57.920881],[13.818077,57.935748],[13.81643,57.94886],[13.809842,57.956726],[13.791725,57.961968],[13.771962,57.962842],[13.760433,57.963716],[13.7595,57.964704]]]}},
{"type":"Feature","id":"SWE:ADM2:SE-O.boras","properties":{"shapeName":"Borås","shapeISO":"","shapeGroup":"SWE","shapeType":"ADM2","adm1ISO":"SE-O","parentISO":"SE-O","parentID":"SWE:ADM1:SE-O","src_shape_id":"70781695B44475344779169"},"geometry":{"type":"Polygon","coordinates":[[[12.98228,57.578939],[13.026433,57.592255],[13.061569,57.615785],[13.111344,57.631464],[13.140623,57.648703],[13.149407,57.669065],[13.169903,57.687851],[13.210894,57.690981],[13.228461,57.686286],[13.234859,57.669181],[13.248957,57.672196],[13.289948,57.687851],[13.33094,57.69724],[13.331252,57.696697],[13.334534,57.701584],[13.315346,57.707325],[13.280806,57.724543],[13.263153,57.739705],[13.263363,57.756649],[13.280228,57.771642],[13.278354,57.788627],[13.24275,57.797615],[13.220263,57.811593],[13.195903,57.825566],[13.179038,57.83654],[13.169668,57.845517],[13.164047,57.86147],[13.145308,57.878412],[13.14156,57.894351],[13.149056,57.9063],[13.155741,57.907763],[13.115326,57.91725],[13.064731,57.918245],[13.044118,57.91526],[13.008514,57.921231],[13.002892,57.930187],[12.980406,57.940135],[12.965415,57.951075],[12.95831,57.951075],[12.94855,57.951075],[12.918568,57.938145],[12.911072,57.931182],[12.894207,57.916255],[12.88109,57.89933],[12.864225,57.886383],[12.824873,57.883394],[12.800513,57.882398],[12.799296,57.880845],[12.791143,57.870441],[12.791143,57.855488],[12.783648,57.842525],[12.74617,57.828559],[12.740548,57.819578],[12.753666,57.809597],[12.761161,57.800611],[12.759287,57.779636],[12.749918,57.769643],[12.748044,57.760648],[12.753666,57.740649],[12.763035,57.736648],[12.783648,57.726644],[12.800513,57.717638],[12.798639,57.708629],[12.783648,57.699618],[12.719936,57.678584],[12.693701,57.665557],[12.677828,57.650568],[12.692052,57.646509],[12.696849,57.636239],[12.672864,57.609266],[12.674063,57.597058],[12.696849,57.591273],[12.706444,57.586774],[12.719636,57.582273],[12.752017,57.579702],[12.7796,57.586774],[12.809582,57.595772],[12.833568,57.609266],[12.857554,57.601556],[12.870746,57.59513],[12.889935,57.589345],[12.907924,57.582273],[12.940305,57.577773],[12.955895,57.582916],[12.98228,57.582273],[12.98228,57.578939]]]}},
{"type":"Feature","id":"SWE:ADM2:SE-O.bollebygd","properties":{"shapeName":"Bollebygd","shapeISO":"","shapeGroup":"SWE","shapeType":"ADM2","adm1ISO":"SE-O","parentISO":"SE-O","parentID":"SWE:ADM1:SE-O","src_shape_id":"70781695B31966174790968"},"geometry":{"type":"Polygon","coordinates":[[[12.677828,57.650568],[12.693701,57.665557],[12.719936,57.678584],[12.783648,57.699618],[12.798639,57.708629],[12.800513,57.717638],[12.783648,57.726644],[12.763035,57.736648],[12.753666,57.740649],[12.748044,57.760648],[12.749918,57.769643],[12.759287,57.779636],[12.761161,57.800611],[12.753666,57.809597],[12.740548,57.819578],[12.74617,57.828559],[12.783648,57.842525],[12.791143,57.855488],[12.791143,57.870441],[12.799296,57.880845],[12.789195,57.88192],[12.713639,57.880007],[12.700447,57.877456],[12.691119,57.871255],[12.686056,57.867889],[12.675262,57.859596],[12.650077,57.849386],[12.634487,57.837897],[12.633287,57.825127],[12.622494,57.812991],[12.605704,57.807241],[12.585316,57.79382],[12.570924,57.788706],[12.558932,57.779756],[12.534946,57.777837],[12.522409,57.781436],[12.519355,57.782313],[12.49417,57.771442],[12.488174,57.765685],[12.464313,57.747247],[12.481835,57.736336],[12.519898,57.73321],[12.540394,57.719139],[12.540394,57.701934],[12.56089,57.680024],[12.578457,57.664367],[12.590169,57.658102],[12.590169,57.633467],[12.616497,57.638165],[12.646479,57.645867],[12.674063,57.651643],[12.677828,57.650568]]]}},
{"type":"Feature","id":"SWE:ADM2:SE-O.tidaholm","properties":{"shapeName":"Tidaholm","shapeISO":"","shapeGroup":"SWE","shapeType":"ADM2","adm1ISO":"SE-O","parentISO":"SE-O","parentID":"SWE:ADM1:SE-O","src_shape_id":"70781695B48750252514095"},"geometry":{"type":"Polygon","coordinates":[[[13.981854,58.043036],[13.982774,58.042257],[14.002537,58.035283],[14.045358,58.035283],[14.07171,58.044001],[14.098062,58.05446],[14.112884,58.072755],[14.131001,58.083205],[14.134295,58.097134],[14.155705,58.107577],[14.170528,58.115408],[14.162293,58.138019],[14.157352,58.156272],[14.164189,58.161081],[14.159299,58.171401],[14.149842,58.192591],[14.152206,58.227465],[14.166392,58.248621],[14.178213,58.271009],[14.168756,58.28344],[14.140385,58.28344],[14.1262,58.272252],[14.100194,58.278468],[14.057638,58.287169],[14.045817,58.295867],[14.024539,58.298352],[13.998532,58.292139],[13.970162,58.282197],[13.941791,58.275982],[13.932778,58.271242],[13.922877,58.266035],[13.844858,58.266035],[13.792845,58.257329],[13.785753,58.237423],[13.799938,58.227465],[13.809395,58.211278],[13.790481,58.202559],[13.773932,58.180128],[13.747925,58.163919],[13.769203,58.153941],[13.785753,58.127735],[13.783388,58.10026],[13.809395,58.080265],[13.828113,58.073667],[13.83784,58.076239],[13.872427,58.076239],[13.898778,58.064915],[13.930071,58.064915],[13.959716,58.063173],[13.974539,58.049231],[13.981854,58.043036]]]}},
{"type":"Feature","id":"SWE:ADM2:SE-O.hjo","properties":{"shapeName":"Hjo","shapeISO":"","shapeGroup":"SWE","shapeType":"ADM2","adm1ISO":"SE-O","parentISO":"SE-O","parentID":"SWE:ADM1:SE-O","src_shape_id":"70781695B53745153341539"},"geometry":{"type":"Polygon","coordinates":[[[14.338619,58.168178],[14.339823,58.168253],[14.418495,58.202184],[14.421942,58.209967],[14.490289,58.323191],[14.54458,58.393773],[14.430428,58.426136],[14.424089,58.428983],[14.331887,58.426087],[14.327414,58.424447],[14.308245,58.41742],[14.294059,58.40132],[14.284603,58.383973],[14.244411,58.381494],[14.211312,58.382733],[14.199491,58.387691],[14.181927,58.386274],[14.168756,58.385212],[14.149842,58.374056],[14.138021,58.355456],[14.116743,58.346772],[14.086008,58.336845],[14.043452,58.324432],[14.024539,58.310774],[14.024539,58.298352],[14.045817,58.295867],[14.057638,58.287169],[14.100194,58.278468],[14.1262,58.272252],[14.140385,58.28344],[14.168756,58.28344],[14.178213,58.271009],[14.166392,58.248621],[14.152206,58.227465],[14.149842,58.192591],[14.159299,58.171401],[14.164189,58.161081],[14.167234,58.163223],[14.201821,58.158879],[14.227486,58.157889],[14.242985,58.163656],[14.273973,58.164167],[14.338619,58.168178]]]}},
{"type":"Feature","id":"SWE:ADM2:SE-O.kungalv","properties":{"shapeName":"Kungälv","shapeISO":"","shapeGroup":"SWE","shapeType":"ADM2","adm1ISO":"SE-O","parentISO":"SE-O","parentID":"SWE:ADM1:SE-O","src_shape_id":"70781695B99737060400485"},"geometry":{"type":"Polygon","coordinates":[[[12.016772,57.869685],[12.048809,57.882464],[12.066966,57.894529],[12.076045,57.90659],[12.076045,57.922664],[12.101768,57.943551],[12.109333,57.958806],[12.12749,57.967635],[12.150187,57.978067],[12.154726,57.997317],[12.148674,58.015755],[12.133094,58.024007],[12.119925,58.03098],[12.08815,58.040592],[12.070394,58.035893],[12.066966,58.034985],[12.057888,58.023769],[12.030652,58.014152],[12.017034,58.000524],[12.010982,57.985287],[12.009469,57.974857],[11.983746,57.96924],[11.951971,57.974857],[11.909604,57.97245],[11.81234,57.97245],[11.775227,57.947292],[11.723788,57.892654],[11.702355,57.866443],[11.700212,57.839073],[11.713071,57.808256],[11.743078,57.793409],[11.798803,57.793409],[11.809497,57.789901],[11.849399,57.801921],[11.881606,57.81596],[11.925525,57.840904],[11.948949,57.85337],[11.987012,57.867388],[12.016292,57.870503],[12.016772,57.869685]]]}},
{"type":"Feature","id":"SWE:ADM2:SE-O.lerum","properties":{"shapeName":"Lerum","shapeISO":"","shapeGroup":"SWE","shapeType":"ADM2","adm1ISO":"SE-O","parentISO":"SE-O","parentID":"SWE:ADM1:SE-O","src_shape_id":"70781695B46333437136536"},"geometry":{"type":"Polygon","coordinates":[[[12.226705,57.742909],[12.326654,57.74415],[12.464313,57.747247],[12.488174,57.765685],[12.49417,57.771442],[12.519355,57.782313],[12.522409,57.781436],[12.522409,57.797091],[12.495174,57.814827],[12.480043,57.82208],[12.466425,57.847856],[12.466425,57.865567],[12.467938,57.88166],[12.461885,57.892921],[12.437676,57.900962],[12.43465,57.913824],[12.436163,57.933109],[12.43465,57.941944],[12.408927,57.950778],[12.401361,57.961214],[12.401361,57.978869],[12.372953,57.986041],[12.369586,57.986891],[12.348403,57.973252],[12.348403,57.956398],[12.339324,57.945157],[12.328733,57.930699],[12.330246,57.913824],[12.319654,57.904178],[12.293931,57.897746],[12.265182,57.894529],[12.23946,57.884073],[12.192554,57.879246],[12.18385,57.870503],[12.186113,57.870503],[12.209536,57.858043],[12.221248,57.839346],[12.250527,57.822198],[12.259311,57.812841],[12.241744,57.797241],[12.221995,57.791978],[12.229128,57.74905],[12.226705,57.742909]]]}},
{"type":"Feature","id":"SWE:ADM2:SE-O.ale","properties":{"shapeName":"Ale","shapeISO":"","shapeGroup":"SWE","shapeType":"ADM2","adm1ISO":"SE-O","parentISO":"SE-O","parentID":"SWE:ADM1:SE-O","src_shape_id":"70781695B73988580655611"},"geometry":{"type":"Polygon","coordinates":[[[12.016772,57.869685],[12.030931,57.845579],[12.051427,57.828434],[12.068995,57.833111],[12.080707,57.847137],[12.11877,57.862716],[12.148049,57.870503],[12.18385,57.870503],[12.192554,57.879246],[12.23946,57.884073],[12.265182,57.894529],[12.293931,57.897746],[12.319654,57.904178],[12.330246,57.913824],[12.328733,57.930699],[12.339324,57.945157],[12.348403,57.956398],[12.348403,57.973252],[12.369586,57.986891],[12.372953,57.986041],[12.38693,57.995096],[12.404388,57.999722],[12.440702,58.00774],[12.458859,58.016557],[12.452807,58.045397],[12.452807,58.073415],[12.460372,58.087015],[12.480043,58.103009],[12.471787,58.1127],[12.466425,58.118995],[12.436163,58.122991],[12.416568,58.120404],[12.393796,58.117397],[12.354455,58.093413],[12.325706,58.081415],[12.306036,58.069413],[12.274261,58.051003],[12.245512,58.034184],[12.213737,58.027775],[12.165318,58.025372],[12.133094,58.024007],[12.148674,58.015755],[12.154726,57.997317],[12.150187,57.978067],[12.12749,57.967635],[12.109333,57.958806],[12.101768,57.943551],[12.076045,57.922664],[12.076045,57.90659],[12.066966,57.894529],[12.048809,57.882464],[12.016772,57.869685]]]}},
{"type":"Feature","id":"SWE:ADM2:SE-O.alingsas","properties":{"shapeName":"Alingsås","shapeISO":"","shapeGroup":"SWE","shapeType":"ADM2","adm1ISO":"SE-O","parentISO":"SE-O","parentID":"SWE:ADM1:SE-O","src_shape_id":"70781695B65957957058719"},"geometry":{"type":"Polygon","coordinates":[[[12.691119,57.871255],[12.681951,57.886229],[12.696476,57.907329],[12.696476,57.925332],[12.69454,57.942812],[12.682919,57.962852],[12.669362,57.975178],[12.657741,57.983394],[12.636437,57.988014],[12.611259,57.993147],[12.592859,57.996226],[12.585112,58.009054],[12.590922,58.024442],[12.600606,58.038286],[12.614164,58.054686],[12.637405,58.071078],[12.67033,58.087463],[12.714876,58.098211],[12.743927,58.107933],[12.750706,58.114072],[12.749127,58.118243],[12.746832,58.124301],[12.735212,58.136061],[12.720686,58.145773],[12.724559,58.158037],[12.740054,58.169275],[12.740054,58.18102],[12.729401,58.19123],[12.709065,58.199395],[12.682919,58.200926],[12.660646,58.202457],[12.633531,58.21011],[12.60448,58.212151],[12.581766,58.205503],[12.578334,58.204498],[12.572523,58.186125],[12.551219,58.177445],[12.525072,58.173871],[12.50861,58.168764],[12.50861,58.159569],[12.518294,58.148328],[12.5028,58.138106],[12.485369,58.117141],[12.471787,58.1127],[12.480043,58.103009],[12.460372,58.087015],[12.452807,58.073415],[12.452807,58.045397],[12.458859,58.016557],[12.440702,58.00774],[12.404388,57.999722],[12.38693,57.995096],[12.372953,57.986041],[12.401361,57.978869],[12.401361,57.961214],[12.408927,57.950778],[12.43465,57.941944],[12.436163,57.933109],[12.43465,57.913824],[12.437676,57.900962],[12.461885,57.892921],[12.467938,57.88166],[12.466425,57.865567],[12.466425,57.847856],[12.480043,57.82208],[12.495174,57.814827],[12.522409,57.797091],[12.522409,57.781436],[12.534946,57.777837],[12.558932,57.779756],[12.570924,57.788706],[12.585316,57.79382],[12.605704,57.807241],[12.622494,57.812991],[12.633287,57.825127],[12.634487,57.837897],[12.650077,57.849386],[12.675262,57.859596],[12.686056,57.867889],[12.691119,57.871255]]]}},
{"type":"Feature","id":"SWE:ADM2:SE-O.stenungsund","properties":{"shapeName":"Stenungsund","shapeISO":"","shapeGroup":"SWE","shapeType":"ADM2","adm1ISO":"SE-O","parentISO":"SE-O","parentID":"SWE:ADM1:SE-O","src_shape_id":"70781695B70291115197472"},"geometry":{"type":"Polygon","coordinates":[[[12.070394,58.035893],[12.062238,58.045247],[12.083516,58.066512],[12.074059,58.077765],[12.074059,58.091514],[12.083516,58.107756],[12.074059,58.12399],[12.048053,58.137721],[12.031503,58.14396],[11.998277,58.159489],[11.988947,58.163919],[11.962941,58.162672],[11.913292,58.161425],[11.898312,58.161425],[11.886678,58.142399],[11.858815,58.099386],[11.841669,58.071059],[11.824522,58.02569],[11.818093,58.001848],[11.813806,57.973444],[11.81234,57.97245],[11.909604,57.97245],[11.951971,57.974857],[11.983746,57.96924],[12.009469,57.974857],[12.010982,57.985287],[12.017034,58.000524],[12.030652,58.014152],[12.057888,58.023769],[12.066966,58.034985],[12.070394,58.035893]]]}},
{"type":"Feature","id":"SWE:ADM2:SE-O.vargarda","properties":{"shapeName":"Vårgårda","shapeISO":"","shapeGroup":"SWE","shapeType":"ADM2","adm1ISO":"SE-O","parentISO":"SE-O","parentID":"SWE:ADM1:SE-O","src_shape_id":"70781695B65797043519152"},"geometry":{"type":"Polygon","coordinates":[[[12.95831,57.951075],[12.991376,57.966331],[13.003197,57.985136],[13.007925,58.005184],[13.02211,58.013952],[13.010289,58.032732],[13.000832,58.042745],[12.99374,58.054005],[12.955912,58.059008],[12.918085,58.060259],[12.906264,58.069013],[12.884986,58.084015],[12.882622,58.094013],[12.889714,58.102759],[12.93227,58.114],[12.936999,58.127735],[12.93356,58.128643],[12.913356,58.133976],[12.866072,58.135225],[12.84243,58.118995],[12.790417,58.116498],[12.749127,58.118243],[12.750706,58.114072],[12.743927,58.107933],[12.714876,58.098211],[12.67033,58.087463],[12.637405,58.071078],[12.614164,58.054686],[12.600606,58.038286],[12.590922,58.024442],[12.585112,58.009054],[12.592859,57.996226],[12.611259,57.993147],[12.636437,57.988014],[12.657741,57.983394],[12.669362,57.975178],[12.682919,57.962852],[12.69454,57.942812],[12.696476,57.925332],[12.696476,57.907329],[12.681951,57.886229],[12.691119,57.871255],[12.700447,57.877456],[12.713639,57.880007],[12.789195,57.88192],[12.799296,57.880845],[12.800513,57.882398],[12.824873,57.883394],[12.864225,57.886383],[12.88109,57.89933],[12.894207,57.916255],[12.911072,57.931182],[12.918568,57.938145],[12.94855,57.951075],[12.95831,57.951075]]]}},
{"type":"Feature","id":"SWE:ADM2:SE-O.falkoping","properties":{"shapeName":"Falköping","shapeISO":"","shapeGroup":"SWE","shapeType":"ADM2","adm1ISO":"SE-O","parentISO":"SE-O","parentID":"SWE:ADM1:SE-O","src_shape_id":"70781695B60471396362754"},"geometry":{"type":"Polygon","coordinates":[[[13.828113,58.073667],[13.809395,58.080265],[13.783388,58.10026],[13.785753,58.127735],[13.769203,58.153941],[13.747925,58.163919],[13.773932,58.180128],[13.790481,58.202559],[13.809395,58.211278],[13.799938,58.227465],[13.785753,58.237423],[13.792845,58.257329],[13.844858,58.266035],[13.922877,58.266035],[13.932778,58.271242],[13.918149,58.277225],[13.896871,58.290897],[13.894507,58.316983],[13.892142,58.328157],[13.854315,58.335604],[13.807031,58.328157],[13.776296,58.330639],[13.747925,58.321949],[13.710098,58.328157],[13.705369,58.341809],[13.705369,58.356696],[13.731376,58.366617],[13.755018,58.371577],[13.797574,58.375296],[13.825944,58.391408],[13.828309,58.405036],[13.802302,58.416182],[13.800553,58.415849],[13.776296,58.411229],[13.747925,58.391408],[13.73374,58.386451],[13.698277,58.383973],[13.6439,58.375296],[13.615529,58.367857],[13.598979,58.357936],[13.584794,58.34429],[13.577702,58.328157],[13.539874,58.300837],[13.499682,58.300837],[13.452398,58.302079],[13.429908,58.297352],[13.428756,58.297109],[13.419299,58.272252],[13.405114,58.262304],[13.372015,58.241156],[13.357829,58.227465],[13.34128,58.217505],[13.301088,58.213769],[13.272717,58.198821],[13.263261,58.175142],[13.241983,58.146456],[13.238957,58.136473],[13.232526,58.115249],[13.241983,58.102759],[13.272717,58.106506],[13.303452,58.111503],[13.34128,58.107756],[13.346008,58.096512],[13.346008,58.079015],[13.348372,58.054005],[13.36965,58.036487],[13.393293,58.027725],[13.409842,58.008942],[13.405672,57.996786],[13.43576,57.996786],[13.456373,57.993807],[13.478859,57.984867],[13.510715,57.987847],[13.514463,58.006716],[13.52758,58.013665],[13.550067,58.021605],[13.576301,58.028551],[13.598788,58.01962],[13.613779,58.012672],[13.626896,57.990827],[13.62877,57.978906],[13.643761,57.969962],[13.651257,57.958034],[13.63814,57.945108],[13.636266,57.938145],[13.664374,57.940135],[13.683113,57.944113],[13.709347,57.952069],[13.726212,57.959029],[13.7595,57.964704],[13.748904,57.975944],[13.734081,57.989915],[13.740669,58.003008],[13.758786,58.016968],[13.778549,58.020457],[13.791725,58.025691],[13.806548,58.03877],[13.813136,58.056202],[13.808195,58.0684],[13.828113,58.073667]]]}},
{"type":"Feature","id":"SWE:ADM2:SE-O.herrljunga","properties":{"shapeName":"Herrljunga","shapeISO":"","shapeGroup":"SWE","shapeType":"ADM2","adm1ISO":"SE-O","parentISO":"SE-O","parentID":"SWE:ADM1:SE-O","src_shape_id":"70781695B89566338626874"},"geometry":{"type":"Polygon","coordinates":[[[13.405672,57.996786],[13.409842,58.008942],[13.393293,58.027725],[13.36965,58.036487],[13.348372,58.054005],[13.346008,58.079015],[13.346008,58.096512],[13.34128,58.107756],[13.303452,58.111503],[13.272717,58.106506],[13.241983,58.102759],[13.232526,58.115249],[13.238957,58.136473],[13.201791,58.136473],[13.045753,58.132728],[12.963005,58.129715],[12.93356,58.128643],[12.936999,58.127735],[12.93227,58.114],[12.889714,58.102759],[12.882622,58.094013],[12.884986,58.084015],[12.906264,58.069013],[12.918085,58.060259],[12.955912,58.059008],[12.99374,58.054005],[13.000832,58.042745],[13.010289,58.032732],[13.02211,58.013952],[13.007925,58.005184],[13.003197,57.985136],[12.991376,57.966331],[12.95831,57.951075],[12.965415,57.951075],[12.980406,57.940135],[13.002892,57.930187],[13.008514,57.921231],[13.044118,57.91526],[13.064731,57.918245],[13.115326,57.91725],[13.155741,57.907763],[13.180912,57.913269],[13.20902,57.91725],[13.239002,57.923222],[13.257741,57.935161],[13.278354,57.955052],[13.30084,57.965987],[13.323327,57.969962],[13.355183,57.973938],[13.385165,57.986854],[13.40203,57.996786],[13.405672,57.996786]]]}},
{"type":"Feature","id":"SWE:ADM2:SE-O.karlsborg","properties":{"shapeName":"Karlsborg","shapeISO":"","shapeGroup":"SWE","shapeType":"ADM2","adm1ISO":"SE-O","parentISO":"SE-O","parentID":"SWE:ADM1:SE-O","src_shape_id":"70781695B19460929055016"},"geometry":{"type":"Polygon","coordinates":[[[14.544914,58.393869],[14.545742,58.395459],[14.662897,58.523619],[14.78438,58.656515],[14.783748,58.656276],[14.720833,58.706187],[14.72757,58.71377],[14.724843,58.7617],[14.703069,58.761282],[14.660082,58.760456],[14.645691,58.754236],[14.637296,58.733079],[14.642093,58.713777],[14.628901,58.703188],[14.591723,58.705679],[14.583328,58.711286],[14.584527,58.724363],[14.576132,58.738058],[14.550947,58.748014],[14.523363,58.739303],[14.51257,58.748637],[14.505374,58.790298],[14.499378,58.804588],[14.481388,58.81142],[14.463399,58.81763],[14.441996,58.819847],[14.426456,58.800402],[14.419363,58.768544],[14.381535,58.746472],[14.33898,58.744019],[14.312973,58.739112],[14.294059,58.725614],[14.291695,58.713338],[14.308245,58.703514],[14.317702,58.685087],[14.303516,58.665421],[14.298788,58.653124],[14.301152,58.642053],[14.32243,58.635901],[14.362622,58.630979],[14.372079,58.598966],[14.369753,58.574711],[14.36735,58.549659],[14.381535,58.533619],[14.407542,58.511398],[14.402813,58.496576],[14.376807,58.481748],[14.348436,58.463204],[14.32243,58.447125],[14.320066,58.435988],[14.327414,58.424447],[14.331887,58.426087],[14.424089,58.428983],[14.430428,58.426136],[14.54458,58.393773],[14.544914,58.393869]]]}},
{"type":"Feature","id":"SWE:ADM2:SE-O.toreboda","properties":{"shapeName":"Töreboda","shapeISO":"","shapeGroup":"SWE","shapeType":"ADM2","adm1ISO":"SE-O","parentISO":"SE-O","parentID":"SWE:ADM1:SE-O","src_shape_id":"70781695B31041938637991"},"geometry":{"type":"Polygon","coordinates":[[[14.441996,58.819847],[14.439413,58.820114],[14.431018,58.827564],[14.414228,58.831288],[14.404634,58.844321],[14.41063,58.850525],[14.421424,58.857348],[14.420753,58.858095],[14.343708,58.848133],[14.272781,58.844463],[14.234954,58.827335],[14.194762,58.815095],[14.174504,58.811392],[14.154571,58.807749],[14.114379,58.799177],[14.057638,58.797952],[14.038724,58.784477],[14.078916,58.774673],[14.071823,58.75751],[14.041088,58.73175],[14.012718,58.723159],[13.981983,58.718249],[13.965433,58.70597],[13.977254,58.701058],[13.998532,58.68263],[13.979618,58.66911],[13.981983,58.651894],[13.967797,58.642053],[13.941791,58.622363],[13.972526,58.60882],[13.974148,58.60894],[14.005625,58.611282],[14.038724,58.611282],[14.071823,58.607588],[14.093101,58.594039],[14.104922,58.565692],[14.128564,58.545958],[14.140385,58.534853],[14.194762,58.533619],[14.195379,58.533743],[14.225497,58.539789],[14.263325,58.542257],[14.298788,58.55336],[14.315337,58.561992],[14.350801,58.56939],[14.369753,58.574711],[14.372079,58.598966],[14.362622,58.630979],[14.32243,58.635901],[14.301152,58.642053],[14.298788,58.653124],[14.303516,58.665421],[14.317702,58.685087],[14.308245,58.703514],[14.291695,58.713338],[14.294059,58.725614],[14.312973,58.739112],[14.33898,58.744019],[14.381535,58.746472],[14.419363,58.768544],[14.426456,58.800402],[14.441996,58.819847]]]}},
{"type":"Feature","id":"SWE:ADM2:SE-O.tibro","properties":{"shapeName":"Tibro","shapeISO":"","shapeGroup":"SWE","shapeType":"ADM2","adm1ISO":"SE-O","parentISO":"SE-O","parentID":"SWE:ADM1:SE-O","src_shape_id":"70781695B34872352941630"},"geometry":{"type":"Polygon","coordinates":[[[14.327414,58.424447],[14.320066,58.435988],[14.32243,58.447125],[14.348436,58.463204],[14.376807,58.481748],[14.402813,58.496576],[14.407542,58.511398],[14.381535,58.533619],[14.36735,58.549659],[14.369753,58.574711],[14.350801,58.56939],[14.315337,58.561992],[14.298788,58.55336],[14.263325,58.542257],[14.225497,58.539789],[14.195379,58.533743],[14.185305,58.524979],[14.175849,58.511398],[14.159299,58.495341],[14.152206,58.479276],[14.104922,58.465677],[14.097829,58.449599],[14.104922,58.438463],[14.107286,58.424849],[14.133293,58.413705],[14.161663,58.400081],[14.181927,58.386274],[14.199491,58.387691],[14.211312,58.382733],[14.244411,58.381494],[14.284603,58.383973],[14.294059,58.40132],[14.308245,58.41742],[14.327414,58.424447]]]}},
{"type":"Feature","id":"SWE:ADM2:SE-O.skovde","properties":{"shapeName":"Skövde","shapeISO":"","shapeGroup":"SWE","shapeType":"ADM2","adm1ISO":"SE-O","parentISO":"SE-O","parentID":"SWE:ADM1:SE-O","src_shape_id":"70781695B28625719623637"},"geometry":{"type":"Polygon","coordinates":[[[14.024539,58.298352],[14.024539,58.310774],[14.043452,58.324432],[14.086008,58.336845],[14.116743,58.346772],[14.138021,58.355456],[14.149842,58.374056],[14.168756,58.385212],[14.181927,58.386274],[14.161663,58.400081],[14.133293,58.413705],[14.107286,58.424849],[14.104922,58.438463],[14.097829,58.449599],[14.104922,58.465677],[14.152206,58.479276],[14.159299,58.495341],[14.175849,58.511398],[14.185305,58.524979],[14.195379,58.533743],[14.194762,58.533619],[14.140385,58.534853],[14.128564,58.545958],[14.104922,58.565692],[14.093101,58.594039],[14.071823,58.607588],[14.038724,58.611282],[14.005625,58.611282],[13.974148,58.60894],[13.961367,58.589751],[13.944723,58.567664],[13.929592,58.555826],[13.891764,58.55109],[13.847884,58.55109],[13.837293,58.554248],[13.823675,58.571609],[13.819135,58.587385],[13.797952,58.594482],[13.773742,58.591328],[13.763151,58.580287],[13.755585,58.571609],[13.737885,58.566071],[13.732889,58.564508],[13.707166,58.558194],[13.68447,58.534508],[13.664799,58.521868],[13.66026,58.506063],[13.667825,58.496576],[13.669123,58.496237],[13.685983,58.491832],[13.735915,58.480759],[13.763151,58.476013],[13.784334,58.468101],[13.802491,58.450687],[13.799465,58.430097],[13.800553,58.415849],[13.802302,58.416182],[13.828309,58.405036],[13.825944,58.391408],[13.797574,58.375296],[13.755018,58.371577],[13.731376,58.366617],[13.705369,58.356696],[13.705369,58.341809],[13.710098,58.328157],[13.747925,58.321949],[13.776296,58.330639],[13.807031,58.328157],[13.854315,58.335604],[13.892142,58.328157],[13.894507,58.316983],[13.896871,58.290897],[13.918149,58.277225],[13.932778,58.271242],[13.941791,58.275982],[13.970162,58.282197],[13.998532,58.292139],[14.024539,58.298352]]]}},
{"type":"Feature","id":"SWE:ADM2:SE-O.skara","properties":{"shapeName":"Skara","shapeISO":"","shapeGroup":"SWE","shapeType":"ADM2","adm1ISO":"SE-O","parentISO":"SE-O","parentID":"SWE:ADM1:SE-O","src_shape_id":"70781695B33450377436150"},"geometry":{"type":"Polygon","coordinates":[[[13.800553,58.415849],[13.799465,58.430097],[13.802491,58.450687],[13.784334,58.468101],[13.763151,58.476013],[13.735915,58.480759],[13.685983,58.491832],[13.669123,58.496237],[13.658747,58.492623],[13.626972,58.49025],[13.598223,58.486296],[13.567961,58.479177],[13.501385,58.475222],[13.469609,58.467309],[13.446913,58.457812],[13.419677,58.454646],[13.392441,58.45702],[13.39143,58.456271],[13.374284,58.443561],[13.362179,58.428513],[13.309221,58.429305],[13.26988,58.429305],[13.232053,58.416628],[13.219948,58.407909],[13.218435,58.388087],[13.233566,58.373015],[13.235311,58.372649],[13.256262,58.368254],[13.27442,58.35873],[13.280472,58.343645],[13.291064,58.330937],[13.312247,58.32617],[13.340996,58.320608],[13.375797,58.312661],[13.429908,58.297352],[13.452398,58.302079],[13.499682,58.300837],[13.539874,58.300837],[13.577702,58.328157],[13.584794,58.34429],[13.598979,58.357936],[13.615529,58.367857],[13.6439,58.375296],[13.698277,58.383973],[13.73374,58.386451],[13.747925,58.391408],[13.776296,58.411229],[13.800553,58.415849]]]}},
{"type":"Feature","id":"SWE:ADM2:SE-O.vara","properties":{"shapeName":"Vara","shapeISO":"","shapeGroup":"SWE","shapeType":"ADM2","adm1ISO":"SE-O","parentISO":"SE-O","parentID":"SWE:ADM1:SE-O","src_shape_id":"70781695B49993264725167"},"geometry":{"type":"Polygon","coordinates":[[[13.429908,58.297352],[13.375797,58.312661],[13.340996,58.320608],[13.312247,58.32617],[13.291064,58.330937],[13.280472,58.343645],[13.27442,58.35873],[13.256262,58.368254],[13.235311,58.372649],[13.21834,58.367857],[13.194698,58.351734],[13.17342,58.355456],[13.140321,58.362897],[13.085944,58.367857],[13.059938,58.357936],[13.033931,58.340568],[13.012654,58.34305],[13.005561,58.355456],[13.007925,58.371577],[12.986647,58.385212],[12.958277,58.398842],[12.929906,58.405036],[12.88735,58.403797],[12.878354,58.401833],[12.858979,58.397603],[12.840066,58.377775],[12.823516,58.338086],[12.856615,58.315741],[12.866072,58.305805],[12.851887,58.293382],[12.85262,58.290297],[12.854251,58.28344],[12.875529,58.268522],[12.84243,58.254842],[12.832973,58.244889],[12.849522,58.233689],[12.8708,58.22871],[12.906264,58.217505],[12.922813,58.207541],[12.9039,58.195083],[12.906264,58.18636],[12.920449,58.175142],[12.941727,58.165167],[12.963005,58.153941],[12.963005,58.129715],[13.045753,58.132728],[13.201791,58.136473],[13.238957,58.136473],[13.241983,58.146456],[13.263261,58.175142],[13.272717,58.198821],[13.301088,58.213769],[13.34128,58.217505],[13.357829,58.227465],[13.372015,58.241156],[13.405114,58.262304],[13.419299,58.272252],[13.428756,58.297109],[13.429908,58.297352]]]}},
{"type":"Feature","id":"SWE:ADM2:SE-O.essunga","properties":{"shapeName":"Essunga","shapeISO":"","shapeGroup":"SWE","shapeType":"ADM2","adm1ISO":"SE-O","parentISO":"SE-O","parentID":"SWE:ADM1:SE-O","src_shape_id":"70781695B52360167495619"},"geometry":{"type":"Polygon","coordinates":[[[12.749127,58.118243],[12.790417,58.116498],[12.84243,58.118995],[12.866072,58.135225],[12.913356,58.133976],[12.93356,58.128643],[12.963005,58.129715],[12.963005,58.153941],[12.941727,58.165167],[12.920449,58.175142],[12.906264,58.18636],[12.9039,58.195083],[12.922813,58.207541],[12.906264,58.217505],[12.8708,58.22871],[12.849522,58.233689],[12.832973,58.244889],[12.84243,58.254842],[12.875529,58.268522],[12.854251,58.28344],[12.85262,58.290297],[12.814059,58.292139],[12.799874,58.288411],[12.778596,58.284683],[12.740768,58.293382],[12.714762,58.295867],[12.714762,58.280954],[12.712398,58.268522],[12.686391,58.258573],[12.665114,58.254842],[12.650928,58.241156],[12.606008,58.238667],[12.580188,58.236196],[12.581766,58.205503],[12.60448,58.212151],[12.633531,58.21011],[12.660646,58.202457],[12.682919,58.200926],[12.709065,58.199395],[12.729401,58.19123],[12.740054,58.18102],[12.740054,58.169275],[12.724559,58.158037],[12.720686,58.145773],[12.735212,58.136061],[12.746832,58.124301],[12.749127,58.118243]]]}},
{"type":"Feature","id":"SWE:ADM2:SE-O.lilla-edet","properties":{"shapeName":"Lilla Edet","shapeISO":"","shapeGroup":"SWE","shapeType":"ADM2","adm1ISO":"SE-O","parentISO":"SE-O","parentID":"SWE:ADM1:SE-O","src_shape_id":"70781695B92226486656888"},"geometry":{"type":"Polygon","coordinates":[[[12.133094,58.024007],[12.165318,58.025372],[12.213737,58.027775],[12.245512,58.034184],[12.274261,58.051003],[12.306036,58.069413],[12.325706,58.081415],[12.354455,58.093413],[12.393796,58.117397],[12.416568,58.120404],[12.400321,58.128983],[12.336487,58.13148],[12.286839,58.133976],[12.239554,58.142712],[12.206455,58.156436],[12.196998,58.172648],[12.199363,58.18636],[12.204091,58.203804],[12.19227,58.215014],[12.199363,58.231199],[12.213548,58.239911],[12.23719,58.258573],[12.246647,58.272252],[12.230097,58.282197],[12.189906,58.288411],[12.180449,58.297109],[12.170992,58.310774],[12.15695,58.323066],[12.135529,58.316983],[12.133165,58.285926],[12.121343,58.275982],[12.10243,58.264792],[12.08588,58.25111],[12.069331,58.233689],[12.055145,58.215014],[12.038596,58.197575],[12.010225,58.173895],[11.998277,58.159489],[12.031503,58.14396],[12.048053,58.137721],[12.074059,58.12399],[12.083516,58.107756],[12.074059,58.091514],[12.074059,58.077765],[12.083516,58.066512],[12.062238,58.045247],[12.070394,58.035893],[12.08815,58.040592],[12.119925,58.03098],[12.133094,58.024007]]]}},
{"type":"Feature","id":"SWE:ADM2:SE-O.uddevalla","properties":{"shapeName":"Uddevalla","shapeISO":"","shapeGroup":"SWE","shapeType":"ADM2","adm1ISO":"SE-O","parentISO":"SE-O","parentID":"SWE:ADM1:SE-O","src_shape_id":"70781695B49447773116889"},"geometry":{"type":"Polygon","coordinates":[[[11.998277,58.159489],[12.010225,58.173895],[12.038596,58.197575],[12.055145,58.215014],[12.069331,58.233689],[12.08588,58.25111],[12.10243,58.264792],[12.121343,58.275982],[12.133165,58.285926],[12.135529,58.316983],[12.15695,58.323066],[12.156931,58.323223],[12.154443,58.34429],[12.154443,58.361657],[12.168628,58.379015],[12.180449,58.38893],[12.185177,58.402559],[12.17572,58.414944],[12.156807,58.423611],[12.118979,58.434751],[12.114251,58.448362],[12.105587,58.451761],[12.095337,58.455784],[12.059874,58.455784],[12.012589,58.459494],[11.988947,58.452073],[11.925113,58.449599],[11.919353,58.445077],[11.910928,58.438463],[11.880193,58.438463],[11.832909,58.447125],[11.804538,58.445887],[11.773804,58.435988],[11.750161,58.431038],[11.719426,58.435988],[11.700513,58.437226],[11.674506,58.423611],[11.655593,58.412467],[11.630515,58.403708],[11.6402,58.391529],[11.635913,58.371303],[11.61448,58.348817],[11.597334,58.327441],[11.571614,58.308305],[11.552325,58.294791],[11.522319,58.267747],[11.511602,58.254217],[11.520176,58.236169],[11.565185,58.233913],[11.60805,58.24745],[11.642343,58.270001],[11.674492,58.297043],[11.708785,58.309431],[11.740934,58.31506],[11.77094,58.319563],[11.79666,58.317312],[11.848099,58.291411],[11.869532,58.264365],[11.884535,58.242938],[11.901681,58.221499],[11.908111,58.177451],[11.898312,58.161425],[11.913292,58.161425],[11.962941,58.162672],[11.988947,58.163919],[11.998277,58.159489]]]}},
{"type":"Feature","id":"SWE:ADM2:SE-O.trollhattan","properties":{"shapeName":"Trollhättan","shapeISO":"","shapeGroup":"SWE","shapeType":"ADM2","adm1ISO":"SE-O","parentISO":"SE-O","parentID":"SWE:ADM1:SE-O","src_shape_id":"70781695B47342349503328"},"geometry":{"type":"Polygon","coordinates":[[[12.471787,58.1127],[12.485369,58.117141],[12.5028,58.138106],[12.518294,58.148328],[12.50861,58.159569],[12.50861,58.168764],[12.525072,58.173871],[12.551219,58.177445],[12.572523,58.186125],[12.578334,58.204498],[12.581766,58.205503],[12.580188,58.236196],[12.576397,58.237648],[12.573492,58.247841],[12.578334,58.25956],[12.587049,58.269748],[12.600606,58.278914],[12.613195,58.289604],[12.611259,58.297239],[12.594796,58.305889],[12.572523,58.31708],[12.553156,58.322166],[12.52175,58.321666],[12.512483,58.311994],[12.503768,58.306906],[12.489242,58.30538],[12.462127,58.292658],[12.45438,58.286041],[12.434044,58.277386],[12.408866,58.280441],[12.397246,58.297748],[12.389499,58.313011],[12.375941,58.3242],[12.368194,58.33386],[12.343016,58.338435],[12.328491,58.345551],[12.291692,58.347076],[12.276198,58.341485],[12.267482,58.334369],[12.250051,58.329793],[12.207443,58.327759],[12.156931,58.323223],[12.15695,58.323066],[12.170992,58.310774],[12.180449,58.297109],[12.189906,58.288411],[12.230097,58.282197],[12.246647,58.272252],[12.23719,58.258573],[12.213548,58.239911],[12.199363,58.231199],[12.19227,58.215014],[12.204091,58.203804],[12.199363,58.18636],[12.196998,58.172648],[12.206455,58.156436],[12.239554,58.142712],[12.286839,58.133976],[12.336487,58.13148],[12.400321,58.128983],[12.416568,58.120404],[12.436163,58.122991],[12.466425,58.118995],[12.471787,58.1127]]]}},
{"type":"Feature","id":"SWE:ADM2:SE-O.stromstad","properties":{"shapeName":"Strömstad","shapeISO":"","shapeGroup":"SWE","shapeType":"ADM2","adm1ISO":"SE-O","parentISO":"SE-O","parentID":"SWE:ADM1:SE-O","src_shape_id":"70781695B73142432831902"},"geometry":{"type":"Polygon","coordinates":[[[11.477677,58.886324],[11.46445,58.892304],[11.460163,58.914444],[11.46445,58.935463],[11.466593,58.953154],[11.468737,58.975254],[11.45802,58.990716],[11.432301,59.003963],[11.421584,59.026031],[11.415154,59.044778],[11.393722,59.063514],[11.376575,59.071226],[11.365859,59.084443],[11.348712,59.100956],[11.316563,59.10866],[11.282271,59.097654],[11.273697,59.087746],[11.228688,59.08224],[11.215829,59.077835],[11.185823,59.06682],[11.168676,59.046983],[11.155816,59.032649],[11.130097,59.014999],[11.119381,59.00286],[11.095804,58.968625],[11.102234,58.944309],[11.123667,58.927721],[11.147243,58.914444],[11.160103,58.900055],[11.177249,58.89009],[11.190109,58.874583],[11.194396,58.853526],[11.222258,58.839112],[11.223113,58.830711],[11.246583,58.83223],[11.279682,58.842017],[11.336423,58.84324],[11.352973,58.860361],[11.388436,58.85547],[11.404986,58.849356],[11.454634,58.868918],[11.477677,58.886324]]]}},
{"type":"Feature","id":"SWE:ADM2:SE-O.tanum","properties":{"shapeName":"Tanum","shapeISO":"","shapeGroup":"SWE","shapeType":"ADM2","adm1ISO":"SE-O","parentISO":"SE-O","parentID":"SWE:ADM1:SE-O","src_shape_id":"70781695B34611163933513"},"geometry":{"type":"Polygon","coordinates":[[[11.223113,58.830711],[11.224402,58.818034],[11.222258,58.802494],[11.209399,58.795833],[11.190109,58.763616],[11.179393,58.739155],[11.175106,58.720242],[11.179393,58.696865],[11.205112,58.681271],[11.230832,58.657868],[11.241548,58.643372],[11.252264,58.549562],[11.265124,58.493603],[11.2887,58.488002],[11.297274,58.475678],[11.297274,58.471307],[11.322238,58.476804],[11.350609,58.486691],[11.416807,58.490399],[11.442813,58.505223],[11.455816,58.502959],[11.461727,58.516337],[11.473548,58.529917],[11.504283,58.543491],[11.511375,58.565692],[11.518468,58.597735],[11.535018,58.617439],[11.539746,58.637132],[11.563388,58.661733],[11.584666,58.666651],[11.636679,58.649434],[11.660321,58.640823],[11.700513,58.648204],[11.702877,58.670339],[11.702877,58.697373],[11.721791,58.708426],[11.721791,58.729295],[11.735976,58.753831],[11.740704,58.774673],[11.740704,58.799177],[11.738362,58.818176],[11.733612,58.856693],[11.719426,58.873807],[11.698149,58.887247],[11.683963,58.901904],[11.663608,58.910163],[11.661633,58.906697],[11.644486,58.901162],[11.623053,58.89784],[11.60162,58.895626],[11.552325,58.887875],[11.533035,58.884552],[11.496599,58.883445],[11.481596,58.884552],[11.477677,58.886324],[11.454634,58.868918],[11.404986,58.849356],[11.388436,58.85547],[11.352973,58.860361],[11.336423,58.84324],[11.279682,58.842017],[11.246583,58.83223],[11.223113,58.830711]]]}},
{"type":"Feature","id":"SWE:ADM2:SE-O.sotenas","properties":{"shapeName":"Sotenäs","shapeISO":"","shapeGroup":"SWE","shapeType":"ADM2","adm1ISO":"SE-O","parentISO":"SE-O","parentID":"SWE:ADM1:SE-O","src_shape_id":"70781695B30860810516281"},"geometry":{"type":"Polygon","coordinates":[[[11.297274,58.471307],[11.297274,58.4555],[11.286557,58.438677],[11.267267,58.425212],[11.252264,58.419601],[11.235118,58.400514],[11.232975,58.382541],[11.250121,58.366807],[11.262981,58.345443],[11.30799,58.342068],[11.337996,58.342068],[11.359429,58.343193],[11.360222,58.342361],[11.369522,58.354215],[11.395529,58.366617],[11.416807,58.392647],[11.433356,58.407513],[11.447541,58.423611],[11.466455,58.447125],[11.480641,58.473095],[11.494827,58.487927],[11.480641,58.487927],[11.464091,58.501518],[11.455816,58.502959],[11.442813,58.505223],[11.416807,58.490399],[11.350609,58.486691],[11.322238,58.476804],[11.297274,58.471307]]]}},
{"type":"Feature","id":"SWE:ADM2:SE-O.lysekil","properties":{"shapeName":"Lysekil","shapeISO":"","shapeGroup":"SWE","shapeType":"ADM2","adm1ISO":"SE-O","parentISO":"SE-O","parentID":"SWE:ADM1:SE-O","src_shape_id":"70781695B61994796728943"},"geometry":{"type":"Polygon","coordinates":[[[11.360222,58.342361],[11.374432,58.327441],[11.383005,58.307179],[11.413011,58.286905],[11.443017,58.282398],[11.46445,58.280144],[11.485883,58.284652],[11.503029,58.29817],[11.530892,58.318437],[11.554468,58.345443],[11.563041,58.366807],[11.558755,58.388159],[11.554468,58.407252],[11.563041,58.426335],[11.586617,58.436433],[11.592759,58.434647],[11.608308,58.443413],[11.605944,58.476804],[11.584666,58.491634],[11.551567,58.494105],[11.518468,58.487927],[11.494827,58.487927],[11.480641,58.473095],[11.466455,58.447125],[11.447541,58.423611],[11.433356,58.407513],[11.416807,58.392647],[11.395529,58.366617],[11.369522,58.354215],[11.360222,58.342361]]]}},
{"type":"Feature","id":"SWE:ADM2:SE-O.munkedal","properties":{"shapeName":"Munkedal","shapeISO":"","shapeGroup":"SWE","shapeType":"ADM2","adm1ISO":"SE-O","parentISO":"SE-O","parentID":"SWE:ADM1:SE-O","src_shape_id":"70781695B34337656625588"},"geometry":{"type":"Polygon","coordinates":[[[11.919353,58.445077],[11.908564,58.513868],[11.894379,58.520041],[11.880193,58.538555],[11.870736,58.579252],[11.883887,58.613976],[11.91344,58.637055],[11.935605,58.658197],[11.942993,58.688927],[11.931911,58.706201],[11.902358,58.723466],[11.872805,58.736888],[11.869111,58.750305],[11.865756,58.751321],[11.824782,58.763717],[11.8137,58.796268],[11.806311,58.813488],[11.784147,58.821139],[11.738362,58.818176],[11.740704,58.799177],[11.740704,58.774673],[11.735976,58.753831],[11.721791,58.729295],[11.721791,58.708426],[11.702877,58.697373],[11.702877,58.670339],[11.700513,58.648204],[11.660321,58.640823],[11.636679,58.649434],[11.584666,58.666651],[11.563388,58.661733],[11.539746,58.637132],[11.535018,58.617439],[11.518468,58.597735],[11.511375,58.565692],[11.504283,58.543491],[11.473548,58.529917],[11.461727,58.516337],[11.455816,58.502959],[11.464091,58.501518],[11.480641,58.487927],[11.494827,58.487927],[11.518468,58.487927],[11.551567,58.494105],[11.584666,58.491634],[11.605944,58.476804],[11.608308,58.443413],[11.592759,58.434647],[11.605907,58.430823],[11.61448,58.417356],[11.62091,58.409497],[11.629483,58.405006],[11.630515,58.403708],[11.655593,58.412467],[11.674506,58.423611],[11.700513,58.437226],[11.719426,58.435988],[11.750161,58.431038],[11.773804,58.435988],[11.804538,58.445887],[11.832909,58.447125],[11.880193,58.438463],[11.910928,58.438463],[11.919353,58.445077]]]}},
{"type":"Feature","id":"SWE:ADM2:SE-O.dals-ed","properties":{"shapeName":"Dals-Ed","shapeISO":"","shapeGroup":"SWE","shapeType":"ADM2","adm1ISO":"SE-O","parentISO":"SE-O","parentID":"SWE:ADM1:SE-O","src_shape_id":"70781695B56175452529333"},"geometry":{"type":"Polygon","coordinates":[[[11.843197,59.241389],[11.826666,59.227296],[11.79666,59.193285],[11.79023,59.170226],[11.788087,59.153746],[11.785943,59.130661],[11.785943,59.089948],[11.768797,59.071226],[11.745221,59.044778],[11.738791,59.035957],[11.715215,59.023825],[11.704498,58.990716],[11.702355,58.968625],[11.691639,58.944309],[11.672349,58.925508],[11.663608,58.910163],[11.683963,58.901904],[11.698149,58.887247],[11.719426,58.873807],[11.733612,58.856693],[11.738362,58.818176],[11.784147,58.821139],[11.806311,58.813488],[11.8137,58.796268],[11.824782,58.763717],[11.865756,58.751321],[11.880193,58.759963],[11.894379,58.77835],[11.910928,58.789377],[11.929842,58.794278],[11.972398,58.799177],[12.014954,58.800402],[12.020155,58.803095],[12.055145,58.821216],[12.071695,58.834677],[12.08588,58.844463],[12.114251,58.844463],[12.135529,58.85547],[12.123708,58.878695],[12.123708,58.894577],[12.121343,58.916555],[12.111887,58.925098],[12.121343,58.940958],[12.14735,58.953154],[12.168628,58.961688],[12.173356,58.986059],[12.156807,58.994585],[12.14735,59.020151],[12.116615,59.0384],[12.095337,59.042049],[12.071695,59.044481],[12.048053,59.059071],[12.026775,59.063933],[12.022046,59.082159],[12.003133,59.099162],[12.014954,59.110087],[12.012589,59.128289],[11.998404,59.135567],[11.981855,59.150118],[11.960577,59.159816],[11.93457,59.168299],[11.901471,59.168299],[11.882558,59.179202],[11.870736,59.185258],[11.863644,59.193735],[11.84473,59.20342],[11.863644,59.211892],[11.870736,59.227621],[11.870736,59.235419],[11.843197,59.241389]]]}},
{"type":"Feature","id":"SWE:ADM2:SE-O.bengtsfors","properties":{"shapeName":"Bengtsfors","shapeISO":"","shapeGroup":"SWE","shapeType":"ADM2","adm1ISO":"SE-O","parentISO":"SE-O","parentID":"SWE:ADM1:SE-O","src_shape_id":"70781695B25080467136500"},"geometry":{"type":"Polygon","coordinates":[[[11.870736,59.235419],[11.870736,59.227621],[11.863644,59.211892],[11.84473,59.20342],[11.863644,59.193735],[11.870736,59.185258],[11.882558,59.179202],[11.901471,59.168299],[11.93457,59.168299],[11.960577,59.159816],[11.981855,59.150118],[11.998404,59.135567],[12.012589,59.128289],[12.014954,59.110087],[12.003133,59.099162],[12.022046,59.082159],[12.026775,59.063933],[12.048053,59.059071],[12.071695,59.044481],[12.095337,59.042049],[12.116615,59.0384],[12.14735,59.020151],[12.156807,58.994585],[12.173356,58.986059],[12.168628,58.961688],[12.14735,58.953154],[12.121343,58.940958],[12.111887,58.925098],[12.121343,58.916555],[12.123708,58.894577],[12.123708,58.878695],[12.135529,58.85547],[12.114251,58.844463],[12.08588,58.844463],[12.071695,58.834677],[12.055145,58.821216],[12.020155,58.803095],[12.026775,58.789377],[12.036232,58.784477],[12.090609,58.783251],[12.123708,58.790603],[12.14735,58.800402],[12.166264,58.799177],[12.187542,58.785702],[12.199363,58.772222],[12.2319,58.763786],[12.232462,58.763641],[12.25374,58.775899],[12.28211,58.779575],[12.289203,58.793053],[12.284474,58.808974],[12.277382,58.816319],[12.265561,58.82244],[12.256104,58.8359],[12.265561,58.853024],[12.296296,58.861583],[12.336487,58.862806],[12.369586,58.856693],[12.3885,58.860361],[12.419235,58.851802],[12.447606,58.861583],[12.44903,58.862846],[12.464155,58.876251],[12.468883,58.894577],[12.468883,58.917775],[12.483069,58.928759],[12.487797,58.938519],[12.473612,58.953154],[12.442877,58.969001],[12.43342,58.986059],[12.440513,59.010414],[12.44997,59.039617],[12.442877,59.046913],[12.435784,59.057856],[12.454698,59.068794],[12.457062,59.089447],[12.471248,59.104018],[12.475976,59.114942],[12.485433,59.134354],[12.490626,59.140125],[12.48361,59.159313],[12.463728,59.179692],[12.462406,59.179793],[12.414022,59.183512],[12.396625,59.183512],[12.341948,59.192423],[12.324551,59.198787],[12.287272,59.203877],[12.27236,59.214055],[12.264904,59.236944],[12.259934,59.257277],[12.242537,59.261088],[12.207743,59.252195],[12.167978,59.252195],[12.14064,59.259818],[12.120758,59.248383],[12.133184,59.220414],[12.125728,59.196241],[12.085964,59.189877],[12.053655,59.206421],[12.018861,59.221686],[11.994008,59.238215],[11.964184,59.239486],[11.944302,59.228044],[11.899567,59.228044],[11.870736,59.235419]]]}},
{"type":"Feature","id":"SWE:ADM2:SE-O.fargelanda","properties":{"shapeName":"Färgelanda","shapeISO":"","shapeGroup":"SWE","shapeType":"ADM2","adm1ISO":"SE-O","parentISO":"SE-O","parentID":"SWE:ADM1:SE-O","src_shape_id":"70781695B86197919704884"},"geometry":{"type":"Polygon","coordinates":[[[12.105587,58.451761],[12.110846,58.464144],[12.119925,58.497367],[12.141108,58.507644],[12.147161,58.518708],[12.144135,58.545563],[12.154443,58.575554],[12.159171,58.594039],[12.170992,58.60882],[12.182813,58.622363],[12.204091,58.63344],[12.213548,58.644514],[12.214353,58.649539],[12.215912,58.659273],[12.230097,58.671568],[12.246647,58.687545],[12.260832,58.70597],[12.237463,58.728673],[12.224874,58.73772],[12.232621,58.756309],[12.2319,58.763786],[12.199363,58.772222],[12.187542,58.785702],[12.166264,58.799177],[12.14735,58.800402],[12.123708,58.790603],[12.090609,58.783251],[12.036232,58.784477],[12.026775,58.789377],[12.020155,58.803095],[12.014954,58.800402],[11.972398,58.799177],[11.929842,58.794278],[11.910928,58.789377],[11.894379,58.77835],[11.880193,58.759963],[11.865756,58.751321],[11.869111,58.750305],[11.872805,58.736888],[11.902358,58.723466],[11.931911,58.706201],[11.942993,58.688927],[11.935605,58.658197],[11.91344,58.637055],[11.883887,58.613976],[11.870736,58.579252],[11.880193,58.538555],[11.894379,58.520041],[11.908564,58.513868],[11.919353,58.445077],[11.925113,58.449599],[11.988947,58.452073],[12.012589,58.459494],[12.059874,58.455784],[12.095337,58.455784],[12.105587,58.451761]]]}},
{"type":"Feature","id":"SWE:ADM2:SE-O.mariestad","properties":{"shapeName":"Mariestad","shapeISO":"","shapeGroup":"SWE","shapeType":"ADM2","adm1ISO":"SE-O","parentISO":"SE-O","parentID":"SWE:ADM1:SE-O","src_shape_id":"70781695B85574102169861"},"geometry":{"type":"Polygon","coordinates":[[[13.414959,58.740076],[13.594251,58.733054],[13.623804,58.713875],[13.645968,58.688927],[13.645968,58.679327],[13.631192,58.673566],[13.62011,58.660119],[13.634886,58.652433],[13.657051,58.637055],[13.649662,58.629364],[13.634886,58.619747],[13.631192,58.600506],[13.653356,58.592807],[13.686603,58.587031],[13.716156,58.577403],[13.737885,58.566071],[13.755585,58.571609],[13.763151,58.580287],[13.773742,58.591328],[13.797952,58.594482],[13.819135,58.587385],[13.823675,58.571609],[13.837293,58.554248],[13.847884,58.55109],[13.891764,58.55109],[13.929592,58.555826],[13.944723,58.567664],[13.961367,58.589751],[13.974148,58.60894],[13.972526,58.60882],[13.941791,58.622363],[13.967797,58.642053],[13.981983,58.651894],[13.979618,58.66911],[13.998532,58.68263],[13.977254,58.701058],[13.965433,58.70597],[13.981983,58.718249],[14.012718,58.723159],[14.041088,58.73175],[14.071823,58.75751],[14.078916,58.774673],[14.038724,58.784477],[14.057638,58.797952],[14.114379,58.799177],[14.154571,58.807749],[14.174504,58.811392],[14.159447,58.821139],[14.163141,58.84217],[14.174223,58.868918],[14.170529,58.899462],[14.129894,58.910909],[14.078177,58.912816],[14.037542,58.910909],[13.996907,58.912816],[13.934107,58.918538],[13.893472,58.93951],[13.875002,58.958564],[13.834367,58.969991],[13.60269,59.021873],[13.601226,59.021824],[13.600554,59.021348],[13.441104,58.908609],[13.386205,58.778427],[13.414959,58.740076]]]}},
{"type":"Feature","id":"SWE:ADM2:SE-O.tjorn","properties":{"shapeName":"Tjörn","shapeISO":"","shapeGroup":"SWE","shapeType":"ADM2","adm1ISO":"SE-O","parentISO":"SE-O","parentID":"SWE:ADM1:SE-O","src_shape_id":"70781695B41142122613038"},"geometry":{"type":"Polygon","coordinates":[[[11.691056,58.069013],[11.646136,58.056507],[11.617765,58.042745],[11.563388,58.042745],[11.516104,58.036487],[11.51374,58.018961],[11.523196,57.998921],[11.544474,57.98639],[11.551567,57.971347],[11.551567,57.952534],[11.58703,57.933711],[11.615401,57.933711],[11.639043,57.94877],[11.662685,57.965077],[11.683963,57.975108],[11.714698,57.982629],[11.740704,57.987643],[11.743069,58.013952],[11.761982,58.025221],[11.761982,58.03899],[11.740704,58.057758],[11.719426,58.066512],[11.691056,58.069013]]]}},
{"type":"Feature","id":"SWE:ADM2:SE-O.orust","properties":{"shapeName":"Orust","shapeISO":"","shapeGroup":"SWE","shapeType":"ADM2","adm1ISO":"SE-O","parentISO":"SE-O","parentID":"SWE:ADM1:SE-O","src_shape_id":"70781695B44388212160911"},"geometry":{"type":"Polygon","coordinates":[[[11.726519,58.278468],[11.705241,58.267279],[11.695784,58.25111],[11.679235,58.239911],[11.639043,58.232444],[11.598851,58.22373],[11.568117,58.208787],[11.553931,58.197575],[11.527925,58.182621],[11.494826,58.180128],[11.456998,58.166414],[11.428628,58.146456],[11.421535,58.125238],[11.421535,58.110254],[11.43572,58.089015],[11.454634,58.076515],[11.473548,58.062761],[11.494826,58.060259],[11.525561,58.075265],[11.551567,58.086515],[11.579938,58.095263],[11.620129,58.099011],[11.674506,58.10151],[11.707605,58.104008],[11.745433,58.102759],[11.764347,58.111503],[11.792717,58.122741],[11.809267,58.135225],[11.828181,58.145208],[11.830545,58.173895],[11.825816,58.20505],[11.823452,58.227465],[11.79981,58.247377],[11.778532,58.266035],[11.759618,58.274739],[11.726519,58.278468]]]}},
{"type":"Feature","id":"SWE:ADM2:SE-O.amal","properties":{"shapeName":"Åmål","shapeISO":"","shapeGroup":"SWE","shapeType":"ADM2","adm1ISO":"SE-O","parentISO":"SE-O","parentID":"SWE:ADM1:SE-O","src_shape_id":"70781695B68260395604399"},"geometry":{"type":"Polygon","coordinates":[[[12.490626,59.140125],[12.485433,59.134354],[12.475976,59.114942],[12.471248,59.104018],[12.457062,59.089447],[12.454698,59.068794],[12.435784,59.057856],[12.442877,59.046913],[12.44997,59.039617],[12.440513,59.010414],[12.43342,58.986059],[12.442877,58.969001],[12.473612,58.953154],[12.487797,58.938519],[12.483069,58.928759],[12.468883,58.917775],[12.468883,58.894577],[12.464155,58.876251],[12.44903,58.862846],[12.463398,58.861534],[12.489121,58.855274],[12.49366,58.838836],[12.496687,58.831006],[12.51787,58.834921],[12.536027,58.838836],[12.555698,58.830223],[12.560237,58.820041],[12.573855,58.811422],[12.898967,58.746966],[12.902197,58.746325],[12.979318,58.804441],[12.979037,58.804502],[12.896689,58.993555],[12.800513,59.048548],[12.802295,59.054963],[12.799242,59.054677],[12.789301,59.073842],[12.781845,59.117242],[12.774389,59.142745],[12.752021,59.163135],[12.692374,59.183512],[12.667521,59.175872],[12.620301,59.127445],[12.580536,59.124895],[12.523375,59.129996],[12.491066,59.138921],[12.490626,59.140125]]]}},
{"type":"Feature","id":"SWE:ADM2:SE-O.mellerud","properties":{"shapeName":"Mellerud","shapeISO":"","shapeGroup":"SWE","shapeType":"ADM2","adm1ISO":"SE-O","parentISO":"SE-O","parentID":"SWE:ADM1:SE-O","src_shape_id":"70781695B28344262532925"},"geometry":{"type":"Polygon","coordinates":[[[12.2319,58.763786],[12.232621,58.756309],[12.224874,58.73772],[12.237463,58.728673],[12.260832,58.70597],[12.246647,58.687545],[12.230097,58.671568],[12.215912,58.659273],[12.214353,58.649539],[12.334566,58.619747],[12.415836,58.590882],[12.460165,58.590882],[12.497106,58.581255],[12.537741,58.563919],[12.574682,58.552357],[12.633788,58.523436],[12.689199,58.533079],[12.767861,58.549873],[12.770469,58.55043],[12.848045,58.650511],[12.898967,58.746966],[12.573855,58.811422],[12.560237,58.820041],[12.555698,58.830223],[12.536027,58.838836],[12.51787,58.834921],[12.496687,58.831006],[12.49366,58.838836],[12.489121,58.855274],[12.463398,58.861534],[12.44903,58.862846],[12.447606,58.861583],[12.419235,58.851802],[12.3885,58.860361],[12.369586,58.856693],[12.336487,58.862806],[12.296296,58.861583],[12.265561,58.853024],[12.256104,58.8359],[12.265561,58.82244],[12.277382,58.816319],[12.284474,58.808974],[12.289203,58.793053],[12.28211,58.779575],[12.25374,58.775899],[12.232462,58.763641],[12.2319,58.763786]]]}},
{"type":"Feature","id":"SWE:ADM2:SE-O.vanersborg","properties":{"shapeName":"Vänersborg","shapeISO":"","shapeGroup":"SWE","shapeType":"ADM2","adm1ISO":"SE-O","parentISO":"SE-O","parentID":"SWE:ADM1:SE-O","src_shape_id":"70781695B41562985263566"},"geometry":{"type":"Polygon","coordinates":[[[12.156931,58.323223],[12.207443,58.327759],[12.250051,58.329793],[12.267482,58.334369],[12.276198,58.341485],[12.291692,58.347076],[12.328491,58.345551],[12.343016,58.338435],[12.368194,58.33386],[12.375941,58.3242],[12.389499,58.313011],[12.397246,58.297748],[12.408866,58.280441],[12.434044,58.277386],[12.45438,58.286041],[12.462127,58.292658],[12.489242,58.30538],[12.503768,58.306906],[12.512483,58.311994],[12.52175,58.321666],[12.504494,58.337776],[12.48233,58.362975],[12.526659,58.378473],[12.587473,58.383328],[12.617735,58.393639],[12.665618,58.423283],[12.667667,58.424552],[12.679772,58.457812],[12.744835,58.487087],[12.767861,58.549873],[12.689199,58.533079],[12.633788,58.523436],[12.574682,58.552357],[12.537741,58.563919],[12.497106,58.581255],[12.460165,58.590882],[12.415836,58.590882],[12.334566,58.619747],[12.214353,58.649539],[12.213548,58.644514],[12.204091,58.63344],[12.182813,58.622363],[12.170992,58.60882],[12.159171,58.594039],[12.154443,58.575554],[12.144135,58.545563],[12.147161,58.518708],[12.141108,58.507644],[12.119925,58.497367],[12.110846,58.464144],[12.105587,58.451761],[12.114251,58.448362],[12.118979,58.434751],[12.156807,58.423611],[12.17572,58.414944],[12.185177,58.402559],[12.180449,58.38893],[12.168628,58.379015],[12.154443,58.361657],[12.154443,58.34429],[12.156931,58.323223]]]}},
{"type":"Feature","id":"SWE:ADM2:SE-O.grastorp","properties":{"shapeName":"Grästorp","shapeISO":"","shapeGroup":"SWE","shapeType":"ADM2","adm1ISO":"SE-O","parentISO":"SE-O","parentID":"SWE:ADM1:SE-O","src_shape_id":"70781695B12491812596610"},"geometry":{"type":"Polygon","coordinates":[[[12.878354,58.401833],[12.8708,58.413705],[12.892078,58.433513],[12.88735,58.442176],[12.840066,58.433513],[12.795145,58.431038],[12.771503,58.416182],[12.731312,58.413705],[12.693484,58.414944],[12.665618,58.423283],[12.617735,58.393639],[12.587473,58.383328],[12.526659,58.378473],[12.48233,58.362975],[12.504494,58.337776],[12.52175,58.321666],[12.553156,58.322166],[12.572523,58.31708],[12.594796,58.305889],[12.611259,58.297239],[12.613195,58.289604],[12.600606,58.278914],[12.587049,58.269748],[12.578334,58.25956],[12.573492,58.247841],[12.576397,58.237648],[12.580188,58.236196],[12.606008,58.238667],[12.650928,58.241156],[12.665114,58.254842],[12.686391,58.258573],[12.712398,58.268522],[12.714762,58.280954],[12.714762,58.295867],[12.740768,58.293382],[12.778596,58.284683],[12.799874,58.288411],[12.814059,58.292139],[12.85262,58.290297],[12.851887,58.293382],[12.866072,58.305805],[12.856615,58.315741],[12.823516,58.338086],[12.840066,58.377775],[12.858979,58.397603],[12.878354,58.401833]]]}},
{"type":"Feature","id":"SWE:ADM2:SE-O.lidkoping","properties":{"shapeName":"Lidköping","shapeISO":"","shapeGroup":"SWE","shapeType":"ADM2","adm1ISO":"SE-O","parentISO":"SE-O","parentID":"SWE:ADM1:SE-O","src_shape_id":"70781695B58829616428329"},"geometry":{"type":"Polygon","coordinates":[[[12.979318,58.804441],[12.902197,58.746325],[12.898967,58.746966],[12.848045,58.650511],[12.770469,58.55043],[12.767861,58.549873],[12.744835,58.487087],[12.679772,58.457812],[12.667667,58.424552],[12.665618,58.423283],[12.693484,58.414944],[12.731312,58.413705],[12.771503,58.416182],[12.795145,58.431038],[12.840066,58.433513],[12.88735,58.442176],[12.892078,58.433513],[12.8708,58.413705],[12.878354,58.401833],[12.88735,58.403797],[12.929906,58.405036],[12.958277,58.398842],[12.986647,58.385212],[13.007925,58.371577],[13.005561,58.355456],[13.012654,58.34305],[13.033931,58.340568],[13.059938,58.357936],[13.085944,58.367857],[13.140321,58.362897],[13.17342,58.355456],[13.194698,58.351734],[13.21834,58.367857],[13.235311,58.372649],[13.233566,58.373015],[13.218435,58.388087],[13.219948,58.407909],[13.232053,58.416628],[13.26988,58.429305],[13.309221,58.429305],[13.362179,58.428513],[13.374284,58.443561],[13.39143,58.456271],[13.374379,58.460731],[13.357829,58.46815],[13.350737,58.495341],[13.320002,58.506458],[13.301088,58.507693],[13.246711,58.537321],[13.251439,58.587878],[13.334187,58.659273],[13.416519,58.735597],[13.280982,58.726217],[13.235232,58.757078],[13.184908,58.75945],[12.979318,58.804441]]]}},
{"type":"Feature","id":"SWE:ADM2:SE-O.gotene","properties":{"shapeName":"Götene","shapeISO":"","shapeGroup":"SWE","shapeType":"ADM2","adm1ISO":"SE-O","parentISO":"SE-O","parentID":"SWE:ADM1:SE-O","src_shape_id":"70781695B15977475092104"},"geometry":{"type":"Polygon","coordinates":[[[13.416519,58.735597],[13.334187,58.659273],[13.251439,58.587878],[13.246711,58.537321],[13.301088,58.507693],[13.320002,58.506458],[13.350737,58.495341],[13.357829,58.46815],[13.374379,58.460731],[13.39143,58.456271],[13.392441,58.45702],[13.419677,58.454646],[13.446913,58.457812],[13.469609,58.467309],[13.501385,58.475222],[13.567961,58.479177],[13.598223,58.486296],[13.626972,58.49025],[13.658747,58.492623],[13.669123,58.496237],[13.667825,58.496576],[13.66026,58.506063],[13.664799,58.521868],[13.68447,58.534508],[13.707166,58.558194],[13.732889,58.564508],[13.737885,58.566071],[13.716156,58.577403],[13.686603,58.587031],[13.653356,58.592807],[13.631192,58.600506],[13.634886,58.619747],[13.649662,58.629364],[13.657051,58.637055],[13.634886,58.652433],[13.62011,58.660119],[13.631192,58.673566],[13.645968,58.679327],[13.645968,58.688927],[13.623804,58.713875],[13.594251,58.733054],[13.414959,58.740076],[13.416519,58.735597]]]}},
{"type":"Feature","id":"SWE:ADM2:SE-O.gullspang","properties":{"shapeName":"Gullspång","shapeISO":"","shapeGroup":"SWE","shapeType":"ADM2","adm1ISO":"SE-O","parentISO":"SE-O","parentID":"SWE:ADM1:SE-O","src_shape_id":"70781695B77814656475649"},"geometry":{"type":"Polygon","coordinates":[[[13.60269,59.021873],[13.834367,58.969991],[13.875002,58.958564],[13.893472,58.93951],[13.934107,58.918538],[13.996907,58.912816],[14.037542,58.910909],[14.078177,58.912816],[14.129894,58.910909],[14.170529,58.899462],[14.174223,58.868918],[14.163141,58.84217],[14.159447,58.821139],[14.174504,58.811392],[14.194762,58.815095],[14.234954,58.827335],[14.272781,58.844463],[14.343708,58.848133],[14.420753,58.858095],[14.405833,58.87471],[14.423822,58.899498],[14.381847,58.922412],[14.365057,58.936647],[14.342271,58.952733],[14.319485,58.976847],[14.323082,58.993531],[14.331722,59.004656],[14.332677,59.005885],[14.324282,59.024407],[14.322306,59.030304],[14.302544,59.037344],[14.277989,59.04573],[14.24568,59.055955],[14.210886,59.059789],[14.168636,59.068732],[14.116445,59.073842],[14.086622,59.066177],[14.079177,59.066873],[14.022118,59.035949],[13.60269,59.021873]]]}},
{"type":"Feature","id":"SWE:ADM2:SE-O.gothenburg","properties":{"shapeName":"Gothenburg","shapeISO":"","shapeGroup":"SWE","shapeType":"ADM2","adm1ISO":"SE-O","parentISO":"SE-O","parentID":"SWE:ADM1:SE-O","src_shape_id":"70781695B76264906816615"},"geometry":{"type":"Polygon","coordinates":[[[12.023399,57.574053],[12.025076,57.593824],[12.01922,57.618922],[12.001652,57.637733],[11.98994,57.658102],[11.98994,57.683155],[12.01922,57.692546],[12.071923,57.69411],[12.099998,57.69411],[12.101202,57.69411],[12.092418,57.714447],[12.086562,57.736336],[12.092418,57.751962],[12.115842,57.761335],[12.127554,57.778512],[12.156833,57.783195],[12.206608,57.787877],[12.221995,57.791978],[12.241744,57.797241],[12.259311,57.812841],[12.250527,57.822198],[12.221248,57.839346],[12.209536,57.858043],[12.186113,57.870503],[12.18385,57.870503],[12.148049,57.870503],[12.11877,57.862716],[12.080707,57.847137],[12.068995,57.833111],[12.051427,57.828434],[12.030931,57.845579],[12.016772,57.869685],[12.016292,57.870503],[11.987012,57.867388],[11.948949,57.85337],[11.925525,57.840904],[11.881606,57.81596],[11.849399,57.801921],[11.809497,57.789901],[11.80309,57.767126],[11.76451,57.748831],[11.728075,57.722516],[11.725931,57.705343],[11.749507,57.695036],[11.800946,57.689308],[11.826666,57.685871],[11.850242,57.674412],[11.860958,57.657217],[11.875961,57.62854],[11.903824,57.596395],[11.912226,57.570869],[11.990691,57.576976],[12.023399,57.574053]]]}},
{"type":"Feature","id":"SWE:ADM2:SE-O.ockero","properties":{"shapeName":"Öckerö","shapeISO":"","shapeGroup":"SWE","shapeType":"ADM2","adm1ISO":"SE-O","parentISO":"SE-O","parentID":"SWE:ADM1:SE-O","src_shape_id":"70781695B5566617801013"},"geometry":{"type":"Polygon","coordinates":[[[11.69899,57.744668],[11.69171,57.753603],[11.680063,57.755156],[11.665504,57.745834],[11.650216,57.738452],[11.643665,57.725626],[11.633473,57.72135],[11.634201,57.710463],[11.62765,57.702296],[11.616003,57.69685],[11.626194,57.689069],[11.642937,57.680897],[11.666232,57.680897],[11.682247,57.692182],[11.688798,57.716296],[11.692438,57.732622],[11.69899,57.744668]]]}}
]}