{"type":"FeatureCollection","bbox":[14.31845,58.656276,15.8134,60.124979],"features":[
{"type":"Feature","id":"SWE:ADM2:SE-T.nora","properties":{"shapeName":"Nora","shapeISO":"","shapeGroup":"SWE","shapeType":"ADM2","adm1ISO":"SE-T","parentISO":"SE-T","parentID":"SWE:ADM1:SE-T","src_shape_id":"70781695B8757223654229"},"geometry":{"type":"Polygon","coordinates":[[[14.750025,59.496441],[14.751205,59.496441],[14.749691,59.467243],[14.730021,59.45648],[14.719429,59.444944],[14.725482,59.423399],[14.745152,59.409541],[14.75877,59.39876],[14.776927,59.394138],[14.778692,59.394715],[14.807552,59.404151],[14.833699,59.399715],[14.866624,59.396757],[14.889865,59.39725],[14.937316,59.396264],[14.95281,59.40563],[14.975083,59.422383],[14.997356,59.435189],[15.02447,59.441097],[15.036091,59.453896],[15.030281,59.475544],[15.063206,59.489313],[15.077731,59.489313],[15.094194,59.475544],[15.099036,59.456849],[15.125182,59.455372],[15.140676,59.461278],[15.155202,59.468658],[15.172633,59.48538],[15.172633,59.509956],[15.173279,59.540932],[15.173359,59.544793],[15.176385,59.560895],[15.18849,59.573158],[15.18849,59.582352],[15.170333,59.591544],[15.134019,59.601498],[15.103757,59.607623],[15.055337,59.612216],[15.03718,59.623695],[15.031128,59.638229],[15.019023,59.655051],[15.006918,59.669572],[15.003892,59.69096],[14.976656,59.734457],[14.955079,59.746055],[14.911593,59.739795],[14.894949,59.732932],[14.875279,59.723779],[14.854095,59.716149],[14.811729,59.71386],[14.790545,59.723016],[14.745152,59.719201],[14.766336,59.710808],[14.773901,59.689432],[14.792058,59.681795],[14.804163,59.6711],[14.804163,59.657344],[14.784493,59.642818],[14.754231,59.63517],[14.704298,59.605326],[14.676046,59.583872],[14.659312,59.57634],[14.667369,59.560959],[14.681624,59.551224],[14.708274,59.551538],[14.737403,59.550281],[14.752897,59.540857],[14.759094,59.530174],[14.755996,59.52043],[14.752897,59.498732],[14.750025,59.496441]]]}},
{"type":"Feature","id":"SWE:ADM2:SE-T.hallefors","properties":{"shapeName":"Hällefors","shapeISO":"","shapeGroup":"SWE","shapeType":"ADM2","adm1ISO":"SE-T","parentISO":"SE-T","parentID":"SWE:ADM1:SE-T","src_shape_id":"70781695B86731793095106"},"geometry":{"type":"Polygon","coordinates":[[[14.492557,60.04042],[14.490233,59.991076],[14.480689,59.986302],[14.423428,59.98312],[14.388435,59.967998],[14.383664,59.951277],[14.396388,59.930562],[14.4282,59.919403],[14.453649,59.899466],[14.466374,59.825996],[14.461602,59.7908],[14.45524,59.777192],[14.442515,59.763578],[14.437744,59.733929],[14.453649,59.719496],[14.466374,59.697834],[14.466374,59.65929],[14.495005,59.625527],[14.499151,59.596162],[14.499776,59.591731],[14.495005,59.569181],[14.487052,59.560317],[14.480076,59.557899],[14.506082,59.553995],[14.542397,59.53789],[14.56812,59.530985],[14.595355,59.524847],[14.618052,59.523312],[14.646801,59.511799],[14.677063,59.506424],[14.699759,59.496441],[14.750025,59.496441],[14.752897,59.498732],[14.755996,59.52043],[14.759094,59.530174],[14.752897,59.540857],[14.737403,59.550281],[14.708274,59.551538],[14.681624,59.551224],[14.667369,59.560959],[14.659312,59.57634],[14.676046,59.583872],[14.704298,59.605326],[14.754231,59.63517],[14.784493,59.642818],[14.804163,59.657344],[14.804163,59.6711],[14.792058,59.681795],[14.773901,59.689432],[14.766336,59.710808],[14.745152,59.719201],[14.790545,59.723016],[14.811729,59.71386],[14.854095,59.716149],[14.875279,59.723779],[14.894949,59.732932],[14.911593,59.739795],[14.955079,59.746055],[14.95396,59.746657],[14.947907,59.769519],[14.940044,59.781958],[14.937316,59.786275],[14.917645,59.799977],[14.908567,59.825846],[14.893436,59.841053],[14.894949,59.869167],[14.879818,59.885114],[14.851069,59.898776],[14.829886,59.911675],[14.807189,59.942003],[14.799624,59.973062],[14.77844,60.001065],[14.779953,60.01468],[14.773489,60.019525],[14.759022,60.017116],[14.722112,60.018433],[14.664109,60.02502],[14.606106,60.026337],[14.51383,60.04214],[14.492557,60.04042]]]}},
{"type":"Feature","id":"SWE:ADM2:SE-T.ljusnarsberg","properties":{"shapeName":"Ljusnarsberg","shapeISO":"","shapeGroup":"SWE","shapeType":"ADM2","adm1ISO":"SE-T","parentISO":"SE-T","parentID":"SWE:ADM1:SE-T","src_shape_id":"70781695B35702082689476"},"geometry":{"type":"Polygon","coordinates":[[[14.773489,60.019525],[14.779953,60.01468],[14.77844,60.001065],[14.799624,59.973062],[14.807189,59.942003],[14.829886,59.911675],[14.851069,59.898776],[14.879818,59.885114],[14.894949,59.869167],[14.893436,59.841053],[14.908567,59.825846],[14.917645,59.799977],[14.937316,59.786275],[14.940044,59.781958],[14.968304,59.78399],[14.984767,59.79812],[15.038996,59.801043],[15.086447,59.800556],[15.104846,59.802017],[15.116467,59.819061],[15.121309,59.840475],[15.147455,59.845826],[15.173601,59.85993],[15.181348,59.87986],[15.195874,59.893464],[15.205558,59.909004],[15.212337,59.928419],[15.223957,59.941033],[15.231704,59.961399],[15.241388,59.978361],[15.26459,59.989553],[15.257317,59.99471],[15.230953,60.01448],[15.191405,60.02502],[15.151858,60.036873],[15.124996,60.051505],[15.122857,60.052671],[15.099128,60.061882],[15.072764,60.073722],[14.980487,60.073722],[14.94094,60.075037],[14.904029,60.092131],[14.885573,60.106588],[14.864482,60.122352],[14.824934,60.124979],[14.79066,60.11053],[14.772205,60.092131],[14.772205,60.071091],[14.774841,60.019751],[14.773489,60.019525]]]}},
{"type":"Feature","id":"SWE:ADM2:SE-T.lindesberg","properties":{"shapeName":"Lindesberg","shapeISO":"","shapeGroup":"SWE","shapeType":"ADM2","adm1ISO":"SE-T","parentISO":"SE-T","parentID":"SWE:ADM1:SE-T","src_shape_id":"70781695B98583425778893"},"geometry":{"type":"Polygon","coordinates":[[[15.26459,59.989553],[15.241388,59.978361],[15.231704,59.961399],[15.223957,59.941033],[15.212337,59.928419],[15.205558,59.909004],[15.195874,59.893464],[15.181348,59.87986],[15.173601,59.85993],[15.147455,59.845826],[15.121309,59.840475],[15.116467,59.819061],[15.104846,59.802017],[15.086447,59.800556],[15.038996,59.801043],[14.984767,59.79812],[14.968304,59.78399],[14.940044,59.781958],[14.947907,59.769519],[14.95396,59.746657],[14.955079,59.746055],[14.976656,59.734457],[15.003892,59.69096],[15.006918,59.669572],[15.019023,59.655051],[15.031128,59.638229],[15.03718,59.623695],[15.055337,59.612216],[15.103757,59.607623],[15.134019,59.601498],[15.170333,59.591544],[15.18849,59.582352],[15.18849,59.573158],[15.176385,59.560895],[15.173359,59.544793],[15.173279,59.540932],[15.223197,59.541869],[15.253932,59.539472],[15.272846,59.53228],[15.301216,59.525086],[15.313037,59.503497],[15.317766,59.477091],[15.341408,59.461477],[15.372143,59.456672],[15.405242,59.456672],[15.428884,59.448261],[15.457254,59.449462],[15.483261,59.453067],[15.513996,59.449462],[15.532909,59.437443],[15.521088,59.421811],[15.523453,59.413391],[15.547095,59.407376],[15.575465,59.396545],[15.617359,59.396545],[15.616697,59.397219],[15.62275,59.413391],[15.634855,59.422629],[15.671169,59.424169],[15.710509,59.422629],[15.743798,59.428786],[15.746824,59.440328],[15.73018,59.45648],[15.73018,59.481077],[15.719588,59.498745],[15.702944,59.50796],[15.715049,59.520242],[15.73018,59.524079],[15.742285,59.546327],[15.762305,59.554299],[15.736232,59.556295],[15.696892,59.557828],[15.680247,59.547861],[15.665116,59.541725],[15.648472,59.556295],[15.654525,59.618338],[15.645446,59.637465],[15.627289,59.64817],[15.592488,59.645112],[15.577357,59.652758],[15.547095,59.658108],[15.530451,59.677976],[15.541042,59.702412],[15.560073,59.7211],[15.569791,59.730644],[15.568278,59.756565],[15.545582,59.774089],[15.533477,59.79541],[15.522885,59.811392],[15.495649,59.816718],[15.462361,59.820521],[15.451769,59.831169],[15.468414,59.847134],[15.455831,59.886922],[15.455053,59.88642],[15.433962,59.883774],[15.41287,59.900967],[15.373323,59.920794],[15.320593,59.949852],[15.26459,59.989553]]]}},
{"type":"Feature","id":"SWE:ADM2:SE-T.karlskoga","properties":{"shapeName":"Karlskoga","shapeISO":"","shapeGroup":"SWE","shapeType":"ADM2","adm1ISO":"SE-T","parentISO":"SE-T","parentID":"SWE:ADM1:SE-T","src_shape_id":"70781695B86171963253303"},"geometry":{"type":"Polygon","coordinates":[[[14.373047,59.34896],[14.356624,59.338792],[14.353785,59.322864],[14.41227,59.321646],[14.45615,59.320874],[14.477334,59.313153],[14.493978,59.303113],[14.527266,59.303885],[14.557528,59.30543],[14.577198,59.297705],[14.584764,59.285342],[14.604434,59.269109],[14.628366,59.270856],[14.636209,59.271428],[14.663445,59.279932],[14.684628,59.270655],[14.707325,59.262149],[14.73456,59.255188],[14.740613,59.265243],[14.751205,59.277613],[14.78298,59.281478],[14.801137,59.300023],[14.807189,59.317786],[14.792058,59.332453],[14.801137,59.344027],[14.801815,59.345525],[14.814755,59.374102],[14.790545,59.385663],[14.778692,59.394715],[14.776927,59.394138],[14.75877,59.39876],[14.745152,59.409541],[14.725482,59.423399],[14.719429,59.444944],[14.730021,59.45648],[14.749691,59.467243],[14.751205,59.496441],[14.750025,59.496441],[14.699759,59.496441],[14.677063,59.506424],[14.646801,59.511799],[14.618052,59.523312],[14.595355,59.524847],[14.56812,59.530985],[14.542397,59.53789],[14.506082,59.553995],[14.480076,59.557899],[14.456831,59.54984],[14.437744,59.537746],[14.4282,59.523228],[14.440925,59.511125],[14.461602,59.497403],[14.471146,59.47479],[14.491823,59.46267],[14.48387,59.448119],[14.447287,59.430327],[14.417066,59.402002],[14.399569,59.388236],[14.386845,59.370412],[14.378892,59.352579],[14.373047,59.34896]]]}},
{"type":"Feature","id":"SWE:ADM2:SE-T.degerfors","properties":{"shapeName":"Degerfors","shapeISO":"","shapeGroup":"SWE","shapeType":"ADM2","adm1ISO":"SE-T","parentISO":"SE-T","parentID":"SWE:ADM1:SE-T","src_shape_id":"70781695B62731669961325"},"geometry":{"type":"Polygon","coordinates":[[[14.322306,59.030304],[14.324282,59.024407],[14.332677,59.005885],[14.331722,59.004656],[14.360258,59.003109],[14.388628,59.017717],[14.416999,59.028668],[14.454826,59.032318],[14.485561,59.032318],[14.485561,59.044481],[14.476104,59.062718],[14.499746,59.083374],[14.513932,59.104018],[14.530481,59.114942],[14.551759,59.122223],[14.6085,59.124649],[14.609745,59.126565],[14.617957,59.139205],[14.610865,59.159816],[14.589587,59.186469],[14.587222,59.221572],[14.589587,59.240924],[14.6085,59.253013],[14.629778,59.261473],[14.628366,59.270856],[14.604434,59.269109],[14.584764,59.285342],[14.577198,59.297705],[14.557528,59.30543],[14.527266,59.303885],[14.493978,59.303113],[14.477334,59.313153],[14.45615,59.320874],[14.41227,59.321646],[14.353785,59.322864],[14.353442,59.320943],[14.343899,59.298211],[14.339127,59.281153],[14.335946,59.264899],[14.32004,59.246197],[14.31845,59.233994],[14.331174,59.22016],[14.327993,59.198176],[14.323221,59.176992],[14.332765,59.158242],[14.348671,59.134586],[14.362986,59.119079],[14.361395,59.094579],[14.361395,59.077418],[14.339127,59.065973],[14.339127,59.052888],[14.337537,59.03898],[14.323221,59.029978],[14.322306,59.030304]]]}},
{"type":"Feature","id":"SWE:ADM2:SE-T.laxa","properties":{"shapeName":"Laxå","shapeISO":"","shapeGroup":"SWE","shapeType":"ADM2","adm1ISO":"SE-T","parentISO":"SE-T","parentID":"SWE:ADM1:SE-T","src_shape_id":"70781695B77797038305071"},"geometry":{"type":"Polygon","coordinates":[[[14.703069,58.761282],[14.703069,58.785702],[14.695976,58.816319],[14.681791,58.82244],[14.674698,58.84324],[14.655785,58.85547],[14.662877,58.861583],[14.66997,58.882361],[14.679427,58.900683],[14.707798,58.90923],[14.73144,58.916555],[14.752718,58.923877],[14.781088,58.934859],[14.802366,58.951934],[14.807095,58.965345],[14.785817,58.979968],[14.766903,58.987278],[14.747989,58.999457],[14.745625,59.005544],[14.762596,59.011786],[14.778724,59.017717],[14.769267,59.035968],[14.755082,59.043265],[14.740897,59.052993],[14.737107,59.059487],[14.733804,59.065149],[14.747989,59.07244],[14.750353,59.10159],[14.75981,59.129502],[14.771631,59.150118],[14.752718,59.150118],[14.681791,59.137993],[14.653421,59.128289],[14.609745,59.126565],[14.6085,59.124649],[14.551759,59.122223],[14.530481,59.114942],[14.513932,59.104018],[14.499746,59.083374],[14.476104,59.062718],[14.485561,59.044481],[14.485561,59.032318],[14.454826,59.032318],[14.416999,59.028668],[14.388628,59.017717],[14.360258,59.003109],[14.331722,59.004656],[14.323082,58.993531],[14.319485,58.976847],[14.342271,58.952733],[14.365057,58.936647],[14.381847,58.922412],[14.423822,58.899498],[14.405833,58.87471],[14.420753,58.858095],[14.421424,58.857348],[14.41063,58.850525],[14.404634,58.844321],[14.414228,58.831288],[14.431018,58.827564],[14.439413,58.820114],[14.441996,58.819847],[14.463399,58.81763],[14.481388,58.81142],[14.499378,58.804588],[14.505374,58.790298],[14.51257,58.748637],[14.523363,58.739303],[14.550947,58.748014],[14.576132,58.738058],[14.584527,58.724363],[14.583328,58.711286],[14.591723,58.705679],[14.628901,58.703188],[14.642093,58.713777],[14.637296,58.733079],[14.645691,58.754236],[14.660082,58.760456],[14.703069,58.761282]]]}},
{"type":"Feature","id":"SWE:ADM2:SE-T.lekeberg","properties":{"shapeName":"Lekeberg","shapeISO":"","shapeGroup":"SWE","shapeType":"ADM2","adm1ISO":"SE-T","parentISO":"SE-T","parentID":"SWE:ADM1:SE-T","src_shape_id":"70781695B87625473444636"},"geometry":{"type":"Polygon","coordinates":[[[14.628366,59.270856],[14.629778,59.261473],[14.6085,59.253013],[14.589587,59.240924],[14.587222,59.221572],[14.589587,59.186469],[14.610865,59.159816],[14.617957,59.139205],[14.609745,59.126565],[14.653421,59.128289],[14.681791,59.137993],[14.752718,59.150118],[14.771631,59.150118],[14.75981,59.129502],[14.750353,59.10159],[14.747989,59.07244],[14.733804,59.065149],[14.737107,59.059487],[14.764539,59.061502],[14.788181,59.07001],[14.814187,59.087018],[14.840194,59.100376],[14.878021,59.10766],[14.918213,59.110087],[14.936852,59.114872],[14.941855,59.116156],[14.95604,59.130715],[14.977318,59.147693],[15.03406,59.153755],[15.069523,59.159816],[15.086072,59.175568],[15.07765,59.193687],[15.074251,59.200999],[15.052973,59.219152],[15.01751,59.221572],[14.993868,59.213102],[14.95604,59.219152],[14.960769,59.240924],[14.958405,59.25543],[14.944219,59.268722],[14.946583,59.290462],[14.922941,59.307361],[14.885114,59.332694],[14.828373,59.342339],[14.801815,59.345525],[14.801137,59.344027],[14.792058,59.332453],[14.807189,59.317786],[14.801137,59.300023],[14.78298,59.281478],[14.751205,59.277613],[14.740613,59.265243],[14.73456,59.255188],[14.707325,59.262149],[14.684628,59.270655],[14.663445,59.279932],[14.636209,59.271428],[14.628366,59.270856]]]}},
{"type":"Feature","id":"SWE:ADM2:SE-T.kumla","properties":{"shapeName":"Kumla","shapeISO":"","shapeGroup":"SWE","shapeType":"ADM2","adm1ISO":"SE-T","parentISO":"SE-T","parentID":"SWE:ADM1:SE-T","src_shape_id":"70781695B57717414810507"},"geometry":{"type":"Polygon","coordinates":[[[14.936852,59.114872],[14.953676,59.096733],[15.003325,59.089447],[15.036424,59.083374],[15.07898,59.089447],[15.097893,59.102804],[15.130992,59.106446],[15.16882,59.09309],[15.185369,59.102804],[15.220833,59.111301],[15.253932,59.111301],[15.287031,59.104018],[15.291759,59.117369],[15.305945,59.139205],[15.315401,59.159816],[15.346136,59.174357],[15.379235,59.18768],[15.378479,59.188532],[15.367414,59.200999],[15.341408,59.205841],[15.296488,59.20463],[15.27521,59.196156],[15.235018,59.199788],[15.197191,59.192524],[15.128628,59.191313],[15.07765,59.193687],[15.086072,59.175568],[15.069523,59.159816],[15.03406,59.153755],[14.977318,59.147693],[14.95604,59.130715],[14.941855,59.116156],[14.936852,59.114872]]]}},
{"type":"Feature","id":"SWE:ADM2:SE-T.orebro","properties":{"shapeName":"Örebro","shapeISO":"","shapeGroup":"SWE","shapeType":"ADM2","adm1ISO":"SE-T","parentISO":"SE-T","parentID":"SWE:ADM1:SE-T","src_shape_id":"70781695B32779810801713"},"geometry":{"type":"Polygon","coordinates":[[[15.679583,59.010344],[15.672682,59.019226],[15.665116,59.031686],[15.636368,59.043362],[15.634855,59.058147],[15.651499,59.067482],[15.693865,59.086921],[15.716562,59.098579],[15.734719,59.114117],[15.755902,59.119553],[15.787678,59.121883],[15.802809,59.126542],[15.811887,59.142843],[15.8134,59.153707],[15.774334,59.200614],[15.765327,59.211428],[15.764981,59.211844],[15.79373,59.22733],[15.745311,59.235071],[15.73018,59.266789],[15.677221,59.278386],[15.689326,59.289206],[15.680247,59.308519],[15.657551,59.322418],[15.653012,59.342484],[15.66663,59.351741],[15.653012,59.369477],[15.631828,59.38181],[15.617359,59.396545],[15.575465,59.396545],[15.547095,59.407376],[15.523453,59.413391],[15.521088,59.421811],[15.532909,59.437443],[15.513996,59.449462],[15.483261,59.453067],[15.457254,59.449462],[15.428884,59.448261],[15.405242,59.456672],[15.372143,59.456672],[15.341408,59.461477],[15.317766,59.477091],[15.313037,59.503497],[15.301216,59.525086],[15.272846,59.53228],[15.253932,59.539472],[15.223197,59.541869],[15.173279,59.540932],[15.172633,59.509956],[15.172633,59.48538],[15.155202,59.468658],[15.140676,59.461278],[15.125182,59.455372],[15.099036,59.456849],[15.094194,59.475544],[15.077731,59.489313],[15.063206,59.489313],[15.030281,59.475544],[15.036091,59.453896],[15.02447,59.441097],[14.997356,59.435189],[14.975083,59.422383],[14.95281,59.40563],[14.937316,59.396264],[14.889865,59.39725],[14.866624,59.396757],[14.833699,59.399715],[14.807552,59.404151],[14.778692,59.394715],[14.790545,59.385663],[14.814755,59.374102],[14.801815,59.345525],[14.828373,59.342339],[14.885114,59.332694],[14.922941,59.307361],[14.946583,59.290462],[14.944219,59.268722],[14.958405,59.25543],[14.960769,59.240924],[14.95604,59.219152],[14.993868,59.213102],[15.01751,59.221572],[15.052973,59.219152],[15.074251,59.200999],[15.07765,59.193687],[15.128628,59.191313],[15.197191,59.192524],[15.235018,59.199788],[15.27521,59.196156],[15.296488,59.20463],[15.341408,59.205841],[15.367414,59.200999],[15.378479,59.188532],[15.394272,59.184725],[15.416968,59.164566],[15.436638,59.149827],[15.454796,59.131977],[15.47144,59.112563],[15.477492,59.092362],[15.495649,59.067482],[15.494136,59.054257],[15.4669,59.040249],[15.472953,59.027792],[15.512293,59.014552],[15.556173,59.002866],[15.600983,58.977855],[15.605039,58.984127],[15.621509,58.996006],[15.651154,59.004488],[15.679583,59.010344]]]}},
{"type":"Feature","id":"SWE:ADM2:SE-T.hallsberg","properties":{"shapeName":"Hallsberg","shapeISO":"","shapeGroup":"SWE","shapeType":"ADM2","adm1ISO":"SE-T","parentISO":"SE-T","parentID":"SWE:ADM1:SE-T","src_shape_id":"70781695B5690265718253"},"geometry":{"type":"Polygon","coordinates":[[[15.450012,58.853172],[15.460962,58.851075],[15.469394,58.857617],[15.48481,58.890649],[15.529278,58.890649],[15.578687,58.893202],[15.583628,58.917869],[15.616568,58.93657],[15.600098,58.947616],[15.59351,58.966301],[15.600983,58.977855],[15.556173,59.002866],[15.512293,59.014552],[15.472953,59.027792],[15.4669,59.040249],[15.494136,59.054257],[15.495649,59.067482],[15.477492,59.092362],[15.47144,59.112563],[15.454796,59.131977],[15.436638,59.149827],[15.416968,59.164566],[15.394272,59.184725],[15.378479,59.188532],[15.379235,59.18768],[15.346136,59.174357],[15.315401,59.159816],[15.305945,59.139205],[15.291759,59.117369],[15.287031,59.104018],[15.253932,59.111301],[15.220833,59.111301],[15.185369,59.102804],[15.16882,59.09309],[15.130992,59.106446],[15.097893,59.102804],[15.07898,59.089447],[15.036424,59.083374],[15.003325,59.089447],[14.953676,59.096733],[14.936852,59.114872],[14.918213,59.110087],[14.878021,59.10766],[14.840194,59.100376],[14.814187,59.087018],[14.788181,59.07001],[14.764539,59.061502],[14.737107,59.059487],[14.740897,59.052993],[14.755082,59.043265],[14.769267,59.035968],[14.778724,59.017717],[14.762596,59.011786],[14.766336,59.00832],[14.790545,59.005204],[14.84199,59.000528],[14.882844,59.004424],[14.896462,59.020005],[14.911593,59.030128],[14.946394,59.032464],[14.963038,59.026235],[14.991787,59.027792],[15.011458,59.034021],[15.044746,59.035578],[15.064416,59.04881],[15.090139,59.050367],[15.111322,59.039471],[15.123427,59.02935],[15.162768,59.021563],[15.186977,59.01611],[15.199082,59.006762],[15.218752,59.002866],[15.250527,58.994293],[15.282302,58.976362],[15.330722,58.960761],[15.354931,58.934225],[15.347366,58.925635],[15.357957,58.913918],[15.35947,58.891254],[15.355113,58.877178],[15.374529,58.870153],[15.405097,58.866338],[15.432502,58.856527],[15.450012,58.853172]]]}},
{"type":"Feature","id":"SWE:ADM2:SE-T.askersund","properties":{"shapeName":"Askersund","shapeISO":"","shapeGroup":"SWE","shapeType":"ADM2","adm1ISO":"SE-T","parentISO":"SE-T","parentID":"SWE:ADM1:SE-T","src_shape_id":"70781695B5834456968412"},"geometry":{"type":"Polygon","coordinates":[[[15.355113,58.877178],[15.35947,58.891254],[15.357957,58.913918],[15.347366,58.925635],[15.354931,58.934225],[15.330722,58.960761],[15.282302,58.976362],[15.250527,58.994293],[15.218752,59.002866],[15.199082,59.006762],[15.186977,59.01611],[15.162768,59.021563],[15.123427,59.02935],[15.111322,59.039471],[15.090139,59.050367],[15.064416,59.04881],[15.044746,59.035578],[15.011458,59.034021],[14.991787,59.027792],[14.963038,59.026235],[14.946394,59.032464],[14.911593,59.030128],[14.896462,59.020005],[14.882844,59.004424],[14.84199,59.000528],[14.790545,59.005204],[14.766336,59.00832],[14.762596,59.011786],[14.745625,59.005544],[14.747989,58.999457],[14.766903,58.987278],[14.785817,58.979968],[14.807095,58.965345],[14.802366,58.951934],[14.781088,58.934859],[14.752718,58.923877],[14.73144,58.916555],[14.707798,58.90923],[14.679427,58.900683],[14.66997,58.882361],[14.662877,58.861583],[14.655785,58.85547],[14.674698,58.84324],[14.681791,58.82244],[14.695976,58.816319],[14.703069,58.785702],[14.703069,58.761282],[14.724843,58.7617],[14.72757,58.71377],[14.720833,58.706187],[14.783748,58.656276],[14.78438,58.656515],[14.824383,58.671645],[14.901959,58.687007],[14.958265,58.715495],[14.959229,58.717784],[14.987689,58.714499],[15.01404,58.710668],[15.027743,58.717236],[15.041446,58.725445],[15.059365,58.735841],[15.080067,58.744618],[15.095508,58.767309],[15.113521,58.785985],[15.131535,58.792652],[15.141829,58.807316],[15.141829,58.817977],[15.164989,58.835294],[15.19587,58.84062],[15.234471,58.853933],[15.267925,58.871232],[15.303952,58.881873],[15.353448,58.877781],[15.355113,58.877178]]]}}
]}