{"type":"FeatureCollection","bbox":[12.140958,59.883774,16.733241,62.257095],"features":[
{"type":"Feature","id":"SWE:ADM2:SE-W.malung-salen","properties":{"shapeName":"Malung-Sälen","shapeISO":"","shapeGroup":"SWE","shapeType":"ADM2","adm1ISO":"SE-W","parentISO":"SE-W","parentID":"SWE:ADM1:SE-W","src_shape_id":"70781695B21384318328317"},"geometry":{"type":"Polygon","coordinates":[[[13.992585,60.255095],[13.970702,60.267763],[13.960169,60.28742],[13.98126,60.31224],[13.98126,60.355302],[13.965442,60.377463],[13.952259,60.423042],[13.939077,60.447759],[13.923258,60.467258],[13.933804,60.477653],[13.939077,60.499731],[13.917985,60.526984],[13.925894,60.559397],[13.957532,60.586599],[14.015535,60.602133],[14.044536,60.624126],[14.044536,60.679987],[14.044536,60.683563],[14.03399,60.704211],[13.997079,60.718399],[13.973351,60.741601],[13.983897,60.760924],[14.002352,60.769938],[14.026081,60.78667],[14.041899,60.818823],[14.026081,60.838099],[13.994443,60.857364],[13.933804,60.870201],[13.852073,60.871484],[13.751887,60.86635],[13.654337,60.868917],[13.620062,60.944552],[13.575242,61.004675],[13.575242,61.030225],[13.574772,61.032845],[13.569969,61.059582],[13.548877,61.087637],[13.514603,61.119487],[13.469783,61.155122],[13.438145,61.194527],[13.401235,61.2453],[13.382779,61.274458],[13.359051,61.301056],[13.324777,61.325102],[13.290502,61.354186],[13.240409,61.40344],[13.190316,61.445055],[13.153405,61.48284],[13.129677,61.501715],[13.105949,61.514292],[13.074311,61.496682],[13.04531,61.472768],[12.979397,61.43119],[12.950396,61.41101],[12.926668,61.379454],[12.884484,61.360505],[12.869106,61.356535],[12.865218,61.331672],[12.844642,61.284256],[12.828182,61.242708],[12.799376,61.20507],[12.76234,61.174662],[12.707472,61.148197],[12.699241,61.10912],[12.700613,61.091221],[12.691011,61.064022],[12.685524,61.05141],[12.684112,61.050931],[12.696305,61.038285],[12.704544,61.002358],[12.733381,60.994369],[12.774912,60.967745],[12.833969,60.939071],[12.920024,60.896423],[12.980768,60.866042],[13.039826,60.838099],[13.092133,60.81836],[13.137692,60.798609],[13.164689,60.780493],[13.19,60.758245],[13.206873,60.732683],[13.222059,60.711228],[13.238933,60.697192],[13.267618,60.693063],[13.291241,60.687281],[13.29799,60.672408],[13.304739,60.655047],[13.324987,60.640986],[13.336799,60.628575],[13.353672,60.624437],[13.362109,60.607879],[13.389107,60.59214],[13.407668,60.569762],[13.443102,60.541561],[13.454913,60.52662],[13.476849,60.512504],[13.485286,60.493395],[13.48866,60.47677],[13.529157,60.454312],[13.559529,60.442661],[13.591588,60.433504],[13.623648,60.426842],[13.647345,60.421313],[13.691247,60.411328],[13.733431,60.3944],[13.746614,60.37225],[13.788797,60.338345],[13.823072,60.303098],[13.836254,60.280886],[13.896189,60.243653],[13.942624,60.212552],[13.976101,60.198601],[13.998779,60.187328],[14.007437,60.187075],[14.017138,60.186791],[14.031176,60.202357],[14.026857,60.222744],[14.013898,60.236685],[13.9923,60.254906],[13.992585,60.255095]]]}},
{"type":"Feature","id":"SWE:ADM2:SE-W.alvdalen","properties":{"shapeName":"Älvdalen","shapeISO":"","shapeGroup":"SWE","shapeType":"ADM2","adm1ISO":"SE-W","parentISO":"SE-W","parentID":"SWE:ADM1:SE-W","src_shape_id":"70781695B70096269486185"},"geometry":{"type":"Polygon","coordinates":[[[12.279342,62.257095],[12.280871,62.236947],[12.267154,62.174904],[12.247951,62.105675],[12.226003,62.032428],[12.201313,61.95062],[12.184852,61.864065],[12.140958,61.755851],[12.140958,61.725976],[12.162905,61.702576],[12.186224,61.682412],[12.286358,61.629662],[12.367289,61.599665],[12.409812,61.568333],[12.426272,61.562454],[12.453706,61.559841],[12.519548,61.557881],[12.568929,61.559841],[12.588133,61.557881],[12.615567,61.53893],[12.715702,61.466284],[12.850129,61.374417],[12.869333,61.357983],[12.869106,61.356535],[12.884484,61.360505],[12.926668,61.379454],[12.950396,61.41101],[12.979397,61.43119],[13.04531,61.472768],[13.074311,61.496682],[13.105949,61.514292],[13.129677,61.501715],[13.153405,61.48284],[13.190316,61.445055],[13.240409,61.40344],[13.290502,61.354186],[13.324777,61.325102],[13.359051,61.301056],[13.382779,61.274458],[13.401235,61.2453],[13.438145,61.194527],[13.469783,61.155122],[13.514603,61.119487],[13.548877,61.087637],[13.569969,61.059582],[13.574772,61.032845],[13.606775,61.037273],[13.627773,61.047439],[13.675768,61.050343],[13.717765,61.053247],[13.738763,61.066311],[13.825755,61.069214],[13.888749,61.063409],[13.948744,61.060506],[13.984741,61.061957],[14.023737,61.092423],[14.053734,61.109819],[14.083732,61.135895],[14.128728,61.147478],[14.173724,61.154715],[14.194722,61.147478],[14.218719,61.131551],[14.260716,61.12286],[14.341708,61.114167],[14.362707,61.12286],[14.344708,61.143135],[14.317711,61.16195],[14.278714,61.186537],[14.242717,61.211105],[14.206721,61.219772],[14.197721,61.242871],[14.206721,61.267395],[14.218719,61.293341],[14.21272,61.322145],[14.191722,61.355236],[14.173724,61.401219],[14.143726,61.437095],[14.10173,61.47866],[14.09873,61.514448],[14.077732,61.547336],[14.059734,61.573051],[14.032736,61.597317],[14.012004,61.627978],[13.962182,61.630502],[13.902909,61.641453],[13.840343,61.643017],[13.774483,61.647709],[13.725089,61.655527],[13.639472,61.655527],[13.570319,61.65709],[13.527511,61.668032],[13.507753,61.683656],[13.50446,61.700833],[13.527511,61.71956],[13.520925,61.733599],[13.50446,61.749189],[13.474823,61.77879],[13.435308,61.800582],[13.399085,61.830133],[13.379327,61.845675],[13.34969,61.87363],[13.290417,61.906213],[13.247608,61.917066],[13.244315,61.929464],[13.273952,61.93876],[13.333226,61.963535],[13.38262,61.98365],[13.392499,61.997568],[13.359569,62.006843],[13.306882,62.019205],[13.313468,62.039283],[13.290417,62.054719],[13.267366,62.053176],[13.201507,62.028474],[13.152112,62.026929],[13.125769,62.034651],[13.089546,62.045459],[13.036858,62.057805],[13.020394,62.076316],[12.984171,62.108682],[12.947948,62.127162],[12.90514,62.144092],[12.868917,62.170237],[12.819523,62.202503],[12.773421,62.213251],[12.671339,62.213251],[12.592308,62.205575],[12.542913,62.216321],[12.506691,62.227064],[12.454003,62.236269],[12.381558,62.247005],[12.315699,62.256204],[12.279342,62.257095]]]}},
{"type":"Feature","id":"SWE:ADM2:SE-W.orsa","properties":{"shapeName":"Orsa","shapeISO":"","shapeGroup":"SWE","shapeType":"ADM2","adm1ISO":"SE-W","parentISO":"SE-W","parentID":"SWE:ADM1:SE-W","src_shape_id":"70781695B64555643883155"},"geometry":{"type":"Polygon","coordinates":[[[14.411566,61.577759],[14.407702,61.567338],[14.368706,61.551624],[14.335709,61.524461],[14.329709,61.477228],[14.362707,61.437095],[14.389704,61.396911],[14.404703,61.363863],[14.413702,61.326463],[14.455698,61.287577],[14.485695,61.252971],[14.530691,61.21255],[14.557689,61.173523],[14.551689,61.148925],[14.593686,61.130102],[14.626683,61.106921],[14.638682,61.080821],[14.644681,61.06486],[14.713675,61.063409],[14.947654,61.066311],[15.007648,61.066311],[15.009904,61.067039],[15.052644,61.080821],[15.073642,61.099673],[15.082642,61.117065],[15.091641,61.147478],[15.094641,61.176415],[15.073642,61.196656],[15.034646,61.213994],[15.040645,61.234211],[15.061644,61.248643],[15.070643,61.330781],[15.094641,61.38542],[15.09764,61.445699],[15.118638,61.480093],[15.121056,61.526215],[15.115399,61.510099],[15.1046,61.498249],[15.070043,61.495157],[15.011728,61.497733],[14.970692,61.505977],[14.938295,61.511129],[14.837864,61.510614],[14.779549,61.509068],[14.736353,61.499794],[14.703956,61.496703],[14.694237,61.507523],[14.690997,61.524518],[14.697476,61.558482],[14.697476,61.584701],[14.690997,61.596518],[14.629442,61.598573],[14.55061,61.602168],[14.507413,61.603195],[14.476783,61.608189],[14.467982,61.59982],[14.451122,61.587789],[14.42794,61.577759],[14.411566,61.577759]]]}},
{"type":"Feature","id":"SWE:ADM2:SE-W.mora","properties":{"shapeName":"Mora","shapeISO":"","shapeGroup":"SWE","shapeType":"ADM2","adm1ISO":"SE-W","parentISO":"SE-W","parentID":"SWE:ADM1:SE-W","src_shape_id":"70781695B88380498553182"},"geometry":{"type":"Polygon","coordinates":[[[14.012004,61.627978],[14.032736,61.597317],[14.059734,61.573051],[14.077732,61.547336],[14.09873,61.514448],[14.10173,61.47866],[14.143726,61.437095],[14.173724,61.401219],[14.191722,61.355236],[14.21272,61.322145],[14.218719,61.293341],[14.206721,61.267395],[14.197721,61.242871],[14.206721,61.219772],[14.242717,61.211105],[14.278714,61.186537],[14.317711,61.16195],[14.344708,61.143135],[14.362707,61.12286],[14.341708,61.114167],[14.260716,61.12286],[14.218719,61.131551],[14.194722,61.147478],[14.173724,61.154715],[14.128728,61.147478],[14.083732,61.135895],[14.053734,61.109819],[14.023737,61.092423],[13.984741,61.061957],[13.948744,61.060506],[13.888749,61.063409],[13.825755,61.069214],[13.738763,61.066311],[13.717765,61.053247],[13.675768,61.050343],[13.627773,61.047439],[13.606775,61.037273],[13.574772,61.032845],[13.575242,61.030225],[13.575242,61.004675],[13.620062,60.944552],[13.654337,60.868917],[13.751887,60.86635],[13.852073,60.871484],[13.933804,60.870201],[13.994443,60.857364],[14.026081,60.838099],[14.041899,60.818823],[14.026081,60.78667],[14.002352,60.769938],[13.983897,60.760924],[13.973351,60.741601],[13.997079,60.718399],[14.03399,60.704211],[14.044536,60.683563],[14.044536,60.679987],[14.113729,60.682324],[14.200721,60.697009],[14.317711,60.699945],[14.403323,60.704279],[14.404703,60.704348],[14.467697,60.729292],[14.554689,60.765938],[14.635682,60.806932],[14.674678,60.828871],[14.675343,60.829034],[14.850619,60.889608],[14.855208,60.890398],[14.88166,60.898976],[14.905658,60.913562],[14.938655,60.91502],[14.945781,60.919782],[14.962652,60.931056],[14.935655,60.954367],[14.905658,60.97475],[14.896658,60.986391],[14.920656,61.011115],[14.956653,61.032915],[14.998649,61.056151],[15.009904,61.067039],[15.007648,61.066311],[14.947654,61.066311],[14.713675,61.063409],[14.644681,61.06486],[14.638682,61.080821],[14.626683,61.106921],[14.593686,61.130102],[14.551689,61.148925],[14.557689,61.173523],[14.530691,61.21255],[14.485695,61.252971],[14.455698,61.287577],[14.413702,61.326463],[14.404703,61.363863],[14.389704,61.396911],[14.362707,61.437095],[14.329709,61.477228],[14.335709,61.524461],[14.368706,61.551624],[14.407702,61.567338],[14.411566,61.577759],[14.408972,61.577759],[14.39422,61.588791],[14.371037,61.59982],[14.347855,61.612848],[14.322565,61.620863],[14.274092,61.623867],[14.223512,61.625871],[14.164502,61.625871],[14.067557,61.626872],[14.033837,61.626872],[14.012004,61.627978]]]}},
{"type":"Feature","id":"SWE:ADM2:SE-W.leksand","properties":{"shapeName":"Leksand","shapeISO":"","shapeGroup":"SWE","shapeType":"ADM2","adm1ISO":"SE-W","parentISO":"SE-W","parentID":"SWE:ADM1:SE-W","src_shape_id":"70781695B69535190961561"},"geometry":{"type":"Polygon","coordinates":[[[14.403323,60.704279],[14.410069,60.685023],[14.410069,60.670047],[14.447202,60.637932],[14.484336,60.618647],[14.525838,60.602568],[14.560788,60.581117],[14.592151,60.574183],[14.604475,60.571459],[14.724613,60.571459],[14.78359,60.573605],[14.825093,60.567166],[14.870964,60.559651],[14.936494,60.562872],[14.973627,60.577898],[15.004208,60.595062],[15.050079,60.615432],[15.074107,60.633647],[15.109056,60.645428],[15.157112,60.644357],[15.189877,60.633647],[15.235748,60.633647],[15.24667,60.640074],[15.281619,60.643286],[15.294386,60.643286],[15.299094,60.643286],[15.34278,60.646499],[15.346697,60.648205],[15.362439,60.655064],[15.395204,60.667907],[15.441076,60.686092],[15.44326,60.701061],[15.42797,60.71816],[15.39302,60.733113],[15.318753,60.723501],[15.305647,60.742723],[15.34278,60.752329],[15.364624,60.769401],[15.403942,60.80245],[15.441076,60.809908],[15.484762,60.8163],[15.52408,60.82056],[15.548108,60.835466],[15.561214,60.848237],[15.611454,60.848237],[15.637666,60.86313],[15.663878,60.88652],[15.648587,60.891833],[15.646403,60.892992],[15.62456,60.904582],[15.578689,60.910954],[15.545924,60.905644],[15.504421,60.89077],[15.480394,60.882268],[15.42797,60.878016],[15.388651,60.872701],[15.336227,60.859939],[15.296909,60.846109],[15.259776,60.837595],[15.159296,60.837595],[15.137453,60.846109],[15.113425,60.851429],[15.103042,60.856485],[15.072637,60.861335],[15.035459,60.879432],[14.979997,60.903766],[14.981502,60.904085],[14.945781,60.919782],[14.938655,60.91502],[14.905658,60.913562],[14.88166,60.898976],[14.855208,60.890398],[14.850619,60.889608],[14.675343,60.829034],[14.674678,60.828871],[14.635682,60.806932],[14.554689,60.765938],[14.467697,60.729292],[14.404703,60.704348],[14.403323,60.704279]]]}},
{"type":"Feature","id":"SWE:ADM2:SE-W.vansbro","properties":{"shapeName":"Vansbro","shapeISO":"","shapeGroup":"SWE","shapeType":"ADM2","adm1ISO":"SE-W","parentISO":"SE-W","parentID":"SWE:ADM1:SE-W","src_shape_id":"70781695B18183991959246"},"geometry":{"type":"Polygon","coordinates":[[[13.992585,60.255095],[14.002019,60.261335],[14.023617,60.263478],[14.047375,60.252227],[14.090571,60.237221],[14.137007,60.235613],[14.162924,60.240973],[14.183579,60.246099],[14.188053,60.253254],[14.211818,60.259496],[14.25236,60.259496],[14.291503,60.265737],[14.337636,60.27059],[14.408933,60.271283],[14.449474,60.263656],[14.48023,60.258802],[14.508189,60.254641],[14.524965,60.249092],[14.550128,60.245623],[14.585078,60.251866],[14.614435,60.26643],[14.629813,60.275442],[14.657921,60.288261],[14.653578,60.313544],[14.649385,60.329464],[14.632609,60.339843],[14.652181,60.357133],[14.649385,60.380633],[14.656374,60.414471],[14.650783,60.466196],[14.631211,60.488928],[14.620027,60.519214],[14.585078,60.537097],[14.592151,60.574183],[14.560788,60.581117],[14.525838,60.602568],[14.484336,60.618647],[14.447202,60.637932],[14.410069,60.670047],[14.410069,60.685023],[14.403323,60.704279],[14.317711,60.699945],[14.200721,60.697009],[14.113729,60.682324],[14.044536,60.679987],[14.044536,60.624126],[14.015535,60.602133],[13.957532,60.586599],[13.925894,60.559397],[13.917985,60.526984],[13.939077,60.499731],[13.933804,60.477653],[13.923258,60.467258],[13.939077,60.447759],[13.952259,60.423042],[13.965442,60.377463],[13.98126,60.355302],[13.98126,60.31224],[13.960169,60.28742],[13.970702,60.267763],[13.992585,60.255095]]]}},
{"type":"Feature","id":"SWE:ADM2:SE-W.gagnef","properties":{"shapeName":"Gagnef","shapeISO":"","shapeGroup":"SWE","shapeType":"ADM2","adm1ISO":"SE-W","parentISO":"SE-W","parentID":"SWE:ADM1:SE-W","src_shape_id":"70781695B69393603078099"},"geometry":{"type":"Polygon","coordinates":[[[14.592151,60.574183],[14.585078,60.537097],[14.620027,60.519214],[14.631211,60.488928],[14.650783,60.466196],[14.656374,60.414471],[14.649385,60.380633],[14.652181,60.357133],[14.632609,60.339843],[14.649385,60.329464],[14.653578,60.313544],[14.657921,60.288261],[14.664762,60.291381],[14.692722,60.300386],[14.727671,60.305927],[14.750039,60.314928],[14.784988,60.322543],[14.803162,60.335],[14.800366,60.36059],[14.831121,60.384778],[14.90102,60.390305],[15.001674,60.388923],[15.02544,60.384087],[15.063185,60.395139],[15.077165,60.406878],[15.098135,60.415161],[15.102319,60.418728],[15.113512,60.428272],[15.117706,60.446205],[15.134482,60.466196],[15.158248,60.479975],[15.175023,60.486862],[15.197391,60.497191],[15.242126,60.529532],[15.270086,60.543972],[15.277076,60.55497],[15.268688,60.567337],[15.261698,60.590686],[15.288259,60.605098],[15.295249,60.626362],[15.294386,60.643286],[15.281619,60.643286],[15.24667,60.640074],[15.235748,60.633647],[15.189877,60.633647],[15.157112,60.644357],[15.109056,60.645428],[15.074107,60.633647],[15.050079,60.615432],[15.004208,60.595062],[14.973627,60.577898],[14.936494,60.562872],[14.870964,60.559651],[14.825093,60.567166],[14.78359,60.573605],[14.724613,60.571459],[14.604475,60.571459],[14.592151,60.574183]]]}},
{"type":"Feature","id":"SWE:ADM2:SE-W.ludvika","properties":{"shapeName":"Ludvika","shapeISO":"","shapeGroup":"SWE","shapeType":"ADM2","adm1ISO":"SE-W","parentISO":"SE-W","parentID":"SWE:ADM1:SE-W","src_shape_id":"70781695B24825049730842"},"geometry":{"type":"Polygon","coordinates":[[[14.183579,60.246099],[14.184523,60.246333],[14.193162,60.239365],[14.199641,60.215234],[14.221239,60.200211],[14.233118,60.177662],[14.232038,60.149724],[14.254716,60.120686],[14.263355,60.111001],[14.32275,60.087314],[14.362707,60.076003],[14.405903,60.063611],[14.453418,60.0469],[14.479336,60.039351],[14.492557,60.04042],[14.51383,60.04214],[14.606106,60.026337],[14.664109,60.02502],[14.722112,60.018433],[14.759022,60.017116],[14.773489,60.019525],[14.774841,60.019751],[14.772205,60.071091],[14.772205,60.092131],[14.79066,60.11053],[14.824934,60.124979],[14.864482,60.122352],[14.885573,60.106588],[14.904029,60.092131],[14.94094,60.075037],[14.980487,60.073722],[15.072764,60.073722],[15.099128,60.061882],[15.122857,60.052671],[15.124996,60.051505],[15.163665,60.066353],[15.192061,60.091413],[15.227011,60.1121],[15.255407,60.128423],[15.259776,60.148],[15.251038,60.165392],[15.264144,60.197977],[15.257591,60.265217],[15.26196,60.29662],[15.259996,60.313157],[15.259776,60.315015],[15.244485,60.326912],[15.21172,60.34529],[15.172402,60.352854],[15.150559,60.378776],[15.141821,60.399283],[15.128715,60.414385],[15.102319,60.418728],[15.098135,60.415161],[15.077165,60.406878],[15.063185,60.395139],[15.02544,60.384087],[15.001674,60.388923],[14.90102,60.390305],[14.831121,60.384778],[14.800366,60.36059],[14.803162,60.335],[14.784988,60.322543],[14.750039,60.314928],[14.727671,60.305927],[14.692722,60.300386],[14.664762,60.291381],[14.657921,60.288261],[14.629813,60.275442],[14.614435,60.26643],[14.585078,60.251866],[14.550128,60.245623],[14.524965,60.249092],[14.508189,60.254641],[14.48023,60.258802],[14.449474,60.263656],[14.408933,60.271283],[14.337636,60.27059],[14.291503,60.265737],[14.25236,60.259496],[14.211818,60.259496],[14.188053,60.253254],[14.183579,60.246099]]]}},
{"type":"Feature","id":"SWE:ADM2:SE-W.smedjebacken","properties":{"shapeName":"Smedjebacken","shapeISO":"","shapeGroup":"SWE","shapeType":"ADM2","adm1ISO":"SE-W","parentISO":"SE-W","parentID":"SWE:ADM1:SE-W","src_shape_id":"70781695B69424081161255"},"geometry":{"type":"Polygon","coordinates":[[[15.124996,60.051505],[15.151858,60.036873],[15.191405,60.02502],[15.230953,60.01448],[15.257317,59.99471],[15.26459,59.989553],[15.320593,59.949852],[15.373323,59.920794],[15.41287,59.900967],[15.433962,59.883774],[15.455053,59.88642],[15.455831,59.886922],[15.473509,59.898322],[15.497237,59.912864],[15.515693,59.930042],[15.523602,59.957772],[15.557876,59.969649],[15.629061,59.96833],[15.679154,59.957772],[15.708156,59.964371],[15.711161,59.96763],[15.723975,59.981522],[15.755612,59.99471],[15.747703,60.010527],[15.729247,60.023703],[15.726611,60.040823],[15.723924,60.046189],[15.713429,60.067145],[15.737157,60.082928],[15.752976,60.102646],[15.774068,60.117098],[15.774068,60.139422],[15.755612,60.153858],[15.763522,60.16173],[15.774068,60.163041],[15.79516,60.172222],[15.808342,60.181401],[15.813615,60.19975],[15.814123,60.199722],[15.799307,60.209916],[15.762173,60.221852],[15.683537,60.239205],[15.680016,60.239904],[15.628928,60.250045],[15.554661,60.267383],[15.530633,60.276049],[15.500053,60.289043],[15.403942,60.295538],[15.325306,60.303114],[15.27725,60.312851],[15.262559,60.313111],[15.259996,60.313157],[15.26196,60.29662],[15.257591,60.265217],[15.264144,60.197977],[15.251038,60.165392],[15.259776,60.148],[15.255407,60.128423],[15.227011,60.1121],[15.192061,60.091413],[15.163665,60.066353],[15.124996,60.051505]]]}},
{"type":"Feature","id":"SWE:ADM2:SE-W.borlange","properties":{"shapeName":"Borlänge","shapeISO":"","shapeGroup":"SWE","shapeType":"ADM2","adm1ISO":"SE-W","parentISO":"SE-W","parentID":"SWE:ADM1:SE-W","src_shape_id":"70781695B12440080986596"},"geometry":{"type":"Polygon","coordinates":[[[15.294386,60.643286],[15.295249,60.626362],[15.288259,60.605098],[15.261698,60.590686],[15.268688,60.567337],[15.277076,60.55497],[15.270086,60.543972],[15.242126,60.529532],[15.197391,60.497191],[15.175023,60.486862],[15.158248,60.479975],[15.134482,60.466196],[15.117706,60.446205],[15.113512,60.428272],[15.102319,60.418728],[15.128715,60.414385],[15.141821,60.399283],[15.150559,60.378776],[15.172402,60.352854],[15.21172,60.34529],[15.244485,60.326912],[15.259776,60.315015],[15.259996,60.313157],[15.262559,60.313111],[15.337188,60.326004],[15.366546,60.341918],[15.400097,60.361973],[15.435047,60.368885],[15.464404,60.374414],[15.499354,60.389614],[15.537099,60.398592],[15.566456,60.408258],[15.576242,60.419302],[15.580436,60.43655],[15.59162,60.461371],[15.623773,60.464817],[15.674101,60.463439],[15.699264,60.468263],[15.700513,60.478183],[15.69507,60.48824],[15.675499,60.509581],[15.675499,60.521966],[15.682488,60.543972],[15.668509,60.550159],[15.634957,60.552908],[15.595814,60.560467],[15.56366,60.551533],[15.538497,60.541222],[15.497956,60.555657],[15.468598,60.570772],[15.429455,60.5797],[15.390312,60.59755],[15.38472,60.614017],[15.380526,60.629105],[15.372138,60.638703],[15.346697,60.648205],[15.34278,60.646499],[15.299094,60.643286],[15.294386,60.643286]]]}},
{"type":"Feature","id":"SWE:ADM2:SE-W.falun","properties":{"shapeName":"Falun","shapeISO":"","shapeGroup":"SWE","shapeType":"ADM2","adm1ISO":"SE-W","parentISO":"SE-W","parentID":"SWE:ADM1:SE-W","src_shape_id":"70781695B54233926818688"},"geometry":{"type":"Polygon","coordinates":[[[15.792731,61.07407],[15.77091,61.068793],[15.720671,61.067736],[15.714118,61.042365],[15.709749,61.009563],[15.685721,60.984145],[15.6748,60.970368],[15.657325,60.960827],[15.648587,60.932186],[15.646403,60.904582],[15.646403,60.892992],[15.648587,60.891833],[15.663878,60.88652],[15.637666,60.86313],[15.611454,60.848237],[15.561214,60.848237],[15.548108,60.835466],[15.52408,60.82056],[15.484762,60.8163],[15.441076,60.809908],[15.403942,60.80245],[15.364624,60.769401],[15.34278,60.752329],[15.305647,60.742723],[15.318753,60.723501],[15.39302,60.733113],[15.42797,60.71816],[15.44326,60.701061],[15.441076,60.686092],[15.395204,60.667907],[15.362439,60.655064],[15.346697,60.648205],[15.372138,60.638703],[15.380526,60.629105],[15.38472,60.614017],[15.390312,60.59755],[15.429455,60.5797],[15.468598,60.570772],[15.497956,60.555657],[15.538497,60.541222],[15.56366,60.551533],[15.595814,60.560467],[15.634957,60.552908],[15.668509,60.550159],[15.682488,60.543972],[15.675499,60.521966],[15.675499,60.509581],[15.69507,60.48824],[15.700513,60.478183],[15.761707,60.477296],[15.826325,60.490765],[15.87603,60.522577],[15.91828,60.547027],[15.940648,60.566574],[15.980413,60.594652],[16.04503,60.615389],[16.107162,60.625143],[16.154845,60.629363],[16.164595,60.630226],[16.164794,60.631885],[16.195166,60.631885],[16.220477,60.635195],[16.23351,60.637432],[16.254224,60.640986],[16.276159,60.659181],[16.293033,60.683976],[16.311593,60.704624],[16.318343,60.718656],[16.338591,60.736807],[16.363901,60.750002],[16.385837,60.768135],[16.404187,60.789243],[16.404187,60.803394],[16.40299,60.804019],[16.367276,60.822679],[16.306637,60.861216],[16.232815,60.913807],[16.187995,60.963752],[16.164267,60.980384],[16.156357,60.994449],[16.148448,61.009786],[16.14679,61.010028],[16.122083,61.01362],[16.024533,61.016175],[15.923989,61.031328],[15.905892,61.034055],[15.855799,61.049374],[15.813615,61.063409],[15.792731,61.07407]]]}},
{"type":"Feature","id":"SWE:ADM2:SE-W.sater","properties":{"shapeName":"Säter","shapeISO":"","shapeGroup":"SWE","shapeType":"ADM2","adm1ISO":"SE-W","parentISO":"SE-W","parentID":"SWE:ADM1:SE-W","src_shape_id":"70781695B35872572180279"},"geometry":{"type":"Polygon","coordinates":[[[15.680016,60.239904],[15.714487,60.254872],[15.759222,60.264735],[15.78656,60.290611],[15.801472,60.325081],[15.838751,60.353368],[15.866089,60.371803],[15.908339,60.379174],[15.95556,60.401278],[15.958045,60.429499],[15.930707,60.441761],[15.945618,60.462597],[15.963015,60.472397],[15.972957,60.512792],[15.99781,60.527469],[16.062427,60.571459],[16.112133,60.610511],[16.154845,60.629363],[16.107162,60.625143],[16.04503,60.615389],[15.980413,60.594652],[15.940648,60.566574],[15.91828,60.547027],[15.87603,60.522577],[15.826325,60.490765],[15.761707,60.477296],[15.700513,60.478183],[15.699264,60.468263],[15.674101,60.463439],[15.623773,60.464817],[15.59162,60.461371],[15.580436,60.43655],[15.576242,60.419302],[15.566456,60.408258],[15.537099,60.398592],[15.499354,60.389614],[15.464404,60.374414],[15.435047,60.368885],[15.400097,60.361973],[15.366546,60.341918],[15.337188,60.326004],[15.262559,60.313111],[15.27725,60.312851],[15.325306,60.303114],[15.403942,60.295538],[15.500053,60.289043],[15.530633,60.276049],[15.554661,60.267383],[15.628928,60.250045],[15.680016,60.239904]]]}},
{"type":"Feature","id":"SWE:ADM2:SE-W.hedemora","properties":{"shapeName":"Hedemora","shapeISO":"","shapeGroup":"SWE","shapeType":"ADM2","adm1ISO":"SE-W","parentISO":"SE-W","parentID":"SWE:ADM1:SE-W","src_shape_id":"70781695B75139337401174"},"geometry":{"type":"Polygon","coordinates":[[[16.164595,60.630226],[16.154845,60.629363],[16.112133,60.610511],[16.062427,60.571459],[15.99781,60.527469],[15.972957,60.512792],[15.963015,60.472397],[15.945618,60.462597],[15.930707,60.441761],[15.958045,60.429499],[15.95556,60.401278],[15.908339,60.379174],[15.866089,60.371803],[15.838751,60.353368],[15.801472,60.325081],[15.78656,60.290611],[15.759222,60.264735],[15.714487,60.254872],[15.680016,60.239904],[15.683537,60.239205],[15.762173,60.221852],[15.799307,60.209916],[15.814123,60.199722],[15.837343,60.198439],[15.855799,60.189266],[15.8848,60.187955],[15.940166,60.186644],[15.958621,60.198439],[15.971804,60.20499],[16.021897,60.20368],[16.024948,60.201785],[16.064912,60.217859],[16.079824,60.230202],[16.094736,60.256105],[16.114618,60.268433],[16.144442,60.269665],[16.17178,60.259804],[16.216515,60.257338],[16.241368,60.2672],[16.268706,60.280756],[16.3035,60.296769],[16.333324,60.310313],[16.318412,60.336153],[16.315927,60.347221],[16.333324,60.363202],[16.363147,60.380403],[16.383029,60.395139],[16.408388,60.40619],[16.382462,60.421012],[16.357152,60.446822],[16.318343,60.474275],[16.284596,60.510843],[16.228913,60.539071],[16.193479,60.578052],[16.176606,60.600425],[16.163107,60.617814],[16.164595,60.630226]]]}},
{"type":"Feature","id":"SWE:ADM2:SE-W.avesta","properties":{"shapeName":"Avesta","shapeISO":"","shapeGroup":"SWE","shapeType":"ADM2","adm1ISO":"SE-W","parentISO":"SE-W","parentID":"SWE:ADM1:SE-W","src_shape_id":"70781695B88125325572611"},"geometry":{"type":"Polygon","coordinates":[[[16.408388,60.40619],[16.383029,60.395139],[16.363147,60.380403],[16.333324,60.363202],[16.315927,60.347221],[16.318412,60.336153],[16.333324,60.310313],[16.3035,60.296769],[16.268706,60.280756],[16.241368,60.2672],[16.216515,60.257338],[16.17178,60.259804],[16.144442,60.269665],[16.114618,60.268433],[16.094736,60.256105],[16.079824,60.230202],[16.064912,60.217859],[16.024948,60.201785],[16.032443,60.197129],[16.07199,60.18009],[16.085172,60.169599],[16.140539,60.160418],[16.177449,60.153858],[16.185359,60.138109],[16.164267,60.121039],[16.185359,60.105274],[16.201178,60.098703],[16.213923,60.098875],[16.315171,60.100236],[16.361606,60.100236],[16.389684,60.107234],[16.417761,60.124989],[16.450159,60.148649],[16.508473,60.156711],[16.54087,60.161547],[16.54627,60.184106],[16.581907,60.19538],[16.631582,60.214161],[16.678018,60.210943],[16.730517,60.216433],[16.733241,60.216718],[16.710019,60.225945],[16.702109,60.240343],[16.670471,60.257351],[16.649379,60.27435],[16.628288,60.296567],[16.599286,60.322684],[16.583467,60.338345],[16.565012,60.360518],[16.536011,60.383979],[16.527459,60.385313],[16.485918,60.391795],[16.414522,60.402683],[16.408388,60.40619]]]}},
{"type":"Feature","id":"SWE:ADM2:SE-W.rattvik","properties":{"shapeName":"Rättvik","shapeISO":"","shapeGroup":"SWE","shapeType":"ADM2","adm1ISO":"SE-W","parentISO":"SE-W","parentID":"SWE:ADM1:SE-W","src_shape_id":"70781695B61189370844714"},"geometry":{"type":"Polygon","coordinates":[[[15.256599,61.503999],[15.249408,61.514292],[15.21777,61.529377],[15.20935,61.552824],[15.20719,61.561053],[15.196391,61.579048],[15.180193,61.596518],[15.167234,61.596518],[15.154275,61.576992],[15.148876,61.558482],[15.139157,61.536873],[15.121056,61.526215],[15.118638,61.480093],[15.09764,61.445699],[15.094641,61.38542],[15.070643,61.330781],[15.061644,61.248643],[15.040645,61.234211],[15.034646,61.213994],[15.073642,61.196656],[15.094641,61.176415],[15.091641,61.147478],[15.082642,61.117065],[15.073642,61.099673],[15.052644,61.080821],[15.009904,61.067039],[14.998649,61.056151],[14.956653,61.032915],[14.920656,61.011115],[14.896658,60.986391],[14.905658,60.97475],[14.935655,60.954367],[14.962652,60.931056],[14.945781,60.919782],[14.981502,60.904085],[14.979997,60.903766],[15.035459,60.879432],[15.072637,60.861335],[15.103042,60.856485],[15.113425,60.851429],[15.137453,60.846109],[15.159296,60.837595],[15.259776,60.837595],[15.296909,60.846109],[15.336227,60.859939],[15.388651,60.872701],[15.42797,60.878016],[15.480394,60.882268],[15.504421,60.89077],[15.545924,60.905644],[15.578689,60.910954],[15.62456,60.904582],[15.646403,60.892992],[15.646403,60.904582],[15.648587,60.932186],[15.657325,60.960827],[15.6748,60.970368],[15.685721,60.984145],[15.709749,61.009563],[15.714118,61.042365],[15.720671,61.067736],[15.77091,61.068793],[15.792731,61.07407],[15.766158,61.087637],[15.723975,61.123307],[15.702883,61.176737],[15.681791,61.225001],[15.658063,61.249105],[15.586878,61.287127],[15.476145,61.344073],[15.365413,61.412272],[15.299501,61.452616],[15.265227,61.491649],[15.256599,61.503999]]]}}
]}