{"type":"FeatureCollection","bbox":[-65.0854,17.6845,-64.5744,18.4113], "features": [
{"type":"Feature","geometry":{"type":"Polygon","coordinates":[[[-64.6774,18.3477],[-64.6874,18.3586],[-64.7434,18.3649],[-64.7569,18.3528],[-64.7788,18.3522],[-64.7941,18.3326],[-64.765,18.3389],[-64.7619,18.319],[-64.748,18.3246],[-64.7324,18.3154],[-64.7022,18.3119],[-64.7163,18.3374],[-64.7102,18.3464],[-64.702,18.3552],[-64.6811,18.3467],[-64.6774,18.3477]]]},"properties":{"shapeName":"Central","shapeISO":"14107722B57080281041215","shapeType":"ADM3"}},
{"type":"Feature","geometry":{"type":"Polygon","coordinates":[[[-64.8843,17.7183],[-64.8858,17.7018],[-64.8648,17.7006],[-64.8843,17.7183]]]},"properties":{"shapeName":"Frederiksted","shapeISO":"14107722B15861276143824","shapeType":"ADM3"}},
{"type":"Feature","geometry":{"type":"Polygon","coordinates":[[[-64.9779,18.372],[-64.9878,18.3539],[-64.9798,18.3454],[-64.977,18.3431],[-64.9617,18.3489],[-64.9218,18.3483],[-64.9097,18.336],[-64.8988,18.3351],[-64.8918,18.3496],[-64.8895,18.3544],[-64.9213,18.3701],[-64.9779,18.372]]]},"properties":{"shapeName":"Northside","shapeISO":"14107722B24288160029538","shapeType":"ADM3"}},
{"type":"Feature","geometry":{"type":"Polygon","coordinates":[[[-64.8918,18.3496],[-64.8831,18.329],[-64.8813,18.3171],[-64.8761,18.3167],[-64.8693,18.3187],[-64.8529,18.3188],[-64.8492,18.3332],[-64.8686,18.3507],[-64.8895,18.3544],[-64.8918,18.3496]]]},"properties":{"shapeName":"East End","shapeISO":"14107722B29975845079470","shapeType":"ADM3"}},
{"type":"Feature","geometry":{"type":"Polygon","coordinates":[[[-64.696,17.7499],[-64.693,17.7451],[-64.6691,17.7373],[-64.6648,17.7145],[-64.6499,17.7237],[-64.6091,17.7369],[-64.6024,17.7458],[-64.5772,17.7458],[-64.5744,17.7598],[-64.6051,17.7545],[-64.6117,17.7605],[-64.6793,17.7607],[-64.696,17.7499]]]},"properties":{"shapeName":"East End","shapeISO":"14107722B33559227839929","shapeType":"ADM3"}},
{"type":"Feature","geometry":{"type":"Polygon","coordinates":[[[-64.8307,17.7111],[-64.8223,17.6871],[-64.7846,17.6965],[-64.7284,17.7038],[-64.7351,17.7254],[-64.7738,17.7285],[-64.8136,17.7163],[-64.8307,17.7111]]]},"properties":{"shapeName":"Southcentral","shapeISO":"14107722B28780315816844","shapeType":"ADM3"}},
{"type":"Feature","geometry":{"type":"Polygon","coordinates":[[[-64.9779,18.372],[-64.9973,18.3616],[-65.032,18.3603],[-65.0286,18.3423],[-64.9798,18.3454],[-64.9878,18.3539],[-64.9779,18.372]]]},"properties":{"shapeName":"West End","shapeISO":"14107722B91101269147428","shapeType":"ADM3"}},
{"type":"Feature","geometry":{"type":"Polygon","coordinates":[[[-64.7738,17.7285],[-64.7765,17.7367],[-64.7595,17.7681],[-64.7612,17.7811],[-64.7789,17.7838],[-64.8227,17.7662],[-64.8128,17.7422],[-64.8136,17.7163],[-64.7738,17.7285]]]},"properties":{"shapeName":"Northcentral","shapeISO":"14107722B85576057808906","shapeType":"ADM3"}},
{"type":"Feature","geometry":{"type":"Polygon","coordinates":[[[-64.693,17.7451],[-64.7203,17.7396],[-64.7351,17.7254],[-64.7284,17.7038],[-64.6921,17.7055],[-64.6648,17.7145],[-64.6691,17.7373],[-64.693,17.7451]]]},"properties":{"shapeName":"Anna's Hope Village","shapeISO":"14107722B43744720873682","shapeType":"ADM3"}},
{"type":"Feature","geometry":{"type":"Polygon","coordinates":[[[-64.8858,17.7018],[-64.8832,17.6861],[-64.8223,17.6871],[-64.8307,17.7111],[-64.8648,17.7006],[-64.8858,17.7018]]]},"properties":{"shapeName":"Southwest","shapeISO":"14107722B42287109537478","shapeType":"ADM3"}},
{"type":"Feature","geometry":{"type":"Polygon","coordinates":[[[-64.977,18.3431],[-64.9523,18.3349],[-64.9263,18.3398],[-64.9194,18.3346],[-64.9097,18.336],[-64.9218,18.3483],[-64.9617,18.3489],[-64.977,18.3431]]]},"properties":{"shapeName":"Charlotte Amalie","shapeISO":"14107722B76650624566102","shapeType":"ADM3"}},
{"type":"Feature","geometry":{"type":"Polygon","coordinates":[[[-64.9097,18.336],[-64.9194,18.3346],[-64.9194,18.3201],[-64.8986,18.3098],[-64.8813,18.3171],[-64.8831,18.329],[-64.8988,18.3351],[-64.9097,18.336]]]},"properties":{"shapeName":"Southside","shapeISO":"14107722B32705273814462","shapeType":"ADM3"}},
{"type":"Feature","geometry":{"type":"Polygon","coordinates":[[[-64.8988,18.3351],[-64.8831,18.329],[-64.8918,18.3496],[-64.8988,18.3351]]]},"properties":{"shapeName":"Tutu","shapeISO":"14107722B9156851144334","shapeType":"ADM3"}},
{"type":"Feature","geometry":{"type":"Polygon","coordinates":[[[-64.8648,17.7006],[-64.8307,17.7111],[-64.8136,17.7163],[-64.8128,17.7422],[-64.8227,17.7662],[-64.8399,17.7616],[-64.878,17.7696],[-64.894,17.7474],[-64.8843,17.7183],[-64.8648,17.7006]]]},"properties":{"shapeName":"Northwest","shapeISO":"14107722B90781227780181","shapeType":"ADM3"}},
{"type":"Feature","geometry":{"type":"Polygon","coordinates":[[[-64.7022,18.3119],[-64.6996,18.3284],[-64.7102,18.3464],[-64.7163,18.3374],[-64.7022,18.3119]]]},"properties":{"shapeName":"Coral Bay","shapeISO":"14107722B12871426157568","shapeType":"ADM3"}},
{"type":"Feature","geometry":{"type":"Polygon","coordinates":[[[-64.9609,18.3137],[-64.9535,18.3081],[-64.9483,18.321],[-64.9609,18.3137]]]},"properties":{"shapeName":"Water Island","shapeISO":"14107722B91344262939858","shapeType":"ADM3"}},
{"type":"Feature","geometry":{"type":"Polygon","coordinates":[[[-64.7351,17.7254],[-64.7203,17.7396],[-64.7115,17.7487],[-64.7314,17.7623],[-64.749,17.7834],[-64.7595,17.7681],[-64.7765,17.7367],[-64.7738,17.7285],[-64.7351,17.7254]]]},"properties":{"shapeName":"Sion Farm","shapeISO":"14107722B29624786914200","shapeType":"ADM3"}},
{"type":"Feature","geometry":{"type":"Polygon","coordinates":[[[-64.7941,18.3326],[-64.7918,18.3177],[-64.7619,18.319],[-64.765,18.3389],[-64.7941,18.3326]]]},"properties":{"shapeName":"Cruz Bay","shapeISO":"14107722B26143784528084","shapeType":"ADM3"}},
{"type":"Feature","geometry":{"type":"Polygon","coordinates":[[[-64.696,17.7499],[-64.7115,17.7487],[-64.7203,17.7396],[-64.693,17.7451],[-64.696,17.7499]]]},"properties":{"shapeName":"Christiansted","shapeISO":"14107722B79998694319746","shapeType":"ADM3"}},
{"type":"Feature","geometry":{"type":"Polygon","coordinates":[[[-64.6811,18.3467],[-64.6687,18.3314],[-64.6611,18.3437],[-64.6774,18.3477],[-64.6811,18.3467]]]},"properties":{"shapeName":"East End","shapeISO":"14107722B55601588722947","shapeType":"ADM3"}}
]}