{"type":"FeatureCollection","bbox":[20.6232,59.898,31.5695,70.0753],"features":[
{"type":"Feature","id":"FIN:ADM0:FIN","properties":{"shapeName":"Finland","shapeISO":"FIN","shapeType":"ADM0"},"geometry":{"type":"MultiPolygon","coordinates":[[[[28.9541,69.0273],[28.8648,69.2166],[29.3445,69.4644],[29.1312,69.6742],[28.4046,69.8023],[27.8669,70.0753],[27.6126,70.0621],[27.3118,69.9295],[26.5007,69.9183],[26.1983,69.7154],[26.032,69.6967],[25.8867,69.5209],[25.8774,69.3708],[25.7341,69.1913],[25.8011,69.0132],[25.6516,68.8835],[25.2013,68.8126],[25.1176,68.6377],[24.8609,68.5634],[24.6634,68.6661],[24.3325,68.7086],[23.929,68.8162],[23.7348,68.7154],[23.1976,68.618],[23.0193,68.6867],[22.5965,68.7246],[22.0231,69.012],[21.6629,69.2632],[21.3136,69.2914],[20.6232,69.0364],[20.9346,68.967],[21.4636,68.6869],[21.9192,68.5682],[22.0722,68.477],[22.6076,68.4249],[23.0522,68.2982],[23.1517,68.1303],[23.6612,67.9329],[23.4989,67.8822],[23.5535,67.587],[23.4313,67.4855],[23.7652,67.4201],[23.7354,67.2897],[23.5813,67.1531],[24.0013,66.8124],[23.8924,66.7509],[23.8819,66.5635],[23.6423,66.4363],[23.7242,66.2066],[23.8893,66.1611],[24.1634,65.8408],[24.5188,65.796],[24.6711,65.645],[25.0855,65.6052],[25.3518,65.4841],[25.2825,65.1914],[25.4435,64.9668],[25.2595,64.8165],[25.0737,64.9161],[24.7731,64.8658],[24.4229,64.6756],[24.3441,64.5307],[23.9961,64.3799],[23.7244,64.2089],[23.6045,64.0277],[22.9224,63.8017],[22.4972,63.623],[22.4284,63.4888],[22.1956,63.4312],[22.3737,63.3214],[21.9055,63.1754],[21.6154,63.2039],[21.4408,63.0378],[21.3828,62.8746],[21.1135,62.7812],[21.1935,62.6009],[21.1156,62.4958],[21.2051,62.3597],[21.339,62.3555],[21.2366,61.985],[21.3714,61.9391],[21.6234,61.5459],[21.5103,61.5195],[21.5435,61.2251],[21.3357,61.0046],[21.3259,60.8349],[21.47,60.6083],[21.7739,60.6039],[22.0645,60.4363],[22.2915,60.3826],[22.6276,60.3754],[22.4495,60.2452],[22.7362,60.2382],[22.9412,60.3165],[23.0076,60.277],[22.8672,60.1837],[23.0594,60.0397],[23.2051,60.0497],[23.2372,59.898],[23.5619,59.9776],[23.7713,59.968],[24.2959,60.0722],[24.4681,59.9964],[24.6082,60.1012],[25.177,60.1833],[25.1975,60.2452],[25.7355,60.2473],[26.0946,60.4233],[26.324,60.383],[26.4857,60.4438],[26.6873,60.4182],[26.9982,60.488],[27.0544,60.5468],[27.4568,60.4637],[27.7054,60.4854],[28.7976,61.0968],[29.2032,61.2459],[29.5397,61.485],[29.7791,61.5931],[30.635,62.184],[30.9076,62.2929],[31.2222,62.4917],[31.5695,62.9059],[31.2508,63.1155],[31.2257,63.196],[30.8209,63.3757],[30.4887,63.4621],[29.9808,63.7415],[30.2015,63.7926],[30.5093,63.9914],[30.5585,64.2197],[30.0931,64.3612],[29.9658,64.5786],[30.1705,64.6817],[30.0625,64.7842],[29.7803,64.7956],[29.5881,64.9914],[29.8205,65.0937],[29.7201,65.3291],[29.7029,65.6294],[30.1117,65.712],[29.9002,66.1081],[29.5932,66.3459],[29.5245,66.4912],[29.0892,66.8375],[29.0999,66.9911],[29.5198,67.2982],[29.9162,67.5081],[30.0094,67.6858],[29.6512,67.8236],[29.2987,68.0818],[28.6638,68.204],[28.4474,68.5149],[28.8015,68.8355],[28.4562,68.9001],[28.9541,69.0273]]],[[[22.8435,60.2418],[22.4665,60.1837],[22.4699,59.9975],[22.8469,60.111],[22.8435,60.2418]]]]}}
]}