{"type":"FeatureCollection","bbox":[20.456,40.8557,23.0322,42.3526],"features":[
{"type":"Feature","id":"MKD:ADM1:pelagonia","properties":{"shapeName":"Pelagonia","shapeISO":"pelagonia","shapeType":"ADM1"},"geometry":{"type":"Polygon","coordinates":[[[21.9296,41.1002],[21.9317,41.1367],[21.8165,41.3069],[21.8085,41.4285],[21.7501,41.4836],[21.6533,41.4396],[21.4783,41.5047],[21.4246,41.5963],[21.3739,41.6055],[21.3327,41.5164],[21.2281,41.442],[21.1369,41.4265],[21.0938,41.3603],[21.0202,41.3621],[20.9542,41.3169],[21.0264,41.2043],[20.903,41.1249],[20.8377,40.9277],[20.9493,40.9208],[20.9802,40.8557],[21.253,40.8619],[21.4162,40.9169],[21.5319,40.9064],[21.5932,40.866],[21.6899,40.9407],[21.7833,40.9287],[21.8015,40.9761],[21.912,41.0494],[21.9296,41.1002]]]}},
{"type":"Feature","id":"MKD:ADM1:southwest","properties":{"shapeName":"Southwest","shapeISO":"southwest","shapeType":"ADM1"},"geometry":{"type":"Polygon","coordinates":[[[21.3739,41.6055],[21.3935,41.718],[21.3428,41.7313],[21.2379,41.83],[21.1426,41.8424],[21.0109,41.7773],[21.0557,41.6726],[20.9613,41.6432],[20.8308,41.6678],[20.8292,41.5832],[20.7731,41.4933],[20.5563,41.582],[20.456,41.5538],[20.5143,41.438],[20.5574,41.4168],[20.5161,41.3369],[20.5155,41.2328],[20.5972,41.1271],[20.6706,41.0874],[20.7325,40.9116],[20.8377,40.9277],[20.903,41.1249],[21.0264,41.2043],[20.9542,41.3169],[21.0202,41.3621],[21.0938,41.3603],[21.1369,41.4265],[21.2281,41.442],[21.3327,41.5164],[21.3739,41.6055]]]}},
{"type":"Feature","id":"MKD:ADM1:vardar","properties":{"shapeName":"Vardar","shapeISO":"vardar","shapeType":"ADM1"},"geometry":{"type":"Polygon","coordinates":[[[21.9296,41.1002],[22.0669,41.1576],[22.1466,41.1269],[22.2157,41.1686],[22.2927,41.251],[22.2957,41.3218],[22.3468,41.3458],[22.3489,41.4748],[22.2664,41.5564],[22.1214,41.6322],[21.9672,41.6759],[21.9786,41.734],[22.0533,41.7447],[22.1088,41.8332],[22.1148,41.9018],[22.0356,41.9746],[22.0342,42.0159],[21.8736,42.0108],[21.8213,41.9606],[21.7332,41.8517],[21.6312,41.8189],[21.5786,41.7493],[21.4526,41.7565],[21.3935,41.718],[21.3739,41.6055],[21.4246,41.5963],[21.4783,41.5047],[21.6533,41.4396],[21.7501,41.4836],[21.8085,41.4285],[21.8165,41.3069],[21.9317,41.1367],[21.9296,41.1002]]]}},
{"type":"Feature","id":"MKD:ADM1:polog","properties":{"shapeName":"Polog","shapeISO":"polog","shapeType":"ADM1"},"geometry":{"type":"Polygon","coordinates":[[[21.2379,41.83],[21.1499,42.0128],[21.2137,42.1109],[21.1581,42.1981],[21.1063,42.2057],[20.8893,42.0968],[20.7908,42.0831],[20.7481,41.9864],[20.7722,41.9211],[20.728,41.8643],[20.559,41.8637],[20.5667,41.8019],[20.5194,41.7465],[20.5172,41.6613],[20.5563,41.582],[20.7731,41.4933],[20.8292,41.5832],[20.8308,41.6678],[20.9613,41.6432],[21.0557,41.6726],[21.0109,41.7773],[21.1426,41.8424],[21.2379,41.83]]]}},
{"type":"Feature","id":"MKD:ADM1:southeast","properties":{"shapeName":"Southeast","shapeISO":"southeast","shapeType":"ADM1"},"geometry":{"type":"Polygon","coordinates":[[[22.2157,41.1686],[22.462,41.1188],[22.6177,41.1336],[22.6632,41.1851],[22.7474,41.163],[22.7681,41.3255],[22.9353,41.3405],[22.9795,41.4469],[22.9683,41.5198],[22.8131,41.528],[22.6476,41.6825],[22.6264,41.7498],[22.4656,41.7873],[22.3873,41.6829],[22.3101,41.6544],[22.3287,41.5937],[22.2664,41.5564],[22.3489,41.4748],[22.3468,41.3458],[22.2957,41.3218],[22.2927,41.251],[22.2157,41.1686]]]}},
{"type":"Feature","id":"MKD:ADM1:east","properties":{"shapeName":"East","shapeISO":"east","shapeType":"ADM1"},"geometry":{"type":"Polygon","coordinates":[[[22.2664,41.5564],[22.3287,41.5937],[22.3101,41.6544],[22.3873,41.6829],[22.4656,41.7873],[22.6264,41.7498],[22.6476,41.6825],[22.8131,41.528],[22.9683,41.5198],[22.949,41.6338],[23.0322,41.7097],[22.9648,41.7732],[22.8768,41.9339],[22.8672,42.0222],[22.6801,42.0635],[22.5104,42.1552],[22.2715,42.0685],[22.0342,42.0159],[22.0356,41.9746],[22.1148,41.9018],[22.1088,41.8332],[22.0533,41.7447],[21.9786,41.734],[21.9672,41.6759],[22.1214,41.6322],[22.2664,41.5564]]]}},
{"type":"Feature","id":"MKD:ADM1:skopje","properties":{"shapeName":"Skopje","shapeISO":"skopje","shapeType":"ADM1"},"geometry":{"type":"Polygon","coordinates":[[[21.3935,41.718],[21.4526,41.7565],[21.5786,41.7493],[21.6312,41.8189],[21.7332,41.8517],[21.8213,41.9606],[21.7412,41.9736],[21.6112,42.0814],[21.5591,42.0672],[21.4431,42.2356],[21.3574,42.2193],[21.2684,42.0947],[21.2137,42.1109],[21.1499,42.0128],[21.2379,41.83],[21.3428,41.7313],[21.3935,41.718]]]}},
{"type":"Feature","id":"MKD:ADM1:northeast","properties":{"shapeName":"Northeast","shapeISO":"northeast","shapeType":"ADM1"},"geometry":{"type":"Polygon","coordinates":[[[22.0342,42.0159],[22.2715,42.0685],[22.5104,42.1552],[22.3785,42.3091],[22.2909,42.3526],[22.0637,42.3001],[21.9484,42.3434],[21.8482,42.3257],[21.6936,42.2347],[21.6048,42.2555],[21.4431,42.2356],[21.5591,42.0672],[21.6112,42.0814],[21.7412,41.9736],[21.8213,41.9606],[21.8736,42.0108],[22.0342,42.0159]]]}}
]}