{"type":"FeatureCollection","bbox":[26.6179,45.4946,29.9526,48.4724],"features":[
{"type":"Feature","id":"MDA:ADM0:MDA","properties":{"shapeName":"Moldova","shapeISO":"MDA","shapeType":"ADM0"},"geometry":{"type":"Polygon","coordinates":[[[26.6179,48.259],[26.8049,48.2583],[27.048,48.1222],[27.272,47.715],[27.5632,47.4683],[27.8066,47.1446],[28.037,47.0165],[28.2341,46.6624],[28.2461,46.4279],[28.0861,46.0006],[28.1659,45.4946],[28.4809,45.502],[28.474,45.6579],[28.932,45.9932],[29.0154,46.1826],[28.9458,46.4548],[29.1627,46.5381],[29.2833,46.3974],[29.727,46.4558],[29.8478,46.3415],[29.9526,46.7247],[29.8436,46.8541],[29.5587,46.9457],[29.5566,47.324],[29.3589,47.3527],[29.1174,47.5333],[29.2386,47.756],[29.124,47.976],[28.9504,47.9348],[28.7993,48.1118],[28.1999,48.2117],[27.7518,48.452],[27.5038,48.4724],[27.1758,48.3618],[26.8428,48.3937],[26.6179,48.259]]]}}
]}