{"type":"FeatureCollection","bbox":[-102.874177,21.622266,-101.835289,22.45959],"features":[
{"type":"Feature","id":"MEX:ADM2:MX-AGU.jesus-maria","properties":{"shapeName":"Jesús María","shapeISO":"","shapeGroup":"MEX","shapeType":"ADM2","adm1ISO":"MX-AGU","parentISO":"MX-AGU","parentID":"MEX:ADM1:MX-AGU","src_shape_id":"50627088B43766130092771"},"geometry":{"type":"Polygon","coordinates":[[[-102.31034,22.03716],[-102.319377,22.040419],[-102.321639,22.034573],[-102.332594,22.032403],[-102.332274,22.026735],[-102.337082,22.026842],[-102.338109,22.035676],[-102.333009,22.035768],[-102.334582,22.046446],[-102.325094,22.045892],[-102.326714,22.049752],[-102.335678,22.050665],[-102.336209,22.056186],[-102.335582,22.057465],[-102.337588,22.060117],[-102.351983,22.061686],[-102.354767,22.062767],[-102.35698,22.050438],[-102.359445,22.050603],[-102.360484,22.04698],[-102.362202,22.04587],[-102.365476,22.046723],[-102.367606,22.050399],[-102.36996,22.053186],[-102.371052,22.051237],[-102.375801,22.053659],[-102.377917,22.055423],[-102.37993,22.059099],[-102.38174,22.059071],[-102.384075,22.053598],[-102.383213,22.044349],[-102.387286,22.040319],[-102.416591,22.04043],[-102.41615,22.028097],[-102.417634,22.02802],[-102.420409,22.023904],[-102.420898,22.019569],[-102.426601,22.018365],[-102.430501,22.008771],[-102.432148,21.995844],[-102.433317,21.99513],[-102.425759,21.993064],[-102.422827,21.990976],[-102.424133,21.988844],[-102.447339,21.986739],[-102.45164,21.981961],[-102.451783,21.979667],[-102.453969,21.979519],[-102.460102,21.982749],[-102.463789,21.981641],[-102.468083,21.981289],[-102.472725,21.994876],[-102.477641,21.996828],[-102.484909,21.996925],[-102.48871,21.995571],[-102.489375,21.996408],[-102.489045,22.001762],[-102.495613,22.002773],[-102.50143,22.003218],[-102.50304,21.999552],[-102.504471,21.99866],[-102.505048,21.992824],[-102.499694,21.991289],[-102.501281,21.986925],[-102.499247,21.983859],[-102.497294,21.983408],[-102.495423,21.984705],[-102.494052,21.977498],[-102.491629,21.973766],[-102.491294,21.970741],[-102.492078,21.969517],[-102.496987,21.969071],[-102.501418,21.970988],[-102.507517,21.975195],[-102.510493,21.97359],[-102.53238,21.970563],[-102.53428,21.968977],[-102.536171,21.969618],[-102.538843,21.966616],[-102.541343,21.970622],[-102.54426,21.971433],[-102.547893,21.970098],[-102.550382,21.970574],[-102.554691,21.965178],[-102.55523,21.962129],[-102.568726,21.963922],[-102.573936,21.968043],[-102.576251,21.967781],[-102.578194,21.96293],[-102.578549,21.960309],[-102.579856,21.958054],[-102.580024,21.954048],[-102.584386,21.952768],[-102.584596,21.950509],[-102.582992,21.947884],[-102.583143,21.944535],[-102.582573,21.940648],[-102.593539,21.942197],[-102.593722,21.93578],[-102.595361,21.93415],[-102.593019,21.932133],[-102.592734,21.928729],[-102.592758,21.917404],[-102.585993,21.916822],[-102.586129,21.914889],[-102.589418,21.91284],[-102.583178,21.912013],[-102.583683,21.908878],[-102.582604,21.906578],[-102.579948,21.905727],[-102.584894,21.902678],[-102.585989,21.900881],[-102.588766,21.901048],[-102.589305,21.89909],[-102.579994,21.899062],[-102.584054,21.894675],[-102.58505,21.888268],[-102.586834,21.886353],[-102.587918,21.88184],[-102.589839,21.880993],[-102.590476,21.879093],[-102.584867,21.877837],[-102.585695,21.87316],[-102.584976,21.869665],[-102.591766,21.867096],[-102.592914,21.86551],[-102.596653,21.866168],[-102.598873,21.864791],[-102.595833,21.847222],[-102.593834,21.846652],[-102.593479,21.844099],[-102.589755,21.84313],[-102.591772,21.829898],[-102.585287,21.829066],[-102.588855,21.806969],[-102.586047,21.809423],[-102.581326,21.812352],[-102.576958,21.813509],[-102.56989,21.816725],[-102.566088,21.817156],[-102.56434,21.816556],[-102.561228,21.817723],[-102.555602,21.817924],[-102.552273,21.817516],[-102.548931,21.815134],[-102.544542,21.809562],[-102.540846,21.80636],[-102.534843,21.810109],[-102.528124,21.812374],[-102.519104,21.809895],[-102.517086,21.81522],[-102.515583,21.816364],[-102.513196,21.814553],[-102.509965,21.81483],[-102.508097,21.81347],[-102.50453,21.815583],[-102.500664,21.813702],[-102.49893,21.815141],[-102.495131,21.816351],[-102.4741,21.817017],[-102.476097,21.814356],[-102.46178,21.814604],[-102.462987,21.81738],[-102.456478,21.817589],[-102.451306,21.829623],[-102.447308,21.830914],[-102.4413,21.835132],[-102.436586,21.841264],[-102.434552,21.845384],[-102.435525,21.849484],[-102.432171,21.852901],[-102.432371,21.858278],[-102.430643,21.865547],[-102.428311,21.866189],[-102.42835,21.869912],[-102.425771,21.871616],[-102.425195,21.874002],[-102.421521,21.877526],[-102.422198,21.878287],[-102.42149,21.884924],[-102.420493,21.88642],[-102.416619,21.88868],[-102.414819,21.889082],[-102.412547,21.891544],[-102.403978,21.89383],[-102.399479,21.894258],[-102.388692,21.894149],[-102.390296,21.895527],[-102.390634,21.89835],[-102.393153,21.897999],[-102.396608,21.905938],[-102.389948,21.905382],[-102.388282,21.909325],[-102.378532,21.907774],[-102.378008,21.906723],[-102.374654,21.907638],[-102.373661,21.906661],[-102.36587,21.905402],[-102.363777,21.916812],[-102.361411,21.915074],[-102.346202,21.912351],[-102.346298,21.927355],[-102.344327,21.927972],[-102.339245,21.927569],[-102.343404,21.93901],[-102.335939,21.938327],[-102.324777,21.93695],[-102.30842,21.934394],[-102.308515,21.947675],[-102.290659,21.944558],[-102.290526,21.946882],[-102.283058,21.946818],[-102.2788,21.958414],[-102.273485,21.972612],[-102.286911,21.976853],[-102.287558,21.974059],[-102.28918,21.97412],[-102.288609,21.980312],[-102.284648,21.981468],[-102.28364,21.980456],[-102.278044,21.978885],[-102.272349,21.976506],[-102.270545,21.977625],[-102.269305,21.98007],[-102.269188,21.982767],[-102.274026,21.986073],[-102.280778,21.98518],[-102.278533,21.991106],[-102.274771,21.995215],[-102.273644,22.00035],[-102.277869,21.999059],[-102.282404,22.002899],[-102.28374,22.002993],[-102.282286,22.007232],[-102.278959,22.006761],[-102.277783,22.005493],[-102.272915,22.004645],[-102.272611,22.006676],[-102.267748,22.008943],[-102.265137,22.00942],[-102.266295,22.013454],[-102.265588,22.015612],[-102.265581,22.020658],[-102.280557,22.021201],[-102.279097,22.03325],[-102.296189,22.033101],[-102.298077,22.031483],[-102.301327,22.031109],[-102.302886,22.033038],[-102.306448,22.033051],[-102.308058,22.027852],[-102.309057,22.027475],[-102.309612,22.032601],[-102.306529,22.035785],[-102.31034,22.03716]]]}},
{"type":"Feature","id":"MEX:ADM2:MX-AGU.san-francisco-de-los-romo","properties":{"shapeName":"San Francisco de los Romo","shapeISO":"","shapeGroup":"MEX","shapeType":"ADM2","adm1ISO":"MX-AGU","parentISO":"MX-AGU","parentID":"MEX:ADM1:MX-AGU","src_shape_id":"50627088B17251995909944"},"geometry":{"type":"Polygon","coordinates":[[[-102.2788,21.958414],[-102.272285,21.957276],[-102.274141,21.95379],[-102.270551,21.953222],[-102.270799,21.951969],[-102.266376,21.951647],[-102.267006,21.943965],[-102.264562,21.943355],[-102.258982,21.947405],[-102.252288,21.949982],[-102.249474,21.952003],[-102.248406,21.950014],[-102.234515,21.95692],[-102.230013,21.961357],[-102.227616,21.974778],[-102.218158,21.973298],[-102.205457,21.971573],[-102.203173,21.971554],[-102.207771,21.994715],[-102.212314,21.994157],[-102.214742,21.996333],[-102.226247,21.997035],[-102.229095,21.999203],[-102.227194,22.009986],[-102.223416,22.010649],[-102.222815,22.031466],[-102.209269,22.028811],[-102.207915,22.037947],[-102.179655,22.03318],[-102.176655,22.041167],[-102.166227,22.039726],[-102.17105,22.025732],[-102.157821,22.026436],[-102.157954,22.017783],[-102.154299,22.01979],[-102.153202,22.02253],[-102.150331,22.023232],[-102.144333,22.025856],[-102.143925,22.027042],[-102.13895,22.028367],[-102.134634,22.029013],[-102.143339,22.034021],[-102.144567,22.035417],[-102.138518,22.060247],[-102.140881,22.075343],[-102.143679,22.07797],[-102.144196,22.080789],[-102.14726,22.086267],[-102.149996,22.088681],[-102.156573,22.091177],[-102.156376,22.097852],[-102.16286,22.100328],[-102.165563,22.09312],[-102.171436,22.083752],[-102.180303,22.084278],[-102.184604,22.065242],[-102.191037,22.066102],[-102.193332,22.063598],[-102.19402,22.057382],[-102.196731,22.056083],[-102.199502,22.055918],[-102.201141,22.059548],[-102.203354,22.061937],[-102.198349,22.06397],[-102.197707,22.066992],[-102.199319,22.06909],[-102.202507,22.067906],[-102.204048,22.071851],[-102.206208,22.071935],[-102.209274,22.073597],[-102.211476,22.073397],[-102.215783,22.076524],[-102.220862,22.07786],[-102.22268,22.076444],[-102.225738,22.077989],[-102.222931,22.081555],[-102.224237,22.084281],[-102.226212,22.086122],[-102.2353,22.085444],[-102.260468,22.087184],[-102.260764,22.079405],[-102.268524,22.079854],[-102.273671,22.088104],[-102.278078,22.0885],[-102.279271,22.089197],[-102.28321,22.087336],[-102.285182,22.082562],[-102.291765,22.082218],[-102.291895,22.083629],[-102.296349,22.084299],[-102.296521,22.075477],[-102.287509,22.074162],[-102.287678,22.068222],[-102.286054,22.063714],[-102.28638,22.062206],[-102.291461,22.054921],[-102.296935,22.05031],[-102.300055,22.050942],[-102.300591,22.048825],[-102.30457,22.04516],[-102.31034,22.03716],[-102.306529,22.035785],[-102.309612,22.032601],[-102.309057,22.027475],[-102.308058,22.027852],[-102.306448,22.033051],[-102.302886,22.033038],[-102.301327,22.031109],[-102.298077,22.031483],[-102.296189,22.033101],[-102.279097,22.03325],[-102.280557,22.021201],[-102.265581,22.020658],[-102.265588,22.015612],[-102.266295,22.013454],[-102.265137,22.00942],[-102.267748,22.008943],[-102.272611,22.006676],[-102.272915,22.004645],[-102.277783,22.005493],[-102.278959,22.006761],[-102.282286,22.007232],[-102.28374,22.002993],[-102.282404,22.002899],[-102.277869,21.999059],[-102.273644,22.00035],[-102.274771,21.995215],[-102.278533,21.991106],[-102.280778,21.98518],[-102.274026,21.986073],[-102.269188,21.982767],[-102.269305,21.98007],[-102.270545,21.977625],[-102.272349,21.976506],[-102.278044,21.978885],[-102.28364,21.980456],[-102.284648,21.981468],[-102.288609,21.980312],[-102.28918,21.97412],[-102.287558,21.974059],[-102.286911,21.976853],[-102.273485,21.972612],[-102.2788,21.958414]]]}},
{"type":"Feature","id":"MEX:ADM2:MX-AGU.aguascalientes","properties":{"shapeName":"Aguascalientes","shapeISO":"","shapeGroup":"MEX","shapeType":"ADM2","adm1ISO":"MX-AGU","parentISO":"MX-AGU","parentID":"MEX:ADM1:MX-AGU","src_shape_id":"50627088B6632860871958"},"geometry":{"type":"Polygon","coordinates":[[[-102.540846,21.80636],[-102.544826,21.802539],[-102.540095,21.797074],[-102.538554,21.794711],[-102.538273,21.791991],[-102.534173,21.790067],[-102.529619,21.784536],[-102.534995,21.781256],[-102.547357,21.781286],[-102.553894,21.780003],[-102.555566,21.775202],[-102.554879,21.771792],[-102.551398,21.769209],[-102.551692,21.767272],[-102.554998,21.768382],[-102.557342,21.767324],[-102.559208,21.764128],[-102.559639,21.759243],[-102.558736,21.757841],[-102.559383,21.755118],[-102.564846,21.755561],[-102.566615,21.754831],[-102.566659,21.752565],[-102.570714,21.750251],[-102.576837,21.748891],[-102.57659,21.745833],[-102.583143,21.747102],[-102.58314,21.743858],[-102.573595,21.742506],[-102.567421,21.744592],[-102.558667,21.743661],[-102.555208,21.743574],[-102.552494,21.742651],[-102.54895,21.738593],[-102.540977,21.73558],[-102.542452,21.732604],[-102.526734,21.724967],[-102.51717,21.7206],[-102.484286,21.704992],[-102.476522,21.702085],[-102.476935,21.698471],[-102.475757,21.694945],[-102.473039,21.695537],[-102.468362,21.697903],[-102.456864,21.698088],[-102.456706,21.696009],[-102.454465,21.692226],[-102.454598,21.689477],[-102.45222,21.687452],[-102.454775,21.684964],[-102.454463,21.682475],[-102.456689,21.682374],[-102.461066,21.679259],[-102.452453,21.678384],[-102.453919,21.681015],[-102.451206,21.681959],[-102.449251,21.681198],[-102.446579,21.678249],[-102.442334,21.674817],[-102.441455,21.673419],[-102.435665,21.673204],[-102.425006,21.671755],[-102.419628,21.669406],[-102.41337,21.666809],[-102.404595,21.665593],[-102.407493,21.659485],[-102.386944,21.653783],[-102.384398,21.651887],[-102.381098,21.651407],[-102.38026,21.652421],[-102.369526,21.650592],[-102.366874,21.642752],[-102.340184,21.628783],[-102.325722,21.622266],[-102.321051,21.630092],[-102.317418,21.628342],[-102.310166,21.626626],[-102.301281,21.642924],[-102.295371,21.653099],[-102.302649,21.6546],[-102.301935,21.661269],[-102.30399,21.666685],[-102.289366,21.66554],[-102.279442,21.664437],[-102.279634,21.660648],[-102.278094,21.657318],[-102.275219,21.653974],[-102.250916,21.655144],[-102.248555,21.653859],[-102.244792,21.652993],[-102.240393,21.65296],[-102.237618,21.652001],[-102.236033,21.653787],[-102.233606,21.653196],[-102.229723,21.655736],[-102.226997,21.65681],[-102.220546,21.671576],[-102.221698,21.672488],[-102.218008,21.677686],[-102.218768,21.678473],[-102.218542,21.683426],[-102.214232,21.686604],[-102.214267,21.694819],[-102.194246,21.691231],[-102.177886,21.688155],[-102.173772,21.700994],[-102.171433,21.707001],[-102.16643,21.706013],[-102.166595,21.702495],[-102.154857,21.700038],[-102.151606,21.703412],[-102.147308,21.705776],[-102.145587,21.704442],[-102.1421,21.705374],[-102.138762,21.713031],[-102.136346,21.720493],[-102.134351,21.722023],[-102.130265,21.723192],[-102.128288,21.72668],[-102.125529,21.725816],[-102.120893,21.736447],[-102.11957,21.735625],[-102.116213,21.736526],[-102.113864,21.740761],[-102.116427,21.743062],[-102.112991,21.7458],[-102.111741,21.745508],[-102.109343,21.749437],[-102.104657,21.751851],[-102.102495,21.75365],[-102.102076,21.755267],[-102.103367,21.758359],[-102.101563,21.761577],[-102.092795,21.765124],[-102.088696,21.767128],[-102.086181,21.767264],[-102.094571,21.777702],[-102.083074,21.787067],[-102.073977,21.782934],[-102.071963,21.782655],[-102.064508,21.796205],[-102.068797,21.798914],[-102.070416,21.798015],[-102.071678,21.794732],[-102.078639,21.796158],[-102.092048,21.799441],[-102.097768,21.800432],[-102.099306,21.801527],[-102.104982,21.80303],[-102.107647,21.799143],[-102.115028,21.800155],[-102.117313,21.794118],[-102.124612,21.795672],[-102.131961,21.796649],[-102.132566,21.793171],[-102.140815,21.794484],[-102.142452,21.7955],[-102.142773,21.791334],[-102.145355,21.791662],[-102.14595,21.787849],[-102.153451,21.788871],[-102.150526,21.809618],[-102.160415,21.811318],[-102.157868,21.829713],[-102.170772,21.831969],[-102.169798,21.839471],[-102.167583,21.842941],[-102.176041,21.843824],[-102.175053,21.870537],[-102.157135,21.869244],[-102.155888,21.893567],[-102.155382,21.910816],[-102.16213,21.907751],[-102.162021,21.919638],[-102.166137,21.919541],[-102.164202,21.937124],[-102.154246,21.936235],[-102.139009,21.937534],[-102.131299,21.937205],[-102.131003,21.939712],[-102.134906,21.940393],[-102.138043,21.943165],[-102.136408,21.953721],[-102.131887,21.976838],[-102.108301,21.97416],[-102.105658,21.972686],[-102.100512,21.972661],[-102.100892,21.964905],[-102.097341,21.960912],[-102.092442,21.961141],[-102.094289,21.97234],[-102.075383,21.969422],[-102.069412,21.968981],[-102.068176,21.971003],[-102.070924,21.973988],[-102.068666,21.977936],[-102.072352,21.980688],[-102.084598,21.9861],[-102.092487,21.992504],[-102.095017,21.99502],[-102.09714,21.996121],[-102.097445,22.012848],[-102.098566,22.014003],[-102.097751,22.023247],[-102.109606,22.027162],[-102.112576,22.030778],[-102.112836,22.033281],[-102.115983,22.037276],[-102.117087,22.042574],[-102.115526,22.044522],[-102.112399,22.04463],[-102.110917,22.045752],[-102.110587,22.04805],[-102.112759,22.050951],[-102.111164,22.053188],[-102.106337,22.054971],[-102.105783,22.057428],[-102.103681,22.05741],[-102.107123,22.061204],[-102.118064,22.074902],[-102.140881,22.075343],[-102.138518,22.060247],[-102.144567,22.035417],[-102.143339,22.034021],[-102.134634,22.029013],[-102.13895,22.028367],[-102.143925,22.027042],[-102.144333,22.025856],[-102.150331,22.023232],[-102.153202,22.02253],[-102.154299,22.01979],[-102.157954,22.017783],[-102.157821,22.026436],[-102.17105,22.025732],[-102.166227,22.039726],[-102.176655,22.041167],[-102.179655,22.03318],[-102.207915,22.037947],[-102.209269,22.028811],[-102.222815,22.031466],[-102.223416,22.010649],[-102.227194,22.009986],[-102.229095,21.999203],[-102.226247,21.997035],[-102.214742,21.996333],[-102.212314,21.994157],[-102.207771,21.994715],[-102.203173,21.971554],[-102.205457,21.971573],[-102.218158,21.973298],[-102.227616,21.974778],[-102.230013,21.961357],[-102.234515,21.95692],[-102.248406,21.950014],[-102.249474,21.952003],[-102.252288,21.949982],[-102.258982,21.947405],[-102.264562,21.943355],[-102.267006,21.943965],[-102.266376,21.951647],[-102.270799,21.951969],[-102.270551,21.953222],[-102.274141,21.95379],[-102.272285,21.957276],[-102.2788,21.958414],[-102.283058,21.946818],[-102.290526,21.946882],[-102.290659,21.944558],[-102.308515,21.947675],[-102.30842,21.934394],[-102.324777,21.93695],[-102.335939,21.938327],[-102.343404,21.93901],[-102.339245,21.927569],[-102.344327,21.927972],[-102.346298,21.927355],[-102.346202,21.912351],[-102.361411,21.915074],[-102.363777,21.916812],[-102.36587,21.905402],[-102.373661,21.906661],[-102.374654,21.907638],[-102.378008,21.906723],[-102.378532,21.907774],[-102.388282,21.909325],[-102.389948,21.905382],[-102.396608,21.905938],[-102.393153,21.897999],[-102.390634,21.89835],[-102.390296,21.895527],[-102.388692,21.894149],[-102.399479,21.894258],[-102.403978,21.89383],[-102.412547,21.891544],[-102.414819,21.889082],[-102.416619,21.88868],[-102.420493,21.88642],[-102.42149,21.884924],[-102.422198,21.878287],[-102.421521,21.877526],[-102.425195,21.874002],[-102.425771,21.871616],[-102.42835,21.869912],[-102.428311,21.866189],[-102.430643,21.865547],[-102.432371,21.858278],[-102.432171,21.852901],[-102.435525,21.849484],[-102.434552,21.845384],[-102.436586,21.841264],[-102.4413,21.835132],[-102.447308,21.830914],[-102.451306,21.829623],[-102.456478,21.817589],[-102.462987,21.81738],[-102.46178,21.814604],[-102.476097,21.814356],[-102.4741,21.817017],[-102.495131,21.816351],[-102.49893,21.815141],[-102.500664,21.813702],[-102.50453,21.815583],[-102.508097,21.81347],[-102.509965,21.81483],[-102.513196,21.814553],[-102.515583,21.816364],[-102.517086,21.81522],[-102.519104,21.809895],[-102.528124,21.812374],[-102.534843,21.810109],[-102.540846,21.80636]]]}},
{"type":"Feature","id":"MEX:ADM2:MX-AGU.san-jose-de-gracia","properties":{"shapeName":"San José de Gracia","shapeISO":"","shapeGroup":"MEX","shapeType":"ADM2","adm1ISO":"MX-AGU","parentISO":"MX-AGU","parentID":"MEX:ADM1:MX-AGU","src_shape_id":"50627088B86600240710870"},"geometry":{"type":"Polygon","coordinates":[[[-102.416591,22.04043],[-102.416799,22.046751],[-102.418455,22.080481],[-102.386152,22.090334],[-102.380542,22.127081],[-102.366666,22.12135],[-102.360555,22.119596],[-102.354259,22.116991],[-102.353847,22.120644],[-102.360564,22.126574],[-102.35923,22.134657],[-102.358529,22.134787],[-102.357905,22.140086],[-102.358664,22.142549],[-102.361493,22.14186],[-102.368034,22.142691],[-102.370995,22.140214],[-102.371884,22.137508],[-102.374079,22.135847],[-102.379931,22.138646],[-102.371928,22.170855],[-102.380417,22.172074],[-102.380856,22.187006],[-102.376168,22.194622],[-102.392652,22.204074],[-102.369213,22.20442],[-102.365258,22.222383],[-102.363065,22.227673],[-102.361033,22.231005],[-102.37475,22.227996],[-102.382475,22.228227],[-102.388166,22.228734],[-102.395006,22.22887],[-102.399245,22.23167],[-102.406985,22.2283],[-102.408852,22.229724],[-102.410871,22.229581],[-102.415711,22.232966],[-102.42,22.234371],[-102.42028,22.235247],[-102.425202,22.23452],[-102.42797,22.232376],[-102.427528,22.230057],[-102.431278,22.230558],[-102.434041,22.234141],[-102.437269,22.234748],[-102.440349,22.234413],[-102.442743,22.235938],[-102.441977,22.238344],[-102.443768,22.241993],[-102.441918,22.242165],[-102.441935,22.273014],[-102.444777,22.271301],[-102.451284,22.262446],[-102.452203,22.273635],[-102.455695,22.274685],[-102.455229,22.276885],[-102.45708,22.279039],[-102.455905,22.28448],[-102.456526,22.286335],[-102.453191,22.286231],[-102.450118,22.28805],[-102.455007,22.312093],[-102.455366,22.312122],[-102.45611,22.323232],[-102.462174,22.322843],[-102.464284,22.321175],[-102.466084,22.322281],[-102.466981,22.319066],[-102.466764,22.314864],[-102.467244,22.312032],[-102.470202,22.30921],[-102.488531,22.305408],[-102.489092,22.303483],[-102.49577,22.304813],[-102.501265,22.30427],[-102.506631,22.293813],[-102.512583,22.292351],[-102.527039,22.290899],[-102.612052,22.291508],[-102.668743,22.291871],[-102.670017,22.245702],[-102.641387,22.228448],[-102.641685,22.226356],[-102.640468,22.22431],[-102.643711,22.221172],[-102.645802,22.213212],[-102.644961,22.210415],[-102.645822,22.204306],[-102.650237,22.201226],[-102.652831,22.194168],[-102.655337,22.191252],[-102.661078,22.190905],[-102.665127,22.194115],[-102.66931,22.194024],[-102.669259,22.188909],[-102.666266,22.183033],[-102.667981,22.178426],[-102.669681,22.177471],[-102.673425,22.177298],[-102.675895,22.175573],[-102.674999,22.169762],[-102.675492,22.168496],[-102.673501,22.16614],[-102.669416,22.15959],[-102.671755,22.154242],[-102.674054,22.15125],[-102.674345,22.147781],[-102.6783,22.145345],[-102.681081,22.14522],[-102.681734,22.141074],[-102.68517,22.138803],[-102.68632,22.136973],[-102.685866,22.133214],[-102.683414,22.129914],[-102.687505,22.124216],[-102.690142,22.123395],[-102.691874,22.114068],[-102.691083,22.106164],[-102.693485,22.104723],[-102.68695,22.10653],[-102.684701,22.105224],[-102.685688,22.099627],[-102.692577,22.090207],[-102.691181,22.086203],[-102.685838,22.085696],[-102.684034,22.086697],[-102.683562,22.089997],[-102.681793,22.091978],[-102.679563,22.092606],[-102.681011,22.094573],[-102.679803,22.098343],[-102.676762,22.100204],[-102.671155,22.098319],[-102.670534,22.094714],[-102.667474,22.093299],[-102.669044,22.087622],[-102.66677,22.086875],[-102.661338,22.08637],[-102.659401,22.090148],[-102.650314,22.092291],[-102.643494,22.093521],[-102.620777,22.081471],[-102.620895,22.080003],[-102.61742,22.077646],[-102.613199,22.071058],[-102.608638,22.053237],[-102.61559,22.046564],[-102.616245,22.040806],[-102.617593,22.037539],[-102.614586,22.037652],[-102.612292,22.036391],[-102.607578,22.039739],[-102.604782,22.04038],[-102.602206,22.040069],[-102.602262,22.048542],[-102.59289,22.047366],[-102.594214,22.034129],[-102.59638,22.019773],[-102.597489,22.014186],[-102.591927,22.014002],[-102.589528,22.014649],[-102.587899,22.01389],[-102.580802,22.012275],[-102.584131,21.991646],[-102.584047,21.988951],[-102.581734,21.986927],[-102.580485,21.983149],[-102.581637,21.98157],[-102.578482,21.979307],[-102.581825,21.968838],[-102.576251,21.967781],[-102.573936,21.968043],[-102.568726,21.963922],[-102.55523,21.962129],[-102.554691,21.965178],[-102.550382,21.970574],[-102.547893,21.970098],[-102.54426,21.971433],[-102.541343,21.970622],[-102.538843,21.966616],[-102.536171,21.969618],[-102.53428,21.968977],[-102.53238,21.970563],[-102.510493,21.97359],[-102.507517,21.975195],[-102.501418,21.970988],[-102.496987,21.969071],[-102.492078,21.969517],[-102.491294,21.970741],[-102.491629,21.973766],[-102.494052,21.977498],[-102.495423,21.984705],[-102.497294,21.983408],[-102.499247,21.983859],[-102.501281,21.986925],[-102.499694,21.991289],[-102.505048,21.992824],[-102.504471,21.99866],[-102.50304,21.999552],[-102.50143,22.003218],[-102.495613,22.002773],[-102.489045,22.001762],[-102.489375,21.996408],[-102.48871,21.995571],[-102.484909,21.996925],[-102.477641,21.996828],[-102.472725,21.994876],[-102.468083,21.981289],[-102.463789,21.981641],[-102.460102,21.982749],[-102.453969,21.979519],[-102.451783,21.979667],[-102.45164,21.981961],[-102.447339,21.986739],[-102.424133,21.988844],[-102.422827,21.990976],[-102.425759,21.993064],[-102.433317,21.99513],[-102.432148,21.995844],[-102.430501,22.008771],[-102.426601,22.018365],[-102.420898,22.019569],[-102.420409,22.023904],[-102.417634,22.02802],[-102.41615,22.028097],[-102.416591,22.04043]]]}},
{"type":"Feature","id":"MEX:ADM2:MX-AGU.rincon-de-romos","properties":{"shapeName":"Rincón de Romos","shapeISO":"","shapeGroup":"MEX","shapeType":"ADM2","adm1ISO":"MX-AGU","parentISO":"MX-AGU","parentID":"MEX:ADM1:MX-AGU","src_shape_id":"50627088B44268197461016"},"geometry":{"type":"Polygon","coordinates":[[[-102.353847,22.120644],[-102.352221,22.13711],[-102.35059,22.146557],[-102.34275,22.144122],[-102.336929,22.143345],[-102.320881,22.142097],[-102.303184,22.140457],[-102.299978,22.145458],[-102.292975,22.146317],[-102.296511,22.155213],[-102.295935,22.16957],[-102.280681,22.169474],[-102.280677,22.170672],[-102.276604,22.170636],[-102.276658,22.173637],[-102.271824,22.174033],[-102.271326,22.172633],[-102.266866,22.172381],[-102.265076,22.175471],[-102.259974,22.173256],[-102.258133,22.175452],[-102.259611,22.18307],[-102.259222,22.186356],[-102.27652,22.18753],[-102.276678,22.19644],[-102.277296,22.209656],[-102.276822,22.213676],[-102.27733,22.225417],[-102.273105,22.225574],[-102.258598,22.226993],[-102.254047,22.227791],[-102.257026,22.235706],[-102.253937,22.238822],[-102.253209,22.240641],[-102.25562,22.242316],[-102.256768,22.246726],[-102.256742,22.249783],[-102.254726,22.250951],[-102.256928,22.253201],[-102.255569,22.256555],[-102.257111,22.259036],[-102.254273,22.26117],[-102.256754,22.265369],[-102.256296,22.267241],[-102.254029,22.26711],[-102.251269,22.268213],[-102.250834,22.270237],[-102.253261,22.270217],[-102.255288,22.271914],[-102.253923,22.275389],[-102.252551,22.275772],[-102.253407,22.279771],[-102.249477,22.280959],[-102.247471,22.279687],[-102.247914,22.284093],[-102.249558,22.286668],[-102.250035,22.289237],[-102.247502,22.288511],[-102.246471,22.292592],[-102.244393,22.291414],[-102.240114,22.292926],[-102.238738,22.297398],[-102.231359,22.296507],[-102.230901,22.299313],[-102.22472,22.298475],[-102.224803,22.295556],[-102.217742,22.294687],[-102.217317,22.302772],[-102.21396,22.302258],[-102.213148,22.314423],[-102.190927,22.31787],[-102.18856,22.323999],[-102.18483,22.340363],[-102.186596,22.340347],[-102.194144,22.350643],[-102.193665,22.352857],[-102.190696,22.352631],[-102.189018,22.362438],[-102.211979,22.362465],[-102.211987,22.372697],[-102.223331,22.371336],[-102.228133,22.374681],[-102.235577,22.373544],[-102.236871,22.374061],[-102.253201,22.374495],[-102.252386,22.373866],[-102.25327,22.370457],[-102.252489,22.367939],[-102.250526,22.365576],[-102.248049,22.364212],[-102.247163,22.36154],[-102.242604,22.359623],[-102.242387,22.358332],[-102.238848,22.352365],[-102.242358,22.346768],[-102.241026,22.341819],[-102.245126,22.341999],[-102.247214,22.324446],[-102.255027,22.324914],[-102.256113,22.321068],[-102.244279,22.320219],[-102.243667,22.318664],[-102.244696,22.314647],[-102.245908,22.314742],[-102.247163,22.31076],[-102.245959,22.308104],[-102.24619,22.298421],[-102.253985,22.29943],[-102.254982,22.293186],[-102.262201,22.29441],[-102.261637,22.285705],[-102.267006,22.284499],[-102.273249,22.284481],[-102.277225,22.281752],[-102.279619,22.281557],[-102.2798,22.287826],[-102.291488,22.289462],[-102.292837,22.291508],[-102.296677,22.28947],[-102.294587,22.300833],[-102.300575,22.30087],[-102.303175,22.302895],[-102.306912,22.303102],[-102.313927,22.308421],[-102.315486,22.308651],[-102.316521,22.312916],[-102.310976,22.315678],[-102.308406,22.316469],[-102.308161,22.317793],[-102.305266,22.319186],[-102.304183,22.33199],[-102.333714,22.329857],[-102.362376,22.328825],[-102.362654,22.346475],[-102.349491,22.346725],[-102.339338,22.361505],[-102.344182,22.36304],[-102.378443,22.360879],[-102.387879,22.364141],[-102.432334,22.357458],[-102.450869,22.352173],[-102.458586,22.351385],[-102.465646,22.350195],[-102.468642,22.351881],[-102.468842,22.347465],[-102.470475,22.336977],[-102.471188,22.336255],[-102.469194,22.333226],[-102.467719,22.332378],[-102.465071,22.333063],[-102.461021,22.331759],[-102.46185,22.326979],[-102.460938,22.323162],[-102.462174,22.322843],[-102.45611,22.323232],[-102.455366,22.312122],[-102.455007,22.312093],[-102.450118,22.28805],[-102.453191,22.286231],[-102.456526,22.286335],[-102.455905,22.28448],[-102.45708,22.279039],[-102.455229,22.276885],[-102.455695,22.274685],[-102.452203,22.273635],[-102.451284,22.262446],[-102.444777,22.271301],[-102.441935,22.273014],[-102.441918,22.242165],[-102.443768,22.241993],[-102.441977,22.238344],[-102.442743,22.235938],[-102.440349,22.234413],[-102.437269,22.234748],[-102.434041,22.234141],[-102.431278,22.230558],[-102.427528,22.230057],[-102.42797,22.232376],[-102.425202,22.23452],[-102.42028,22.235247],[-102.42,22.234371],[-102.415711,22.232966],[-102.410871,22.229581],[-102.408852,22.229724],[-102.406985,22.2283],[-102.399245,22.23167],[-102.395006,22.22887],[-102.388166,22.228734],[-102.382475,22.228227],[-102.37475,22.227996],[-102.361033,22.231005],[-102.363065,22.227673],[-102.365258,22.222383],[-102.369213,22.20442],[-102.392652,22.204074],[-102.376168,22.194622],[-102.380856,22.187006],[-102.380417,22.172074],[-102.371928,22.170855],[-102.379931,22.138646],[-102.374079,22.135847],[-102.371884,22.137508],[-102.370995,22.140214],[-102.368034,22.142691],[-102.361493,22.14186],[-102.358664,22.142549],[-102.357905,22.140086],[-102.358529,22.134787],[-102.35923,22.134657],[-102.360564,22.126574],[-102.353847,22.120644]]]}},
{"type":"Feature","id":"MEX:ADM2:MX-AGU.tepezala","properties":{"shapeName":"Tepezalá","shapeISO":"","shapeGroup":"MEX","shapeType":"ADM2","adm1ISO":"MX-AGU","parentISO":"MX-AGU","parentID":"MEX:ADM1:MX-AGU","src_shape_id":"50627088B35314322738338"},"geometry":{"type":"Polygon","coordinates":[[[-102.259611,22.18307],[-102.251082,22.183035],[-102.249721,22.179611],[-102.247528,22.17782],[-102.246466,22.174674],[-102.246882,22.170984],[-102.227986,22.168798],[-102.226646,22.169687],[-102.220809,22.167949],[-102.213041,22.163678],[-102.206261,22.162622],[-102.204165,22.160907],[-102.20142,22.159896],[-102.198432,22.16],[-102.189209,22.162143],[-102.186306,22.161249],[-102.18506,22.157205],[-102.185766,22.15595],[-102.183623,22.15319],[-102.175733,22.129532],[-102.167811,22.125351],[-102.164617,22.134368],[-102.164155,22.140653],[-102.148936,22.154725],[-102.147372,22.152834],[-102.1364,22.149455],[-102.135373,22.153795],[-102.129949,22.154763],[-102.126527,22.157633],[-102.12789,22.159906],[-102.128123,22.164546],[-102.130412,22.169692],[-102.133438,22.173273],[-102.132463,22.178611],[-102.134098,22.181135],[-102.134493,22.184128],[-102.135594,22.185774],[-102.137007,22.191072],[-102.136449,22.194542],[-102.135091,22.19633],[-102.128105,22.200693],[-102.132992,22.202818],[-102.132793,22.215189],[-102.146549,22.233779],[-102.130148,22.241057],[-102.12705,22.269774],[-102.124111,22.286956],[-102.15323,22.29041],[-102.149847,22.347175],[-102.162134,22.348514],[-102.180722,22.350398],[-102.177375,22.36243],[-102.189018,22.362438],[-102.190696,22.352631],[-102.193665,22.352857],[-102.194144,22.350643],[-102.186596,22.340347],[-102.18483,22.340363],[-102.18856,22.323999],[-102.190927,22.31787],[-102.213148,22.314423],[-102.21396,22.302258],[-102.217317,22.302772],[-102.217742,22.294687],[-102.224803,22.295556],[-102.22472,22.298475],[-102.230901,22.299313],[-102.231359,22.296507],[-102.238738,22.297398],[-102.240114,22.292926],[-102.244393,22.291414],[-102.246471,22.292592],[-102.247502,22.288511],[-102.250035,22.289237],[-102.249558,22.286668],[-102.247914,22.284093],[-102.247471,22.279687],[-102.249477,22.280959],[-102.253407,22.279771],[-102.252551,22.275772],[-102.253923,22.275389],[-102.255288,22.271914],[-102.253261,22.270217],[-102.250834,22.270237],[-102.251269,22.268213],[-102.254029,22.26711],[-102.256296,22.267241],[-102.256754,22.265369],[-102.254273,22.26117],[-102.257111,22.259036],[-102.255569,22.256555],[-102.256928,22.253201],[-102.254726,22.250951],[-102.256742,22.249783],[-102.256768,22.246726],[-102.25562,22.242316],[-102.253209,22.240641],[-102.253937,22.238822],[-102.257026,22.235706],[-102.254047,22.227791],[-102.258598,22.226993],[-102.273105,22.225574],[-102.27733,22.225417],[-102.276822,22.213676],[-102.277296,22.209656],[-102.276678,22.19644],[-102.27652,22.18753],[-102.259222,22.186356],[-102.259611,22.18307]]]}},
{"type":"Feature","id":"MEX:ADM2:MX-AGU.cosio","properties":{"shapeName":"Cosío","shapeISO":"","shapeGroup":"MEX","shapeType":"ADM2","adm1ISO":"MX-AGU","parentISO":"MX-AGU","parentID":"MEX:ADM1:MX-AGU","src_shape_id":"50627088B99350928846043"},"geometry":{"type":"Polygon","coordinates":[[[-102.253201,22.374495],[-102.254217,22.375277],[-102.254943,22.378868],[-102.251368,22.379769],[-102.250064,22.384306],[-102.250299,22.387222],[-102.255434,22.387728],[-102.255416,22.390438],[-102.26081,22.395664],[-102.26095,22.398604],[-102.263997,22.398903],[-102.265906,22.403469],[-102.268782,22.407482],[-102.273054,22.408773],[-102.270918,22.411752],[-102.273981,22.414331],[-102.27549,22.413403],[-102.279327,22.414316],[-102.281409,22.413756],[-102.282544,22.415626],[-102.285376,22.417121],[-102.287865,22.41649],[-102.289931,22.419984],[-102.294455,22.440967],[-102.298307,22.45959],[-102.311805,22.456916],[-102.31204,22.440818],[-102.315756,22.432125],[-102.321031,22.418291],[-102.321365,22.388533],[-102.362877,22.388747],[-102.35925,22.384952],[-102.378443,22.360879],[-102.344182,22.36304],[-102.339338,22.361505],[-102.349491,22.346725],[-102.362654,22.346475],[-102.362376,22.328825],[-102.333714,22.329857],[-102.304183,22.33199],[-102.305266,22.319186],[-102.308161,22.317793],[-102.308406,22.316469],[-102.310976,22.315678],[-102.316521,22.312916],[-102.315486,22.308651],[-102.313927,22.308421],[-102.306912,22.303102],[-102.303175,22.302895],[-102.300575,22.30087],[-102.294587,22.300833],[-102.296677,22.28947],[-102.292837,22.291508],[-102.291488,22.289462],[-102.2798,22.287826],[-102.279619,22.281557],[-102.277225,22.281752],[-102.273249,22.284481],[-102.267006,22.284499],[-102.261637,22.285705],[-102.262201,22.29441],[-102.254982,22.293186],[-102.253985,22.29943],[-102.24619,22.298421],[-102.245959,22.308104],[-102.247163,22.31076],[-102.245908,22.314742],[-102.244696,22.314647],[-102.243667,22.318664],[-102.244279,22.320219],[-102.256113,22.321068],[-102.255027,22.324914],[-102.247214,22.324446],[-102.245126,22.341999],[-102.241026,22.341819],[-102.242358,22.346768],[-102.238848,22.352365],[-102.242387,22.358332],[-102.242604,22.359623],[-102.247163,22.36154],[-102.248049,22.364212],[-102.250526,22.365576],[-102.252489,22.367939],[-102.25327,22.370457],[-102.252386,22.373866],[-102.253201,22.374495]]]}},
{"type":"Feature","id":"MEX:ADM2:MX-AGU.asientos","properties":{"shapeName":"Asientos","shapeISO":"","shapeGroup":"MEX","shapeType":"ADM2","adm1ISO":"MX-AGU","parentISO":"MX-AGU","parentID":"MEX:ADM1:MX-AGU","src_shape_id":"50627088B20342766547871"},"geometry":{"type":"Polygon","coordinates":[[[-102.140881,22.075343],[-102.118064,22.074902],[-102.107123,22.061204],[-102.103681,22.05741],[-102.105783,22.057428],[-102.106337,22.054971],[-102.111164,22.053188],[-102.112759,22.050951],[-102.110587,22.04805],[-102.110917,22.045752],[-102.112399,22.04463],[-102.115526,22.044522],[-102.117087,22.042574],[-102.115983,22.037276],[-102.112836,22.033281],[-102.112576,22.030778],[-102.109606,22.027162],[-102.097751,22.023247],[-102.064945,22.017428],[-102.060091,22.044407],[-102.056962,22.04416],[-102.054821,22.045903],[-102.053145,22.042909],[-102.05081,22.041995],[-102.048299,22.044812],[-102.045394,22.049061],[-102.042037,22.05058],[-102.036144,22.052264],[-102.036564,22.054934],[-102.040611,22.058282],[-102.043239,22.056635],[-102.047323,22.058511],[-102.048404,22.060652],[-102.049959,22.061138],[-102.042206,22.066046],[-102.034269,22.069365],[-102.023477,22.053568],[-102.024033,22.050664],[-102.022964,22.047676],[-102.022771,22.044256],[-102.020153,22.041442],[-102.017062,22.039115],[-102.017867,22.037956],[-102.011439,22.033663],[-102.007934,22.038579],[-102.007621,22.039931],[-101.98747,22.039166],[-101.9898,22.025927],[-101.99194,22.00794],[-101.97429,22.009625],[-101.957391,22.009635],[-101.961429,22.018106],[-101.952958,22.011417],[-101.953214,22.009117],[-101.948059,22.008779],[-101.89778,21.958388],[-101.895831,21.963332],[-101.896029,21.968337],[-101.897496,21.973361],[-101.897362,21.976939],[-101.898249,21.978222],[-101.898826,21.982467],[-101.898227,21.983263],[-101.90007,21.986724],[-101.90372,21.985826],[-101.909446,21.989024],[-101.910862,21.992389],[-101.908922,21.993088],[-101.906835,21.992006],[-101.898833,21.989967],[-101.894734,21.989656],[-101.895115,21.98449],[-101.89334,21.982336],[-101.891253,21.976592],[-101.888822,21.977685],[-101.873663,21.985793],[-101.864731,21.98997],[-101.863799,21.990016],[-101.861733,21.99874],[-101.861237,22.005817],[-101.860372,22.007885],[-101.862156,22.008777],[-101.861074,22.01278],[-101.860657,22.01687],[-101.861274,22.018583],[-101.860586,22.027977],[-101.86167,22.028884],[-101.860533,22.03322],[-101.861491,22.035903],[-101.855433,22.041389],[-101.854228,22.044417],[-101.85586,22.045546],[-101.862293,22.046737],[-101.864275,22.041509],[-101.868846,22.045247],[-101.881165,22.054113],[-101.886964,22.058011],[-101.907752,22.071421],[-101.93942,22.092421],[-101.951,22.099818],[-101.967574,22.111202],[-101.975497,22.115522],[-101.986028,22.120827],[-101.997224,22.122419],[-102.008165,22.123752],[-102.025915,22.129771],[-102.017075,22.153961],[-102.044322,22.153445],[-102.04454,22.154424],[-102.042394,22.15931],[-102.037737,22.159776],[-102.036481,22.161694],[-102.029467,22.168666],[-102.000993,22.168111],[-102.000525,22.192274],[-102.000017,22.208359],[-101.99909,22.208108],[-101.999413,22.219506],[-101.99982,22.226507],[-101.999716,22.233656],[-102.002475,22.241444],[-102.022495,22.241585],[-102.021961,22.244277],[-102.023586,22.250108],[-102.027331,22.261959],[-102.027509,22.264145],[-102.02921,22.269005],[-102.028432,22.271797],[-102.029764,22.278363],[-102.027999,22.27866],[-102.02999,22.285491],[-102.029883,22.288993],[-102.03179,22.2889],[-102.03727,22.298976],[-102.042337,22.297014],[-102.041781,22.295204],[-102.044075,22.29385],[-102.051214,22.291213],[-102.058408,22.293655],[-102.056704,22.299921],[-102.062482,22.301608],[-102.075627,22.306073],[-102.089571,22.288999],[-102.091065,22.290891],[-102.096931,22.287004],[-102.098174,22.28546],[-102.10525,22.280793],[-102.107806,22.28273],[-102.106584,22.285365],[-102.124111,22.286956],[-102.12705,22.269774],[-102.130148,22.241057],[-102.146549,22.233779],[-102.132793,22.215189],[-102.132992,22.202818],[-102.128105,22.200693],[-102.135091,22.19633],[-102.136449,22.194542],[-102.137007,22.191072],[-102.135594,22.185774],[-102.134493,22.184128],[-102.134098,22.181135],[-102.132463,22.178611],[-102.133438,22.173273],[-102.130412,22.169692],[-102.128123,22.164546],[-102.12789,22.159906],[-102.126527,22.157633],[-102.129949,22.154763],[-102.135373,22.153795],[-102.1364,22.149455],[-102.147372,22.152834],[-102.148936,22.154725],[-102.164155,22.140653],[-102.164617,22.134368],[-102.167811,22.125351],[-102.175733,22.129532],[-102.183623,22.15319],[-102.185766,22.15595],[-102.18506,22.157205],[-102.186306,22.161249],[-102.189209,22.162143],[-102.198432,22.16],[-102.20142,22.159896],[-102.204165,22.160907],[-102.204546,22.145076],[-102.207142,22.141072],[-102.208802,22.139908],[-102.211501,22.140174],[-102.212442,22.137511],[-102.21571,22.138262],[-102.216111,22.136831],[-102.213982,22.135252],[-102.215083,22.132786],[-102.214175,22.130423],[-102.217732,22.129165],[-102.215985,22.126982],[-102.217809,22.122741],[-102.21933,22.104886],[-102.216741,22.106293],[-102.192503,22.101505],[-102.195318,22.09514],[-102.199036,22.070966],[-102.19665,22.069298],[-102.194349,22.066544],[-102.191037,22.066102],[-102.184604,22.065242],[-102.180303,22.084278],[-102.171436,22.083752],[-102.165563,22.09312],[-102.16286,22.100328],[-102.156376,22.097852],[-102.156573,22.091177],[-102.149996,22.088681],[-102.14726,22.086267],[-102.144196,22.080789],[-102.143679,22.07797],[-102.140881,22.075343]]]}},
{"type":"Feature","id":"MEX:ADM2:MX-AGU.calvillo","properties":{"shapeName":"Calvillo","shapeISO":"","shapeGroup":"MEX","shapeType":"ADM2","adm1ISO":"MX-AGU","parentISO":"MX-AGU","parentID":"MEX:ADM1:MX-AGU","src_shape_id":"50627088B90552262632794"},"geometry":{"type":"Polygon","coordinates":[[[-102.576251,21.967781],[-102.581825,21.968838],[-102.578482,21.979307],[-102.581637,21.98157],[-102.580485,21.983149],[-102.581734,21.986927],[-102.584047,21.988951],[-102.584131,21.991646],[-102.580802,22.012275],[-102.587899,22.01389],[-102.589528,22.014649],[-102.591927,22.014002],[-102.597489,22.014186],[-102.59638,22.019773],[-102.594214,22.034129],[-102.59289,22.047366],[-102.602262,22.048542],[-102.602206,22.040069],[-102.604782,22.04038],[-102.607578,22.039739],[-102.612292,22.036391],[-102.614586,22.037652],[-102.617593,22.037539],[-102.616245,22.040806],[-102.61559,22.046564],[-102.608638,22.053237],[-102.613199,22.071058],[-102.61742,22.077646],[-102.620895,22.080003],[-102.620777,22.081471],[-102.643494,22.093521],[-102.650314,22.092291],[-102.659401,22.090148],[-102.661338,22.08637],[-102.66677,22.086875],[-102.669044,22.087622],[-102.667474,22.093299],[-102.670534,22.094714],[-102.671155,22.098319],[-102.676762,22.100204],[-102.679803,22.098343],[-102.681011,22.094573],[-102.679563,22.092606],[-102.681793,22.091978],[-102.683562,22.089997],[-102.684034,22.086697],[-102.685838,22.085696],[-102.691181,22.086203],[-102.692577,22.090207],[-102.685688,22.099627],[-102.684701,22.105224],[-102.68695,22.10653],[-102.693485,22.104723],[-102.697766,22.101516],[-102.70302,22.099018],[-102.7056,22.098889],[-102.709641,22.096618],[-102.710232,22.09473],[-102.718494,22.090839],[-102.72491,22.090157],[-102.728667,22.088505],[-102.735865,22.084095],[-102.741897,22.082173],[-102.747212,22.079373],[-102.751306,22.075904],[-102.755806,22.073662],[-102.756562,22.071377],[-102.756379,22.068321],[-102.75318,22.063258],[-102.755162,22.061592],[-102.755473,22.056301],[-102.756713,22.054033],[-102.759435,22.051425],[-102.76099,22.046287],[-102.763041,22.044167],[-102.766168,22.043391],[-102.770384,22.040852],[-102.767693,22.039975],[-102.768981,22.037823],[-102.77197,22.037697],[-102.774266,22.036048],[-102.776323,22.031025],[-102.781567,22.02862],[-102.7826,22.027118],[-102.781811,22.024225],[-102.78331,22.017692],[-102.784043,22.016855],[-102.791499,22.015988],[-102.793083,22.012951],[-102.794794,22.011441],[-102.7956,22.008985],[-102.800647,22.004427],[-102.80123,22.001888],[-102.805462,21.9963],[-102.820731,21.964245],[-102.821929,21.960078],[-102.821612,21.9588],[-102.82549,21.95221],[-102.832754,21.942581],[-102.833725,21.940303],[-102.83729,21.940618],[-102.839752,21.934843],[-102.839336,21.933673],[-102.842604,21.927119],[-102.843532,21.926409],[-102.842945,21.921937],[-102.84448,21.918753],[-102.844829,21.915844],[-102.846095,21.913739],[-102.843272,21.912835],[-102.844451,21.910361],[-102.849645,21.905566],[-102.84996,21.901596],[-102.851302,21.900139],[-102.851857,21.895545],[-102.854197,21.893352],[-102.853694,21.890635],[-102.856649,21.887794],[-102.855602,21.884509],[-102.856747,21.882539],[-102.860546,21.88026],[-102.860573,21.877654],[-102.859608,21.874871],[-102.862414,21.87134],[-102.86338,21.863766],[-102.86569,21.862897],[-102.868447,21.860538],[-102.872825,21.856429],[-102.874177,21.852771],[-102.873575,21.849593],[-102.870923,21.846151],[-102.866734,21.843954],[-102.86457,21.843527],[-102.861896,21.83974],[-102.858051,21.833226],[-102.852746,21.834318],[-102.847315,21.833409],[-102.847523,21.828592],[-102.850206,21.826348],[-102.850286,21.825089],[-102.847256,21.822393],[-102.847545,21.81894],[-102.84949,21.813693],[-102.851791,21.811938],[-102.850116,21.80954],[-102.852582,21.803962],[-102.853345,21.799053],[-102.85148,21.799893],[-102.849063,21.799529],[-102.843201,21.801037],[-102.842725,21.799041],[-102.839309,21.796865],[-102.837074,21.797894],[-102.83241,21.7979],[-102.827074,21.790448],[-102.827195,21.787073],[-102.820095,21.778457],[-102.82134,21.775908],[-102.821168,21.773634],[-102.819671,21.772586],[-102.817203,21.768324],[-102.816916,21.766475],[-102.812636,21.764842],[-102.811086,21.765076],[-102.805991,21.763966],[-102.803704,21.761239],[-102.798307,21.758913],[-102.794154,21.755037],[-102.79231,21.75499],[-102.788992,21.750921],[-102.786033,21.748346],[-102.785205,21.745653],[-102.780055,21.743823],[-102.777915,21.742135],[-102.779508,21.739872],[-102.775697,21.734589],[-102.772181,21.737824],[-102.769134,21.73471],[-102.765502,21.733676],[-102.75823,21.728514],[-102.7453,21.720052],[-102.74411,21.719181],[-102.741626,21.721],[-102.737017,21.715916],[-102.735222,21.715671],[-102.722799,21.719112],[-102.720441,21.721518],[-102.720798,21.723419],[-102.71881,21.727003],[-102.719756,21.72819],[-102.71765,21.733127],[-102.715605,21.734091],[-102.714025,21.730098],[-102.711412,21.730242],[-102.70119,21.729016],[-102.696263,21.728768],[-102.695333,21.732546],[-102.697427,21.734563],[-102.697318,21.741514],[-102.692307,21.746591],[-102.690669,21.752437],[-102.68379,21.753424],[-102.682253,21.752681],[-102.678768,21.753174],[-102.676034,21.75485],[-102.67386,21.7578],[-102.673442,21.75969],[-102.67127,21.762549],[-102.668926,21.764051],[-102.665918,21.764732],[-102.659576,21.762384],[-102.655584,21.764223],[-102.650923,21.765422],[-102.647776,21.76294],[-102.643539,21.761884],[-102.641087,21.764108],[-102.637115,21.764592],[-102.633494,21.767339],[-102.626333,21.761909],[-102.623844,21.76043],[-102.618123,21.755652],[-102.613494,21.755044],[-102.606312,21.751057],[-102.604862,21.751036],[-102.601208,21.755769],[-102.596774,21.754982],[-102.596279,21.74405],[-102.58314,21.743858],[-102.583143,21.747102],[-102.57659,21.745833],[-102.576837,21.748891],[-102.570714,21.750251],[-102.566659,21.752565],[-102.566615,21.754831],[-102.564846,21.755561],[-102.559383,21.755118],[-102.558736,21.757841],[-102.559639,21.759243],[-102.559208,21.764128],[-102.557342,21.767324],[-102.554998,21.768382],[-102.551692,21.767272],[-102.551398,21.769209],[-102.554879,21.771792],[-102.555566,21.775202],[-102.553894,21.780003],[-102.547357,21.781286],[-102.534995,21.781256],[-102.529619,21.784536],[-102.534173,21.790067],[-102.538273,21.791991],[-102.538554,21.794711],[-102.540095,21.797074],[-102.544826,21.802539],[-102.540846,21.80636],[-102.544542,21.809562],[-102.548931,21.815134],[-102.552273,21.817516],[-102.555602,21.817924],[-102.561228,21.817723],[-102.56434,21.816556],[-102.566088,21.817156],[-102.56989,21.816725],[-102.576958,21.813509],[-102.581326,21.812352],[-102.586047,21.809423],[-102.588855,21.806969],[-102.585287,21.829066],[-102.591772,21.829898],[-102.589755,21.84313],[-102.593479,21.844099],[-102.593834,21.846652],[-102.595833,21.847222],[-102.598873,21.864791],[-102.596653,21.866168],[-102.592914,21.86551],[-102.591766,21.867096],[-102.584976,21.869665],[-102.585695,21.87316],[-102.584867,21.877837],[-102.590476,21.879093],[-102.589839,21.880993],[-102.587918,21.88184],[-102.586834,21.886353],[-102.58505,21.888268],[-102.584054,21.894675],[-102.579994,21.899062],[-102.589305,21.89909],[-102.588766,21.901048],[-102.585989,21.900881],[-102.584894,21.902678],[-102.579948,21.905727],[-102.582604,21.906578],[-102.583683,21.908878],[-102.583178,21.912013],[-102.589418,21.91284],[-102.586129,21.914889],[-102.585993,21.916822],[-102.592758,21.917404],[-102.592734,21.928729],[-102.593019,21.932133],[-102.595361,21.93415],[-102.593722,21.93578],[-102.593539,21.942197],[-102.582573,21.940648],[-102.583143,21.944535],[-102.582992,21.947884],[-102.584596,21.950509],[-102.584386,21.952768],[-102.580024,21.954048],[-102.579856,21.958054],[-102.578549,21.960309],[-102.578194,21.96293],[-102.576251,21.967781]]]}},
{"type":"Feature","id":"MEX:ADM2:MX-AGU.el-llano","properties":{"shapeName":"El Llano","shapeISO":"","shapeGroup":"MEX","shapeType":"ADM2","adm1ISO":"MX-AGU","parentISO":"MX-AGU","parentID":"MEX:ADM1:MX-AGU","src_shape_id":"50627088B57230775493206"},"geometry":{"type":"Polygon","coordinates":[[[-102.064508,21.796205],[-102.063721,21.797736],[-102.059316,21.800456],[-102.05798,21.80187],[-102.057573,21.80489],[-102.053867,21.81335],[-102.055124,21.816357],[-102.045921,21.822059],[-102.041743,21.823068],[-102.042063,21.826322],[-102.041216,21.829105],[-102.041078,21.835827],[-102.038621,21.835624],[-102.038246,21.850505],[-102.038418,21.853198],[-102.020794,21.851168],[-102.019954,21.862536],[-101.956906,21.884183],[-101.941243,21.889486],[-101.880213,21.91015],[-101.838003,21.907344],[-101.835289,21.941771],[-101.845122,21.944168],[-101.856603,21.943148],[-101.859098,21.945042],[-101.863596,21.946214],[-101.868214,21.94556],[-101.872281,21.946503],[-101.874954,21.946096],[-101.879655,21.943895],[-101.883512,21.939575],[-101.881762,21.938132],[-101.8858,21.932612],[-101.890375,21.95095],[-101.89778,21.958388],[-101.948059,22.008779],[-101.953214,22.009117],[-101.952958,22.011417],[-101.961429,22.018106],[-101.957391,22.009635],[-101.97429,22.009625],[-101.99194,22.00794],[-101.9898,22.025927],[-101.98747,22.039166],[-102.007621,22.039931],[-102.007934,22.038579],[-102.011439,22.033663],[-102.017867,22.037956],[-102.017062,22.039115],[-102.020153,22.041442],[-102.022771,22.044256],[-102.022964,22.047676],[-102.024033,22.050664],[-102.023477,22.053568],[-102.034269,22.069365],[-102.042206,22.066046],[-102.049959,22.061138],[-102.048404,22.060652],[-102.047323,22.058511],[-102.043239,22.056635],[-102.040611,22.058282],[-102.036564,22.054934],[-102.036144,22.052264],[-102.042037,22.05058],[-102.045394,22.049061],[-102.048299,22.044812],[-102.05081,22.041995],[-102.053145,22.042909],[-102.054821,22.045903],[-102.056962,22.04416],[-102.060091,22.044407],[-102.064945,22.017428],[-102.097751,22.023247],[-102.098566,22.014003],[-102.097445,22.012848],[-102.09714,21.996121],[-102.095017,21.99502],[-102.092487,21.992504],[-102.084598,21.9861],[-102.072352,21.980688],[-102.068666,21.977936],[-102.070924,21.973988],[-102.068176,21.971003],[-102.069412,21.968981],[-102.075383,21.969422],[-102.094289,21.97234],[-102.092442,21.961141],[-102.097341,21.960912],[-102.100892,21.964905],[-102.100512,21.972661],[-102.105658,21.972686],[-102.108301,21.97416],[-102.131887,21.976838],[-102.136408,21.953721],[-102.138043,21.943165],[-102.134906,21.940393],[-102.131003,21.939712],[-102.131299,21.937205],[-102.139009,21.937534],[-102.154246,21.936235],[-102.164202,21.937124],[-102.166137,21.919541],[-102.162021,21.919638],[-102.16213,21.907751],[-102.155382,21.910816],[-102.155888,21.893567],[-102.157135,21.869244],[-102.175053,21.870537],[-102.176041,21.843824],[-102.167583,21.842941],[-102.169798,21.839471],[-102.170772,21.831969],[-102.157868,21.829713],[-102.160415,21.811318],[-102.150526,21.809618],[-102.153451,21.788871],[-102.14595,21.787849],[-102.145355,21.791662],[-102.142773,21.791334],[-102.142452,21.7955],[-102.140815,21.794484],[-102.132566,21.793171],[-102.131961,21.796649],[-102.124612,21.795672],[-102.117313,21.794118],[-102.115028,21.800155],[-102.107647,21.799143],[-102.104982,21.80303],[-102.099306,21.801527],[-102.097768,21.800432],[-102.092048,21.799441],[-102.078639,21.796158],[-102.071678,21.794732],[-102.070416,21.798015],[-102.068797,21.798914],[-102.064508,21.796205]]]}},
{"type":"Feature","id":"MEX:ADM2:MX-AGU.pabellon-de-arteaga","properties":{"shapeName":"Pabellón de Arteaga","shapeISO":"","shapeGroup":"MEX","shapeType":"ADM2","adm1ISO":"MX-AGU","parentISO":"MX-AGU","parentID":"MEX:ADM1:MX-AGU","src_shape_id":"50627088B43524321041523"},"geometry":{"type":"Polygon","coordinates":[[[-102.31034,22.03716],[-102.30457,22.04516],[-102.300591,22.048825],[-102.300055,22.050942],[-102.296935,22.05031],[-102.291461,22.054921],[-102.28638,22.062206],[-102.286054,22.063714],[-102.287678,22.068222],[-102.287509,22.074162],[-102.296521,22.075477],[-102.296349,22.084299],[-102.291895,22.083629],[-102.291765,22.082218],[-102.285182,22.082562],[-102.28321,22.087336],[-102.279271,22.089197],[-102.278078,22.0885],[-102.273671,22.088104],[-102.268524,22.079854],[-102.260764,22.079405],[-102.260468,22.087184],[-102.2353,22.085444],[-102.226212,22.086122],[-102.224237,22.084281],[-102.222931,22.081555],[-102.225738,22.077989],[-102.22268,22.076444],[-102.220862,22.07786],[-102.215783,22.076524],[-102.211476,22.073397],[-102.209274,22.073597],[-102.206208,22.071935],[-102.204048,22.071851],[-102.202507,22.067906],[-102.199319,22.06909],[-102.197707,22.066992],[-102.198349,22.06397],[-102.203354,22.061937],[-102.201141,22.059548],[-102.199502,22.055918],[-102.196731,22.056083],[-102.19402,22.057382],[-102.193332,22.063598],[-102.191037,22.066102],[-102.194349,22.066544],[-102.19665,22.069298],[-102.199036,22.070966],[-102.195318,22.09514],[-102.192503,22.101505],[-102.216741,22.106293],[-102.21933,22.104886],[-102.217809,22.122741],[-102.215985,22.126982],[-102.217732,22.129165],[-102.214175,22.130423],[-102.215083,22.132786],[-102.213982,22.135252],[-102.216111,22.136831],[-102.21571,22.138262],[-102.212442,22.137511],[-102.211501,22.140174],[-102.208802,22.139908],[-102.207142,22.141072],[-102.204546,22.145076],[-102.204165,22.160907],[-102.206261,22.162622],[-102.213041,22.163678],[-102.220809,22.167949],[-102.226646,22.169687],[-102.227986,22.168798],[-102.246882,22.170984],[-102.246466,22.174674],[-102.247528,22.17782],[-102.249721,22.179611],[-102.251082,22.183035],[-102.259611,22.18307],[-102.258133,22.175452],[-102.259974,22.173256],[-102.265076,22.175471],[-102.266866,22.172381],[-102.271326,22.172633],[-102.271824,22.174033],[-102.276658,22.173637],[-102.276604,22.170636],[-102.280677,22.170672],[-102.280681,22.169474],[-102.295935,22.16957],[-102.296511,22.155213],[-102.292975,22.146317],[-102.299978,22.145458],[-102.303184,22.140457],[-102.320881,22.142097],[-102.336929,22.143345],[-102.34275,22.144122],[-102.35059,22.146557],[-102.352221,22.13711],[-102.353847,22.120644],[-102.354259,22.116991],[-102.360555,22.119596],[-102.366666,22.12135],[-102.380542,22.127081],[-102.386152,22.090334],[-102.418455,22.080481],[-102.416799,22.046751],[-102.416591,22.04043],[-102.387286,22.040319],[-102.383213,22.044349],[-102.384075,22.053598],[-102.38174,22.059071],[-102.37993,22.059099],[-102.377917,22.055423],[-102.375801,22.053659],[-102.371052,22.051237],[-102.36996,22.053186],[-102.367606,22.050399],[-102.365476,22.046723],[-102.362202,22.04587],[-102.360484,22.04698],[-102.359445,22.050603],[-102.35698,22.050438],[-102.354767,22.062767],[-102.351983,22.061686],[-102.337588,22.060117],[-102.335582,22.057465],[-102.336209,22.056186],[-102.335678,22.050665],[-102.326714,22.049752],[-102.325094,22.045892],[-102.334582,22.046446],[-102.333009,22.035768],[-102.338109,22.035676],[-102.337082,22.026842],[-102.332274,22.026735],[-102.332594,22.032403],[-102.321639,22.034573],[-102.319377,22.040419],[-102.31034,22.03716]]]}}
]}