{"type":"FeatureCollection","bbox":[-92.46879,17.812871,-89.121229,20.848327],"features":[
{"type":"Feature","id":"MEX:ADM2:MX-CAM.carmen","properties":{"shapeName":"Carmen","shapeISO":"","shapeGroup":"MEX","shapeType":"ADM2","adm1ISO":"MX-CAM","parentISO":"MX-CAM","parentID":"MEX:ADM1:MX-CAM","src_shape_id":"50627088B86783514296689"},"geometry":{"type":"Polygon","coordinates":[[[-90.851991,18.834382],[-90.868013,18.836198],[-90.871227,18.832825],[-90.915764,18.872298],[-90.91055,18.878465],[-90.916232,18.890358],[-90.902671,18.905423],[-90.901856,18.905314],[-90.901167,18.910226],[-90.912086,18.917685],[-90.912523,18.914446],[-90.944271,18.941989],[-90.966478,18.916934],[-91.020931,18.964897],[-91.026128,18.968115],[-91.003277,18.984684],[-91.015492,19],[-91.028957,19.017192],[-91.04044,19],[-91.047521,18.985808],[-91.089191,19.019926],[-91.091963,19.023169],[-91.095271,19.031278],[-91.099032,19.030952],[-91.099915,19.032326],[-91.10253,19.03149],[-91.112102,19.029482],[-91.114896,19.027165],[-91.117358,19.023886],[-91.120353,19.017097],[-91.123596,19.014717],[-91.133109,19.012809],[-91.141089,19.010335],[-91.139784,19.00868],[-91.138821,19.0052],[-91.139741,19.002199],[-91.142925,18.998746],[-91.148947,18.997826],[-91.153801,18.993138],[-91.156922,18.991934],[-91.159045,18.992153],[-91.163447,18.994025],[-91.163481,18.99889],[-91.16838,18.996326],[-91.176779,18.996721],[-91.18148,18.993826],[-91.183074,18.991926],[-91.184636,18.994455],[-91.192441,18.989849],[-91.198042,18.987367],[-91.203569,18.983977],[-91.223177,18.973893],[-91.233864,18.968741],[-91.246441,18.963542],[-91.256021,18.959774],[-91.264801,18.956586],[-91.292486,18.945712],[-91.29946,18.942635],[-91.319427,18.933476],[-91.334518,18.925958],[-91.343878,18.920952],[-91.362357,18.910567],[-91.370606,18.906191],[-91.391179,18.893738],[-91.39993,18.887181],[-91.405343,18.881993],[-91.405766,18.880155],[-91.409394,18.875842],[-91.416237,18.868764],[-91.423167,18.860974],[-91.436248,18.845559],[-91.443447,18.837468],[-91.447627,18.834317],[-91.46075,18.822675],[-91.462745,18.821274],[-91.469355,18.815227],[-91.482497,18.802747],[-91.495956,18.79273],[-91.498279,18.79051],[-91.5303,18.7804],[-91.533578,18.779893],[-91.538897,18.777274],[-91.549872,18.769142],[-91.558879,18.765131],[-91.567907,18.761424],[-91.570127,18.760834],[-91.580453,18.756323],[-91.592711,18.751776],[-91.595668,18.750124],[-91.605712,18.746349],[-91.619145,18.740637],[-91.628679,18.73735],[-91.641409,18.731636],[-91.646749,18.728074],[-91.649398,18.727246],[-91.65133,18.723598],[-91.654966,18.721807],[-91.660091,18.718258],[-91.665553,18.716597],[-91.673046,18.714827],[-91.685515,18.711374],[-91.69733,18.706477],[-91.699455,18.705195],[-91.700018,18.701039],[-91.699587,18.699193],[-91.707309,18.695285],[-91.718106,18.688761],[-91.72838,18.68478],[-91.733374,18.683145],[-91.740671,18.680196],[-91.747753,18.677953],[-91.767087,18.672822],[-91.777513,18.670681],[-91.78053,18.66954],[-91.788141,18.667943],[-91.797271,18.666597],[-91.815479,18.664868],[-91.824702,18.6642],[-91.833822,18.66479],[-91.839423,18.66452],[-91.84209,18.662737],[-91.848255,18.655565],[-91.850953,18.65066],[-91.855671,18.611294],[-91.857658,18.612925],[-91.86296,18.614362],[-91.878599,18.617969],[-91.894927,18.626511],[-91.900577,18.630054],[-91.908831,18.636258],[-91.913178,18.640487],[-91.917229,18.645189],[-91.9208,18.652212],[-91.923975,18.656809],[-91.930264,18.667482],[-91.93703,18.676432],[-91.945038,18.686487],[-91.951209,18.693595],[-91.95506,18.696724],[-91.956861,18.697425],[-91.961186,18.697348],[-91.966854,18.698222],[-91.972679,18.698335],[-91.98033,18.698941],[-91.989563,18.69923],[-91.992869,18.69803],[-92.00748,18.698512],[-92.008616,18.697841],[-92.01279,18.697954],[-92.014787,18.696998],[-92.021713,18.697366],[-92.029154,18.696174],[-92.034683,18.695909],[-92.036106,18.695219],[-92.046275,18.694737],[-92.046948,18.69424],[-92.053798,18.694125],[-92.05728,18.693364],[-92.062608,18.693671],[-92.068582,18.692858],[-92.074767,18.692754],[-92.083015,18.691656],[-92.086144,18.690935],[-92.092641,18.690867],[-92.098371,18.689556],[-92.107836,18.689106],[-92.110507,18.689353],[-92.113901,18.688495],[-92.122011,18.687433],[-92.127959,18.687094],[-92.133609,18.687284],[-92.143638,18.686618],[-92.14453,18.687026],[-92.152294,18.686147],[-92.152998,18.686797],[-92.165087,18.686451],[-92.166862,18.684925],[-92.168943,18.685079],[-92.171627,18.684083],[-92.177887,18.683481],[-92.180823,18.682681],[-92.188034,18.682151],[-92.193732,18.680775],[-92.197447,18.681664],[-92.204235,18.679475],[-92.2099,18.678862],[-92.216,18.678816],[-92.229832,18.677607],[-92.238459,18.676532],[-92.249865,18.676147],[-92.26067,18.675297],[-92.265615,18.675213],[-92.292156,18.673349],[-92.311998,18.672564],[-92.317022,18.672573],[-92.349844,18.670381],[-92.370883,18.66815],[-92.377384,18.667577],[-92.388894,18.666157],[-92.40508,18.663561],[-92.416386,18.661562],[-92.436225,18.657457],[-92.443071,18.65571],[-92.463545,18.651664],[-92.46879,18.650965],[-92.465073,18.634588],[-92.467089,18.625785],[-92.467103,18.621274],[-92.465745,18.616563],[-92.462726,18.61317],[-92.455876,18.608168],[-92.451944,18.603515],[-92.452153,18.600063],[-92.449221,18.594225],[-92.44659,18.589847],[-92.440207,18.581724],[-92.437554,18.577147],[-92.436671,18.574399],[-92.432571,18.569025],[-92.428409,18.562082],[-92.42623,18.557041],[-92.42389,18.549298],[-92.423479,18.545117],[-92.42347,18.532236],[-92.425601,18.524663],[-92.426546,18.516509],[-92.425955,18.513025],[-92.422271,18.50602],[-92.418463,18.496005],[-92.415333,18.490907],[-92.414052,18.487292],[-92.410329,18.4835],[-92.403311,18.479965],[-92.39798,18.47892],[-92.388248,18.47931],[-92.384817,18.478144],[-92.38241,18.476317],[-92.375416,18.469389],[-92.365494,18.464623],[-92.362221,18.461784],[-92.359658,18.456946],[-92.360982,18.451116],[-92.361017,18.447756],[-92.358318,18.44435],[-92.353802,18.442294],[-92.348714,18.443094],[-92.344646,18.449449],[-92.341602,18.453533],[-92.337335,18.457824],[-92.331575,18.4603],[-92.322529,18.473081],[-92.321492,18.470688],[-92.321552,18.467528],[-92.310556,18.460529],[-92.310287,18.455579],[-92.308192,18.457166],[-92.276246,18.457824],[-92.241063,18.458085],[-92.223408,18.457858],[-92.204517,18.456857],[-92.176148,18.458233],[-92.204852,18.5],[-92.220384,18.51193],[-92.207638,18.547895],[-92.197512,18.546173],[-92.189804,18.545215],[-92.181321,18.544603],[-92.171318,18.54522],[-92.164034,18.546774],[-92.159651,18.548353],[-92.15637,18.550078],[-92.152841,18.553476],[-92.144813,18.560021],[-92.142127,18.564309],[-92.141835,18.568643],[-92.142334,18.574799],[-92.133737,18.579565],[-92.126133,18.579411],[-92.12008,18.578237],[-92.109226,18.574957],[-92.105208,18.574346],[-92.1018,18.574803],[-92.095742,18.577143],[-92.091815,18.579201],[-92.089925,18.58156],[-92.088084,18.582515],[-92.085353,18.58529],[-92.083738,18.585392],[-92.076903,18.589162],[-92.074923,18.585915],[-92.071138,18.582519],[-92.069982,18.580431],[-92.071776,18.574728],[-92.073992,18.572814],[-92.076104,18.573911],[-92.079228,18.572672],[-92.077383,18.569916],[-92.076452,18.566391],[-92.076798,18.564243],[-92.078996,18.56486],[-92.080029,18.563605],[-92.080134,18.559388],[-92.078498,18.555857],[-92.077331,18.55046],[-92.079292,18.549844],[-92.082585,18.54079],[-92.035515,18.530519],[-92.033328,18.531153],[-92.030659,18.528526],[-92.028904,18.525692],[-92.025321,18.527178],[-92.022697,18.530797],[-92.020893,18.530195],[-92.017789,18.5317],[-92.014537,18.530843],[-92.013508,18.537735],[-92.010504,18.536487],[-92.011621,18.529786],[-92.010249,18.524754],[-92.006516,18.521716],[-92.000337,18.519797],[-91.995139,18.51573],[-91.992943,18.514952],[-91.989465,18.515287],[-91.982782,18.514274],[-91.980565,18.514533],[-91.979687,18.511557],[-91.974582,18.512378],[-91.972928,18.515229],[-91.967066,18.513849],[-91.962965,18.513601],[-91.960478,18.515657],[-91.960503,18.519312],[-91.959545,18.521595],[-91.957434,18.5223],[-91.954009,18.521952],[-91.949769,18.523899],[-91.947793,18.526551],[-91.946555,18.530141],[-91.943208,18.531643],[-91.939362,18.531343],[-91.93852,18.532842],[-91.934934,18.532707],[-91.934895,18.534683],[-91.92952,18.537256],[-91.926454,18.539245],[-91.921551,18.538725],[-91.918507,18.536913],[-91.912477,18.539049],[-91.908761,18.541043],[-91.902806,18.541819],[-91.897951,18.545],[-91.895377,18.544041],[-91.891354,18.540138],[-91.887801,18.53866],[-91.883284,18.537487],[-91.877418,18.533969],[-91.875108,18.533738],[-91.873814,18.532326],[-91.869053,18.530884],[-91.86479,18.527872],[-91.860552,18.5266],[-91.859655,18.527684],[-91.857207,18.526682],[-91.857503,18.524475],[-91.855524,18.521537],[-91.853008,18.520897],[-91.851563,18.51953],[-91.851407,18.515269],[-91.852378,18.512156],[-91.850383,18.508425],[-91.8508,18.506619],[-91.853087,18.504995],[-91.858549,18.505046],[-91.862079,18.506702],[-91.863585,18.510073],[-91.864499,18.514],[-91.868074,18.516985],[-91.871737,18.517806],[-91.875241,18.515481],[-91.877498,18.515188],[-91.879447,18.512494],[-91.880639,18.509483],[-91.879965,18.505126],[-91.872921,18.502219],[-91.866666,18.501003],[-91.862289,18.500985],[-91.860489,18.503657],[-91.858898,18.504492],[-91.85519,18.50447],[-91.852516,18.504844],[-91.851246,18.505487],[-91.848434,18.504277],[-91.840793,18.503015],[-91.838227,18.50513],[-91.834785,18.501935],[-91.83145,18.500162],[-91.828647,18.49945],[-91.826107,18.499724],[-91.82143,18.49776],[-91.817534,18.497583],[-91.811878,18.49886],[-91.809398,18.499918],[-91.804793,18.499043],[-91.80167,18.495018],[-91.796812,18.493348],[-91.793982,18.494435],[-91.792132,18.492185],[-91.78882,18.492396],[-91.78334,18.489555],[-91.779517,18.488019],[-91.779875,18.482796],[-91.781307,18.479815],[-91.783574,18.477814],[-91.785911,18.476995],[-91.784446,18.473045],[-91.78537,18.471281],[-91.789481,18.468424],[-91.790934,18.472466],[-91.795082,18.476796],[-91.796903,18.475722],[-91.806395,18.457126],[-91.812591,18.445687],[-91.813451,18.443078],[-91.820684,18.444624],[-91.824107,18.447267],[-91.825407,18.446985],[-91.828922,18.44344],[-91.828259,18.442825],[-91.825389,18.435852],[-91.828385,18.436516],[-91.835686,18.420365],[-91.834895,18.419704],[-91.838784,18.415703],[-91.84894,18.408113],[-91.850005,18.405011],[-91.849125,18.401744],[-91.845605,18.400313],[-91.842012,18.401979],[-91.838536,18.400841],[-91.858253,18.394383],[-91.857264,18.392624],[-91.8579,18.389521],[-91.855881,18.387114],[-91.854917,18.384321],[-91.851612,18.383938],[-91.85083,18.382194],[-91.85327,18.380861],[-91.852237,18.379049],[-91.857305,18.379926],[-91.857928,18.376208],[-91.856435,18.373066],[-91.855478,18.367437],[-91.863333,18.359515],[-91.86419,18.358039],[-91.861321,18.350053],[-91.864211,18.346835],[-91.885111,18.332499],[-91.8907,18.33311],[-91.892719,18.331511],[-91.896538,18.33154],[-91.89943,18.333918],[-91.906441,18.333573],[-91.914846,18.32878],[-91.92844,18.31847],[-91.927541,18.314297],[-91.924305,18.308661],[-91.906311,18.289497],[-91.896659,18.303018],[-91.84632,18.328151],[-91.8419,18.325637],[-91.839694,18.323523],[-91.835478,18.321697],[-91.830934,18.320964],[-91.83093,18.323105],[-91.828917,18.325001],[-91.826473,18.322518],[-91.825905,18.317573],[-91.827521,18.316075],[-91.832449,18.31514],[-91.833495,18.313663],[-91.833353,18.310953],[-91.832081,18.307459],[-91.828523,18.304915],[-91.830162,18.301782],[-91.833807,18.300185],[-91.83461,18.294675],[-91.833552,18.292489],[-91.834318,18.289394],[-91.831524,18.28677],[-91.830864,18.284807],[-91.831493,18.282102],[-91.830705,18.27563],[-91.831758,18.272281],[-91.831488,18.26949],[-91.829171,18.264868],[-91.830117,18.263057],[-91.827506,18.260056],[-91.823414,18.256453],[-91.822147,18.253447],[-91.823303,18.251283],[-91.822946,18.249261],[-91.821323,18.248737],[-91.821161,18.246713],[-91.819169,18.244753],[-91.820208,18.24294],[-91.81708,18.239124],[-91.814262,18.2374],[-91.814284,18.23492],[-91.817644,18.233258],[-91.818203,18.230947],[-91.81602,18.230434],[-91.816013,18.228596],[-91.814587,18.226406],[-91.812455,18.225027],[-91.810942,18.222304],[-91.803585,18.217884],[-91.801564,18.214039],[-91.804493,18.205923],[-91.804175,18.198786],[-91.802978,18.196554],[-91.804164,18.195082],[-91.80236,18.192977],[-91.799224,18.190958],[-91.796707,18.190626],[-91.79423,18.18854],[-91.793367,18.186818],[-91.786374,18.182875],[-91.7834,18.178543],[-91.780333,18.177112],[-91.777919,18.174558],[-91.777716,18.165938],[-91.776867,18.15234],[-91.774564,18.12671],[-91.772976,18.111162],[-91.763525,18.112033],[-91.766859,18.148057],[-91.770862,18.169113],[-91.771396,18.170158],[-91.752283,18.185053],[-91.740278,18.165438],[-91.736435,18.168095],[-91.734283,18.164763],[-91.734696,18.162139],[-91.733918,18.154862],[-91.754032,18.150291],[-91.745335,18.126304],[-91.739296,18.114414],[-91.732519,18.101635],[-91.732202,18.086722],[-91.732463,18.075184],[-91.732424,18.063365],[-91.760696,18.056074],[-91.751582,18.033227],[-91.726895,18.018449],[-91.699929,18.017475],[-91.689958,18.019177],[-91.670071,18.02163],[-91.657284,18.023332],[-91.658063,18.01734],[-91.666623,18.016762],[-91.701781,18.014054],[-91.753466,18.009954],[-91.752899,18.003564],[-91.751489,18.003632],[-91.750776,17.99455],[-91.723201,17.966054],[-91.717743,17.960798],[-91.738694,17.936183],[-91.737028,17.934217],[-91.725087,17.926671],[-91.725101,17.924495],[-91.712404,17.921643],[-91.712827,17.918927],[-91.697753,17.909614],[-91.67473,17.896385],[-91.671942,17.894661],[-91.638806,17.873954],[-91.632749,17.884196],[-91.634318,17.885096],[-91.629101,17.897128],[-91.631542,17.898149],[-91.633089,17.905016],[-91.627737,17.907453],[-91.619363,17.909212],[-91.617511,17.910821],[-91.612714,17.912919],[-91.619625,17.91919],[-91.620269,17.92223],[-91.622047,17.942575],[-91.62474,17.949072],[-91.620867,17.952686],[-91.620735,17.956832],[-91.619773,17.957574],[-91.621513,17.961587],[-91.620759,17.967238],[-91.619182,17.972854],[-91.61999,17.97644],[-91.619344,17.978803],[-91.616535,17.984696],[-91.615821,17.989084],[-91.617274,17.99701],[-91.616988,17.999903],[-91.618248,18.003003],[-91.617083,18.004103],[-91.619322,18.008175],[-91.619559,18.009926],[-91.61864,18.017937],[-91.616366,18.021236],[-91.617523,18.024225],[-91.614464,18.028944],[-91.614016,18.032595],[-91.615168,18.03517],[-91.613648,18.043744],[-91.612544,18.048091],[-91.613998,18.048947],[-91.613575,18.051409],[-91.614706,18.053921],[-91.618749,18.056297],[-91.619295,18.060804],[-91.617563,18.062608],[-91.614969,18.067699],[-91.610084,18.070501],[-91.608973,18.070487],[-91.606836,18.078085],[-91.60762,18.079626],[-91.606119,18.082769],[-91.607028,18.087428],[-91.609644,18.089199],[-91.609169,18.093291],[-91.610955,18.09498],[-91.609599,18.096299],[-91.609505,18.098438],[-91.607493,18.101453],[-91.605194,18.102858],[-91.603224,18.107744],[-91.601319,18.106984],[-91.597738,18.108655],[-91.594463,18.107308],[-91.591372,18.106899],[-91.58946,18.108423],[-91.589368,18.111479],[-91.590748,18.112158],[-91.589907,18.115014],[-91.591418,18.116127],[-91.59278,18.120279],[-91.595088,18.122553],[-91.594951,18.125754],[-91.593427,18.128168],[-91.591528,18.129344],[-91.587398,18.129183],[-91.581238,18.135247],[-91.579833,18.13453],[-91.572199,18.142015],[-91.582729,18.152461],[-91.581048,18.15333],[-91.581245,18.155407],[-91.580123,18.158053],[-91.57803,18.158958],[-91.572749,18.156707],[-91.570001,18.157169],[-91.567346,18.159157],[-91.561541,18.157576],[-91.558653,18.157879],[-91.555379,18.156723],[-91.552761,18.158176],[-91.534505,18.146174],[-91.524523,18.159897],[-91.522123,18.159768],[-91.519827,18.161931],[-91.520465,18.163405],[-91.517271,18.165209],[-91.515923,18.169741],[-91.51238,18.169006],[-91.509337,18.171055],[-91.506795,18.170244],[-91.505848,18.167183],[-91.503244,18.165079],[-91.504853,18.16123],[-91.501876,18.156412],[-91.502334,18.154349],[-91.515213,18.154952],[-91.516532,18.130485],[-91.505732,18.130003],[-91.504665,18.126676],[-91.504872,18.123961],[-91.501973,18.121994],[-91.503572,18.120109],[-91.503876,18.117313],[-91.500593,18.117306],[-91.49785,18.115174],[-91.49604,18.116369],[-91.491872,18.116906],[-91.486493,18.116549],[-91.485076,18.113742],[-91.483248,18.112509],[-91.479814,18.113059],[-91.476909,18.112353],[-91.475463,18.108028],[-91.472861,18.1055],[-91.469642,18.103398],[-91.466053,18.104185],[-91.463419,18.102028],[-91.460911,18.102127],[-91.459691,18.1008],[-91.456932,18.100073],[-91.457049,18.098537],[-91.454886,18.097561],[-91.453294,18.098087],[-91.450288,18.096383],[-91.449029,18.094715],[-91.44528,18.095783],[-91.441179,18.090887],[-91.439844,18.087109],[-91.43828,18.084481],[-91.433366,18.082098],[-91.425768,18.081262],[-91.422879,18.080208],[-91.418094,18.081485],[-91.415994,18.081316],[-91.412528,18.079101],[-91.409042,18.078952],[-91.401437,18.080288],[-91.398987,18.080148],[-91.39664,18.078751],[-91.392947,18.075097],[-91.393157,18.071991],[-91.389678,18.066471],[-91.383091,18.063874],[-91.379247,18.064082],[-91.374593,18.0672],[-91.369461,18.067579],[-91.368178,18.06633],[-91.365959,18.06691],[-91.363932,18.069369],[-91.359426,18.070372],[-91.354046,18.068528],[-91.349474,18.064829],[-91.344015,18.063624],[-91.34076,18.064174],[-91.337096,18.06394],[-91.330706,18.062499],[-91.328291,18.062804],[-91.312691,18.085326],[-91.304067,18.077978],[-91.300805,18.08852],[-91.299155,18.102904],[-91.287843,18.102431],[-91.287616,18.099745],[-91.283015,18.099166],[-91.282568,18.1033],[-91.239429,18.098838],[-91.238598,18.105946],[-91.250053,18.143934],[-91.252441,18.14756],[-91.252682,18.15414],[-91.254075,18.156122],[-91.251803,18.158161],[-91.251956,18.160022],[-91.254057,18.1617],[-91.254439,18.163582],[-91.250693,18.166548],[-91.249474,18.170238],[-91.250808,18.171157],[-91.249261,18.175023],[-91.249528,18.17665],[-91.251928,18.1789],[-91.252113,18.182342],[-91.249026,18.18477],[-91.249455,18.187422],[-91.247746,18.189427],[-91.244849,18.194219],[-91.24631,18.203112],[-91.267725,18.199912],[-91.263984,18.209262],[-91.234387,18.216245],[-91.212363,18.22157],[-91.208648,18.22259],[-91.187388,18.227671],[-91.19047,18.235496],[-91.185807,18.276915],[-91.174979,18.275724],[-91.162306,18.287023],[-91.156482,18.28263],[-91.151695,18.28835],[-91.133749,18.287467],[-91.119795,18.30413],[-91.108545,18.3026],[-91.105146,18.306757],[-91.116487,18.308531],[-91.115303,18.319313],[-91.124212,18.320344],[-91.127158,18.328268],[-91.111058,18.330932],[-91.109611,18.328241],[-91.105091,18.327546],[-91.102871,18.339891],[-91.084395,18.338017],[-91.083538,18.342982],[-91.097866,18.345162],[-91.096387,18.364064],[-91.079427,18.369177],[-91.066036,18.370031],[-91.066281,18.358182],[-91.06724,18.349413],[-91.068721,18.340591],[-91.053768,18.338263],[-91.042263,18.338184],[-91.018611,18.335107],[-91.017171,18.348735],[-91.015992,18.361603],[-91.007298,18.360023],[-90.997315,18.358238],[-90.993866,18.390969],[-91.004067,18.391429],[-91.025769,18.412918],[-91.026638,18.411454],[-91.029955,18.414775],[-91.023755,18.431578],[-91.006744,18.484081],[-91.005155,18.5],[-91.003377,18.513934],[-91.002565,18.522718],[-91.001234,18.533557],[-90.995001,18.538871],[-91.01309,18.558685],[-90.994018,18.572992],[-90.985237,18.563115],[-90.995242,18.555189],[-90.986596,18.544961],[-90.971335,18.556891],[-90.996997,18.587086],[-90.983256,18.585758],[-90.981661,18.587515],[-90.975297,18.586938],[-90.972264,18.609266],[-90.968266,18.635683],[-90.981934,18.637754],[-90.978807,18.657008],[-90.941795,18.654206],[-90.940853,18.6583],[-90.915874,18.653953],[-90.915895,18.653043],[-90.919934,18.623429],[-90.904023,18.621926],[-90.90075,18.644631],[-90.899979,18.651185],[-90.89838,18.650944],[-90.89255,18.670985],[-90.890596,18.676444],[-90.870903,18.670818],[-90.870334,18.67661],[-90.869347,18.681245],[-90.848084,18.68],[-90.847012,18.688213],[-90.836146,18.686644],[-90.827517,18.685991],[-90.823008,18.714637],[-90.804044,18.712328],[-90.795428,18.742166],[-90.812149,18.744703],[-90.810831,18.758287],[-90.844086,18.761329],[-90.840021,18.799417],[-90.832148,18.798893],[-90.826211,18.819447],[-90.823744,18.830974],[-90.831387,18.831993],[-90.851991,18.834382]]]}},
{"type":"Feature","id":"MEX:ADM2:MX-CAM.palizada","properties":{"shapeName":"Palizada","shapeISO":"","shapeGroup":"MEX","shapeType":"ADM2","adm1ISO":"MX-CAM","parentISO":"MX-CAM","parentID":"MEX:ADM1:MX-CAM","src_shape_id":"50627088B79196396706593"},"geometry":{"type":"Polygon","coordinates":[[[-92.176148,18.458233],[-92.17651,18.425924],[-92.176474,18.415789],[-92.17736,18.375883],[-92.181949,18.375902],[-92.171358,18.338954],[-92.176634,18.31077],[-92.178106,18.301882],[-92.180429,18.289824],[-92.17919,18.288488],[-92.177228,18.288745],[-92.175198,18.294043],[-92.174252,18.290102],[-92.174957,18.287043],[-92.172951,18.275338],[-92.183244,18.274063],[-92.179257,18.268666],[-92.171267,18.252953],[-92.162635,18.236631],[-92.148938,18.210406],[-92.164424,18.197866],[-92.161724,18.193749],[-92.160562,18.188669],[-92.160903,18.155424],[-92.148782,18.149296],[-92.149043,18.13673],[-92.131304,18.122284],[-92.128336,18.12015],[-92.127425,18.108658],[-92.121662,18.101755],[-92.118256,18.102008],[-92.116381,18.100959],[-92.112006,18.095644],[-92.108281,18.093807],[-92.092231,18.09205],[-92.090627,18.091134],[-92.084142,18.085861],[-92.080442,18.086056],[-92.078833,18.087938],[-92.07777,18.092589],[-92.076796,18.094287],[-92.072965,18.094008],[-92.069414,18.092089],[-92.068023,18.092113],[-92.062172,18.098164],[-92.058148,18.098024],[-92.055035,18.094739],[-92.052601,18.094085],[-92.049154,18.094323],[-92.045786,18.095279],[-92.041661,18.098077],[-92.039939,18.09795],[-92.037017,18.094955],[-92.035901,18.091141],[-92.035986,18.087363],[-92.037299,18.085201],[-92.042469,18.081262],[-92.042095,18.078319],[-92.037976,18.077364],[-92.034842,18.078149],[-92.029987,18.07798],[-92.026631,18.075864],[-92.024467,18.067763],[-92.022865,18.064706],[-92.018744,18.060675],[-92.016934,18.058089],[-92.014429,18.052613],[-92.011818,18.050945],[-92.007344,18.049982],[-91.999608,18.044259],[-91.990799,18.038739],[-91.987362,18.038881],[-91.982801,18.043104],[-91.978779,18.04283],[-91.975402,18.036941],[-91.974594,18.033356],[-91.972959,18.030186],[-91.969613,18.025229],[-91.966748,18.015988],[-91.940122,18.012564],[-91.935356,18.010202],[-91.913493,18.013092],[-91.909723,18.013786],[-91.900355,18.012147],[-91.88811,18.006338],[-91.867208,17.983266],[-91.855556,17.981061],[-91.804644,17.972551],[-91.771185,17.944367],[-91.768006,17.948548],[-91.762267,17.939014],[-91.757101,17.939734],[-91.761389,17.946001],[-91.760487,17.957626],[-91.745115,17.940805],[-91.739537,17.935214],[-91.738694,17.936183],[-91.717743,17.960798],[-91.723201,17.966054],[-91.750776,17.99455],[-91.751489,18.003632],[-91.752899,18.003564],[-91.753466,18.009954],[-91.701781,18.014054],[-91.666623,18.016762],[-91.658063,18.01734],[-91.657284,18.023332],[-91.670071,18.02163],[-91.689958,18.019177],[-91.699929,18.017475],[-91.726895,18.018449],[-91.751582,18.033227],[-91.760696,18.056074],[-91.732424,18.063365],[-91.732463,18.075184],[-91.732202,18.086722],[-91.732519,18.101635],[-91.739296,18.114414],[-91.745335,18.126304],[-91.754032,18.150291],[-91.733918,18.154862],[-91.734696,18.162139],[-91.734283,18.164763],[-91.736435,18.168095],[-91.740278,18.165438],[-91.752283,18.185053],[-91.771396,18.170158],[-91.770862,18.169113],[-91.766859,18.148057],[-91.763525,18.112033],[-91.772976,18.111162],[-91.774564,18.12671],[-91.776867,18.15234],[-91.777716,18.165938],[-91.777919,18.174558],[-91.780333,18.177112],[-91.7834,18.178543],[-91.786374,18.182875],[-91.793367,18.186818],[-91.79423,18.18854],[-91.796707,18.190626],[-91.799224,18.190958],[-91.80236,18.192977],[-91.804164,18.195082],[-91.802978,18.196554],[-91.804175,18.198786],[-91.804493,18.205923],[-91.801564,18.214039],[-91.803585,18.217884],[-91.810942,18.222304],[-91.812455,18.225027],[-91.814587,18.226406],[-91.816013,18.228596],[-91.81602,18.230434],[-91.818203,18.230947],[-91.817644,18.233258],[-91.814284,18.23492],[-91.814262,18.2374],[-91.81708,18.239124],[-91.820208,18.24294],[-91.819169,18.244753],[-91.821161,18.246713],[-91.821323,18.248737],[-91.822946,18.249261],[-91.823303,18.251283],[-91.822147,18.253447],[-91.823414,18.256453],[-91.827506,18.260056],[-91.830117,18.263057],[-91.829171,18.264868],[-91.831488,18.26949],[-91.831758,18.272281],[-91.830705,18.27563],[-91.831493,18.282102],[-91.830864,18.284807],[-91.831524,18.28677],[-91.834318,18.289394],[-91.833552,18.292489],[-91.83461,18.294675],[-91.833807,18.300185],[-91.830162,18.301782],[-91.828523,18.304915],[-91.832081,18.307459],[-91.833353,18.310953],[-91.833495,18.313663],[-91.832449,18.31514],[-91.827521,18.316075],[-91.825905,18.317573],[-91.826473,18.322518],[-91.828917,18.325001],[-91.83093,18.323105],[-91.830934,18.320964],[-91.835478,18.321697],[-91.839694,18.323523],[-91.8419,18.325637],[-91.84632,18.328151],[-91.896659,18.303018],[-91.906311,18.289497],[-91.924305,18.308661],[-91.927541,18.314297],[-91.92844,18.31847],[-91.914846,18.32878],[-91.906441,18.333573],[-91.89943,18.333918],[-91.896538,18.33154],[-91.892719,18.331511],[-91.8907,18.33311],[-91.885111,18.332499],[-91.864211,18.346835],[-91.861321,18.350053],[-91.86419,18.358039],[-91.863333,18.359515],[-91.855478,18.367437],[-91.856435,18.373066],[-91.857928,18.376208],[-91.857305,18.379926],[-91.852237,18.379049],[-91.85327,18.380861],[-91.85083,18.382194],[-91.851612,18.383938],[-91.854917,18.384321],[-91.855881,18.387114],[-91.8579,18.389521],[-91.857264,18.392624],[-91.858253,18.394383],[-91.838536,18.400841],[-91.842012,18.401979],[-91.845605,18.400313],[-91.849125,18.401744],[-91.850005,18.405011],[-91.84894,18.408113],[-91.838784,18.415703],[-91.834895,18.419704],[-91.835686,18.420365],[-91.828385,18.436516],[-91.825389,18.435852],[-91.828259,18.442825],[-91.828922,18.44344],[-91.825407,18.446985],[-91.824107,18.447267],[-91.820684,18.444624],[-91.813451,18.443078],[-91.812591,18.445687],[-91.806395,18.457126],[-91.796903,18.475722],[-91.795082,18.476796],[-91.790934,18.472466],[-91.789481,18.468424],[-91.78537,18.471281],[-91.784446,18.473045],[-91.785911,18.476995],[-91.783574,18.477814],[-91.781307,18.479815],[-91.779875,18.482796],[-91.779517,18.488019],[-91.78334,18.489555],[-91.78882,18.492396],[-91.792132,18.492185],[-91.793982,18.494435],[-91.796812,18.493348],[-91.80167,18.495018],[-91.804793,18.499043],[-91.809398,18.499918],[-91.811878,18.49886],[-91.817534,18.497583],[-91.82143,18.49776],[-91.826107,18.499724],[-91.828647,18.49945],[-91.83145,18.500162],[-91.834785,18.501935],[-91.838227,18.50513],[-91.840793,18.503015],[-91.848434,18.504277],[-91.851246,18.505487],[-91.852516,18.504844],[-91.85519,18.50447],[-91.858898,18.504492],[-91.860489,18.503657],[-91.862289,18.500985],[-91.866666,18.501003],[-91.872921,18.502219],[-91.879965,18.505126],[-91.880639,18.509483],[-91.879447,18.512494],[-91.877498,18.515188],[-91.875241,18.515481],[-91.871737,18.517806],[-91.868074,18.516985],[-91.864499,18.514],[-91.863585,18.510073],[-91.862079,18.506702],[-91.858549,18.505046],[-91.853087,18.504995],[-91.8508,18.506619],[-91.850383,18.508425],[-91.852378,18.512156],[-91.851407,18.515269],[-91.851563,18.51953],[-91.853008,18.520897],[-91.855524,18.521537],[-91.857503,18.524475],[-91.857207,18.526682],[-91.859655,18.527684],[-91.860552,18.5266],[-91.86479,18.527872],[-91.869053,18.530884],[-91.873814,18.532326],[-91.875108,18.533738],[-91.877418,18.533969],[-91.883284,18.537487],[-91.887801,18.53866],[-91.891354,18.540138],[-91.895377,18.544041],[-91.897951,18.545],[-91.902806,18.541819],[-91.908761,18.541043],[-91.912477,18.539049],[-91.918507,18.536913],[-91.921551,18.538725],[-91.926454,18.539245],[-91.92952,18.537256],[-91.934895,18.534683],[-91.934934,18.532707],[-91.93852,18.532842],[-91.939362,18.531343],[-91.943208,18.531643],[-91.946555,18.530141],[-91.947793,18.526551],[-91.949769,18.523899],[-91.954009,18.521952],[-91.957434,18.5223],[-91.959545,18.521595],[-91.960503,18.519312],[-91.960478,18.515657],[-91.962965,18.513601],[-91.967066,18.513849],[-91.972928,18.515229],[-91.974582,18.512378],[-91.979687,18.511557],[-91.980565,18.514533],[-91.982782,18.514274],[-91.989465,18.515287],[-91.992943,18.514952],[-91.995139,18.51573],[-92.000337,18.519797],[-92.006516,18.521716],[-92.010249,18.524754],[-92.011621,18.529786],[-92.010504,18.536487],[-92.013508,18.537735],[-92.014537,18.530843],[-92.017789,18.5317],[-92.020893,18.530195],[-92.022697,18.530797],[-92.025321,18.527178],[-92.028904,18.525692],[-92.030659,18.528526],[-92.033328,18.531153],[-92.035515,18.530519],[-92.082585,18.54079],[-92.079292,18.549844],[-92.077331,18.55046],[-92.078498,18.555857],[-92.080134,18.559388],[-92.080029,18.563605],[-92.078996,18.56486],[-92.076798,18.564243],[-92.076452,18.566391],[-92.077383,18.569916],[-92.079228,18.572672],[-92.076104,18.573911],[-92.073992,18.572814],[-92.071776,18.574728],[-92.069982,18.580431],[-92.071138,18.582519],[-92.074923,18.585915],[-92.076903,18.589162],[-92.083738,18.585392],[-92.085353,18.58529],[-92.088084,18.582515],[-92.089925,18.58156],[-92.091815,18.579201],[-92.095742,18.577143],[-92.1018,18.574803],[-92.105208,18.574346],[-92.109226,18.574957],[-92.12008,18.578237],[-92.126133,18.579411],[-92.133737,18.579565],[-92.142334,18.574799],[-92.141835,18.568643],[-92.142127,18.564309],[-92.144813,18.560021],[-92.152841,18.553476],[-92.15637,18.550078],[-92.159651,18.548353],[-92.164034,18.546774],[-92.171318,18.54522],[-92.181321,18.544603],[-92.189804,18.545215],[-92.197512,18.546173],[-92.207638,18.547895],[-92.220384,18.51193],[-92.204852,18.5],[-92.176148,18.458233]]]}},
{"type":"Feature","id":"MEX:ADM2:MX-CAM.calkini","properties":{"shapeName":"Calkiní","shapeISO":"","shapeGroup":"MEX","shapeType":"ADM2","adm1ISO":"MX-CAM","parentISO":"MX-CAM","parentID":"MEX:ADM1:MX-CAM","src_shape_id":"50627088B85126992940446"},"geometry":{"type":"MultiPolygon","coordinates":[[[[-90.470398,20.621461],[-90.469803,20.626147],[-90.468983,20.627648],[-90.468388,20.632234],[-90.465133,20.640799],[-90.464799,20.645887],[-90.467379,20.650726],[-90.469476,20.652503],[-90.470729,20.651361],[-90.471054,20.647565],[-90.470237,20.645232],[-90.473316,20.63003],[-90.478251,20.618261],[-90.478338,20.614305],[-90.47744,20.610318],[-90.475186,20.605839],[-90.47435,20.599713],[-90.470908,20.598392],[-90.471206,20.604362],[-90.472694,20.605257],[-90.473285,20.60852],[-90.474739,20.610282],[-90.472337,20.618315],[-90.470398,20.621461]]],[[[-90.461489,20.639226],[-90.460448,20.644145],[-90.461235,20.648394],[-90.460707,20.650305],[-90.461585,20.655516],[-90.466011,20.658368],[-90.469445,20.658429],[-90.470409,20.656106],[-90.46807,20.653173],[-90.464275,20.650543],[-90.462982,20.647546],[-90.462087,20.643423],[-90.462585,20.640504],[-90.461489,20.639226]]],[[[-90.452462,20.682339],[-90.452526,20.684397],[-90.454081,20.685593],[-90.455447,20.689152],[-90.458408,20.693504],[-90.459013,20.689766],[-90.463727,20.683226],[-90.463055,20.682505],[-90.465636,20.679213],[-90.466663,20.676863],[-90.466771,20.672806],[-90.465707,20.667368],[-90.461916,20.665208],[-90.457677,20.661993],[-90.45531,20.65693],[-90.453009,20.658343],[-90.452591,20.661474],[-90.453048,20.664235],[-90.451617,20.664691],[-90.451546,20.668284],[-90.452266,20.671627],[-90.456858,20.674087],[-90.456707,20.676106],[-90.454869,20.676589],[-90.452457,20.673501],[-90.451328,20.676296],[-90.45308,20.679912],[-90.452462,20.682339]]],[[[-90.381822,20.74952],[-90.379357,20.848327],[-90.399847,20.845287],[-90.404524,20.846764],[-90.403606,20.844663],[-90.404484,20.84062],[-90.41043,20.82883],[-90.412304,20.824615],[-90.415456,20.812266],[-90.415756,20.799421],[-90.414756,20.795434],[-90.414962,20.788515],[-90.414181,20.785065],[-90.414043,20.780267],[-90.414785,20.776376],[-90.413335,20.775721],[-90.406824,20.776129],[-90.406545,20.772393],[-90.407692,20.76831],[-90.410452,20.765223],[-90.410368,20.761797],[-90.411757,20.758078],[-90.414851,20.754623],[-90.418615,20.752119],[-90.420641,20.749004],[-90.424307,20.746411],[-90.429845,20.747115],[-90.43141,20.744851],[-90.43052,20.741345],[-90.430519,20.737549],[-90.431402,20.734628],[-90.433517,20.731018],[-90.433911,20.728122],[-90.435364,20.726365],[-90.439308,20.724883],[-90.440805,20.723147],[-90.44382,20.721298],[-90.445052,20.719161],[-90.448231,20.716535],[-90.450829,20.709873],[-90.45361,20.70411],[-90.454703,20.699351],[-90.454378,20.692951],[-90.453263,20.690888],[-90.452099,20.686515],[-90.443881,20.68496],[-90.443534,20.682393],[-90.442136,20.679612],[-90.442944,20.677322],[-90.445227,20.674885],[-90.445447,20.667576],[-90.445172,20.664616],[-90.446103,20.661123],[-90.44655,20.655297],[-90.446444,20.65062],[-90.447295,20.649341],[-90.446528,20.643493],[-90.447405,20.639898],[-90.448781,20.637608],[-90.448231,20.633707],[-90.450143,20.632743],[-90.452073,20.629244],[-90.452072,20.626153],[-90.456632,20.617351],[-90.45659,20.615828],[-90.45331,20.614037],[-90.456162,20.611649],[-90.457869,20.608711],[-90.457276,20.607222],[-90.457779,20.603813],[-90.460921,20.601374],[-90.464404,20.590977],[-90.463484,20.590191],[-90.464452,20.58681],[-90.46668,20.583239],[-90.469287,20.580879],[-90.470057,20.576922],[-90.472446,20.57319],[-90.473934,20.5684],[-90.479613,20.562162],[-90.482384,20.557217],[-90.481971,20.554431],[-90.484045,20.550401],[-90.486123,20.543439],[-90.485504,20.542514],[-90.489094,20.536522],[-90.490494,20.530783],[-90.493492,20.52716],[-90.494956,20.522389],[-90.493348,20.519339],[-90.495785,20.515792],[-90.496598,20.510782],[-90.49935,20.502838],[-90.500861,20.501321],[-90.502261,20.497776],[-90.502282,20.494172],[-90.500088,20.49255],[-90.502378,20.489036],[-90.501963,20.476489],[-90.50242,20.472194],[-90.501144,20.471199],[-90.501172,20.466458],[-90.502576,20.465118],[-90.501491,20.462812],[-90.500762,20.456111],[-90.499015,20.453589],[-90.4962,20.4535],[-90.4951,20.4523],[-90.494416,20.44867],[-90.4933,20.4477],[-90.493124,20.442738],[-90.491608,20.440986],[-90.491759,20.439118],[-90.496724,20.433758],[-90.495916,20.430251],[-90.496497,20.429269],[-90.495251,20.424328],[-90.49357,20.422374],[-90.494176,20.420857],[-90.492729,20.417107],[-90.491895,20.409147],[-90.492586,20.405916],[-90.490004,20.406685],[-90.490486,20.401704],[-90.486974,20.39074],[-90.486719,20.387549],[-90.485107,20.380121],[-90.483528,20.37639],[-90.483792,20.371634],[-90.485446,20.369357],[-90.486387,20.362864],[-90.489826,20.357534],[-90.490409,20.354226],[-90.492216,20.349519],[-90.492065,20.344854],[-90.494331,20.34366],[-90.49668,20.340978],[-90.49466,20.339675],[-90.491689,20.334033],[-90.489515,20.326956],[-90.490716,20.324841],[-90.489917,20.320314],[-90.49104,20.318438],[-90.492205,20.311298],[-90.492075,20.309373],[-90.489801,20.304948],[-90.489315,20.297864],[-90.490412,20.292554],[-90.489863,20.289719],[-90.490275,20.284647],[-90.48932,20.282278],[-90.491762,20.275175],[-90.49215,20.272417],[-90.491143,20.267446],[-90.491359,20.26277],[-90.490462,20.257809],[-90.489589,20.257341],[-90.488463,20.250927],[-90.489696,20.247526],[-90.48951,20.245184],[-90.487831,20.238089],[-90.487869,20.2286],[-90.487151,20.226792],[-90.487632,20.223286],[-90.486785,20.221458],[-90.487981,20.21968],[-90.489056,20.215665],[-90.486959,20.214701],[-90.481993,20.210567],[-90.416586,20.232127],[-90.353752,20.252808],[-90.353042,20.257501],[-90.285657,20.250096],[-90.280303,20.249335],[-90.277927,20.255679],[-90.254221,20.251317],[-90.254831,20.247115],[-90.242647,20.245643],[-90.241274,20.263824],[-90.219066,20.261084],[-90.217693,20.271451],[-90.205345,20.270751],[-90.210874,20.227342],[-90.157832,20.221889],[-90.155167,20.236866],[-90.156522,20.24259],[-90.160311,20.246995],[-90.157819,20.253608],[-90.150347,20.248775],[-90.134561,20.254051],[-90.135006,20.265161],[-90.131882,20.265125],[-90.126669,20.264145],[-90.126188,20.267727],[-90.09236,20.264919],[-90.09351,20.260965],[-90.08803,20.258686],[-90.089307,20.256086],[-90.068864,20.25288],[-90.068031,20.231777],[-90.067708,20.23165],[-90.063495,20.215411],[-90.061422,20.215468],[-90.061994,20.211162],[-90.054246,20.208266],[-90.052742,20.206167],[-90.041059,20.208564],[-90.040993,20.20745],[-90.029882,20.20558],[-90.030229,20.176631],[-90.027507,20.17485],[-90.025301,20.171352],[-90.019939,20.170225],[-90.01914,20.171004],[-89.997368,20.168451],[-89.998334,20.178272],[-89.997725,20.194196],[-89.996701,20.20277],[-89.996142,20.213073],[-89.980128,20.212762],[-89.980958,20.225107],[-89.962055,20.216316],[-89.961278,20.230863],[-89.935326,20.225991],[-89.938379,20.210818],[-89.940797,20.195792],[-89.965006,20.15743],[-89.889764,20.138829],[-89.902053,20.115809],[-89.855532,20.112753],[-89.843453,20.209275],[-89.846165,20.209687],[-89.846096,20.213771],[-89.840678,20.251028],[-89.875661,20.253102],[-89.872382,20.287628],[-89.837964,20.287176],[-89.902479,20.364835],[-89.967983,20.44357],[-90.004174,20.487022],[-90.005625,20.477367],[-90.020341,20.477083],[-90.026068,20.473657],[-90.032682,20.470975],[-90.034904,20.469672],[-90.03969,20.468221],[-90.048091,20.459824],[-90.050202,20.454565],[-90.055272,20.444514],[-90.057099,20.432966],[-90.066019,20.433975],[-90.067211,20.425226],[-90.100974,20.425252],[-90.101418,20.426475],[-90.105067,20.428488],[-90.107766,20.431489],[-90.118933,20.436675],[-90.129273,20.440352],[-90.131038,20.44275],[-90.132461,20.439655],[-90.139805,20.44038],[-90.147777,20.441599],[-90.160515,20.441863],[-90.169401,20.44056],[-90.17848,20.437656],[-90.186298,20.436932],[-90.184788,20.461046],[-90.234208,20.470467],[-90.223767,20.519165],[-90.232508,20.519894],[-90.229241,20.543563],[-90.234751,20.54406],[-90.234583,20.545343],[-90.335236,20.541312],[-90.335236,20.576348],[-90.341138,20.553701],[-90.386649,20.555586],[-90.381877,20.747305],[-90.381822,20.74952]]]]}},
{"type":"Feature","id":"MEX:ADM2:MX-CAM.hecelchakan","properties":{"shapeName":"Hecelchakán","shapeISO":"","shapeGroup":"MEX","shapeType":"ADM2","adm1ISO":"MX-CAM","parentISO":"MX-CAM","parentID":"MEX:ADM1:MX-CAM","src_shape_id":"50627088B80471800868115"},"geometry":{"type":"MultiPolygon","coordinates":[[[[-90.482776,20.210213],[-90.48419,20.211738],[-90.486768,20.211856],[-90.487551,20.208293],[-90.486756,20.205952],[-90.484495,20.203809],[-90.48193,20.20369],[-90.479492,20.205043],[-90.480125,20.208109],[-90.482776,20.210213]]],[[[-90.481993,20.210567],[-90.481296,20.210469],[-90.478862,20.205613],[-90.480928,20.202755],[-90.480228,20.198791],[-90.478006,20.192002],[-90.479563,20.189259],[-90.479442,20.187642],[-90.477545,20.184438],[-90.479877,20.181379],[-90.478952,20.177746],[-90.479993,20.176599],[-90.479515,20.173893],[-90.484865,20.170958],[-90.48822,20.170139],[-90.490067,20.167494],[-90.493821,20.163554],[-90.495191,20.159494],[-90.494706,20.156453],[-90.492245,20.149018],[-90.491275,20.14831],[-90.490461,20.144904],[-90.488844,20.14243],[-90.438712,20.140695],[-90.440105,20.12474],[-90.40786,20.123028],[-90.394658,20.13941],[-90.376721,20.127652],[-90.366723,20.127552],[-90.36031,20.117339],[-90.364813,20.111525],[-90.342707,20.111124],[-90.306445,20.110708],[-90.300365,20.100501],[-90.300714,20.09537],[-90.26301,20.081234],[-90.26646,20.072991],[-90.25827,20.07208],[-90.255049,20.074038],[-90.242986,20.074254],[-90.235736,20.077282],[-90.209548,20.074212],[-90.202485,20.073183],[-90.201625,20.0774],[-90.176534,20.07459],[-90.179141,20.044674],[-90.177122,20.011285],[-90.160171,20.008579],[-90.155516,20.023246],[-90.131393,20.028044],[-90.112578,20.036434],[-90.108981,20.031026],[-90.097851,20.021458],[-90.087223,20.013764],[-90.077222,19.999996],[-90.071337,19.991322],[-90.055042,19.993711],[-90.042353,19.993263],[-90.042292,19.998849],[-90.017428,19.995581],[-90.009786,19.994701],[-90.009685,19.995639],[-89.999889,19.995506],[-90.001434,19.98302],[-90.00705,19.981485],[-90.020306,19.981493],[-90.021086,19.968252],[-90.013334,19.968544],[-90.000682,19.968417],[-90.001803,19.956232],[-90.000913,19.955932],[-90.001497,19.944385],[-89.991812,19.943951],[-89.991201,19.929472],[-89.996582,19.929243],[-89.996636,19.925732],[-90.008413,19.925878],[-90.008565,19.916392],[-89.999994,19.916878],[-89.913103,19.920299],[-89.904614,19.920159],[-89.902678,19.945239],[-89.922311,19.945375],[-89.92251,19.958537],[-89.917958,19.958897],[-89.917069,19.970631],[-89.909976,19.971035],[-89.910444,19.980588],[-89.907727,19.984941],[-89.905073,20.024075],[-89.868033,20.021077],[-89.866825,20.04249],[-89.866079,20.062475],[-89.861151,20.06752],[-89.858913,20.06742],[-89.856432,20.103675],[-89.855532,20.112753],[-89.902053,20.115809],[-89.889764,20.138829],[-89.965006,20.15743],[-89.940797,20.195792],[-89.938379,20.210818],[-89.935326,20.225991],[-89.961278,20.230863],[-89.962055,20.216316],[-89.980958,20.225107],[-89.980128,20.212762],[-89.996142,20.213073],[-89.996701,20.20277],[-89.997725,20.194196],[-89.998334,20.178272],[-89.997368,20.168451],[-90.01914,20.171004],[-90.019939,20.170225],[-90.025301,20.171352],[-90.027507,20.17485],[-90.030229,20.176631],[-90.029882,20.20558],[-90.040993,20.20745],[-90.041059,20.208564],[-90.052742,20.206167],[-90.054246,20.208266],[-90.061994,20.211162],[-90.061422,20.215468],[-90.063495,20.215411],[-90.067708,20.23165],[-90.068031,20.231777],[-90.068864,20.25288],[-90.089307,20.256086],[-90.08803,20.258686],[-90.09351,20.260965],[-90.09236,20.264919],[-90.126188,20.267727],[-90.126669,20.264145],[-90.131882,20.265125],[-90.135006,20.265161],[-90.134561,20.254051],[-90.150347,20.248775],[-90.157819,20.253608],[-90.160311,20.246995],[-90.156522,20.24259],[-90.155167,20.236866],[-90.157832,20.221889],[-90.210874,20.227342],[-90.205345,20.270751],[-90.217693,20.271451],[-90.219066,20.261084],[-90.241274,20.263824],[-90.242647,20.245643],[-90.254831,20.247115],[-90.254221,20.251317],[-90.277927,20.255679],[-90.280303,20.249335],[-90.285657,20.250096],[-90.353042,20.257501],[-90.353752,20.252808],[-90.416586,20.232127],[-90.481993,20.210567]]]]}},
{"type":"Feature","id":"MEX:ADM2:MX-CAM.campeche","properties":{"shapeName":"Campeche","shapeISO":"","shapeGroup":"MEX","shapeType":"ADM2","adm1ISO":"MX-CAM","parentISO":"MX-CAM","parentID":"MEX:ADM1:MX-CAM","src_shape_id":"50627088B29480766363328"},"geometry":{"type":"Polygon","coordinates":[[[-90.065871,19.791041],[-90.080972,19.79545],[-90.097431,19.803142],[-90.097432,19.801475],[-90.109051,19.806006],[-90.147673,19.806861],[-90.146964,19.811186],[-90.179366,19.798368],[-90.184147,19.795957],[-90.205524,19.797108],[-90.209064,19.798973],[-90.20182,19.804245],[-90.182358,19.823188],[-90.188006,19.829433],[-90.201862,19.841423],[-90.21036,19.847479],[-90.214467,19.845811],[-90.218323,19.844933],[-90.222485,19.844917],[-90.226606,19.843924],[-90.230622,19.843926],[-90.235032,19.842455],[-90.240234,19.844528],[-90.245983,19.848089],[-90.249313,19.851321],[-90.253964,19.854039],[-90.246785,19.864656],[-90.241047,19.873473],[-90.235871,19.881004],[-90.236709,19.88705],[-90.238204,19.910072],[-90.258931,19.894411],[-90.273592,19.890532],[-90.297489,19.894514],[-90.29928,19.901259],[-90.306327,19.926341],[-90.309656,19.938609],[-90.322933,19.943416],[-90.345851,19.947928],[-90.350442,19.959915],[-90.379684,19.964956],[-90.379989,19.962034],[-90.388064,19.962781],[-90.389092,19.95269],[-90.428761,19.955985],[-90.431385,19.955983],[-90.447305,19.959473],[-90.449082,19.961239],[-90.45214,19.958142],[-90.453093,19.956056],[-90.453681,19.951233],[-90.454621,19.949105],[-90.458191,19.945811],[-90.457434,19.942259],[-90.45901,19.940906],[-90.460716,19.935487],[-90.462652,19.932229],[-90.466691,19.930452],[-90.47186,19.925614],[-90.473383,19.922135],[-90.472738,19.920099],[-90.476238,19.916037],[-90.476695,19.911981],[-90.478796,19.908473],[-90.482715,19.904865],[-90.485953,19.898213],[-90.48683,19.895168],[-90.488352,19.894157],[-90.493484,19.884604],[-90.496616,19.884665],[-90.500253,19.880911],[-90.501378,19.875695],[-90.506958,19.869428],[-90.508908,19.866312],[-90.524397,19.856992],[-90.531378,19.85478],[-90.537128,19.850665],[-90.540764,19.846882],[-90.548717,19.839435],[-90.553316,19.835496],[-90.558303,19.832378],[-90.562908,19.830288],[-90.574559,19.823431],[-90.575022,19.823604],[-90.585664,19.817456],[-90.589887,19.814068],[-90.591466,19.814697],[-90.598011,19.810035],[-90.598481,19.808392],[-90.607708,19.801913],[-90.610065,19.800843],[-90.611526,19.798813],[-90.616756,19.795954],[-90.623906,19.793346],[-90.630341,19.785511],[-90.633803,19.781784],[-90.641126,19.774895],[-90.648608,19.769313],[-90.650229,19.766734],[-90.661489,19.758531],[-90.663143,19.753382],[-90.665748,19.750883],[-90.66613,19.744732],[-90.668011,19.739888],[-90.6691,19.738716],[-90.670061,19.735189],[-90.667948,19.733178],[-90.666648,19.728741],[-90.668296,19.722502],[-90.670764,19.717521],[-90.674789,19.711903],[-90.679095,19.706682],[-90.68413,19.702819],[-90.685044,19.70051],[-90.690055,19.691899],[-90.693116,19.689011],[-90.681973,19.685694],[-90.654586,19.676892],[-90.643739,19.674541],[-90.633775,19.677475],[-90.621547,19.68038],[-90.579664,19.660449],[-90.578547,19.657372],[-90.561232,19.659454],[-90.566036,19.650733],[-90.557139,19.648856],[-90.554166,19.655395],[-90.533687,19.63725],[-90.508811,19.639109],[-90.509287,19.629948],[-90.473125,19.631299],[-90.47141,19.631478],[-90.470265,19.62944],[-90.466229,19.617029],[-90.488333,19.618879],[-90.510905,19.617294],[-90.511239,19.604241],[-90.510724,19.583564],[-90.506533,19.582151],[-90.505295,19.580078],[-90.501033,19.577578],[-90.477297,19.575371],[-90.477025,19.572837],[-90.450797,19.57279],[-90.450009,19.582959],[-90.44095,19.583019],[-90.441036,19.587794],[-90.438074,19.587828],[-90.439523,19.581395],[-90.429883,19.579235],[-90.439264,19.555628],[-90.445057,19.539915],[-90.449547,19.530584],[-90.437369,19.530571],[-90.424962,19.53089],[-90.419186,19.533143],[-90.407173,19.538991],[-90.388216,19.546189],[-90.391599,19.529449],[-90.404647,19.502126],[-90.39956,19.501987],[-90.391275,19.502553],[-90.370218,19.504695],[-90.365256,19.498209],[-90.391947,19.49642],[-90.407715,19.495714],[-90.405891,19.484266],[-90.409072,19.478582],[-90.402921,19.438174],[-90.378607,19.436478],[-90.378164,19.412713],[-90.371073,19.415654],[-90.368463,19.417992],[-90.35983,19.435094],[-90.340395,19.425306],[-90.33282,19.430003],[-90.327851,19.436777],[-90.328258,19.446392],[-90.333315,19.445996],[-90.333329,19.458763],[-90.35692,19.455265],[-90.358545,19.467812],[-90.355417,19.468051],[-90.343812,19.470372],[-90.347405,19.477361],[-90.337992,19.480151],[-90.310092,19.454575],[-90.309988,19.429392],[-90.30987,19.378166],[-90.309696,19.32124],[-90.309855,19.307756],[-90.291055,19.307567],[-90.290756,19.278168],[-90.302323,19.278078],[-90.30209,19.262938],[-90.291091,19.263006],[-90.291063,19.254795],[-90.245308,19.255115],[-90.237873,19.263374],[-90.233026,19.263392],[-90.205476,19.257957],[-90.200006,19.224579],[-90.17965,19.220936],[-90.187658,19.254013],[-90.146868,19.241342],[-90.141092,19.269056],[-90.133719,19.302583],[-90.129339,19.325182],[-90.121359,19.376174],[-90.033442,19.370244],[-90.01414,19.369765],[-90.001787,19.36964],[-89.959743,19.369478],[-89.942738,19.36891],[-89.931755,19.369382],[-89.908585,19.370094],[-89.912776,19.295848],[-89.9,19.295401],[-89.865259,19.293935],[-89.861139,19.372911],[-89.864409,19.411208],[-89.904461,19.407174],[-89.923784,19.405111],[-89.96587,19.425908],[-89.963967,19.429501],[-89.970718,19.434699],[-89.968794,19.439815],[-89.979479,19.44677],[-89.981977,19.461869],[-89.990425,19.463407],[-89.988847,19.474358],[-89.980524,19.471148],[-89.985257,19.50339],[-89.957095,19.507226],[-89.949962,19.536176],[-89.985704,19.548537],[-89.985799,19.547096],[-89.992535,19.547675],[-89.998423,19.601533],[-90.001925,19.602044],[-90.010122,19.63216],[-89.987003,19.64015],[-89.983446,19.669414],[-89.992644,19.670388],[-89.990517,19.67522],[-90.003639,19.676795],[-90.004027,19.684121],[-90.012088,19.686808],[-90.005886,19.693861],[-90.00897,19.693946],[-90.034799,19.665848],[-90.070606,19.676683],[-90.071244,19.675753],[-90.08567,19.677724],[-90.061184,19.726782],[-90.057657,19.724399],[-90.04205,19.753209],[-90.031294,19.774357],[-90.036383,19.778385],[-90.051806,19.789126],[-90.058675,19.790686],[-90.065871,19.791041]]]}},
{"type":"Feature","id":"MEX:ADM2:MX-CAM.candelaria","properties":{"shapeName":"Candelaria","shapeISO":"","shapeGroup":"MEX","shapeType":"ADM2","adm1ISO":"MX-CAM","parentISO":"MX-CAM","parentID":"MEX:ADM1:MX-CAM","src_shape_id":"50627088B43108093310772"},"geometry":{"type":"Polygon","coordinates":[[[-91.328291,18.062804],[-91.326676,18.062421],[-91.325947,18.059718],[-91.323414,18.059101],[-91.32357,18.055339],[-91.322898,18.052934],[-91.31788,18.049176],[-91.312303,18.048025],[-91.310203,18.048044],[-91.300601,18.043423],[-91.296743,18.04194],[-91.295164,18.03861],[-91.292483,18.035252],[-91.288545,18.033548],[-91.285438,18.029805],[-91.281419,18.024006],[-91.27842,18.022057],[-91.266911,18.016263],[-91.262748,18.013613],[-91.262417,18.01273],[-91.257806,18.010134],[-91.253224,18.009278],[-91.251468,18.007099],[-91.248413,18.004669],[-91.248321,18.000695],[-91.245972,17.99872],[-91.244805,17.995551],[-91.243474,17.994678],[-91.24335,17.990176],[-91.237942,17.985563],[-91.234049,17.984178],[-91.231184,17.982306],[-91.223755,17.981326],[-91.220783,17.977794],[-91.218692,17.977148],[-91.217683,17.975078],[-91.215289,17.975556],[-91.212549,17.974331],[-91.209262,17.975792],[-91.20603,17.976049],[-91.204992,17.97465],[-91.202624,17.976358],[-91.200641,17.974688],[-91.198386,17.977394],[-91.192714,17.97821],[-91.190464,17.975987],[-91.185002,17.972916],[-91.182112,17.974135],[-91.181223,17.976565],[-91.178453,17.974888],[-91.176454,17.974869],[-91.173516,17.977768],[-91.170846,17.978037],[-91.144727,17.97516],[-91.149664,17.966903],[-91.151123,17.962673],[-91.133182,17.95801],[-91.130669,17.98225],[-91.113581,17.97585],[-91.118436,17.967397],[-91.1202,17.963375],[-91.057752,17.963126],[-90.993472,17.962687],[-90.987952,17.962545],[-90.987619,17.950824],[-90.987666,17.901351],[-90.995506,17.902157],[-90.995637,17.875489],[-90.987663,17.875357],[-90.987698,17.842578],[-90.98764,17.815473],[-90.960609,17.815391],[-90.95454,17.815527],[-90.915746,17.815434],[-90.875221,17.815207],[-90.850057,17.815387],[-90.777584,17.815659],[-90.744319,17.815721],[-90.684425,17.815716],[-90.61302,17.815925],[-90.586323,17.81613],[-90.494418,17.815385],[-90.439523,17.814912],[-90.421354,17.814315],[-90.360596,17.812871],[-90.28074,17.815522],[-90.2455,17.815786],[-90.238593,18.01677],[-90.235545,18.10504],[-90.236703,18.167056],[-90.248812,18.166926],[-90.283035,18.166454],[-90.283636,18.198722],[-90.427261,18.197244],[-90.430255,18.27578],[-90.432539,18.331223],[-90.437711,18.469125],[-90.433849,18.50769],[-90.457853,18.507439],[-90.486281,18.507276],[-90.485253,18.500214],[-90.48566,18.477232],[-90.49041,18.477263],[-90.489137,18.465692],[-90.571385,18.464266],[-90.567331,18.497666],[-90.590266,18.498585],[-90.591184,18.475264],[-90.625366,18.474773],[-90.702234,18.47392],[-90.702317,18.419934],[-90.702235,18.338301],[-90.778621,18.338769],[-90.781124,18.318612],[-90.783843,18.299241],[-90.787387,18.258532],[-90.805062,18.260374],[-90.822724,18.26258],[-90.821588,18.270025],[-90.82029,18.284258],[-90.819355,18.302063],[-90.8478,18.301883],[-90.861862,18.301511],[-90.883413,18.301878],[-90.893019,18.303024],[-90.895018,18.290407],[-90.896727,18.277708],[-90.914245,18.277534],[-90.929613,18.277106],[-90.945408,18.278026],[-90.937634,18.305053],[-90.929044,18.301289],[-90.924153,18.318121],[-90.918624,18.327158],[-90.941491,18.33724],[-90.952401,18.319984],[-90.955034,18.319842],[-90.981933,18.322391],[-90.979751,18.345286],[-91.0061,18.347526],[-91.007298,18.360023],[-91.015992,18.361603],[-91.017171,18.348735],[-91.018611,18.335107],[-91.042263,18.338184],[-91.053768,18.338263],[-91.068721,18.340591],[-91.06724,18.349413],[-91.066281,18.358182],[-91.066036,18.370031],[-91.079427,18.369177],[-91.096387,18.364064],[-91.097866,18.345162],[-91.083538,18.342982],[-91.084395,18.338017],[-91.102871,18.339891],[-91.105091,18.327546],[-91.109611,18.328241],[-91.111058,18.330932],[-91.127158,18.328268],[-91.124212,18.320344],[-91.115303,18.319313],[-91.116487,18.308531],[-91.105146,18.306757],[-91.108545,18.3026],[-91.119795,18.30413],[-91.133749,18.287467],[-91.151695,18.28835],[-91.156482,18.28263],[-91.162306,18.287023],[-91.174979,18.275724],[-91.185807,18.276915],[-91.19047,18.235496],[-91.187388,18.227671],[-91.208648,18.22259],[-91.212363,18.22157],[-91.234387,18.216245],[-91.263984,18.209262],[-91.267725,18.199912],[-91.24631,18.203112],[-91.244849,18.194219],[-91.247746,18.189427],[-91.249455,18.187422],[-91.249026,18.18477],[-91.252113,18.182342],[-91.251928,18.1789],[-91.249528,18.17665],[-91.249261,18.175023],[-91.250808,18.171157],[-91.249474,18.170238],[-91.250693,18.166548],[-91.254439,18.163582],[-91.254057,18.1617],[-91.251956,18.160022],[-91.251803,18.158161],[-91.254075,18.156122],[-91.252682,18.15414],[-91.252441,18.14756],[-91.250053,18.143934],[-91.238598,18.105946],[-91.239429,18.098838],[-91.282568,18.1033],[-91.283015,18.099166],[-91.287616,18.099745],[-91.287843,18.102431],[-91.299155,18.102904],[-91.300805,18.08852],[-91.304067,18.077978],[-91.312691,18.085326],[-91.328291,18.062804]]]}},
{"type":"Feature","id":"MEX:ADM2:MX-CAM.calakmul","properties":{"shapeName":"Calakmul","shapeISO":"","shapeGroup":"MEX","shapeType":"ADM2","adm1ISO":"MX-CAM","parentISO":"MX-CAM","parentID":"MEX:ADM1:MX-CAM","src_shape_id":"50627088B56172328383937"},"geometry":{"type":"Polygon","coordinates":[[[-90.2455,17.815786],[-90.126698,17.816618],[-90.071749,17.816085],[-89.929679,17.815047],[-89.848146,17.815293],[-89.773871,17.81604],[-89.680614,17.815808],[-89.666691,17.815682],[-89.49284,17.814636],[-89.414284,17.815107],[-89.329254,17.815571],[-89.32376,17.815465],[-89.291682,17.815446],[-89.281783,17.815532],[-89.189657,17.81552],[-89.151714,17.815614],[-89.151957,17.940257],[-89.15217,17.95361],[-89.190574,17.953758],[-89.205872,17.9541],[-89.207137,17.973362],[-89.207414,17.992649],[-89.207311,18.007445],[-89.206739,18.02108],[-89.195855,18.02052],[-89.163004,18.018517],[-89.163325,18.046531],[-89.163361,18.057885],[-89.144754,18.057699],[-89.144383,18.082443],[-89.202458,18.083276],[-89.200237,18.144629],[-89.143066,18.14582],[-89.14317,18.175857],[-89.142873,18.224164],[-89.158059,18.221327],[-89.151674,18.293563],[-89.13236,18.293403],[-89.138214,18.385544],[-89.121229,18.38585],[-89.124066,18.428994],[-89.124887,18.444494],[-89.12549,18.450625],[-89.150238,18.451059],[-89.149621,18.549611],[-89.151333,18.701271],[-89.151314,18.724021],[-89.152115,18.735731],[-89.153002,18.740977],[-89.155742,18.753115],[-89.144382,18.755919],[-89.144938,18.799627],[-89.145573,18.808795],[-89.148602,18.877307],[-89.206923,18.875556],[-89.228912,18.872962],[-89.235959,18.927029],[-89.233497,18.95648],[-89.301084,18.95327],[-89.369033,18.957083],[-89.414283,18.955227],[-89.477121,18.952231],[-89.476964,19],[-89.479336,19.113066],[-89.479685,19.134468],[-89.482133,19.134513],[-89.480549,19.152646],[-89.575712,19.162023],[-89.584352,19.098156],[-89.58811,19.059997],[-89.614282,19.059903],[-89.666667,19.06192],[-89.693974,19.063133],[-89.772274,19.064831],[-89.777549,19.031833],[-89.889666,19.026646],[-89.929822,19.024767],[-89.929661,19.028661],[-90.00695,19.053414],[-89.996114,19.023531],[-90.156527,19.049236],[-90.156538,19.031375],[-90.156726,19.016774],[-90.161429,19.016899],[-90.16072,19.001591],[-90.163223,18.998031],[-90.063152,18.996041],[-90.063003,18.963956],[-90.037627,18.960895],[-90.043252,18.915659],[-90.061727,18.761003],[-90.067763,18.710441],[-90.122086,18.716103],[-90.120929,18.726297],[-90.16064,18.729964],[-90.16383,18.692587],[-90.138924,18.690454],[-90.141636,18.666671],[-90.174681,18.669779],[-90.177973,18.637949],[-90.192056,18.640088],[-90.19802,18.640758],[-90.20583,18.601012],[-90.207754,18.590683],[-90.196671,18.588639],[-90.201411,18.559602],[-90.172258,18.558905],[-90.172662,18.534929],[-90.172944,18.510944],[-90.162275,18.512009],[-90.164434,18.491626],[-90.16584,18.480024],[-90.166855,18.476708],[-90.146016,18.477972],[-90.148295,18.465769],[-90.114721,18.467906],[-90.087941,18.469189],[-90.095634,18.392346],[-90.074035,18.391734],[-90.076378,18.307042],[-90.076956,18.282399],[-90.077615,18.230114],[-90.080089,18.230149],[-90.08209,18.198803],[-90.248523,18.193446],[-90.248812,18.166926],[-90.236703,18.167056],[-90.235545,18.10504],[-90.238593,18.01677],[-90.2455,17.815786]]]}},
{"type":"Feature","id":"MEX:ADM2:MX-CAM.escarcega","properties":{"shapeName":"Escárcega","shapeISO":"","shapeGroup":"MEX","shapeType":"ADM2","adm1ISO":"MX-CAM","parentISO":"MX-CAM","parentID":"MEX:ADM1:MX-CAM","src_shape_id":"50627088B69816273127262"},"geometry":{"type":"Polygon","coordinates":[[[-91.007298,18.360023],[-91.0061,18.347526],[-90.979751,18.345286],[-90.981933,18.322391],[-90.955034,18.319842],[-90.952401,18.319984],[-90.941491,18.33724],[-90.918624,18.327158],[-90.924153,18.318121],[-90.929044,18.301289],[-90.937634,18.305053],[-90.945408,18.278026],[-90.929613,18.277106],[-90.914245,18.277534],[-90.896727,18.277708],[-90.895018,18.290407],[-90.893019,18.303024],[-90.883413,18.301878],[-90.861862,18.301511],[-90.8478,18.301883],[-90.819355,18.302063],[-90.82029,18.284258],[-90.821588,18.270025],[-90.822724,18.26258],[-90.805062,18.260374],[-90.787387,18.258532],[-90.783843,18.299241],[-90.781124,18.318612],[-90.778621,18.338769],[-90.702235,18.338301],[-90.702317,18.419934],[-90.702234,18.47392],[-90.625366,18.474773],[-90.591184,18.475264],[-90.590266,18.498585],[-90.567331,18.497666],[-90.571385,18.464266],[-90.489137,18.465692],[-90.49041,18.477263],[-90.48566,18.477232],[-90.485253,18.500214],[-90.486281,18.507276],[-90.457853,18.507439],[-90.433849,18.50769],[-90.437711,18.469125],[-90.432539,18.331223],[-90.430255,18.27578],[-90.427261,18.197244],[-90.283636,18.198722],[-90.283035,18.166454],[-90.248812,18.166926],[-90.248523,18.193446],[-90.08209,18.198803],[-90.080089,18.230149],[-90.077615,18.230114],[-90.076956,18.282399],[-90.076378,18.307042],[-90.074035,18.391734],[-90.095634,18.392346],[-90.087941,18.469189],[-90.114721,18.467906],[-90.148295,18.465769],[-90.146016,18.477972],[-90.166855,18.476708],[-90.16584,18.480024],[-90.164434,18.491626],[-90.162275,18.512009],[-90.172944,18.510944],[-90.172662,18.534929],[-90.172258,18.558905],[-90.201411,18.559602],[-90.196671,18.588639],[-90.207754,18.590683],[-90.20583,18.601012],[-90.19802,18.640758],[-90.192056,18.640088],[-90.177973,18.637949],[-90.174681,18.669779],[-90.141636,18.666671],[-90.138924,18.690454],[-90.16383,18.692587],[-90.16064,18.729964],[-90.120929,18.726297],[-90.122086,18.716103],[-90.067763,18.710441],[-90.061727,18.761003],[-90.043252,18.915659],[-90.037627,18.960895],[-90.063003,18.963956],[-90.063152,18.996041],[-90.163223,18.998031],[-90.16191,18.98153],[-90.164548,18.981446],[-90.206082,18.949257],[-90.216418,18.892794],[-90.243441,18.892778],[-90.294465,18.89367],[-90.297992,18.867636],[-90.302359,18.822554],[-90.305035,18.793996],[-90.458366,18.80583],[-90.468394,18.634943],[-90.472044,18.572564],[-90.53213,18.574632],[-90.523411,18.613588],[-90.509044,18.677728],[-90.5386,18.68272],[-90.592697,18.696313],[-90.652843,18.703883],[-90.656803,18.705681],[-90.687664,18.721347],[-90.68899,18.721693],[-90.702668,18.727374],[-90.724445,18.736859],[-90.734321,18.741596],[-90.737024,18.742596],[-90.734404,18.745357],[-90.734458,18.748084],[-90.736985,18.75789],[-90.738822,18.766651],[-90.735066,18.765911],[-90.733428,18.766492],[-90.733388,18.771101],[-90.732061,18.787325],[-90.730845,18.794292],[-90.729922,18.802148],[-90.742672,18.803529],[-90.744858,18.806127],[-90.748228,18.814248],[-90.728974,18.811152],[-90.726288,18.83036],[-90.724245,18.843299],[-90.72232,18.851018],[-90.721233,18.854127],[-90.729605,18.856221],[-90.73258,18.858077],[-90.768886,18.827924],[-90.796249,18.859123],[-90.799513,18.863148],[-90.79876,18.85178],[-90.824582,18.874141],[-90.848899,18.863224],[-90.851991,18.834382],[-90.831387,18.831993],[-90.823744,18.830974],[-90.826211,18.819447],[-90.832148,18.798893],[-90.840021,18.799417],[-90.844086,18.761329],[-90.810831,18.758287],[-90.812149,18.744703],[-90.795428,18.742166],[-90.804044,18.712328],[-90.823008,18.714637],[-90.827517,18.685991],[-90.836146,18.686644],[-90.847012,18.688213],[-90.848084,18.68],[-90.869347,18.681245],[-90.870334,18.67661],[-90.870903,18.670818],[-90.890596,18.676444],[-90.89255,18.670985],[-90.89838,18.650944],[-90.899979,18.651185],[-90.90075,18.644631],[-90.904023,18.621926],[-90.919934,18.623429],[-90.915895,18.653043],[-90.915874,18.653953],[-90.940853,18.6583],[-90.941795,18.654206],[-90.978807,18.657008],[-90.981934,18.637754],[-90.968266,18.635683],[-90.972264,18.609266],[-90.975297,18.586938],[-90.981661,18.587515],[-90.983256,18.585758],[-90.996997,18.587086],[-90.971335,18.556891],[-90.986596,18.544961],[-90.995242,18.555189],[-90.985237,18.563115],[-90.994018,18.572992],[-91.01309,18.558685],[-90.995001,18.538871],[-91.001234,18.533557],[-91.002565,18.522718],[-91.003377,18.513934],[-91.005155,18.5],[-91.006744,18.484081],[-91.023755,18.431578],[-91.029955,18.414775],[-91.026638,18.411454],[-91.025769,18.412918],[-91.004067,18.391429],[-90.993866,18.390969],[-90.997315,18.358238],[-91.007298,18.360023]]]}},
{"type":"Feature","id":"MEX:ADM2:MX-CAM.tenabo","properties":{"shapeName":"Tenabo","shapeISO":"","shapeGroup":"MEX","shapeType":"ADM2","adm1ISO":"MX-CAM","parentISO":"MX-CAM","parentID":"MEX:ADM1:MX-CAM","src_shape_id":"50627088B50873486185333"},"geometry":{"type":"Polygon","coordinates":[[[-90.488844,20.14243],[-90.487931,20.136419],[-90.486263,20.134785],[-90.484838,20.131125],[-90.483119,20.129307],[-90.481804,20.126067],[-90.481251,20.118169],[-90.480493,20.114936],[-90.478826,20.113451],[-90.47967,20.111415],[-90.479445,20.108917],[-90.480662,20.10757],[-90.478656,20.104736],[-90.481161,20.099608],[-90.480109,20.096739],[-90.481353,20.094861],[-90.485432,20.092059],[-90.486644,20.088417],[-90.486545,20.082673],[-90.485378,20.079013],[-90.486448,20.07514],[-90.486063,20.069202],[-90.489182,20.065633],[-90.491147,20.060993],[-90.486388,20.051545],[-90.485397,20.048676],[-90.483349,20.045249],[-90.479607,20.040789],[-90.479013,20.038004],[-90.478762,20.031417],[-90.474824,20.028531],[-90.47377,20.026439],[-90.471032,20.024493],[-90.468911,20.020241],[-90.465692,20.015395],[-90.46321,20.014679],[-90.463291,20.008311],[-90.462062,20.002576],[-90.463014,20.000628],[-90.467034,19.997306],[-90.470984,19.995271],[-90.473188,19.994836],[-90.469773,19.990118],[-90.470165,19.984482],[-90.466129,19.982027],[-90.466948,19.980634],[-90.464572,19.979004],[-90.463549,19.975917],[-90.461455,19.973753],[-90.453618,19.974617],[-90.452215,19.974195],[-90.454689,19.965134],[-90.453707,19.962236],[-90.451386,19.959629],[-90.448824,19.961562],[-90.447305,19.959473],[-90.431385,19.955983],[-90.428761,19.955985],[-90.389092,19.95269],[-90.388064,19.962781],[-90.379989,19.962034],[-90.379684,19.964956],[-90.350442,19.959915],[-90.345851,19.947928],[-90.322933,19.943416],[-90.309656,19.938609],[-90.306327,19.926341],[-90.29928,19.901259],[-90.297489,19.894514],[-90.273592,19.890532],[-90.258931,19.894411],[-90.238204,19.910072],[-90.236709,19.88705],[-90.235871,19.881004],[-90.241047,19.873473],[-90.246785,19.864656],[-90.253964,19.854039],[-90.249313,19.851321],[-90.245983,19.848089],[-90.240234,19.844528],[-90.235032,19.842455],[-90.230622,19.843926],[-90.226606,19.843924],[-90.222485,19.844917],[-90.218323,19.844933],[-90.214467,19.845811],[-90.21036,19.847479],[-90.201862,19.841423],[-90.188006,19.829433],[-90.182358,19.823188],[-90.20182,19.804245],[-90.209064,19.798973],[-90.205524,19.797108],[-90.184147,19.795957],[-90.179366,19.798368],[-90.146964,19.811186],[-90.147673,19.806861],[-90.109051,19.806006],[-90.097432,19.801475],[-90.097431,19.803142],[-90.080972,19.79545],[-90.065871,19.791041],[-90.055284,19.822184],[-90.024095,19.811386],[-90.023686,19.803956],[-90.020576,19.796474],[-90.019224,19.794153],[-90.019875,19.78715],[-90,19.785144],[-89.998575,19.808393],[-89.997208,19.842779],[-89.996712,19.84911],[-90.004445,19.839774],[-90.035998,19.844888],[-90.036089,19.902903],[-90.007716,19.892253],[-89.993553,19.89011],[-89.993526,19.903556],[-89.99982,19.903582],[-89.999994,19.916878],[-90.008565,19.916392],[-90.008413,19.925878],[-89.996636,19.925732],[-89.996582,19.929243],[-89.991201,19.929472],[-89.991812,19.943951],[-90.001497,19.944385],[-90.000913,19.955932],[-90.001803,19.956232],[-90.000682,19.968417],[-90.013334,19.968544],[-90.021086,19.968252],[-90.020306,19.981493],[-90.00705,19.981485],[-90.001434,19.98302],[-89.999889,19.995506],[-90.009685,19.995639],[-90.009786,19.994701],[-90.017428,19.995581],[-90.042292,19.998849],[-90.042353,19.993263],[-90.055042,19.993711],[-90.071337,19.991322],[-90.077222,19.999996],[-90.087223,20.013764],[-90.097851,20.021458],[-90.108981,20.031026],[-90.112578,20.036434],[-90.131393,20.028044],[-90.155516,20.023246],[-90.160171,20.008579],[-90.177122,20.011285],[-90.179141,20.044674],[-90.176534,20.07459],[-90.201625,20.0774],[-90.202485,20.073183],[-90.209548,20.074212],[-90.235736,20.077282],[-90.242986,20.074254],[-90.255049,20.074038],[-90.25827,20.07208],[-90.26646,20.072991],[-90.26301,20.081234],[-90.300714,20.09537],[-90.300365,20.100501],[-90.306445,20.110708],[-90.342707,20.111124],[-90.364813,20.111525],[-90.36031,20.117339],[-90.366723,20.127552],[-90.376721,20.127652],[-90.394658,20.13941],[-90.40786,20.123028],[-90.440105,20.12474],[-90.438712,20.140695],[-90.488844,20.14243]]]}},
{"type":"Feature","id":"MEX:ADM2:MX-CAM.hopelchen","properties":{"shapeName":"Hopelchén","shapeISO":"","shapeGroup":"MEX","shapeType":"ADM2","adm1ISO":"MX-CAM","parentISO":"MX-CAM","parentID":"MEX:ADM1:MX-CAM","src_shape_id":"50627088B35254539369817"},"geometry":{"type":"Polygon","coordinates":[[[-89.855532,20.112753],[-89.856432,20.103675],[-89.858913,20.06742],[-89.861151,20.06752],[-89.866079,20.062475],[-89.866825,20.04249],[-89.868033,20.021077],[-89.905073,20.024075],[-89.907727,19.984941],[-89.910444,19.980588],[-89.909976,19.971035],[-89.917069,19.970631],[-89.917958,19.958897],[-89.92251,19.958537],[-89.922311,19.945375],[-89.902678,19.945239],[-89.904614,19.920159],[-89.913103,19.920299],[-89.999994,19.916878],[-89.99982,19.903582],[-89.993526,19.903556],[-89.993553,19.89011],[-90.007716,19.892253],[-90.036089,19.902903],[-90.035998,19.844888],[-90.004445,19.839774],[-89.996712,19.84911],[-89.997208,19.842779],[-89.998575,19.808393],[-90,19.785144],[-90.019875,19.78715],[-90.019224,19.794153],[-90.020576,19.796474],[-90.023686,19.803956],[-90.024095,19.811386],[-90.055284,19.822184],[-90.065871,19.791041],[-90.058675,19.790686],[-90.051806,19.789126],[-90.036383,19.778385],[-90.031294,19.774357],[-90.04205,19.753209],[-90.057657,19.724399],[-90.061184,19.726782],[-90.08567,19.677724],[-90.071244,19.675753],[-90.070606,19.676683],[-90.034799,19.665848],[-90.00897,19.693946],[-90.005886,19.693861],[-90.012088,19.686808],[-90.004027,19.684121],[-90.003639,19.676795],[-89.990517,19.67522],[-89.992644,19.670388],[-89.983446,19.669414],[-89.987003,19.64015],[-90.010122,19.63216],[-90.001925,19.602044],[-89.998423,19.601533],[-89.992535,19.547675],[-89.985799,19.547096],[-89.985704,19.548537],[-89.949962,19.536176],[-89.957095,19.507226],[-89.985257,19.50339],[-89.980524,19.471148],[-89.988847,19.474358],[-89.990425,19.463407],[-89.981977,19.461869],[-89.979479,19.44677],[-89.968794,19.439815],[-89.970718,19.434699],[-89.963967,19.429501],[-89.96587,19.425908],[-89.923784,19.405111],[-89.904461,19.407174],[-89.864409,19.411208],[-89.861139,19.372911],[-89.865259,19.293935],[-89.9,19.295401],[-89.912776,19.295848],[-89.922057,19.216294],[-89.929661,19.028661],[-89.929822,19.024767],[-89.889666,19.026646],[-89.777549,19.031833],[-89.772274,19.064831],[-89.693974,19.063133],[-89.666667,19.06192],[-89.614282,19.059903],[-89.58811,19.059997],[-89.584352,19.098156],[-89.575712,19.162023],[-89.480549,19.152646],[-89.482133,19.134513],[-89.479685,19.134468],[-89.479336,19.113066],[-89.476964,19],[-89.477121,18.952231],[-89.414283,18.955227],[-89.369033,18.957083],[-89.301084,18.95327],[-89.233497,18.95648],[-89.235959,18.927029],[-89.228912,18.872962],[-89.206923,18.875556],[-89.148602,18.877307],[-89.147122,18.995046],[-89.141844,19.059205],[-89.13582,19.132373],[-89.146951,19.133157],[-89.146999,19.198565],[-89.146982,19.226608],[-89.146926,19.281495],[-89.146667,19.423862],[-89.167522,19.441596],[-89.296562,19.551174],[-89.412479,19.649376],[-89.427256,19.669608],[-89.448113,19.698354],[-89.468295,19.700161],[-89.47722,19.711055],[-89.47993,19.716553],[-89.491662,19.742228],[-89.479149,19.740646],[-89.475909,19.77122],[-89.51369,19.774173],[-89.525672,19.775555],[-89.53613,19.797458],[-89.549679,19.816219],[-89.57743,19.853509],[-89.571758,19.852955],[-89.5875,19.87442],[-89.58681,19.92046],[-89.597446,19.921122],[-89.595842,19.937422],[-89.60467,19.938285],[-89.598704,19.998197],[-89.684846,20.102417],[-89.748474,20.17927],[-89.752787,20.176549],[-89.773453,20.153084],[-89.778234,20.150965],[-89.787844,20.144448],[-89.793975,20.136172],[-89.802871,20.164907],[-89.802725,20.170794],[-89.802505,20.201605],[-89.843453,20.209275],[-89.855532,20.112753]]]}},
{"type":"Feature","id":"MEX:ADM2:MX-CAM.champoton","properties":{"shapeName":"Champotón","shapeISO":"","shapeGroup":"MEX","shapeType":"ADM2","adm1ISO":"MX-CAM","parentISO":"MX-CAM","parentID":"MEX:ADM1:MX-CAM","src_shape_id":"50627088B90852523965903"},"geometry":{"type":"Polygon","coordinates":[[[-90.851991,18.834382],[-90.848899,18.863224],[-90.824582,18.874141],[-90.79876,18.85178],[-90.799513,18.863148],[-90.796249,18.859123],[-90.768886,18.827924],[-90.73258,18.858077],[-90.729605,18.856221],[-90.721233,18.854127],[-90.72232,18.851018],[-90.724245,18.843299],[-90.726288,18.83036],[-90.728974,18.811152],[-90.748228,18.814248],[-90.744858,18.806127],[-90.742672,18.803529],[-90.729922,18.802148],[-90.730845,18.794292],[-90.732061,18.787325],[-90.733388,18.771101],[-90.733428,18.766492],[-90.735066,18.765911],[-90.738822,18.766651],[-90.736985,18.75789],[-90.734458,18.748084],[-90.734404,18.745357],[-90.737024,18.742596],[-90.734321,18.741596],[-90.724445,18.736859],[-90.702668,18.727374],[-90.68899,18.721693],[-90.687664,18.721347],[-90.656803,18.705681],[-90.652843,18.703883],[-90.592697,18.696313],[-90.5386,18.68272],[-90.509044,18.677728],[-90.523411,18.613588],[-90.53213,18.574632],[-90.472044,18.572564],[-90.468394,18.634943],[-90.458366,18.80583],[-90.305035,18.793996],[-90.302359,18.822554],[-90.297992,18.867636],[-90.294465,18.89367],[-90.243441,18.892778],[-90.216418,18.892794],[-90.206082,18.949257],[-90.164548,18.981446],[-90.16191,18.98153],[-90.163223,18.998031],[-90.16072,19.001591],[-90.161429,19.016899],[-90.156726,19.016774],[-90.156538,19.031375],[-90.156527,19.049236],[-89.996114,19.023531],[-90.00695,19.053414],[-89.929661,19.028661],[-89.922057,19.216294],[-89.912776,19.295848],[-89.908585,19.370094],[-89.931755,19.369382],[-89.942738,19.36891],[-89.959743,19.369478],[-90.001787,19.36964],[-90.01414,19.369765],[-90.033442,19.370244],[-90.121359,19.376174],[-90.129339,19.325182],[-90.133719,19.302583],[-90.141092,19.269056],[-90.146868,19.241342],[-90.187658,19.254013],[-90.17965,19.220936],[-90.200006,19.224579],[-90.205476,19.257957],[-90.233026,19.263392],[-90.237873,19.263374],[-90.245308,19.255115],[-90.291063,19.254795],[-90.291091,19.263006],[-90.30209,19.262938],[-90.302323,19.278078],[-90.290756,19.278168],[-90.291055,19.307567],[-90.309855,19.307756],[-90.309696,19.32124],[-90.30987,19.378166],[-90.309988,19.429392],[-90.310092,19.454575],[-90.337992,19.480151],[-90.347405,19.477361],[-90.343812,19.470372],[-90.355417,19.468051],[-90.358545,19.467812],[-90.35692,19.455265],[-90.333329,19.458763],[-90.333315,19.445996],[-90.328258,19.446392],[-90.327851,19.436777],[-90.33282,19.430003],[-90.340395,19.425306],[-90.35983,19.435094],[-90.368463,19.417992],[-90.371073,19.415654],[-90.378164,19.412713],[-90.378607,19.436478],[-90.402921,19.438174],[-90.409072,19.478582],[-90.405891,19.484266],[-90.407715,19.495714],[-90.391947,19.49642],[-90.365256,19.498209],[-90.370218,19.504695],[-90.391275,19.502553],[-90.39956,19.501987],[-90.404647,19.502126],[-90.391599,19.529449],[-90.388216,19.546189],[-90.407173,19.538991],[-90.419186,19.533143],[-90.424962,19.53089],[-90.437369,19.530571],[-90.449547,19.530584],[-90.445057,19.539915],[-90.439264,19.555628],[-90.429883,19.579235],[-90.439523,19.581395],[-90.438074,19.587828],[-90.441036,19.587794],[-90.44095,19.583019],[-90.450009,19.582959],[-90.450797,19.57279],[-90.477025,19.572837],[-90.477297,19.575371],[-90.501033,19.577578],[-90.505295,19.580078],[-90.506533,19.582151],[-90.510724,19.583564],[-90.511239,19.604241],[-90.510905,19.617294],[-90.488333,19.618879],[-90.466229,19.617029],[-90.470265,19.62944],[-90.47141,19.631478],[-90.473125,19.631299],[-90.509287,19.629948],[-90.508811,19.639109],[-90.533687,19.63725],[-90.554166,19.655395],[-90.557139,19.648856],[-90.566036,19.650733],[-90.561232,19.659454],[-90.578547,19.657372],[-90.579664,19.660449],[-90.621547,19.68038],[-90.633775,19.677475],[-90.643739,19.674541],[-90.654586,19.676892],[-90.681973,19.685694],[-90.693116,19.689011],[-90.694735,19.686462],[-90.701359,19.680673],[-90.707025,19.675249],[-90.707158,19.671362],[-90.704602,19.669151],[-90.703512,19.665089],[-90.703874,19.661047],[-90.705905,19.654594],[-90.706326,19.649771],[-90.699076,19.648223],[-90.693289,19.645383],[-90.689773,19.640356],[-90.687039,19.634859],[-90.685982,19.631607],[-90.685445,19.626324],[-90.685676,19.622887],[-90.687514,19.614021],[-90.690979,19.602159],[-90.693779,19.595322],[-90.701467,19.578866],[-90.707094,19.568688],[-90.709818,19.564558],[-90.711644,19.562751],[-90.709696,19.560634],[-90.706421,19.56086],[-90.705573,19.559648],[-90.704091,19.552351],[-90.704421,19.548361],[-90.705443,19.544473],[-90.708015,19.539266],[-90.707356,19.535686],[-90.711144,19.527763],[-90.70881,19.524891],[-90.708996,19.520225],[-90.710551,19.515346],[-90.709597,19.512001],[-90.709644,19.509387],[-90.707623,19.505066],[-90.705388,19.503308],[-90.704074,19.500708],[-90.703143,19.490429],[-90.703162,19.483774],[-90.704043,19.479255],[-90.706895,19.471353],[-90.707687,19.468077],[-90.707011,19.463339],[-90.706022,19.461534],[-90.708218,19.455019],[-90.710415,19.44641],[-90.70985,19.445327],[-90.710425,19.439629],[-90.711738,19.435967],[-90.713103,19.429243],[-90.715624,19.422576],[-90.723138,19.408209],[-90.724651,19.403843],[-90.725363,19.39854],[-90.725672,19.386805],[-90.725225,19.379676],[-90.724035,19.376662],[-90.722179,19.365552],[-90.722775,19.359167],[-90.724898,19.3582],[-90.728507,19.35228],[-90.731245,19.346284],[-90.736169,19.336645],[-90.740602,19.329533],[-90.74354,19.326415],[-90.75278,19.31461],[-90.758371,19.307781],[-90.765806,19.299761],[-90.778605,19.287346],[-90.790959,19.276549],[-90.800615,19.26855],[-90.806146,19.2648],[-90.8245,19.251141],[-90.834235,19.243111],[-90.844418,19.233757],[-90.850487,19.228559],[-90.855067,19.223993],[-90.862845,19.21707],[-90.876808,19.205066],[-90.882601,19.200361],[-90.88966,19.194158],[-90.894999,19.190138],[-90.898428,19.186999],[-90.8997,19.183461],[-90.90983,19.176004],[-90.914456,19.173067],[-90.918725,19.169639],[-90.937477,19.156595],[-90.952139,19.147039],[-90.962566,19.140761],[-90.964414,19.138715],[-90.973678,19.132785],[-90.979655,19.129514],[-90.987628,19.124045],[-90.989429,19.122333],[-90.995442,19.118163],[-91.007963,19.110945],[-91.01178,19.109075],[-91.02348,19.102389],[-91.025633,19.100639],[-91.034094,19.096665],[-91.037953,19.093404],[-91.04708,19.088022],[-91.052928,19.085154],[-91.06262,19.079157],[-91.068503,19.075797],[-91.081119,19.067464],[-91.086744,19.062127],[-91.089104,19.058905],[-91.093,19.055724],[-91.098528,19.052085],[-91.107655,19.047085],[-91.111248,19.044142],[-91.110661,19.038348],[-91.113257,19.035356],[-91.118574,19.031934],[-91.126776,19.027403],[-91.130815,19.024494],[-91.139206,19.020163],[-91.161592,19.008004],[-91.166634,19.004904],[-91.172259,19.001961],[-91.185164,18.996172],[-91.184636,18.994455],[-91.183074,18.991926],[-91.18148,18.993826],[-91.176779,18.996721],[-91.16838,18.996326],[-91.163481,18.99889],[-91.163447,18.994025],[-91.159045,18.992153],[-91.156922,18.991934],[-91.153801,18.993138],[-91.148947,18.997826],[-91.142925,18.998746],[-91.139741,19.002199],[-91.138821,19.0052],[-91.139784,19.00868],[-91.141089,19.010335],[-91.133109,19.012809],[-91.123596,19.014717],[-91.120353,19.017097],[-91.117358,19.023886],[-91.114896,19.027165],[-91.112102,19.029482],[-91.10253,19.03149],[-91.099915,19.032326],[-91.099032,19.030952],[-91.095271,19.031278],[-91.091963,19.023169],[-91.089191,19.019926],[-91.047521,18.985808],[-91.04044,19],[-91.028957,19.017192],[-91.015492,19],[-91.003277,18.984684],[-91.026128,18.968115],[-91.020931,18.964897],[-90.966478,18.916934],[-90.944271,18.941989],[-90.912523,18.914446],[-90.912086,18.917685],[-90.901167,18.910226],[-90.901856,18.905314],[-90.902671,18.905423],[-90.916232,18.890358],[-90.91055,18.878465],[-90.915764,18.872298],[-90.871227,18.832825],[-90.868013,18.836198],[-90.851991,18.834382]]]}}
]}