{"type":"FeatureCollection","bbox":[-99.364924,19.048237,-98.940303,19.592757],"features":[
{"type":"Feature","id":"MEX:ADM2:MX-CMX.azcapotzalco","properties":{"shapeName":"Azcapotzalco","shapeISO":"","shapeGroup":"MEX","shapeType":"ADM2","adm1ISO":"MX-CMX","parentISO":"MX-CMX","parentID":"MEX:ADM1:MX-CMX","src_shape_id":"50627088B15179175127697"},"geometry":{"type":"Polygon","coordinates":[[[-99.157181,19.502849],[-99.167078,19.506092],[-99.173043,19.508587],[-99.17705,19.506195],[-99.185221,19.508537],[-99.191898,19.511273],[-99.204672,19.515136],[-99.20897,19.512681],[-99.210164,19.511139],[-99.211992,19.503511],[-99.213839,19.497252],[-99.219663,19.480314],[-99.221115,19.475068],[-99.206825,19.471215],[-99.200676,19.473345],[-99.190444,19.470459],[-99.190731,19.464671],[-99.188,19.463815],[-99.188483,19.460777],[-99.185388,19.460014],[-99.163713,19.456435],[-99.163154,19.458883],[-99.159549,19.463324],[-99.157311,19.464055],[-99.150028,19.463017],[-99.143118,19.465063],[-99.143185,19.466047],[-99.157181,19.502849]]]}},
{"type":"Feature","id":"MEX:ADM2:MX-CMX.gustavo-a-madero","properties":{"shapeName":"Gustavo A. Madero","shapeISO":"","shapeGroup":"MEX","shapeType":"ADM2","adm1ISO":"MX-CMX","parentISO":"MX-CMX","parentID":"MEX:ADM1:MX-CMX","src_shape_id":"50627088B27895392643448"},"geometry":{"type":"Polygon","coordinates":[[[-99.143118,19.465063],[-99.140807,19.465353],[-99.132862,19.464641],[-99.127551,19.461527],[-99.122242,19.459782],[-99.117349,19.458107],[-99.111362,19.453595],[-99.101396,19.449954],[-99.099699,19.449943],[-99.095269,19.451607],[-99.09322,19.4516],[-99.087156,19.445767],[-99.080877,19.450157],[-99.078098,19.449747],[-99.068596,19.446476],[-99.067228,19.446531],[-99.062285,19.444791],[-99.052564,19.448422],[-99.050869,19.450181],[-99.063361,19.478609],[-99.063278,19.481268],[-99.064853,19.481836],[-99.067991,19.489083],[-99.063863,19.498779],[-99.077215,19.503885],[-99.090386,19.509477],[-99.0974,19.512631],[-99.103431,19.511286],[-99.105516,19.510328],[-99.109433,19.510312],[-99.110589,19.511173],[-99.114407,19.511061],[-99.121015,19.516292],[-99.125898,19.521208],[-99.128184,19.525881],[-99.127378,19.531711],[-99.127368,19.535084],[-99.130575,19.536091],[-99.128146,19.539391],[-99.122733,19.545444],[-99.121036,19.549132],[-99.11848,19.552185],[-99.115621,19.55404],[-99.115719,19.55666],[-99.108097,19.564888],[-99.111818,19.568727],[-99.112856,19.573263],[-99.114662,19.579796],[-99.116906,19.581445],[-99.118598,19.584462],[-99.117888,19.590592],[-99.119462,19.591992],[-99.123706,19.592757],[-99.126993,19.588508],[-99.133761,19.586244],[-99.13376,19.584888],[-99.137904,19.581135],[-99.139142,19.578468],[-99.139568,19.575395],[-99.143457,19.572347],[-99.145807,19.568748],[-99.145996,19.565901],[-99.150901,19.56052],[-99.152809,19.561965],[-99.156144,19.560154],[-99.158096,19.557351],[-99.157569,19.555047],[-99.1609,19.549261],[-99.151085,19.544846],[-99.154108,19.54008],[-99.158045,19.535289],[-99.158513,19.533921],[-99.155847,19.53244],[-99.158599,19.528858],[-99.159159,19.526903],[-99.167672,19.529251],[-99.174954,19.531878],[-99.175361,19.530095],[-99.171367,19.527189],[-99.174631,19.524065],[-99.169963,19.522055],[-99.162975,19.517961],[-99.157181,19.502849],[-99.143185,19.466047],[-99.143118,19.465063]]]}},
{"type":"Feature","id":"MEX:ADM2:MX-CMX.miguel-hidalgo","properties":{"shapeName":"Miguel Hidalgo","shapeISO":"","shapeGroup":"MEX","shapeType":"ADM2","adm1ISO":"MX-CMX","parentISO":"MX-CMX","parentID":"MEX:ADM1:MX-CMX","src_shape_id":"50627088B27674873291342"},"geometry":{"type":"Polygon","coordinates":[[[-99.206825,19.471215],[-99.212148,19.467114],[-99.215285,19.456224],[-99.217365,19.453671],[-99.219973,19.45288],[-99.220149,19.446116],[-99.220583,19.443675],[-99.227851,19.438559],[-99.227503,19.435231],[-99.226158,19.433719],[-99.226508,19.431073],[-99.22321,19.429307],[-99.222552,19.427317],[-99.225871,19.426226],[-99.227017,19.42432],[-99.230843,19.421707],[-99.232974,19.419395],[-99.233613,19.416585],[-99.235447,19.415436],[-99.236915,19.412707],[-99.239623,19.412204],[-99.244226,19.409942],[-99.248312,19.408649],[-99.250942,19.406416],[-99.255808,19.403572],[-99.255207,19.39914],[-99.256354,19.396514],[-99.25966,19.394131],[-99.259216,19.392567],[-99.25484,19.393707],[-99.249252,19.393426],[-99.246954,19.392661],[-99.248527,19.390409],[-99.247653,19.385957],[-99.245477,19.387394],[-99.242679,19.387035],[-99.239929,19.388864],[-99.238808,19.392824],[-99.232842,19.394814],[-99.227345,19.395796],[-99.223579,19.395853],[-99.214856,19.398706],[-99.21051,19.400425],[-99.201417,19.401682],[-99.197614,19.403091],[-99.192201,19.403743],[-99.192133,19.400981],[-99.190614,19.399322],[-99.189055,19.39559],[-99.18649,19.395641],[-99.182101,19.396961],[-99.175532,19.398094],[-99.170436,19.39979],[-99.171079,19.403497],[-99.184304,19.407827],[-99.177766,19.419286],[-99.175096,19.423159],[-99.177636,19.423596],[-99.168487,19.438152],[-99.165721,19.44382],[-99.164331,19.449985],[-99.163713,19.456435],[-99.185388,19.460014],[-99.188483,19.460777],[-99.188,19.463815],[-99.190731,19.464671],[-99.190444,19.470459],[-99.200676,19.473345],[-99.206825,19.471215]]]}},
{"type":"Feature","id":"MEX:ADM2:MX-CMX.iztacalco","properties":{"shapeName":"Iztacalco","shapeISO":"","shapeGroup":"MEX","shapeType":"ADM2","adm1ISO":"MX-CMX","parentISO":"MX-CMX","parentID":"MEX:ADM1:MX-CMX","src_shape_id":"50627088B64976182761554"},"geometry":{"type":"Polygon","coordinates":[[[-99.055786,19.422141],[-99.057922,19.420887],[-99.067953,19.420803],[-99.069921,19.419874],[-99.077979,19.407148],[-99.080227,19.406885],[-99.096123,19.409116],[-99.098909,19.408851],[-99.115067,19.405559],[-99.11881,19.405517],[-99.125698,19.404331],[-99.130039,19.403208],[-99.135421,19.403363],[-99.136588,19.402812],[-99.137182,19.3992],[-99.130942,19.398954],[-99.131477,19.395553],[-99.135488,19.377187],[-99.1297,19.377029],[-99.122534,19.3757],[-99.122477,19.382441],[-99.116921,19.382122],[-99.095648,19.379599],[-99.088801,19.390382],[-99.084907,19.38967],[-99.083648,19.392474],[-99.066366,19.383537],[-99.060848,19.382588],[-99.058133,19.40072],[-99.055786,19.422141]]]}},
{"type":"Feature","id":"MEX:ADM2:MX-CMX.venustiano-carranza","properties":{"shapeName":"Venustiano Carranza","shapeISO":"","shapeGroup":"MEX","shapeType":"ADM2","adm1ISO":"MX-CMX","parentISO":"MX-CMX","parentID":"MEX:ADM1:MX-CMX","src_shape_id":"50627088B79024573117957"},"geometry":{"type":"Polygon","coordinates":[[[-99.122242,19.459782],[-99.123332,19.458154],[-99.12593,19.447618],[-99.123115,19.44266],[-99.123445,19.439555],[-99.126006,19.422873],[-99.127139,19.420378],[-99.1282,19.41376],[-99.125698,19.404331],[-99.11881,19.405517],[-99.115067,19.405559],[-99.098909,19.408851],[-99.096123,19.409116],[-99.080227,19.406885],[-99.077979,19.407148],[-99.069921,19.419874],[-99.067953,19.420803],[-99.057922,19.420887],[-99.055786,19.422141],[-99.055196,19.424273],[-99.048209,19.439637],[-99.046459,19.442364],[-99.050869,19.450181],[-99.052564,19.448422],[-99.062285,19.444791],[-99.067228,19.446531],[-99.068596,19.446476],[-99.078098,19.449747],[-99.080877,19.450157],[-99.087156,19.445767],[-99.09322,19.4516],[-99.095269,19.451607],[-99.099699,19.449943],[-99.101396,19.449954],[-99.111362,19.453595],[-99.117349,19.458107],[-99.122242,19.459782]]]}},
{"type":"Feature","id":"MEX:ADM2:MX-CMX.iztapalapa","properties":{"shapeName":"Iztapalapa","shapeISO":"","shapeGroup":"MEX","shapeType":"ADM2","adm1ISO":"MX-CMX","parentISO":"MX-CMX","parentID":"MEX:ADM1:MX-CMX","src_shape_id":"50627088B81383343299942"},"geometry":{"type":"Polygon","coordinates":[[[-99.135488,19.377187],[-99.139894,19.35737],[-99.139836,19.356918],[-99.134397,19.356547],[-99.131178,19.358661],[-99.12198,19.357662],[-99.121454,19.35392],[-99.120242,19.350561],[-99.115658,19.343433],[-99.114549,19.340971],[-99.113907,19.337336],[-99.111618,19.333667],[-99.110092,19.332581],[-99.107929,19.328726],[-99.104336,19.324938],[-99.100843,19.322839],[-99.099077,19.320444],[-99.098647,19.31859],[-99.087185,19.30415],[-99.083168,19.299652],[-99.074941,19.289698],[-99.068967,19.284956],[-99.061632,19.292663],[-99.062642,19.297304],[-99.064777,19.301643],[-99.0634,19.305685],[-99.059871,19.304441],[-99.053783,19.31186],[-99.052263,19.310761],[-99.05043,19.312957],[-99.048868,19.311884],[-99.046689,19.314669],[-99.043613,19.312208],[-99.040442,19.315415],[-99.025961,19.319338],[-99.001354,19.327134],[-98.979868,19.32614],[-98.977397,19.325225],[-98.975324,19.325643],[-98.968275,19.325723],[-98.960451,19.325374],[-98.974325,19.337027],[-98.978793,19.343289],[-98.991467,19.355464],[-98.994557,19.358141],[-98.993468,19.360384],[-98.991894,19.367554],[-99.010165,19.378325],[-99.020348,19.38364],[-99.054961,19.399389],[-99.058133,19.40072],[-99.060848,19.382588],[-99.066366,19.383537],[-99.083648,19.392474],[-99.084907,19.38967],[-99.088801,19.390382],[-99.095648,19.379599],[-99.116921,19.382122],[-99.122477,19.382441],[-99.122534,19.3757],[-99.1297,19.377029],[-99.135488,19.377187]]]}},
{"type":"Feature","id":"MEX:ADM2:MX-CMX.tlalpan","properties":{"shapeName":"Tlalpan","shapeISO":"","shapeGroup":"MEX","shapeType":"ADM2","adm1ISO":"MX-CMX","parentISO":"MX-CMX","parentID":"MEX:ADM1:MX-CMX","src_shape_id":"50627088B11005238011149"},"geometry":{"type":"Polygon","coordinates":[[[-99.278695,19.131702],[-99.226778,19.09606],[-99.136481,19.089378],[-99.146811,19.100583],[-99.163293,19.117491],[-99.155009,19.13531],[-99.1525,19.142118],[-99.151957,19.150767],[-99.149608,19.160313],[-99.146804,19.159945],[-99.143446,19.157539],[-99.140696,19.152497],[-99.132406,19.148611],[-99.130244,19.152544],[-99.132509,19.153026],[-99.132695,19.160134],[-99.130641,19.1649],[-99.130174,19.16822],[-99.130462,19.171855],[-99.132064,19.17512],[-99.132395,19.178532],[-99.130196,19.183703],[-99.127076,19.187266],[-99.130673,19.191315],[-99.130775,19.19294],[-99.129089,19.199671],[-99.130302,19.203176],[-99.132431,19.206479],[-99.133014,19.210095],[-99.138316,19.215728],[-99.154395,19.220639],[-99.152064,19.221296],[-99.151074,19.224151],[-99.153378,19.225982],[-99.150251,19.234178],[-99.144453,19.234525],[-99.14612,19.239329],[-99.144011,19.239684],[-99.144251,19.243661],[-99.143666,19.244619],[-99.140384,19.243595],[-99.138922,19.245966],[-99.141691,19.249751],[-99.140156,19.251901],[-99.139395,19.254693],[-99.140173,19.257862],[-99.142367,19.260234],[-99.142403,19.266625],[-99.144921,19.267447],[-99.143946,19.269541],[-99.142048,19.270857],[-99.142088,19.273945],[-99.141056,19.282529],[-99.136472,19.282276],[-99.134013,19.282701],[-99.12391,19.285569],[-99.101364,19.2952],[-99.100929,19.300019],[-99.109214,19.29962],[-99.122027,19.302937],[-99.134728,19.30829],[-99.142616,19.299606],[-99.147857,19.300829],[-99.151621,19.298006],[-99.156669,19.296842],[-99.159715,19.300243],[-99.162855,19.301372],[-99.176799,19.303273],[-99.182349,19.30328],[-99.193451,19.302048],[-99.195954,19.302199],[-99.200184,19.304174],[-99.205752,19.305682],[-99.215395,19.307621],[-99.217795,19.309353],[-99.219925,19.312264],[-99.220971,19.311079],[-99.223929,19.310897],[-99.22724,19.308408],[-99.227893,19.306857],[-99.231905,19.305042],[-99.233397,19.300816],[-99.232494,19.297735],[-99.237072,19.294268],[-99.241385,19.294018],[-99.242997,19.291437],[-99.242762,19.28936],[-99.241014,19.28799],[-99.243546,19.282191],[-99.244913,19.280137],[-99.245195,19.276489],[-99.243459,19.275649],[-99.244613,19.272902],[-99.243468,19.26979],[-99.245995,19.267529],[-99.246995,19.264497],[-99.245654,19.26172],[-99.245974,19.25904],[-99.244585,19.252733],[-99.245792,19.249764],[-99.247608,19.247468],[-99.249596,19.246331],[-99.251769,19.242433],[-99.250994,19.240456],[-99.252869,19.23759],[-99.253129,19.2351],[-99.258897,19.230512],[-99.263773,19.228494],[-99.269487,19.224489],[-99.270533,19.224292],[-99.274157,19.221039],[-99.274616,19.217518],[-99.27821,19.214279],[-99.282394,19.213081],[-99.284637,19.21369],[-99.288048,19.213177],[-99.291438,19.214598],[-99.293151,19.213907],[-99.296706,19.217763],[-99.300267,19.217742],[-99.302456,19.218969],[-99.305704,19.222236],[-99.309625,19.224749],[-99.312974,19.225805],[-99.315556,19.227395],[-99.31625,19.221502],[-99.313366,19.218967],[-99.307136,19.213728],[-99.306785,19.211081],[-99.306131,19.206144],[-99.304687,19.202645],[-99.302763,19.190855],[-99.301331,19.188417],[-99.300183,19.184579],[-99.295597,19.172883],[-99.293115,19.165299],[-99.287605,19.146601],[-99.278695,19.131702]]]}},
{"type":"Feature","id":"MEX:ADM2:MX-CMX.xochimilco","properties":{"shapeName":"Xochimilco","shapeISO":"","shapeGroup":"MEX","shapeType":"ADM2","adm1ISO":"MX-CMX","parentISO":"MX-CMX","parentID":"MEX:ADM1:MX-CMX","src_shape_id":"50627088B56641992702600"},"geometry":{"type":"Polygon","coordinates":[[[-99.099077,19.320444],[-99.09935,19.319273],[-99.100929,19.300019],[-99.101364,19.2952],[-99.12391,19.285569],[-99.134013,19.282701],[-99.136472,19.282276],[-99.141056,19.282529],[-99.142088,19.273945],[-99.142048,19.270857],[-99.143946,19.269541],[-99.144921,19.267447],[-99.142403,19.266625],[-99.142367,19.260234],[-99.140173,19.257862],[-99.139395,19.254693],[-99.140156,19.251901],[-99.141691,19.249751],[-99.138922,19.245966],[-99.140384,19.243595],[-99.143666,19.244619],[-99.144251,19.243661],[-99.144011,19.239684],[-99.14612,19.239329],[-99.144453,19.234525],[-99.150251,19.234178],[-99.153378,19.225982],[-99.151074,19.224151],[-99.152064,19.221296],[-99.154395,19.220639],[-99.138316,19.215728],[-99.133014,19.210095],[-99.132431,19.206479],[-99.130302,19.203176],[-99.129089,19.199671],[-99.130775,19.19294],[-99.130673,19.191315],[-99.127076,19.187266],[-99.130196,19.183703],[-99.132395,19.178532],[-99.132064,19.17512],[-99.130462,19.171855],[-99.130174,19.16822],[-99.130641,19.1649],[-99.132695,19.160134],[-99.132509,19.153026],[-99.130244,19.152544],[-99.105736,19.197341],[-99.102118,19.201052],[-99.101854,19.20443],[-99.099213,19.208147],[-99.095687,19.208628],[-99.094561,19.211539],[-99.090695,19.211096],[-99.030193,19.223633],[-99.015415,19.240989],[-99.013917,19.245111],[-99.011191,19.246053],[-99.008883,19.250675],[-99.007045,19.251606],[-99.013443,19.258374],[-99.016569,19.25998],[-99.025842,19.262205],[-99.029301,19.262375],[-99.035944,19.270637],[-99.041451,19.273781],[-99.048287,19.275978],[-99.054498,19.279367],[-99.0576,19.279629],[-99.064645,19.282114],[-99.068967,19.284956],[-99.074941,19.289698],[-99.083168,19.299652],[-99.087185,19.30415],[-99.098647,19.31859],[-99.099077,19.320444]]]}},
{"type":"Feature","id":"MEX:ADM2:MX-CMX.la-magdalena-contreras","properties":{"shapeName":"La Magdalena Contreras","shapeISO":"","shapeGroup":"MEX","shapeType":"ADM2","adm1ISO":"MX-CMX","parentISO":"MX-CMX","parentID":"MEX:ADM1:MX-CMX","src_shape_id":"50627088B92108463295960"},"geometry":{"type":"Polygon","coordinates":[[[-99.315556,19.227395],[-99.312974,19.225805],[-99.309625,19.224749],[-99.305704,19.222236],[-99.302456,19.218969],[-99.300267,19.217742],[-99.296706,19.217763],[-99.293151,19.213907],[-99.291438,19.214598],[-99.288048,19.213177],[-99.284637,19.21369],[-99.282394,19.213081],[-99.27821,19.214279],[-99.274616,19.217518],[-99.274157,19.221039],[-99.270533,19.224292],[-99.269487,19.224489],[-99.263773,19.228494],[-99.258897,19.230512],[-99.253129,19.2351],[-99.252869,19.23759],[-99.250994,19.240456],[-99.251769,19.242433],[-99.249596,19.246331],[-99.247608,19.247468],[-99.245792,19.249764],[-99.244585,19.252733],[-99.245974,19.25904],[-99.245654,19.26172],[-99.246995,19.264497],[-99.245995,19.267529],[-99.243468,19.26979],[-99.244613,19.272902],[-99.243459,19.275649],[-99.245195,19.276489],[-99.244913,19.280137],[-99.243546,19.282191],[-99.241014,19.28799],[-99.242762,19.28936],[-99.242997,19.291437],[-99.241385,19.294018],[-99.237072,19.294268],[-99.232494,19.297735],[-99.233397,19.300816],[-99.231905,19.305042],[-99.227893,19.306857],[-99.22724,19.308408],[-99.223929,19.310897],[-99.220971,19.311079],[-99.219925,19.312264],[-99.221478,19.318692],[-99.220901,19.320648],[-99.21435,19.325321],[-99.212467,19.327235],[-99.209587,19.332891],[-99.207106,19.336544],[-99.208388,19.337851],[-99.211227,19.336253],[-99.214864,19.336388],[-99.217138,19.334692],[-99.221327,19.333822],[-99.231201,19.329835],[-99.234084,19.326808],[-99.237313,19.3247],[-99.24026,19.324397],[-99.243536,19.328465],[-99.248027,19.327869],[-99.249959,19.327029],[-99.255176,19.326559],[-99.257529,19.322862],[-99.259622,19.321311],[-99.261769,19.317689],[-99.265901,19.313437],[-99.269441,19.313625],[-99.271145,19.309049],[-99.271204,19.307219],[-99.269045,19.304742],[-99.272062,19.302569],[-99.269737,19.301176],[-99.271473,19.299175],[-99.272461,19.294211],[-99.276169,19.289098],[-99.27332,19.285189],[-99.28114,19.28062],[-99.283965,19.276961],[-99.283178,19.275736],[-99.285247,19.273108],[-99.28619,19.270681],[-99.289329,19.270351],[-99.292579,19.268308],[-99.294237,19.264595],[-99.296809,19.263112],[-99.297984,19.261454],[-99.300876,19.261044],[-99.30237,19.258928],[-99.306236,19.257745],[-99.314074,19.256811],[-99.315874,19.252916],[-99.317848,19.247123],[-99.317706,19.244371],[-99.320059,19.243143],[-99.322669,19.240307],[-99.323314,19.238555],[-99.322255,19.232648],[-99.321297,19.232665],[-99.315343,19.229196],[-99.315556,19.227395]]]}},
{"type":"Feature","id":"MEX:ADM2:MX-CMX.benito-juarez","properties":{"shapeName":"Benito Juárez","shapeISO":"","shapeGroup":"MEX","shapeType":"ADM2","adm1ISO":"MX-CMX","parentISO":"MX-CMX","parentID":"MEX:ADM1:MX-CMX","src_shape_id":"50627088B57941954628474"},"geometry":{"type":"Polygon","coordinates":[[[-99.189055,19.39559],[-99.188452,19.394128],[-99.190339,19.386189],[-99.191673,19.38303],[-99.191637,19.377415],[-99.192134,19.373598],[-99.191727,19.36909],[-99.190756,19.366788],[-99.191093,19.36349],[-99.187845,19.362883],[-99.185685,19.361725],[-99.180199,19.362925],[-99.177742,19.365141],[-99.173276,19.360605],[-99.171709,19.359562],[-99.16855,19.358552],[-99.139836,19.356918],[-99.139894,19.35737],[-99.135488,19.377187],[-99.131477,19.395553],[-99.130942,19.398954],[-99.137182,19.3992],[-99.136588,19.402812],[-99.137406,19.403464],[-99.147624,19.404015],[-99.156329,19.404063],[-99.170436,19.39979],[-99.175532,19.398094],[-99.182101,19.396961],[-99.18649,19.395641],[-99.189055,19.39559]]]}},
{"type":"Feature","id":"MEX:ADM2:MX-CMX.cuauhtemoc","properties":{"shapeName":"Cuauhtémoc","shapeISO":"","shapeGroup":"MEX","shapeType":"ADM2","adm1ISO":"MX-CMX","parentISO":"MX-CMX","parentID":"MEX:ADM1:MX-CMX","src_shape_id":"50627088B31527020598056"},"geometry":{"type":"Polygon","coordinates":[[[-99.163713,19.456435],[-99.164331,19.449985],[-99.165721,19.44382],[-99.168487,19.438152],[-99.177636,19.423596],[-99.175096,19.423159],[-99.177766,19.419286],[-99.184304,19.407827],[-99.171079,19.403497],[-99.170436,19.39979],[-99.156329,19.404063],[-99.147624,19.404015],[-99.137406,19.403464],[-99.136588,19.402812],[-99.135421,19.403363],[-99.130039,19.403208],[-99.125698,19.404331],[-99.1282,19.41376],[-99.127139,19.420378],[-99.126006,19.422873],[-99.123445,19.439555],[-99.123115,19.44266],[-99.12593,19.447618],[-99.123332,19.458154],[-99.122242,19.459782],[-99.127551,19.461527],[-99.132862,19.464641],[-99.140807,19.465353],[-99.143118,19.465063],[-99.150028,19.463017],[-99.157311,19.464055],[-99.159549,19.463324],[-99.163154,19.458883],[-99.163713,19.456435]]]}},
{"type":"Feature","id":"MEX:ADM2:MX-CMX.alvaro-obregon","properties":{"shapeName":"Álvaro Obregón","shapeISO":"","shapeGroup":"MEX","shapeType":"ADM2","adm1ISO":"MX-CMX","parentISO":"MX-CMX","parentID":"MEX:ADM1:MX-CMX","src_shape_id":"50627088B40867789831211"},"geometry":{"type":"Polygon","coordinates":[[[-99.322255,19.232648],[-99.323314,19.238555],[-99.322669,19.240307],[-99.320059,19.243143],[-99.317706,19.244371],[-99.317848,19.247123],[-99.315874,19.252916],[-99.314074,19.256811],[-99.306236,19.257745],[-99.30237,19.258928],[-99.300876,19.261044],[-99.297984,19.261454],[-99.296809,19.263112],[-99.294237,19.264595],[-99.292579,19.268308],[-99.289329,19.270351],[-99.28619,19.270681],[-99.285247,19.273108],[-99.283178,19.275736],[-99.283965,19.276961],[-99.28114,19.28062],[-99.27332,19.285189],[-99.276169,19.289098],[-99.272461,19.294211],[-99.271473,19.299175],[-99.269737,19.301176],[-99.272062,19.302569],[-99.269045,19.304742],[-99.271204,19.307219],[-99.271145,19.309049],[-99.269441,19.313625],[-99.265901,19.313437],[-99.261769,19.317689],[-99.259622,19.321311],[-99.257529,19.322862],[-99.255176,19.326559],[-99.249959,19.327029],[-99.248027,19.327869],[-99.243536,19.328465],[-99.24026,19.324397],[-99.237313,19.3247],[-99.234084,19.326808],[-99.231201,19.329835],[-99.221327,19.333822],[-99.217138,19.334692],[-99.214864,19.336388],[-99.211227,19.336253],[-99.208388,19.337851],[-99.207106,19.336544],[-99.209587,19.332891],[-99.212467,19.327235],[-99.21435,19.325321],[-99.220901,19.320648],[-99.221478,19.318692],[-99.219925,19.312264],[-99.217795,19.309353],[-99.215395,19.307621],[-99.205752,19.305682],[-99.200247,19.31116],[-99.201142,19.312034],[-99.194934,19.32203],[-99.194704,19.330233],[-99.19826,19.335378],[-99.191236,19.336877],[-99.189161,19.339723],[-99.184775,19.343438],[-99.182875,19.346584],[-99.180555,19.347236],[-99.180127,19.349268],[-99.172775,19.357081],[-99.171709,19.359562],[-99.173276,19.360605],[-99.177742,19.365141],[-99.180199,19.362925],[-99.185685,19.361725],[-99.187845,19.362883],[-99.191093,19.36349],[-99.190756,19.366788],[-99.191727,19.36909],[-99.192134,19.373598],[-99.191637,19.377415],[-99.191673,19.38303],[-99.190339,19.386189],[-99.188452,19.394128],[-99.189055,19.39559],[-99.190614,19.399322],[-99.192133,19.400981],[-99.192201,19.403743],[-99.197614,19.403091],[-99.201417,19.401682],[-99.21051,19.400425],[-99.214856,19.398706],[-99.223579,19.395853],[-99.227345,19.395796],[-99.232842,19.394814],[-99.238808,19.392824],[-99.239929,19.388864],[-99.242679,19.387035],[-99.245477,19.387394],[-99.247653,19.385957],[-99.250325,19.383834],[-99.256909,19.379613],[-99.26103,19.376033],[-99.266303,19.374474],[-99.270143,19.37281],[-99.269778,19.371444],[-99.266576,19.368319],[-99.266833,19.363545],[-99.262538,19.36199],[-99.261133,19.360826],[-99.259249,19.351775],[-99.259228,19.349061],[-99.260874,19.347192],[-99.264146,19.34596],[-99.266776,19.344075],[-99.268546,19.341846],[-99.278498,19.337734],[-99.285192,19.336114],[-99.287876,19.330223],[-99.288866,19.332785],[-99.291177,19.329354],[-99.290809,19.326578],[-99.291654,19.325035],[-99.290703,19.32135],[-99.293564,19.31988],[-99.294576,19.317006],[-99.296125,19.317198],[-99.299078,19.321187],[-99.30169,19.318595],[-99.300037,19.313973],[-99.30109,19.312207],[-99.305029,19.309064],[-99.305788,19.307399],[-99.311931,19.306396],[-99.315143,19.301286],[-99.31716,19.295816],[-99.317045,19.292606],[-99.315735,19.289903],[-99.316674,19.286136],[-99.315729,19.282199],[-99.317384,19.274871],[-99.318785,19.273225],[-99.323643,19.265087],[-99.32352,19.250743],[-99.324228,19.238338],[-99.32432,19.23261],[-99.322255,19.232648]]]}},
{"type":"Feature","id":"MEX:ADM2:MX-CMX.cuajimalpa-de-morelos","properties":{"shapeName":"Cuajimalpa de Morelos","shapeISO":"","shapeGroup":"MEX","shapeType":"ADM2","adm1ISO":"MX-CMX","parentISO":"MX-CMX","parentID":"MEX:ADM1:MX-CMX","src_shape_id":"50627088B46057662043676"},"geometry":{"type":"Polygon","coordinates":[[[-99.32432,19.23261],[-99.324228,19.238338],[-99.32352,19.250743],[-99.323643,19.265087],[-99.318785,19.273225],[-99.317384,19.274871],[-99.315729,19.282199],[-99.316674,19.286136],[-99.315735,19.289903],[-99.317045,19.292606],[-99.31716,19.295816],[-99.315143,19.301286],[-99.311931,19.306396],[-99.305788,19.307399],[-99.305029,19.309064],[-99.30109,19.312207],[-99.300037,19.313973],[-99.30169,19.318595],[-99.299078,19.321187],[-99.296125,19.317198],[-99.294576,19.317006],[-99.293564,19.31988],[-99.290703,19.32135],[-99.291654,19.325035],[-99.290809,19.326578],[-99.291177,19.329354],[-99.288866,19.332785],[-99.287876,19.330223],[-99.285192,19.336114],[-99.278498,19.337734],[-99.268546,19.341846],[-99.266776,19.344075],[-99.264146,19.34596],[-99.260874,19.347192],[-99.259228,19.349061],[-99.259249,19.351775],[-99.261133,19.360826],[-99.262538,19.36199],[-99.266833,19.363545],[-99.266576,19.368319],[-99.269778,19.371444],[-99.270143,19.37281],[-99.266303,19.374474],[-99.26103,19.376033],[-99.256909,19.379613],[-99.250325,19.383834],[-99.247653,19.385957],[-99.248527,19.390409],[-99.246954,19.392661],[-99.249252,19.393426],[-99.25484,19.393707],[-99.259216,19.392567],[-99.25966,19.394131],[-99.256354,19.396514],[-99.255207,19.39914],[-99.255808,19.403572],[-99.258154,19.402428],[-99.261304,19.399329],[-99.263916,19.399427],[-99.265761,19.39819],[-99.26957,19.390384],[-99.272432,19.389678],[-99.273685,19.387037],[-99.280035,19.382268],[-99.28283,19.381404],[-99.284569,19.379688],[-99.285697,19.376439],[-99.287668,19.376682],[-99.295587,19.369077],[-99.297473,19.369414],[-99.29902,19.367515],[-99.301232,19.3697],[-99.301309,19.377084],[-99.303483,19.37783],[-99.305005,19.376833],[-99.306127,19.3736],[-99.307765,19.371561],[-99.310707,19.370408],[-99.313088,19.370449],[-99.31539,19.365888],[-99.316862,19.366307],[-99.319543,19.363618],[-99.320699,19.360444],[-99.323764,19.357953],[-99.326392,19.353672],[-99.328484,19.353092],[-99.328852,19.350356],[-99.328272,19.345202],[-99.331152,19.339776],[-99.332307,19.333518],[-99.333842,19.33059],[-99.356608,19.306676],[-99.356369,19.303333],[-99.356274,19.302015],[-99.349985,19.296837],[-99.353498,19.297402],[-99.351492,19.294152],[-99.353581,19.291934],[-99.364924,19.277769],[-99.361922,19.275742],[-99.348214,19.273961],[-99.344687,19.269475],[-99.340939,19.267798],[-99.33916,19.267697],[-99.33763,19.26404],[-99.339857,19.259653],[-99.342069,19.247539],[-99.342341,19.241122],[-99.330821,19.237935],[-99.32672,19.232566],[-99.32432,19.23261]]]}},
{"type":"Feature","id":"MEX:ADM2:MX-CMX.coyoacan","properties":{"shapeName":"Coyoacán","shapeISO":"","shapeGroup":"MEX","shapeType":"ADM2","adm1ISO":"MX-CMX","parentISO":"MX-CMX","parentID":"MEX:ADM1:MX-CMX","src_shape_id":"50627088B91322923127340"},"geometry":{"type":"Polygon","coordinates":[[[-99.139836,19.356918],[-99.16855,19.358552],[-99.171709,19.359562],[-99.172775,19.357081],[-99.180127,19.349268],[-99.180555,19.347236],[-99.182875,19.346584],[-99.184775,19.343438],[-99.189161,19.339723],[-99.191236,19.336877],[-99.19826,19.335378],[-99.194704,19.330233],[-99.194934,19.32203],[-99.201142,19.312034],[-99.200247,19.31116],[-99.205752,19.305682],[-99.200184,19.304174],[-99.195954,19.302199],[-99.193451,19.302048],[-99.182349,19.30328],[-99.176799,19.303273],[-99.162855,19.301372],[-99.159715,19.300243],[-99.156669,19.296842],[-99.151621,19.298006],[-99.147857,19.300829],[-99.142616,19.299606],[-99.134728,19.30829],[-99.122027,19.302937],[-99.109214,19.29962],[-99.100929,19.300019],[-99.09935,19.319273],[-99.099077,19.320444],[-99.100843,19.322839],[-99.104336,19.324938],[-99.107929,19.328726],[-99.110092,19.332581],[-99.111618,19.333667],[-99.113907,19.337336],[-99.114549,19.340971],[-99.115658,19.343433],[-99.120242,19.350561],[-99.121454,19.35392],[-99.12198,19.357662],[-99.131178,19.358661],[-99.134397,19.356547],[-99.139836,19.356918]]]}},
{"type":"Feature","id":"MEX:ADM2:MX-CMX.tlahuac","properties":{"shapeName":"Tláhuac","shapeISO":"","shapeGroup":"MEX","shapeType":"ADM2","adm1ISO":"MX-CMX","parentISO":"MX-CMX","parentID":"MEX:ADM1:MX-CMX","src_shape_id":"50627088B16651448707811"},"geometry":{"type":"Polygon","coordinates":[[[-99.068967,19.284956],[-99.064645,19.282114],[-99.0576,19.279629],[-99.054498,19.279367],[-99.048287,19.275978],[-99.041451,19.273781],[-99.035944,19.270637],[-99.029301,19.262375],[-99.025842,19.262205],[-99.016569,19.25998],[-99.013443,19.258374],[-99.007045,19.251606],[-99.008883,19.250675],[-99.011191,19.246053],[-99.013917,19.245111],[-99.015415,19.240989],[-99.030193,19.223633],[-99.000104,19.226318],[-98.998864,19.227705],[-98.996181,19.225889],[-98.993725,19.22747],[-98.993263,19.224945],[-98.990559,19.225778],[-98.97815,19.215068],[-98.97435,19.214443],[-98.971498,19.211972],[-98.968528,19.210571],[-98.962694,19.214143],[-98.957461,19.215136],[-98.953948,19.214646],[-98.951086,19.218184],[-98.942553,19.215615],[-98.940303,19.22324],[-98.94577,19.224954],[-98.968587,19.232218],[-98.965987,19.249941],[-98.976531,19.253125],[-98.974918,19.259491],[-98.971431,19.278367],[-98.967224,19.305968],[-98.964776,19.306881],[-98.962966,19.316727],[-98.957903,19.323228],[-98.960451,19.325374],[-98.968275,19.325723],[-98.975324,19.325643],[-98.977397,19.325225],[-98.979868,19.32614],[-99.001354,19.327134],[-99.025961,19.319338],[-99.040442,19.315415],[-99.043613,19.312208],[-99.046689,19.314669],[-99.048868,19.311884],[-99.05043,19.312957],[-99.052263,19.310761],[-99.053783,19.31186],[-99.059871,19.304441],[-99.0634,19.305685],[-99.064777,19.301643],[-99.062642,19.297304],[-99.061632,19.292663],[-99.068967,19.284956]]]}},
{"type":"Feature","id":"MEX:ADM2:MX-CMX.milpa-alta","properties":{"shapeName":"Milpa Alta","shapeISO":"","shapeGroup":"MEX","shapeType":"ADM2","adm1ISO":"MX-CMX","parentISO":"MX-CMX","parentID":"MEX:ADM1:MX-CMX","src_shape_id":"50627088B10740094064214"},"geometry":{"type":"Polygon","coordinates":[[[-98.968528,19.210571],[-98.971498,19.211972],[-98.97435,19.214443],[-98.97815,19.215068],[-98.990559,19.225778],[-98.993263,19.224945],[-98.993725,19.22747],[-98.996181,19.225889],[-98.998864,19.227705],[-99.000104,19.226318],[-99.030193,19.223633],[-99.090695,19.211096],[-99.094561,19.211539],[-99.095687,19.208628],[-99.099213,19.208147],[-99.101854,19.20443],[-99.102118,19.201052],[-99.105736,19.197341],[-99.130244,19.152544],[-99.132406,19.148611],[-99.140696,19.152497],[-99.143446,19.157539],[-99.146804,19.159945],[-99.149608,19.160313],[-99.151957,19.150767],[-99.1525,19.142118],[-99.155009,19.13531],[-99.163293,19.117491],[-99.146811,19.100583],[-99.136481,19.089378],[-99.135379,19.089296],[-99.125433,19.062065],[-99.062086,19.048719],[-99.0598,19.048237],[-99.043209,19.075755],[-99.028994,19.085369],[-98.983594,19.078763],[-98.978995,19.074456],[-98.973697,19.079553],[-98.968284,19.083141],[-98.965721,19.085861],[-98.963266,19.092063],[-98.96124,19.095583],[-98.959064,19.104278],[-98.958702,19.113639],[-98.957507,19.122383],[-98.961092,19.133029],[-98.965113,19.140415],[-98.966456,19.143871],[-98.954626,19.149524],[-98.967366,19.164439],[-98.952386,19.168638],[-98.954916,19.174063],[-98.956522,19.176635],[-98.959849,19.179168],[-98.96641,19.187032],[-98.967694,19.189743],[-98.966979,19.197922],[-98.967702,19.203129],[-98.969679,19.204253],[-98.967509,19.206125],[-98.966838,19.209007],[-98.968528,19.210571]]]}}
]}