{"type":"FeatureCollection","bbox":[-114.759455,18.332594,-103.486474,19.512519],"features":[
{"type":"Feature","id":"MEX:ADM2:MX-COL.armeria","properties":{"shapeName":"Armería","shapeISO":"","shapeGroup":"MEX","shapeType":"ADM2","adm1ISO":"MX-COL","parentISO":"MX-COL","parentID":"MEX:ADM1:MX-COL","src_shape_id":"50627088B45390656969896"},"geometry":{"type":"Polygon","coordinates":[[[-103.896252,19.097698],[-103.898659,19.097353],[-103.905887,19.100656],[-103.912093,19.104843],[-103.919015,19.110271],[-103.92266,19.111779],[-103.92411,19.113856],[-103.930988,19.116588],[-103.93292,19.116123],[-103.937056,19.118929],[-103.940767,19.118221],[-103.944511,19.118407],[-103.949729,19.117988],[-103.952681,19.116605],[-103.960711,19.117341],[-103.963102,19.12236],[-103.967093,19.122269],[-103.970965,19.124434],[-103.972453,19.126834],[-103.973941,19.126113],[-103.98116,19.130893],[-103.983111,19.132958],[-103.988947,19.132977],[-103.99191,19.131305],[-103.998708,19.132462],[-104.00071,19.131366],[-104.002682,19.132984],[-104.005366,19.133263],[-104.00607,19.134841],[-104.005064,19.136879],[-104.008702,19.137412],[-104.011498,19.136703],[-104.0166,19.139435],[-104.018495,19.141219],[-104.022582,19.141107],[-104.024425,19.141687],[-104.025546,19.144337],[-104.028334,19.143744],[-104.033493,19.14753],[-104.034129,19.149513],[-104.036781,19.151967],[-104.040594,19.150624],[-104.044212,19.153122],[-104.04542,19.151364],[-104.048247,19.151683],[-104.051731,19.15409],[-104.054666,19.152138],[-104.060851,19.151662],[-104.059802,19.149438],[-104.06062,19.145757],[-104.064766,19.145336],[-104.066201,19.14265],[-104.067968,19.134507],[-104.069404,19.13231],[-104.069037,19.128568],[-104.062531,19.1187],[-104.06358,19.116743],[-104.067874,19.101937],[-104.063842,19.100859],[-104.056834,19.092693],[-104.046231,19.083811],[-104.043354,19.082822],[-104.041754,19.081402],[-104.041548,19.079477],[-104.039853,19.076287],[-104.031287,19.06998],[-104.029598,19.067133],[-104.030778,19.063839],[-104.03007,19.062249],[-104.026879,19.059929],[-104.029139,19.05762],[-104.026835,19.051969],[-104.027255,19.04727],[-104.027928,19.045796],[-104.025986,19.042335],[-104.023076,19.038804],[-104.026638,19.034467],[-104.032354,19.031463],[-104.034488,19.028271],[-104.034391,19.024727],[-104.036814,19.021772],[-104.030141,19.012598],[-104.03634,19.010733],[-104.040887,19.012483],[-104.049493,19.008727],[-104.052873,19.009838],[-104.055992,19.013658],[-104.058369,19.011575],[-104.060461,19.013637],[-104.066863,19.009131],[-104.068817,19.004694],[-104.075214,18.993066],[-104.07797,18.987409],[-104.089254,18.988852],[-104.092186,18.990018],[-104.0933,18.986977],[-104.099867,18.987097],[-104.102563,18.982632],[-104.103702,18.981751],[-104.109323,18.96859],[-104.115742,18.95529],[-104.1188,18.94772],[-104.115699,18.946329],[-104.116608,18.943807],[-104.119946,18.944198],[-104.108769,18.938602],[-104.0953,18.930715],[-104.090233,18.928195],[-104.071964,18.917399],[-104.06853,18.91504],[-104.057808,18.908838],[-104.038488,18.898291],[-104.02158,18.889963],[-104.012454,18.88661],[-104.005888,18.883767],[-104.000132,18.88032],[-103.999341,18.880552],[-103.992485,18.875281],[-103.990307,18.87409],[-103.983185,18.872582],[-103.976702,18.867061],[-103.971042,18.86435],[-103.969972,18.867844],[-103.971619,18.868779],[-103.970147,18.871599],[-103.967541,18.874417],[-103.961785,18.87296],[-103.961508,18.874346],[-103.958711,18.875187],[-103.957859,18.878439],[-103.95546,18.881157],[-103.953191,18.881421],[-103.952125,18.889403],[-103.951222,18.892074],[-103.951384,18.896102],[-103.950731,18.897612],[-103.953024,18.903865],[-103.952876,18.907853],[-103.94959,18.912353],[-103.949314,18.916125],[-103.947376,18.917042],[-103.944762,18.919624],[-103.943889,18.930868],[-103.944884,18.936391],[-103.944558,18.940973],[-103.94569,18.943477],[-103.942186,18.947493],[-103.942356,18.949977],[-103.946245,18.955408],[-103.945497,18.957359],[-103.94128,18.958408],[-103.937528,18.957831],[-103.936426,18.958864],[-103.929112,18.959529],[-103.925984,18.962335],[-103.923677,18.963361],[-103.922355,18.966373],[-103.922606,18.968887],[-103.921242,18.97209],[-103.921643,18.973513],[-103.920998,18.979655],[-103.919182,18.985977],[-103.914798,18.995019],[-103.914059,18.997527],[-103.914501,18.999787],[-103.914356,19.004591],[-103.91485,19.007117],[-103.914357,19.00957],[-103.916301,19.010436],[-103.916814,19.016144],[-103.918233,19.017683],[-103.915687,19.022567],[-103.912529,19.03046],[-103.913771,19.033837],[-103.913469,19.035809],[-103.915154,19.037877],[-103.917477,19.037653],[-103.91632,19.046952],[-103.914345,19.048525],[-103.915348,19.050452],[-103.914552,19.05547],[-103.914476,19.059771],[-103.913045,19.063342],[-103.909034,19.068881],[-103.907012,19.075169],[-103.904379,19.080632],[-103.90344,19.081281],[-103.901821,19.086348],[-103.901879,19.08844],[-103.897941,19.093795],[-103.896252,19.097698]]]}},
{"type":"Feature","id":"MEX:ADM2:MX-COL.colima","properties":{"shapeName":"Colima","shapeISO":"","shapeGroup":"MEX","shapeType":"ADM2","adm1ISO":"MX-COL","parentISO":"MX-COL","parentID":"MEX:ADM1:MX-COL","src_shape_id":"50627088B47907092422730"},"geometry":{"type":"Polygon","coordinates":[[[-103.514134,19.217193],[-103.516485,19.216981],[-103.520335,19.215322],[-103.522823,19.215075],[-103.53954,19.216684],[-103.543016,19.215631],[-103.54735,19.216587],[-103.555509,19.217071],[-103.561515,19.216309],[-103.562442,19.215643],[-103.566415,19.216686],[-103.570055,19.228671],[-103.57132,19.226971],[-103.574267,19.229796],[-103.576657,19.227164],[-103.579475,19.225946],[-103.581493,19.226272],[-103.583031,19.224467],[-103.586073,19.224625],[-103.594382,19.220912],[-103.598931,19.221284],[-103.59931,19.219609],[-103.601736,19.219256],[-103.602175,19.216497],[-103.603719,19.214734],[-103.606556,19.215132],[-103.607193,19.212174],[-103.612061,19.209865],[-103.613983,19.210644],[-103.617913,19.208505],[-103.621481,19.207832],[-103.627577,19.204423],[-103.628339,19.202359],[-103.631342,19.201653],[-103.632654,19.199092],[-103.634799,19.199543],[-103.636804,19.196586],[-103.636549,19.194968],[-103.642608,19.193426],[-103.643183,19.188787],[-103.645389,19.190005],[-103.649003,19.190618],[-103.64997,19.194159],[-103.639372,19.206267],[-103.647692,19.209668],[-103.655003,19.213063],[-103.652582,19.216975],[-103.650285,19.218109],[-103.65137,19.220576],[-103.651,19.222715],[-103.649112,19.223902],[-103.649351,19.226164],[-103.651016,19.227809],[-103.650861,19.232683],[-103.663758,19.230353],[-103.675002,19.234284],[-103.674407,19.234935],[-103.674907,19.241072],[-103.666924,19.247734],[-103.658694,19.255459],[-103.662075,19.256311],[-103.661523,19.259094],[-103.660096,19.26134],[-103.662876,19.269523],[-103.667412,19.270444],[-103.669099,19.268132],[-103.672743,19.270029],[-103.678978,19.266393],[-103.682262,19.263926],[-103.688124,19.268673],[-103.683901,19.272845],[-103.681191,19.274678],[-103.679337,19.278801],[-103.676386,19.281233],[-103.67432,19.284372],[-103.671225,19.291578],[-103.671497,19.297703],[-103.668826,19.302885],[-103.665742,19.306092],[-103.663681,19.30926],[-103.665738,19.311883],[-103.66123,19.312422],[-103.66149,19.315305],[-103.660815,19.318594],[-103.662548,19.320509],[-103.679171,19.32576],[-103.680659,19.323161],[-103.683703,19.321408],[-103.686009,19.314557],[-103.688426,19.313655],[-103.693761,19.309347],[-103.699334,19.303039],[-103.701286,19.299589],[-103.705268,19.296277],[-103.708709,19.294535],[-103.710072,19.291525],[-103.711554,19.285688],[-103.714863,19.279427],[-103.717693,19.280853],[-103.719345,19.277648],[-103.715607,19.275475],[-103.718946,19.27226],[-103.721089,19.268216],[-103.721585,19.263531],[-103.723674,19.258408],[-103.730088,19.260696],[-103.730093,19.25714],[-103.732249,19.256429],[-103.732769,19.254736],[-103.737315,19.256382],[-103.740547,19.248131],[-103.742959,19.244318],[-103.747149,19.24438],[-103.753803,19.241906],[-103.758712,19.24218],[-103.768196,19.238323],[-103.771868,19.23781],[-103.783682,19.233683],[-103.779102,19.231537],[-103.778779,19.230516],[-103.774434,19.22945],[-103.776038,19.226114],[-103.775628,19.22127],[-103.773994,19.220374],[-103.77458,19.217378],[-103.776714,19.214836],[-103.780467,19.214559],[-103.780622,19.211453],[-103.783422,19.207513],[-103.78231,19.206018],[-103.780143,19.20678],[-103.779117,19.205549],[-103.77968,19.203196],[-103.780388,19.194502],[-103.782068,19.189803],[-103.782944,19.176258],[-103.781096,19.168926],[-103.780891,19.160275],[-103.788725,19.164199],[-103.796752,19.148547],[-103.800182,19.151539],[-103.806848,19.146439],[-103.824963,19.137283],[-103.82584,19.135986],[-103.81704,19.121843],[-103.797604,19.1062],[-103.782611,19.088773],[-103.784529,19.07823],[-103.773016,19.078699],[-103.77375,19.075583],[-103.776084,19.072014],[-103.76865,19.068074],[-103.766908,19.070681],[-103.752883,19.071825],[-103.75197,19.065482],[-103.753543,19.062451],[-103.752295,19.061354],[-103.750213,19.062069],[-103.750305,19.064293],[-103.742092,19.065658],[-103.740569,19.06987],[-103.733368,19.067226],[-103.72512,19.064678],[-103.727356,19.0696],[-103.727655,19.071527],[-103.722771,19.076052],[-103.722494,19.078777],[-103.720267,19.080124],[-103.720248,19.083566],[-103.718205,19.088506],[-103.682383,19.074808],[-103.683408,19.072776],[-103.679121,19.070512],[-103.658397,19.062557],[-103.658309,19.058813],[-103.657316,19.058181],[-103.645039,19.056213],[-103.644577,19.052662],[-103.642917,19.051404],[-103.644137,19.049135],[-103.6433,19.04785],[-103.645359,19.043049],[-103.646762,19.041174],[-103.646778,19.038715],[-103.648701,19.030807],[-103.649102,19.02211],[-103.650066,19.021613],[-103.648389,19.016657],[-103.647282,19.017364],[-103.646903,19.021891],[-103.636006,19.0283],[-103.629512,19.029701],[-103.62246,19.028473],[-103.620462,19.028488],[-103.616121,19.030167],[-103.611787,19.028478],[-103.608256,19.023007],[-103.608446,19.018842],[-103.605837,19.01534],[-103.603071,19.010226],[-103.592229,19.004533],[-103.593426,19.001666],[-103.591018,18.994929],[-103.590473,18.994577],[-103.588871,18.985342],[-103.589829,18.981962],[-103.592323,18.980956],[-103.58542,18.977157],[-103.589266,18.951545],[-103.587982,18.95003],[-103.589952,18.947016],[-103.58799,18.944403],[-103.587406,18.94019],[-103.589471,18.934067],[-103.588,18.926868],[-103.584778,18.929],[-103.580821,18.927475],[-103.581376,18.921002],[-103.579956,18.91711],[-103.585157,18.917338],[-103.586618,18.916149],[-103.586343,18.912548],[-103.589555,18.906945],[-103.596209,18.904239],[-103.590712,18.903462],[-103.587683,18.897516],[-103.586436,18.891675],[-103.584852,18.891299],[-103.580551,18.886202],[-103.580362,18.884096],[-103.578262,18.878798],[-103.581167,18.875929],[-103.578124,18.875272],[-103.574653,18.871622],[-103.572454,18.872171],[-103.57223,18.880219],[-103.568963,18.883656],[-103.568853,18.892519],[-103.566811,18.893586],[-103.561824,18.894182],[-103.559277,18.896521],[-103.558779,18.90041],[-103.559034,18.903863],[-103.557387,18.906843],[-103.553328,18.905991],[-103.550325,18.907846],[-103.541489,18.909665],[-103.53952,18.909403],[-103.536476,18.906879],[-103.53324,18.905218],[-103.530838,18.907286],[-103.529521,18.911517],[-103.528414,18.912317],[-103.533068,18.919246],[-103.534278,18.924581],[-103.53362,18.927036],[-103.532134,18.927705],[-103.527244,18.9281],[-103.524184,18.927058],[-103.522494,18.927928],[-103.519229,18.93291],[-103.514422,18.934389],[-103.513853,18.936407],[-103.514958,18.939117],[-103.518221,18.94219],[-103.520107,18.943067],[-103.522347,18.947038],[-103.522318,18.948516],[-103.519468,18.950226],[-103.512407,18.949408],[-103.51068,18.94637],[-103.508398,18.946721],[-103.505354,18.949922],[-103.50419,18.955226],[-103.502928,18.957075],[-103.504138,18.959382],[-103.506627,18.959363],[-103.509049,18.962108],[-103.507854,18.963782],[-103.50344,18.962063],[-103.497718,18.960654],[-103.49418,18.958122],[-103.490481,18.958991],[-103.488764,18.962144],[-103.488594,18.964889],[-103.489542,18.968691],[-103.4944,18.970114],[-103.495558,18.973272],[-103.492023,18.977022],[-103.489851,18.980772],[-103.491372,18.983513],[-103.492195,18.987067],[-103.490831,18.995821],[-103.492708,19.000511],[-103.49327,19.005132],[-103.496829,19.011253],[-103.496645,19.013983],[-103.494465,19.014706],[-103.49396,19.021829],[-103.493083,19.023479],[-103.489759,19.025346],[-103.488506,19.027587],[-103.490957,19.029762],[-103.490905,19.03267],[-103.496951,19.035177],[-103.496318,19.038808],[-103.496902,19.041702],[-103.498522,19.045148],[-103.50093,19.047279],[-103.501812,19.049134],[-103.506247,19.049281],[-103.509364,19.057556],[-103.513862,19.060324],[-103.516954,19.060983],[-103.517993,19.062945],[-103.522324,19.065954],[-103.52325,19.06836],[-103.521825,19.075236],[-103.522226,19.076665],[-103.525582,19.07781],[-103.526426,19.079218],[-103.525052,19.08106],[-103.524552,19.084962],[-103.522562,19.092217],[-103.517488,19.098176],[-103.517604,19.099297],[-103.521127,19.10198],[-103.521573,19.103702],[-103.52057,19.110252],[-103.520839,19.112466],[-103.523125,19.113868],[-103.523617,19.115641],[-103.519557,19.124455],[-103.515376,19.128338],[-103.514293,19.130198],[-103.511009,19.132049],[-103.511373,19.133491],[-103.514016,19.137114],[-103.512922,19.140653],[-103.511729,19.146752],[-103.509749,19.148947],[-103.509166,19.155961],[-103.502121,19.162486],[-103.501979,19.167963],[-103.503127,19.170172],[-103.49939,19.172113],[-103.497631,19.174642],[-103.497554,19.177295],[-103.498844,19.180591],[-103.498244,19.186043],[-103.499178,19.188013],[-103.501426,19.190105],[-103.503533,19.194861],[-103.506604,19.197828],[-103.510865,19.199658],[-103.511046,19.205663],[-103.511923,19.208144],[-103.515074,19.211597],[-103.511113,19.21242],[-103.50975,19.214588],[-103.511666,19.216946],[-103.514134,19.217193]]]}},
{"type":"Feature","id":"MEX:ADM2:MX-COL.comala","properties":{"shapeName":"Comala","shapeISO":"","shapeGroup":"MEX","shapeType":"ADM2","adm1ISO":"MX-COL","parentISO":"MX-COL","parentID":"MEX:ADM1:MX-COL","src_shape_id":"50627088B21346817666237"},"geometry":{"type":"Polygon","coordinates":[[[-103.618277,19.512519],[-103.648382,19.501927],[-103.653189,19.500734],[-103.656506,19.502091],[-103.660198,19.50175],[-103.662324,19.502793],[-103.664879,19.502631],[-103.667411,19.501109],[-103.6707,19.500468],[-103.673476,19.498127],[-103.677114,19.496251],[-103.680448,19.495942],[-103.681966,19.493506],[-103.684288,19.494248],[-103.687433,19.493625],[-103.690434,19.492032],[-103.693384,19.486589],[-103.695715,19.486515],[-103.698827,19.484761],[-103.698373,19.483529],[-103.700008,19.480845],[-103.701963,19.479741],[-103.706812,19.473139],[-103.708273,19.469857],[-103.711443,19.468036],[-103.715789,19.46701],[-103.716546,19.460314],[-103.716156,19.456958],[-103.718257,19.453498],[-103.721308,19.453012],[-103.725436,19.451228],[-103.728486,19.44806],[-103.733187,19.445358],[-103.734589,19.443676],[-103.738681,19.443282],[-103.745108,19.445367],[-103.74942,19.445679],[-103.752001,19.445156],[-103.760298,19.439575],[-103.764464,19.437635],[-103.767808,19.434627],[-103.771884,19.433456],[-103.773951,19.430805],[-103.777222,19.431038],[-103.780104,19.430142],[-103.78658,19.429128],[-103.792734,19.427514],[-103.796495,19.424491],[-103.797892,19.421993],[-103.801336,19.421973],[-103.805997,19.417641],[-103.810708,19.414611],[-103.815286,19.41386],[-103.817828,19.412275],[-103.818971,19.40887],[-103.820847,19.410512],[-103.821417,19.41416],[-103.823464,19.417691],[-103.822058,19.422497],[-103.823579,19.424826],[-103.823528,19.42721],[-103.827555,19.431802],[-103.827892,19.433394],[-103.824455,19.435887],[-103.824928,19.438134],[-103.829355,19.438748],[-103.831779,19.440113],[-103.834521,19.439841],[-103.838299,19.438966],[-103.842507,19.437263],[-103.846643,19.433703],[-103.849796,19.433135],[-103.852732,19.43126],[-103.854781,19.430942],[-103.858269,19.432123],[-103.859326,19.434938],[-103.858213,19.437132],[-103.862323,19.442802],[-103.863755,19.447385],[-103.87037,19.444757],[-103.872664,19.445563],[-103.875565,19.443217],[-103.879418,19.444489],[-103.883262,19.456044],[-103.88686,19.461645],[-103.88866,19.463316],[-103.891052,19.46358],[-103.897318,19.461432],[-103.898115,19.460191],[-103.904644,19.456911],[-103.908765,19.453628],[-103.897962,19.438599],[-103.897629,19.436282],[-103.899522,19.434547],[-103.899531,19.432804],[-103.897541,19.430882],[-103.893112,19.428427],[-103.889657,19.424041],[-103.885495,19.423112],[-103.883648,19.412581],[-103.886917,19.405643],[-103.882652,19.394844],[-103.881117,19.393481],[-103.883136,19.386585],[-103.883993,19.37469],[-103.885437,19.367984],[-103.881794,19.357313],[-103.8863,19.354093],[-103.89895,19.342983],[-103.897251,19.343954],[-103.89443,19.342923],[-103.891969,19.346444],[-103.889226,19.346322],[-103.882438,19.350228],[-103.879944,19.347402],[-103.879299,19.343434],[-103.877866,19.338938],[-103.861325,19.346969],[-103.854173,19.350973],[-103.832508,19.338938],[-103.83305,19.333137],[-103.835726,19.331755],[-103.840844,19.330918],[-103.835416,19.316365],[-103.832212,19.30856],[-103.827925,19.314899],[-103.832327,19.324587],[-103.827686,19.322625],[-103.82293,19.319809],[-103.819464,19.318468],[-103.815698,19.326619],[-103.813334,19.329052],[-103.810198,19.328575],[-103.810188,19.324379],[-103.813523,19.325381],[-103.815184,19.323887],[-103.817225,19.319139],[-103.818812,19.312918],[-103.822034,19.309943],[-103.820436,19.309112],[-103.820916,19.307208],[-103.812065,19.304739],[-103.813249,19.301774],[-103.806473,19.297183],[-103.806183,19.297643],[-103.79763,19.291529],[-103.795288,19.292684],[-103.792363,19.297307],[-103.792001,19.299583],[-103.789657,19.302233],[-103.783542,19.298813],[-103.783973,19.296298],[-103.778846,19.293307],[-103.774233,19.289765],[-103.779434,19.281456],[-103.774356,19.278346],[-103.772038,19.282693],[-103.768472,19.285261],[-103.764877,19.29027],[-103.762231,19.289767],[-103.753674,19.289918],[-103.748852,19.290306],[-103.749532,19.293359],[-103.752736,19.301371],[-103.752596,19.302524],[-103.747683,19.302159],[-103.747806,19.303971],[-103.745303,19.310501],[-103.7478,19.311693],[-103.746469,19.314504],[-103.745091,19.319641],[-103.739497,19.321343],[-103.736545,19.322893],[-103.737417,19.32752],[-103.730999,19.330144],[-103.727974,19.332858],[-103.716267,19.339602],[-103.710899,19.334385],[-103.707443,19.339058],[-103.702532,19.344725],[-103.704306,19.347102],[-103.703294,19.348809],[-103.703472,19.351212],[-103.70088,19.35365],[-103.699437,19.356977],[-103.699056,19.363192],[-103.696595,19.366516],[-103.694041,19.371715],[-103.692545,19.372669],[-103.689854,19.377575],[-103.687729,19.380544],[-103.685888,19.380962],[-103.684014,19.384368],[-103.682814,19.389198],[-103.686981,19.392265],[-103.68518,19.394443],[-103.687358,19.396234],[-103.69779,19.397491],[-103.698989,19.39908],[-103.696027,19.401497],[-103.69287,19.403099],[-103.692152,19.404862],[-103.68844,19.409608],[-103.684321,19.411116],[-103.680298,19.411351],[-103.678467,19.413445],[-103.67731,19.417291],[-103.686858,19.423987],[-103.694255,19.43035],[-103.690858,19.433022],[-103.689103,19.431428],[-103.686046,19.430882],[-103.683283,19.432731],[-103.677612,19.430648],[-103.673472,19.431439],[-103.672306,19.434609],[-103.672173,19.441673],[-103.674807,19.442892],[-103.674825,19.445154],[-103.670859,19.445369],[-103.66986,19.450127],[-103.668298,19.453854],[-103.669879,19.456124],[-103.66881,19.462238],[-103.660539,19.464557],[-103.660515,19.466649],[-103.654498,19.4664],[-103.647164,19.470169],[-103.643085,19.471393],[-103.64599,19.476158],[-103.638566,19.48009],[-103.637294,19.479026],[-103.636683,19.476103],[-103.637374,19.470781],[-103.634853,19.47154],[-103.630083,19.475047],[-103.628124,19.48396],[-103.626031,19.486076],[-103.612446,19.488859],[-103.614076,19.495028],[-103.611388,19.49519],[-103.606199,19.500558],[-103.618277,19.512519]]]}},
{"type":"Feature","id":"MEX:ADM2:MX-COL.coquimatlan","properties":{"shapeName":"Coquimatlán","shapeISO":"","shapeGroup":"MEX","shapeType":"ADM2","adm1ISO":"MX-COL","parentISO":"MX-COL","parentID":"MEX:ADM1:MX-COL","src_shape_id":"50627088B5887634213656"},"geometry":{"type":"Polygon","coordinates":[[[-103.896252,19.097698],[-103.897844,19.100529],[-103.895332,19.105778],[-103.893598,19.10682],[-103.89225,19.110049],[-103.887854,19.112948],[-103.88844,19.115798],[-103.886954,19.115961],[-103.883935,19.11952],[-103.882335,19.115845],[-103.882368,19.113854],[-103.883842,19.112318],[-103.876622,19.110905],[-103.871958,19.103802],[-103.869147,19.102966],[-103.867847,19.10109],[-103.857936,19.105143],[-103.84841,19.107869],[-103.849923,19.092722],[-103.850733,19.087925],[-103.852409,19.084212],[-103.861174,19.086767],[-103.856038,19.080595],[-103.857339,19.045607],[-103.85484,19.045573],[-103.853259,19.047151],[-103.846249,19.047022],[-103.840028,19.048948],[-103.788945,19.05936],[-103.783541,19.059278],[-103.78267,19.063072],[-103.787286,19.065737],[-103.788841,19.06839],[-103.790718,19.074198],[-103.785009,19.075058],[-103.784529,19.07823],[-103.782611,19.088773],[-103.797604,19.1062],[-103.81704,19.121843],[-103.82584,19.135986],[-103.824963,19.137283],[-103.806848,19.146439],[-103.800182,19.151539],[-103.796752,19.148547],[-103.788725,19.164199],[-103.780891,19.160275],[-103.781096,19.168926],[-103.782944,19.176258],[-103.782068,19.189803],[-103.780388,19.194502],[-103.77968,19.203196],[-103.779117,19.205549],[-103.780143,19.20678],[-103.78231,19.206018],[-103.783422,19.207513],[-103.780622,19.211453],[-103.780467,19.214559],[-103.776714,19.214836],[-103.77458,19.217378],[-103.773994,19.220374],[-103.775628,19.22127],[-103.776038,19.226114],[-103.774434,19.22945],[-103.778779,19.230516],[-103.779102,19.231537],[-103.783682,19.233683],[-103.771868,19.23781],[-103.773323,19.238508],[-103.775919,19.241771],[-103.776842,19.244858],[-103.779121,19.246291],[-103.780073,19.242951],[-103.781687,19.241581],[-103.791308,19.246649],[-103.789774,19.24791],[-103.781911,19.250746],[-103.781264,19.252744],[-103.788098,19.251985],[-103.790331,19.253004],[-103.794217,19.256131],[-103.794033,19.25797],[-103.79884,19.261309],[-103.802061,19.264606],[-103.806667,19.260765],[-103.809152,19.25793],[-103.810514,19.254389],[-103.813451,19.253861],[-103.821868,19.254483],[-103.824861,19.254314],[-103.829554,19.255474],[-103.831578,19.256865],[-103.834514,19.257546],[-103.836791,19.254925],[-103.836945,19.252911],[-103.840507,19.245595],[-103.841837,19.24097],[-103.843306,19.239929],[-103.8409,19.233048],[-103.842331,19.229549],[-103.841008,19.226476],[-103.838583,19.224949],[-103.836456,19.220167],[-103.840151,19.221583],[-103.843106,19.229846],[-103.843214,19.233991],[-103.845903,19.237614],[-103.845606,19.240824],[-103.842347,19.246383],[-103.841288,19.25065],[-103.842508,19.250597],[-103.860573,19.252414],[-103.863778,19.252053],[-103.870315,19.252657],[-103.876858,19.252757],[-103.878475,19.254456],[-103.886967,19.254205],[-103.888747,19.255427],[-103.896435,19.254605],[-103.905575,19.259627],[-103.912851,19.262493],[-103.913836,19.267435],[-103.918736,19.268262],[-103.92701,19.26596],[-103.931072,19.265669],[-103.934323,19.267863],[-103.931609,19.27295],[-103.934345,19.276321],[-103.93885,19.27935],[-103.941373,19.27996],[-103.944219,19.282136],[-103.956566,19.289535],[-103.957087,19.29069],[-103.982572,19.282657],[-103.987977,19.282157],[-103.990382,19.286665],[-104.002135,19.289678],[-104.005032,19.29071],[-104.009985,19.290034],[-104.011562,19.287927],[-104.022099,19.287377],[-104.025547,19.290666],[-104.029257,19.292198],[-104.032492,19.292853],[-104.034814,19.292124],[-104.036234,19.293618],[-104.039692,19.293213],[-104.039833,19.294843],[-104.042925,19.295492],[-104.041687,19.297899],[-104.043177,19.300701],[-104.046562,19.30087],[-104.05179,19.306319],[-104.054335,19.304722],[-104.057741,19.305151],[-104.059292,19.303169],[-104.062926,19.300945],[-104.061644,19.298849],[-104.062215,19.296141],[-104.059622,19.29471],[-104.057814,19.291848],[-104.059584,19.290909],[-104.06237,19.290916],[-104.065987,19.288555],[-104.06815,19.285727],[-104.066163,19.281051],[-104.06398,19.280505],[-104.061532,19.281235],[-104.056019,19.284795],[-104.055186,19.280506],[-104.05338,19.277329],[-104.050448,19.274755],[-104.040922,19.273769],[-104.03504,19.275124],[-104.032034,19.277004],[-104.032194,19.270233],[-104.034063,19.265895],[-104.036471,19.263167],[-104.038806,19.262285],[-104.039727,19.259834],[-104.041858,19.257952],[-104.044118,19.25395],[-104.044712,19.250166],[-104.048746,19.248642],[-104.053068,19.250582],[-104.068767,19.245831],[-104.068745,19.244948],[-104.063266,19.235887],[-104.076601,19.221995],[-104.088442,19.219401],[-104.089292,19.218473],[-104.094297,19.218314],[-104.095908,19.21604],[-104.103925,19.215237],[-104.103751,19.211378],[-104.101107,19.209941],[-104.099299,19.207874],[-104.095152,19.207297],[-104.088771,19.203663],[-104.087619,19.201943],[-104.089602,19.197705],[-104.084459,19.19297],[-104.072496,19.182444],[-104.061876,19.17334],[-104.056714,19.175698],[-104.05472,19.173437],[-104.056082,19.172628],[-104.048382,19.165272],[-104.048223,19.164007],[-104.052057,19.161536],[-104.057952,19.159342],[-104.063519,19.154661],[-104.063514,19.152269],[-104.060851,19.151662],[-104.054666,19.152138],[-104.051731,19.15409],[-104.048247,19.151683],[-104.04542,19.151364],[-104.044212,19.153122],[-104.040594,19.150624],[-104.036781,19.151967],[-104.034129,19.149513],[-104.033493,19.14753],[-104.028334,19.143744],[-104.025546,19.144337],[-104.024425,19.141687],[-104.022582,19.141107],[-104.018495,19.141219],[-104.0166,19.139435],[-104.011498,19.136703],[-104.008702,19.137412],[-104.005064,19.136879],[-104.00607,19.134841],[-104.005366,19.133263],[-104.002682,19.132984],[-104.00071,19.131366],[-103.998708,19.132462],[-103.99191,19.131305],[-103.988947,19.132977],[-103.983111,19.132958],[-103.98116,19.130893],[-103.973941,19.126113],[-103.972453,19.126834],[-103.970965,19.124434],[-103.967093,19.122269],[-103.963102,19.12236],[-103.960711,19.117341],[-103.952681,19.116605],[-103.949729,19.117988],[-103.944511,19.118407],[-103.940767,19.118221],[-103.937056,19.118929],[-103.93292,19.116123],[-103.930988,19.116588],[-103.92411,19.113856],[-103.92266,19.111779],[-103.919015,19.110271],[-103.912093,19.104843],[-103.905887,19.100656],[-103.898659,19.097353],[-103.896252,19.097698]]]}},
{"type":"Feature","id":"MEX:ADM2:MX-COL.cuauhtemoc","properties":{"shapeName":"Cuauhtémoc","shapeISO":"","shapeGroup":"MEX","shapeType":"ADM2","adm1ISO":"MX-COL","parentISO":"MX-COL","parentID":"MEX:ADM1:MX-COL","src_shape_id":"50627088B85781169785703"},"geometry":{"type":"Polygon","coordinates":[[[-103.514134,19.217193],[-103.513954,19.218814],[-103.510994,19.221672],[-103.510689,19.224603],[-103.508468,19.225534],[-103.50649,19.227768],[-103.507683,19.230449],[-103.505931,19.237136],[-103.508793,19.239683],[-103.509522,19.241756],[-103.507679,19.246373],[-103.50751,19.249975],[-103.50546,19.252389],[-103.505543,19.254678],[-103.507926,19.258252],[-103.506743,19.263563],[-103.506738,19.266389],[-103.508876,19.267111],[-103.508357,19.270208],[-103.507075,19.272701],[-103.507981,19.275339],[-103.506839,19.280059],[-103.50744,19.282177],[-103.506623,19.284946],[-103.507016,19.289498],[-103.506709,19.292284],[-103.509182,19.29515],[-103.505975,19.29618],[-103.505094,19.299337],[-103.500967,19.299751],[-103.500116,19.307592],[-103.498058,19.309174],[-103.49445,19.310287],[-103.491673,19.308584],[-103.48964,19.311889],[-103.490018,19.314525],[-103.492486,19.317048],[-103.495724,19.318643],[-103.494063,19.322284],[-103.490806,19.323324],[-103.486819,19.327413],[-103.487425,19.331829],[-103.486474,19.337945],[-103.487571,19.340215],[-103.489733,19.341166],[-103.493703,19.346156],[-103.49515,19.346954],[-103.498003,19.346637],[-103.499743,19.344315],[-103.501867,19.34499],[-103.503999,19.347882],[-103.510417,19.351293],[-103.515124,19.352001],[-103.515576,19.354323],[-103.518604,19.354624],[-103.520083,19.356366],[-103.519989,19.358053],[-103.523469,19.35951],[-103.523281,19.364006],[-103.524565,19.366627],[-103.524785,19.369052],[-103.529619,19.376715],[-103.534704,19.380209],[-103.536583,19.382],[-103.536631,19.385084],[-103.538299,19.388512],[-103.542494,19.39078],[-103.543217,19.394127],[-103.545445,19.394827],[-103.548132,19.397879],[-103.551696,19.399177],[-103.552127,19.401223],[-103.55474,19.402918],[-103.556211,19.406972],[-103.559075,19.407584],[-103.567821,19.406068],[-103.570961,19.408043],[-103.574535,19.412316],[-103.574483,19.414952],[-103.57721,19.416935],[-103.57549,19.419987],[-103.578725,19.426163],[-103.578083,19.431029],[-103.578917,19.435486],[-103.582925,19.43681],[-103.586329,19.439525],[-103.586663,19.444029],[-103.588946,19.445514],[-103.591535,19.448569],[-103.594409,19.452959],[-103.597948,19.455262],[-103.599708,19.457877],[-103.600309,19.461063],[-103.602855,19.463931],[-103.607678,19.465619],[-103.608688,19.469631],[-103.611128,19.469568],[-103.615358,19.474995],[-103.614104,19.478203],[-103.613472,19.482536],[-103.612412,19.485631],[-103.612446,19.488859],[-103.626031,19.486076],[-103.628124,19.48396],[-103.630083,19.475047],[-103.634853,19.47154],[-103.637374,19.470781],[-103.636683,19.476103],[-103.637294,19.479026],[-103.638566,19.48009],[-103.64599,19.476158],[-103.643085,19.471393],[-103.647164,19.470169],[-103.654498,19.4664],[-103.660515,19.466649],[-103.660539,19.464557],[-103.66881,19.462238],[-103.669879,19.456124],[-103.668298,19.453854],[-103.66986,19.450127],[-103.670859,19.445369],[-103.674825,19.445154],[-103.674807,19.442892],[-103.672173,19.441673],[-103.672306,19.434609],[-103.673472,19.431439],[-103.672283,19.430683],[-103.662733,19.429322],[-103.655871,19.429146],[-103.648521,19.426861],[-103.650318,19.415325],[-103.648849,19.413847],[-103.646811,19.408785],[-103.648357,19.40805],[-103.648726,19.405419],[-103.653383,19.402837],[-103.65365,19.400939],[-103.651192,19.396194],[-103.652719,19.392337],[-103.654683,19.389729],[-103.656854,19.388428],[-103.657435,19.390676],[-103.661182,19.393604],[-103.66376,19.391564],[-103.665745,19.3911],[-103.669805,19.395319],[-103.670339,19.392989],[-103.673484,19.390217],[-103.673008,19.388647],[-103.676407,19.382061],[-103.679482,19.378402],[-103.678703,19.375649],[-103.674825,19.374284],[-103.676315,19.371638],[-103.676209,19.369502],[-103.673373,19.367812],[-103.672488,19.364163],[-103.673973,19.359585],[-103.671299,19.356726],[-103.673223,19.354101],[-103.676654,19.346303],[-103.677811,19.345472],[-103.678067,19.342852],[-103.687509,19.347464],[-103.687528,19.345141],[-103.69052,19.337802],[-103.684704,19.335456],[-103.678806,19.335617],[-103.677611,19.33878],[-103.673581,19.338285],[-103.675683,19.331746],[-103.679171,19.32576],[-103.662548,19.320509],[-103.660815,19.318594],[-103.66149,19.315305],[-103.66123,19.312422],[-103.665738,19.311883],[-103.663681,19.30926],[-103.665742,19.306092],[-103.668826,19.302885],[-103.671497,19.297703],[-103.671225,19.291578],[-103.67432,19.284372],[-103.676386,19.281233],[-103.679337,19.278801],[-103.681191,19.274678],[-103.683901,19.272845],[-103.688124,19.268673],[-103.682262,19.263926],[-103.678978,19.266393],[-103.672743,19.270029],[-103.669099,19.268132],[-103.667412,19.270444],[-103.662876,19.269523],[-103.660096,19.26134],[-103.661523,19.259094],[-103.662075,19.256311],[-103.658694,19.255459],[-103.666924,19.247734],[-103.674907,19.241072],[-103.674407,19.234935],[-103.675002,19.234284],[-103.663758,19.230353],[-103.650861,19.232683],[-103.651016,19.227809],[-103.649351,19.226164],[-103.649112,19.223902],[-103.651,19.222715],[-103.65137,19.220576],[-103.650285,19.218109],[-103.652582,19.216975],[-103.655003,19.213063],[-103.647692,19.209668],[-103.639372,19.206267],[-103.64997,19.194159],[-103.649003,19.190618],[-103.645389,19.190005],[-103.643183,19.188787],[-103.642608,19.193426],[-103.636549,19.194968],[-103.636804,19.196586],[-103.634799,19.199543],[-103.632654,19.199092],[-103.631342,19.201653],[-103.628339,19.202359],[-103.627577,19.204423],[-103.621481,19.207832],[-103.617913,19.208505],[-103.613983,19.210644],[-103.612061,19.209865],[-103.607193,19.212174],[-103.606556,19.215132],[-103.603719,19.214734],[-103.602175,19.216497],[-103.601736,19.219256],[-103.59931,19.219609],[-103.598931,19.221284],[-103.594382,19.220912],[-103.586073,19.224625],[-103.583031,19.224467],[-103.581493,19.226272],[-103.579475,19.225946],[-103.576657,19.227164],[-103.574267,19.229796],[-103.57132,19.226971],[-103.570055,19.228671],[-103.566415,19.216686],[-103.562442,19.215643],[-103.561515,19.216309],[-103.555509,19.217071],[-103.54735,19.216587],[-103.543016,19.215631],[-103.53954,19.216684],[-103.522823,19.215075],[-103.520335,19.215322],[-103.516485,19.216981],[-103.514134,19.217193]]]}},
{"type":"Feature","id":"MEX:ADM2:MX-COL.ixtlahuacan","properties":{"shapeName":"Ixtlahuacán","shapeISO":"","shapeGroup":"MEX","shapeType":"ADM2","adm1ISO":"MX-COL","parentISO":"MX-COL","parentID":"MEX:ADM1:MX-COL","src_shape_id":"50627088B68671951504705"},"geometry":{"type":"Polygon","coordinates":[[[-103.76865,19.068074],[-103.772359,19.064229],[-103.774139,19.059914],[-103.773706,19.054613],[-103.772723,19.0526],[-103.77074,19.045521],[-103.772031,19.037859],[-103.769223,19.029362],[-103.767871,19.027003],[-103.771885,19.021838],[-103.771051,19.021113],[-103.769945,19.000104],[-103.780716,18.999909],[-103.77794,18.983761],[-103.778159,18.97832],[-103.777571,18.977907],[-103.783979,18.956113],[-103.769865,18.948333],[-103.776345,18.942955],[-103.765118,18.940634],[-103.762219,18.948681],[-103.751467,18.944927],[-103.754209,18.941923],[-103.765292,18.928895],[-103.770692,18.923748],[-103.77142,18.922105],[-103.776181,18.917786],[-103.77535,18.916065],[-103.772294,18.915956],[-103.772173,18.918331],[-103.769262,18.919363],[-103.76696,18.922664],[-103.76391,18.921203],[-103.768581,18.913566],[-103.769221,18.91101],[-103.747972,18.909041],[-103.745176,18.917415],[-103.740783,18.917568],[-103.739778,18.910006],[-103.739528,18.905385],[-103.735631,18.902507],[-103.734183,18.905268],[-103.73199,18.90769],[-103.729007,18.907859],[-103.730751,18.912171],[-103.728843,18.912869],[-103.720745,18.901578],[-103.716143,18.90173],[-103.714738,18.900736],[-103.71098,18.900886],[-103.710853,18.894212],[-103.702724,18.891663],[-103.70507,18.89007],[-103.698341,18.885789],[-103.695571,18.88221],[-103.693508,18.883206],[-103.689057,18.882796],[-103.686714,18.881608],[-103.694172,18.865464],[-103.686947,18.861181],[-103.675655,18.856891],[-103.671042,18.854466],[-103.668638,18.858545],[-103.652223,18.84889],[-103.653256,18.845485],[-103.651466,18.844702],[-103.650287,18.840828],[-103.624624,18.826109],[-103.626178,18.829124],[-103.6262,18.830974],[-103.623793,18.833325],[-103.621332,18.836723],[-103.617711,18.839326],[-103.617187,18.842851],[-103.618335,18.84544],[-103.624439,18.852658],[-103.628738,18.856033],[-103.634289,18.85922],[-103.637867,18.864531],[-103.640572,18.867244],[-103.640343,18.869537],[-103.637717,18.872232],[-103.631961,18.880063],[-103.631139,18.883972],[-103.626754,18.888755],[-103.624475,18.888726],[-103.622451,18.890098],[-103.620282,18.893039],[-103.614683,18.892164],[-103.608039,18.887847],[-103.605625,18.883164],[-103.60161,18.881301],[-103.597337,18.884351],[-103.589164,18.877041],[-103.58799,18.875281],[-103.589854,18.87078],[-103.588442,18.867103],[-103.586964,18.865593],[-103.584377,18.866156],[-103.583412,18.871356],[-103.583723,18.873907],[-103.581167,18.875929],[-103.578262,18.878798],[-103.580362,18.884096],[-103.580551,18.886202],[-103.584852,18.891299],[-103.586436,18.891675],[-103.587683,18.897516],[-103.590712,18.903462],[-103.596209,18.904239],[-103.589555,18.906945],[-103.586343,18.912548],[-103.586618,18.916149],[-103.585157,18.917338],[-103.579956,18.91711],[-103.581376,18.921002],[-103.580821,18.927475],[-103.584778,18.929],[-103.588,18.926868],[-103.589471,18.934067],[-103.587406,18.94019],[-103.58799,18.944403],[-103.589952,18.947016],[-103.587982,18.95003],[-103.589266,18.951545],[-103.58542,18.977157],[-103.592323,18.980956],[-103.589829,18.981962],[-103.588871,18.985342],[-103.590473,18.994577],[-103.591018,18.994929],[-103.593426,19.001666],[-103.592229,19.004533],[-103.603071,19.010226],[-103.605837,19.01534],[-103.608446,19.018842],[-103.608256,19.023007],[-103.611787,19.028478],[-103.616121,19.030167],[-103.620462,19.028488],[-103.62246,19.028473],[-103.629512,19.029701],[-103.636006,19.0283],[-103.646903,19.021891],[-103.647282,19.017364],[-103.648389,19.016657],[-103.650066,19.021613],[-103.649102,19.02211],[-103.648701,19.030807],[-103.646778,19.038715],[-103.646762,19.041174],[-103.645359,19.043049],[-103.6433,19.04785],[-103.644137,19.049135],[-103.642917,19.051404],[-103.644577,19.052662],[-103.645039,19.056213],[-103.657316,19.058181],[-103.658309,19.058813],[-103.658397,19.062557],[-103.679121,19.070512],[-103.683408,19.072776],[-103.682383,19.074808],[-103.718205,19.088506],[-103.720248,19.083566],[-103.720267,19.080124],[-103.722494,19.078777],[-103.722771,19.076052],[-103.727655,19.071527],[-103.727356,19.0696],[-103.72512,19.064678],[-103.733368,19.067226],[-103.740569,19.06987],[-103.742092,19.065658],[-103.750305,19.064293],[-103.750213,19.062069],[-103.752295,19.061354],[-103.753543,19.062451],[-103.75197,19.065482],[-103.752883,19.071825],[-103.766908,19.070681],[-103.76865,19.068074]]]}},
{"type":"Feature","id":"MEX:ADM2:MX-COL.manzanillo","properties":{"shapeName":"Manzanillo","shapeISO":"","shapeGroup":"MEX","shapeType":"ADM2","adm1ISO":"MX-COL","parentISO":"MX-COL","parentID":"MEX:ADM1:MX-COL","src_shape_id":"50627088B77985545046422"},"geometry":{"type":"MultiPolygon","coordinates":[[[[-104.486464,19.104869],[-104.48822,19.10451],[-104.48894,19.102573],[-104.487173,19.100746],[-104.484828,19.103694],[-104.486464,19.104869]]],[[[-104.060851,19.151662],[-104.063514,19.152269],[-104.063519,19.154661],[-104.057952,19.159342],[-104.052057,19.161536],[-104.048223,19.164007],[-104.048382,19.165272],[-104.056082,19.172628],[-104.05472,19.173437],[-104.056714,19.175698],[-104.061876,19.17334],[-104.072496,19.182444],[-104.084459,19.19297],[-104.089602,19.197705],[-104.087619,19.201943],[-104.088771,19.203663],[-104.095152,19.207297],[-104.099299,19.207874],[-104.101107,19.209941],[-104.103751,19.211378],[-104.103925,19.215237],[-104.095908,19.21604],[-104.094297,19.218314],[-104.089292,19.218473],[-104.088442,19.219401],[-104.076601,19.221995],[-104.063266,19.235887],[-104.068745,19.244948],[-104.068767,19.245831],[-104.072738,19.248099],[-104.075867,19.251176],[-104.092967,19.249382],[-104.117732,19.256103],[-104.122556,19.258125],[-104.118396,19.266807],[-104.134914,19.268648],[-104.136294,19.269032],[-104.140266,19.267895],[-104.147095,19.269354],[-104.156175,19.272714],[-104.166438,19.27527],[-104.172689,19.277236],[-104.171038,19.281694],[-104.173225,19.283703],[-104.1766,19.285492],[-104.188629,19.288439],[-104.199424,19.292384],[-104.201856,19.290539],[-104.219274,19.296913],[-104.225888,19.29831],[-104.227425,19.299734],[-104.223269,19.301686],[-104.226179,19.302252],[-104.228849,19.304776],[-104.23199,19.305306],[-104.235292,19.30764],[-104.243396,19.309505],[-104.246268,19.311955],[-104.247691,19.312179],[-104.252628,19.310282],[-104.255858,19.309899],[-104.257178,19.310934],[-104.261179,19.311806],[-104.261929,19.307737],[-104.267501,19.304921],[-104.268906,19.302648],[-104.273002,19.300752],[-104.276819,19.300913],[-104.279641,19.303383],[-104.281454,19.302809],[-104.282826,19.300827],[-104.282759,19.297308],[-104.28719,19.297176],[-104.286892,19.299588],[-104.291417,19.302697],[-104.29402,19.303471],[-104.298333,19.302133],[-104.299191,19.297459],[-104.302828,19.294236],[-104.305878,19.293417],[-104.310634,19.289507],[-104.311245,19.2832],[-104.312803,19.280096],[-104.314804,19.279356],[-104.323122,19.280883],[-104.325832,19.28456],[-104.331848,19.287512],[-104.334131,19.286501],[-104.336013,19.288175],[-104.341077,19.289875],[-104.34388,19.289546],[-104.345001,19.287337],[-104.353577,19.276971],[-104.355206,19.273781],[-104.357943,19.270569],[-104.361874,19.269078],[-104.364345,19.269791],[-104.362963,19.273763],[-104.365196,19.277167],[-104.374273,19.281884],[-104.376616,19.280267],[-104.381572,19.275485],[-104.383324,19.272713],[-104.386877,19.271406],[-104.389045,19.271678],[-104.395561,19.271288],[-104.397969,19.269763],[-104.399961,19.26707],[-104.403191,19.271781],[-104.401262,19.276467],[-104.402453,19.278401],[-104.397772,19.284944],[-104.397462,19.286751],[-104.400946,19.28907],[-104.40473,19.286839],[-104.412365,19.285329],[-104.413217,19.282945],[-104.417448,19.280269],[-104.420253,19.279573],[-104.423815,19.282081],[-104.424903,19.280976],[-104.429233,19.279291],[-104.435731,19.279126],[-104.439165,19.278048],[-104.439796,19.277234],[-104.436579,19.272588],[-104.435765,19.269637],[-104.43704,19.268226],[-104.438408,19.262873],[-104.441897,19.261426],[-104.450164,19.258921],[-104.456132,19.260013],[-104.459258,19.257019],[-104.459665,19.253997],[-104.455678,19.248454],[-104.460611,19.246046],[-104.462624,19.247277],[-104.466112,19.245964],[-104.467218,19.244524],[-104.465972,19.240922],[-104.464598,19.239862],[-104.462822,19.236096],[-104.463016,19.23296],[-104.464785,19.230038],[-104.466896,19.23101],[-104.470343,19.229244],[-104.47339,19.23023],[-104.474009,19.236548],[-104.477258,19.238703],[-104.478513,19.238052],[-104.480794,19.233473],[-104.48385,19.23054],[-104.487381,19.229433],[-104.488955,19.229943],[-104.490142,19.232734],[-104.489666,19.236341],[-104.489703,19.241521],[-104.488448,19.247233],[-104.489189,19.248506],[-104.494535,19.253947],[-104.49738,19.254497],[-104.502091,19.252101],[-104.50609,19.245083],[-104.509132,19.244462],[-104.512435,19.247416],[-104.514075,19.248145],[-104.515566,19.250466],[-104.523319,19.260372],[-104.525299,19.261118],[-104.530288,19.259789],[-104.533784,19.258041],[-104.535557,19.253038],[-104.537052,19.251035],[-104.545625,19.244283],[-104.548471,19.243347],[-104.554516,19.237098],[-104.557464,19.231125],[-104.559526,19.229529],[-104.560613,19.226011],[-104.559371,19.222349],[-104.559544,19.220545],[-104.562036,19.218354],[-104.564888,19.218529],[-104.567295,19.219758],[-104.569113,19.218695],[-104.570437,19.214806],[-104.569319,19.20994],[-104.569601,19.205883],[-104.567526,19.204003],[-104.567572,19.2001],[-104.5697,19.197024],[-104.573419,19.194771],[-104.574901,19.192012],[-104.573837,19.189616],[-104.574574,19.184986],[-104.576938,19.180205],[-104.580167,19.177881],[-104.58399,19.177989],[-104.586668,19.185385],[-104.589327,19.186566],[-104.592625,19.185987],[-104.596266,19.18362],[-104.600287,19.179053],[-104.600343,19.177943],[-104.596881,19.173261],[-104.595842,19.170642],[-104.596654,19.165497],[-104.596143,19.164052],[-104.591542,19.162399],[-104.588453,19.163371],[-104.586027,19.16234],[-104.587039,19.153521],[-104.588867,19.150811],[-104.59099,19.149917],[-104.595102,19.150532],[-104.596774,19.151842],[-104.603319,19.152059],[-104.608172,19.154931],[-104.610115,19.154572],[-104.613127,19.156535],[-104.611337,19.159879],[-104.611953,19.161407],[-104.615748,19.161681],[-104.617062,19.166546],[-104.619028,19.168089],[-104.615907,19.170566],[-104.615302,19.174104],[-104.616087,19.177958],[-104.618275,19.17885],[-104.619038,19.180872],[-104.622691,19.180039],[-104.626206,19.178047],[-104.62652,19.17551],[-104.628566,19.173202],[-104.63206,19.174616],[-104.635347,19.175246],[-104.651776,19.18137],[-104.653242,19.182491],[-104.657467,19.182967],[-104.659126,19.182468],[-104.663157,19.1829],[-104.666884,19.184],[-104.670356,19.185693],[-104.675294,19.185558],[-104.679546,19.190991],[-104.680281,19.192678],[-104.683255,19.190711],[-104.682611,19.187411],[-104.680329,19.185507],[-104.682832,19.182413],[-104.684985,19.182408],[-104.684927,19.184549],[-104.687999,19.184879],[-104.688977,19.184093],[-104.690227,19.176545],[-104.685921,19.177117],[-104.678876,19.175711],[-104.664543,19.171736],[-104.656509,19.169124],[-104.632348,19.160741],[-104.612549,19.153431],[-104.601681,19.15029],[-104.593988,19.148529],[-104.584269,19.147747],[-104.571739,19.145817],[-104.56295,19.143997],[-104.553005,19.14118],[-104.529498,19.135262],[-104.515901,19.131993],[-104.503842,19.128403],[-104.489382,19.124553],[-104.48509,19.122935],[-104.473237,19.116466],[-104.471221,19.114882],[-104.471035,19.113294],[-104.468077,19.11196],[-104.466819,19.110099],[-104.463672,19.112023],[-104.457418,19.111187],[-104.455772,19.109449],[-104.454428,19.110188],[-104.451472,19.108484],[-104.450869,19.10219],[-104.447777,19.098643],[-104.448388,19.095023],[-104.446133,19.094339],[-104.44458,19.092535],[-104.44385,19.087606],[-104.44193,19.086365],[-104.442042,19.083812],[-104.439497,19.08494],[-104.438016,19.084077],[-104.436416,19.086047],[-104.437881,19.089462],[-104.436864,19.091279],[-104.438673,19.092718],[-104.439612,19.096169],[-104.438471,19.098574],[-104.437136,19.098815],[-104.434579,19.096977],[-104.434682,19.095714],[-104.431723,19.094528],[-104.430484,19.093065],[-104.425698,19.097702],[-104.423468,19.098231],[-104.423179,19.100675],[-104.420252,19.101205],[-104.417648,19.105469],[-104.416302,19.106141],[-104.413218,19.105485],[-104.411235,19.106547],[-104.410235,19.10498],[-104.404321,19.100947],[-104.404091,19.097863],[-104.402283,19.097387],[-104.401292,19.095302],[-104.398784,19.093488],[-104.397059,19.089597],[-104.395383,19.089849],[-104.392552,19.092145],[-104.391541,19.095263],[-104.3898,19.096016],[-104.392042,19.100997],[-104.395672,19.102467],[-104.398068,19.10458],[-104.398891,19.106972],[-104.398435,19.109214],[-104.394924,19.113862],[-104.390646,19.11657],[-104.386641,19.118049],[-104.382035,19.11903],[-104.372479,19.119722],[-104.366672,19.119061],[-104.36159,19.117856],[-104.353459,19.114321],[-104.350924,19.111838],[-104.350485,19.110034],[-104.351502,19.107332],[-104.349591,19.103089],[-104.350493,19.10088],[-104.352301,19.100221],[-104.354481,19.097711],[-104.356045,19.097193],[-104.35409,19.094298],[-104.35501,19.092433],[-104.352897,19.09128],[-104.349152,19.092819],[-104.348862,19.097099],[-104.345869,19.098586],[-104.347071,19.100962],[-104.345205,19.10341],[-104.338517,19.103913],[-104.329502,19.100474],[-104.324129,19.097638],[-104.320394,19.095059],[-104.314275,19.089747],[-104.31008,19.084735],[-104.305747,19.077161],[-104.303843,19.071527],[-104.302973,19.066744],[-104.303237,19.062181],[-104.305437,19.061638],[-104.304147,19.058401],[-104.311401,19.053583],[-104.31776,19.054687],[-104.318458,19.056986],[-104.320951,19.057168],[-104.322034,19.055438],[-104.325484,19.053248],[-104.329961,19.051195],[-104.329748,19.047253],[-104.331528,19.045887],[-104.330808,19.038388],[-104.331497,19.035439],[-104.333094,19.034979],[-104.335748,19.021659],[-104.33328,19.020371],[-104.331456,19.017584],[-104.32982,19.017937],[-104.328769,19.020005],[-104.31958,19.018936],[-104.309667,19.016964],[-104.299928,19.014123],[-104.283573,19.008702],[-104.274579,19.00496],[-104.265093,19.001311],[-104.258956,18.997718],[-104.258259,18.998612],[-104.25198,18.997025],[-104.242131,18.993117],[-104.239038,18.992331],[-104.221736,18.986179],[-104.199956,18.978064],[-104.182662,18.971249],[-104.176949,18.969294],[-104.171728,18.966696],[-104.160814,18.962684],[-104.150963,18.957928],[-104.135741,18.951717],[-104.119946,18.944198],[-104.116608,18.943807],[-104.115699,18.946329],[-104.1188,18.94772],[-104.115742,18.95529],[-104.109323,18.96859],[-104.103702,18.981751],[-104.102563,18.982632],[-104.099867,18.987097],[-104.0933,18.986977],[-104.092186,18.990018],[-104.089254,18.988852],[-104.07797,18.987409],[-104.075214,18.993066],[-104.068817,19.004694],[-104.066863,19.009131],[-104.060461,19.013637],[-104.058369,19.011575],[-104.055992,19.013658],[-104.052873,19.009838],[-104.049493,19.008727],[-104.040887,19.012483],[-104.03634,19.010733],[-104.030141,19.012598],[-104.036814,19.021772],[-104.034391,19.024727],[-104.034488,19.028271],[-104.032354,19.031463],[-104.026638,19.034467],[-104.023076,19.038804],[-104.025986,19.042335],[-104.027928,19.045796],[-104.027255,19.04727],[-104.026835,19.051969],[-104.029139,19.05762],[-104.026879,19.059929],[-104.03007,19.062249],[-104.030778,19.063839],[-104.029598,19.067133],[-104.031287,19.06998],[-104.039853,19.076287],[-104.041548,19.079477],[-104.041754,19.081402],[-104.043354,19.082822],[-104.046231,19.083811],[-104.056834,19.092693],[-104.063842,19.100859],[-104.067874,19.101937],[-104.06358,19.116743],[-104.062531,19.1187],[-104.069037,19.128568],[-104.069404,19.13231],[-104.067968,19.134507],[-104.066201,19.14265],[-104.064766,19.145336],[-104.06062,19.145757],[-104.059802,19.149438],[-104.060851,19.151662]]],[[[-110.810299,19.287528],[-110.809251,19.290028],[-110.810531,19.291674],[-110.812812,19.292314],[-110.812081,19.300112],[-110.809223,19.302446],[-110.807857,19.307351],[-110.805695,19.310623],[-110.807676,19.313094],[-110.809889,19.319712],[-110.812643,19.32071],[-110.816156,19.320695],[-110.816214,19.318857],[-110.814838,19.316403],[-110.815786,19.31321],[-110.815473,19.311592],[-110.819385,19.310438],[-110.819263,19.30664],[-110.821538,19.3036],[-110.827664,19.301359],[-110.830013,19.299816],[-110.831804,19.296763],[-110.833462,19.290255],[-110.832576,19.287586],[-110.830823,19.285581],[-110.827612,19.283766],[-110.820277,19.285972],[-110.818297,19.283501],[-110.815005,19.284213],[-110.810299,19.287528]]]]}},
{"type":"Feature","id":"MEX:ADM2:MX-COL.minatitlan","properties":{"shapeName":"Minatitlán","shapeISO":"","shapeGroup":"MEX","shapeType":"ADM2","adm1ISO":"MX-COL","parentISO":"MX-COL","parentID":"MEX:ADM1:MX-COL","src_shape_id":"50627088B87770668885129"},"geometry":{"type":"Polygon","coordinates":[[[-103.899522,19.434547],[-103.910399,19.438994],[-103.914665,19.440095],[-103.930857,19.445482],[-103.947406,19.449547],[-103.964799,19.454163],[-103.969304,19.459231],[-103.972924,19.466279],[-103.974031,19.470916],[-103.974007,19.474553],[-103.987097,19.474296],[-103.988164,19.47116],[-103.997672,19.471626],[-104.000046,19.468829],[-104.00565,19.472275],[-104.01904,19.476477],[-104.029594,19.481353],[-104.031543,19.481387],[-104.039136,19.484661],[-104.051764,19.497601],[-104.061725,19.497703],[-104.064672,19.492926],[-104.06659,19.488354],[-104.068981,19.484297],[-104.071486,19.483533],[-104.07451,19.482645],[-104.07674,19.480215],[-104.08664,19.442031],[-104.083836,19.439967],[-104.080487,19.435213],[-104.079943,19.431782],[-104.070884,19.435235],[-104.083837,19.415599],[-104.084205,19.409072],[-104.086359,19.405029],[-104.090226,19.393025],[-104.098906,19.388303],[-104.104071,19.384209],[-104.109598,19.381197],[-104.118799,19.371664],[-104.120263,19.36009],[-104.133344,19.353746],[-104.124727,19.32869],[-104.125497,19.324252],[-104.122906,19.320998],[-104.122985,19.319042],[-104.126242,19.319721],[-104.129112,19.31782],[-104.130562,19.320267],[-104.132654,19.320658],[-104.134697,19.318913],[-104.13605,19.316311],[-104.135872,19.313084],[-104.137442,19.312354],[-104.140159,19.316167],[-104.143369,19.313864],[-104.144552,19.311346],[-104.149925,19.31417],[-104.154075,19.314443],[-104.154693,19.311865],[-104.158099,19.310831],[-104.16007,19.304004],[-104.162606,19.302996],[-104.163927,19.308284],[-104.165933,19.30754],[-104.168936,19.30797],[-104.168548,19.310367],[-104.169797,19.312964],[-104.173535,19.314303],[-104.1809,19.312017],[-104.179566,19.308987],[-104.182636,19.307118],[-104.185362,19.306359],[-104.184719,19.303579],[-104.189521,19.302436],[-104.189338,19.299242],[-104.189753,19.29295],[-104.191667,19.29221],[-104.192332,19.295319],[-104.196726,19.296595],[-104.199576,19.298831],[-104.204346,19.303602],[-104.206918,19.300013],[-104.2083,19.299869],[-104.210596,19.301671],[-104.214173,19.302373],[-104.216293,19.299806],[-104.219707,19.299445],[-104.219641,19.301352],[-104.223269,19.301686],[-104.227425,19.299734],[-104.225888,19.29831],[-104.219274,19.296913],[-104.201856,19.290539],[-104.199424,19.292384],[-104.188629,19.288439],[-104.1766,19.285492],[-104.173225,19.283703],[-104.171038,19.281694],[-104.172689,19.277236],[-104.166438,19.27527],[-104.156175,19.272714],[-104.147095,19.269354],[-104.140266,19.267895],[-104.136294,19.269032],[-104.134914,19.268648],[-104.118396,19.266807],[-104.122556,19.258125],[-104.117732,19.256103],[-104.092967,19.249382],[-104.075867,19.251176],[-104.072738,19.248099],[-104.068767,19.245831],[-104.053068,19.250582],[-104.048746,19.248642],[-104.044712,19.250166],[-104.044118,19.25395],[-104.041858,19.257952],[-104.039727,19.259834],[-104.038806,19.262285],[-104.036471,19.263167],[-104.034063,19.265895],[-104.032194,19.270233],[-104.032034,19.277004],[-104.03504,19.275124],[-104.040922,19.273769],[-104.050448,19.274755],[-104.05338,19.277329],[-104.055186,19.280506],[-104.056019,19.284795],[-104.061532,19.281235],[-104.06398,19.280505],[-104.066163,19.281051],[-104.06815,19.285727],[-104.065987,19.288555],[-104.06237,19.290916],[-104.059584,19.290909],[-104.057814,19.291848],[-104.059622,19.29471],[-104.062215,19.296141],[-104.061644,19.298849],[-104.062926,19.300945],[-104.059292,19.303169],[-104.057741,19.305151],[-104.054335,19.304722],[-104.05179,19.306319],[-104.046562,19.30087],[-104.043177,19.300701],[-104.041687,19.297899],[-104.042925,19.295492],[-104.039833,19.294843],[-104.039692,19.293213],[-104.036234,19.293618],[-104.034814,19.292124],[-104.032492,19.292853],[-104.029257,19.292198],[-104.02667,19.295587],[-104.02529,19.295862],[-104.024343,19.298734],[-104.024317,19.302733],[-104.02204,19.305098],[-104.021504,19.308844],[-104.025205,19.312386],[-104.026073,19.314294],[-104.024741,19.316155],[-104.021536,19.318761],[-104.01819,19.320137],[-104.015125,19.32528],[-104.007762,19.328574],[-104.006069,19.332827],[-104.003463,19.33659],[-103.998853,19.338591],[-103.997136,19.340102],[-103.997352,19.343995],[-103.998822,19.347347],[-103.998774,19.351448],[-103.990803,19.349427],[-103.983654,19.348588],[-103.982492,19.36076],[-103.981351,19.363282],[-103.976888,19.36369],[-103.973186,19.364755],[-103.970049,19.363459],[-103.96884,19.361947],[-103.96593,19.361295],[-103.961174,19.362092],[-103.956458,19.354466],[-103.949898,19.353272],[-103.939503,19.348966],[-103.936977,19.345806],[-103.936126,19.348449],[-103.914425,19.362629],[-103.911198,19.363874],[-103.915966,19.358573],[-103.909945,19.341916],[-103.906065,19.339545],[-103.905608,19.341127],[-103.899934,19.34212],[-103.89895,19.342983],[-103.8863,19.354093],[-103.881794,19.357313],[-103.885437,19.367984],[-103.883993,19.37469],[-103.883136,19.386585],[-103.881117,19.393481],[-103.882652,19.394844],[-103.886917,19.405643],[-103.883648,19.412581],[-103.885495,19.423112],[-103.889657,19.424041],[-103.893112,19.428427],[-103.897541,19.430882],[-103.899531,19.432804],[-103.899522,19.434547]]]}},
{"type":"Feature","id":"MEX:ADM2:MX-COL.tecoman","properties":{"shapeName":"Tecomán","shapeISO":"","shapeGroup":"MEX","shapeType":"ADM2","adm1ISO":"MX-COL","parentISO":"MX-COL","parentID":"MEX:ADM1:MX-COL","src_shape_id":"50627088B37392390891999"},"geometry":{"type":"MultiPolygon","coordinates":[[[[-114.726499,18.360372],[-114.730644,18.362026],[-114.734474,18.365508],[-114.740496,18.365508],[-114.745931,18.362266],[-114.75103,18.36131],[-114.756735,18.357387],[-114.758447,18.348137],[-114.759455,18.34415],[-114.759441,18.338744],[-114.755795,18.333774],[-114.751992,18.332594],[-114.746586,18.335147],[-114.742552,18.336603],[-114.736832,18.335119],[-114.727421,18.341315],[-114.72412,18.336703],[-114.718921,18.340068],[-114.708802,18.343015],[-114.704392,18.341926],[-114.70015,18.339692],[-114.694507,18.34212],[-114.6905,18.345762],[-114.684894,18.350146],[-114.680963,18.354826],[-114.683102,18.358359],[-114.688093,18.362807],[-114.692115,18.364572],[-114.695968,18.36173],[-114.700187,18.361662],[-114.70517,18.360589],[-114.709716,18.361339],[-114.714671,18.360953],[-114.721948,18.359738],[-114.726499,18.360372]]],[[[-110.988188,18.853506],[-110.98407,18.857876],[-110.99105,18.858643],[-110.992776,18.857541],[-110.992594,18.855581],[-110.990835,18.853808],[-110.997406,18.85215],[-111.001278,18.85191],[-110.999636,18.846346],[-111.000057,18.844403],[-111.002932,18.845172],[-111.004553,18.843492],[-111.008739,18.840847],[-111.010124,18.838931],[-111.010232,18.835369],[-111.008995,18.832346],[-111.010126,18.830596],[-111.010234,18.827321],[-111.011837,18.826214],[-111.014327,18.821169],[-111.013969,18.819604],[-111.018546,18.815935],[-111.027425,18.817788],[-111.029993,18.816708],[-111.030745,18.811785],[-111.033979,18.812677],[-111.039395,18.81317],[-111.040362,18.809172],[-111.042876,18.808048],[-111.045102,18.809173],[-111.047671,18.807996],[-111.049705,18.80811],[-111.05118,18.809752],[-111.053952,18.809153],[-111.053706,18.807318],[-111.049736,18.807321],[-111.046197,18.806353],[-111.045364,18.805025],[-111.046827,18.80291],[-111.050387,18.800937],[-111.047282,18.799817],[-111.048412,18.794329],[-111.044253,18.792146],[-111.043701,18.790407],[-111.044287,18.786973],[-111.047341,18.785792],[-111.049632,18.785854],[-111.04864,18.782722],[-111.054144,18.780343],[-111.056279,18.777526],[-111.05772,18.773771],[-111.054939,18.773925],[-111.051125,18.772327],[-111.050159,18.776325],[-111.047324,18.778317],[-111.043878,18.776499],[-111.039125,18.777979],[-111.037503,18.779774],[-111.035732,18.774437],[-111.032239,18.770202],[-111.029581,18.770245],[-111.030505,18.767625],[-111.025281,18.766876],[-111.023437,18.765822],[-111.024913,18.760918],[-111.022405,18.760045],[-111.020697,18.756664],[-111.01755,18.756923],[-111.020346,18.752285],[-111.01882,18.750864],[-111.019114,18.749147],[-111.015681,18.746868],[-111.015024,18.74869],[-111.012846,18.74886],[-111.011203,18.74732],[-111.011255,18.745597],[-111.007779,18.744812],[-111.001459,18.750272],[-110.998803,18.74629],[-110.992671,18.745547],[-110.988871,18.743487],[-110.990239,18.742145],[-110.988883,18.739118],[-110.985208,18.736947],[-110.981393,18.739372],[-110.976847,18.738096],[-110.972506,18.737977],[-110.971151,18.734949],[-110.968507,18.734532],[-110.967231,18.732886],[-110.965532,18.733184],[-110.96487,18.727187],[-110.963466,18.729678],[-110.9618,18.728941],[-110.962132,18.725961],[-110.95678,18.723398],[-110.959548,18.719681],[-110.959567,18.715082],[-110.95662,18.712815],[-110.953879,18.711705],[-110.95083,18.71277],[-110.951016,18.718524],[-110.946264,18.716092],[-110.945462,18.714691],[-110.942243,18.71736],[-110.942807,18.718641],[-110.941479,18.722628],[-110.934992,18.721643],[-110.92936,18.720336],[-110.927376,18.722121],[-110.924451,18.723074],[-110.921943,18.726109],[-110.921955,18.729674],[-110.919331,18.736499],[-110.918949,18.744998],[-110.917658,18.747721],[-110.919606,18.75111],[-110.918798,18.753847],[-110.920582,18.758611],[-110.920629,18.764936],[-110.916983,18.769664],[-110.914668,18.770404],[-110.914416,18.774651],[-110.916828,18.774719],[-110.91566,18.777331],[-110.917917,18.778543],[-110.919469,18.78698],[-110.91827,18.790626],[-110.9197,18.791241],[-110.923623,18.7971],[-110.928087,18.801134],[-110.932409,18.805854],[-110.933006,18.81001],[-110.934794,18.810749],[-110.937105,18.814148],[-110.940933,18.815289],[-110.940097,18.818946],[-110.940374,18.821713],[-110.942013,18.823368],[-110.942377,18.827287],[-110.944815,18.82655],[-110.94624,18.82728],[-110.946838,18.831436],[-110.949694,18.83278],[-110.955379,18.828568],[-110.959072,18.830165],[-110.960826,18.832054],[-110.961221,18.834939],[-110.964164,18.837435],[-110.964583,18.839516],[-110.966595,18.840837],[-110.968176,18.844445],[-110.970465,18.844623],[-110.971126,18.846711],[-110.975525,18.844993],[-110.978277,18.845873],[-110.979442,18.847286],[-110.978956,18.851296],[-110.979963,18.853968],[-110.981977,18.851265],[-110.984092,18.853163],[-110.987512,18.851877],[-110.988188,18.853506]]],[[[-103.971042,18.86435],[-103.967599,18.860778],[-103.964353,18.85851],[-103.958755,18.851502],[-103.951598,18.844984],[-103.947504,18.842092],[-103.933464,18.833741],[-103.895803,18.810989],[-103.876596,18.799231],[-103.857495,18.786691],[-103.833744,18.770647],[-103.803419,18.74891],[-103.78784,18.735713],[-103.775304,18.724405],[-103.756381,18.705728],[-103.752641,18.703059],[-103.743124,18.69299],[-103.740514,18.689327],[-103.739153,18.685057],[-103.737765,18.684156],[-103.736521,18.688309],[-103.737982,18.694074],[-103.734498,18.697197],[-103.730147,18.698792],[-103.727601,18.70164],[-103.725689,18.707677],[-103.723726,18.709167],[-103.71893,18.710431],[-103.717242,18.713208],[-103.715993,18.718877],[-103.713065,18.724592],[-103.712717,18.726354],[-103.709353,18.729029],[-103.707249,18.732077],[-103.703646,18.738959],[-103.702853,18.74286],[-103.703168,18.748494],[-103.702443,18.751242],[-103.700303,18.754356],[-103.697571,18.755923],[-103.692727,18.755449],[-103.689543,18.754532],[-103.685438,18.757293],[-103.684732,18.762311],[-103.68067,18.772131],[-103.679017,18.773211],[-103.674205,18.773336],[-103.669357,18.774467],[-103.664802,18.777872],[-103.661843,18.778952],[-103.658507,18.779198],[-103.653711,18.776542],[-103.650756,18.777936],[-103.646398,18.781649],[-103.643258,18.782941],[-103.637468,18.783527],[-103.636468,18.785772],[-103.63324,18.78962],[-103.629617,18.791177],[-103.626786,18.793519],[-103.620031,18.801383],[-103.619846,18.804235],[-103.621598,18.810096],[-103.620368,18.816509],[-103.620691,18.820352],[-103.624624,18.826109],[-103.650287,18.840828],[-103.651466,18.844702],[-103.653256,18.845485],[-103.652223,18.84889],[-103.668638,18.858545],[-103.671042,18.854466],[-103.675655,18.856891],[-103.686947,18.861181],[-103.694172,18.865464],[-103.686714,18.881608],[-103.689057,18.882796],[-103.693508,18.883206],[-103.695571,18.88221],[-103.698341,18.885789],[-103.70507,18.89007],[-103.702724,18.891663],[-103.710853,18.894212],[-103.71098,18.900886],[-103.714738,18.900736],[-103.716143,18.90173],[-103.720745,18.901578],[-103.728843,18.912869],[-103.730751,18.912171],[-103.729007,18.907859],[-103.73199,18.90769],[-103.734183,18.905268],[-103.735631,18.902507],[-103.739528,18.905385],[-103.739778,18.910006],[-103.740783,18.917568],[-103.745176,18.917415],[-103.747972,18.909041],[-103.769221,18.91101],[-103.768581,18.913566],[-103.76391,18.921203],[-103.76696,18.922664],[-103.769262,18.919363],[-103.772173,18.918331],[-103.772294,18.915956],[-103.77535,18.916065],[-103.776181,18.917786],[-103.77142,18.922105],[-103.770692,18.923748],[-103.765292,18.928895],[-103.754209,18.941923],[-103.751467,18.944927],[-103.762219,18.948681],[-103.765118,18.940634],[-103.776345,18.942955],[-103.769865,18.948333],[-103.783979,18.956113],[-103.777571,18.977907],[-103.778159,18.97832],[-103.77794,18.983761],[-103.780716,18.999909],[-103.769945,19.000104],[-103.771051,19.021113],[-103.771885,19.021838],[-103.767871,19.027003],[-103.769223,19.029362],[-103.772031,19.037859],[-103.77074,19.045521],[-103.772723,19.0526],[-103.773706,19.054613],[-103.774139,19.059914],[-103.772359,19.064229],[-103.76865,19.068074],[-103.776084,19.072014],[-103.77375,19.075583],[-103.773016,19.078699],[-103.784529,19.07823],[-103.785009,19.075058],[-103.790718,19.074198],[-103.788841,19.06839],[-103.787286,19.065737],[-103.78267,19.063072],[-103.783541,19.059278],[-103.788945,19.05936],[-103.840028,19.048948],[-103.846249,19.047022],[-103.853259,19.047151],[-103.85484,19.045573],[-103.857339,19.045607],[-103.856038,19.080595],[-103.861174,19.086767],[-103.852409,19.084212],[-103.850733,19.087925],[-103.849923,19.092722],[-103.84841,19.107869],[-103.857936,19.105143],[-103.867847,19.10109],[-103.869147,19.102966],[-103.871958,19.103802],[-103.876622,19.110905],[-103.883842,19.112318],[-103.882368,19.113854],[-103.882335,19.115845],[-103.883935,19.11952],[-103.886954,19.115961],[-103.88844,19.115798],[-103.887854,19.112948],[-103.89225,19.110049],[-103.893598,19.10682],[-103.895332,19.105778],[-103.897844,19.100529],[-103.896252,19.097698],[-103.897941,19.093795],[-103.901879,19.08844],[-103.901821,19.086348],[-103.90344,19.081281],[-103.904379,19.080632],[-103.907012,19.075169],[-103.909034,19.068881],[-103.913045,19.063342],[-103.914476,19.059771],[-103.914552,19.05547],[-103.915348,19.050452],[-103.914345,19.048525],[-103.91632,19.046952],[-103.917477,19.037653],[-103.915154,19.037877],[-103.913469,19.035809],[-103.913771,19.033837],[-103.912529,19.03046],[-103.915687,19.022567],[-103.918233,19.017683],[-103.916814,19.016144],[-103.916301,19.010436],[-103.914357,19.00957],[-103.91485,19.007117],[-103.914356,19.004591],[-103.914501,18.999787],[-103.914059,18.997527],[-103.914798,18.995019],[-103.919182,18.985977],[-103.920998,18.979655],[-103.921643,18.973513],[-103.921242,18.97209],[-103.922606,18.968887],[-103.922355,18.966373],[-103.923677,18.963361],[-103.925984,18.962335],[-103.929112,18.959529],[-103.936426,18.958864],[-103.937528,18.957831],[-103.94128,18.958408],[-103.945497,18.957359],[-103.946245,18.955408],[-103.942356,18.949977],[-103.942186,18.947493],[-103.94569,18.943477],[-103.944558,18.940973],[-103.944884,18.936391],[-103.943889,18.930868],[-103.944762,18.919624],[-103.947376,18.917042],[-103.949314,18.916125],[-103.94959,18.912353],[-103.952876,18.907853],[-103.953024,18.903865],[-103.950731,18.897612],[-103.951384,18.896102],[-103.951222,18.892074],[-103.952125,18.889403],[-103.953191,18.881421],[-103.95546,18.881157],[-103.957859,18.878439],[-103.958711,18.875187],[-103.961508,18.874346],[-103.961785,18.87296],[-103.967541,18.874417],[-103.970147,18.871599],[-103.971619,18.868779],[-103.969972,18.867844],[-103.971042,18.86435]]]]}},
{"type":"Feature","id":"MEX:ADM2:MX-COL.villa-de-alvarez","properties":{"shapeName":"Villa de Álvarez","shapeISO":"","shapeGroup":"MEX","shapeType":"ADM2","adm1ISO":"MX-COL","parentISO":"MX-COL","parentID":"MEX:ADM1:MX-COL","src_shape_id":"50627088B49259449060306"},"geometry":{"type":"Polygon","coordinates":[[[-103.679171,19.32576],[-103.675683,19.331746],[-103.673581,19.338285],[-103.677611,19.33878],[-103.678806,19.335617],[-103.684704,19.335456],[-103.69052,19.337802],[-103.687528,19.345141],[-103.687509,19.347464],[-103.678067,19.342852],[-103.677811,19.345472],[-103.676654,19.346303],[-103.673223,19.354101],[-103.671299,19.356726],[-103.673973,19.359585],[-103.672488,19.364163],[-103.673373,19.367812],[-103.676209,19.369502],[-103.676315,19.371638],[-103.674825,19.374284],[-103.678703,19.375649],[-103.679482,19.378402],[-103.676407,19.382061],[-103.673008,19.388647],[-103.673484,19.390217],[-103.670339,19.392989],[-103.669805,19.395319],[-103.665745,19.3911],[-103.66376,19.391564],[-103.661182,19.393604],[-103.657435,19.390676],[-103.656854,19.388428],[-103.654683,19.389729],[-103.652719,19.392337],[-103.651192,19.396194],[-103.65365,19.400939],[-103.653383,19.402837],[-103.648726,19.405419],[-103.648357,19.40805],[-103.646811,19.408785],[-103.648849,19.413847],[-103.650318,19.415325],[-103.648521,19.426861],[-103.655871,19.429146],[-103.662733,19.429322],[-103.672283,19.430683],[-103.673472,19.431439],[-103.677612,19.430648],[-103.683283,19.432731],[-103.686046,19.430882],[-103.689103,19.431428],[-103.690858,19.433022],[-103.694255,19.43035],[-103.686858,19.423987],[-103.67731,19.417291],[-103.678467,19.413445],[-103.680298,19.411351],[-103.684321,19.411116],[-103.68844,19.409608],[-103.692152,19.404862],[-103.69287,19.403099],[-103.696027,19.401497],[-103.698989,19.39908],[-103.69779,19.397491],[-103.687358,19.396234],[-103.68518,19.394443],[-103.686981,19.392265],[-103.682814,19.389198],[-103.684014,19.384368],[-103.685888,19.380962],[-103.687729,19.380544],[-103.689854,19.377575],[-103.692545,19.372669],[-103.694041,19.371715],[-103.696595,19.366516],[-103.699056,19.363192],[-103.699437,19.356977],[-103.70088,19.35365],[-103.703472,19.351212],[-103.703294,19.348809],[-103.704306,19.347102],[-103.702532,19.344725],[-103.707443,19.339058],[-103.710899,19.334385],[-103.716267,19.339602],[-103.727974,19.332858],[-103.730999,19.330144],[-103.737417,19.32752],[-103.736545,19.322893],[-103.739497,19.321343],[-103.745091,19.319641],[-103.746469,19.314504],[-103.7478,19.311693],[-103.745303,19.310501],[-103.747806,19.303971],[-103.747683,19.302159],[-103.752596,19.302524],[-103.752736,19.301371],[-103.749532,19.293359],[-103.748852,19.290306],[-103.753674,19.289918],[-103.762231,19.289767],[-103.764877,19.29027],[-103.768472,19.285261],[-103.772038,19.282693],[-103.774356,19.278346],[-103.779434,19.281456],[-103.774233,19.289765],[-103.778846,19.293307],[-103.783973,19.296298],[-103.783542,19.298813],[-103.789657,19.302233],[-103.792001,19.299583],[-103.792363,19.297307],[-103.795288,19.292684],[-103.79763,19.291529],[-103.806183,19.297643],[-103.806473,19.297183],[-103.813249,19.301774],[-103.812065,19.304739],[-103.820916,19.307208],[-103.820436,19.309112],[-103.822034,19.309943],[-103.818812,19.312918],[-103.817225,19.319139],[-103.815184,19.323887],[-103.813523,19.325381],[-103.810188,19.324379],[-103.810198,19.328575],[-103.813334,19.329052],[-103.815698,19.326619],[-103.819464,19.318468],[-103.82293,19.319809],[-103.827686,19.322625],[-103.832327,19.324587],[-103.827925,19.314899],[-103.832212,19.30856],[-103.835416,19.316365],[-103.840844,19.330918],[-103.835726,19.331755],[-103.83305,19.333137],[-103.832508,19.338938],[-103.854173,19.350973],[-103.861325,19.346969],[-103.877866,19.338938],[-103.879299,19.343434],[-103.879944,19.347402],[-103.882438,19.350228],[-103.889226,19.346322],[-103.891969,19.346444],[-103.89443,19.342923],[-103.897251,19.343954],[-103.89895,19.342983],[-103.899934,19.34212],[-103.905608,19.341127],[-103.906065,19.339545],[-103.909945,19.341916],[-103.915966,19.358573],[-103.911198,19.363874],[-103.914425,19.362629],[-103.936126,19.348449],[-103.936977,19.345806],[-103.939503,19.348966],[-103.949898,19.353272],[-103.956458,19.354466],[-103.961174,19.362092],[-103.96593,19.361295],[-103.96884,19.361947],[-103.970049,19.363459],[-103.973186,19.364755],[-103.976888,19.36369],[-103.981351,19.363282],[-103.982492,19.36076],[-103.983654,19.348588],[-103.990803,19.349427],[-103.998774,19.351448],[-103.998822,19.347347],[-103.997352,19.343995],[-103.997136,19.340102],[-103.998853,19.338591],[-104.003463,19.33659],[-104.006069,19.332827],[-104.007762,19.328574],[-104.015125,19.32528],[-104.01819,19.320137],[-104.021536,19.318761],[-104.024741,19.316155],[-104.026073,19.314294],[-104.025205,19.312386],[-104.021504,19.308844],[-104.02204,19.305098],[-104.024317,19.302733],[-104.024343,19.298734],[-104.02529,19.295862],[-104.02667,19.295587],[-104.029257,19.292198],[-104.025547,19.290666],[-104.022099,19.287377],[-104.011562,19.287927],[-104.009985,19.290034],[-104.005032,19.29071],[-104.002135,19.289678],[-103.990382,19.286665],[-103.987977,19.282157],[-103.982572,19.282657],[-103.957087,19.29069],[-103.956566,19.289535],[-103.944219,19.282136],[-103.941373,19.27996],[-103.93885,19.27935],[-103.934345,19.276321],[-103.931609,19.27295],[-103.934323,19.267863],[-103.931072,19.265669],[-103.92701,19.26596],[-103.918736,19.268262],[-103.913836,19.267435],[-103.912851,19.262493],[-103.905575,19.259627],[-103.896435,19.254605],[-103.888747,19.255427],[-103.886967,19.254205],[-103.878475,19.254456],[-103.876858,19.252757],[-103.870315,19.252657],[-103.863778,19.252053],[-103.860573,19.252414],[-103.842508,19.250597],[-103.841288,19.25065],[-103.842347,19.246383],[-103.845606,19.240824],[-103.845903,19.237614],[-103.843214,19.233991],[-103.843106,19.229846],[-103.840151,19.221583],[-103.836456,19.220167],[-103.838583,19.224949],[-103.841008,19.226476],[-103.842331,19.229549],[-103.8409,19.233048],[-103.843306,19.239929],[-103.841837,19.24097],[-103.840507,19.245595],[-103.836945,19.252911],[-103.836791,19.254925],[-103.834514,19.257546],[-103.831578,19.256865],[-103.829554,19.255474],[-103.824861,19.254314],[-103.821868,19.254483],[-103.813451,19.253861],[-103.810514,19.254389],[-103.809152,19.25793],[-103.806667,19.260765],[-103.802061,19.264606],[-103.79884,19.261309],[-103.794033,19.25797],[-103.794217,19.256131],[-103.790331,19.253004],[-103.788098,19.251985],[-103.781264,19.252744],[-103.781911,19.250746],[-103.789774,19.24791],[-103.791308,19.246649],[-103.781687,19.241581],[-103.780073,19.242951],[-103.779121,19.246291],[-103.776842,19.244858],[-103.775919,19.241771],[-103.773323,19.238508],[-103.771868,19.23781],[-103.768196,19.238323],[-103.758712,19.24218],[-103.753803,19.241906],[-103.747149,19.24438],[-103.742959,19.244318],[-103.740547,19.248131],[-103.737315,19.256382],[-103.732769,19.254736],[-103.732249,19.256429],[-103.730093,19.25714],[-103.730088,19.260696],[-103.723674,19.258408],[-103.721585,19.263531],[-103.721089,19.268216],[-103.718946,19.27226],[-103.715607,19.275475],[-103.719345,19.277648],[-103.717693,19.280853],[-103.714863,19.279427],[-103.711554,19.285688],[-103.710072,19.291525],[-103.708709,19.294535],[-103.705268,19.296277],[-103.701286,19.299589],[-103.699334,19.303039],[-103.693761,19.309347],[-103.688426,19.313655],[-103.686009,19.314557],[-103.683703,19.321408],[-103.680659,19.323161],[-103.679171,19.32576]]]}}
]}