{"type":"FeatureCollection","bbox":[-114.814196,31.332182,-109.045234,37.004266], "features": [
{"type":"Feature","geometry":{"type":"Polygon","coordinates":[[[-114.050631,36.843147],[-114.050574,36.656264],[-114.050179,36.624983],[-114.049672,36.621118],[-114.048488,36.499985],[-114.0465,36.473454],[-114.045841,36.442978],[-114.045818,36.391076],[-114.047596,36.325578],[-114.046947,36.315454],[-114.048527,36.289603],[-114.048238,36.268879],[-114.046755,36.245251],[-114.04685,36.194074],[-114.060314,36.189368],[-114.068039,36.180668],[-114.088966,36.144386],[-114.099882,36.121659],[-114.103234,36.120181],[-114.111023,36.11988],[-114.120874,36.114601],[-114.123156,36.111581],[-114.123987,36.10652],[-114.123233,36.104751],[-114.117471,36.100898],[-114.114177,36.096987],[-114.114543,36.095222],[-114.136908,36.059472],[-114.138215,36.053166],[-114.1372,36.04679],[-114.138214,36.041289],[-114.148203,36.028018],[-114.151737,36.024568],[-114.154142,36.023867],[-114.166477,36.027743],[-114.176836,36.027656],[-114.192392,36.020998],[-114.213702,36.015618],[-114.233301,36.014294],[-114.238811,36.014566],[-114.252663,36.020198],[-114.263158,36.025942],[-114.266733,36.029243],[-114.270657,36.035725],[-114.280214,36.046367],[-114.31404,36.05817],[-114.315569,36.059499],[-114.316121,36.063114],[-114.314218,36.066624],[-114.307891,36.071296],[-114.30575,36.074887],[-114.308442,36.082448],[-114.328789,36.105506],[-114.337285,36.108025],[-114.363121,36.130251],[-114.372118,36.143119],[-114.405487,36.147376],[-114.412385,36.147259],[-114.416962,36.145766],[-114.427181,36.13631],[-114.446617,36.125975],[-114.448666,36.126415],[-114.453337,36.130731],[-114.458381,36.138591],[-114.463649,36.1397],[-114.470164,36.138806],[-114.487046,36.129401],[-114.496132,36.127855],[-114.502184,36.128801],[-114.505778,36.131449],[-114.506156,36.134664],[-114.505399,36.137501],[-114.504643,36.145634],[-114.506723,36.148282],[-114.511733,36.150961],[-114.545801,36.152253],[-114.572043,36.151615],[-114.597224,36.142108],[-114.608276,36.133954],[-114.616706,36.130106],[-114.621895,36.132135],[-114.627867,36.141017],[-114.631728,36.142311],[-114.659962,36.12415],[-114.662902,36.119937],[-114.66655,36.117348],[-114.709783,36.107747],[-114.717305,36.107691],[-114.736177,36.104372],[-114.747091,36.09701],[-114.75365,36.09071],[-114.75563,36.087171],[-114.755503,36.081606],[-114.754111,36.079445],[-114.743354,36.07054],[-114.736265,36.058475],[-114.73675,36.054354],[-114.740387,36.049263],[-114.740629,36.04102],[-114.739417,36.037868],[-114.734326,36.035686],[-114.730447,36.031322],[-114.729719,36.028171],[-114.731174,36.021867],[-114.740534,36.013341],[-114.742791,36.009968],[-114.743255,36.006535],[-114.743768,35.9851],[-114.740607,35.975661],[-114.729953,35.962188],[-114.72833,35.956295],[-114.731171,35.943921],[-114.729368,35.941418],[-114.715704,35.934714],[-114.707538,35.928065],[-114.708528,35.912318],[-114.700283,35.901777],[-114.667206,35.874792],[-114.669699,35.865089],[-114.682022,35.863289],[-114.697779,35.854849],[-114.69986,35.848375],[-114.69986,35.843288],[-114.696422,35.833789],[-114.695722,35.830606],[-114.703722,35.81459],[-114.709922,35.81019],[-114.712122,35.80619],[-114.698922,35.79019],[-114.701421,35.769091],[-114.695721,35.755991],[-114.697321,35.733691],[-114.705321,35.711592],[-114.705421,35.708292],[-114.70122,35.701192],[-114.69412,35.695192],[-114.68322,35.689392],[-114.680619,35.685493],[-114.682219,35.678193],[-114.69002,35.664693],[-114.689419,35.651417],[-114.677119,35.641494],[-114.658218,35.619094],[-114.653418,35.610794],[-114.654318,35.597595],[-114.659618,35.587495],[-114.665661,35.580433],[-114.666196,35.577581],[-114.663017,35.563695],[-114.662017,35.545496],[-114.660217,35.539296],[-114.657417,35.536396],[-114.656917,35.534396],[-114.658017,35.530496],[-114.663117,35.524496],[-114.673817,35.517896],[-114.677217,35.513496],[-114.679217,35.499997],[-114.677655,35.489747],[-114.672913,35.481713],[-114.666389,35.466861],[-114.664512,35.449502],[-114.662137,35.444246],[-114.652017,35.42917],[-114.627149,35.409509],[-114.611447,35.369061],[-114.604326,35.353589],[-114.595943,35.325239],[-114.597515,35.296959],[-114.587141,35.262381],[-114.583123,35.238095],[-114.583571,35.229935],[-114.579975,35.209645],[-114.574847,35.205903],[-114.572131,35.200596],[-114.56925,35.183485],[-114.569581,35.163058],[-114.572759,35.13873],[-114.578536,35.128755],[-114.587752,35.123734],[-114.599132,35.121055],[-114.619917,35.121637],[-114.629946,35.118277],[-114.644364,35.105909],[-114.646771,35.101877],[-114.642843,35.096508],[-114.622529,35.088708],[-114.613144,35.083102],[-114.604748,35.074835],[-114.60292,35.068593],[-114.603631,35.064231],[-114.606706,35.058946],[-114.627136,35.044726],[-114.632441,35.037591],[-114.636905,35.028372],[-114.638035,35.020561],[-114.636686,35.008812],[-114.633499,35.001862],[-114.62994,34.994745],[-114.629202,34.991892],[-114.629027,34.986153],[-114.629919,34.980796],[-114.634619,34.969065],[-114.635249,34.965154],[-114.634965,34.958923],[-114.631693,34.951315],[-114.629823,34.944815],[-114.629765,34.938689],[-114.632208,34.930633],[-114.633265,34.924613],[-114.633249,34.921235],[-114.630564,34.911857],[-114.630889,34.907268],[-114.635437,34.895197],[-114.636737,34.889112],[-114.63678,34.88571],[-114.635188,34.875008],[-114.630694,34.866357],[-114.623951,34.859743],[-114.61989,34.856878],[-114.604267,34.849578],[-114.600665,34.847366],[-114.592351,34.841158],[-114.586854,34.835677],[-114.581138,34.82612],[-114.576464,34.815305],[-114.574581,34.805751],[-114.571022,34.794299],[-114.558665,34.773857],[-114.552694,34.766876],[-114.546896,34.761807],[-114.540318,34.757114],[-114.529627,34.750827],[-114.522631,34.743735],[-114.52106,34.741178],[-114.516631,34.73675],[-114.510304,34.733587],[-114.503373,34.731252],[-114.49587,34.727961],[-114.490983,34.724853],[-114.48678,34.719105],[-114.481966,34.716041],[-114.471632,34.712971],[-114.468632,34.707578],[-114.468102,34.701791],[-114.465258,34.691207],[-114.46219,34.685805],[-114.456579,34.677961],[-114.454317,34.671239],[-114.451983,34.6668],[-114.451797,34.663896],[-114.45264,34.659578],[-114.451765,34.654326],[-114.449561,34.651428],[-114.444288,34.646547],[-114.441477,34.642535],[-114.440306,34.638245],[-114.441537,34.631534],[-114.438751,34.62146],[-114.42866,34.614646],[-114.424214,34.610458],[-114.424338,34.602343],[-114.42535,34.600847],[-114.430102,34.596879],[-114.429759,34.591739],[-114.422394,34.580716],[-114.40524,34.569642],[-114.389615,34.542987],[-114.38085,34.529729],[-114.378235,34.516526],[-114.378136,34.507293],[-114.381414,34.499247],[-114.38237,34.495762],[-114.38305,34.488908],[-114.381567,34.477888],[-114.383537,34.47041],[-114.387199,34.462026],[-114.386711,34.457916],[-114.378864,34.450381],[-114.373731,34.446943],[-114.363416,34.447778],[-114.356037,34.449749],[-114.342627,34.451447],[-114.339639,34.45144],[-114.335384,34.450043],[-114.330681,34.4453],[-114.326142,34.437256],[-114.319066,34.435836],[-114.312263,34.432731],[-114.301028,34.426812],[-114.294848,34.421394],[-114.292238,34.417611],[-114.291763,34.411109],[-114.290231,34.408296],[-114.286814,34.405345],[-114.28012,34.403152],[-114.267533,34.402491],[-114.264329,34.401334],[-114.252751,34.390105],[-114.248661,34.388118],[-114.245273,34.385664],[-114.234287,34.376667],[-114.229698,34.368913],[-114.226119,34.365921],[-114.213785,34.362465],[-114.199493,34.361378],[-114.191105,34.35613],[-114.185567,34.354391],[-114.181156,34.352191],[-114.17692,34.349311],[-114.172856,34.344984],[-114.168818,34.339518],[-114.157217,34.317867],[-114.140941,34.305924],[-114.138293,34.303235],[-114.134251,34.304184],[-114.114373,34.295394],[-114.101919,34.298731],[-114.086572,34.297847],[-114.07899,34.292071],[-114.073355,34.291846],[-114.066811,34.288576],[-114.057062,34.279181],[-114.052434,34.277742],[-114.048898,34.274493],[-114.04645,34.269572],[-114.037271,34.263172],[-114.036743,34.260611],[-114.031978,34.259544],[-114.027033,34.263687],[-114.026343,34.266152],[-114.024221,34.268147],[-114.01998,34.26598],[-114.017842,34.263879],[-114.011535,34.256067],[-114.007518,34.254524],[-114.00312,34.253703],[-113.999528,34.254912],[-113.988483,34.254977],[-113.982928,34.256256],[-113.968394,34.257928],[-113.950806,34.257146],[-113.943256,34.25566],[-113.932284,34.250603],[-113.926663,34.249354],[-113.922136,34.249388],[-113.907691,34.248553],[-113.899222,34.248656],[-113.89336,34.249262],[-113.879943,34.25236],[-113.875404,34.254488],[-113.866349,34.254358],[-113.858923,34.253511],[-113.85293,34.251991],[-113.851243,34.249887],[-113.849849,34.243893],[-113.843125,34.23408],[-113.84031,34.227645],[-113.836828,34.223805],[-113.832834,34.223532],[-113.825539,34.225419],[-113.820537,34.228042],[-113.819215,34.232828],[-113.817383,34.234848],[-113.812596,34.232501],[-113.807801,34.233119],[-113.8033,34.235737],[-113.800811,34.23622],[-113.791889,34.235267],[-113.785993,34.232196],[-113.777201,34.228886],[-113.773907,34.229424],[-113.76993,34.231937],[-113.76351,34.233638],[-113.758931,34.236094],[-113.751536,34.238159],[-113.738062,34.240562],[-113.727606,34.234601],[-113.724298,34.227943],[-113.722965,34.223353],[-113.721384,34.222597],[-113.715589,34.221759],[-113.714955,34.218745],[-113.713585,34.217458],[-113.709063,34.215968],[-113.702625,34.210196],[-113.692085,34.210433],[-113.680193,34.210034],[-113.675505,34.212897],[-113.666114,34.213547],[-113.663743,34.212313],[-113.659498,34.216828],[-113.65505,34.216605],[-113.649101,34.221721],[-113.645161,34.22128],[-113.643817,34.223373],[-113.644445,34.225801],[-113.641693,34.227616],[-113.640289,34.226808],[-113.639215,34.223983],[-113.633129,34.224947],[-113.627518,34.228718],[-113.621702,34.227818],[-113.616668,34.227668],[-113.612405,34.230622],[-113.608015,34.231617],[-113.605056,34.229534],[-113.593707,34.238899],[-113.586728,34.243449],[-113.582791,34.258655],[-113.570504,34.268679],[-113.568616,34.274706],[-113.563466,34.277997],[-113.552441,34.288409],[-113.539535,34.306382],[-113.530293,34.310269],[-113.525447,34.310006],[-113.522277,34.308985],[-113.51899,34.310723],[-113.516401,34.309996],[-113.511507,34.305074],[-113.500761,34.302815],[-113.493053,34.303544],[-113.479372,34.303967],[-113.471515,34.301836],[-113.461506,34.302442],[-113.451673,34.299946],[-113.441831,34.299757],[-113.431948,34.300934],[-113.420632,34.299138],[-113.415434,34.295355],[-113.412476,34.294475],[-113.407653,34.296301],[-113.392101,34.297982],[-113.361604,34.294298],[-113.345848,34.308667],[-113.342595,34.314529],[-113.336387,34.317506],[-113.333519,34.317882],[-113.333529,34.748323],[-113.334116,35.508421],[-113.334172,35.528042],[-113.334035,35.803036],[-113.333164,35.805374],[-113.331775,35.816192],[-113.333114,35.820434],[-113.325811,35.830141],[-113.327116,35.833685],[-113.327084,35.837867],[-113.321659,35.848239],[-113.313208,35.8577],[-113.311105,35.861776],[-113.312257,35.869881],[-113.309913,35.883495],[-113.316423,35.895593],[-113.322622,35.898568],[-113.324296,35.90295],[-113.328233,35.908112],[-113.334431,35.913138],[-113.334152,35.918724],[-113.33014,35.924004],[-113.328478,35.927814],[-113.325366,35.937846],[-113.328702,35.949034],[-113.323963,35.955966],[-113.317208,35.961536],[-113.318684,35.966934],[-113.317315,35.968458],[-113.319047,35.97288],[-113.321513,35.975674],[-113.335087,35.980084],[-113.339788,35.985155],[-113.34139,35.991338],[-113.340036,35.999375],[-113.343089,36.008776],[-113.34878,36.016879],[-113.350186,36.021378],[-113.351518,36.033261],[-113.350348,36.05047],[-113.347451,36.055044],[-113.341395,36.060255],[-113.331976,36.067204],[-113.326184,36.078429],[-113.323167,36.09163],[-113.308837,36.099563],[-113.296411,36.095816],[-113.279258,36.097341],[-113.268269,36.092318],[-113.261961,36.090996],[-113.258784,36.089328],[-113.253599,36.089641],[-113.250898,36.091411],[-113.24262,36.09271],[-113.232915,36.089953],[-113.222898,36.092977],[-113.221486,36.096746],[-113.216711,36.104993],[-113.212726,36.110252],[-113.205391,36.115195],[-113.202039,36.121207],[-113.205288,36.133137],[-113.202641,36.141154],[-113.200708,36.145652],[-113.20029,36.150459],[-113.187201,36.157061],[-113.176508,36.160686],[-113.167723,36.165928],[-113.165696,36.16976],[-113.157365,36.17413],[-113.145643,36.172828],[-113.137718,36.166594],[-113.133654,36.16766],[-113.125811,36.170515],[-113.119739,36.175608],[-113.115364,36.182186],[-113.106801,36.18712],[-113.093219,36.194231],[-113.081922,36.198104],[-113.072666,36.202879],[-113.053361,36.20908],[-113.050893,36.21166],[-113.043229,36.22163],[-113.036417,36.228077],[-113.031368,36.230671],[-113.023835,36.233915],[-113.019122,36.23671],[-113.012833,36.238478],[-113.005801,36.23851],[-112.987974,36.232376],[-112.981221,36.231774],[-112.970072,36.23449],[-112.955317,36.238445],[-112.939376,36.241601],[-112.932012,36.244425],[-112.927895,36.251823],[-112.92438,36.257085],[-112.916087,36.258198],[-112.904952,36.254375],[-112.897227,36.255439],[-112.891295,36.258852],[-112.88284,36.265482],[-112.879549,36.273975],[-112.876036,36.278336],[-112.873562,36.279967],[-112.866431,36.28251],[-112.851659,36.27846],[-112.840878,36.27725],[-112.832506,36.284951],[-112.826866,36.287832],[-112.818838,36.288677],[-112.809999,36.287883],[-112.804013,36.285837],[-112.796348,36.283851],[-112.789098,36.290931],[-112.78914,36.297476],[-112.786842,36.301466],[-112.771726,36.303114],[-112.76353,36.308048],[-112.760676,36.312645],[-112.758724,36.320726],[-112.75076,36.325454],[-112.745038,36.323515],[-112.731805,36.317767],[-112.720146,36.32402],[-112.72247,36.330556],[-112.72622,36.339641],[-112.719095,36.348031],[-112.708957,36.351088],[-112.70191,36.35415],[-112.695602,36.35534],[-112.691588,36.354807],[-112.687143,36.348085],[-112.67948,36.341948],[-112.673537,36.344049],[-112.662412,36.351877],[-112.652591,36.362859],[-112.649931,36.371955],[-112.634385,36.390771],[-112.631575,36.391352],[-112.630444,36.393584],[-112.631875,36.395716],[-112.630448,36.397954],[-112.631478,36.399746],[-112.629907,36.403047],[-112.625135,36.406707],[-112.624111,36.410246],[-112.62569,36.412345],[-112.624427,36.413746],[-112.626575,36.416625],[-112.628378,36.421414],[-112.630796,36.423992],[-112.629299,36.425948],[-112.632059,36.427515],[-112.636887,36.425731],[-112.639965,36.429018],[-112.640616,36.432689],[-112.64432,36.435509],[-112.644223,36.438212],[-112.646807,36.439438],[-112.644011,36.440855],[-112.641489,36.439359],[-112.638966,36.440419],[-112.637387,36.442347],[-112.642417,36.4462],[-112.645239,36.446146],[-112.645428,36.448003],[-112.641884,36.448546],[-112.641754,36.452469],[-112.643159,36.457068],[-112.644791,36.457954],[-112.641654,36.460947],[-112.635537,36.463747],[-112.632919,36.462696],[-112.629694,36.464376],[-112.629433,36.466991],[-112.631221,36.468745],[-112.630512,36.471063],[-112.62464,36.473652],[-112.625625,36.480514],[-112.622898,36.481763],[-112.627386,36.486166],[-112.629699,36.486486],[-112.632591,36.485564],[-112.63615,36.48601],[-112.638571,36.487825],[-112.638392,36.490583],[-112.636113,36.490823],[-112.636634,36.494483],[-112.642295,36.496793],[-112.645507,36.496662],[-112.641704,36.500653],[-112.646868,36.502875],[-112.644797,36.506583],[-112.64583,36.508759],[-112.648041,36.51043],[-112.652173,36.510486],[-112.655512,36.513893],[-112.653374,36.519602],[-112.655435,36.521091],[-112.655414,36.524416],[-112.654228,36.526344],[-112.656318,36.52852],[-112.659129,36.529576],[-112.659516,36.532208],[-112.657493,36.535817],[-112.658139,36.53768],[-112.660405,36.539416],[-112.659492,36.541971],[-112.657728,36.543157],[-112.653445,36.543689],[-112.653213,36.54531],[-112.650589,36.550287],[-112.651555,36.55237],[-112.655055,36.552953],[-112.653964,36.557178],[-112.649025,36.559924],[-112.648275,36.563407],[-112.642089,36.565542],[-112.641618,36.567416],[-112.642147,36.571465],[-112.63501,36.570023],[-112.632284,36.571263],[-112.632283,36.573296],[-112.635244,36.576259],[-112.632825,36.577434],[-112.629576,36.576449],[-112.62663,36.581381],[-112.628662,36.588437],[-112.627046,36.590321],[-112.624339,36.590764],[-112.625554,36.593988],[-112.621291,36.596441],[-112.623092,36.598583],[-112.622637,36.600858],[-112.619961,36.603123],[-112.621373,36.604616],[-112.621737,36.608028],[-112.619068,36.611683],[-112.619815,36.614504],[-112.623406,36.617494],[-112.624256,36.621103],[-112.623536,36.624027],[-112.623746,36.627494],[-112.627081,36.630377],[-112.625326,36.633696],[-112.627356,36.636655],[-112.62751,36.639672],[-112.628918,36.644206],[-112.627639,36.648963],[-112.629936,36.65002],[-112.629696,36.652552],[-112.628113,36.653579],[-112.633393,36.659999],[-112.634937,36.666126],[-112.6346,36.670971],[-112.637858,36.673846],[-112.636676,36.677362],[-112.633367,36.678899],[-112.635048,36.685213],[-112.632099,36.68786],[-112.629197,36.691974],[-112.630442,36.696084],[-112.628728,36.698561],[-112.629387,36.703061],[-112.631051,36.70432],[-112.629603,36.706198],[-112.626682,36.706895],[-112.624237,36.710321],[-112.625572,36.712779],[-112.627646,36.714351],[-112.626429,36.716816],[-112.623643,36.71765],[-112.623201,36.719381],[-112.620349,36.720559],[-112.622291,36.725074],[-112.620574,36.728916],[-112.617284,36.729165],[-112.617197,36.731416],[-112.621102,36.734234],[-112.622148,36.736649],[-112.619464,36.738198],[-112.616368,36.736146],[-112.61236,36.737629],[-112.613754,36.739902],[-112.617959,36.742536],[-112.61733,36.743461],[-112.612804,36.744226],[-112.61588,36.749598],[-112.616487,36.753974],[-112.610506,36.753916],[-112.610494,36.756339],[-112.615022,36.757437],[-112.617054,36.763154],[-112.619082,36.763411],[-112.62065,36.768663],[-112.61753,36.770203],[-112.616467,36.772511],[-112.612228,36.775315],[-112.616839,36.776373],[-112.619262,36.783437],[-112.614968,36.786324],[-112.613883,36.788126],[-112.614096,36.790725],[-112.612098,36.795264],[-112.614059,36.796274],[-112.613391,36.798312],[-112.609211,36.799144],[-112.608721,36.801424],[-112.605577,36.799607],[-112.604277,36.808392],[-112.600465,36.807625],[-112.598428,36.808394],[-112.600131,36.810674],[-112.599292,36.813141],[-112.601016,36.816349],[-112.599945,36.819552],[-112.599612,36.824178],[-112.596607,36.826531],[-112.597634,36.830058],[-112.600392,36.831934],[-112.593635,36.832299],[-112.584777,36.847461],[-112.58716,36.85713],[-112.573114,36.872857],[-112.57152,36.892655],[-112.546522,36.916438],[-112.54497,36.938765],[-112.52931,36.952443],[-112.530978,36.96719],[-112.543774,36.982663],[-112.538594,37.000679],[-112.609798,37.000759],[-112.829514,37.00043],[-112.899202,37.000325],[-112.966483,37.000225],[-113.332666,37.000135],[-113.494896,37.000096],[-113.558079,37.000081],[-113.965919,36.999981],[-114.050612,37.000401],[-114.050007,36.957774],[-114.050631,36.843147]]]},"properties":{"shapeName":"Mohave","shapeISO":"52423323B36780146179485","shapeGroup":"USA","shapeType":"ADM2","src_shape_id":"52423323B36780146179485","adm1ISO":"US-AZ"}},
{"type":"Feature","geometry":{"type":"Polygon","coordinates":[[[-114.138293,34.303235],[-114.138178,34.300941],[-114.139545,34.295849],[-114.138376,34.288569],[-114.136061,34.280838],[-114.137056,34.277023],[-114.136682,34.274382],[-114.134779,34.26897],[-114.134623,34.263523],[-114.136196,34.261301],[-114.139066,34.259543],[-114.14717,34.259569],[-114.153357,34.258294],[-114.159708,34.258247],[-114.161837,34.257043],[-114.164487,34.251672],[-114.166547,34.249652],[-114.17313,34.247231],[-114.178061,34.239974],[-114.190887,34.230863],[-114.208264,34.21551],[-114.211772,34.211544],[-114.215465,34.208961],[-114.223395,34.205141],[-114.225872,34.201779],[-114.224952,34.193901],[-114.227045,34.188871],[-114.229726,34.186933],[-114.240723,34.183237],[-114.244202,34.17963],[-114.254152,34.173836],[-114.268278,34.170215],[-114.275278,34.172155],[-114.287305,34.170534],[-114.292817,34.16673],[-114.312217,34.144781],[-114.320788,34.13864],[-114.324588,34.136764],[-114.336124,34.13404],[-114.348064,34.134463],[-114.353043,34.133126],[-114.356385,34.130434],[-114.360414,34.123582],[-114.366533,34.11858],[-114.369309,34.117522],[-114.379246,34.115993],[-114.390577,34.110089],[-114.401364,34.111657],[-114.405953,34.111545],[-114.411693,34.110036],[-114.41592,34.107641],[-114.420511,34.103471],[-114.42618,34.097047],[-114.428038,34.092792],[-114.434193,34.087384],[-114.435441,34.079732],[-114.437695,34.071942],[-114.439352,34.057898],[-114.439418,34.053815],[-114.438614,34.05021],[-114.435516,34.04262],[-114.434961,34.037789],[-114.436183,34.028088],[-114.438278,34.022614],[-114.440552,34.019334],[-114.443833,34.016181],[-114.450218,34.012579],[-114.454819,34.010973],[-114.458918,34.01084],[-114.462842,34.008426],[-114.462842,34.004502],[-114.460427,33.99922],[-114.460276,33.996654],[-114.462389,33.993786],[-114.467944,33.992882],[-114.47115,33.988045],[-114.475919,33.984429],[-114.481467,33.981266],[-114.484796,33.975524],[-114.495059,33.96684],[-114.499895,33.961794],[-114.50958,33.957269],[-114.515872,33.958111],[-114.522014,33.955628],[-114.528692,33.947822],[-114.53549,33.934656],[-114.534999,33.928504],[-114.533691,33.926077],[-114.525373,33.922277],[-114.518446,33.917523],[-114.511523,33.911097],[-114.50857,33.906103],[-114.507932,33.903812],[-114.50872,33.900645],[-114.513727,33.897964],[-114.51782,33.894894],[-114.518753,33.893213],[-114.518567,33.889852],[-114.516513,33.885931],[-114.504352,33.876887],[-114.503407,33.875023],[-114.503029,33.868003],[-114.50565,33.864281],[-114.514685,33.858643],[-114.516823,33.858125],[-114.524542,33.858482],[-114.526783,33.857362],[-114.528463,33.854934],[-114.529397,33.85176],[-114.529609,33.848068],[-114.525551,33.838619],[-114.523421,33.835328],[-114.520477,33.827783],[-114.519982,33.825386],[-114.520745,33.822036],[-114.522726,33.818984],[-114.527173,33.816196],[-114.528062,33.814968],[-114.520106,33.799478],[-114.516746,33.78835],[-114.507101,33.767935],[-114.504875,33.76047],[-114.504352,33.756386],[-114.504495,33.751003],[-114.506012,33.746349],[-114.508218,33.741592],[-114.51236,33.734219],[-114.510277,33.732151],[-114.506811,33.730523],[-114.504188,33.72806],[-114.502673,33.724589],[-114.5008,33.722209],[-114.496576,33.71916],[-114.494912,33.714435],[-114.494208,33.707927],[-114.49573,33.698459],[-114.4965,33.696906],[-114.505004,33.693027],[-114.512421,33.691287],[-114.519125,33.688478],[-114.523971,33.685884],[-114.527794,33.682689],[-114.53036,33.67925],[-114.531535,33.675113],[-114.531011,33.671107],[-114.529718,33.668036],[-114.525213,33.661588],[-114.525212,33.658097],[-114.530256,33.650145],[-114.530061,33.647624],[-114.526958,33.637539],[-114.526958,33.633078],[-114.529867,33.627453],[-114.529673,33.622799],[-114.527949,33.618844],[-114.52463,33.614265],[-114.524824,33.611356],[-114.529197,33.606655],[-114.540628,33.591417],[-114.540311,33.58062],[-114.535976,33.569159],[-114.526845,33.557471],[-114.524402,33.553688],[-114.52461,33.552236],[-114.542022,33.542486],[-114.558909,33.531824],[-114.560846,33.524339],[-114.560563,33.518277],[-114.560974,33.516744],[-114.569544,33.509224],[-114.573768,33.507548],[-114.580479,33.50647],[-114.58825,33.502458],[-114.591566,33.499448],[-114.597295,33.490658],[-114.599725,33.48432],[-114.601708,33.481399],[-114.607855,33.474839],[-114.612484,33.470773],[-114.62293,33.456566],[-114.623407,33.454495],[-114.622295,33.447563],[-114.627137,33.433559],[-114.629652,33.428143],[-114.635195,33.422731],[-114.643314,33.41675],[-114.649552,33.413638],[-114.65284,33.412927],[-114.658394,33.413041],[-114.673913,33.418304],[-114.687965,33.417949],[-114.695667,33.415132],[-114.697719,33.410947],[-114.701744,33.408393],[-114.71089,33.407259],[-114.720077,33.407896],[-114.723841,33.406536],[-114.725294,33.405053],[-114.725304,33.402347],[-114.722884,33.398784],[-114.713614,33.388262],[-114.70842,33.384152],[-114.707021,33.380639],[-114.70736,33.376633],[-114.699065,33.361153],[-114.698182,33.35658],[-114.698047,33.352447],[-114.70095,33.337019],[-114.705253,33.327772],[-114.707974,33.323426],[-114.710804,33.320612],[-114.723635,33.312115],[-114.729916,33.30575],[-114.731235,33.302439],[-114.723271,33.288084],[-114.717887,33.285162],[-114.711209,33.283347],[-114.702885,33.281921],[-114.694461,33.279791],[-114.684375,33.27603],[-114.680518,33.273582],[-114.677043,33.270175],[-114.672412,33.260475],[-114.672099,33.258504],[-114.674502,33.255602],[-114.688216,33.247971],[-114.689432,33.245255],[-114.682742,33.234923],[-114.678108,33.230305],[-114.67449,33.225509],[-114.673637,33.223126],[-114.673726,33.21925],[-114.676083,33.21084],[-114.67876,33.203453],[-114.678189,33.199589],[-114.675201,33.188184],[-114.675842,33.181525],[-114.679045,33.174743],[-114.680259,33.169722],[-114.67874,33.162953],[-114.67937,33.159524],[-114.682264,33.155219],[-114.6845,33.148126],[-114.687085,33.142201],[-114.690006,33.137888],[-114.69684,33.131214],[-114.703693,33.113774],[-114.706186,33.10534],[-114.707907,33.097437],[-114.70783,33.091107],[-114.706499,33.088165],[-114.701176,33.086373],[-114.694639,33.086231],[-114.689031,33.084041],[-114.689131,33.076127],[-114.687002,33.070974],[-114.674307,33.057176],[-114.675115,33.047537],[-114.67367,33.041902],[-114.670814,33.037989],[-114.665071,33.033913],[-114.662328,33.032676],[-114.659843,33.03267],[-114.657838,33.03383],[-114.655049,33.037112],[-114.649012,33.046768],[-114.645991,33.048908],[-114.641633,33.046901],[-114.639564,33.045296],[-114.634201,33.03903],[-114.628304,33.031057],[-114.625798,33.029441],[-114.618799,33.027207],[-114.601025,33.025415],[-114.589789,33.026233],[-114.584776,33.028236],[-114.581415,33.03255],[-114.578298,33.03538],[-114.575172,33.036547],[-114.571664,33.036629],[-114.5532,33.033979],[-114.53847,33.033427],[-114.523589,33.030966],[-114.520141,33.029989],[-114.516495,33.027577],[-114.371142,33.027518],[-114.339164,33.030002],[-114.268759,33.02982],[-114.267826,33.463579],[-113.958053,33.46466],[-113.958057,33.377583],[-113.333931,33.37743],[-113.333342,33.566294],[-113.333764,33.999232],[-113.333324,34.000032],[-113.333519,34.317882],[-113.336387,34.317506],[-113.342595,34.314529],[-113.345848,34.308667],[-113.361604,34.294298],[-113.392101,34.297982],[-113.407653,34.296301],[-113.412476,34.294475],[-113.415434,34.295355],[-113.420632,34.299138],[-113.431948,34.300934],[-113.441831,34.299757],[-113.451673,34.299946],[-113.461506,34.302442],[-113.471515,34.301836],[-113.479372,34.303967],[-113.493053,34.303544],[-113.500761,34.302815],[-113.511507,34.305074],[-113.516401,34.309996],[-113.51899,34.310723],[-113.522277,34.308985],[-113.525447,34.310006],[-113.530293,34.310269],[-113.539535,34.306382],[-113.552441,34.288409],[-113.563466,34.277997],[-113.568616,34.274706],[-113.570504,34.268679],[-113.582791,34.258655],[-113.586728,34.243449],[-113.593707,34.238899],[-113.605056,34.229534],[-113.608015,34.231617],[-113.612405,34.230622],[-113.616668,34.227668],[-113.621702,34.227818],[-113.627518,34.228718],[-113.633129,34.224947],[-113.639215,34.223983],[-113.640289,34.226808],[-113.641693,34.227616],[-113.644445,34.225801],[-113.643817,34.223373],[-113.645161,34.22128],[-113.649101,34.221721],[-113.65505,34.216605],[-113.659498,34.216828],[-113.663743,34.212313],[-113.666114,34.213547],[-113.675505,34.212897],[-113.680193,34.210034],[-113.692085,34.210433],[-113.702625,34.210196],[-113.709063,34.215968],[-113.713585,34.217458],[-113.714955,34.218745],[-113.715589,34.221759],[-113.721384,34.222597],[-113.722965,34.223353],[-113.724298,34.227943],[-113.727606,34.234601],[-113.738062,34.240562],[-113.751536,34.238159],[-113.758931,34.236094],[-113.76351,34.233638],[-113.76993,34.231937],[-113.773907,34.229424],[-113.777201,34.228886],[-113.785993,34.232196],[-113.791889,34.235267],[-113.800811,34.23622],[-113.8033,34.235737],[-113.807801,34.233119],[-113.812596,34.232501],[-113.817383,34.234848],[-113.819215,34.232828],[-113.820537,34.228042],[-113.825539,34.225419],[-113.832834,34.223532],[-113.836828,34.223805],[-113.84031,34.227645],[-113.843125,34.23408],[-113.849849,34.243893],[-113.851243,34.249887],[-113.85293,34.251991],[-113.858923,34.253511],[-113.866349,34.254358],[-113.875404,34.254488],[-113.879943,34.25236],[-113.89336,34.249262],[-113.899222,34.248656],[-113.907691,34.248553],[-113.922136,34.249388],[-113.926663,34.249354],[-113.932284,34.250603],[-113.943256,34.25566],[-113.950806,34.257146],[-113.968394,34.257928],[-113.982928,34.256256],[-113.988483,34.254977],[-113.999528,34.254912],[-114.00312,34.253703],[-114.007518,34.254524],[-114.011535,34.256067],[-114.017842,34.263879],[-114.01998,34.26598],[-114.024221,34.268147],[-114.026343,34.266152],[-114.027033,34.263687],[-114.031978,34.259544],[-114.036743,34.260611],[-114.037271,34.263172],[-114.04645,34.269572],[-114.048898,34.274493],[-114.052434,34.277742],[-114.057062,34.279181],[-114.066811,34.288576],[-114.073355,34.291846],[-114.07899,34.292071],[-114.086572,34.297847],[-114.101919,34.298731],[-114.114373,34.295394],[-114.134251,34.304184],[-114.138293,34.303235]]]},"properties":{"shapeName":"La Paz","shapeISO":"52423323B41781381522782","shapeGroup":"USA","shapeType":"ADM2","src_shape_id":"52423323B41781381522782","adm1ISO":"US-AZ"}},
{"type":"Feature","geometry":{"type":"Polygon","coordinates":[[[-113.334172,35.528042],[-113.299282,35.530984],[-113.262201,35.529631],[-113.218807,35.508877],[-113.199145,35.510974],[-113.174469,35.50645],[-113.157967,35.495999],[-113.148066,35.4786],[-113.086062,35.453002],[-112.975866,35.392909],[-112.961403,35.376751],[-112.953421,35.356115],[-112.9448,35.352608],[-112.880984,35.342076],[-112.796941,35.322956],[-112.754849,35.306306],[-112.734655,35.305059],[-112.694857,35.311591],[-112.676384,35.306727],[-112.655468,35.291914],[-112.630965,35.299967],[-112.618767,35.289966],[-112.620628,35.274866],[-112.604008,35.269229],[-112.57741,35.243399],[-112.541816,35.236343],[-112.499647,35.242669],[-112.472711,35.238317],[-112.440762,35.260473],[-112.442638,35.221753],[-112.442311,35.149413],[-112.335727,35.148284],[-112.334547,34.973029],[-112.021951,34.974093],[-112.008081,34.975903],[-111.809037,34.9763],[-111.777826,34.98101],[-111.780011,34.818197],[-111.777921,34.803323],[-111.685599,34.803408],[-111.552117,34.802525],[-111.552075,34.636413],[-111.553398,34.636418],[-111.553148,34.500042],[-111.554692,34.471738],[-111.548796,34.460877],[-111.521402,34.477823],[-111.524573,34.494973],[-111.501735,34.497942],[-111.513665,34.491935],[-111.512456,34.467841],[-111.537772,34.459291],[-111.527535,34.454639],[-111.508976,34.454666],[-111.485905,34.463787],[-111.471385,34.457033],[-111.508202,34.440964],[-111.517668,34.430397],[-111.550164,34.418804],[-111.537559,34.412508],[-111.51243,34.415665],[-111.499486,34.427437],[-111.467477,34.437764],[-111.480628,34.419551],[-111.464286,34.40924],[-111.460124,34.425155],[-111.444084,34.43283],[-111.435645,34.446108],[-111.404017,34.445018],[-111.40526,34.428512],[-111.423077,34.43723],[-111.422398,34.408238],[-111.426865,34.385998],[-111.400343,34.378898],[-111.386432,34.397806],[-111.403408,34.397758],[-111.39724,34.426067],[-111.388173,34.424612],[-111.371684,34.439636],[-111.351892,34.441002],[-111.354074,34.424613],[-111.324314,34.422599],[-111.306811,34.434113],[-111.261471,34.443687],[-111.250313,34.453279],[-111.23991,34.431441],[-111.222164,34.425653],[-111.209582,34.408362],[-111.184708,34.409997],[-111.152077,34.394265],[-111.147105,34.37519],[-111.128747,34.390372],[-111.118349,34.383046],[-111.096672,34.396436],[-111.039743,34.373297],[-111.056709,34.353085],[-111.033187,34.340939],[-111.025888,34.353826],[-111.032764,34.363852],[-111.003775,34.356782],[-110.997322,34.344132],[-110.975873,34.336842],[-110.958874,34.314474],[-110.946109,34.317285],[-110.90763,34.300769],[-110.896932,34.302452],[-110.877422,34.275814],[-110.847569,34.265643],[-110.825952,34.275801],[-110.837582,34.280759],[-110.820317,34.288113],[-110.84592,34.307141],[-110.81104,34.295697],[-110.788089,34.309065],[-110.783122,34.299866],[-110.76127,34.287877],[-110.757897,34.279341],[-110.761767,34.276162],[-110.762356,34.272995],[-110.766712,34.269002],[-110.767349,34.267318],[-110.766543,34.261667],[-110.766827,34.258983],[-110.750689,34.263319],[-110.750689,34.281914],[-110.750697,34.718215],[-110.750697,34.72076],[-110.750703,35.064873],[-110.750707,36.713131],[-110.750701,37.003203],[-111.066507,37.002395],[-111.133729,37.000785],[-111.254864,37.001083],[-111.278297,37.000471],[-111.350208,37.001054],[-111.405528,37.001503],[-111.412795,37.001483],[-112.357701,37.001031],[-112.368957,37.001131],[-112.538594,37.000679],[-112.543774,36.982663],[-112.530978,36.96719],[-112.52931,36.952443],[-112.54497,36.938765],[-112.546522,36.916438],[-112.57152,36.892655],[-112.573114,36.872857],[-112.58716,36.85713],[-112.584777,36.847461],[-112.593635,36.832299],[-112.600392,36.831934],[-112.597634,36.830058],[-112.596607,36.826531],[-112.599612,36.824178],[-112.599945,36.819552],[-112.601016,36.816349],[-112.599292,36.813141],[-112.600131,36.810674],[-112.598428,36.808394],[-112.600465,36.807625],[-112.604277,36.808392],[-112.605577,36.799607],[-112.608721,36.801424],[-112.609211,36.799144],[-112.613391,36.798312],[-112.614059,36.796274],[-112.612098,36.795264],[-112.614096,36.790725],[-112.613883,36.788126],[-112.614968,36.786324],[-112.619262,36.783437],[-112.616839,36.776373],[-112.612228,36.775315],[-112.616467,36.772511],[-112.61753,36.770203],[-112.62065,36.768663],[-112.619082,36.763411],[-112.617054,36.763154],[-112.615022,36.757437],[-112.610494,36.756339],[-112.610506,36.753916],[-112.616487,36.753974],[-112.61588,36.749598],[-112.612804,36.744226],[-112.61733,36.743461],[-112.617959,36.742536],[-112.613754,36.739902],[-112.61236,36.737629],[-112.616368,36.736146],[-112.619464,36.738198],[-112.622148,36.736649],[-112.621102,36.734234],[-112.617197,36.731416],[-112.617284,36.729165],[-112.620574,36.728916],[-112.622291,36.725074],[-112.620349,36.720559],[-112.623201,36.719381],[-112.623643,36.71765],[-112.626429,36.716816],[-112.627646,36.714351],[-112.625572,36.712779],[-112.624237,36.710321],[-112.626682,36.706895],[-112.629603,36.706198],[-112.631051,36.70432],[-112.629387,36.703061],[-112.628728,36.698561],[-112.630442,36.696084],[-112.629197,36.691974],[-112.632099,36.68786],[-112.635048,36.685213],[-112.633367,36.678899],[-112.636676,36.677362],[-112.637858,36.673846],[-112.6346,36.670971],[-112.634937,36.666126],[-112.633393,36.659999],[-112.628113,36.653579],[-112.629696,36.652552],[-112.629936,36.65002],[-112.627639,36.648963],[-112.628918,36.644206],[-112.62751,36.639672],[-112.627356,36.636655],[-112.625326,36.633696],[-112.627081,36.630377],[-112.623746,36.627494],[-112.623536,36.624027],[-112.624256,36.621103],[-112.623406,36.617494],[-112.619815,36.614504],[-112.619068,36.611683],[-112.621737,36.608028],[-112.621373,36.604616],[-112.619961,36.603123],[-112.622637,36.600858],[-112.623092,36.598583],[-112.621291,36.596441],[-112.625554,36.593988],[-112.624339,36.590764],[-112.627046,36.590321],[-112.628662,36.588437],[-112.62663,36.581381],[-112.629576,36.576449],[-112.632825,36.577434],[-112.635244,36.576259],[-112.632283,36.573296],[-112.632284,36.571263],[-112.63501,36.570023],[-112.642147,36.571465],[-112.641618,36.567416],[-112.642089,36.565542],[-112.648275,36.563407],[-112.649025,36.559924],[-112.653964,36.557178],[-112.655055,36.552953],[-112.651555,36.55237],[-112.650589,36.550287],[-112.653213,36.54531],[-112.653445,36.543689],[-112.657728,36.543157],[-112.659492,36.541971],[-112.660405,36.539416],[-112.658139,36.53768],[-112.657493,36.535817],[-112.659516,36.532208],[-112.659129,36.529576],[-112.656318,36.52852],[-112.654228,36.526344],[-112.655414,36.524416],[-112.655435,36.521091],[-112.653374,36.519602],[-112.655512,36.513893],[-112.652173,36.510486],[-112.648041,36.51043],[-112.64583,36.508759],[-112.644797,36.506583],[-112.646868,36.502875],[-112.641704,36.500653],[-112.645507,36.496662],[-112.642295,36.496793],[-112.636634,36.494483],[-112.636113,36.490823],[-112.638392,36.490583],[-112.638571,36.487825],[-112.63615,36.48601],[-112.632591,36.485564],[-112.629699,36.486486],[-112.627386,36.486166],[-112.622898,36.481763],[-112.625625,36.480514],[-112.62464,36.473652],[-112.630512,36.471063],[-112.631221,36.468745],[-112.629433,36.466991],[-112.629694,36.464376],[-112.632919,36.462696],[-112.635537,36.463747],[-112.641654,36.460947],[-112.644791,36.457954],[-112.643159,36.457068],[-112.641754,36.452469],[-112.641884,36.448546],[-112.645428,36.448003],[-112.645239,36.446146],[-112.642417,36.4462],[-112.637387,36.442347],[-112.638966,36.440419],[-112.641489,36.439359],[-112.644011,36.440855],[-112.646807,36.439438],[-112.644223,36.438212],[-112.64432,36.435509],[-112.640616,36.432689],[-112.639965,36.429018],[-112.636887,36.425731],[-112.632059,36.427515],[-112.629299,36.425948],[-112.630796,36.423992],[-112.628378,36.421414],[-112.626575,36.416625],[-112.624427,36.413746],[-112.62569,36.412345],[-112.624111,36.410246],[-112.625135,36.406707],[-112.629907,36.403047],[-112.631478,36.399746],[-112.630448,36.397954],[-112.631875,36.395716],[-112.630444,36.393584],[-112.631575,36.391352],[-112.634385,36.390771],[-112.649931,36.371955],[-112.652591,36.362859],[-112.662412,36.351877],[-112.673537,36.344049],[-112.67948,36.341948],[-112.687143,36.348085],[-112.691588,36.354807],[-112.695602,36.35534],[-112.70191,36.35415],[-112.708957,36.351088],[-112.719095,36.348031],[-112.72622,36.339641],[-112.72247,36.330556],[-112.720146,36.32402],[-112.731805,36.317767],[-112.745038,36.323515],[-112.75076,36.325454],[-112.758724,36.320726],[-112.760676,36.312645],[-112.76353,36.308048],[-112.771726,36.303114],[-112.786842,36.301466],[-112.78914,36.297476],[-112.789098,36.290931],[-112.796348,36.283851],[-112.804013,36.285837],[-112.809999,36.287883],[-112.818838,36.288677],[-112.826866,36.287832],[-112.832506,36.284951],[-112.840878,36.27725],[-112.851659,36.27846],[-112.866431,36.28251],[-112.873562,36.279967],[-112.876036,36.278336],[-112.879549,36.273975],[-112.88284,36.265482],[-112.891295,36.258852],[-112.897227,36.255439],[-112.904952,36.254375],[-112.916087,36.258198],[-112.92438,36.257085],[-112.927895,36.251823],[-112.932012,36.244425],[-112.939376,36.241601],[-112.955317,36.238445],[-112.970072,36.23449],[-112.981221,36.231774],[-112.987974,36.232376],[-113.005801,36.23851],[-113.012833,36.238478],[-113.019122,36.23671],[-113.023835,36.233915],[-113.031368,36.230671],[-113.036417,36.228077],[-113.043229,36.22163],[-113.050893,36.21166],[-113.053361,36.20908],[-113.072666,36.202879],[-113.081922,36.198104],[-113.093219,36.194231],[-113.106801,36.18712],[-113.115364,36.182186],[-113.119739,36.175608],[-113.125811,36.170515],[-113.133654,36.16766],[-113.137718,36.166594],[-113.145643,36.172828],[-113.157365,36.17413],[-113.165696,36.16976],[-113.167723,36.165928],[-113.176508,36.160686],[-113.187201,36.157061],[-113.20029,36.150459],[-113.200708,36.145652],[-113.202641,36.141154],[-113.205288,36.133137],[-113.202039,36.121207],[-113.205391,36.115195],[-113.212726,36.110252],[-113.216711,36.104993],[-113.221486,36.096746],[-113.222898,36.092977],[-113.232915,36.089953],[-113.24262,36.09271],[-113.250898,36.091411],[-113.253599,36.089641],[-113.258784,36.089328],[-113.261961,36.090996],[-113.268269,36.092318],[-113.279258,36.097341],[-113.296411,36.095816],[-113.308837,36.099563],[-113.323167,36.09163],[-113.326184,36.078429],[-113.331976,36.067204],[-113.341395,36.060255],[-113.347451,36.055044],[-113.350348,36.05047],[-113.351518,36.033261],[-113.350186,36.021378],[-113.34878,36.016879],[-113.343089,36.008776],[-113.340036,35.999375],[-113.34139,35.991338],[-113.339788,35.985155],[-113.335087,35.980084],[-113.321513,35.975674],[-113.319047,35.97288],[-113.317315,35.968458],[-113.318684,35.966934],[-113.317208,35.961536],[-113.323963,35.955966],[-113.328702,35.949034],[-113.325366,35.937846],[-113.328478,35.927814],[-113.33014,35.924004],[-113.334152,35.918724],[-113.334431,35.913138],[-113.328233,35.908112],[-113.324296,35.90295],[-113.322622,35.898568],[-113.316423,35.895593],[-113.309913,35.883495],[-113.312257,35.869881],[-113.311105,35.861776],[-113.313208,35.8577],[-113.321659,35.848239],[-113.327084,35.837867],[-113.327116,35.833685],[-113.325811,35.830141],[-113.333114,35.820434],[-113.331775,35.816192],[-113.333164,35.805374],[-113.334035,35.803036],[-113.334172,35.528042]]]},"properties":{"shapeName":"Coconino","shapeISO":"52423323B62960071172507","shapeGroup":"USA","shapeType":"ADM2","src_shape_id":"52423323B62960071172507","adm1ISO":"US-AZ"}},
{"type":"Feature","geometry":{"type":"Polygon","coordinates":[[[-111.554692,34.471738],[-111.55461,34.439389],[-111.581229,34.419714],[-111.604818,34.416208],[-111.618082,34.401334],[-111.659655,34.386256],[-111.656948,34.368397],[-111.667273,34.348258],[-111.662444,34.324647],[-111.66788,34.308195],[-111.674423,34.306168],[-111.684586,34.297492],[-111.675827,34.289388],[-111.663533,34.294918],[-111.665784,34.285572],[-111.683491,34.282961],[-111.677453,34.270111],[-111.699869,34.240259],[-111.704839,34.212209],[-111.690197,34.200006],[-111.694981,34.181208],[-111.720581,34.161434],[-111.712129,34.151276],[-111.477864,34.151113],[-111.493659,34.133983],[-111.481991,34.131592],[-111.471383,34.111545],[-111.48592,34.095012],[-111.464402,34.072665],[-111.473482,34.041308],[-111.493252,34.038106],[-111.494789,33.999822],[-111.466543,34.005948],[-111.44509,34.001181],[-111.433282,33.983326],[-111.452936,33.962209],[-111.4474,33.94174],[-111.450915,33.919882],[-111.437498,33.916179],[-111.42576,33.926104],[-111.405367,33.919587],[-111.412342,33.88473],[-111.397734,33.877828],[-111.38747,33.862962],[-111.395798,33.844281],[-111.372328,33.823929],[-111.387923,33.803219],[-111.379816,33.795741],[-111.389455,33.776668],[-111.386823,33.750049],[-111.359356,33.740975],[-111.338136,33.718681],[-111.331405,33.688343],[-111.313822,33.680475],[-111.286501,33.65738],[-111.261741,33.622576],[-111.249549,33.624336],[-111.222066,33.602451],[-111.207464,33.620577],[-111.209455,33.633504],[-111.18063,33.659797],[-111.153365,33.677611],[-111.05838,33.500056],[-111.039987,33.466024],[-110.974717,33.3421],[-110.955508,33.279144],[-110.946695,33.250058],[-110.7807,32.983678],[-110.766397,32.985359],[-110.765117,33.002864],[-110.746601,33.010837],[-110.729355,33.02731],[-110.716837,33.052824],[-110.725594,33.069901],[-110.706234,33.083736],[-110.693345,33.077057],[-110.683297,33.088123],[-110.677904,33.11137],[-110.656788,33.113545],[-110.63254,33.142776],[-110.611271,33.143126],[-110.59347,33.133931],[-110.579456,33.147137],[-110.549714,33.153099],[-110.545968,33.168769],[-110.534334,33.167718],[-110.504744,33.186253],[-110.463305,33.183345],[-110.449032,33.194531],[-110.444705,33.189357],[-110.434423,33.188582],[-110.427989,33.191617],[-110.420133,33.192357],[-110.413889,33.191782],[-110.407247,33.193487],[-110.405835,33.197236],[-110.408212,33.204208],[-110.420115,33.220922],[-110.424914,33.231884],[-110.438926,33.253056],[-110.444631,33.257517],[-110.444201,33.262509],[-110.449017,33.266561],[-110.448841,33.271939],[-110.451761,33.279802],[-110.454983,33.282333],[-110.453609,33.286185],[-110.454939,33.291156],[-110.457021,33.291425],[-110.457446,33.294983],[-110.449669,33.297782],[-110.448046,33.301801],[-110.448904,33.303038],[-110.449115,33.312974],[-110.450399,33.317714],[-110.44653,33.32347],[-110.44731,33.336106],[-110.448343,33.342281],[-110.448045,33.346329],[-110.445103,33.35054],[-110.447141,33.355443],[-110.44988,33.358578],[-110.451683,33.363274],[-110.447627,33.36594],[-110.443095,33.367873],[-110.442488,33.37028],[-110.442993,33.377381],[-110.436425,33.384523],[-110.429987,33.387447],[-110.424842,33.387145],[-110.421794,33.385973],[-110.418261,33.388876],[-110.417087,33.393241],[-110.41428,33.398354],[-110.410871,33.400322],[-110.407121,33.399886],[-110.398441,33.4021],[-110.389145,33.403004],[-110.386863,33.40557],[-110.382719,33.405661],[-110.378736,33.402433],[-110.369268,33.398388],[-110.366555,33.399418],[-110.359902,33.399926],[-110.354017,33.404074],[-110.351154,33.408567],[-110.349352,33.408688],[-110.346784,33.413246],[-110.346608,33.4178],[-110.34107,33.422194],[-110.341202,33.426934],[-110.334396,33.42809],[-110.326882,33.428409],[-110.319768,33.43299],[-110.310443,33.431538],[-110.304023,33.430944],[-110.297905,33.428904],[-110.290364,33.430788],[-110.275593,33.440736],[-110.270891,33.439562],[-110.261076,33.436393],[-110.24094,33.440159],[-110.23507,33.440128],[-110.231609,33.442588],[-110.224001,33.440468],[-110.220144,33.438814],[-110.213573,33.43776],[-110.211777,33.440383],[-110.208196,33.441136],[-110.206294,33.439377],[-110.201408,33.440133],[-110.197848,33.443045],[-110.193322,33.442199],[-110.191814,33.444558],[-110.193251,33.447312],[-110.18786,33.450386],[-110.186331,33.448758],[-110.182488,33.448978],[-110.18031,33.44984],[-110.174099,33.450077],[-110.169179,33.454821],[-110.169251,33.45895],[-110.143513,33.465758],[-110.12566,33.465741],[-110.079147,33.466186],[-110.056565,33.466135],[-110.000658,33.488323],[-110.00066,33.576935],[-110.000671,34.000051],[-110.750683,34.000053],[-110.750689,34.263319],[-110.766827,34.258983],[-110.766543,34.261667],[-110.767349,34.267318],[-110.766712,34.269002],[-110.762356,34.272995],[-110.761767,34.276162],[-110.757897,34.279341],[-110.76127,34.287877],[-110.783122,34.299866],[-110.788089,34.309065],[-110.81104,34.295697],[-110.84592,34.307141],[-110.820317,34.288113],[-110.837582,34.280759],[-110.825952,34.275801],[-110.847569,34.265643],[-110.877422,34.275814],[-110.896932,34.302452],[-110.90763,34.300769],[-110.946109,34.317285],[-110.958874,34.314474],[-110.975873,34.336842],[-110.997322,34.344132],[-111.003775,34.356782],[-111.032764,34.363852],[-111.025888,34.353826],[-111.033187,34.340939],[-111.056709,34.353085],[-111.039743,34.373297],[-111.096672,34.396436],[-111.118349,34.383046],[-111.128747,34.390372],[-111.147105,34.37519],[-111.152077,34.394265],[-111.184708,34.409997],[-111.209582,34.408362],[-111.222164,34.425653],[-111.23991,34.431441],[-111.250313,34.453279],[-111.261471,34.443687],[-111.306811,34.434113],[-111.324314,34.422599],[-111.354074,34.424613],[-111.351892,34.441002],[-111.371684,34.439636],[-111.388173,34.424612],[-111.39724,34.426067],[-111.403408,34.397758],[-111.386432,34.397806],[-111.400343,34.378898],[-111.426865,34.385998],[-111.422398,34.408238],[-111.423077,34.43723],[-111.40526,34.428512],[-111.404017,34.445018],[-111.435645,34.446108],[-111.444084,34.43283],[-111.460124,34.425155],[-111.464286,34.40924],[-111.480628,34.419551],[-111.467477,34.437764],[-111.499486,34.427437],[-111.51243,34.415665],[-111.537559,34.412508],[-111.550164,34.418804],[-111.517668,34.430397],[-111.508202,34.440964],[-111.471385,34.457033],[-111.485905,34.463787],[-111.508976,34.454666],[-111.527535,34.454639],[-111.537772,34.459291],[-111.512456,34.467841],[-111.513665,34.491935],[-111.501735,34.497942],[-111.524573,34.494973],[-111.521402,34.477823],[-111.548796,34.460877],[-111.554692,34.471738]]]},"properties":{"shapeName":"Gila","shapeISO":"52423323B99315051552268","shapeGroup":"USA","shapeType":"ADM2","src_shape_id":"52423323B99315051552268","adm1ISO":"US-AZ"}},
{"type":"Feature","geometry":{"type":"Polygon","coordinates":[[[-113.333908,32.504943],[-113.333778,32.038767],[-113.217319,32.002112],[-113.125972,31.972785],[-112.867085,31.895493],[-112.399431,31.751762],[-112.375769,31.743993],[-112.365054,31.741135],[-112.246113,31.7042],[-111.979428,31.620688],[-111.623126,31.508036],[-111.560205,31.488143],[-111.366583,31.426137],[-111.366624,31.521296],[-111.163736,31.521831],[-111.164194,31.725988],[-111.058051,31.726235],[-110.855604,31.726658],[-110.855643,31.731701],[-110.451747,31.731272],[-110.447701,32.250078],[-110.451027,32.253804],[-110.451514,32.427359],[-110.451229,32.514],[-110.635469,32.5138],[-110.785673,32.513842],[-110.845108,32.513871],[-110.858731,32.511228],[-111.157504,32.51126],[-111.157573,32.50166],[-111.351542,32.50136],[-111.569267,32.506774],[-111.794574,32.506771],[-112.20373,32.506765],[-112.497411,32.505423],[-113.333908,32.504943]]]},"properties":{"shapeName":"Pima","shapeISO":"52423323B72402136661240","shapeGroup":"USA","shapeType":"ADM2","src_shape_id":"52423323B72402136661240","adm1ISO":"US-AZ"}},
{"type":"Feature","geometry":{"type":"Polygon","coordinates":[[[-109.046952,33.778231],[-109.347978,33.777461],[-109.362768,33.752147],[-109.364631,33.738761],[-109.352985,33.724916],[-109.378482,33.724646],[-109.412482,33.708449],[-109.441793,33.713057],[-109.461749,33.696417],[-109.480146,33.691415],[-109.481711,33.654841],[-109.495451,33.652702],[-109.49575,33.078414],[-109.333435,32.843271],[-109.318159,32.842784],[-109.252377,32.750244],[-109.245015,32.74199],[-109.213839,32.680666],[-109.212969,32.653634],[-109.206259,32.635808],[-109.219495,32.601694],[-109.211275,32.584298],[-109.225963,32.543036],[-109.22608,32.529101],[-109.113997,32.426182],[-109.047622,32.426382],[-109.047658,32.647053],[-109.047648,32.693444],[-109.047128,32.777799],[-109.04749,33.068425],[-109.046915,33.091936],[-109.047023,33.092922],[-109.047126,33.138],[-109.047247,33.2089],[-109.04748,33.250068],[-109.046837,33.365277],[-109.047055,33.369285],[-109.046574,33.375065],[-109.047308,33.409788],[-109.046672,33.62506],[-109.047155,33.740015],[-109.046952,33.778231]]]},"properties":{"shapeName":"Greenlee","shapeISO":"52423323B93647130667122","shapeGroup":"USA","shapeType":"ADM2","src_shape_id":"52423323B93647130667122","adm1ISO":"US-AZ"}},
{"type":"Feature","geometry":{"type":"Polygon","coordinates":[[[-110.750701,37.003203],[-110.750707,36.713131],[-110.750703,35.064873],[-110.750697,34.72076],[-110.750697,34.718215],[-110.750689,34.281914],[-110.750689,34.263319],[-110.750683,34.000053],[-110.000671,34.000051],[-110.00066,33.576935],[-109.995978,33.582265],[-109.96112,33.579581],[-109.923342,33.567519],[-109.916044,33.574873],[-109.89177,33.567834],[-109.891777,33.777782],[-109.859285,33.777688],[-109.859404,34.125996],[-109.849398,34.12595],[-109.848695,34.283927],[-109.848257,34.47344],[-109.849036,34.488277],[-109.865242,34.559694],[-109.850519,34.647306],[-109.851812,34.822524],[-109.844635,34.822567],[-109.843674,34.966247],[-109.843707,35.170407],[-109.843775,35.517881],[-109.826904,35.51788],[-109.826947,35.66249],[-110.000685,35.662663],[-110.000693,36.997987],[-110.000887,36.998508],[-110.021789,36.998608],[-110.470201,36.998003],[-110.490919,37.003572],[-110.500701,37.004266],[-110.599523,37.003454],[-110.625616,37.003422],[-110.625701,37.003727],[-110.750701,37.003203]]]},"properties":{"shapeName":"Navajo","shapeISO":"52423323B83526967033235","shapeGroup":"USA","shapeType":"ADM2","src_shape_id":"52423323B83526967033235","adm1ISO":"US-AZ"}},
{"type":"Feature","geometry":{"type":"Polygon","coordinates":[[[-113.333519,34.317882],[-113.333324,34.000032],[-113.333764,33.999232],[-112.743962,33.999903],[-112.427942,33.920844],[-112.276051,33.882317],[-112.264436,33.899099],[-112.242973,33.905582],[-112.235539,33.91548],[-112.231907,33.936536],[-112.241273,33.941115],[-112.214493,33.968095],[-112.195669,33.974507],[-112.193385,33.990308],[-112.180402,34.005747],[-112.18325,34.011945],[-112.161756,34.019278],[-112.165361,34.033137],[-112.153658,34.040914],[-112.164769,34.048175],[-111.862008,34.015113],[-111.725321,33.999854],[-111.494789,33.999822],[-111.493252,34.038106],[-111.473482,34.041308],[-111.464402,34.072665],[-111.48592,34.095012],[-111.471383,34.111545],[-111.481991,34.131592],[-111.493659,34.133983],[-111.477864,34.151113],[-111.712129,34.151276],[-111.720581,34.161434],[-111.694981,34.181208],[-111.690197,34.200006],[-111.704839,34.212209],[-111.699869,34.240259],[-111.677453,34.270111],[-111.683491,34.282961],[-111.665784,34.285572],[-111.663533,34.294918],[-111.675827,34.289388],[-111.684586,34.297492],[-111.674423,34.306168],[-111.66788,34.308195],[-111.662444,34.324647],[-111.667273,34.348258],[-111.656948,34.368397],[-111.659655,34.386256],[-111.618082,34.401334],[-111.604818,34.416208],[-111.581229,34.419714],[-111.55461,34.439389],[-111.554692,34.471738],[-111.553148,34.500042],[-111.553398,34.636418],[-111.552075,34.636413],[-111.552117,34.802525],[-111.685599,34.803408],[-111.777921,34.803323],[-111.780011,34.818197],[-111.777826,34.98101],[-111.809037,34.9763],[-112.008081,34.975903],[-112.021951,34.974093],[-112.334547,34.973029],[-112.335727,35.148284],[-112.442311,35.149413],[-112.442638,35.221753],[-112.440762,35.260473],[-112.472711,35.238317],[-112.499647,35.242669],[-112.541816,35.236343],[-112.57741,35.243399],[-112.604008,35.269229],[-112.620628,35.274866],[-112.618767,35.289966],[-112.630965,35.299967],[-112.655468,35.291914],[-112.676384,35.306727],[-112.694857,35.311591],[-112.734655,35.305059],[-112.754849,35.306306],[-112.796941,35.322956],[-112.880984,35.342076],[-112.9448,35.352608],[-112.953421,35.356115],[-112.961403,35.376751],[-112.975866,35.392909],[-113.086062,35.453002],[-113.148066,35.4786],[-113.157967,35.495999],[-113.174469,35.50645],[-113.199145,35.510974],[-113.218807,35.508877],[-113.262201,35.529631],[-113.299282,35.530984],[-113.334172,35.528042],[-113.334116,35.508421],[-113.333529,34.748323],[-113.333519,34.317882]]]},"properties":{"shapeName":"Yavapai","shapeISO":"52423323B41142242539063","shapeGroup":"USA","shapeType":"ADM2","src_shape_id":"52423323B41142242539063","adm1ISO":"US-AZ"}},
{"type":"Feature","geometry":{"type":"Polygon","coordinates":[[[-114.516495,33.027577],[-114.511354,33.02346],[-114.506141,33.017015],[-114.502882,33.011158],[-114.499808,33.00391],[-114.497326,32.991479],[-114.495723,32.980081],[-114.494223,32.974267],[-114.492949,32.971786],[-114.49014,32.96989],[-114.488636,32.969951],[-114.481326,32.972069],[-114.480428,32.97367],[-114.476167,32.975173],[-114.470999,32.974065],[-114.46905,32.9723],[-114.467675,32.966866],[-114.467283,32.96068],[-114.467741,32.956328],[-114.470844,32.949338],[-114.474053,32.945155],[-114.478467,32.94056],[-114.480751,32.937032],[-114.480931,32.935257],[-114.479016,32.928296],[-114.476651,32.923633],[-114.473724,32.920599],[-114.464459,32.913134],[-114.46294,32.907949],[-114.463138,32.901889],[-114.465726,32.879425],[-114.465557,32.874814],[-114.468982,32.84516],[-114.475903,32.838699],[-114.494127,32.823293],[-114.510228,32.816422],[-114.5154,32.811444],[-114.519769,32.805681],[-114.522042,32.80168],[-114.52886,32.796312],[-114.53168,32.79119],[-114.531757,32.782508],[-114.532443,32.776928],[-114.531842,32.774269],[-114.528454,32.767281],[-114.526867,32.757099],[-114.539104,32.756954],[-114.614783,32.734094],[-114.615744,32.729432],[-114.618384,32.72825],[-114.632697,32.730851],[-114.658271,32.733804],[-114.667504,32.734231],[-114.678643,32.736619],[-114.684289,32.737542],[-114.68879,32.73768],[-114.698801,32.744851],[-114.701929,32.745553],[-114.705728,32.741586],[-114.714533,32.730395],[-114.715799,32.727763],[-114.717676,32.721659],[-114.719644,32.718768],[-114.722757,32.713076],[-114.730097,32.704303],[-114.730464,32.698848],[-114.764961,32.649396],[-114.782246,32.63022],[-114.797576,32.624583],[-114.809404,32.617124],[-114.799694,32.593626],[-114.814196,32.564793],[-114.795646,32.550961],[-114.811547,32.522839],[-114.812327,32.500059],[-114.814002,32.497236],[-114.813624,32.494282],[-114.500791,32.400062],[-114.250786,32.323915],[-113.781691,32.179039],[-113.750767,32.16901],[-113.493207,32.088948],[-113.333778,32.038767],[-113.333908,32.504943],[-113.33372,32.767856],[-113.333797,33.023481],[-113.333931,33.37743],[-113.958057,33.377583],[-113.958053,33.46466],[-114.267826,33.463579],[-114.268759,33.02982],[-114.339164,33.030002],[-114.371142,33.027518],[-114.516495,33.027577]]]},"properties":{"shapeName":"Yuma","shapeISO":"52423323B36944168134022","shapeGroup":"USA","shapeType":"ADM2","src_shape_id":"52423323B36944168134022","adm1ISO":"US-AZ"}},
{"type":"Feature","geometry":{"type":"Polygon","coordinates":[[[-111.039987,33.466024],[-111.442176,33.465903],[-111.580645,33.465805],[-111.580707,33.378745],[-111.583194,33.277248],[-111.582694,33.218893],[-111.583058,33.205455],[-111.685922,33.204642],[-111.755437,33.204787],[-111.888911,33.203386],[-111.893096,33.204816],[-112.083499,33.204565],[-112.095823,33.230361],[-112.113694,33.227479],[-112.14913,33.253817],[-112.191795,33.265044],[-112.197523,33.278441],[-112.193702,33.298949],[-112.203299,33.310538],[-112.202174,33.246867],[-112.201976,33.087025],[-112.20352,32.683601],[-112.20373,32.506765],[-111.794574,32.506771],[-111.569267,32.506774],[-111.351542,32.50136],[-111.157573,32.50166],[-111.157504,32.51126],[-110.858731,32.511228],[-110.845108,32.513871],[-110.785673,32.513842],[-110.635469,32.5138],[-110.451229,32.514],[-110.449162,32.519474],[-110.449418,32.987421],[-110.449032,33.194531],[-110.463305,33.183345],[-110.504744,33.186253],[-110.534334,33.167718],[-110.545968,33.168769],[-110.549714,33.153099],[-110.579456,33.147137],[-110.59347,33.133931],[-110.611271,33.143126],[-110.63254,33.142776],[-110.656788,33.113545],[-110.677904,33.11137],[-110.683297,33.088123],[-110.693345,33.077057],[-110.706234,33.083736],[-110.725594,33.069901],[-110.716837,33.052824],[-110.729355,33.02731],[-110.746601,33.010837],[-110.765117,33.002864],[-110.766397,32.985359],[-110.7807,32.983678],[-110.946695,33.250058],[-110.955508,33.279144],[-110.974717,33.3421],[-111.039987,33.466024]]]},"properties":{"shapeName":"Pinal","shapeISO":"52423323B99674467123190","shapeGroup":"USA","shapeType":"ADM2","src_shape_id":"52423323B99674467123190","adm1ISO":"US-AZ"}},
{"type":"Feature","geometry":{"type":"Polygon","coordinates":[[[-109.045983,36.002707],[-109.04574,36.117034],[-109.046194,36.181757],[-109.045879,36.314924],[-109.045442,36.500007],[-109.045442,36.52737],[-109.045444,36.874595],[-109.045283,36.968877],[-109.045234,36.99909],[-109.181207,36.999277],[-109.233859,36.999272],[-109.246928,36.999352],[-109.270108,36.999272],[-109.37805,36.999141],[-109.495349,36.999111],[-109.625679,36.998314],[-109.875684,36.99851],[-110.000693,36.997987],[-110.000685,35.662663],[-109.826947,35.66249],[-109.826904,35.51788],[-109.843775,35.517881],[-109.843707,35.170407],[-109.843674,34.966247],[-109.844635,34.822567],[-109.851812,34.822524],[-109.850519,34.647306],[-109.865242,34.559694],[-109.849036,34.488277],[-109.848257,34.47344],[-109.848695,34.283927],[-109.849398,34.12595],[-109.859404,34.125996],[-109.859285,33.777688],[-109.891777,33.777782],[-109.89177,33.567834],[-109.881563,33.571256],[-109.838183,33.529188],[-109.830458,33.535268],[-109.819511,33.520985],[-109.822628,33.508887],[-109.806812,33.504792],[-109.803281,33.481732],[-109.799793,33.488319],[-109.784034,33.476561],[-109.767284,33.475422],[-109.746581,33.484901],[-109.744055,33.503277],[-109.731472,33.521062],[-109.713112,33.525199],[-109.684539,33.543786],[-109.671948,33.559345],[-109.675539,33.573243],[-109.660495,33.583731],[-109.621282,33.583217],[-109.604167,33.601383],[-109.602892,33.61288],[-109.585588,33.612849],[-109.559405,33.626428],[-109.555104,33.620187],[-109.528195,33.622923],[-109.514843,33.64172],[-109.495451,33.652702],[-109.481711,33.654841],[-109.480146,33.691415],[-109.461749,33.696417],[-109.441793,33.713057],[-109.412482,33.708449],[-109.378482,33.724646],[-109.352985,33.724916],[-109.364631,33.738761],[-109.362768,33.752147],[-109.347978,33.777461],[-109.046952,33.778231],[-109.046436,33.875057],[-109.047016,34.000055],[-109.046192,34.522398],[-109.046166,34.579296],[-109.046097,34.771021],[-109.045374,34.785411],[-109.046115,34.799986],[-109.045635,34.814231],[-109.046083,34.828571],[-109.045862,34.959824],[-109.046035,35.175514],[-109.046095,35.250031],[-109.046515,35.317099],[-109.046807,35.363612],[-109.046492,35.546332],[-109.046306,35.616523],[-109.046035,35.879806],[-109.046022,35.925902],[-109.045983,36.002707]]]},"properties":{"shapeName":"Apache","shapeISO":"52423323B39165499279829","shapeGroup":"USA","shapeType":"ADM2","src_shape_id":"52423323B39165499279829","adm1ISO":"US-AZ"}},
{"type":"Feature","geometry":{"type":"Polygon","coordinates":[[[-111.366583,31.426137],[-111.125657,31.348983],[-111.074836,31.332244],[-111.000654,31.332182],[-110.795478,31.333635],[-110.460183,31.332832],[-110.459955,31.46904],[-110.460575,31.614042],[-110.452258,31.613941],[-110.451747,31.731272],[-110.855643,31.731701],[-110.855604,31.726658],[-111.058051,31.726235],[-111.164194,31.725988],[-111.163736,31.521831],[-111.366624,31.521296],[-111.366583,31.426137]]]},"properties":{"shapeName":"Santa Cruz","shapeISO":"52423323B1252961664996","shapeGroup":"USA","shapeType":"ADM2","src_shape_id":"52423323B1252961664996","adm1ISO":"US-AZ"}},
{"type":"Feature","geometry":{"type":"Polygon","coordinates":[[[-110.451747,31.731272],[-110.452258,31.613941],[-110.460575,31.614042],[-110.459955,31.46904],[-110.460183,31.332832],[-110.140522,31.33397],[-110.000623,31.33315],[-109.829699,31.334072],[-109.278499,31.333964],[-109.050054,31.332507],[-109.050183,31.480009],[-109.049823,31.499533],[-109.049122,31.636603],[-109.049205,31.796556],[-109.048773,31.810781],[-109.049116,31.84372],[-109.0486,31.870796],[-109.048609,32.013656],[-109.048741,32.028179],[-109.048296,32.089119],[-109.047622,32.426382],[-109.113997,32.426182],[-109.222212,32.426467],[-109.227825,32.42448],[-110.170452,32.426383],[-110.349072,32.42651],[-110.451514,32.427359],[-110.451027,32.253804],[-110.447701,32.250078],[-110.451747,31.731272]]]},"properties":{"shapeName":"Cochise","shapeISO":"52423323B82502698650850","shapeGroup":"USA","shapeType":"ADM2","src_shape_id":"52423323B82502698650850","adm1ISO":"US-AZ"}},
{"type":"Feature","geometry":{"type":"Polygon","coordinates":[[[-113.333931,33.37743],[-113.333797,33.023481],[-113.33372,32.767856],[-113.333908,32.504943],[-112.497411,32.505423],[-112.20373,32.506765],[-112.20352,32.683601],[-112.201976,33.087025],[-112.202174,33.246867],[-112.203299,33.310538],[-112.193702,33.298949],[-112.197523,33.278441],[-112.191795,33.265044],[-112.14913,33.253817],[-112.113694,33.227479],[-112.095823,33.230361],[-112.083499,33.204565],[-111.893096,33.204816],[-111.888911,33.203386],[-111.755437,33.204787],[-111.685922,33.204642],[-111.583058,33.205455],[-111.582694,33.218893],[-111.583194,33.277248],[-111.580707,33.378745],[-111.580645,33.465805],[-111.442176,33.465903],[-111.039987,33.466024],[-111.05838,33.500056],[-111.153365,33.677611],[-111.18063,33.659797],[-111.209455,33.633504],[-111.207464,33.620577],[-111.222066,33.602451],[-111.249549,33.624336],[-111.261741,33.622576],[-111.286501,33.65738],[-111.313822,33.680475],[-111.331405,33.688343],[-111.338136,33.718681],[-111.359356,33.740975],[-111.386823,33.750049],[-111.389455,33.776668],[-111.379816,33.795741],[-111.387923,33.803219],[-111.372328,33.823929],[-111.395798,33.844281],[-111.38747,33.862962],[-111.397734,33.877828],[-111.412342,33.88473],[-111.405367,33.919587],[-111.42576,33.926104],[-111.437498,33.916179],[-111.450915,33.919882],[-111.4474,33.94174],[-111.452936,33.962209],[-111.433282,33.983326],[-111.44509,34.001181],[-111.466543,34.005948],[-111.494789,33.999822],[-111.725321,33.999854],[-111.862008,34.015113],[-112.164769,34.048175],[-112.153658,34.040914],[-112.165361,34.033137],[-112.161756,34.019278],[-112.18325,34.011945],[-112.180402,34.005747],[-112.193385,33.990308],[-112.195669,33.974507],[-112.214493,33.968095],[-112.241273,33.941115],[-112.231907,33.936536],[-112.235539,33.91548],[-112.242973,33.905582],[-112.264436,33.899099],[-112.276051,33.882317],[-112.427942,33.920844],[-112.743962,33.999903],[-113.333764,33.999232],[-113.333342,33.566294],[-113.333931,33.37743]]]},"properties":{"shapeName":"Maricopa","shapeISO":"52423323B41946106713870","shapeGroup":"USA","shapeType":"ADM2","src_shape_id":"52423323B41946106713870","adm1ISO":"US-AZ"}},
{"type":"Feature","geometry":{"type":"Polygon","coordinates":[[[-110.449032,33.194531],[-110.449418,32.987421],[-110.449162,32.519474],[-110.451229,32.514],[-110.451514,32.427359],[-110.349072,32.42651],[-110.170452,32.426383],[-109.227825,32.42448],[-109.222212,32.426467],[-109.113997,32.426182],[-109.22608,32.529101],[-109.225963,32.543036],[-109.211275,32.584298],[-109.219495,32.601694],[-109.206259,32.635808],[-109.212969,32.653634],[-109.213839,32.680666],[-109.245015,32.74199],[-109.252377,32.750244],[-109.318159,32.842784],[-109.333435,32.843271],[-109.49575,33.078414],[-109.495451,33.652702],[-109.514843,33.64172],[-109.528195,33.622923],[-109.555104,33.620187],[-109.559405,33.626428],[-109.585588,33.612849],[-109.602892,33.61288],[-109.604167,33.601383],[-109.621282,33.583217],[-109.660495,33.583731],[-109.675539,33.573243],[-109.671948,33.559345],[-109.684539,33.543786],[-109.713112,33.525199],[-109.731472,33.521062],[-109.744055,33.503277],[-109.746581,33.484901],[-109.767284,33.475422],[-109.784034,33.476561],[-109.799793,33.488319],[-109.803281,33.481732],[-109.806812,33.504792],[-109.822628,33.508887],[-109.819511,33.520985],[-109.830458,33.535268],[-109.838183,33.529188],[-109.881563,33.571256],[-109.89177,33.567834],[-109.916044,33.574873],[-109.923342,33.567519],[-109.96112,33.579581],[-109.995978,33.582265],[-110.00066,33.576935],[-110.000658,33.488323],[-110.056565,33.466135],[-110.079147,33.466186],[-110.12566,33.465741],[-110.143513,33.465758],[-110.169251,33.45895],[-110.169179,33.454821],[-110.174099,33.450077],[-110.18031,33.44984],[-110.182488,33.448978],[-110.186331,33.448758],[-110.18786,33.450386],[-110.193251,33.447312],[-110.191814,33.444558],[-110.193322,33.442199],[-110.197848,33.443045],[-110.201408,33.440133],[-110.206294,33.439377],[-110.208196,33.441136],[-110.211777,33.440383],[-110.213573,33.43776],[-110.220144,33.438814],[-110.224001,33.440468],[-110.231609,33.442588],[-110.23507,33.440128],[-110.24094,33.440159],[-110.261076,33.436393],[-110.270891,33.439562],[-110.275593,33.440736],[-110.290364,33.430788],[-110.297905,33.428904],[-110.304023,33.430944],[-110.310443,33.431538],[-110.319768,33.43299],[-110.326882,33.428409],[-110.334396,33.42809],[-110.341202,33.426934],[-110.34107,33.422194],[-110.346608,33.4178],[-110.346784,33.413246],[-110.349352,33.408688],[-110.351154,33.408567],[-110.354017,33.404074],[-110.359902,33.399926],[-110.366555,33.399418],[-110.369268,33.398388],[-110.378736,33.402433],[-110.382719,33.405661],[-110.386863,33.40557],[-110.389145,33.403004],[-110.398441,33.4021],[-110.407121,33.399886],[-110.410871,33.400322],[-110.41428,33.398354],[-110.417087,33.393241],[-110.418261,33.388876],[-110.421794,33.385973],[-110.424842,33.387145],[-110.429987,33.387447],[-110.436425,33.384523],[-110.442993,33.377381],[-110.442488,33.37028],[-110.443095,33.367873],[-110.447627,33.36594],[-110.451683,33.363274],[-110.44988,33.358578],[-110.447141,33.355443],[-110.445103,33.35054],[-110.448045,33.346329],[-110.448343,33.342281],[-110.44731,33.336106],[-110.44653,33.32347],[-110.450399,33.317714],[-110.449115,33.312974],[-110.448904,33.303038],[-110.448046,33.301801],[-110.449669,33.297782],[-110.457446,33.294983],[-110.457021,33.291425],[-110.454939,33.291156],[-110.453609,33.286185],[-110.454983,33.282333],[-110.451761,33.279802],[-110.448841,33.271939],[-110.449017,33.266561],[-110.444201,33.262509],[-110.444631,33.257517],[-110.438926,33.253056],[-110.424914,33.231884],[-110.420115,33.220922],[-110.408212,33.204208],[-110.405835,33.197236],[-110.407247,33.193487],[-110.413889,33.191782],[-110.420133,33.192357],[-110.427989,33.191617],[-110.434423,33.188582],[-110.444705,33.189357],[-110.449032,33.194531]]]},"properties":{"shapeName":"Graham","shapeISO":"52423323B31038299720868","shapeGroup":"USA","shapeType":"ADM2","src_shape_id":"52423323B31038299720868","adm1ISO":"US-AZ"}}
]}