{"type":"FeatureCollection","bbox":[-75.788897,38.45102,-75.048941,39.839193], "features": [
{"type":"Feature","geometry":{"type":"MultiPolygon","coordinates":[[[[-75.559448,39.62982],[-75.5708,39.626776],[-75.571761,39.623592],[-75.567696,39.613752],[-75.561936,39.605224],[-75.555872,39.605832],[-75.557504,39.609192],[-75.55688,39.612152],[-75.558448,39.617304],[-75.559616,39.624216],[-75.559448,39.62982]]],[[[-75.581698,39.603422],[-75.584912,39.593326],[-75.578979,39.585896],[-75.564929,39.583256],[-75.56019,39.592183],[-75.581698,39.603422]]],[[[-75.788598,39.722207],[-75.788634,39.70042],[-75.788897,39.682295],[-75.788897,39.658588],[-75.787688,39.637825],[-75.781022,39.550606],[-75.775336,39.480927],[-75.770036,39.415981],[-75.76691,39.377661],[-75.760309,39.296808],[-75.68519,39.297097],[-75.665813,39.290575],[-75.648572,39.295034],[-75.619633,39.310066],[-75.609387,39.308809],[-75.584767,39.308652],[-75.556207,39.335333],[-75.551628,39.353948],[-75.535851,39.350625],[-75.512374,39.365664],[-75.512998,39.366161],[-75.521684,39.387879],[-75.523585,39.391591],[-75.535979,39.409392],[-75.538514,39.41651],[-75.555892,39.430359],[-75.571832,39.438905],[-75.570987,39.442494],[-75.578916,39.447888],[-75.580187,39.450794],[-75.589441,39.46082],[-75.589903,39.46203],[-75.59307,39.478004],[-75.59307,39.479194],[-75.587731,39.495377],[-75.587731,39.496361],[-75.576438,39.509203],[-75.566935,39.508281],[-75.56073,39.52048],[-75.570364,39.527231],[-75.569361,39.540597],[-75.565638,39.558517],[-75.563036,39.562248],[-75.571601,39.567736],[-75.58661,39.578888],[-75.587202,39.580264],[-75.592226,39.583576],[-75.603586,39.588968],[-75.611875,39.597416],[-75.613795,39.6062],[-75.613235,39.607416],[-75.613667,39.612568],[-75.614931,39.61596],[-75.613155,39.620968],[-75.611971,39.621976],[-75.587149,39.65102],[-75.562248,39.65672],[-75.529746,39.692621],[-75.509744,39.686121],[-75.509044,39.694521],[-75.507164,39.696969],[-75.496243,39.701421],[-75.491343,39.711121],[-75.488555,39.714841],[-75.485243,39.715821],[-75.478942,39.713821],[-75.477642,39.715021],[-75.47689,39.718345],[-75.477242,39.724721],[-75.475442,39.728721],[-75.47417,39.735481],[-75.469241,39.743621],[-75.463041,39.758321],[-75.463341,39.761221],[-75.459441,39.765821],[-75.452341,39.769021],[-75.449297,39.774444],[-75.45069,39.775072],[-75.438302,39.78441],[-75.411516,39.794179],[-75.405416,39.796404],[-75.415064,39.801927],[-75.428029,39.809236],[-75.453717,39.820367],[-75.463314,39.823878],[-75.481209,39.829199],[-75.498807,39.833419],[-75.518407,39.83644],[-75.539311,39.838363],[-75.570435,39.839193],[-75.579916,39.838715],[-75.593099,39.837708],[-75.594876,39.837491],[-75.617242,39.834235],[-75.634708,39.830418],[-75.641525,39.828624],[-75.662848,39.821433],[-75.686041,39.811359],[-75.701277,39.802926],[-75.717061,39.792333],[-75.727158,39.78447],[-75.736616,39.776111],[-75.744538,39.768214],[-75.75323,39.757997],[-75.760531,39.747602],[-75.766262,39.738186],[-75.773788,39.722208],[-75.788598,39.722207]]]]},"properties":{"shapeName":"New Castle","shapeISO":"52423323B5401944400866","shapeGroup":"USA","shapeType":"ADM2","src_shape_id":"52423323B5401944400866","adm1ISO":"US-DE"}},
{"type":"Feature","geometry":{"type":"Polygon","coordinates":[[[-75.760309,39.296808],[-75.756181,39.24623],[-75.751252,39.177992],[-75.74958,39.165041],[-75.747875,39.143287],[-75.746015,39.115145],[-75.744032,39.094878],[-75.742411,39.074559],[-75.728122,38.895485],[-75.726043,38.869431],[-75.725779,38.868287],[-75.724216,38.84681],[-75.722803,38.829859],[-75.555015,38.835657],[-75.520441,38.85575],[-75.50817,38.878959],[-75.490455,38.889672],[-75.484821,38.903761],[-75.465155,38.911318],[-75.401415,38.918363],[-75.401042,38.947039],[-75.393136,38.954148],[-75.380651,38.961881],[-75.350215,38.947446],[-75.321268,38.953463],[-75.311924,38.945925],[-75.312548,38.951073],[-75.311609,38.967645],[-75.314953,38.980783],[-75.318356,38.988199],[-75.340892,39.019968],[-75.345765,39.024865],[-75.379875,39.048798],[-75.387916,39.051182],[-75.396279,39.057892],[-75.395808,39.059219],[-75.400296,39.065653],[-75.402037,39.066893],[-75.401195,39.08877],[-75.410627,39.156254],[-75.408268,39.174633],[-75.400146,39.186464],[-75.394792,39.188362],[-75.393017,39.20452],[-75.396894,39.216149],[-75.405718,39.223842],[-75.405929,39.243639],[-75.404825,39.245906],[-75.402966,39.254634],[-75.408378,39.264706],[-75.427955,39.285057],[-75.435376,39.296684],[-75.436938,39.309387],[-75.439029,39.313392],[-75.460425,39.328244],[-75.469326,39.330828],[-75.479965,39.336585],[-75.479847,39.33748],[-75.490379,39.342826],[-75.494124,39.346588],[-75.491799,39.351853],[-75.49416,39.354621],[-75.505278,39.359177],[-75.512374,39.365664],[-75.535851,39.350625],[-75.551628,39.353948],[-75.556207,39.335333],[-75.584767,39.308652],[-75.609387,39.308809],[-75.619633,39.310066],[-75.648572,39.295034],[-75.665813,39.290575],[-75.68519,39.297097],[-75.760309,39.296808]]]},"properties":{"shapeName":"Kent","shapeISO":"52423323B47097694246075","shapeGroup":"USA","shapeType":"ADM2","src_shape_id":"52423323B47097694246075","adm1ISO":"US-DE"}},
{"type":"Feature","geometry":{"type":"Polygon","coordinates":[[[-75.707557,38.635395],[-75.70177,38.560776],[-75.700384,38.542751],[-75.698981,38.522029],[-75.696572,38.492391],[-75.693723,38.460136],[-75.663036,38.458767],[-75.630639,38.457912],[-75.598241,38.456863],[-75.589477,38.456294],[-75.583769,38.456432],[-75.560095,38.455586],[-75.500284,38.454151],[-75.428848,38.452678],[-75.393672,38.452121],[-75.341247,38.451976],[-75.260418,38.451499],[-75.252788,38.451404],[-75.185457,38.45102],[-75.141925,38.451204],[-75.066334,38.451299],[-75.048941,38.451271],[-75.04975,38.486395],[-75.060034,38.607717],[-75.061922,38.608877],[-75.065219,38.632402],[-75.065512,38.661038],[-75.079223,38.738246],[-75.082155,38.772165],[-75.089475,38.797206],[-75.093807,38.80382],[-75.098547,38.802934],[-75.104123,38.786244],[-75.113333,38.783006],[-75.134024,38.78225],[-75.159024,38.790201],[-75.16075,38.791232],[-75.190554,38.806869],[-75.205331,38.823394],[-75.232031,38.844262],[-75.263117,38.877359],[-75.30408,38.913168],[-75.312284,38.924602],[-75.302554,38.93901],[-75.311544,38.944641],[-75.311924,38.945925],[-75.321268,38.953463],[-75.350215,38.947446],[-75.380651,38.961881],[-75.393136,38.954148],[-75.401042,38.947039],[-75.401415,38.918363],[-75.465155,38.911318],[-75.484821,38.903761],[-75.490455,38.889672],[-75.50817,38.878959],[-75.520441,38.85575],[-75.555015,38.835657],[-75.722803,38.829859],[-75.717786,38.76553],[-75.713077,38.705622],[-75.707557,38.635395]]]},"properties":{"shapeName":"Sussex","shapeISO":"52423323B18332977345719","shapeGroup":"USA","shapeType":"ADM2","src_shape_id":"52423323B18332977345719","adm1ISO":"US-DE"}}
]}