{"type":"FeatureCollection","bbox":[-88.097898,37.771749,-84.784584,41.7606], "features": [
{"type":"Feature","geometry":{"type":"Polygon","coordinates":[[[-85.440059,39.195624],[-85.444902,38.913005],[-85.203171,38.91381],[-85.202854,38.92853],[-85.135837,38.929585],[-85.132513,38.948062],[-85.113116,39.050596],[-85.084865,39.206271],[-85.081877,39.222274],[-85.065579,39.30724],[-85.076297,39.310001],[-85.170539,39.309892],[-85.217888,39.308482],[-85.296545,39.268299],[-85.315167,39.258661],[-85.435344,39.198401],[-85.440059,39.195624]]]},"properties":{"shapeName":"Ripley","shapeISO":"52423323B48064800359713","shapeGroup":"USA","shapeType":"ADM2","src_shape_id":"52423323B48064800359713","adm1ISO":"US-IN"}},
{"type":"Feature","geometry":{"type":"Polygon","coordinates":[[[-86.085606,39.344196],[-86.081829,39.226295],[-86.079035,39.079648],[-86.080277,39.050277],[-86.079904,39.036024],[-86.061738,39.036007],[-85.860503,39.040928],[-85.862452,39.048926],[-85.832966,39.06367],[-85.822856,39.069718],[-85.798809,39.068543],[-85.799839,39.128904],[-85.77436,39.129153],[-85.686788,39.130866],[-85.686664,39.261423],[-85.68452,39.350057],[-85.79879,39.350195],[-85.857465,39.349319],[-85.95201,39.34738],[-86.027724,39.345616],[-86.085606,39.344196]]]},"properties":{"shapeName":"Bartholomew","shapeISO":"52423323B99748552425099","shapeGroup":"USA","shapeType":"ADM2","src_shape_id":"52423323B99748552425099","adm1ISO":"US-IN"}},
{"type":"Feature","geometry":{"type":"Polygon","coordinates":[[[-85.296545,39.268299],[-85.296912,39.351852],[-85.296131,39.356052],[-85.29758,39.453283],[-85.413695,39.453132],[-85.629332,39.452758],[-85.630635,39.350213],[-85.68452,39.350057],[-85.686664,39.261423],[-85.686788,39.130866],[-85.566325,39.132768],[-85.440059,39.195624],[-85.435344,39.198401],[-85.315167,39.258661],[-85.296545,39.268299]]]},"properties":{"shapeName":"Decatur","shapeISO":"52423323B40737973056540","shapeGroup":"USA","shapeType":"ADM2","src_shape_id":"52423323B40737973056540","adm1ISO":"US-IN"}},
{"type":"Feature","geometry":{"type":"Polygon","coordinates":[[[-85.065579,39.30724],[-84.819456,39.30516],[-84.817458,39.391761],[-84.815759,39.47736],[-84.81556,39.51106],[-84.81536,39.521959],[-85.022823,39.52439],[-85.036092,39.526221],[-85.129632,39.526663],[-85.241774,39.525709],[-85.298115,39.525484],[-85.29758,39.453283],[-85.296131,39.356052],[-85.296912,39.351852],[-85.296545,39.268299],[-85.217888,39.308482],[-85.170539,39.309892],[-85.076297,39.310001],[-85.065579,39.30724]]]},"properties":{"shapeName":"Franklin","shapeISO":"52423323B16028894273840","shapeGroup":"USA","shapeType":"ADM2","src_shape_id":"52423323B16028894273840","adm1ISO":"US-IN"}},
{"type":"Feature","geometry":{"type":"Polygon","coordinates":[[[-87.013067,39.604794],[-87.014538,39.473579],[-86.939986,39.473352],[-86.691661,39.47055],[-86.685715,39.47007],[-86.687566,39.521909],[-86.653947,39.551973],[-86.648324,39.565881],[-86.659599,39.579213],[-86.656655,39.601403],[-86.64175,39.630048],[-86.687411,39.630445],[-86.686848,39.86485],[-86.695132,39.864853],[-87.009482,39.866713],[-87.013067,39.604794]]]},"properties":{"shapeName":"Putnam","shapeISO":"52423323B73870752554763","shapeGroup":"USA","shapeType":"ADM2","src_shape_id":"52423323B73870752554763","adm1ISO":"US-IN"}},
{"type":"Feature","geometry":{"type":"Polygon","coordinates":[[[-86.077556,41.172876],[-86.075944,41.084886],[-86.018419,41.086126],[-86.018669,41.041886],[-85.945566,41.042884],[-85.795819,41.043596],[-85.684186,41.046724],[-85.686579,41.178384],[-85.65272,41.178497],[-85.651201,41.265781],[-85.651933,41.294784],[-85.653232,41.351203],[-85.653512,41.436864],[-85.768713,41.435753],[-85.885829,41.435649],[-86.059235,41.43582],[-86.056558,41.27435],[-86.055153,41.224899],[-86.054052,41.173155],[-86.077556,41.172876]]]},"properties":{"shapeName":"Kosciusko","shapeISO":"52423323B75702565689180","shapeGroup":"USA","shapeType":"ADM2","src_shape_id":"52423323B75702565689180","adm1ISO":"US-IN"}},
{"type":"Feature","geometry":{"type":"Polygon","coordinates":[[[-84.804734,41.530143],[-84.96851,41.528073],[-85.080818,41.527016],[-85.194089,41.526445],[-85.192099,41.264217],[-85.077809,41.265609],[-84.803587,41.271281],[-84.803931,41.367967],[-84.804138,41.4083],[-84.803961,41.426052],[-84.803924,41.435539],[-84.804462,41.488232],[-84.804734,41.530143]]]},"properties":{"shapeName":"DeKalb","shapeISO":"52423323B7448583002451","shapeGroup":"USA","shapeType":"ADM2","src_shape_id":"52423323B7448583002451","adm1ISO":"US-IN"}},
{"type":"Feature","geometry":{"type":"Polygon","coordinates":[[[-86.059235,41.43582],[-86.059456,41.479162],[-86.286221,41.478728],[-86.306495,41.4773],[-86.329843,41.478107],[-86.467113,41.476467],[-86.466608,41.432976],[-86.466295,41.374825],[-86.46652,41.302236],[-86.466695,41.258625],[-86.467051,41.17145],[-86.077556,41.172876],[-86.054052,41.173155],[-86.055153,41.224899],[-86.056558,41.27435],[-86.059235,41.43582]]]},"properties":{"shapeName":"Marshall","shapeISO":"52423323B84214728931657","shapeGroup":"USA","shapeType":"ADM2","src_shape_id":"52423323B84214728931657","adm1ISO":"US-IN"}},
{"type":"Feature","geometry":{"type":"Polygon","coordinates":[[[-85.44883,40.653615],[-85.447019,40.566937],[-85.390544,40.566906],[-85.221004,40.567259],[-85.201151,40.56725],[-85.068484,40.568248],[-85.07025,40.740629],[-85.071029,40.744894],[-85.073866,40.917831],[-85.167068,40.916593],[-85.336035,40.91709],[-85.334672,40.654421],[-85.343965,40.654809],[-85.44883,40.653615]]]},"properties":{"shapeName":"Wells","shapeISO":"52423323B5084797475274","shapeGroup":"USA","shapeType":"ADM2","src_shape_id":"52423323B5084797475274","adm1ISO":"US-IN"}},
{"type":"Feature","geometry":{"type":"Polygon","coordinates":[[[-85.578594,40.379532],[-85.577023,40.306389],[-85.575987,40.149609],[-85.575908,40.142251],[-85.576202,40.077151],[-85.442552,40.076694],[-85.214391,40.076897],[-85.217433,40.234939],[-85.218763,40.306714],[-85.219906,40.379042],[-85.331742,40.37823],[-85.336364,40.378717],[-85.444328,40.378754],[-85.444335,40.379148],[-85.578594,40.379532]]]},"properties":{"shapeName":"Delaware","shapeISO":"52423323B36304879432203","shapeGroup":"USA","shapeType":"ADM2","src_shape_id":"52423323B36304879432203","adm1ISO":"US-IN"}},
{"type":"Feature","geometry":{"type":"Polygon","coordinates":[[[-86.059456,41.479162],[-86.059778,41.516461],[-86.059445,41.521473],[-86.060526,41.586539],[-86.061089,41.650688],[-86.060907,41.653456],[-86.061364,41.680505],[-86.06258,41.760536],[-86.127849,41.7606],[-86.217595,41.760024],[-86.226102,41.760024],[-86.272432,41.760196],[-86.501778,41.759561],[-86.524228,41.759464],[-86.525413,41.694589],[-86.526687,41.650448],[-86.487572,41.649333],[-86.486438,41.570553],[-86.498163,41.561091],[-86.498145,41.531417],[-86.503617,41.519542],[-86.524945,41.519683],[-86.524716,41.432894],[-86.466608,41.432976],[-86.467113,41.476467],[-86.329843,41.478107],[-86.306495,41.4773],[-86.286221,41.478728],[-86.059456,41.479162]]]},"properties":{"shapeName":"St. Joseph","shapeISO":"52423323B40816169935337","shapeGroup":"USA","shapeType":"ADM2","src_shape_id":"52423323B40816169935337","adm1ISO":"US-IN"}},
{"type":"Feature","geometry":{"type":"Polygon","coordinates":[[[-86.581537,40.910933],[-86.581744,40.735773],[-86.525148,40.735453],[-86.525169,40.692427],[-86.467939,40.691963],[-86.373526,40.692468],[-86.374422,40.561369],[-86.261253,40.56189],[-86.165029,40.562657],[-86.165871,40.649645],[-86.165639,40.7408],[-86.168863,40.743525],[-86.169017,40.909844],[-86.318992,40.9094],[-86.331706,40.909693],[-86.355872,40.909461],[-86.468514,40.909897],[-86.581537,40.910933]]]},"properties":{"shapeName":"Cass","shapeISO":"52423323B33469895135011","shapeGroup":"USA","shapeType":"ADM2","src_shape_id":"52423323B33469895135011","adm1ISO":"US-IN"}},
{"type":"Feature","geometry":{"type":"Polygon","coordinates":[[[-85.684186,41.046724],[-85.683203,41.001917],[-85.643846,41.002313],[-85.452151,41.00524],[-85.393976,41.005198],[-85.335648,41.005258],[-85.337029,41.089731],[-85.338557,41.179128],[-85.309795,41.179265],[-85.307786,41.264166],[-85.424058,41.265056],[-85.537185,41.266165],[-85.536293,41.295249],[-85.651933,41.294784],[-85.651201,41.265781],[-85.65272,41.178497],[-85.686579,41.178384],[-85.684186,41.046724]]]},"properties":{"shapeName":"Whitley","shapeISO":"52423323B56152187433060","shapeGroup":"USA","shapeType":"ADM2","src_shape_id":"52423323B56152187433060","adm1ISO":"US-IN"}},
{"type":"Feature","geometry":{"type":"Polygon","coordinates":[[[-86.656655,39.601403],[-86.559852,39.60087],[-86.46561,39.600777],[-86.465936,39.63004],[-86.417899,39.630465],[-86.326346,39.632185],[-86.326596,39.719494],[-86.326505,39.72945],[-86.326642,39.778653],[-86.327296,39.8225],[-86.328017,39.859277],[-86.325378,39.866184],[-86.326298,39.924037],[-86.331412,39.924153],[-86.355267,39.924049],[-86.449855,39.923305],[-86.695076,39.922778],[-86.695132,39.864853],[-86.686848,39.86485],[-86.687411,39.630445],[-86.64175,39.630048],[-86.656655,39.601403]]]},"properties":{"shapeName":"Hendricks","shapeISO":"52423323B31792331256656","shapeGroup":"USA","shapeType":"ADM2","src_shape_id":"52423323B31792331256656","adm1ISO":"US-IN"}},
{"type":"Feature","geometry":{"type":"Polygon","coordinates":[[[-86.466608,41.432976],[-86.524716,41.432894],[-86.642547,41.432647],[-86.670803,41.413881],[-86.700635,41.40199],[-86.707727,41.380995],[-86.723783,41.360365],[-86.74,41.321716],[-86.7615,41.307494],[-86.783478,41.285473],[-86.814657,41.273509],[-86.87027,41.264561],[-86.920548,41.245036],[-86.930084,41.236806],[-86.930175,41.172326],[-86.814394,41.172001],[-86.467051,41.17145],[-86.466695,41.258625],[-86.46652,41.302236],[-86.466295,41.374825],[-86.466608,41.432976]]]},"properties":{"shapeName":"Starke","shapeISO":"52423323B53006096789776","shapeGroup":"USA","shapeType":"ADM2","src_shape_id":"52423323B53006096789776","adm1ISO":"US-IN"}},
{"type":"Feature","geometry":{"type":"Polygon","coordinates":[[[-86.242748,40.215842],[-86.24237,40.180786],[-86.241727,40.099858],[-86.241463,40.070827],[-86.24107,39.998781],[-86.239744,39.926063],[-86.202869,39.926636],[-86.165071,39.926914],[-86.076188,39.926958],[-86.01256,39.927326],[-85.995042,39.927008],[-85.937592,39.927145],[-85.8624,39.928951],[-85.862494,39.943626],[-85.862245,40.002296],[-85.863283,40.103869],[-85.861908,40.218944],[-85.935566,40.218445],[-86.242748,40.215842]]]},"properties":{"shapeName":"Hamilton","shapeISO":"52423323B17191131032036","shapeGroup":"USA","shapeType":"ADM2","src_shape_id":"52423323B17191131032036","adm1ISO":"US-IN"}},
{"type":"Feature","geometry":{"type":"Polygon","coordinates":[[[-86.080277,39.050277],[-86.318138,39.048817],[-86.317479,38.990877],[-86.280394,38.991035],[-86.279442,38.961113],[-86.275286,38.763802],[-86.254108,38.770125],[-86.237149,38.767804],[-86.224073,38.779154],[-86.197656,38.773776],[-86.184107,38.783595],[-86.134949,38.762432],[-86.102361,38.765762],[-86.092543,38.783469],[-86.075071,38.774734],[-86.055085,38.77314],[-86.025741,38.756016],[-85.984257,38.768122],[-85.976646,38.7524],[-85.960867,38.764192],[-85.948382,38.753643],[-85.936515,38.755841],[-85.915616,38.745965],[-85.908454,38.756158],[-85.890785,38.729729],[-85.888339,38.73445],[-85.881409,38.725033],[-85.869564,38.726178],[-85.841601,38.741146],[-85.819434,38.77651],[-85.804559,38.779913],[-85.795362,38.807515],[-85.796467,38.911031],[-85.797264,38.969769],[-85.798809,39.068543],[-85.822856,39.069718],[-85.832966,39.06367],[-85.862452,39.048926],[-85.860503,39.040928],[-86.061738,39.036007],[-86.079904,39.036024],[-86.080277,39.050277]]]},"properties":{"shapeName":"Jackson","shapeISO":"52423323B62706448610818","shapeGroup":"USA","shapeType":"ADM2","src_shape_id":"52423323B62706448610818","adm1ISO":"US-IN"}},
{"type":"Feature","geometry":{"type":"Polygon","coordinates":[[[-85.44883,40.653615],[-85.638592,40.653137],[-85.67553,40.652825],[-85.864796,40.651701],[-85.863646,40.565533],[-85.863052,40.478736],[-85.862122,40.406897],[-85.862301,40.378375],[-85.786196,40.378931],[-85.578594,40.379532],[-85.444335,40.379148],[-85.445834,40.47931],[-85.447019,40.566937],[-85.44883,40.653615]]]},"properties":{"shapeName":"Grant","shapeISO":"52423323B51012446173370","shapeGroup":"USA","shapeType":"ADM2","src_shape_id":"52423323B51012446173370","adm1ISO":"US-IN"}},
{"type":"Feature","geometry":{"type":"Polygon","coordinates":[[[-86.085606,39.344196],[-86.139574,39.34307],[-86.144315,39.343157],[-86.251689,39.341679],[-86.3814,39.339759],[-86.379942,39.251087],[-86.372413,39.250912],[-86.369173,39.076833],[-86.370071,39.048382],[-86.318138,39.048817],[-86.080277,39.050277],[-86.079035,39.079648],[-86.081829,39.226295],[-86.085606,39.344196]]]},"properties":{"shapeName":"Brown","shapeISO":"52423323B89653370278289","shapeGroup":"USA","shapeType":"ADM2","src_shape_id":"52423323B89653370278289","adm1ISO":"US-IN"}},
{"type":"Feature","geometry":{"type":"Polygon","coordinates":[[[-86.695132,39.864853],[-86.695076,39.922778],[-86.695786,40.010589],[-86.695809,40.178665],[-86.695642,40.214375],[-86.866965,40.214926],[-86.923347,40.215055],[-87.092568,40.214814],[-87.092147,40.039027],[-87.091357,40.034629],[-87.091011,39.953017],[-87.091547,39.867273],[-87.009482,39.866713],[-86.695132,39.864853]]]},"properties":{"shapeName":"Montgomery","shapeISO":"52423323B86671673668040","shapeGroup":"USA","shapeType":"ADM2","src_shape_id":"52423323B86671673668040","adm1ISO":"US-IN"}},
{"type":"Feature","geometry":{"type":"Polygon","coordinates":[[[-85.036092,39.526221],[-85.034962,39.657077],[-85.03458,39.714772],[-85.120728,39.715038],[-85.185094,39.715523],[-85.183477,39.788405],[-85.221123,39.788457],[-85.301589,39.787587],[-85.298115,39.525484],[-85.241774,39.525709],[-85.129632,39.526663],[-85.036092,39.526221]]]},"properties":{"shapeName":"Fayette","shapeISO":"52423323B31506372049055","shapeGroup":"USA","shapeType":"ADM2","src_shape_id":"52423323B31506372049055","adm1ISO":"US-IN"}},
{"type":"Feature","geometry":{"type":"Polygon","coordinates":[[[-86.695642,40.214375],[-86.695258,40.258219],[-86.695165,40.301206],[-86.69467,40.432164],[-86.695358,40.561882],[-86.771298,40.56209],[-86.868998,40.561674],[-86.943802,40.561718],[-87.001201,40.562214],[-87.095362,40.562903],[-87.093681,40.475753],[-87.092817,40.471773],[-87.092153,40.36662],[-87.092568,40.214814],[-86.923347,40.215055],[-86.866965,40.214926],[-86.695642,40.214375]]]},"properties":{"shapeName":"Tippecanoe","shapeISO":"52423323B85350878130574","shapeGroup":"USA","shapeType":"ADM2","src_shape_id":"52423323B85350878130574","adm1ISO":"US-IN"}},
{"type":"Feature","geometry":{"type":"Polygon","coordinates":[[[-86.317479,38.990877],[-86.573553,38.992154],[-86.682282,38.992411],[-86.682858,38.904704],[-86.68326,38.730056],[-86.683107,38.686568],[-86.553404,38.687448],[-86.308706,38.688108],[-86.310063,38.733138],[-86.300133,38.729608],[-86.275286,38.763802],[-86.279442,38.961113],[-86.280394,38.991035],[-86.317479,38.990877]]]},"properties":{"shapeName":"Lawrence","shapeISO":"52423323B62913714602818","shapeGroup":"USA","shapeType":"ADM2","src_shape_id":"52423323B62913714602818","adm1ISO":"US-IN"}},
{"type":"Feature","geometry":{"type":"Polygon","coordinates":[[[-86.682282,38.992411],[-86.682406,39.079853],[-86.683007,39.165753],[-87.054583,39.168093],[-87.068346,39.167972],[-87.128937,39.168996],[-87.240742,39.17178],[-87.240923,39.084404],[-87.241032,38.907881],[-87.129887,38.907322],[-87.098776,38.903981],[-87.035425,38.902467],[-86.904257,38.904211],[-86.682858,38.904704],[-86.682282,38.992411]]]},"properties":{"shapeName":"Greene","shapeISO":"52423323B68653933652914","shapeGroup":"USA","shapeType":"ADM2","src_shape_id":"52423323B68653933652914","adm1ISO":"US-IN"}},
{"type":"Feature","geometry":{"type":"Polygon","coordinates":[[[-86.939986,39.473352],[-86.941545,39.43662],[-86.942414,39.429363],[-86.942298,39.399919],[-86.942478,39.34205],[-87.053651,39.342628],[-87.054583,39.168093],[-86.683007,39.165753],[-86.685615,39.33605],[-86.657633,39.330117],[-86.658916,39.347259],[-86.651556,39.3556],[-86.630823,39.346955],[-86.63096,39.406263],[-86.630784,39.426552],[-86.631915,39.441093],[-86.632211,39.470221],[-86.685715,39.47007],[-86.691661,39.47055],[-86.939986,39.473352]]]},"properties":{"shapeName":"Owen","shapeISO":"52423323B55669324788412","shapeGroup":"USA","shapeType":"ADM2","src_shape_id":"52423323B55669324788412","adm1ISO":"US-IN"}},
{"type":"Feature","geometry":{"type":"Polygon","coordinates":[[[-85.214391,40.076897],[-85.213501,40.004388],[-85.201478,40.004529],[-85.14588,40.004702],[-85.126782,40.004213],[-84.810938,40.005087],[-84.809742,40.048937],[-84.808296,40.129035],[-84.806771,40.180136],[-84.80618,40.198003],[-84.805632,40.223667],[-84.803922,40.310101],[-85.218763,40.306714],[-85.217433,40.234939],[-85.214391,40.076897]]]},"properties":{"shapeName":"Randolph","shapeISO":"52423323B64945825583977","shapeGroup":"USA","shapeType":"ADM2","src_shape_id":"52423323B64945825583977","adm1ISO":"US-IN"}},
{"type":"Feature","geometry":{"type":"Polygon","coordinates":[[[-86.077556,41.172876],[-86.467051,41.17145],[-86.467226,41.084236],[-86.468514,40.909897],[-86.355872,40.909461],[-86.331706,40.909693],[-86.318992,40.9094],[-86.169017,40.909844],[-86.168464,40.996105],[-85.946441,40.999203],[-85.945444,41.004043],[-85.945566,41.042884],[-86.018669,41.041886],[-86.018419,41.086126],[-86.075944,41.084886],[-86.077556,41.172876]]]},"properties":{"shapeName":"Fulton","shapeISO":"52423323B46497770256084","shapeGroup":"USA","shapeType":"ADM2","src_shape_id":"52423323B46497770256084","adm1ISO":"US-IN"}},
{"type":"Feature","geometry":{"type":"Polygon","coordinates":[[[-86.326298,39.924037],[-86.278476,39.924737],[-86.239744,39.926063],[-86.24107,39.998781],[-86.241463,40.070827],[-86.241727,40.099858],[-86.24237,40.180786],[-86.351826,40.178561],[-86.356459,40.178117],[-86.695809,40.178665],[-86.695786,40.010589],[-86.695076,39.922778],[-86.449855,39.923305],[-86.355267,39.924049],[-86.331412,39.924153],[-86.326298,39.924037]]]},"properties":{"shapeName":"Boone","shapeISO":"52423323B87712405938690","shapeGroup":"USA","shapeType":"ADM2","src_shape_id":"52423323B87712405938690","adm1ISO":"US-IN"}},
{"type":"Feature","geometry":{"type":"Polygon","coordinates":[[[-85.651933,41.294784],[-85.536293,41.295249],[-85.537185,41.266165],[-85.424058,41.265056],[-85.307786,41.264166],[-85.192099,41.264217],[-85.194089,41.526445],[-85.308466,41.526206],[-85.423507,41.525604],[-85.654752,41.523355],[-85.653512,41.436864],[-85.653232,41.351203],[-85.651933,41.294784]]]},"properties":{"shapeName":"Noble","shapeISO":"52423323B7904044051324","shapeGroup":"USA","shapeType":"ADM2","src_shape_id":"52423323B7904044051324","adm1ISO":"US-IN"}},
{"type":"Feature","geometry":{"type":"Polygon","coordinates":[[[-85.994625,38.418352],[-85.994635,38.410956],[-85.966887,38.403462],[-85.920406,38.403815],[-85.807709,38.40445],[-85.763918,38.34859],[-85.797155,38.332485],[-85.78319,38.320286],[-85.793828,38.314158],[-85.79158,38.288573],[-85.780968,38.288476],[-85.773368,38.286176],[-85.765968,38.280476],[-85.766568,38.277677],[-85.761067,38.272577],[-85.750967,38.267877],[-85.744867,38.267177],[-85.738751,38.269373],[-85.683566,38.295476],[-85.675022,38.301324],[-85.668703,38.310524],[-85.659902,38.319403],[-85.653646,38.327115],[-85.646206,38.342923],[-85.638782,38.36145],[-85.638014,38.366122],[-85.638526,38.376809],[-85.638053,38.380296],[-85.632942,38.395673],[-85.629966,38.402313],[-85.62163,38.417096],[-85.620526,38.423112],[-85.607634,38.439302],[-85.603838,38.442101],[-85.587763,38.450502],[-85.575259,38.453299],[-85.553309,38.453887],[-85.536547,38.45609],[-85.527169,38.458297],[-85.516944,38.461364],[-85.498871,38.468249],[-85.491427,38.474709],[-85.482902,38.485708],[-85.481251,38.488381],[-85.479477,38.49454],[-85.474359,38.504081],[-85.472226,38.506286],[-85.466696,38.510287],[-85.458501,38.514407],[-85.44173,38.520198],[-85.432921,38.524065],[-85.425792,38.528737],[-85.423082,38.531588],[-85.417327,38.54077],[-85.415605,38.546348],[-85.415277,38.555423],[-85.415826,38.563565],[-85.419888,38.573565],[-85.428295,38.586333],[-85.478767,38.586185],[-85.496457,38.592227],[-85.496671,38.606743],[-85.569985,38.606162],[-85.719723,38.605547],[-85.749968,38.605855],[-85.793589,38.604821],[-85.821462,38.575397],[-85.821167,38.561425],[-85.847898,38.561276],[-85.847593,38.547147],[-85.866346,38.547102],[-85.866273,38.518432],[-85.884713,38.518159],[-85.884781,38.503476],[-85.957107,38.501956],[-85.9562,38.488963],[-85.993322,38.488547],[-85.994625,38.418352]]]},"properties":{"shapeName":"Clark","shapeISO":"52423323B43652235718756","shapeGroup":"USA","shapeType":"ADM2","src_shape_id":"52423323B43652235718756","adm1ISO":"US-IN"}},
{"type":"Feature","geometry":{"type":"Polygon","coordinates":[[[-85.132513,38.948062],[-85.115471,38.956562],[-85.117566,38.936518],[-85.097026,38.935358],[-85.082647,38.952248],[-85.058561,38.948977],[-85.058208,38.958106],[-85.04015,38.975928],[-85.024673,38.974505],[-85.01693,38.98235],[-85.003569,38.975228],[-84.998116,38.996547],[-84.969712,38.992415],[-84.953871,38.994899],[-84.946065,39.006277],[-84.93347,39.006233],[-84.912114,39.018937],[-84.898764,39.013248],[-84.878055,39.030827],[-84.882861,39.034038],[-84.88907,39.040827],[-84.894286,39.049579],[-84.897176,39.052414],[-84.897369,39.057385],[-84.893878,39.062473],[-84.888878,39.066383],[-84.860694,39.078147],[-84.849579,39.088271],[-84.83952,39.095299],[-84.831202,39.101927],[-84.826251,39.104177],[-84.820162,39.105487],[-84.81999,39.149089],[-84.819807,39.157621],[-84.820164,39.227233],[-84.819818,39.244342],[-84.819638,39.261863],[-84.819456,39.30516],[-85.065579,39.30724],[-85.081877,39.222274],[-85.084865,39.206271],[-85.113116,39.050596],[-85.132513,38.948062]]]},"properties":{"shapeName":"Dearborn","shapeISO":"52423323B83355931672108","shapeGroup":"USA","shapeType":"ADM2","src_shape_id":"52423323B83355931672108","adm1ISO":"US-IN"}},
{"type":"Feature","geometry":{"type":"Polygon","coordinates":[[[-85.945566,41.042884],[-85.945444,41.004043],[-85.946441,40.999203],[-85.93953,40.650999],[-85.864796,40.651701],[-85.67553,40.652825],[-85.638592,40.653137],[-85.641043,40.848605],[-85.643846,41.002313],[-85.683203,41.001917],[-85.684186,41.046724],[-85.795819,41.043596],[-85.945566,41.042884]]]},"properties":{"shapeName":"Wabash","shapeISO":"52423323B5962207339550","shapeGroup":"USA","shapeType":"ADM2","src_shape_id":"52423323B5962207339550","adm1ISO":"US-IN"}},
{"type":"Feature","geometry":{"type":"Polygon","coordinates":[[[-86.318138,39.048817],[-86.370071,39.048382],[-86.369173,39.076833],[-86.372413,39.250912],[-86.379942,39.251087],[-86.3814,39.339759],[-86.464614,39.338302],[-86.574285,39.339688],[-86.630849,39.340762],[-86.630823,39.346955],[-86.651556,39.3556],[-86.658916,39.347259],[-86.657633,39.330117],[-86.685615,39.33605],[-86.683007,39.165753],[-86.682406,39.079853],[-86.682282,38.992411],[-86.573553,38.992154],[-86.317479,38.990877],[-86.318138,39.048817]]]},"properties":{"shapeName":"Monroe","shapeISO":"52423323B82693646603832","shapeGroup":"USA","shapeType":"ADM2","src_shape_id":"52423323B82693646603832","adm1ISO":"US-IN"}},
{"type":"Feature","geometry":{"type":"Polygon","coordinates":[[[-86.468514,40.909897],[-86.467226,41.084236],[-86.467051,41.17145],[-86.814394,41.172001],[-86.930175,41.172326],[-86.93094,40.977284],[-86.930764,40.912426],[-86.581537,40.910933],[-86.468514,40.909897]]]},"properties":{"shapeName":"Pulaski","shapeISO":"52423323B65186768843846","shapeGroup":"USA","shapeType":"ADM2","src_shape_id":"52423323B65186768843846","adm1ISO":"US-IN"}},
{"type":"Feature","geometry":{"type":"Polygon","coordinates":[[[-87.095362,40.562903],[-87.096904,40.732135],[-87.098395,40.736549],[-87.267304,40.73659],[-87.526135,40.736893],[-87.526298,40.535417],[-87.526385,40.491244],[-87.526516,40.476887],[-87.093681,40.475753],[-87.095362,40.562903]]]},"properties":{"shapeName":"Benton","shapeISO":"52423323B35490357444404","shapeGroup":"USA","shapeType":"ADM2","src_shape_id":"52423323B35490357444404","adm1ISO":"US-IN"}},
{"type":"Feature","geometry":{"type":"Polygon","coordinates":[[[-86.930084,41.236806],[-86.96813,41.219666],[-87.011034,41.240916],[-87.05973,41.269528],[-87.12213,41.286373],[-87.131345,41.286253],[-87.192367,41.265297],[-87.218868,41.242035],[-87.226378,41.235515],[-87.275888,41.218603],[-87.276455,40.911485],[-87.269056,40.911525],[-87.268449,40.894798],[-87.267304,40.73659],[-87.098395,40.736549],[-87.09977,40.837604],[-86.986443,40.837929],[-86.987353,40.896221],[-86.987443,40.912185],[-86.930764,40.912426],[-86.93094,40.977284],[-86.930175,41.172326],[-86.930084,41.236806]]]},"properties":{"shapeName":"Jasper","shapeISO":"52423323B69919986671378","shapeGroup":"USA","shapeType":"ADM2","src_shape_id":"52423323B69919986671378","adm1ISO":"US-IN"}},
{"type":"Feature","geometry":{"type":"Polygon","coordinates":[[[-86.682858,38.904704],[-86.904257,38.904211],[-86.904198,38.849638],[-86.904232,38.817518],[-86.922948,38.817245],[-86.923694,38.686434],[-86.924191,38.505365],[-86.918161,38.496993],[-86.877628,38.495654],[-86.844185,38.515177],[-86.837467,38.526475],[-86.682364,38.526385],[-86.682544,38.598915],[-86.683107,38.686568],[-86.68326,38.730056],[-86.682858,38.904704]]]},"properties":{"shapeName":"Martin","shapeISO":"52423323B6145912014640","shapeGroup":"USA","shapeType":"ADM2","src_shape_id":"52423323B6145912014640","adm1ISO":"US-IN"}},
{"type":"Feature","geometry":{"type":"Polygon","coordinates":[[[-87.462897,38.533526],[-87.462491,38.465617],[-87.444508,38.465496],[-87.444554,38.436132],[-87.407332,38.436327],[-87.407588,38.375508],[-87.371515,38.376821],[-87.356869,38.387913],[-87.339692,38.378807],[-87.316248,38.381489],[-87.316985,38.289782],[-87.316898,38.246084],[-87.298223,38.245893],[-87.298393,38.231678],[-87.073072,38.232603],[-87.072607,38.334693],[-87.073243,38.422361],[-87.072374,38.514707],[-87.086709,38.512853],[-87.106365,38.537241],[-87.149966,38.515622],[-87.175502,38.543961],[-87.203475,38.552245],[-87.22095,38.538836],[-87.242102,38.544937],[-87.255889,38.526592],[-87.301236,38.51027],[-87.314642,38.521413],[-87.355059,38.543535],[-87.3701,38.538036],[-87.367601,38.512951],[-87.381957,38.52035],[-87.383815,38.537779],[-87.403254,38.541411],[-87.411284,38.526552],[-87.42287,38.539621],[-87.432123,38.530522],[-87.462897,38.533526]]]},"properties":{"shapeName":"Pike","shapeISO":"52423323B70225579188436","shapeGroup":"USA","shapeType":"ADM2","src_shape_id":"52423323B70225579188436","adm1ISO":"US-IN"}},
{"type":"Feature","geometry":{"type":"Polygon","coordinates":[[[-87.688379,38.168426],[-87.688923,38.124717],[-87.69678,38.12485],[-87.698334,38.008227],[-87.70069,37.897376],[-87.688343,37.902481],[-87.684023,37.903505],[-87.680343,37.903281],[-87.675735,37.901937],[-87.671462,37.899505],[-87.666486,37.895793],[-87.66503,37.893521],[-87.66287,37.885585],[-87.662825,37.881456],[-87.664106,37.877183],[-87.668884,37.871504],[-87.673191,37.868419],[-87.675405,37.865953],[-87.681638,37.855924],[-87.681905,37.846417],[-87.680694,37.840627],[-87.679193,37.836328],[-87.675543,37.831739],[-87.672402,37.829134],[-87.666527,37.827462],[-87.655176,37.826044],[-87.645863,37.825906],[-87.635811,37.827022],[-87.625019,37.829084],[-87.615404,37.831981],[-87.612431,37.833847],[-87.606604,37.838676],[-87.591509,37.856649],[-87.588734,37.860991],[-87.588431,37.868798],[-87.591587,37.887201],[-87.597123,37.892401],[-87.601972,37.895729],[-87.608484,37.898801],[-87.620277,37.906929],[-87.623301,37.910753],[-87.626261,37.916145],[-87.628421,37.921457],[-87.628965,37.926721],[-87.625621,37.933449],[-87.619493,37.938545],[-87.610821,37.944609],[-87.606221,37.949649],[-87.603521,37.958949],[-87.605221,37.961449],[-87.605221,37.965149],[-87.603821,37.968949],[-87.601421,37.972549],[-87.596721,37.974849],[-87.589821,37.976049],[-87.585921,37.975449],[-87.57792,37.971549],[-87.57472,37.967749],[-87.57342,37.962649],[-87.574292,37.954849],[-87.572035,37.947473],[-87.568403,37.941233],[-87.565875,37.937937],[-87.559347,37.931153],[-87.551282,37.925425],[-87.545906,37.922673],[-87.531537,37.916305],[-87.520289,37.912625],[-87.511504,37.906433],[-87.507488,37.906737],[-87.501136,37.909169],[-87.490416,37.916689],[-87.486352,37.920225],[-87.465519,37.933697],[-87.451182,37.941088],[-87.450712,37.94777],[-87.449911,37.991211],[-87.449872,38.035177],[-87.472988,38.034951],[-87.472504,38.078169],[-87.472098,38.121748],[-87.467289,38.16541],[-87.688379,38.168426]]]},"properties":{"shapeName":"Vanderburgh","shapeISO":"52423323B71593821490385","shapeGroup":"USA","shapeType":"ADM2","src_shape_id":"52423323B71593821490385","adm1ISO":"US-IN"}},
{"type":"Feature","geometry":{"type":"Polygon","coordinates":[[[-87.531668,39.477127],[-87.53136,39.436663],[-87.531651,39.347895],[-87.544018,39.352914],[-87.554405,39.340495],[-87.578337,39.34035],[-87.58909,39.333838],[-87.600403,39.312911],[-87.597551,39.296395],[-87.610056,39.282239],[-87.605549,39.261129],[-87.604081,39.259466],[-87.351337,39.259202],[-87.240384,39.259071],[-87.239561,39.433568],[-87.238969,39.520627],[-87.200112,39.519865],[-87.199017,39.607144],[-87.382423,39.607944],[-87.532202,39.607313],[-87.531945,39.54586],[-87.531971,39.526944],[-87.531633,39.491705],[-87.531668,39.477127]]]},"properties":{"shapeName":"Vigo","shapeISO":"52423323B18777614483924","shapeGroup":"USA","shapeType":"ADM2","src_shape_id":"52423323B18777614483924","adm1ISO":"US-IN"}},
{"type":"Feature","geometry":{"type":"Polygon","coordinates":[[[-87.382423,39.607944],[-87.395987,39.652873],[-87.381623,39.694273],[-87.384423,39.71858],[-87.377173,39.746112],[-87.380572,39.766773],[-87.37461,39.792505],[-87.383566,39.804826],[-87.385543,39.833373],[-87.366399,39.842879],[-87.353868,39.862085],[-87.376896,39.873513],[-87.368868,39.890479],[-87.379944,39.903965],[-87.404965,39.910865],[-87.419075,39.925719],[-87.433196,39.931392],[-87.420227,39.95246],[-87.439846,39.959494],[-87.427391,39.982147],[-87.435019,40.026301],[-87.417444,40.058692],[-87.406673,40.127516],[-87.490416,40.127414],[-87.490461,40.14843],[-87.531443,40.148131],[-87.531765,40.144281],[-87.531567,40.133013],[-87.532314,40.011595],[-87.532293,40.000045],[-87.532782,39.971085],[-87.533232,39.883008],[-87.533148,39.810954],[-87.533072,39.78175],[-87.532709,39.664875],[-87.532371,39.646133],[-87.532202,39.607313],[-87.382423,39.607944]]]},"properties":{"shapeName":"Vermillion","shapeISO":"52423323B79800706132785","shapeGroup":"USA","shapeType":"ADM2","src_shape_id":"52423323B79800706132785","adm1ISO":"US-IN"}},
{"type":"Feature","geometry":{"type":"Polygon","coordinates":[[[-86.683107,38.686568],[-86.682544,38.598915],[-86.682364,38.526385],[-86.681429,38.394774],[-86.614789,38.395468],[-86.308873,38.394076],[-86.308679,38.422882],[-86.308619,38.484831],[-86.308706,38.688108],[-86.553404,38.687448],[-86.683107,38.686568]]]},"properties":{"shapeName":"Orange","shapeISO":"52423323B3825841666774","shapeGroup":"USA","shapeType":"ADM2","src_shape_id":"52423323B3825841666774","adm1ISO":"US-IN"}},
{"type":"Feature","geometry":{"type":"Polygon","coordinates":[[[-85.440059,39.195624],[-85.566325,39.132768],[-85.686788,39.130866],[-85.77436,39.129153],[-85.799839,39.128904],[-85.798809,39.068543],[-85.797264,38.969769],[-85.796467,38.911031],[-85.795362,38.807515],[-85.772665,38.80962],[-85.733196,38.831819],[-85.683844,38.815413],[-85.6106,38.824254],[-85.611004,38.853776],[-85.573781,38.853752],[-85.573811,38.882665],[-85.537436,38.882787],[-85.538205,38.912224],[-85.463482,38.91295],[-85.444902,38.913005],[-85.440059,39.195624]]]},"properties":{"shapeName":"Jennings","shapeISO":"52423323B17963948858786","shapeGroup":"USA","shapeType":"ADM2","src_shape_id":"52423323B17963948858786","adm1ISO":"US-IN"}},
{"type":"Feature","geometry":{"type":"Polygon","coordinates":[[[-86.165029,40.562657],[-86.127429,40.563106],[-86.01333,40.564136],[-85.93879,40.564807],[-85.863646,40.565533],[-85.864796,40.651701],[-85.93953,40.650999],[-85.946441,40.999203],[-86.168464,40.996105],[-86.169017,40.909844],[-86.168863,40.743525],[-86.165639,40.7408],[-86.165871,40.649645],[-86.165029,40.562657]]]},"properties":{"shapeName":"Miami","shapeISO":"52423323B68202154434089","shapeGroup":"USA","shapeType":"ADM2","src_shape_id":"52423323B68202154434089","adm1ISO":"US-IN"}},
{"type":"Feature","geometry":{"type":"Polygon","coordinates":[[[-85.998972,37.999787],[-85.976033,38.003567],[-85.958304,38.004623],[-85.951472,38.005615],[-85.945634,38.008218],[-85.939488,38.010958],[-85.93464,38.01443],[-85.93024,38.018318],[-85.925423,38.023463],[-85.9224,38.028686],[-85.921376,38.032142],[-85.919568,38.041086],[-85.918384,38.054221],[-85.916992,38.061853],[-85.913168,38.073377],[-85.906168,38.086177],[-85.904569,38.100277],[-85.905169,38.111077],[-85.909469,38.140077],[-85.908769,38.161176],[-85.899555,38.180351],[-85.900609,38.185708],[-85.957581,38.186079],[-85.955229,38.260508],[-85.973791,38.260675],[-85.973694,38.275279],[-85.992363,38.275386],[-85.995302,38.293868],[-85.995285,38.3009],[-86.01412,38.30182],[-86.014317,38.330725],[-86.032564,38.330667],[-86.032822,38.417905],[-86.141736,38.419924],[-86.25505,38.422692],[-86.259494,38.388934],[-86.247163,38.349467],[-86.270762,38.361284],[-86.281148,38.350637],[-86.274913,38.335814],[-86.273479,38.321112],[-86.289674,38.316098],[-86.259353,38.306147],[-86.264395,38.294669],[-86.253142,38.291907],[-86.274767,38.279963],[-86.276961,38.227133],[-86.294932,38.223971],[-86.289908,38.202699],[-86.306516,38.202526],[-86.317327,38.17815],[-86.330024,38.181158],[-86.317144,38.172914],[-86.30416,38.167879],[-86.287778,38.158057],[-86.271807,38.137881],[-86.271228,38.130119],[-86.278661,38.098516],[-86.278725,38.08931],[-86.273589,38.06745],[-86.266896,38.057132],[-86.261278,38.052728],[-86.249977,38.045837],[-86.233062,38.039312],[-86.225524,38.033287],[-86.220376,38.027929],[-86.206444,38.021883],[-86.190932,38.016445],[-86.178988,38.011315],[-86.172191,38.009927],[-86.167315,38.009886],[-86.141068,38.015477],[-86.127575,38.016018],[-86.118213,38.015286],[-86.108161,38.013423],[-86.095771,38.008937],[-86.08753,38.005134],[-86.080039,38.000855],[-86.073985,37.995456],[-86.07492,37.993352],[-86.071649,37.987207],[-86.064864,37.975625],[-86.061736,37.971333],[-86.053917,37.963578],[-86.048463,37.959376],[-86.042359,37.958025],[-86.038193,37.959357],[-86.03436,37.964628],[-86.033391,37.970389],[-86.035284,37.981235],[-86.035017,37.984821],[-86.032473,37.990107],[-86.029514,37.992647],[-86.02066,37.996123],[-86.009132,37.998536],[-85.998972,37.999787]]]},"properties":{"shapeName":"Harrison","shapeISO":"52423323B9300257868576","shapeGroup":"USA","shapeType":"ADM2","src_shape_id":"52423323B9300257868576","adm1ISO":"US-IN"}},
{"type":"Feature","geometry":{"type":"Polygon","coordinates":[[[-85.203171,38.91381],[-85.201587,38.690919],[-85.190512,38.687957],[-85.187283,38.687616],[-85.177117,38.688412],[-85.172533,38.688089],[-85.156163,38.692258],[-85.146866,38.695434],[-85.138685,38.699175],[-85.133054,38.702382],[-85.121362,38.711239],[-85.106907,38.720796],[-85.106984,38.721637],[-85.103318,38.72533],[-85.100968,38.726807],[-85.082185,38.735446],[-85.076374,38.739503],[-85.071933,38.741574],[-85.060269,38.744955],[-85.047972,38.750856],[-85.040943,38.75517],[-85.023589,38.762042],[-85.011777,38.766719],[-84.999954,38.774722],[-84.995944,38.776763],[-84.990011,38.77839],[-84.978728,38.779287],[-84.96254,38.778042],[-84.947649,38.77528],[-84.941076,38.775634],[-84.932982,38.777526],[-84.915239,38.784093],[-84.901879,38.790611],[-84.893935,38.793711],[-84.887924,38.794659],[-84.856909,38.790231],[-84.847923,38.788113],[-84.835677,38.784296],[-84.828719,38.783215],[-84.821383,38.783118],[-84.814646,38.784495],[-84.812882,38.786094],[-84.811757,38.789176],[-84.81165,38.792773],[-84.813944,38.800216],[-84.816511,38.805327],[-84.827103,38.818641],[-84.829891,38.825412],[-84.829963,38.830639],[-84.827493,38.834916],[-84.823368,38.839203],[-84.817174,38.843427],[-84.803252,38.85073],[-84.794621,38.857127],[-84.791007,38.860579],[-84.788307,38.864332],[-84.785804,38.869503],[-84.784584,38.875327],[-84.785239,38.880446],[-84.788148,38.883735],[-84.800252,38.891077],[-84.812751,38.895139],[-84.819078,38.895476],[-84.830477,38.897263],[-84.860764,38.897661],[-84.867783,38.89914],[-84.870624,38.901016],[-85.140317,38.903201],[-85.135837,38.929585],[-85.202854,38.92853],[-85.203171,38.91381]]]},"properties":{"shapeName":"Switzerland","shapeISO":"52423323B76202305495147","shapeGroup":"USA","shapeType":"ADM2","src_shape_id":"52423323B76202305495147","adm1ISO":"US-IN"}},
{"type":"Feature","geometry":{"type":"Polygon","coordinates":[[[-85.994625,38.418352],[-86.014144,38.419086],[-86.032822,38.417905],[-86.032564,38.330667],[-86.014317,38.330725],[-86.01412,38.30182],[-85.995285,38.3009],[-85.995302,38.293868],[-85.992363,38.275386],[-85.973694,38.275279],[-85.973791,38.260675],[-85.955229,38.260508],[-85.957581,38.186079],[-85.900609,38.185708],[-85.899555,38.180351],[-85.897669,38.184276],[-85.894769,38.188476],[-85.880269,38.203376],[-85.868569,38.211976],[-85.851441,38.223196],[-85.845469,38.230277],[-85.839669,38.239777],[-85.837969,38.251177],[-85.838069,38.257376],[-85.834869,38.268076],[-85.829369,38.276776],[-85.823769,38.280576],[-85.816169,38.282976],[-85.802568,38.284976],[-85.796068,38.286676],[-85.79158,38.288573],[-85.793828,38.314158],[-85.78319,38.320286],[-85.797155,38.332485],[-85.763918,38.34859],[-85.807709,38.40445],[-85.920406,38.403815],[-85.966887,38.403462],[-85.994635,38.410956],[-85.994625,38.418352]]]},"properties":{"shapeName":"Floyd","shapeISO":"52423323B55825448970997","shapeGroup":"USA","shapeType":"ADM2","src_shape_id":"52423323B55825448970997","adm1ISO":"US-IN"}},
{"type":"Feature","geometry":{"type":"Polygon","coordinates":[[[-85.068484,40.568248],[-84.80227,40.572223],[-84.80214,40.644867],[-84.802225,40.674784],[-84.802099,40.702484],[-84.802124,40.728154],[-84.802543,40.765523],[-84.802175,40.800609],[-84.802941,40.922575],[-85.073866,40.917831],[-85.071029,40.744894],[-85.07025,40.740629],[-85.068484,40.568248]]]},"properties":{"shapeName":"Adams","shapeISO":"52423323B32450220216065","shapeGroup":"USA","shapeType":"ADM2","src_shape_id":"52423323B32450220216065","adm1ISO":"US-IN"}},
{"type":"Feature","geometry":{"type":"Polygon","coordinates":[[[-85.937592,39.927145],[-85.938089,39.923204],[-85.938072,39.86982],[-85.953688,39.856125],[-85.953128,39.826785],[-85.952907,39.806757],[-85.952587,39.797388],[-85.952317,39.771977],[-85.951704,39.726427],[-85.951726,39.697144],[-85.894881,39.69845],[-85.633233,39.69847],[-85.633496,39.786185],[-85.596921,39.786527],[-85.596683,39.872934],[-85.576803,39.872816],[-85.576197,39.945764],[-85.805716,39.944575],[-85.862494,39.943626],[-85.8624,39.928951],[-85.937592,39.927145]]]},"properties":{"shapeName":"Hancock","shapeISO":"52423323B28427139974873","shapeGroup":"USA","shapeType":"ADM2","src_shape_id":"52423323B28427139974873","adm1ISO":"US-IN"}},
{"type":"Feature","geometry":{"type":"Polygon","coordinates":[[[-85.135837,38.929585],[-85.140317,38.903201],[-84.870624,38.901016],[-84.877034,38.909023],[-84.879273,38.916123],[-84.877767,38.920364],[-84.870764,38.929238],[-84.864736,38.9349],[-84.835165,38.957968],[-84.832622,38.961467],[-84.829862,38.969392],[-84.830624,38.974905],[-84.833478,38.981529],[-84.837125,38.988066],[-84.839835,38.991297],[-84.847099,38.997316],[-84.850359,39.003257],[-84.856964,39.011535],[-84.870173,39.025558],[-84.878055,39.030827],[-84.898764,39.013248],[-84.912114,39.018937],[-84.93347,39.006233],[-84.946065,39.006277],[-84.953871,38.994899],[-84.969712,38.992415],[-84.998116,38.996547],[-85.003569,38.975228],[-85.01693,38.98235],[-85.024673,38.974505],[-85.04015,38.975928],[-85.058208,38.958106],[-85.058561,38.948977],[-85.082647,38.952248],[-85.097026,38.935358],[-85.117566,38.936518],[-85.115471,38.956562],[-85.132513,38.948062],[-85.135837,38.929585]]]},"properties":{"shapeName":"Ohio","shapeISO":"52423323B39120505326627","shapeGroup":"USA","shapeType":"ADM2","src_shape_id":"52423323B39120505326627","adm1ISO":"US-IN"}},
{"type":"Feature","geometry":{"type":"Polygon","coordinates":[[[-86.461039,38.121182],[-86.460605,38.201484],[-86.46043,38.206832],[-86.57169,38.207546],[-86.570141,38.266335],[-86.679516,38.263093],[-86.678997,38.248069],[-86.792157,38.249107],[-86.791502,38.205137],[-86.791321,38.180078],[-86.803574,38.181437],[-86.79556,38.1568],[-86.806266,38.143126],[-86.795021,38.123551],[-86.80724,38.11796],[-86.792453,38.116651],[-86.767218,38.094354],[-86.780321,38.078938],[-86.767357,38.056931],[-86.782633,38.048445],[-86.772372,37.998172],[-86.790523,38.003635],[-86.798298,38.015535],[-86.814761,37.998681],[-86.810918,37.997157],[-86.79499,37.988989],[-86.790602,37.980069],[-86.788049,37.972847],[-86.779998,37.956529],[-86.765059,37.932517],[-86.750995,37.9129],[-86.734723,37.896594],[-86.731465,37.894347],[-86.722252,37.892655],[-86.718467,37.89313],[-86.707821,37.898374],[-86.691999,37.908536],[-86.68602,37.913091],[-86.680934,37.915017],[-86.673043,37.91491],[-86.660893,37.913066],[-86.650092,37.910623],[-86.647086,37.908628],[-86.645518,37.906536],[-86.644148,37.902373],[-86.644044,37.898209],[-86.644759,37.894813],[-86.648732,37.886043],[-86.658379,37.869383],[-86.661238,37.862768],[-86.6625,37.856958],[-86.661642,37.849721],[-86.658273,37.844151],[-86.655301,37.842515],[-86.652521,37.841643],[-86.648033,37.841432],[-86.63827,37.842725],[-86.634276,37.843852],[-86.625768,37.847273],[-86.61522,37.852864],[-86.609168,37.855415],[-86.604629,37.858279],[-86.598113,37.867389],[-86.597481,37.871485],[-86.599395,37.87476],[-86.598322,37.880427],[-86.598156,37.88456],[-86.600101,37.901225],[-86.599853,37.906761],[-86.598457,37.910972],[-86.59613,37.914296],[-86.588586,37.921166],[-86.586547,37.922292],[-86.580327,37.923152],[-86.566261,37.922171],[-86.548512,37.917849],[-86.540727,37.916878],[-86.534161,37.917014],[-86.528284,37.918625],[-86.519245,37.92217],[-86.51101,37.926127],[-86.506625,37.930726],[-86.507048,37.936446],[-86.509395,37.942499],[-86.512593,37.946957],[-86.51858,37.951805],[-86.520508,37.954445],[-86.523836,37.962176],[-86.525179,37.968235],[-86.524893,37.981841],[-86.525849,37.998392],[-86.525676,38.007152],[-86.524661,38.012901],[-86.52439,38.018616],[-86.524974,38.027886],[-86.52183,38.038334],[-86.517294,38.042641],[-86.511765,38.044455],[-86.500056,38.045764],[-86.490774,38.04568],[-86.480398,38.045585],[-86.471908,38.046225],[-86.452197,38.050497],[-86.438241,38.060433],[-86.432794,38.067178],[-86.430096,38.078645],[-86.434051,38.08677],[-86.4588,38.096411],[-86.463863,38.101184],[-86.466222,38.106788],[-86.466086,38.114444],[-86.463253,38.119285],[-86.461039,38.121182]]]},"properties":{"shapeName":"Perry","shapeISO":"52423323B11112543389070","shapeGroup":"USA","shapeType":"ADM2","src_shape_id":"52423323B11112543389070","adm1ISO":"US-IN"}},
{"type":"Feature","geometry":{"type":"Polygon","coordinates":[[[-84.806087,41.696097],[-84.806023,41.707493],[-84.806139,41.743123],[-84.805888,41.760224],[-84.825135,41.759999],[-84.932489,41.759699],[-84.972808,41.759374],[-85.037822,41.759809],[-85.039441,41.759993],[-85.117272,41.759708],[-85.172235,41.759626],[-85.196779,41.759743],[-85.194089,41.526445],[-85.080818,41.527016],[-84.96851,41.528073],[-84.804734,41.530143],[-84.805817,41.613048],[-84.805678,41.63235],[-84.806215,41.674558],[-84.806087,41.696097]]]},"properties":{"shapeName":"Steuben","shapeISO":"52423323B27504102629323","shapeGroup":"USA","shapeType":"ADM2","src_shape_id":"52423323B27504102629323","adm1ISO":"US-IN"}},
{"type":"Feature","geometry":{"type":"Polygon","coordinates":[[[-86.275286,38.763802],[-86.300133,38.729608],[-86.310063,38.733138],[-86.308706,38.688108],[-86.308619,38.484831],[-86.308679,38.422882],[-86.25505,38.422692],[-86.141736,38.419924],[-86.032822,38.417905],[-86.014144,38.419086],[-85.994625,38.418352],[-85.993322,38.488547],[-85.9562,38.488963],[-85.957107,38.501956],[-85.884781,38.503476],[-85.884713,38.518159],[-85.866273,38.518432],[-85.866346,38.547102],[-85.847593,38.547147],[-85.847898,38.561276],[-85.84858,38.576273],[-85.885648,38.575419],[-85.888339,38.73445],[-85.890785,38.729729],[-85.908454,38.756158],[-85.915616,38.745965],[-85.936515,38.755841],[-85.948382,38.753643],[-85.960867,38.764192],[-85.976646,38.7524],[-85.984257,38.768122],[-86.025741,38.756016],[-86.055085,38.77314],[-86.075071,38.774734],[-86.092543,38.783469],[-86.102361,38.765762],[-86.134949,38.762432],[-86.184107,38.783595],[-86.197656,38.773776],[-86.224073,38.779154],[-86.237149,38.767804],[-86.254108,38.770125],[-86.275286,38.763802]]]},"properties":{"shapeName":"Washington","shapeISO":"52423323B26217734991778","shapeGroup":"USA","shapeType":"ADM2","src_shape_id":"52423323B26217734991778","adm1ISO":"US-IN"}},
{"type":"Feature","geometry":{"type":"Polygon","coordinates":[[[-87.688379,38.168426],[-87.688213,38.201008],[-87.799682,38.201951],[-87.799174,38.228587],[-87.985274,38.230072],[-87.984935,38.228267],[-87.98424,38.209967],[-87.975825,38.197841],[-87.959506,38.184383],[-87.937168,38.172196],[-87.933765,38.164358],[-87.933774,38.156324],[-87.927474,38.151953],[-87.925506,38.146258],[-87.927836,38.141552],[-87.935141,38.139435],[-87.945478,38.126623],[-87.955878,38.132904],[-87.960488,38.132102],[-87.967355,38.132146],[-87.970799,38.128926],[-87.974451,38.120843],[-87.974225,38.111387],[-87.979932,38.108027],[-87.986964,38.107157],[-87.998316,38.108495],[-88.013124,38.103534],[-88.016735,38.097264],[-88.012137,38.085282],[-88.004703,38.083972],[-87.962216,38.100061],[-87.956884,38.088291],[-87.961266,38.078302],[-87.967232,38.067112],[-87.988776,38.055598],[-88.001336,38.051552],[-88.035338,38.051152],[-88.041851,38.038188],[-88.03089,38.03072],[-88.017637,38.034752],[-88.007637,38.029152],[-88.023337,38.015452],[-88.021885,37.995966],[-88.01258,37.977069],[-88.012935,37.966551],[-88.016317,37.961581],[-88.020874,37.959358],[-88.028224,37.958416],[-88.031995,37.958597],[-88.036694,37.956879],[-88.03613,37.942753],[-88.054128,37.933036],[-88.059908,37.933838],[-88.068954,37.928572],[-88.065196,37.919691],[-88.030205,37.914353],[-88.020066,37.912907],[-88.013361,37.894861],[-88.018699,37.88841],[-88.026575,37.891031],[-88.040867,37.891774],[-88.055379,37.891245],[-88.071455,37.89582],[-88.086243,37.90572],[-88.095668,37.905815],[-88.097898,37.901524],[-88.094962,37.893696],[-88.092859,37.891831],[-88.078535,37.879125],[-88.06737,37.856058],[-88.057582,37.847897],[-88.033315,37.841924],[-88.026388,37.831114],[-88.040277,37.822348],[-88.047953,37.821734],[-88.060218,37.822856],[-88.074048,37.829167],[-88.083677,37.830182],[-88.09089,37.824475],[-88.08321,37.810904],[-88.068928,37.80099],[-88.057561,37.802038],[-88.044255,37.808582],[-88.035462,37.809527],[-88.029388,37.803608],[-88.028036,37.799231],[-88.021027,37.801416],[-88.01515,37.801937],[-88.004712,37.800152],[-87.997107,37.797679],[-87.993104,37.795763],[-87.991173,37.794056],[-87.987162,37.792209],[-87.984363,37.791807],[-87.976394,37.788011],[-87.97181,37.784655],[-87.970267,37.781863],[-87.960035,37.77323],[-87.952595,37.771749],[-87.948599,37.772351],[-87.944511,37.775263],[-87.938603,37.787921],[-87.935866,37.78971],[-87.934703,37.791834],[-87.934941,37.795227],[-87.932559,37.797679],[-87.927548,37.799858],[-87.919143,37.802135],[-87.911092,37.805165],[-87.906815,37.807631],[-87.9046,37.812533],[-87.903809,37.817769],[-87.907778,37.837618],[-87.910281,37.843423],[-87.914897,37.849625],[-87.927308,37.858716],[-87.936233,37.867944],[-87.938133,37.870658],[-87.94001,37.875051],[-87.941026,37.879175],[-87.940074,37.887677],[-87.93837,37.890809],[-87.932134,37.897327],[-87.927098,37.901713],[-87.921749,37.907892],[-87.904794,37.924899],[-87.898067,37.927521],[-87.892476,37.927937],[-87.883326,37.926245],[-87.87733,37.924041],[-87.872545,37.921006],[-87.865563,37.915063],[-87.863102,37.911865],[-87.858743,37.902786],[-87.857248,37.900656],[-87.845595,37.893158],[-87.841698,37.887692],[-87.841198,37.882332],[-87.838107,37.879776],[-87.833888,37.877331],[-87.830583,37.876523],[-87.808018,37.875198],[-87.79519,37.87528],[-87.786412,37.876563],[-87.783648,37.877766],[-87.77302,37.884551],[-87.771009,37.886268],[-87.762265,37.890913],[-87.740153,37.894657],[-87.733305,37.894353],[-87.72364,37.892065],[-87.717976,37.892577],[-87.71068,37.893905],[-87.70069,37.897376],[-87.698334,38.008227],[-87.69678,38.12485],[-87.688923,38.124717],[-87.688379,38.168426]]]},"properties":{"shapeName":"Posey","shapeISO":"52423323B54248074305317","shapeGroup":"USA","shapeType":"ADM2","src_shape_id":"52423323B54248074305317","adm1ISO":"US-IN"}},
{"type":"Feature","geometry":{"type":"Polygon","coordinates":[[[-86.581537,40.910933],[-86.930764,40.912426],[-86.987443,40.912185],[-86.987353,40.896221],[-86.986443,40.837929],[-87.09977,40.837604],[-87.098395,40.736549],[-87.096904,40.732135],[-87.095362,40.562903],[-87.001201,40.562214],[-86.943802,40.561718],[-86.868998,40.561674],[-86.771298,40.56209],[-86.774235,40.664034],[-86.758306,40.66429],[-86.742594,40.681244],[-86.762233,40.679898],[-86.74871,40.688412],[-86.761378,40.697933],[-86.750016,40.736035],[-86.740489,40.737597],[-86.658785,40.736608],[-86.581744,40.735773],[-86.581537,40.910933]]]},"properties":{"shapeName":"White","shapeISO":"52423323B46958637161995","shapeGroup":"USA","shapeType":"ADM2","src_shape_id":"52423323B46958637161995","adm1ISO":"US-IN"}},
{"type":"Feature","geometry":{"type":"Polygon","coordinates":[[[-87.093681,40.475753],[-87.526516,40.476887],[-87.526815,40.462178],[-87.53006,40.250679],[-87.529998,40.250044],[-87.530833,40.191837],[-87.531443,40.148131],[-87.490461,40.14843],[-87.490416,40.127414],[-87.406673,40.127516],[-87.408532,40.142964],[-87.43878,40.164466],[-87.428004,40.178295],[-87.419906,40.192266],[-87.357589,40.210885],[-87.339279,40.223181],[-87.316322,40.246692],[-87.295301,40.256332],[-87.281955,40.277612],[-87.249688,40.299154],[-87.245792,40.308854],[-87.170133,40.334839],[-87.13153,40.3406],[-87.092153,40.36662],[-87.092817,40.471773],[-87.093681,40.475753]]]},"properties":{"shapeName":"Warren","shapeISO":"52423323B12538160234117","shapeGroup":"USA","shapeType":"ADM2","src_shape_id":"52423323B12538160234117","adm1ISO":"US-IN"}},
{"type":"Feature","geometry":{"type":"Polygon","coordinates":[[[-84.81536,39.521959],[-84.81496,39.566259],[-84.815041,39.567703],[-84.815161,39.568359],[-84.81471,39.628862],[-84.814328,39.655822],[-84.814624,39.669182],[-84.814134,39.726628],[-84.96952,39.72681],[-85.034413,39.729271],[-85.03458,39.714772],[-85.034962,39.657077],[-85.036092,39.526221],[-85.022823,39.52439],[-84.81536,39.521959]]]},"properties":{"shapeName":"Union","shapeISO":"52423323B55431880167171","shapeGroup":"USA","shapeType":"ADM2","src_shape_id":"52423323B55431880167171","adm1ISO":"US-IN"}},
{"type":"Feature","geometry":{"type":"Polygon","coordinates":[[[-86.524228,41.759464],[-86.640049,41.759679],[-86.641369,41.759641],[-86.746526,41.75999],[-86.800616,41.760259],[-86.824833,41.760248],[-86.875435,41.737947],[-86.909136,41.726946],[-86.932752,41.711048],[-86.92978,41.519027],[-86.930178,41.434283],[-86.930084,41.236806],[-86.920548,41.245036],[-86.87027,41.264561],[-86.814657,41.273509],[-86.783478,41.285473],[-86.7615,41.307494],[-86.74,41.321716],[-86.723783,41.360365],[-86.707727,41.380995],[-86.700635,41.40199],[-86.670803,41.413881],[-86.642547,41.432647],[-86.524716,41.432894],[-86.524945,41.519683],[-86.503617,41.519542],[-86.498145,41.531417],[-86.498163,41.561091],[-86.486438,41.570553],[-86.487572,41.649333],[-86.526687,41.650448],[-86.525413,41.694589],[-86.524228,41.759464]]]},"properties":{"shapeName":"LaPorte","shapeISO":"52423323B64026366373920","shapeGroup":"USA","shapeType":"ADM2","src_shape_id":"52423323B64026366373920","adm1ISO":"US-IN"}},
{"type":"Feature","geometry":{"type":"Polygon","coordinates":[[[-86.930084,41.236806],[-86.930178,41.434283],[-86.92978,41.519027],[-86.932752,41.711048],[-86.934836,41.709646],[-87.027894,41.674669],[-87.066039,41.661853],[-87.120328,41.645709],[-87.125841,41.65031],[-87.16079,41.645393],[-87.160631,41.637274],[-87.187657,41.629661],[-87.220666,41.624364],[-87.22265,41.624169],[-87.221361,41.547188],[-87.220639,41.521622],[-87.219959,41.47071],[-87.219631,41.434603],[-87.219658,41.384838],[-87.220272,41.333335],[-87.218868,41.242035],[-87.192367,41.265297],[-87.131345,41.286253],[-87.12213,41.286373],[-87.05973,41.269528],[-87.011034,41.240916],[-86.96813,41.219666],[-86.930084,41.236806]]]},"properties":{"shapeName":"Porter","shapeISO":"52423323B69237488577242","shapeGroup":"USA","shapeType":"ADM2","src_shape_id":"52423323B69237488577242","adm1ISO":"US-IN"}},
{"type":"Feature","geometry":{"type":"Polygon","coordinates":[[[-85.194089,41.526445],[-85.196779,41.759743],[-85.272221,41.760007],[-85.273718,41.759778],[-85.292183,41.759971],[-85.308145,41.760105],[-85.318134,41.759991],[-85.379138,41.759883],[-85.432476,41.759692],[-85.515964,41.75936],[-85.518256,41.759521],[-85.607553,41.759087],[-85.632719,41.759172],[-85.659755,41.759109],[-85.654752,41.523355],[-85.423507,41.525604],[-85.308466,41.526206],[-85.194089,41.526445]]]},"properties":{"shapeName":"LaGrange","shapeISO":"52423323B51679482550394","shapeGroup":"USA","shapeType":"ADM2","src_shape_id":"52423323B51679482550394","adm1ISO":"US-IN"}},
{"type":"Feature","geometry":{"type":"Polygon","coordinates":[[[-85.576202,40.077151],[-85.576413,40.047847],[-85.57637,39.990111],[-85.576197,39.945764],[-85.576803,39.872816],[-85.596683,39.872934],[-85.596921,39.786527],[-85.409216,39.787318],[-85.301589,39.787587],[-85.221123,39.788457],[-85.220733,39.873584],[-85.20095,39.873807],[-85.200809,39.960713],[-85.201478,40.004529],[-85.213501,40.004388],[-85.214391,40.076897],[-85.442552,40.076694],[-85.576202,40.077151]]]},"properties":{"shapeName":"Henry","shapeISO":"52423323B38400946045463","shapeGroup":"USA","shapeType":"ADM2","src_shape_id":"52423323B38400946045463","adm1ISO":"US-IN"}},
{"type":"Feature","geometry":{"type":"Polygon","coordinates":[[[-87.092568,40.214814],[-87.092153,40.36662],[-87.13153,40.3406],[-87.170133,40.334839],[-87.245792,40.308854],[-87.249688,40.299154],[-87.281955,40.277612],[-87.295301,40.256332],[-87.316322,40.246692],[-87.339279,40.223181],[-87.357589,40.210885],[-87.419906,40.192266],[-87.428004,40.178295],[-87.43878,40.164466],[-87.408532,40.142964],[-87.406673,40.127516],[-87.417444,40.058692],[-87.435019,40.026301],[-87.427391,39.982147],[-87.439846,39.959494],[-87.420227,39.95246],[-87.318526,39.952761],[-87.091011,39.953017],[-87.091357,40.034629],[-87.092147,40.039027],[-87.092568,40.214814]]]},"properties":{"shapeName":"Fountain","shapeISO":"52423323B15325953487278","shapeGroup":"USA","shapeType":"ADM2","src_shape_id":"52423323B15325953487278","adm1ISO":"US-IN"}},
{"type":"Feature","geometry":{"type":"Polygon","coordinates":[[[-85.578594,40.379532],[-85.786196,40.378931],[-85.862301,40.378375],[-85.860396,40.291463],[-85.861908,40.218944],[-85.863283,40.103869],[-85.862245,40.002296],[-85.862494,39.943626],[-85.805716,39.944575],[-85.576197,39.945764],[-85.57637,39.990111],[-85.576413,40.047847],[-85.576202,40.077151],[-85.575908,40.142251],[-85.575987,40.149609],[-85.577023,40.306389],[-85.578594,40.379532]]]},"properties":{"shapeName":"Madison","shapeISO":"52423323B58463345388651","shapeGroup":"USA","shapeType":"ADM2","src_shape_id":"52423323B58463345388651","adm1ISO":"US-IN"}},
{"type":"Feature","geometry":{"type":"Polygon","coordinates":[[[-86.374422,40.561369],[-86.375156,40.517847],[-86.375767,40.431859],[-86.309254,40.43172],[-86.30933,40.38838],[-86.280834,40.388347],[-86.28076,40.373742],[-86.242997,40.373669],[-86.242817,40.402922],[-86.127118,40.404345],[-86.06065,40.405206],[-85.975511,40.406235],[-85.862122,40.406897],[-85.863052,40.478736],[-85.863646,40.565533],[-85.93879,40.564807],[-86.01333,40.564136],[-86.127429,40.563106],[-86.165029,40.562657],[-86.261253,40.56189],[-86.374422,40.561369]]]},"properties":{"shapeName":"Howard","shapeISO":"52423323B16431828353602","shapeGroup":"USA","shapeType":"ADM2","src_shape_id":"52423323B16431828353602","adm1ISO":"US-IN"}},
{"type":"Feature","geometry":{"type":"Polygon","coordinates":[[[-86.326346,39.632185],[-86.24989,39.633653],[-86.205521,39.634254],[-86.163754,39.635007],[-86.111235,39.635758],[-85.952085,39.638353],[-85.951726,39.697144],[-85.951704,39.726427],[-85.952317,39.771977],[-85.952587,39.797388],[-85.952907,39.806757],[-85.953128,39.826785],[-85.953688,39.856125],[-85.938072,39.86982],[-85.938089,39.923204],[-85.937592,39.927145],[-85.995042,39.927008],[-86.01256,39.927326],[-86.076188,39.926958],[-86.165071,39.926914],[-86.202869,39.926636],[-86.239744,39.926063],[-86.278476,39.924737],[-86.326298,39.924037],[-86.325378,39.866184],[-86.328017,39.859277],[-86.327296,39.8225],[-86.326642,39.778653],[-86.326505,39.72945],[-86.326596,39.719494],[-86.326346,39.632185]]]},"properties":{"shapeName":"Marion","shapeISO":"52423323B96671648838134","shapeGroup":"USA","shapeType":"ADM2","src_shape_id":"52423323B96671648838134","adm1ISO":"US-IN"}},
{"type":"Feature","geometry":{"type":"Polygon","coordinates":[[[-86.685715,39.47007],[-86.632211,39.470221],[-86.631915,39.441093],[-86.630784,39.426552],[-86.63096,39.406263],[-86.630823,39.346955],[-86.630849,39.340762],[-86.574285,39.339688],[-86.464614,39.338302],[-86.3814,39.339759],[-86.251689,39.341679],[-86.251425,39.374787],[-86.251626,39.516679],[-86.250296,39.517502],[-86.250631,39.567944],[-86.24989,39.633653],[-86.326346,39.632185],[-86.417899,39.630465],[-86.465936,39.63004],[-86.46561,39.600777],[-86.559852,39.60087],[-86.656655,39.601403],[-86.659599,39.579213],[-86.648324,39.565881],[-86.653947,39.551973],[-86.687566,39.521909],[-86.685715,39.47007]]]},"properties":{"shapeName":"Morgan","shapeISO":"52423323B18184838722904","shapeGroup":"USA","shapeType":"ADM2","src_shape_id":"52423323B18184838722904","adm1ISO":"US-IN"}},
{"type":"Feature","geometry":{"type":"Polygon","coordinates":[[[-86.242748,40.215842],[-86.242997,40.373669],[-86.28076,40.373742],[-86.280834,40.388347],[-86.30933,40.38838],[-86.309254,40.43172],[-86.375767,40.431859],[-86.563469,40.431451],[-86.580937,40.431502],[-86.69467,40.432164],[-86.695165,40.301206],[-86.695258,40.258219],[-86.695642,40.214375],[-86.695809,40.178665],[-86.356459,40.178117],[-86.351826,40.178561],[-86.24237,40.180786],[-86.242748,40.215842]]]},"properties":{"shapeName":"Clinton","shapeISO":"52423323B28494216469443","shapeGroup":"USA","shapeType":"ADM2","src_shape_id":"52423323B28494216469443","adm1ISO":"US-IN"}},
{"type":"Feature","geometry":{"type":"Polygon","coordinates":[[[-87.098776,38.903981],[-87.090699,38.900296],[-87.117115,38.89899],[-87.130585,38.885542],[-87.119966,38.873283],[-87.143714,38.867368],[-87.141866,38.847965],[-87.149325,38.838387],[-87.170386,38.846943],[-87.173364,38.829411],[-87.186854,38.833807],[-87.213272,38.807984],[-87.23992,38.819271],[-87.246605,38.807708],[-87.239783,38.786325],[-87.25319,38.779603],[-87.257563,38.767753],[-87.243158,38.768846],[-87.243877,38.750054],[-87.254621,38.73213],[-87.260949,38.733861],[-87.26246,38.728907],[-87.257048,38.71887],[-87.269637,38.708434],[-87.278558,38.69135],[-87.262895,38.688064],[-87.272608,38.679827],[-87.256984,38.66596],[-87.255703,38.65523],[-87.238676,38.658886],[-87.240634,38.632135],[-87.252963,38.631461],[-87.238829,38.610555],[-87.255084,38.612811],[-87.247115,38.600525],[-87.247299,38.583136],[-87.237837,38.575728],[-87.247592,38.569473],[-87.23744,38.552394],[-87.242102,38.544937],[-87.22095,38.538836],[-87.203475,38.552245],[-87.175502,38.543961],[-87.149966,38.515622],[-87.106365,38.537241],[-87.086709,38.512853],[-87.072374,38.514707],[-87.06382,38.501664],[-87.045078,38.510872],[-87.02539,38.507401],[-86.993956,38.513044],[-86.974768,38.50196],[-86.956222,38.503446],[-86.942518,38.4926],[-86.936594,38.504269],[-86.924191,38.505365],[-86.923694,38.686434],[-86.922948,38.817245],[-86.904232,38.817518],[-86.904198,38.849638],[-86.904257,38.904211],[-87.035425,38.902467],[-87.098776,38.903981]]]},"properties":{"shapeName":"Daviess","shapeISO":"52423323B20266765570331","shapeGroup":"USA","shapeType":"ADM2","src_shape_id":"52423323B20266765570331","adm1ISO":"US-IN"}},
{"type":"Feature","geometry":{"type":"Polygon","coordinates":[[[-85.03458,39.714772],[-85.034413,39.729271],[-84.96952,39.72681],[-84.814134,39.726628],[-84.814214,39.799763],[-84.814184,39.81422],[-84.813798,39.826779],[-84.813708,39.843067],[-84.812703,39.891593],[-84.812416,39.916924],[-84.812198,39.927348],[-84.811217,39.995339],[-84.810938,40.005087],[-85.126782,40.004213],[-85.14588,40.004702],[-85.201478,40.004529],[-85.200809,39.960713],[-85.20095,39.873807],[-85.220733,39.873584],[-85.221123,39.788457],[-85.183477,39.788405],[-85.185094,39.715523],[-85.120728,39.715038],[-85.03458,39.714772]]]},"properties":{"shapeName":"Wayne","shapeISO":"52423323B20136389487822","shapeGroup":"USA","shapeType":"ADM2","src_shape_id":"52423323B20136389487822","adm1ISO":"US-IN"}},
{"type":"Feature","geometry":{"type":"Polygon","coordinates":[[[-87.651534,38.568173],[-87.650709,38.556247],[-87.660737,38.541099],[-87.655785,38.521213],[-87.653807,38.517389],[-87.654171,38.511918],[-87.657089,38.507176],[-87.663706,38.502938],[-87.678379,38.498445],[-87.693193,38.488045],[-87.714052,38.479887],[-87.730773,38.478724],[-87.739527,38.475076],[-87.74354,38.467781],[-87.743175,38.459026],[-87.735734,38.452993],[-87.730139,38.446525],[-87.730704,38.442915],[-87.741045,38.435583],[-87.744387,38.414504],[-87.700127,38.421871],[-87.661707,38.435684],[-87.673486,38.446482],[-87.655847,38.458059],[-87.652076,38.449165],[-87.639273,38.45553],[-87.637933,38.446136],[-87.599322,38.450728],[-87.573563,38.491085],[-87.540185,38.492831],[-87.549467,38.511652],[-87.536787,38.51846],[-87.533278,38.500991],[-87.520615,38.503589],[-87.494676,38.495699],[-87.490173,38.50634],[-87.472409,38.51369],[-87.476102,38.52802],[-87.462897,38.533526],[-87.432123,38.530522],[-87.42287,38.539621],[-87.411284,38.526552],[-87.403254,38.541411],[-87.383815,38.537779],[-87.381957,38.52035],[-87.367601,38.512951],[-87.3701,38.538036],[-87.355059,38.543535],[-87.314642,38.521413],[-87.301236,38.51027],[-87.255889,38.526592],[-87.242102,38.544937],[-87.23744,38.552394],[-87.247592,38.569473],[-87.237837,38.575728],[-87.247299,38.583136],[-87.247115,38.600525],[-87.255084,38.612811],[-87.238829,38.610555],[-87.252963,38.631461],[-87.240634,38.632135],[-87.238676,38.658886],[-87.255703,38.65523],[-87.256984,38.66596],[-87.272608,38.679827],[-87.262895,38.688064],[-87.278558,38.69135],[-87.269637,38.708434],[-87.257048,38.71887],[-87.26246,38.728907],[-87.260949,38.733861],[-87.254621,38.73213],[-87.243877,38.750054],[-87.243158,38.768846],[-87.257563,38.767753],[-87.25319,38.779603],[-87.239783,38.786325],[-87.246605,38.807708],[-87.23992,38.819271],[-87.213272,38.807984],[-87.186854,38.833807],[-87.173364,38.829411],[-87.170386,38.846943],[-87.149325,38.838387],[-87.141866,38.847965],[-87.143714,38.867368],[-87.119966,38.873283],[-87.130585,38.885542],[-87.117115,38.89899],[-87.090699,38.900296],[-87.098776,38.903981],[-87.129887,38.907322],[-87.241032,38.907881],[-87.241072,38.901598],[-87.52765,38.907695],[-87.544094,38.8951],[-87.547375,38.875621],[-87.553389,38.863351],[-87.55052,38.859567],[-87.53436,38.852502],[-87.525898,38.848802],[-87.521686,38.826583],[-87.527347,38.818128],[-87.496542,38.778578],[-87.498953,38.757781],[-87.496499,38.742735],[-87.516712,38.71634],[-87.519614,38.697205],[-87.531236,38.684043],[-87.545543,38.67762],[-87.593683,38.667409],[-87.620125,38.639496],[-87.62238,38.61888],[-87.627353,38.605447],[-87.624148,38.596962],[-87.623895,38.593991],[-87.626449,38.591073],[-87.629367,38.589978],[-87.637757,38.588519],[-87.651534,38.568173]]]},"properties":{"shapeName":"Knox","shapeISO":"52423323B4798034374096","shapeGroup":"USA","shapeType":"ADM2","src_shape_id":"52423323B4798034374096","adm1ISO":"US-IN"}},
{"type":"Feature","geometry":{"type":"Polygon","coordinates":[[[-85.653512,41.436864],[-85.654752,41.523355],[-85.659755,41.759109],[-85.724539,41.759093],[-85.775044,41.759155],[-85.79134,41.759059],[-85.88883,41.75943],[-85.991307,41.759957],[-86.041032,41.76052],[-86.06258,41.760536],[-86.061364,41.680505],[-86.060907,41.653456],[-86.061089,41.650688],[-86.060526,41.586539],[-86.059445,41.521473],[-86.059778,41.516461],[-86.059456,41.479162],[-86.059235,41.43582],[-85.885829,41.435649],[-85.768713,41.435753],[-85.653512,41.436864]]]},"properties":{"shapeName":"Elkhart","shapeISO":"52423323B1645348206276","shapeGroup":"USA","shapeType":"ADM2","src_shape_id":"52423323B1645348206276","adm1ISO":"US-IN"}},
{"type":"Feature","geometry":{"type":"Polygon","coordinates":[[[-85.192099,41.264217],[-85.307786,41.264166],[-85.309795,41.179265],[-85.338557,41.179128],[-85.337029,41.089731],[-85.335648,41.005258],[-85.335379,41.002055],[-85.336035,40.91709],[-85.167068,40.916593],[-85.073866,40.917831],[-84.802941,40.922575],[-84.803318,40.989402],[-84.803379,41.08931],[-84.803239,41.121422],[-84.803785,41.140528],[-84.803418,41.164657],[-84.803477,41.173897],[-84.803497,41.25257],[-84.803587,41.271281],[-85.077809,41.265609],[-85.192099,41.264217]]]},"properties":{"shapeName":"Allen","shapeISO":"52423323B16491815887155","shapeGroup":"USA","shapeType":"ADM2","src_shape_id":"52423323B16491815887155","adm1ISO":"US-IN"}},
{"type":"Feature","geometry":{"type":"Polygon","coordinates":[[[-85.95201,39.34738],[-85.953169,39.383528],[-85.951394,39.523133],[-85.951927,39.537883],[-85.952085,39.638353],[-86.111235,39.635758],[-86.163754,39.635007],[-86.205521,39.634254],[-86.24989,39.633653],[-86.250631,39.567944],[-86.250296,39.517502],[-86.251626,39.516679],[-86.251425,39.374787],[-86.251689,39.341679],[-86.144315,39.343157],[-86.139574,39.34307],[-86.085606,39.344196],[-86.027724,39.345616],[-85.95201,39.34738]]]},"properties":{"shapeName":"Johnson","shapeISO":"52423323B4886498471892","shapeGroup":"USA","shapeType":"ADM2","src_shape_id":"52423323B4886498471892","adm1ISO":"US-IN"}},
{"type":"Feature","geometry":{"type":"Polygon","coordinates":[[[-85.888339,38.73445],[-85.885648,38.575419],[-85.84858,38.576273],[-85.847898,38.561276],[-85.821167,38.561425],[-85.821462,38.575397],[-85.793589,38.604821],[-85.749968,38.605855],[-85.719723,38.605547],[-85.569985,38.606162],[-85.570931,38.678462],[-85.608195,38.678747],[-85.608683,38.707865],[-85.645765,38.708025],[-85.646223,38.729866],[-85.683343,38.736738],[-85.683844,38.815413],[-85.733196,38.831819],[-85.772665,38.80962],[-85.795362,38.807515],[-85.804559,38.779913],[-85.819434,38.77651],[-85.841601,38.741146],[-85.869564,38.726178],[-85.881409,38.725033],[-85.888339,38.73445]]]},"properties":{"shapeName":"Scott","shapeISO":"52423323B28319824001651","shapeGroup":"USA","shapeType":"ADM2","src_shape_id":"52423323B28319824001651","adm1ISO":"US-IN"}},
{"type":"Feature","geometry":{"type":"Polygon","coordinates":[[[-87.009482,39.866713],[-87.091547,39.867273],[-87.091011,39.953017],[-87.318526,39.952761],[-87.420227,39.95246],[-87.433196,39.931392],[-87.419075,39.925719],[-87.404965,39.910865],[-87.379944,39.903965],[-87.368868,39.890479],[-87.376896,39.873513],[-87.353868,39.862085],[-87.366399,39.842879],[-87.385543,39.833373],[-87.383566,39.804826],[-87.37461,39.792505],[-87.380572,39.766773],[-87.377173,39.746112],[-87.384423,39.71858],[-87.381623,39.694273],[-87.395987,39.652873],[-87.382423,39.607944],[-87.199017,39.607144],[-87.124242,39.605769],[-87.013067,39.604794],[-87.009482,39.866713]]]},"properties":{"shapeName":"Parke","shapeISO":"52423323B17417544173704","shapeGroup":"USA","shapeType":"ADM2","src_shape_id":"52423323B17417544173704","adm1ISO":"US-IN"}},
{"type":"Feature","geometry":{"type":"Polygon","coordinates":[[[-85.336035,40.91709],[-85.335379,41.002055],[-85.335648,41.005258],[-85.393976,41.005198],[-85.452151,41.00524],[-85.643846,41.002313],[-85.641043,40.848605],[-85.638592,40.653137],[-85.44883,40.653615],[-85.343965,40.654809],[-85.334672,40.654421],[-85.336035,40.91709]]]},"properties":{"shapeName":"Huntington","shapeISO":"52423323B21091538173967","shapeGroup":"USA","shapeType":"ADM2","src_shape_id":"52423323B21091538173967","adm1ISO":"US-IN"}},
{"type":"Feature","geometry":{"type":"Polygon","coordinates":[[[-86.330024,38.181158],[-86.317327,38.17815],[-86.306516,38.202526],[-86.289908,38.202699],[-86.294932,38.223971],[-86.276961,38.227133],[-86.274767,38.279963],[-86.253142,38.291907],[-86.264395,38.294669],[-86.259353,38.306147],[-86.289674,38.316098],[-86.273479,38.321112],[-86.274913,38.335814],[-86.281148,38.350637],[-86.270762,38.361284],[-86.247163,38.349467],[-86.259494,38.388934],[-86.25505,38.422692],[-86.308679,38.422882],[-86.308873,38.394076],[-86.614789,38.395468],[-86.681429,38.394774],[-86.680913,38.350967],[-86.679516,38.263093],[-86.570141,38.266335],[-86.57169,38.207546],[-86.46043,38.206832],[-86.460605,38.201484],[-86.461039,38.121182],[-86.45712,38.124538],[-86.449798,38.12723],[-86.431754,38.126128],[-86.418765,38.1177],[-86.405073,38.105808],[-86.401658,38.105403],[-86.39622,38.107796],[-86.387221,38.124639],[-86.37978,38.129281],[-86.375329,38.130636],[-86.352471,38.128466],[-86.33515,38.129249],[-86.328403,38.132884],[-86.323458,38.139039],[-86.321279,38.147425],[-86.325946,38.154324],[-86.35363,38.159586],[-86.371745,38.16419],[-86.377439,38.171386],[-86.378156,38.185852],[-86.373806,38.193359],[-86.360382,38.198803],[-86.347741,38.19537],[-86.332815,38.182945],[-86.330024,38.181158]]]},"properties":{"shapeName":"Crawford","shapeISO":"52423323B86743622132490","shapeGroup":"USA","shapeType":"ADM2","src_shape_id":"52423323B86743622132490","adm1ISO":"US-IN"}},
{"type":"Feature","geometry":{"type":"Polygon","coordinates":[[[-87.316898,38.246084],[-87.317035,38.20176],[-87.355144,38.201632],[-87.466749,38.201293],[-87.467289,38.16541],[-87.472098,38.121748],[-87.472504,38.078169],[-87.472988,38.034951],[-87.449872,38.035177],[-87.449911,37.991211],[-87.450712,37.94777],[-87.451182,37.941088],[-87.447791,37.942434],[-87.436864,37.944199],[-87.428526,37.944818],[-87.41859,37.94477],[-87.402637,37.942274],[-87.401165,37.941234],[-87.380252,37.935603],[-87.372444,37.932051],[-87.372332,37.930035],[-87.363627,37.922355],[-87.361643,37.921011],[-87.358299,37.920547],[-87.352619,37.916131],[-87.344938,37.911171],[-87.335402,37.907572],[-87.33177,37.90826],[-87.320041,37.905748],[-87.302604,37.898565],[-87.274375,37.882949],[-87.268699,37.878657],[-87.268008,37.924773],[-87.240923,37.952276],[-87.232481,37.948188],[-87.225706,37.971674],[-87.196223,37.987461],[-87.182287,38.010781],[-87.152799,38.023584],[-87.1535,38.053595],[-87.132779,38.054547],[-87.125026,38.043873],[-87.088425,38.049821],[-87.097723,38.056756],[-87.090623,38.080279],[-87.075166,38.096416],[-87.072337,38.118287],[-87.018031,38.11829],[-87.017464,38.122008],[-87.017495,38.203587],[-87.073146,38.203828],[-87.073072,38.232603],[-87.298393,38.231678],[-87.298223,38.245893],[-87.316898,38.246084]]]},"properties":{"shapeName":"Warrick","shapeISO":"52423323B97453793122167","shapeGroup":"USA","shapeType":"ADM2","src_shape_id":"52423323B97453793122167","adm1ISO":"US-IN"}},
{"type":"Feature","geometry":{"type":"Polygon","coordinates":[[[-86.581744,40.735773],[-86.658785,40.736608],[-86.740489,40.737597],[-86.750016,40.736035],[-86.761378,40.697933],[-86.74871,40.688412],[-86.762233,40.679898],[-86.742594,40.681244],[-86.758306,40.66429],[-86.774235,40.664034],[-86.771298,40.56209],[-86.695358,40.561882],[-86.69467,40.432164],[-86.580937,40.431502],[-86.563469,40.431451],[-86.375767,40.431859],[-86.375156,40.517847],[-86.374422,40.561369],[-86.373526,40.692468],[-86.467939,40.691963],[-86.525169,40.692427],[-86.525148,40.735453],[-86.581744,40.735773]]]},"properties":{"shapeName":"Carroll","shapeISO":"52423323B58725996367098","shapeGroup":"USA","shapeType":"ADM2","src_shape_id":"52423323B58725996367098","adm1ISO":"US-IN"}},
{"type":"Feature","geometry":{"type":"Polygon","coordinates":[[[-85.201151,40.56725],[-85.200814,40.480705],[-85.206513,40.479381],[-85.206869,40.382825],[-85.206836,40.37919],[-85.219906,40.379042],[-85.218763,40.306714],[-84.803922,40.310101],[-84.804123,40.352765],[-84.804509,40.411563],[-84.803933,40.462572],[-84.802552,40.501818],[-84.802488,40.528054],[-84.80227,40.572223],[-85.068484,40.568248],[-85.201151,40.56725]]]},"properties":{"shapeName":"Jay","shapeISO":"52423323B29705647832247","shapeGroup":"USA","shapeType":"ADM2","src_shape_id":"52423323B29705647832247","adm1ISO":"US-IN"}},
{"type":"Feature","geometry":{"type":"Polygon","coordinates":[[[-86.924191,38.505365],[-86.936594,38.504269],[-86.942518,38.4926],[-86.956222,38.503446],[-86.974768,38.50196],[-86.993956,38.513044],[-87.02539,38.507401],[-87.045078,38.510872],[-87.06382,38.501664],[-87.072374,38.514707],[-87.073243,38.422361],[-87.072607,38.334693],[-87.073072,38.232603],[-87.073146,38.203828],[-87.017495,38.203587],[-86.923685,38.203035],[-86.791502,38.205137],[-86.792157,38.249107],[-86.678997,38.248069],[-86.679516,38.263093],[-86.680913,38.350967],[-86.681429,38.394774],[-86.682364,38.526385],[-86.837467,38.526475],[-86.844185,38.515177],[-86.877628,38.495654],[-86.918161,38.496993],[-86.924191,38.505365]]]},"properties":{"shapeName":"Dubois","shapeISO":"52423323B15239481819744","shapeGroup":"USA","shapeType":"ADM2","src_shape_id":"52423323B15239481819744","adm1ISO":"US-IN"}},
{"type":"Feature","geometry":{"type":"Polygon","coordinates":[[[-85.447019,40.566937],[-85.445834,40.47931],[-85.444335,40.379148],[-85.444328,40.378754],[-85.336364,40.378717],[-85.331742,40.37823],[-85.219906,40.379042],[-85.206836,40.37919],[-85.206869,40.382825],[-85.206513,40.479381],[-85.200814,40.480705],[-85.201151,40.56725],[-85.221004,40.567259],[-85.390544,40.566906],[-85.447019,40.566937]]]},"properties":{"shapeName":"Blackford","shapeISO":"52423323B73366349077261","shapeGroup":"USA","shapeType":"ADM2","src_shape_id":"52423323B73366349077261","adm1ISO":"US-IN"}},
{"type":"Feature","geometry":{"type":"Polygon","coordinates":[[[-85.861908,40.218944],[-85.860396,40.291463],[-85.862301,40.378375],[-85.862122,40.406897],[-85.975511,40.406235],[-86.06065,40.405206],[-86.127118,40.404345],[-86.242817,40.402922],[-86.242997,40.373669],[-86.242748,40.215842],[-85.935566,40.218445],[-85.861908,40.218944]]]},"properties":{"shapeName":"Tipton","shapeISO":"52423323B43901901323183","shapeGroup":"USA","shapeType":"ADM2","src_shape_id":"52423323B43901901323183","adm1ISO":"US-IN"}},
{"type":"Feature","geometry":{"type":"Polygon","coordinates":[[[-87.240742,39.17178],[-87.240384,39.259071],[-87.351337,39.259202],[-87.604081,39.259466],[-87.593491,39.247459],[-87.58354,39.243586],[-87.579168,39.232969],[-87.574563,39.218411],[-87.577034,39.21113],[-87.588619,39.197831],[-87.620802,39.174797],[-87.640441,39.166734],[-87.642782,39.157532],[-87.645996,39.144907],[-87.643151,39.128569],[-87.63225,39.118709],[-87.632879,39.114304],[-87.632254,39.10681],[-87.630381,39.104312],[-87.625384,39.101813],[-87.619139,39.100564],[-87.617265,39.096193],[-87.616641,39.089947],[-87.613518,39.085575],[-87.608522,39.082452],[-87.596378,39.079646],[-87.572593,39.057293],[-87.575032,39.034069],[-87.569701,39.01942],[-87.579122,39.001614],[-87.578324,38.988793],[-87.529501,38.971932],[-87.512192,38.954424],[-87.518831,38.923212],[-87.52765,38.907695],[-87.241072,38.901598],[-87.241032,38.907881],[-87.240923,39.084404],[-87.240742,39.17178]]]},"properties":{"shapeName":"Sullivan","shapeISO":"52423323B15974038514354","shapeGroup":"USA","shapeType":"ADM2","src_shape_id":"52423323B15974038514354","adm1ISO":"US-IN"}},
{"type":"Feature","geometry":{"type":"Polygon","coordinates":[[[-85.444902,38.913005],[-85.463482,38.91295],[-85.538205,38.912224],[-85.537436,38.882787],[-85.573811,38.882665],[-85.573781,38.853752],[-85.611004,38.853776],[-85.6106,38.824254],[-85.683844,38.815413],[-85.683343,38.736738],[-85.646223,38.729866],[-85.645765,38.708025],[-85.608683,38.707865],[-85.608195,38.678747],[-85.570931,38.678462],[-85.569985,38.606162],[-85.496671,38.606743],[-85.496457,38.592227],[-85.478767,38.586185],[-85.428295,38.586333],[-85.436175,38.598299],[-85.438599,38.605412],[-85.439356,38.610395],[-85.439463,38.632373],[-85.437743,38.648905],[-85.438747,38.659326],[-85.44482,38.67009],[-85.455491,38.682097],[-85.456983,38.689142],[-85.455972,38.695662],[-85.452119,38.709355],[-85.448867,38.713375],[-85.442276,38.719857],[-85.437771,38.726412],[-85.43407,38.729462],[-85.422026,38.734841],[-85.416636,38.736279],[-85.41093,38.737087],[-85.400486,38.735987],[-85.372289,38.730583],[-85.363832,38.730484],[-85.351781,38.731645],[-85.340958,38.7339],[-85.333057,38.73609],[-85.330812,38.736712],[-85.306054,38.741656],[-85.289231,38.742417],[-85.275459,38.741179],[-85.267644,38.739906],[-85.258851,38.737761],[-85.24651,38.731828],[-85.242439,38.726242],[-85.23867,38.722501],[-85.226067,38.705463],[-85.221129,38.700964],[-85.213262,38.695453],[-85.204505,38.691699],[-85.201587,38.690919],[-85.203171,38.91381],[-85.444902,38.913005]]]},"properties":{"shapeName":"Jefferson","shapeISO":"52423323B82585243463531","shapeGroup":"USA","shapeType":"ADM2","src_shape_id":"52423323B82585243463531","adm1ISO":"US-IN"}},
{"type":"Feature","geometry":{"type":"Polygon","coordinates":[[[-85.29758,39.453283],[-85.298115,39.525484],[-85.301589,39.787587],[-85.409216,39.787318],[-85.596921,39.786527],[-85.633496,39.786185],[-85.633233,39.69847],[-85.63253,39.697512],[-85.632776,39.625714],[-85.632229,39.611168],[-85.629332,39.452758],[-85.413695,39.453132],[-85.29758,39.453283]]]},"properties":{"shapeName":"Rush","shapeISO":"52423323B39033291847900","shapeGroup":"USA","shapeType":"ADM2","src_shape_id":"52423323B39033291847900","adm1ISO":"US-IN"}},
{"type":"Feature","geometry":{"type":"Polygon","coordinates":[[[-87.462897,38.533526],[-87.476102,38.52802],[-87.472409,38.51369],[-87.490173,38.50634],[-87.494676,38.495699],[-87.520615,38.503589],[-87.533278,38.500991],[-87.536787,38.51846],[-87.549467,38.511652],[-87.540185,38.492831],[-87.573563,38.491085],[-87.599322,38.450728],[-87.637933,38.446136],[-87.639273,38.45553],[-87.652076,38.449165],[-87.655847,38.458059],[-87.673486,38.446482],[-87.661707,38.435684],[-87.700127,38.421871],[-87.744387,38.414504],[-87.745259,38.409003],[-87.780001,38.370849],[-87.80608,38.36315],[-87.822726,38.346919],[-87.832728,38.32486],[-87.831977,38.307248],[-87.830958,38.299372],[-87.832807,38.293347],[-87.840989,38.280112],[-87.845942,38.276674],[-87.854648,38.275383],[-87.863073,38.280274],[-87.866253,38.289987],[-87.860458,38.305379],[-87.863115,38.30983],[-87.868892,38.312284],[-87.875036,38.310228],[-87.880854,38.303732],[-87.887855,38.285306],[-87.897809,38.279489],[-87.908548,38.268588],[-87.912856,38.26814],[-87.917621,38.270085],[-87.919298,38.275915],[-87.91545,38.282357],[-87.909859,38.289342],[-87.909344,38.295727],[-87.916495,38.299379],[-87.924979,38.298666],[-87.937335,38.292438],[-87.942276,38.278983],[-87.951929,38.27426],[-87.948909,38.264123],[-87.942073,38.260308],[-87.946071,38.255326],[-87.956151,38.251659],[-87.958845,38.244971],[-87.957998,38.240103],[-87.960231,38.237125],[-87.965387,38.236418],[-87.968974,38.237396],[-87.970599,38.240868],[-87.969953,38.243361],[-87.981874,38.256451],[-87.987109,38.257738],[-87.987502,38.256792],[-87.9888,38.248746],[-87.985274,38.230072],[-87.799174,38.228587],[-87.799682,38.201951],[-87.688213,38.201008],[-87.688379,38.168426],[-87.467289,38.16541],[-87.466749,38.201293],[-87.355144,38.201632],[-87.317035,38.20176],[-87.316898,38.246084],[-87.316985,38.289782],[-87.316248,38.381489],[-87.339692,38.378807],[-87.356869,38.387913],[-87.371515,38.376821],[-87.407588,38.375508],[-87.407332,38.436327],[-87.444554,38.436132],[-87.444508,38.465496],[-87.462491,38.465617],[-87.462897,38.533526]]]},"properties":{"shapeName":"Gibson","shapeISO":"52423323B43941420318175","shapeGroup":"USA","shapeType":"ADM2","src_shape_id":"52423323B43941420318175","adm1ISO":"US-IN"}},
{"type":"Feature","geometry":{"type":"Polygon","coordinates":[[[-87.267304,40.73659],[-87.268449,40.894798],[-87.269056,40.911525],[-87.276455,40.911485],[-87.275888,41.218603],[-87.324605,41.186211],[-87.380715,41.17266],[-87.393663,41.162838],[-87.414427,41.162256],[-87.442299,41.173418],[-87.526576,41.166104],[-87.526725,41.159456],[-87.526717,41.121493],[-87.526526,41.024845],[-87.526311,41.010354],[-87.52609,40.911922],[-87.52602,40.89559],[-87.526443,40.894217],[-87.526119,40.879711],[-87.525789,40.854365],[-87.526135,40.736893],[-87.267304,40.73659]]]},"properties":{"shapeName":"Newton","shapeISO":"52423323B60450934257791","shapeGroup":"USA","shapeType":"ADM2","src_shape_id":"52423323B60450934257791","adm1ISO":"US-IN"}},
{"type":"Feature","geometry":{"type":"Polygon","coordinates":[[[-87.013067,39.604794],[-87.124242,39.605769],[-87.199017,39.607144],[-87.200112,39.519865],[-87.238969,39.520627],[-87.239561,39.433568],[-87.240384,39.259071],[-87.240742,39.17178],[-87.128937,39.168996],[-87.068346,39.167972],[-87.054583,39.168093],[-87.053651,39.342628],[-86.942478,39.34205],[-86.942298,39.399919],[-86.942414,39.429363],[-86.941545,39.43662],[-86.939986,39.473352],[-87.014538,39.473579],[-87.013067,39.604794]]]},"properties":{"shapeName":"Clay","shapeISO":"52423323B18032959823842","shapeGroup":"USA","shapeType":"ADM2","src_shape_id":"52423323B18032959823842","adm1ISO":"US-IN"}},
{"type":"Feature","geometry":{"type":"Polygon","coordinates":[[[-87.218868,41.242035],[-87.220272,41.333335],[-87.219658,41.384838],[-87.219631,41.434603],[-87.219959,41.47071],[-87.220639,41.521622],[-87.221361,41.547188],[-87.22265,41.624169],[-87.261542,41.620344],[-87.278443,41.619744],[-87.287643,41.622244],[-87.324344,41.623044],[-87.365445,41.629544],[-87.394545,41.637243],[-87.423446,41.642843],[-87.429846,41.646043],[-87.438947,41.654343],[-87.421158,41.659524],[-87.400573,41.677612],[-87.410879,41.684],[-87.415822,41.688191],[-87.424883,41.690081],[-87.449728,41.684222],[-87.464184,41.676884],[-87.468019,41.67244],[-87.470748,41.672843],[-87.505349,41.691543],[-87.511049,41.696543],[-87.515249,41.704243],[-87.52055,41.709943],[-87.52405,41.708343],[-87.52495,41.702643],[-87.52485,41.691643],[-87.524648,41.634943],[-87.524647,41.563343],[-87.525047,41.559243],[-87.524946,41.529743],[-87.525675,41.47029],[-87.525356,41.380859],[-87.52641,41.35582],[-87.526773,41.298059],[-87.526576,41.166104],[-87.442299,41.173418],[-87.414427,41.162256],[-87.393663,41.162838],[-87.380715,41.17266],[-87.324605,41.186211],[-87.275888,41.218603],[-87.226378,41.235515],[-87.218868,41.242035]]]},"properties":{"shapeName":"Lake","shapeISO":"52423323B96488388148981","shapeGroup":"USA","shapeType":"ADM2","src_shape_id":"52423323B96488388148981","adm1ISO":"US-IN"}},
{"type":"Feature","geometry":{"type":"Polygon","coordinates":[[[-85.68452,39.350057],[-85.630635,39.350213],[-85.629332,39.452758],[-85.632229,39.611168],[-85.632776,39.625714],[-85.63253,39.697512],[-85.633233,39.69847],[-85.894881,39.69845],[-85.951726,39.697144],[-85.952085,39.638353],[-85.951927,39.537883],[-85.951394,39.523133],[-85.953169,39.383528],[-85.95201,39.34738],[-85.857465,39.349319],[-85.79879,39.350195],[-85.68452,39.350057]]]},"properties":{"shapeName":"Shelby","shapeISO":"52423323B30392961405034","shapeGroup":"USA","shapeType":"ADM2","src_shape_id":"52423323B30392961405034","adm1ISO":"US-IN"}},
{"type":"Feature","geometry":{"type":"Polygon","coordinates":[[[-86.791502,38.205137],[-86.923685,38.203035],[-87.017495,38.203587],[-87.017464,38.122008],[-87.018031,38.11829],[-87.072337,38.118287],[-87.075166,38.096416],[-87.090623,38.080279],[-87.097723,38.056756],[-87.088425,38.049821],[-87.125026,38.043873],[-87.132779,38.054547],[-87.1535,38.053595],[-87.152799,38.023584],[-87.182287,38.010781],[-87.196223,37.987461],[-87.225706,37.971674],[-87.232481,37.948188],[-87.240923,37.952276],[-87.268008,37.924773],[-87.268699,37.878657],[-87.262935,37.872853],[-87.255255,37.867333],[-87.220949,37.849141],[-87.212421,37.84623],[-87.202245,37.843798],[-87.180068,37.841382],[-87.170836,37.842326],[-87.164868,37.841222],[-87.158883,37.837878],[-87.153491,37.832391],[-87.141955,37.816183],[-87.137507,37.807271],[-87.133154,37.792215],[-87.129634,37.786615],[-87.127538,37.785047],[-87.119234,37.782855],[-87.111138,37.782519],[-87.099905,37.784647],[-87.090641,37.787815],[-87.077409,37.796216],[-87.070737,37.801944],[-87.065393,37.810488],[-87.057841,37.827464],[-87.055409,37.835304],[-87.051457,37.853688],[-87.049265,37.859752],[-87.043859,37.870803],[-87.043054,37.875056],[-87.044149,37.884032],[-87.046242,37.889873],[-87.045106,37.893782],[-87.042254,37.898298],[-87.033449,37.9066],[-87.01032,37.919675],[-87.003306,37.922402],[-86.97884,37.93024],[-86.969049,37.932865],[-86.96479,37.932391],[-86.944638,37.933541],[-86.933362,37.934946],[-86.927752,37.934963],[-86.919334,37.936671],[-86.907136,37.94303],[-86.902418,37.946168],[-86.892089,37.955936],[-86.884966,37.96438],[-86.881343,37.96753],[-86.875879,37.970777],[-86.870393,37.975283],[-86.866941,37.979301],[-86.863229,37.982502],[-86.855955,37.987299],[-86.849032,37.990027],[-86.835166,37.993757],[-86.823496,37.998946],[-86.820076,37.999399],[-86.814761,37.998681],[-86.798298,38.015535],[-86.790523,38.003635],[-86.772372,37.998172],[-86.782633,38.048445],[-86.767357,38.056931],[-86.780321,38.078938],[-86.767218,38.094354],[-86.792453,38.116651],[-86.80724,38.11796],[-86.795021,38.123551],[-86.806266,38.143126],[-86.79556,38.1568],[-86.803574,38.181437],[-86.791321,38.180078],[-86.791502,38.205137]]]},"properties":{"shapeName":"Spencer","shapeISO":"52423323B86560635582080","shapeGroup":"USA","shapeType":"ADM2","src_shape_id":"52423323B86560635582080","adm1ISO":"US-IN"}}
]}