{"type":"FeatureCollection","bbox":[-96.639712,40.378271,-90.140067,43.501204], "features": [
{"type":"Feature","geometry":{"type":"Polygon","coordinates":[[[-93.499493,42.557708],[-93.499105,42.470983],[-93.462642,42.47081],[-93.462902,42.383696],[-93.46305,42.20931],[-93.231729,42.208894],[-93.117886,42.208741],[-93.001681,42.209275],[-93.002375,42.38346],[-93.002909,42.470646],[-93.027027,42.470764],[-93.027007,42.556818],[-93.499493,42.557708]]]},"properties":{"shapeName":"Hardin","shapeISO":"52423323B84465171614567","shapeGroup":"USA","shapeType":"ADM2","src_shape_id":"52423323B84465171614567","adm1ISO":"US-IA"}},
{"type":"Feature","geometry":{"type":"Polygon","coordinates":[[[-93.024355,43.49958],[-93.02415,43.255546],[-93.024099,43.21282],[-92.554388,43.212821],[-92.553135,43.500308],[-92.649201,43.500057],[-92.752095,43.500092],[-92.790324,43.499575],[-92.870284,43.499556],[-93.007878,43.499612],[-93.024355,43.49958]]]},"properties":{"shapeName":"Mitchell","shapeISO":"52423323B1744972810142","shapeGroup":"USA","shapeType":"ADM2","src_shape_id":"52423323B1744972810142","adm1ISO":"US-IA"}},
{"type":"Feature","geometry":{"type":"Polygon","coordinates":[[[-93.025151,42.907557],[-93.027007,42.556818],[-92.907957,42.556207],[-92.554307,42.555862],[-92.554499,42.642322],[-92.554502,42.730135],[-92.554218,42.90712],[-93.025151,42.907557]]]},"properties":{"shapeName":"Butler","shapeISO":"52423323B94920072587023","shapeGroup":"USA","shapeType":"ADM2","src_shape_id":"52423323B94920072587023","adm1ISO":"US-IA"}},
{"type":"Feature","geometry":{"type":"Polygon","coordinates":[[[-92.871428,41.508529],[-92.870831,41.299349],[-92.869778,41.161073],[-92.640368,41.161305],[-92.41024,41.161949],[-92.412002,41.509556],[-92.642257,41.509151],[-92.756515,41.508801],[-92.871428,41.508529]]]},"properties":{"shapeName":"Mahaska","shapeISO":"52423323B68669708686879","shapeGroup":"USA","shapeType":"ADM2","src_shape_id":"52423323B68669708686879","adm1ISO":"US-IA"}},
{"type":"Feature","geometry":{"type":"Polygon","coordinates":[[[-94.628814,42.209403],[-94.628732,41.86277],[-94.280348,41.863006],[-94.164146,41.863251],[-94.164712,42.209928],[-94.397534,42.209169],[-94.628814,42.209403]]]},"properties":{"shapeName":"Greene","shapeISO":"52423323B94777339307314","shapeGroup":"USA","shapeType":"ADM2","src_shape_id":"52423323B94777339307314","adm1ISO":"US-IA"}},
{"type":"Feature","geometry":{"type":"Polygon","coordinates":[[[-91.36327,42.296453],[-91.364824,42.121914],[-91.365884,41.947418],[-90.898491,41.946253],[-90.89838,42.033556],[-90.898027,42.295244],[-91.130086,42.295769],[-91.36327,42.296453]]]},"properties":{"shapeName":"Jones","shapeISO":"52423323B96588069122317","shapeGroup":"USA","shapeType":"ADM2","src_shape_id":"52423323B96588069122317","adm1ISO":"US-IA"}},
{"type":"Feature","geometry":{"type":"Polygon","coordinates":[[[-92.179981,41.162669],[-92.179079,40.899727],[-91.832819,40.90117],[-91.718187,40.901094],[-91.716049,41.162815],[-91.830342,41.161543],[-91.945578,41.163585],[-92.179981,41.162669]]]},"properties":{"shapeName":"Jefferson","shapeISO":"52423323B65380617817851","shapeGroup":"USA","shapeType":"ADM2","src_shape_id":"52423323B65380617817851","adm1ISO":"US-IA"}},
{"type":"Feature","geometry":{"type":"Polygon","coordinates":[[[-92.081575,42.907021],[-92.081668,42.642064],[-91.607066,42.643981],[-91.60843,42.812788],[-91.606604,42.818557],[-91.607337,42.820949],[-91.605743,42.993242],[-91.605314,43.081661],[-92.081153,43.082802],[-92.081575,42.907021]]]},"properties":{"shapeName":"Fayette","shapeISO":"52423323B37143192465063","shapeGroup":"USA","shapeType":"ADM2","src_shape_id":"52423323B37143192465063","adm1ISO":"US-IA"}},
{"type":"Feature","geometry":{"type":"Polygon","coordinates":[[[-94.628814,42.209403],[-94.85842,42.209699],[-95.090859,42.210412],[-95.092869,41.863381],[-94.744884,41.862401],[-94.628732,41.86277],[-94.628814,42.209403]]]},"properties":{"shapeName":"Carroll","shapeISO":"52423323B39741133504454","shapeGroup":"USA","shapeType":"ADM2","src_shape_id":"52423323B39741133504454","adm1ISO":"US-IA"}},
{"type":"Feature","geometry":{"type":"Polygon","coordinates":[[[-93.097602,40.898458],[-93.097303,40.584021],[-93.085524,40.58441],[-92.957754,40.587437],[-92.941602,40.58775],[-92.903551,40.587867],[-92.879185,40.588348],[-92.863041,40.588182],[-92.857398,40.588367],[-92.828068,40.5886],[-92.757414,40.588915],[-92.714605,40.589572],[-92.6867,40.589816],[-92.637905,40.59086],[-92.639098,40.898893],[-93.097602,40.898458]]]},"properties":{"shapeName":"Appanoose","shapeISO":"52423323B22987820366787","shapeGroup":"USA","shapeType":"ADM2","src_shape_id":"52423323B22987820366787","adm1ISO":"US-IA"}},
{"type":"Feature","geometry":{"type":"Polygon","coordinates":[[[-93.970768,43.499613],[-93.970701,43.342253],[-93.970423,43.255366],[-93.497643,43.255476],[-93.497358,43.499464],[-93.576736,43.499528],[-93.648541,43.499566],[-93.716225,43.499571],[-93.795801,43.499528],[-93.970768,43.499613]]]},"properties":{"shapeName":"Winnebago","shapeISO":"52423323B32646227852177","shapeGroup":"USA","shapeType":"ADM2","src_shape_id":"52423323B32646227852177","adm1ISO":"US-IA"}},
{"type":"Feature","geometry":{"type":"Polygon","coordinates":[[[-92.412002,41.509556],[-92.297501,41.509798],[-92.299198,41.776102],[-92.298171,41.862787],[-92.766006,41.862381],[-92.766766,41.601363],[-92.757075,41.601419],[-92.756515,41.508801],[-92.642257,41.509151],[-92.412002,41.509556]]]},"properties":{"shapeName":"Poweshiek","shapeISO":"52423323B384503351074","shapeGroup":"USA","shapeType":"ADM2","src_shape_id":"52423323B384503351074","adm1ISO":"US-IA"}},
{"type":"Feature","geometry":{"type":"Polygon","coordinates":[[[-94.913731,43.255062],[-94.913898,42.909708],[-94.442962,42.908081],[-94.442759,43.168893],[-94.443145,43.255022],[-94.913731,43.255062]]]},"properties":{"shapeName":"Palo Alto","shapeISO":"52423323B23410218305479","shapeGroup":"USA","shapeType":"ADM2","src_shape_id":"52423323B23410218305479","adm1ISO":"US-IA"}},
{"type":"Feature","geometry":{"type":"Polygon","coordinates":[[[-93.46305,42.20931],[-93.581665,42.209192],[-93.698398,42.209347],[-93.698721,42.034568],[-93.69808,41.950486],[-93.698039,41.863377],[-93.580885,41.863225],[-93.34794,41.863112],[-93.231865,41.862719],[-93.231729,42.208894],[-93.46305,42.20931]]]},"properties":{"shapeName":"Story","shapeISO":"52423323B9996743812881","shapeGroup":"USA","shapeType":"ADM2","src_shape_id":"52423323B9996743812881","adm1ISO":"US-IA"}},
{"type":"Feature","geometry":{"type":"Polygon","coordinates":[[[-94.164712,42.209928],[-93.979788,42.209854],[-93.931588,42.209916],[-93.931692,42.472019],[-93.971607,42.47209],[-93.971591,42.558147],[-93.971722,42.644715],[-94.443091,42.645172],[-94.443032,42.558851],[-94.443041,42.473386],[-94.397679,42.473308],[-94.397534,42.209169],[-94.164712,42.209928]]]},"properties":{"shapeName":"Webster","shapeISO":"52423323B53229348544328","shapeGroup":"USA","shapeType":"ADM2","src_shape_id":"52423323B53229348544328","adm1ISO":"US-IA"}},
{"type":"Feature","geometry":{"type":"Polygon","coordinates":[[[-92.298799,42.297535],[-92.298171,41.862787],[-91.947739,41.861864],[-91.831386,41.861859],[-91.833296,41.949381],[-91.835269,42.036962],[-91.831096,42.299071],[-91.948113,42.297498],[-92.064773,42.297267],[-92.298799,42.297535]]]},"properties":{"shapeName":"Benton","shapeISO":"52423323B49027728279357","shapeGroup":"USA","shapeType":"ADM2","src_shape_id":"52423323B49027728279357","adm1ISO":"US-IA"}},
{"type":"Feature","geometry":{"type":"Polygon","coordinates":[[[-94.164146,41.863251],[-94.048037,41.863135],[-93.815729,41.863426],[-93.698039,41.863377],[-93.69808,41.950486],[-93.698721,42.034568],[-93.698398,42.209347],[-93.931588,42.209916],[-93.979788,42.209854],[-94.164712,42.209928],[-94.164146,41.863251]]]},"properties":{"shapeName":"Boone","shapeISO":"52423323B40017288212337","shapeGroup":"USA","shapeType":"ADM2","src_shape_id":"52423323B40017288212337","adm1ISO":"US-IA"}},
{"type":"Feature","geometry":{"type":"Polygon","coordinates":[[[-93.097602,40.898458],[-93.327424,40.897891],[-93.556547,40.898302],[-93.556906,40.580242],[-93.548291,40.580424],[-93.524131,40.580488],[-93.441774,40.579923],[-93.374393,40.580342],[-93.317612,40.580678],[-93.260619,40.580804],[-93.135809,40.582861],[-93.097303,40.584021],[-93.097602,40.898458]]]},"properties":{"shapeName":"Wayne","shapeISO":"52423323B91237722632689","shapeGroup":"USA","shapeType":"ADM2","src_shape_id":"52423323B91237722632689","adm1ISO":"US-IA"}},
{"type":"Feature","geometry":{"type":"Polygon","coordinates":[[[-91.831386,41.861859],[-91.827067,41.60046],[-91.829238,41.511465],[-91.519835,41.511018],[-91.518586,41.497281],[-91.506501,41.500759],[-91.50211,41.477458],[-91.516019,41.469197],[-91.499646,41.459775],[-91.500705,41.446683],[-91.484002,41.423856],[-91.368528,41.423186],[-91.366455,41.598381],[-91.366228,41.860077],[-91.481943,41.85977],[-91.597902,41.860734],[-91.831386,41.861859]]]},"properties":{"shapeName":"Johnson","shapeISO":"52423323B53709220600977","shapeGroup":"USA","shapeType":"ADM2","src_shape_id":"52423323B53709220600977","adm1ISO":"US-IA"}},
{"type":"Feature","geometry":{"type":"Polygon","coordinates":[[[-92.41024,41.161949],[-92.29594,41.16231],[-92.179981,41.162669],[-91.945578,41.163585],[-91.94605,41.510757],[-92.297501,41.509798],[-92.412002,41.509556],[-92.41024,41.161949]]]},"properties":{"shapeName":"Keokuk","shapeISO":"52423323B98264208336187","shapeGroup":"USA","shapeType":"ADM2","src_shape_id":"52423323B98264208336187","adm1ISO":"US-IA"}},
{"type":"Feature","geometry":{"type":"Polygon","coordinates":[[[-94.470611,41.157573],[-94.470787,40.899509],[-94.01481,40.897038],[-94.014196,41.156769],[-94.241645,41.157141],[-94.470611,41.157573]]]},"properties":{"shapeName":"Union","shapeISO":"52423323B51615834161457","shapeGroup":"USA","shapeType":"ADM2","src_shape_id":"52423323B51615834161457","adm1ISO":"US-IA"}},
{"type":"Feature","geometry":{"type":"Polygon","coordinates":[[[-94.443145,43.255022],[-94.442856,43.500591],[-94.470428,43.500348],[-94.560846,43.500385],[-94.565673,43.500338],[-94.615924,43.500552],[-94.854563,43.500622],[-94.914642,43.500458],[-94.913993,43.341466],[-94.913731,43.255062],[-94.443145,43.255022]]]},"properties":{"shapeName":"Emmet","shapeISO":"52423323B99839165344534","shapeGroup":"USA","shapeType":"ADM2","src_shape_id":"52423323B99839165344534","adm1ISO":"US-IA"}},
{"type":"Feature","geometry":{"type":"Polygon","coordinates":[[[-93.024099,43.21282],[-93.025151,42.907557],[-92.554218,42.90712],[-92.554388,43.212821],[-93.024099,43.21282]]]},"properties":{"shapeName":"Floyd","shapeISO":"52423323B81223341239547","shapeGroup":"USA","shapeType":"ADM2","src_shape_id":"52423323B81223341239547","adm1ISO":"US-IA"}},
{"type":"Feature","geometry":{"type":"Polygon","coordinates":[[[-93.097602,40.898458],[-93.099224,41.160874],[-93.327893,41.160666],[-93.441771,41.160544],[-93.557563,41.161278],[-93.556547,40.898302],[-93.327424,40.897891],[-93.097602,40.898458]]]},"properties":{"shapeName":"Lucas","shapeISO":"52423323B52818697562643","shapeGroup":"USA","shapeType":"ADM2","src_shape_id":"52423323B52818697562643","adm1ISO":"US-IA"}},
{"type":"Feature","geometry":{"type":"Polygon","coordinates":[[[-93.027007,42.556818],[-93.025151,42.907557],[-93.143179,42.907636],[-93.261919,42.907735],[-93.498625,42.90852],[-93.499493,42.557708],[-93.027007,42.556818]]]},"properties":{"shapeName":"Franklin","shapeISO":"52423323B30235683377135","shapeGroup":"USA","shapeType":"ADM2","src_shape_id":"52423323B30235683377135","adm1ISO":"US-IA"}},
{"type":"Feature","geometry":{"type":"Polygon","coordinates":[[[-93.499493,42.557708],[-93.971591,42.558147],[-93.971607,42.47209],[-93.931692,42.472019],[-93.931588,42.209916],[-93.698398,42.209347],[-93.581665,42.209192],[-93.46305,42.20931],[-93.462902,42.383696],[-93.462642,42.47081],[-93.499105,42.470983],[-93.499493,42.557708]]]},"properties":{"shapeName":"Hamilton","shapeISO":"52423323B92717538873047","shapeGroup":"USA","shapeType":"ADM2","src_shape_id":"52423323B92717538873047","adm1ISO":"US-IA"}},
{"type":"Feature","geometry":{"type":"Polygon","coordinates":[[[-92.554307,42.555862],[-92.554337,42.469609],[-92.534022,42.4696],[-92.533517,42.297009],[-92.416956,42.297292],[-92.298799,42.297535],[-92.064773,42.297267],[-92.064194,42.468229],[-92.081453,42.4682],[-92.081668,42.642064],[-92.554499,42.642322],[-92.554307,42.555862]]]},"properties":{"shapeName":"Black Hawk","shapeISO":"52423323B64138679550373","shapeGroup":"USA","shapeType":"ADM2","src_shape_id":"52423323B64138679550373","adm1ISO":"US-IA"}},
{"type":"Feature","geometry":{"type":"Polygon","coordinates":[[[-95.38819,42.909905],[-95.388018,42.561749],[-94.914493,42.560317],[-94.913898,42.909708],[-95.38819,42.909905]]]},"properties":{"shapeName":"Buena Vista","shapeISO":"52423323B32669676915102","shapeGroup":"USA","shapeType":"ADM2","src_shape_id":"52423323B32669676915102","adm1ISO":"US-IA"}},
{"type":"Feature","geometry":{"type":"Polygon","coordinates":[[[-94.397534,42.209169],[-94.397679,42.473308],[-94.443041,42.473386],[-94.443032,42.558851],[-94.914493,42.560317],[-94.914495,42.474198],[-94.856697,42.474004],[-94.85842,42.209699],[-94.628814,42.209403],[-94.397534,42.209169]]]},"properties":{"shapeName":"Calhoun","shapeISO":"52423323B65243401822289","shapeGroup":"USA","shapeType":"ADM2","src_shape_id":"52423323B65243401822289","adm1ISO":"US-IA"}},
{"type":"Feature","geometry":{"type":"Polygon","coordinates":[[[-92.554388,43.212821],[-92.080983,43.212955],[-92.080962,43.255627],[-92.079809,43.500655],[-92.103893,43.500743],[-92.17887,43.500721],[-92.198795,43.500535],[-92.279091,43.500444],[-92.368915,43.500462],[-92.406137,43.500484],[-92.408839,43.500622],[-92.448955,43.500428],[-92.464512,43.500353],[-92.553135,43.500308],[-92.554388,43.212821]]]},"properties":{"shapeName":"Howard","shapeISO":"52423323B7267106537917","shapeGroup":"USA","shapeType":"ADM2","src_shape_id":"52423323B7267106537917","adm1ISO":"US-IA"}},
{"type":"Feature","geometry":{"type":"Polygon","coordinates":[[[-91.36327,42.296453],[-91.596988,42.296416],[-91.831096,42.299071],[-91.835269,42.036962],[-91.833296,41.949381],[-91.831386,41.861859],[-91.597902,41.860734],[-91.481943,41.85977],[-91.366228,41.860077],[-91.365884,41.947418],[-91.364824,42.121914],[-91.36327,42.296453]]]},"properties":{"shapeName":"Linn","shapeISO":"52423323B70350332268545","shapeGroup":"USA","shapeType":"ADM2","src_shape_id":"52423323B70350332268545","adm1ISO":"US-IA"}},
{"type":"Feature","geometry":{"type":"Polygon","coordinates":[[[-92.871428,41.508529],[-92.986312,41.508268],[-93.178303,41.508084],[-93.328621,41.507831],[-93.328414,41.490928],[-93.327893,41.160666],[-93.099224,41.160874],[-92.869778,41.161073],[-92.870831,41.299349],[-92.871428,41.508529]]]},"properties":{"shapeName":"Marion","shapeISO":"52423323B54462982436391","shapeGroup":"USA","shapeType":"ADM2","src_shape_id":"52423323B54462982436391","adm1ISO":"US-IA"}},
{"type":"Feature","geometry":{"type":"Polygon","coordinates":[[[-95.15473,41.505218],[-95.155301,41.500042],[-95.155859,41.159243],[-94.927595,41.158515],[-94.70499,41.15791],[-94.700597,41.158092],[-94.700105,41.331051],[-94.700637,41.504155],[-94.926388,41.504531],[-95.040778,41.504697],[-95.15473,41.505218]]]},"properties":{"shapeName":"Cass","shapeISO":"52423323B96311963855013","shapeGroup":"USA","shapeType":"ADM2","src_shape_id":"52423323B96311963855013","adm1ISO":"US-IA"}},
{"type":"Feature","geometry":{"type":"Polygon","coordinates":[[[-95.090859,42.210412],[-95.323505,42.210939],[-95.67083,42.211415],[-95.672779,41.863154],[-95.557285,41.863456],[-95.324848,41.864128],[-95.092869,41.863381],[-95.090859,42.210412]]]},"properties":{"shapeName":"Crawford","shapeISO":"52423323B13342583421371","shapeGroup":"USA","shapeType":"ADM2","src_shape_id":"52423323B13342583421371","adm1ISO":"US-IA"}},
{"type":"Feature","geometry":{"type":"Polygon","coordinates":[[[-92.637905,40.59086],[-92.580285,40.592158],[-92.484595,40.594931],[-92.461616,40.595362],[-92.453752,40.595295],[-92.379698,40.596516],[-92.350814,40.597281],[-92.331212,40.597812],[-92.298761,40.598476],[-92.21761,40.599839],[-92.196169,40.600076],[-92.179787,40.600536],[-92.179079,40.899727],[-92.524767,40.899122],[-92.639098,40.898893],[-92.637905,40.59086]]]},"properties":{"shapeName":"Davis","shapeISO":"52423323B91960594969044","shapeGroup":"USA","shapeType":"ADM2","src_shape_id":"52423323B91960594969044","adm1ISO":"US-IA"}},
{"type":"Feature","geometry":{"type":"Polygon","coordinates":[[[-93.02415,43.255546],[-93.141572,43.255114],[-93.260382,43.255194],[-93.497643,43.255476],[-93.498625,42.90852],[-93.261919,42.907735],[-93.143179,42.907636],[-93.025151,42.907557],[-93.024099,43.21282],[-93.02415,43.255546]]]},"properties":{"shapeName":"Cerro Gordo","shapeISO":"52423323B72245679426009","shapeGroup":"USA","shapeType":"ADM2","src_shape_id":"52423323B72245679426009","adm1ISO":"US-IA"}},
{"type":"Feature","geometry":{"type":"Polygon","coordinates":[[[-94.913731,43.255062],[-95.388086,43.255229],[-95.38819,42.909905],[-94.913898,42.909708],[-94.913731,43.255062]]]},"properties":{"shapeName":"Clay","shapeISO":"52423323B36329758644763","shapeGroup":"USA","shapeType":"ADM2","src_shape_id":"52423323B36329758644763","adm1ISO":"US-IA"}},
{"type":"Feature","geometry":{"type":"Polygon","coordinates":[[[-93.024355,43.49958],[-93.049199,43.499579],[-93.169181,43.499576],[-93.228869,43.499575],[-93.271808,43.499364],[-93.399043,43.499493],[-93.497358,43.499464],[-93.497643,43.255476],[-93.260382,43.255194],[-93.141572,43.255114],[-93.02415,43.255546],[-93.024355,43.49958]]]},"properties":{"shapeName":"Worth","shapeISO":"52423323B83558123373656","shapeGroup":"USA","shapeType":"ADM2","src_shape_id":"52423323B83558123373656","adm1ISO":"US-IA"}},
{"type":"Feature","geometry":{"type":"Polygon","coordinates":[[[-92.179079,40.899727],[-92.179787,40.600536],[-92.096394,40.601837],[-92.029656,40.60372],[-91.970995,40.605119],[-91.947715,40.605478],[-91.94312,40.605849],[-91.939299,40.606157],[-91.868408,40.608066],[-91.824833,40.610198],[-91.795381,40.611108],[-91.729122,40.613647],[-91.720065,40.601534],[-91.716776,40.598537],[-91.718216,40.638608],[-91.718794,40.813551],[-91.718187,40.901094],[-91.832819,40.90117],[-92.179079,40.899727]]]},"properties":{"shapeName":"Van Buren","shapeISO":"52423323B67583830123101","shapeGroup":"USA","shapeType":"ADM2","src_shape_id":"52423323B67583830123101","adm1ISO":"US-IA"}},
{"type":"Feature","geometry":{"type":"Polygon","coordinates":[[[-94.014196,41.156769],[-93.89882,41.156617],[-93.789203,41.162042],[-93.790136,41.337241],[-93.79057,41.425185],[-93.790619,41.511923],[-93.896814,41.503105],[-94.241601,41.503686],[-94.241645,41.157141],[-94.014196,41.156769]]]},"properties":{"shapeName":"Madison","shapeISO":"52423323B39723514733384","shapeGroup":"USA","shapeType":"ADM2","src_shape_id":"52423323B39723514733384","adm1ISO":"US-IA"}},
{"type":"Feature","geometry":{"type":"Polygon","coordinates":[[[-92.554499,42.642322],[-92.081668,42.642064],[-92.081575,42.907021],[-92.554218,42.90712],[-92.554502,42.730135],[-92.554499,42.642322]]]},"properties":{"shapeName":"Bremer","shapeISO":"52423323B90792041725693","shapeGroup":"USA","shapeType":"ADM2","src_shape_id":"52423323B90792041725693","adm1ISO":"US-IA"}},
{"type":"Feature","geometry":{"type":"Polygon","coordinates":[[[-91.718187,40.901094],[-91.718794,40.813551],[-91.40946,40.812912],[-91.372102,40.812638],[-91.370717,41.07412],[-91.370305,41.161255],[-91.485724,41.162413],[-91.716049,41.162815],[-91.718187,40.901094]]]},"properties":{"shapeName":"Henry","shapeISO":"52423323B58057992279979","shapeGroup":"USA","shapeType":"ADM2","src_shape_id":"52423323B58057992279979","adm1ISO":"US-IA"}},
{"type":"Feature","geometry":{"type":"Polygon","coordinates":[[[-92.298171,41.862787],[-92.298799,42.297535],[-92.416956,42.297292],[-92.533517,42.297009],[-92.768097,42.296688],[-92.76747,42.210148],[-92.766313,42.035052],[-92.766006,41.862381],[-92.298171,41.862787]]]},"properties":{"shapeName":"Tama","shapeISO":"52423323B19470112440240","shapeGroup":"USA","shapeType":"ADM2","src_shape_id":"52423323B19470112440240","adm1ISO":"US-IA"}},
{"type":"Feature","geometry":{"type":"Polygon","coordinates":[[[-92.756515,41.508801],[-92.757075,41.601419],[-92.766766,41.601363],[-92.766006,41.862381],[-93.231865,41.862719],[-93.34794,41.863112],[-93.348688,41.601006],[-93.328688,41.601155],[-93.328621,41.507831],[-93.178303,41.508084],[-92.986312,41.508268],[-92.871428,41.508529],[-92.756515,41.508801]]]},"properties":{"shapeName":"Jasper","shapeISO":"52423323B7316814812014","shapeGroup":"USA","shapeType":"ADM2","src_shape_id":"52423323B7316814812014","adm1ISO":"US-IA"}},
{"type":"Feature","geometry":{"type":"Polygon","coordinates":[[[-93.001681,42.209275],[-92.76747,42.210148],[-92.768097,42.296688],[-92.533517,42.297009],[-92.534022,42.4696],[-92.554337,42.469609],[-92.554307,42.555862],[-92.907957,42.556207],[-93.027007,42.556818],[-93.027027,42.470764],[-93.002909,42.470646],[-93.002375,42.38346],[-93.001681,42.209275]]]},"properties":{"shapeName":"Grundy","shapeISO":"52423323B59450534415384","shapeGroup":"USA","shapeType":"ADM2","src_shape_id":"52423323B59450534415384","adm1ISO":"US-IA"}},
{"type":"Feature","geometry":{"type":"Polygon","coordinates":[[[-93.970768,43.499613],[-94.092902,43.50031],[-94.109888,43.500291],[-94.247973,43.50034],[-94.377474,43.500387],[-94.442856,43.500591],[-94.443145,43.255022],[-94.442759,43.168893],[-94.442962,42.908081],[-93.971246,42.90777],[-93.970423,43.255366],[-93.970701,43.342253],[-93.970768,43.499613]]]},"properties":{"shapeName":"Kossuth","shapeISO":"52423323B59270943515315","shapeGroup":"USA","shapeType":"ADM2","src_shape_id":"52423323B59270943515315","adm1ISO":"US-IA"}},
{"type":"Feature","geometry":{"type":"Polygon","coordinates":[[[-93.327893,41.160666],[-93.328414,41.490928],[-93.340794,41.482005],[-93.352538,41.496896],[-93.37077,41.486353],[-93.382055,41.495667],[-93.396766,41.486647],[-93.398121,41.501844],[-93.414272,41.492367],[-93.412267,41.505556],[-93.422861,41.511451],[-93.441293,41.507596],[-93.544141,41.511168],[-93.577345,41.511653],[-93.644933,41.512101],[-93.698109,41.511986],[-93.731966,41.512094],[-93.790619,41.511923],[-93.79057,41.425185],[-93.790136,41.337241],[-93.789203,41.162042],[-93.557563,41.161278],[-93.441771,41.160544],[-93.327893,41.160666]]]},"properties":{"shapeName":"Warren","shapeISO":"52423323B43281818632829","shapeGroup":"USA","shapeType":"ADM2","src_shape_id":"52423323B43281818632829","adm1ISO":"US-IA"}},
{"type":"Feature","geometry":{"type":"Polygon","coordinates":[[[-93.971591,42.558147],[-93.499493,42.557708],[-93.498625,42.90852],[-93.971246,42.90777],[-93.971722,42.644715],[-93.971591,42.558147]]]},"properties":{"shapeName":"Wright","shapeISO":"52423323B97285304575303","shapeGroup":"USA","shapeType":"ADM2","src_shape_id":"52423323B97285304575303","adm1ISO":"US-IA"}},
{"type":"Feature","geometry":{"type":"Polygon","coordinates":[[[-93.970423,43.255366],[-93.971246,42.90777],[-93.498625,42.90852],[-93.497643,43.255476],[-93.970423,43.255366]]]},"properties":{"shapeName":"Hancock","shapeISO":"52423323B74830272216287","shapeGroup":"USA","shapeType":"ADM2","src_shape_id":"52423323B74830272216287","adm1ISO":"US-IA"}},
{"type":"Feature","geometry":{"type":"Polygon","coordinates":[[[-93.971722,42.644715],[-93.971246,42.90777],[-94.442962,42.908081],[-94.443091,42.645172],[-93.971722,42.644715]]]},"properties":{"shapeName":"Humboldt","shapeISO":"52423323B78880616957132","shapeGroup":"USA","shapeType":"ADM2","src_shape_id":"52423323B78880616957132","adm1ISO":"US-IA"}},
{"type":"Feature","geometry":{"type":"Polygon","coordinates":[[[-92.081153,43.082802],[-92.080983,43.212955],[-92.554388,43.212821],[-92.554218,42.90712],[-92.081575,42.907021],[-92.081153,43.082802]]]},"properties":{"shapeName":"Chickasaw","shapeISO":"52423323B57117017215517","shapeGroup":"USA","shapeType":"ADM2","src_shape_id":"52423323B57117017215517","adm1ISO":"US-IA"}},
{"type":"Feature","geometry":{"type":"Polygon","coordinates":[[[-92.640368,41.161305],[-92.639098,40.898893],[-92.524767,40.899122],[-92.179079,40.899727],[-92.179981,41.162669],[-92.29594,41.16231],[-92.41024,41.161949],[-92.640368,41.161305]]]},"properties":{"shapeName":"Wapello","shapeISO":"52423323B35986324347111","shapeGroup":"USA","shapeType":"ADM2","src_shape_id":"52423323B35986324347111","adm1ISO":"US-IA"}},
{"type":"Feature","geometry":{"type":"Polygon","coordinates":[[[-94.913898,42.909708],[-94.914493,42.560317],[-94.443032,42.558851],[-94.443091,42.645172],[-94.442962,42.908081],[-94.913898,42.909708]]]},"properties":{"shapeName":"Pocahontas","shapeISO":"52423323B21865505270884","shapeGroup":"USA","shapeType":"ADM2","src_shape_id":"52423323B21865505270884","adm1ISO":"US-IA"}},
{"type":"Feature","geometry":{"type":"Polygon","coordinates":[[[-92.297501,41.509798],[-91.94605,41.510757],[-91.829238,41.511465],[-91.827067,41.60046],[-91.831386,41.861859],[-91.947739,41.861864],[-92.298171,41.862787],[-92.299198,41.776102],[-92.297501,41.509798]]]},"properties":{"shapeName":"Iowa","shapeISO":"52423323B47307487801934","shapeGroup":"USA","shapeType":"ADM2","src_shape_id":"52423323B47307487801934","adm1ISO":"US-IA"}},
{"type":"Feature","geometry":{"type":"Polygon","coordinates":[[[-95.38819,42.909905],[-95.859385,42.909105],[-95.859957,42.560627],[-95.741619,42.561292],[-95.388018,42.561749],[-95.38819,42.909905]]]},"properties":{"shapeName":"Cherokee","shapeISO":"52423323B93733047686760","shapeGroup":"USA","shapeType":"ADM2","src_shape_id":"52423323B93733047686760","adm1ISO":"US-IA"}},
{"type":"Feature","geometry":{"type":"Polygon","coordinates":[[[-92.081668,42.642064],[-92.081453,42.4682],[-92.064194,42.468229],[-92.064773,42.297267],[-91.948113,42.297498],[-91.831096,42.299071],[-91.596988,42.296416],[-91.597404,42.46925],[-91.608515,42.469283],[-91.607066,42.643981],[-92.081668,42.642064]]]},"properties":{"shapeName":"Buchanan","shapeISO":"52423323B70817605938932","shapeGroup":"USA","shapeType":"ADM2","src_shape_id":"52423323B70817605938932","adm1ISO":"US-IA"}},
{"type":"Feature","geometry":{"type":"Polygon","coordinates":[[[-95.834223,40.783791],[-95.83524,40.779158],[-95.836911,40.776484],[-95.842832,40.7711],[-95.846628,40.768626],[-95.852784,40.765638],[-95.861703,40.762878],[-95.86999,40.759652],[-95.873343,40.757623],[-95.879035,40.753088],[-95.883651,40.747838],[-95.886698,40.742108],[-95.888705,40.736299],[-95.888915,40.731862],[-95.885357,40.7211],[-95.883186,40.717586],[-95.877023,40.714294],[-95.870489,40.712487],[-95.859386,40.708062],[-95.852623,40.702269],[-95.849836,40.698154],[-95.847939,40.694204],[-95.846042,40.682612],[-95.842809,40.677503],[-95.832185,40.671207],[-95.822921,40.667247],[-95.814158,40.665577],[-95.804315,40.664893],[-95.795497,40.662391],[-95.789493,40.659395],[-95.781917,40.653279],[-95.776259,40.64747],[-95.77284,40.642503],[-95.771333,40.6394],[-95.77045,40.635292],[-95.770091,40.624432],[-95.768934,40.621271],[-95.76442,40.617097],[-95.758053,40.613766],[-95.751279,40.609064],[-95.749693,40.606849],[-95.748634,40.603362],[-95.748866,40.599972],[-95.750061,40.597059],[-95.753156,40.592847],[-95.758903,40.58898],[-95.765653,40.585215],[-95.746451,40.584942],[-95.68745,40.584387],[-95.641848,40.584241],[-95.611077,40.583502],[-95.574054,40.58297],[-95.5254,40.582097],[-95.415414,40.581021],[-95.373931,40.580509],[-95.373891,40.655534],[-95.370626,40.728248],[-95.385262,40.728385],[-95.384972,40.901557],[-95.704307,40.901052],[-95.813466,40.9017],[-95.809783,40.895454],[-95.809482,40.891235],[-95.810717,40.886688],[-95.812091,40.884246],[-95.815941,40.879853],[-95.819598,40.877446],[-95.824997,40.875007],[-95.838743,40.872198],[-95.844081,40.869255],[-95.847793,40.864335],[-95.848498,40.858614],[-95.847092,40.854181],[-95.841317,40.845611],[-95.837194,40.835354],[-95.837311,40.831171],[-95.838609,40.826182],[-95.843929,40.817693],[-95.84535,40.811331],[-95.843753,40.80379],[-95.835823,40.790637],[-95.834531,40.787785],[-95.834223,40.783791]]]},"properties":{"shapeName":"Fremont","shapeISO":"52423323B89292359630527","shapeGroup":"USA","shapeType":"ADM2","src_shape_id":"52423323B89292359630527","adm1ISO":"US-IA"}},
{"type":"Feature","geometry":{"type":"Polygon","coordinates":[[[-96.453268,43.500398],[-96.591221,43.500522],[-96.598937,43.500449],[-96.59919,43.496019],[-96.59473,43.493322],[-96.59046,43.494306],[-96.585057,43.489895],[-96.581005,43.481392],[-96.586372,43.478259],[-96.584611,43.469618],[-96.587937,43.464886],[-96.600047,43.457088],[-96.602868,43.450915],[-96.602616,43.449657],[-96.594262,43.434161],[-96.587892,43.431693],[-96.581964,43.43222],[-96.575189,43.431764],[-96.570232,43.428609],[-96.569636,43.427535],[-96.570796,43.423763],[-96.573587,43.419236],[-96.568507,43.417225],[-96.562736,43.41279],[-96.557594,43.4068],[-96.537124,43.395071],[-96.531167,43.395618],[-96.52916,43.397743],[-96.525461,43.396325],[-96.524052,43.39477],[-96.52158,43.385648],[-96.521331,43.374615],[-96.522211,43.371955],[-96.527353,43.368117],[-96.526643,43.351841],[-96.524297,43.347222],[-96.531913,43.338698],[-96.534921,43.336481],[-96.533109,43.328595],[-96.528825,43.316569],[-96.525572,43.312475],[-96.526012,43.310007],[-96.5304,43.300042],[-96.541045,43.295564],[-96.553095,43.292868],[-96.555254,43.294811],[-96.564298,43.294812],[-96.569118,43.295543],[-96.573564,43.299178],[-96.580354,43.298212],[-96.58106,43.297126],[-96.579102,43.293805],[-96.577596,43.278808],[-96.580912,43.274808],[-96.586325,43.274327],[-96.585228,43.268886],[-96.582912,43.267698],[-96.576812,43.268316],[-96.568584,43.26267],[-96.564173,43.260247],[-96.556978,43.259104],[-96.554973,43.260007],[-96.098071,43.257407],[-96.039165,43.258899],[-95.861922,43.257574],[-95.860954,43.499974],[-96.053171,43.500184],[-96.198492,43.500343],[-96.208822,43.500399],[-96.33207,43.500423],[-96.351067,43.500341],[-96.453268,43.500398]]]},"properties":{"shapeName":"Lyon","shapeISO":"52423323B71367497505693","shapeGroup":"USA","shapeType":"ADM2","src_shape_id":"52423323B71367497505693","adm1ISO":"US-IA"}},
{"type":"Feature","geometry":{"type":"Polygon","coordinates":[[[-91.217713,43.500558],[-91.246722,43.500496],[-91.261788,43.501001],[-91.369332,43.500835],[-91.376957,43.50049],[-91.397326,43.500895],[-91.441793,43.500446],[-91.445939,43.500596],[-91.491049,43.500698],[-91.533813,43.500568],[-91.610839,43.500538],[-91.603999,43.342055],[-91.605314,43.081661],[-91.177229,43.080255],[-91.1752,43.103779],[-91.177735,43.118741],[-91.178258,43.12499],[-91.177939,43.128883],[-91.17526,43.134673],[-91.170379,43.137392],[-91.160456,43.140583],[-91.156207,43.142953],[-91.146207,43.152413],[-91.14329,43.156421],[-91.141363,43.163545],[-91.138656,43.170001],[-91.135924,43.17343],[-91.13418,43.174413],[-91.124435,43.187894],[-91.123903,43.193544],[-91.122177,43.197263],[-91.119122,43.200374],[-91.113756,43.202916],[-91.107938,43.206586],[-91.087463,43.221899],[-91.079285,43.228267],[-91.071864,43.235172],[-91.066405,43.239301],[-91.062569,43.243173],[-91.059691,43.248574],[-91.057917,43.253976],[-91.058651,43.257687],[-91.061805,43.25996],[-91.069944,43.26028],[-91.072656,43.262137],[-91.072789,43.264371],[-91.071581,43.268201],[-91.071731,43.2714],[-91.073717,43.274754],[-91.079882,43.282781],[-91.085659,43.291878],[-91.107244,43.313653],[-91.117668,43.31934],[-91.129128,43.326358],[-91.13735,43.329765],[-91.154813,43.334834],[-91.171062,43.340975],[-91.181122,43.345934],[-91.188021,43.34761],[-91.201854,43.349111],[-91.203971,43.34986],[-91.206627,43.352532],[-91.214777,43.365882],[-91.214997,43.368014],[-91.213367,43.370105],[-91.207374,43.373667],[-91.206079,43.374984],[-91.204838,43.378895],[-91.200708,43.385938],[-91.19896,43.389843],[-91.197677,43.395342],[-91.198055,43.399231],[-91.199415,43.40304],[-91.200534,43.408494],[-91.200366,43.412709],[-91.203151,43.419813],[-91.205558,43.422956],[-91.207152,43.425039],[-91.228757,43.445545],[-91.232283,43.45096],[-91.233374,43.455176],[-91.232248,43.460026],[-91.22951,43.462615],[-91.224593,43.465533],[-91.220406,43.471314],[-91.216042,43.48115],[-91.215289,43.484806],[-91.217622,43.491016],[-91.218277,43.497236],[-91.217713,43.500558]]]},"properties":{"shapeName":"Allamakee","shapeISO":"52423323B44167272336180","shapeGroup":"USA","shapeType":"ADM2","src_shape_id":"52423323B44167272336180","adm1ISO":"US-IA"}},
{"type":"Feature","geometry":{"type":"Polygon","coordinates":[[[-90.898027,42.295244],[-90.665558,42.294707],[-90.665036,42.382163],[-90.473819,42.381466],[-90.477286,42.383802],[-90.480155,42.384624],[-90.487161,42.385149],[-90.490341,42.387101],[-90.495773,42.392414],[-90.500135,42.395547],[-90.506836,42.3988],[-90.517523,42.403027],[-90.548075,42.413123],[-90.555025,42.416146],[-90.558175,42.420992],[-90.558808,42.428525],[-90.560446,42.432905],[-90.565255,42.43875],[-90.570743,42.441709],[-90.582135,42.444445],[-90.590423,42.447501],[-90.606335,42.451513],[-90.624335,42.458912],[-90.646734,42.471912],[-90.654034,42.478511],[-90.656334,42.483611],[-90.656534,42.489211],[-90.655934,42.491711],[-90.648634,42.49811],[-90.64285,42.508489],[-90.636934,42.51321],[-90.636734,42.51871],[-90.640634,42.527709],[-90.643934,42.540409],[-90.645634,42.544108],[-90.654134,42.549908],[-90.659134,42.557908],[-90.661534,42.568007],[-90.672734,42.576607],[-90.677062,42.579223],[-90.679382,42.581511],[-90.686982,42.591782],[-90.688006,42.599206],[-90.692038,42.610374],[-90.694006,42.614517],[-90.700102,42.622469],[-90.700863,42.626453],[-90.702678,42.630764],[-90.709211,42.636086],[-90.720216,42.640766],[-90.731139,42.643445],[-90.743684,42.645568],[-90.760396,42.649139],[-90.769502,42.651451],[-90.778759,42.652973],[-90.788233,42.653896],[-90.797024,42.65578],[-90.832709,42.66167],[-90.843917,42.663079],[-90.852504,42.66483],[-90.867132,42.668736],[-90.887437,42.672478],[-90.896905,42.67527],[-90.897422,42.645722],[-91.132773,42.645852],[-91.130897,42.47127],[-91.130503,42.382647],[-91.130086,42.295769],[-90.898027,42.295244]]]},"properties":{"shapeName":"Dubuque","shapeISO":"52423323B18401720745990","shapeGroup":"USA","shapeType":"ADM2","src_shape_id":"52423323B18401720745990","adm1ISO":"US-IA"}},
{"type":"Feature","geometry":{"type":"Polygon","coordinates":[[[-94.241645,41.157141],[-94.241601,41.503686],[-94.700637,41.504155],[-94.700105,41.331051],[-94.700597,41.158092],[-94.470611,41.157573],[-94.241645,41.157141]]]},"properties":{"shapeName":"Adair","shapeISO":"52423323B63025537469888","shapeGroup":"USA","shapeType":"ADM2","src_shape_id":"52423323B63025537469888","adm1ISO":"US-IA"}},
{"type":"Feature","geometry":{"type":"Polygon","coordinates":[[[-94.628732,41.86277],[-94.744884,41.862401],[-94.744212,41.602192],[-94.700753,41.602191],[-94.700637,41.504155],[-94.241601,41.503686],[-94.241364,41.600978],[-94.280065,41.601319],[-94.280348,41.863006],[-94.628732,41.86277]]]},"properties":{"shapeName":"Guthrie","shapeISO":"52423323B90698897745067","shapeGroup":"USA","shapeType":"ADM2","src_shape_id":"52423323B90698897745067","adm1ISO":"US-IA"}},
{"type":"Feature","geometry":{"type":"Polygon","coordinates":[[[-93.698039,41.863377],[-93.815729,41.863426],[-93.81504,41.803992],[-93.814333,41.632986],[-93.814289,41.600463],[-93.790639,41.600432],[-93.790554,41.584407],[-93.79053,41.533392],[-93.790619,41.511923],[-93.731966,41.512094],[-93.698109,41.511986],[-93.644933,41.512101],[-93.577345,41.511653],[-93.544141,41.511168],[-93.441293,41.507596],[-93.422861,41.511451],[-93.412267,41.505556],[-93.414272,41.492367],[-93.398121,41.501844],[-93.396766,41.486647],[-93.382055,41.495667],[-93.37077,41.486353],[-93.352538,41.496896],[-93.340794,41.482005],[-93.328414,41.490928],[-93.328621,41.507831],[-93.328688,41.601155],[-93.348688,41.601006],[-93.34794,41.863112],[-93.580885,41.863225],[-93.698039,41.863377]]]},"properties":{"shapeName":"Polk","shapeISO":"52423323B92251381588523","shapeGroup":"USA","shapeType":"ADM2","src_shape_id":"52423323B92251381588523","adm1ISO":"US-IA"}},
{"type":"Feature","geometry":{"type":"Polygon","coordinates":[[[-95.155859,41.159243],[-95.384357,41.160018],[-95.384754,40.987455],[-95.384972,40.901557],[-94.928467,40.90066],[-94.928049,40.986217],[-94.927595,41.158515],[-95.155859,41.159243]]]},"properties":{"shapeName":"Montgomery","shapeISO":"52423323B65551629720369","shapeGroup":"USA","shapeType":"ADM2","src_shape_id":"52423323B65551629720369","adm1ISO":"US-IA"}},
{"type":"Feature","geometry":{"type":"Polygon","coordinates":[[[-95.15473,41.505218],[-95.269365,41.505679],[-95.498005,41.506081],[-95.823062,41.506572],[-95.996183,41.506967],[-95.997911,41.504796],[-96.007342,41.497638],[-96.015994,41.492666],[-96.019232,41.489303],[-96.01955,41.486624],[-96.016397,41.481563],[-96.011765,41.476219],[-96.008841,41.474046],[-96.004716,41.472349],[-95.991026,41.470381],[-95.98297,41.469785],[-95.973457,41.467325],[-95.965489,41.463517],[-95.962337,41.462817],[-95.957025,41.462821],[-95.946473,41.466173],[-95.941977,41.466269],[-95.936809,41.465197],[-95.932929,41.463805],[-95.925721,41.459389],[-95.922537,41.455773],[-95.920289,41.451573],[-95.919873,41.447929],[-95.920585,41.444309],[-95.923913,41.439749],[-95.930713,41.433901],[-95.933177,41.429437],[-95.932305,41.42213],[-95.929897,41.415162],[-95.929729,41.411338],[-95.930786,41.406186],[-95.936898,41.396394],[-95.937498,41.393102],[-95.936939,41.390987],[-95.935198,41.384402],[-95.929298,41.374903],[-95.928798,41.370103],[-95.930998,41.364703],[-95.935498,41.360603],[-95.940998,41.357503],[-95.952199,41.353503],[-95.954899,41.351803],[-95.956799,41.349203],[-95.956699,41.345503],[-95.953099,41.339903],[-95.946899,41.334103],[-95.939299,41.328904],[-95.925698,41.322204],[-95.922098,41.321104],[-95.913798,41.320204],[-95.899298,41.321204],[-95.888698,41.319104],[-95.883097,41.316704],[-95.878197,41.312504],[-95.874697,41.307104],[-95.871497,41.295804],[-95.872897,41.289504],[-95.876898,41.285104],[-95.882398,41.281404],[-95.89016,41.278315],[-95.899077,41.283868],[-95.904298,41.293504],[-95.904298,41.299604],[-95.905898,41.300904],[-95.920299,41.301104],[-95.927499,41.298404],[-95.929599,41.292304],[-95.929599,41.285104],[-95.928699,41.281405],[-95.924984,41.274579],[-95.921899,41.264605],[-95.921299,41.258505],[-95.911399,41.238005],[-95.910899,41.231805],[-95.912599,41.227005],[-95.915099,41.223005],[-95.924899,41.211205],[-95.927499,41.202205],[-95.925998,41.195705],[-95.923227,41.191053],[-95.918298,41.186705],[-95.914598,41.185105],[-95.909698,41.184405],[-95.864797,41.188305],[-95.856796,41.187105],[-95.850196,41.184805],[-95.844096,41.180605],[-95.841296,41.175005],[-95.841896,41.171105],[-95.846196,41.166705],[-95.852796,41.165405],[-95.86508,41.167809],[-95.867352,41.168741],[-95.87192,41.168129],[-95.876297,41.165153],[-95.880944,41.160276],[-95.878704,41.159835],[-95.384357,41.160018],[-95.155859,41.159243],[-95.155301,41.500042],[-95.15473,41.505218]]]},"properties":{"shapeName":"Pottawattamie","shapeISO":"52423323B19646678689776","shapeGroup":"USA","shapeType":"ADM2","src_shape_id":"52423323B19646678689776","adm1ISO":"US-IA"}},
{"type":"Feature","geometry":{"type":"Polygon","coordinates":[[[-95.859957,42.560627],[-95.978195,42.561092],[-96.214093,42.561931],[-96.233637,42.561428],[-96.401141,42.562002],[-96.499005,42.560839],[-96.494707,42.556752],[-96.47696,42.556086],[-96.47697,42.546441],[-96.477717,42.535602],[-96.479817,42.529602],[-96.479017,42.526402],[-96.479917,42.524202],[-96.49081,42.520338],[-96.492978,42.517289],[-96.490097,42.512448],[-96.4836,42.510352],[-96.479392,42.511145],[-96.477462,42.509596],[-96.473347,42.503544],[-96.456356,42.492485],[-96.445516,42.490637],[-96.4239,42.488987],[-96.409416,42.487602],[-96.396115,42.484102],[-96.386015,42.474502],[-96.381315,42.461701],[-96.380115,42.451501],[-96.380715,42.446401],[-96.384315,42.437301],[-96.387616,42.432501],[-96.411816,42.410901],[-96.413617,42.407901],[-96.415517,42.400301],[-96.414988,42.393449],[-96.409161,42.381498],[-96.408444,42.376099],[-96.414002,42.365939],[-96.417101,42.36145],[-96.417926,42.358707],[-96.417794,42.351456],[-96.413903,42.3434],[-96.408006,42.337415],[-96.402965,42.334163],[-96.396277,42.330864],[-96.384177,42.325881],[-96.375315,42.318346],[-96.371798,42.314179],[-96.369977,42.310885],[-96.368515,42.303629],[-96.368462,42.291855],[-96.3658,42.285882],[-96.360808,42.279874],[-96.356414,42.2765],[-96.341458,42.269122],[-96.336011,42.264813],[-96.331339,42.259437],[-96.328913,42.254741],[-96.327714,42.249999],[-96.328963,42.241892],[-96.330012,42.240231],[-96.322876,42.233644],[-96.323731,42.229894],[-96.332052,42.221592],[-96.336331,42.218929],[-96.339094,42.218094],[-96.345063,42.217497],[-96.356663,42.215144],[-96.251448,42.214651],[-95.67083,42.211415],[-95.669273,42.474652],[-95.741829,42.474872],[-95.741619,42.561292],[-95.859957,42.560627]]]},"properties":{"shapeName":"Woodbury","shapeISO":"52423323B54538757084750","shapeGroup":"USA","shapeType":"ADM2","src_shape_id":"52423323B54538757084750","adm1ISO":"US-IA"}},
{"type":"Feature","geometry":{"type":"Polygon","coordinates":[[[-92.869778,41.161073],[-93.099224,41.160874],[-93.097602,40.898458],[-92.639098,40.898893],[-92.640368,41.161305],[-92.869778,41.161073]]]},"properties":{"shapeName":"Monroe","shapeISO":"52423323B33016719022729","shapeGroup":"USA","shapeType":"ADM2","src_shape_id":"52423323B33016719022729","adm1ISO":"US-IA"}},
{"type":"Feature","geometry":{"type":"Polygon","coordinates":[[[-94.470611,41.157573],[-94.700597,41.158092],[-94.70499,41.15791],[-94.927595,41.158515],[-94.928049,40.986217],[-94.928467,40.90066],[-94.470787,40.899509],[-94.470611,41.157573]]]},"properties":{"shapeName":"Adams","shapeISO":"52423323B85396857356380","shapeGroup":"USA","shapeType":"ADM2","src_shape_id":"52423323B85396857356380","adm1ISO":"US-IA"}},
{"type":"Feature","geometry":{"type":"Polygon","coordinates":[[[-93.556547,40.898302],[-93.784378,40.899376],[-93.904974,40.896677],[-94.01481,40.897038],[-94.015499,40.573921],[-93.976773,40.574642],[-93.96387,40.574761],[-93.935694,40.575337],[-93.900884,40.575881],[-93.898334,40.576018],[-93.818732,40.577093],[-93.815492,40.577285],[-93.774352,40.577592],[-93.75023,40.577727],[-93.742766,40.577525],[-93.69034,40.577882],[-93.656218,40.578359],[-93.566196,40.580124],[-93.556906,40.580242],[-93.556547,40.898302]]]},"properties":{"shapeName":"Decatur","shapeISO":"52423323B8791661398177","shapeGroup":"USA","shapeType":"ADM2","src_shape_id":"52423323B8791661398177","adm1ISO":"US-IA"}},
{"type":"Feature","geometry":{"type":"Polygon","coordinates":[[[-90.898491,41.946253],[-90.89838,41.7714],[-90.786219,41.771377],[-90.782181,41.768016],[-90.76189,41.762823],[-90.753041,41.749006],[-90.732282,41.737393],[-90.713909,41.734586],[-90.693066,41.742971],[-90.68539,41.757213],[-90.657443,41.764092],[-90.651461,41.755424],[-90.630686,41.765362],[-90.61636,41.756473],[-90.592427,41.770647],[-90.579138,41.759137],[-90.542823,41.765927],[-90.537352,41.776443],[-90.495793,41.765895],[-90.473624,41.773473],[-90.458469,41.758271],[-90.451386,41.764468],[-90.424208,41.750567],[-90.424816,41.736121],[-90.411687,41.740646],[-90.407938,41.729304],[-90.389649,41.736956],[-90.364185,41.727811],[-90.333881,41.739412],[-90.316364,41.728892],[-90.315227,41.734272],[-90.310715,41.742222],[-90.302789,41.750039],[-90.27864,41.767366],[-90.263293,41.77212],[-90.258629,41.775303],[-90.248638,41.779813],[-90.242387,41.782972],[-90.222269,41.793141],[-90.216895,41.795343],[-90.187975,41.803171],[-90.181979,41.807078],[-90.180649,41.811987],[-90.181726,41.822607],[-90.183979,41.833078],[-90.183771,41.836248],[-90.181407,41.844655],[-90.175057,41.853637],[-90.173012,41.85741],[-90.172771,41.866157],[-90.170047,41.876447],[-90.165071,41.883785],[-90.157025,41.898027],[-90.15359,41.906622],[-90.153368,41.915601],[-90.151845,41.928925],[-90.152665,41.933066],[-90.156908,41.938189],[-90.160654,41.940853],[-90.163853,41.944942],[-90.164945,41.948869],[-90.164141,41.956186],[-90.162147,41.961301],[-90.15384,41.974124],[-90.148605,41.978277],[-90.146231,41.981337],[-90.146039,41.988147],[-90.140619,41.996007],[-90.140067,42.00326],[-90.141173,42.008939],[-90.143782,42.014889],[-90.148102,42.020022],[-90.149739,42.026572],[-90.151585,42.030641],[-90.154228,42.033081],[-90.548666,42.032846],[-90.89838,42.033556],[-90.898491,41.946253]]]},"properties":{"shapeName":"Clinton","shapeISO":"52423323B69668368996820","shapeGroup":"USA","shapeType":"ADM2","src_shape_id":"52423323B69668368996820","adm1ISO":"US-IA"}},
{"type":"Feature","geometry":{"type":"Polygon","coordinates":[[[-95.672779,41.863154],[-96.139018,41.866308],[-96.135261,41.863135],[-96.130628,41.860816],[-96.123223,41.858587],[-96.11621,41.854876],[-96.110254,41.848857],[-96.108037,41.844404],[-96.107919,41.840346],[-96.110915,41.830825],[-96.110818,41.828179],[-96.109355,41.823742],[-96.1076,41.820692],[-96.103757,41.817158],[-96.098278,41.814213],[-96.093843,41.812792],[-96.081034,41.810151],[-96.075556,41.807818],[-96.06967,41.803516],[-96.067337,41.800635],[-96.064887,41.796237],[-96.064545,41.793009],[-96.066421,41.78892],[-96.073205,41.783016],[-96.077551,41.777831],[-96.078947,41.77136],[-96.078308,41.761605],[-96.079923,41.757902],[-96.084681,41.753321],[-96.091695,41.750426],[-96.097519,41.749083],[-96.10278,41.746346],[-96.10463,41.744218],[-96.106433,41.737897],[-96.10559,41.731654],[-96.102618,41.728023],[-96.087608,41.722187],[-96.07969,41.717969],[-96.075159,41.713272],[-96.072502,41.708801],[-96.073071,41.705011],[-96.075963,41.701668],[-96.082437,41.698166],[-96.090587,41.697432],[-96.105127,41.699924],[-96.111976,41.69778],[-96.117759,41.694228],[-96.121409,41.688529],[-96.12172,41.682997],[-96.120991,41.677868],[-96.114986,41.671227],[-96.111491,41.668555],[-96.099845,41.661037],[-96.097941,41.658689],[-96.095423,41.652743],[-96.095054,41.647372],[-96.097736,41.63964],[-96.100709,41.635514],[-96.114154,41.623982],[-96.116241,41.621581],[-96.117958,41.617363],[-96.117566,41.610006],[-96.113841,41.602284],[-96.109395,41.596878],[-96.104473,41.593176],[-96.101504,41.591587],[-96.088691,41.587527],[-96.083425,41.583346],[-96.081851,41.580414],[-96.081186,41.574281],[-96.082414,41.571236],[-96.084794,41.567838],[-96.091828,41.561093],[-96.093621,41.558278],[-96.095859,41.550887],[-96.096194,41.547199],[-96.094098,41.539272],[-96.089722,41.531785],[-96.088228,41.530602],[-96.080501,41.528206],[-96.073078,41.525059],[-96.067535,41.520347],[-96.063646,41.516169],[-96.057943,41.511497],[-96.053698,41.508866],[-96.048126,41.507278],[-96.040709,41.507083],[-96.036611,41.509054],[-96.034313,41.51286],[-96.030601,41.527299],[-96.028447,41.539623],[-96.02319,41.544371],[-96.019694,41.54575],[-96.016482,41.546092],[-96.010036,41.54554],[-96.005087,41.544011],[-96.001169,41.541153],[-95.999537,41.538686],[-95.993899,41.523419],[-95.992678,41.517297],[-95.992841,41.512009],[-95.996183,41.506967],[-95.823062,41.506572],[-95.498005,41.506081],[-95.497801,41.60234],[-95.558151,41.60239],[-95.557285,41.863456],[-95.672779,41.863154]]]},"properties":{"shapeName":"Harrison","shapeISO":"52423323B91984368799839","shapeGroup":"USA","shapeType":"ADM2","src_shape_id":"52423323B91984368799839","adm1ISO":"US-IA"}},
{"type":"Feature","geometry":{"type":"Polygon","coordinates":[[[-95.813466,40.9017],[-95.704307,40.901052],[-95.384972,40.901557],[-95.384754,40.987455],[-95.384357,41.160018],[-95.878704,41.159835],[-95.880944,41.160276],[-95.883497,41.154905],[-95.883397,41.150905],[-95.882096,41.144005],[-95.878896,41.138105],[-95.868696,41.124705],[-95.865896,41.117905],[-95.865458,41.101273],[-95.863276,41.093772],[-95.862595,41.088406],[-95.863847,41.083514],[-95.865471,41.080374],[-95.870639,41.075238],[-95.878111,41.069594],[-95.881383,41.06521],[-95.882423,41.060418],[-95.881863,41.057218],[-95.879495,41.053306],[-95.869815,41.045206],[-95.86179,41.039434],[-95.859662,41.035702],[-95.85911,41.031606],[-95.859926,41.02541],[-95.865886,41.01741],[-95.868382,41.01271],[-95.869494,41.009406],[-95.869206,41.005958],[-95.867294,41.001606],[-95.8635,40.997347],[-95.860124,40.995249],[-95.852555,40.991745],[-95.844359,40.989531],[-95.838916,40.986491],[-95.833545,40.982667],[-95.830305,40.978339],[-95.828337,40.972385],[-95.829837,40.963864],[-95.837959,40.950625],[-95.840283,40.939949],[-95.839751,40.932787],[-95.837782,40.924719],[-95.836446,40.921649],[-95.830707,40.915011],[-95.818717,40.906825],[-95.813466,40.9017]]]},"properties":{"shapeName":"Mills","shapeISO":"52423323B88148512368215","shapeGroup":"USA","shapeType":"ADM2","src_shape_id":"52423323B88148512368215","adm1ISO":"US-IA"}},
{"type":"Feature","geometry":{"type":"Polygon","coordinates":[[[-95.388086,43.255229],[-95.626721,43.258458],[-95.861922,43.257574],[-95.859959,42.996669],[-95.859385,42.909105],[-95.38819,42.909905],[-95.388086,43.255229]]]},"properties":{"shapeName":"O'Brien","shapeISO":"52423323B82906580744491","shapeGroup":"USA","shapeType":"ADM2","src_shape_id":"52423323B82906580744491","adm1ISO":"US-IA"}},
{"type":"Feature","geometry":{"type":"Polygon","coordinates":[[[-91.716776,40.598537],[-91.712032,40.595053],[-91.696366,40.588155],[-91.688827,40.583416],[-91.685388,40.578899],[-91.68573,40.576792],[-91.691564,40.564874],[-91.690811,40.5599],[-91.688707,40.557397],[-91.681721,40.553042],[-91.671,40.550944],[-91.654352,40.549196],[-91.638089,40.545548],[-91.625168,40.543507],[-91.621907,40.542299],[-91.619006,40.539091],[-91.618035,40.534037],[-91.6188,40.526293],[-91.622203,40.517047],[-91.622369,40.514369],[-91.62136,40.510079],[-91.619493,40.507141],[-91.616955,40.504801],[-91.608354,40.500047],[-91.594651,40.495004],[-91.590824,40.492299],[-91.586891,40.48724],[-91.583322,40.479125],[-91.582444,40.47471],[-91.580362,40.471022],[-91.574753,40.465671],[-91.56775,40.462297],[-91.563851,40.460995],[-91.552698,40.458776],[-91.543792,40.458156],[-91.528607,40.459009],[-91.526162,40.458632],[-91.523871,40.456338],[-91.523079,40.452261],[-91.52406,40.448444],[-91.531919,40.442737],[-91.533555,40.440811],[-91.532814,40.436791],[-91.529139,40.434279],[-91.525007,40.43349],[-91.519942,40.43368],[-91.519019,40.431305],[-91.521395,40.426495],[-91.526562,40.419879],[-91.527064,40.416696],[-91.526432,40.413411],[-91.524619,40.410772],[-91.518399,40.408689],[-91.514,40.408544],[-91.50907,40.406782],[-91.505279,40.403519],[-91.4981,40.401933],[-91.493651,40.40244],[-91.489823,40.404324],[-91.487836,40.403873],[-91.488604,40.400016],[-91.484514,40.383907],[-91.465123,40.385264],[-91.44125,40.386262],[-91.425669,40.382498],[-91.422331,40.380946],[-91.419429,40.378271],[-91.415702,40.381388],[-91.413018,40.382284],[-91.397003,40.383134],[-91.388367,40.384936],[-91.381965,40.387639],[-91.375753,40.391886],[-91.372928,40.399115],[-91.372561,40.401207],[-91.372457,40.411482],[-91.373728,40.417898],[-91.377632,40.426342],[-91.380972,40.435402],[-91.381776,40.442562],[-91.381475,40.446047],[-91.379914,40.452117],[-91.378151,40.456401],[-91.368081,40.474649],[-91.364922,40.484175],[-91.36369,40.494218],[-91.364218,40.50005],[-91.367883,40.510486],[-91.369066,40.512539],[-91.381864,40.528254],[-91.384538,40.530955],[-91.388074,40.533076],[-91.394482,40.53455],[-91.400732,40.536796],[-91.404132,40.539134],[-91.406209,40.542705],[-91.406858,40.547564],[-91.40638,40.551838],[-91.405248,40.554648],[-91.401489,40.559465],[-91.379759,40.574457],[-91.374259,40.582597],[-91.35988,40.601812],[-91.353996,40.60656],[-91.34874,40.609702],[-91.339726,40.613495],[-91.306531,40.626238],[-91.276182,40.632247],[-91.26496,40.6339],[-91.258256,40.636679],[-91.253081,40.637969],[-91.247858,40.638397],[-91.218444,40.638444],[-91.197913,40.636114],[-91.186987,40.637304],[-91.185435,40.638078],[-91.1543,40.653603],[-91.138062,40.6609],[-91.123935,40.669159],[-91.120827,40.672784],[-91.119639,40.675899],[-91.115414,40.691832],[-91.11244,40.696286],[-91.138825,40.700713],[-91.143481,40.704902],[-91.176528,40.721099],[-91.182558,40.708107],[-91.209557,40.714],[-91.217125,40.732293],[-91.258033,40.752026],[-91.280573,40.75327],[-91.293398,40.772584],[-91.363879,40.790672],[-91.40946,40.812912],[-91.718794,40.813551],[-91.718216,40.638608],[-91.716776,40.598537]]]},"properties":{"shapeName":"Lee","shapeISO":"52423323B84333675271441","shapeGroup":"USA","shapeType":"ADM2","src_shape_id":"52423323B84333675271441","adm1ISO":"US-IA"}},
{"type":"Feature","geometry":{"type":"Polygon","coordinates":[[[-91.607066,42.643981],[-91.132773,42.645852],[-90.897422,42.645722],[-90.896905,42.67527],[-90.900268,42.676262],[-90.913407,42.682957],[-90.921162,42.685414],[-90.923641,42.685508],[-90.929888,42.684136],[-90.937052,42.683407],[-90.941574,42.683852],[-90.94922,42.685581],[-90.952422,42.686786],[-90.965055,42.693241],[-90.974244,42.695257],[-90.980585,42.69894],[-90.988783,42.708732],[-90.995543,42.713712],[-91.000135,42.716197],[-91.009584,42.720131],[-91.015694,42.719237],[-91.017246,42.719574],[-91.026793,42.724236],[-91.029699,42.726782],[-91.030991,42.732558],[-91.03202,42.734492],[-91.035425,42.737348],[-91.03939,42.738486],[-91.044146,42.738613],[-91.046578,42.737175],[-91.051282,42.737009],[-91.05374,42.738246],[-91.054808,42.740537],[-91.054817,42.744694],[-91.056304,42.747349],[-91.060179,42.750489],[-91.064687,42.750922],[-91.06579,42.753395],[-91.065499,42.757089],[-91.061439,42.757982],[-91.060268,42.761855],[-91.063261,42.763955],[-91.069556,42.769636],[-91.070723,42.77551],[-91.071145,42.783012],[-91.072454,42.78774],[-91.075488,42.795474],[-91.078104,42.806534],[-91.079321,42.820317],[-91.078672,42.827686],[-91.082777,42.829985],[-91.090143,42.829245],[-91.094067,42.830821],[-91.095121,42.834974],[-91.091409,42.849868],[-91.095336,42.855328],[-91.097663,42.859879],[-91.098827,42.864429],[-91.098245,42.875806],[-91.100572,42.883086],[-91.104058,42.885979],[-91.112165,42.891157],[-91.117418,42.895845],[-91.138007,42.90378],[-91.143382,42.904678],[-91.144713,42.905972],[-91.146184,42.909858],[-91.145875,42.914975],[-91.143885,42.920654],[-91.144322,42.9266],[-91.145524,42.930386],[-91.149791,42.940252],[-91.149097,42.946562],[-91.145547,42.956518],[-91.146557,42.963353],[-91.150913,42.970522],[-91.155526,42.975782],[-91.156569,42.978234],[-91.15682,42.988178],[-91.157497,42.991483],[-91.16829,43.019434],[-91.174699,43.038721],[-91.178094,43.062052],[-91.177901,43.064214],[-91.179464,43.067435],[-91.177271,43.072991],[-91.177229,43.080255],[-91.605314,43.081661],[-91.605743,42.993242],[-91.607337,42.820949],[-91.606604,42.818557],[-91.60843,42.812788],[-91.607066,42.643981]]]},"properties":{"shapeName":"Clayton","shapeISO":"52423323B1897708269800","shapeGroup":"USA","shapeType":"ADM2","src_shape_id":"52423323B1897708269800","adm1ISO":"US-IA"}},
{"type":"Feature","geometry":{"type":"Polygon","coordinates":[[[-91.368528,41.423186],[-91.369339,41.336071],[-91.151794,41.334455],[-91.071947,41.3336],[-91.071559,41.339659],[-91.066527,41.365254],[-91.065065,41.369109],[-91.051587,41.385291],[-91.051017,41.387564],[-91.050335,41.400057],[-91.047826,41.410908],[-91.043995,41.415905],[-91.037138,41.420025],[-91.027794,41.423611],[-91.011987,41.425032],[-91.005853,41.426143],[-90.984905,41.433877],[-90.979822,41.434329],[-90.975175,41.433993],[-90.966669,41.430059],[-90.953205,41.425083],[-90.949798,41.424171],[-90.930023,41.421412],[-90.92435,41.422868],[-90.919358,41.425597],[-90.900478,41.431162],[-90.890794,41.43544],[-90.879785,41.441073],[-90.867289,41.448223],[-90.857561,41.452759],[-90.853611,41.453917],[-90.846565,41.455149],[-90.837421,41.455631],[-90.824743,41.454475],[-90.80729,41.454474],[-90.786289,41.452896],[-90.786006,41.465758],[-90.783819,41.596539],[-90.89986,41.597141],[-91.005297,41.597392],[-91.038238,41.597413],[-91.366455,41.598381],[-91.368528,41.423186]]]},"properties":{"shapeName":"Muscatine","shapeISO":"52423323B78769996222948","shapeGroup":"USA","shapeType":"ADM2","src_shape_id":"52423323B78769996222948","adm1ISO":"US-IA"}},
{"type":"Feature","geometry":{"type":"Polygon","coordinates":[[[-91.40946,40.812912],[-91.363879,40.790672],[-91.293398,40.772584],[-91.280573,40.75327],[-91.258033,40.752026],[-91.217125,40.732293],[-91.209557,40.714],[-91.182558,40.708107],[-91.176528,40.721099],[-91.143481,40.704902],[-91.138825,40.700713],[-91.11244,40.696286],[-91.110934,40.703269],[-91.111102,40.708289],[-91.113892,40.719539],[-91.115742,40.725175],[-91.110431,40.745535],[-91.108207,40.750942],[-91.102493,40.757083],[-91.098112,40.76324],[-91.09614,40.767141],[-91.09171,40.779715],[-91.091253,40.786731],[-91.092263,40.792916],[-91.097038,40.802478],[-91.097656,40.805582],[-91.096853,40.811624],[-91.093,40.821086],[-91.090079,40.824645],[-91.077528,40.833412],[-91.067166,40.842004],[-91.058756,40.846316],[-91.056437,40.848394],[-91.050248,40.858521],[-91.047351,40.864661],[-91.04466,40.868363],[-91.039104,40.873572],[-91.036796,40.875045],[-91.027496,40.87918],[-91.021569,40.884028],[-91.013247,40.896629],[-91.009543,40.900572],[-91.003543,40.905153],[-90.998507,40.908127],[-90.985469,40.912148],[-90.979197,40.915529],[-90.969002,40.919135],[-90.965351,40.921641],[-90.962923,40.924965],[-90.960469,40.936364],[-90.95224,40.954055],[-90.951974,40.958246],[-90.952722,40.962095],[-90.955118,40.969866],[-90.958096,40.976651],[-90.958149,40.979775],[-90.955208,40.986813],[-90.949641,40.995256],[-90.945956,41.006503],[-90.945061,41.011925],[-90.945331,41.019287],[-90.94226,41.03471],[-90.942327,41.03848],[-90.943659,41.048645],[-90.944584,41.052263],[-90.945556,41.061738],[-90.948997,41.070257],[-90.94939,41.072719],[-91.370717,41.07412],[-91.372102,40.812638],[-91.40946,40.812912]]]},"properties":{"shapeName":"Des Moines","shapeISO":"52423323B51046166578501","shapeGroup":"USA","shapeType":"ADM2","src_shape_id":"52423323B51046166578501","adm1ISO":"US-IA"}},
{"type":"Feature","geometry":{"type":"Polygon","coordinates":[[[-91.365884,41.947418],[-91.366228,41.860077],[-91.366455,41.598381],[-91.038238,41.597413],[-91.005297,41.597392],[-90.89986,41.597141],[-90.89838,41.7714],[-90.898491,41.946253],[-91.365884,41.947418]]]},"properties":{"shapeName":"Cedar","shapeISO":"52423323B563666297739","shapeGroup":"USA","shapeType":"ADM2","src_shape_id":"52423323B563666297739","adm1ISO":"US-IA"}},
{"type":"Feature","geometry":{"type":"Polygon","coordinates":[[[-94.85842,42.209699],[-94.856697,42.474004],[-94.914495,42.474198],[-94.914493,42.560317],[-95.388018,42.561749],[-95.387453,42.474803],[-95.322365,42.474744],[-95.323505,42.210939],[-95.090859,42.210412],[-94.85842,42.209699]]]},"properties":{"shapeName":"Sac","shapeISO":"52423323B56975486927627","shapeGroup":"USA","shapeType":"ADM2","src_shape_id":"52423323B56975486927627","adm1ISO":"US-IA"}},
{"type":"Feature","geometry":{"type":"Polygon","coordinates":[[[-95.092869,41.863381],[-95.092528,41.602062],[-95.040756,41.602159],[-95.040778,41.504697],[-94.926388,41.504531],[-94.700637,41.504155],[-94.700753,41.602191],[-94.744212,41.602192],[-94.744884,41.862401],[-95.092869,41.863381]]]},"properties":{"shapeName":"Audubon","shapeISO":"52423323B14166317178885","shapeGroup":"USA","shapeType":"ADM2","src_shape_id":"52423323B14166317178885","adm1ISO":"US-IA"}},
{"type":"Feature","geometry":{"type":"Polygon","coordinates":[[[-91.716049,41.162815],[-91.485724,41.162413],[-91.485377,41.249654],[-91.484002,41.423856],[-91.500705,41.446683],[-91.499646,41.459775],[-91.516019,41.469197],[-91.50211,41.477458],[-91.506501,41.500759],[-91.518586,41.497281],[-91.519835,41.511018],[-91.829238,41.511465],[-91.94605,41.510757],[-91.945578,41.163585],[-91.830342,41.161543],[-91.716049,41.162815]]]},"properties":{"shapeName":"Washington","shapeISO":"52423323B53294458303473","shapeGroup":"USA","shapeType":"ADM2","src_shape_id":"52423323B53294458303473","adm1ISO":"US-IA"}},
{"type":"Feature","geometry":{"type":"Polygon","coordinates":[[[-91.484002,41.423856],[-91.485377,41.249654],[-91.485724,41.162413],[-91.370305,41.161255],[-91.370717,41.07412],[-90.94939,41.072719],[-90.948214,41.084421],[-90.946266,41.094742],[-90.946634,41.09664],[-90.957253,41.111093],[-90.965912,41.119567],[-90.970858,41.130115],[-90.981318,41.142667],[-90.98967,41.155724],[-90.994967,41.160632],[-90.997913,41.162572],[-91.007593,41.166191],[-91.012564,41.16593],[-91.027221,41.163381],[-91.030036,41.163548],[-91.041543,41.166146],[-91.055076,41.185774],[-91.065906,41.199525],[-91.072987,41.207159],[-91.081452,41.214437],[-91.093025,41.222643],[-91.100836,41.23054],[-91.109569,41.236575],[-91.11234,41.239011],[-91.113655,41.241409],[-91.114193,41.250037],[-91.110311,41.256096],[-91.104469,41.262112],[-91.101149,41.267177],[-91.092041,41.286919],[-91.086887,41.294379],[-91.077512,41.301836],[-91.074848,41.305586],[-91.07324,41.313448],[-91.071962,41.333366],[-91.071947,41.3336],[-91.151794,41.334455],[-91.369339,41.336071],[-91.368528,41.423186],[-91.484002,41.423856]]]},"properties":{"shapeName":"Louisa","shapeISO":"52423323B44101678626651","shapeGroup":"USA","shapeType":"ADM2","src_shape_id":"52423323B44101678626651","adm1ISO":"US-IA"}},
{"type":"Feature","geometry":{"type":"Polygon","coordinates":[[[-90.89838,41.7714],[-90.89986,41.597141],[-90.783819,41.596539],[-90.786006,41.465758],[-90.786289,41.452896],[-90.77759,41.451269],[-90.771679,41.450769],[-90.750149,41.44964],[-90.737544,41.450135],[-90.723552,41.452256],[-90.701166,41.454751],[-90.690958,41.456651],[-90.676446,41.46084],[-90.666246,41.46064],[-90.655846,41.46214],[-90.650245,41.46504],[-90.640245,41.47334],[-90.632545,41.47874],[-90.618544,41.48504],[-90.605944,41.49424],[-90.604244,41.49704],[-90.602144,41.50604],[-90.595244,41.51104],[-90.591044,41.51284],[-90.582043,41.51514],[-90.571143,41.51634],[-90.567243,41.51754],[-90.556242,41.52424],[-90.540942,41.526141],[-90.533042,41.524941],[-90.513141,41.519541],[-90.50064,41.518041],[-90.48994,41.518241],[-90.474339,41.519741],[-90.461439,41.523541],[-90.445238,41.536141],[-90.438438,41.544141],[-90.432738,41.549541],[-90.427238,41.551541],[-90.422237,41.554241],[-90.415837,41.562941],[-90.412837,41.565341],[-90.397937,41.572241],[-90.381336,41.576641],[-90.364135,41.579641],[-90.343235,41.587841],[-90.341535,41.590641],[-90.339535,41.598641],[-90.343337,41.640863],[-90.343459,41.646967],[-90.336736,41.66454],[-90.334532,41.679567],[-90.330229,41.683962],[-90.319931,41.689729],[-90.317322,41.691678],[-90.314694,41.694838],[-90.313442,41.69809],[-90.312777,41.702434],[-90.313327,41.709502],[-90.317428,41.718341],[-90.317675,41.722698],[-90.316364,41.728892],[-90.333881,41.739412],[-90.364185,41.727811],[-90.389649,41.736956],[-90.407938,41.729304],[-90.411687,41.740646],[-90.424816,41.736121],[-90.424208,41.750567],[-90.451386,41.764468],[-90.458469,41.758271],[-90.473624,41.773473],[-90.495793,41.765895],[-90.537352,41.776443],[-90.542823,41.765927],[-90.579138,41.759137],[-90.592427,41.770647],[-90.61636,41.756473],[-90.630686,41.765362],[-90.651461,41.755424],[-90.657443,41.764092],[-90.68539,41.757213],[-90.693066,41.742971],[-90.713909,41.734586],[-90.732282,41.737393],[-90.753041,41.749006],[-90.76189,41.762823],[-90.782181,41.768016],[-90.786219,41.771377],[-90.89838,41.7714]]]},"properties":{"shapeName":"Scott","shapeISO":"52423323B10100313584475","shapeGroup":"USA","shapeType":"ADM2","src_shape_id":"52423323B10100313584475","adm1ISO":"US-IA"}},
{"type":"Feature","geometry":{"type":"Polygon","coordinates":[[[-95.040778,41.504697],[-95.040756,41.602159],[-95.092528,41.602062],[-95.092869,41.863381],[-95.324848,41.864128],[-95.557285,41.863456],[-95.558151,41.60239],[-95.497801,41.60234],[-95.498005,41.506081],[-95.269365,41.505679],[-95.15473,41.505218],[-95.040778,41.504697]]]},"properties":{"shapeName":"Shelby","shapeISO":"52423323B47496055628600","shapeGroup":"USA","shapeType":"ADM2","src_shape_id":"52423323B47496055628600","adm1ISO":"US-IA"}},
{"type":"Feature","geometry":{"type":"Polygon","coordinates":[[[-91.130086,42.295769],[-91.130503,42.382647],[-91.130897,42.47127],[-91.132773,42.645852],[-91.607066,42.643981],[-91.608515,42.469283],[-91.597404,42.46925],[-91.596988,42.296416],[-91.36327,42.296453],[-91.130086,42.295769]]]},"properties":{"shapeName":"Delaware","shapeISO":"52423323B18552254627235","shapeGroup":"USA","shapeType":"ADM2","src_shape_id":"52423323B18552254627235","adm1ISO":"US-IA"}},
{"type":"Feature","geometry":{"type":"Polygon","coordinates":[[[-91.605314,43.081661],[-91.603999,43.342055],[-91.610839,43.500538],[-91.625618,43.500735],[-91.634251,43.500487],[-91.651403,43.500462],[-91.730225,43.500687],[-91.738453,43.500533],[-91.777695,43.500719],[-91.850947,43.500663],[-91.941844,43.500562],[-91.949886,43.500493],[-92.079809,43.500655],[-92.080962,43.255627],[-92.080983,43.212955],[-92.081153,43.082802],[-91.605314,43.081661]]]},"properties":{"shapeName":"Winneshiek","shapeISO":"52423323B22827021429588","shapeGroup":"USA","shapeType":"ADM2","src_shape_id":"52423323B22827021429588","adm1ISO":"US-IA"}},
{"type":"Feature","geometry":{"type":"Polygon","coordinates":[[[-96.554973,43.260007],[-96.552599,43.257777],[-96.552038,43.251125],[-96.552971,43.247289],[-96.559194,43.245163],[-96.565261,43.244249],[-96.571202,43.238969],[-96.568513,43.231562],[-96.560448,43.224227],[-96.557325,43.224786],[-96.554945,43.226783],[-96.548192,43.22692],[-96.54491,43.225936],[-96.540096,43.225706],[-96.535749,43.227648],[-96.526873,43.224079],[-96.522092,43.220968],[-96.520969,43.218248],[-96.519281,43.217698],[-96.512466,43.218564],[-96.500767,43.220775],[-96.496462,43.22366],[-96.485272,43.224191],[-96.476705,43.222022],[-96.475579,43.221062],[-96.47492,43.217359],[-96.472166,43.209542],[-96.470634,43.207233],[-96.470789,43.205107],[-96.473785,43.198774],[-96.473842,43.189812],[-96.472403,43.185652],[-96.467154,43.18451],[-96.464904,43.182042],[-96.4673,43.164074],[-96.467392,43.159616],[-96.466545,43.150289],[-96.465107,43.147523],[-96.459986,43.143524],[-96.455552,43.144165],[-96.450369,43.142245],[-96.443439,43.133833],[-96.441652,43.124695],[-96.439623,43.121971],[-96.436597,43.12085],[-96.439343,43.113923],[-96.451885,43.100481],[-96.460524,43.094947],[-96.462863,43.091426],[-96.462644,43.089621],[-96.455345,43.088136],[-96.454197,43.083387],[-96.455217,43.07506],[-96.458209,43.067561],[-96.460858,43.06404],[-96.468215,43.061867],[-96.473173,43.063557],[-96.476913,43.06239],[-96.48673,43.055505],[-96.488847,43.051482],[-96.490373,43.050796],[-96.501756,43.048639],[-96.505247,43.048733],[-96.510264,43.049924],[-96.518439,43.042075],[-96.51576,43.039395],[-96.511613,43.039934],[-96.509153,43.037304],[-96.51081,43.031909],[-96.513093,43.028444],[-96.511003,43.024708],[-96.503217,43.019812],[-96.499195,43.01922],[-96.494424,43.014558],[-96.491678,43.009714],[-96.492701,43.005096],[-96.494349,43.001826],[-96.497828,42.99815],[-96.507345,42.996526],[-96.509994,42.995133],[-96.512894,42.991431],[-96.512245,42.985944],[-96.516732,42.981465],[-96.520781,42.980392],[-96.520254,42.97765],[-96.51593,42.972893],[-96.510701,42.971267],[-96.506156,42.971355],[-96.50314,42.968199],[-96.500316,42.959398],[-96.504865,42.954666],[-96.50948,42.945158],[-96.514896,42.943675],[-96.525544,42.935518],[-96.541106,42.924503],[-96.541636,42.920685],[-96.540237,42.918673],[-96.537362,42.908799],[-95.977378,42.90978],[-95.859385,42.909105],[-95.859959,42.996669],[-95.861922,43.257574],[-96.039165,43.258899],[-96.098071,43.257407],[-96.554973,43.260007]]]},"properties":{"shapeName":"Sioux","shapeISO":"52423323B71444567785310","shapeGroup":"USA","shapeType":"ADM2","src_shape_id":"52423323B71444567785310","adm1ISO":"US-IA"}},
{"type":"Feature","geometry":{"type":"Polygon","coordinates":[[[-95.202272,40.578535],[-95.120837,40.57742],[-95.107221,40.577123],[-95.097615,40.577175],[-95.068929,40.576887],[-94.991669,40.575699],[-94.966499,40.575846],[-94.914904,40.575075],[-94.913132,40.727292],[-94.928537,40.727406],[-94.928467,40.90066],[-95.384972,40.901557],[-95.385262,40.728385],[-95.370626,40.728248],[-95.373891,40.655534],[-95.373931,40.580509],[-95.35781,40.580107],[-95.335596,40.579878],[-95.221533,40.578834],[-95.202272,40.578535]]]},"properties":{"shapeName":"Page","shapeISO":"52423323B95233245971314","shapeGroup":"USA","shapeType":"ADM2","src_shape_id":"52423323B95233245971314","adm1ISO":"US-IA"}},
{"type":"Feature","geometry":{"type":"Polygon","coordinates":[[[-94.914642,43.500458],[-94.994468,43.500531],[-95.014253,43.50088],[-95.053512,43.500777],[-95.054297,43.500868],[-95.114882,43.500675],[-95.122641,43.500763],[-95.154944,43.500457],[-95.167899,43.500893],[-95.180431,43.500782],[-95.214946,43.500893],[-95.244852,43.501204],[-95.250977,43.500472],[-95.374745,43.500322],[-95.387795,43.500248],[-95.387598,43.342245],[-95.388086,43.255229],[-94.913731,43.255062],[-94.913993,43.341466],[-94.914642,43.500458]]]},"properties":{"shapeName":"Dickinson","shapeISO":"52423323B9004969002795","shapeGroup":"USA","shapeType":"ADM2","src_shape_id":"52423323B9004969002795","adm1ISO":"US-IA"}},
{"type":"Feature","geometry":{"type":"Polygon","coordinates":[[[-95.67083,42.211415],[-96.251448,42.214651],[-96.356663,42.215144],[-96.358149,42.214095],[-96.359878,42.210552],[-96.359095,42.207806],[-96.351523,42.200492],[-96.348074,42.194754],[-96.347251,42.186728],[-96.350331,42.177447],[-96.349696,42.17205],[-96.34776,42.166813],[-96.342403,42.160498],[-96.337988,42.157204],[-96.32588,42.151494],[-96.319536,42.146654],[-96.316987,42.143178],[-96.313827,42.136345],[-96.310093,42.13253],[-96.305892,42.129833],[-96.301031,42.128049],[-96.285678,42.125626],[-96.279211,42.123487],[-96.272307,42.118403],[-96.268908,42.113597],[-96.267326,42.110272],[-96.266602,42.103269],[-96.267644,42.096184],[-96.271785,42.088704],[-96.274143,42.085941],[-96.276766,42.081423],[-96.279087,42.074033],[-96.27935,42.070287],[-96.278453,42.060406],[-96.275556,42.051983],[-96.27291,42.047289],[-96.268645,42.042321],[-96.263894,42.039865],[-96.256095,42.038087],[-96.25455,42.039461],[-96.24684,42.041623],[-96.2384,42.041095],[-96.232133,42.039152],[-96.225664,42.035224],[-96.22383,42.033353],[-96.221909,42.029565],[-96.221738,42.026212],[-96.223619,42.022659],[-96.227875,42.018658],[-96.238867,42.012322],[-96.24194,42.006972],[-96.242388,42.002906],[-96.240721,41.999358],[-96.236495,41.996435],[-96.229747,41.994417],[-96.225471,41.994741],[-96.221821,41.997389],[-96.217645,42.003869],[-96.215233,42.006708],[-96.206091,42.009274],[-96.194564,42.008669],[-96.188075,42.00633],[-96.184652,42.00264],[-96.183576,41.999994],[-96.184792,41.995467],[-96.189524,41.989321],[-96.192149,41.984468],[-96.19061,41.980728],[-96.186273,41.977424],[-96.184251,41.976703],[-96.177211,41.976332],[-96.174162,41.976871],[-96.168079,41.979003],[-96.160688,41.980121],[-96.156546,41.980144],[-96.141236,41.97807],[-96.132545,41.974632],[-96.129513,41.97168],[-96.128908,41.969734],[-96.129194,41.965143],[-96.133326,41.955739],[-96.135401,41.95223],[-96.142605,41.945915],[-96.144591,41.941551],[-96.143501,41.937394],[-96.136621,41.927174],[-96.136141,41.923537],[-96.136751,41.920833],[-96.139661,41.916845],[-96.142273,41.915386],[-96.154309,41.912428],[-96.159106,41.910064],[-96.161996,41.90556],[-96.161764,41.901827],[-96.158212,41.89718],[-96.152187,41.892092],[-96.148834,41.888139],[-96.147358,41.884818],[-96.146765,41.877545],[-96.144491,41.871861],[-96.139018,41.866308],[-95.672779,41.863154],[-95.67083,42.211415]]]},"properties":{"shapeName":"Monona","shapeISO":"52423323B96687064906768","shapeGroup":"USA","shapeType":"ADM2","src_shape_id":"52423323B96687064906768","adm1ISO":"US-IA"}},
{"type":"Feature","geometry":{"type":"Polygon","coordinates":[[[-94.232248,40.571915],[-94.091092,40.572904],[-94.08023,40.572906],[-94.015499,40.573921],[-94.01481,40.897038],[-94.470787,40.899509],[-94.471221,40.570832],[-94.358315,40.57137],[-94.310732,40.571531],[-94.294821,40.571348],[-94.287358,40.571528],[-94.232248,40.571915]]]},"properties":{"shapeName":"Ringgold","shapeISO":"52423323B92247192856320","shapeGroup":"USA","shapeType":"ADM2","src_shape_id":"52423323B92247192856320","adm1ISO":"US-IA"}},
{"type":"Feature","geometry":{"type":"Polygon","coordinates":[[[-94.01481,40.897038],[-93.904974,40.896677],[-93.784378,40.899376],[-93.556547,40.898302],[-93.557563,41.161278],[-93.789203,41.162042],[-93.89882,41.156617],[-94.014196,41.156769],[-94.01481,40.897038]]]},"properties":{"shapeName":"Clarke","shapeISO":"52423323B49910355657657","shapeGroup":"USA","shapeType":"ADM2","src_shape_id":"52423323B49910355657657","adm1ISO":"US-IA"}},
{"type":"Feature","geometry":{"type":"Polygon","coordinates":[[[-94.280348,41.863006],[-94.280065,41.601319],[-94.241364,41.600978],[-94.241601,41.503686],[-93.896814,41.503105],[-93.790619,41.511923],[-93.79053,41.533392],[-93.790554,41.584407],[-93.790639,41.600432],[-93.814289,41.600463],[-93.814333,41.632986],[-93.81504,41.803992],[-93.815729,41.863426],[-94.048037,41.863135],[-94.164146,41.863251],[-94.280348,41.863006]]]},"properties":{"shapeName":"Dallas","shapeISO":"52423323B12801539199166","shapeGroup":"USA","shapeType":"ADM2","src_shape_id":"52423323B12801539199166","adm1ISO":"US-IA"}},
{"type":"Feature","geometry":{"type":"Polygon","coordinates":[[[-90.89838,42.033556],[-90.548666,42.032846],[-90.154228,42.033081],[-90.158836,42.037777],[-90.163453,42.040415],[-90.164492,42.042113],[-90.165301,42.050981],[-90.165562,42.062646],[-90.168365,42.075787],[-90.163412,42.087621],[-90.161511,42.09892],[-90.161166,42.10638],[-90.161891,42.113788],[-90.162902,42.116726],[-90.16754,42.122483],[-90.170977,42.125206],[-90.187481,42.125431],[-90.190459,42.125787],[-90.197349,42.128171],[-90.201411,42.130945],[-90.205367,42.139087],[-90.206376,42.145508],[-90.207428,42.149117],[-90.209486,42.152688],[-90.216114,42.156738],[-90.224251,42.160036],[-90.234926,42.165439],[-90.250136,42.171477],[-90.255463,42.171829],[-90.269087,42.174508],[-90.28218,42.178854],[-90.298449,42.187584],[-90.317954,42.193917],[-90.32828,42.201055],[-90.338176,42.203329],[-90.356971,42.205453],[-90.365145,42.210534],[-90.375136,42.214819],[-90.391115,42.225481],[-90.394756,42.229067],[-90.39589,42.233141],[-90.40066,42.239301],[-90.410478,42.247757],[-90.416322,42.251687],[-90.419333,42.254475],[-90.422188,42.259907],[-90.424105,42.266372],[-90.430891,42.278238],[-90.430742,42.284219],[-90.426916,42.290727],[-90.424333,42.293334],[-90.420461,42.305382],[-90.420307,42.311698],[-90.421054,42.316117],[-90.417132,42.319951],[-90.415944,42.322707],[-90.416542,42.325117],[-90.419034,42.328513],[-90.42537,42.332623],[-90.430553,42.336868],[-90.443881,42.355226],[-90.446327,42.357049],[-90.452731,42.359311],[-90.462626,42.367261],[-90.464795,42.36946],[-90.47028,42.378363],[-90.473819,42.381466],[-90.665036,42.382163],[-90.665558,42.294707],[-90.898027,42.295244],[-90.89838,42.033556]]]},"properties":{"shapeName":"Jackson","shapeISO":"52423323B11078119657450","shapeGroup":"USA","shapeType":"ADM2","src_shape_id":"52423323B11078119657450","adm1ISO":"US-IA"}},
{"type":"Feature","geometry":{"type":"Polygon","coordinates":[[[-95.454441,43.500652],[-95.514782,43.499873],[-95.740821,43.499902],[-95.860954,43.499974],[-95.861922,43.257574],[-95.626721,43.258458],[-95.388086,43.255229],[-95.387598,43.342245],[-95.387795,43.500248],[-95.434207,43.500322],[-95.454441,43.500652]]]},"properties":{"shapeName":"Osceola","shapeISO":"52423323B8294388422794","shapeGroup":"USA","shapeType":"ADM2","src_shape_id":"52423323B8294388422794","adm1ISO":"US-IA"}},
{"type":"Feature","geometry":{"type":"Polygon","coordinates":[[[-95.859385,42.909105],[-95.977378,42.90978],[-96.537362,42.908799],[-96.536015,42.900908],[-96.528894,42.897957],[-96.526571,42.893762],[-96.527748,42.890595],[-96.534403,42.890666],[-96.540124,42.889685],[-96.538446,42.886118],[-96.537859,42.878482],[-96.543916,42.874621],[-96.546402,42.874471],[-96.549667,42.870288],[-96.550447,42.863178],[-96.546564,42.85728],[-96.544329,42.851289],[-96.54551,42.849963],[-96.550855,42.847655],[-96.55378,42.847508],[-96.554211,42.843655],[-96.552192,42.841871],[-96.558592,42.839494],[-96.56058,42.83938],[-96.562848,42.836316],[-96.57978,42.8381],[-96.581612,42.837528],[-96.582388,42.833664],[-96.577821,42.828726],[-96.577945,42.827652],[-96.584496,42.818986],[-96.591047,42.815372],[-96.596016,42.815051],[-96.595672,42.810433],[-96.592163,42.809931],[-96.590765,42.808262],[-96.592501,42.801129],[-96.595291,42.792989],[-96.602583,42.787774],[-96.604567,42.783041],[-96.615587,42.785003],[-96.619498,42.784041],[-96.621883,42.779262],[-96.626414,42.773525],[-96.630319,42.770892],[-96.63215,42.77087],[-96.633176,42.768332],[-96.63222,42.761519],[-96.628749,42.757539],[-96.630493,42.750385],[-96.632322,42.745648],[-96.635894,42.741009],[-96.639712,42.737078],[-96.638629,42.734928],[-96.631939,42.725093],[-96.626325,42.725958],[-96.624712,42.725504],[-96.624454,42.714301],[-96.627241,42.709954],[-96.629785,42.708859],[-96.630625,42.705887],[-96.619544,42.700196],[-96.610178,42.694575],[-96.596413,42.688521],[-96.585628,42.687083],[-96.575307,42.682672],[-96.568086,42.676248],[-96.566692,42.675949],[-96.560558,42.669205],[-96.546835,42.661498],[-96.542374,42.660743],[-96.537885,42.655438],[-96.537608,42.652168],[-96.538476,42.648099],[-96.537889,42.646453],[-96.533709,42.643548],[-96.526774,42.641191],[-96.516346,42.630442],[-96.515358,42.627652],[-96.515926,42.625001],[-96.509476,42.612737],[-96.504662,42.605008],[-96.500191,42.594113],[-96.501045,42.589254],[-96.4968,42.587662],[-96.494785,42.585748],[-96.496074,42.580879],[-96.495458,42.579481],[-96.49141,42.57703],[-96.486614,42.576069],[-96.486863,42.572205],[-96.489336,42.570807],[-96.499005,42.560839],[-96.401141,42.562002],[-96.233637,42.561428],[-96.214093,42.561931],[-95.978195,42.561092],[-95.859957,42.560627],[-95.859385,42.909105]]]},"properties":{"shapeName":"Plymouth","shapeISO":"52423323B13817695783408","shapeGroup":"USA","shapeType":"ADM2","src_shape_id":"52423323B13817695783408","adm1ISO":"US-IA"}},
{"type":"Feature","geometry":{"type":"Polygon","coordinates":[[[-95.323505,42.210939],[-95.322365,42.474744],[-95.387453,42.474803],[-95.388018,42.561749],[-95.741619,42.561292],[-95.741829,42.474872],[-95.669273,42.474652],[-95.67083,42.211415],[-95.323505,42.210939]]]},"properties":{"shapeName":"Ida","shapeISO":"52423323B51370966156719","shapeGroup":"USA","shapeType":"ADM2","src_shape_id":"52423323B51370966156719","adm1ISO":"US-IA"}},
{"type":"Feature","geometry":{"type":"Polygon","coordinates":[[[-94.471221,40.570832],[-94.470787,40.899509],[-94.928467,40.90066],[-94.928537,40.727406],[-94.913132,40.727292],[-94.914904,40.575075],[-94.896809,40.574745],[-94.823766,40.573949],[-94.811196,40.573539],[-94.773996,40.572984],[-94.716673,40.572208],[-94.63204,40.571193],[-94.594009,40.570973],[-94.533886,40.570746],[-94.489288,40.570714],[-94.471221,40.570832]]]},"properties":{"shapeName":"Taylor","shapeISO":"52423323B56193221879017","shapeGroup":"USA","shapeType":"ADM2","src_shape_id":"52423323B56193221879017","adm1ISO":"US-IA"}},
{"type":"Feature","geometry":{"type":"Polygon","coordinates":[[[-93.231729,42.208894],[-93.231865,41.862719],[-92.766006,41.862381],[-92.766313,42.035052],[-92.76747,42.210148],[-93.001681,42.209275],[-93.117886,42.208741],[-93.231729,42.208894]]]},"properties":{"shapeName":"Marshall","shapeISO":"52423323B44218034529984","shapeGroup":"USA","shapeType":"ADM2","src_shape_id":"52423323B44218034529984","adm1ISO":"US-IA"}}
]}