{"type":"FeatureCollection","bbox":[-79.487654,37.911725,-75.048941,39.72313], "features": [
{"type":"Feature","geometry":{"type":"Polygon","coordinates":[[[-78.928419,39.722844],[-78.998673,39.59995],[-79.067562,39.479451],[-79.06863,39.474523],[-79.056586,39.471022],[-79.054992,39.473104],[-79.053883,39.480102],[-79.050531,39.483307],[-79.046279,39.483809],[-79.036918,39.476803],[-79.035715,39.471339],[-79.033887,39.467769],[-79.030346,39.465411],[-79.028162,39.465068],[-79.020545,39.46701],[-79.01715,39.466985],[-79.0101,39.461056],[-78.996953,39.454969],[-78.978829,39.448686],[-78.970121,39.443335],[-78.967464,39.439812],[-78.965487,39.438463],[-78.956754,39.440272],[-78.955486,39.442285],[-78.953336,39.463653],[-78.946606,39.466148],[-78.941972,39.469967],[-78.938872,39.474108],[-78.941529,39.476877],[-78.942296,39.480995],[-78.938754,39.48374],[-78.933616,39.486188],[-78.927002,39.487011],[-78.918145,39.485866],[-78.916491,39.486552],[-78.908722,39.496707],[-78.89531,39.512093],[-78.8912,39.518908],[-78.885999,39.522589],[-78.879087,39.521213],[-78.874747,39.522619],[-78.868969,39.531374],[-78.868911,39.532495],[-78.851934,39.551856],[-78.851019,39.554052],[-78.851199,39.559932],[-78.838556,39.567308],[-78.830301,39.565363],[-78.82641,39.562597],[-78.821407,39.560624],[-78.816767,39.561699],[-78.813515,39.567728],[-78.815117,39.571359],[-78.820107,39.576295],[-78.826363,39.577341],[-78.826012,39.588837],[-78.824791,39.590241],[-78.818902,39.590378],[-78.812218,39.597725],[-78.812157,39.600548],[-78.80935,39.608071],[-78.801795,39.60682],[-78.800437,39.60524],[-78.797843,39.604905],[-78.79586,39.606942],[-78.795371,39.610718],[-78.795967,39.614213],[-78.801744,39.627496],[-78.795944,39.637295],[-78.790944,39.638295],[-78.775244,39.645695],[-78.765843,39.648495],[-78.765343,39.643995],[-78.768143,39.639295],[-78.771143,39.638395],[-78.772643,39.636895],[-78.77848,39.624413],[-78.777519,39.62172],[-78.769568,39.619439],[-78.763174,39.618905],[-78.756689,39.622979],[-78.748502,39.62627],[-78.742883,39.625096],[-78.736192,39.621716],[-78.733556,39.615541],[-78.733762,39.613939],[-78.739053,39.609705],[-78.747066,39.605698],[-78.749225,39.606544],[-78.749353,39.60858],[-78.751517,39.609955],[-78.7605,39.609992],[-78.768118,39.608712],[-78.776863,39.604035],[-78.778144,39.601372],[-78.774284,39.597336],[-78.770514,39.595002],[-78.768484,39.591591],[-78.767493,39.587495],[-78.760199,39.582162],[-78.75675,39.580698],[-78.746424,39.579552],[-78.743321,39.58072],[-78.740249,39.585663],[-78.733982,39.586626],[-78.733152,39.583698],[-78.731995,39.575372],[-78.726345,39.567595],[-78.725013,39.563981],[-78.714787,39.562566],[-78.713338,39.56204],[-78.708667,39.556803],[-78.707101,39.555865],[-78.694629,39.553259],[-78.691999,39.550788],[-78.691497,39.547654],[-78.689458,39.545778],[-78.682426,39.543856],[-78.675632,39.540379],[-78.668748,39.540172],[-78.663993,39.536786],[-78.657419,39.535076],[-78.655987,39.534703],[-78.630845,39.537117],[-78.628569,39.539198],[-78.62304,39.53952],[-78.614529,39.537603],[-78.606876,39.53509],[-78.605871,39.534312],[-78.600514,39.533442],[-78.595606,39.535491],[-78.593117,39.534409],[-78.590657,39.5302],[-78.587082,39.528028],[-78.578959,39.526703],[-78.572695,39.52238],[-78.565932,39.519452],[-78.55713,39.521534],[-78.550131,39.52071],[-78.546587,39.521006],[-78.527889,39.524662],[-78.521391,39.524798],[-78.513625,39.522553],[-78.503203,39.51866],[-78.49902,39.518914],[-78.489745,39.517797],[-78.4857,39.5194],[-78.48068,39.518968],[-78.474181,39.516248],[-78.468642,39.516797],[-78.462902,39.520848],[-78.460954,39.525995],[-78.461914,39.532979],[-78.459277,39.535927],[-78.451053,39.536703],[-78.449502,39.5381],[-78.449502,39.542289],[-78.445312,39.543375],[-78.43836,39.538761],[-78.436381,39.53931],[-78.43511,39.541666],[-78.434762,39.546788],[-78.433831,39.548961],[-78.430417,39.549426],[-78.426956,39.546606],[-78.424056,39.546323],[-78.419401,39.547409],[-78.41878,39.548961],[-78.420022,39.551753],[-78.42329,39.556327],[-78.42654,39.559163],[-78.438182,39.563532],[-78.45021,39.570897],[-78.454379,39.574327],[-78.458341,39.580434],[-78.458055,39.585249],[-78.45719,39.587387],[-78.451189,39.590201],[-78.445986,39.591231],[-78.443178,39.591163],[-78.428249,39.586725],[-78.422988,39.584117],[-78.418673,39.581119],[-78.408034,39.578601],[-78.400939,39.580222],[-78.397449,39.58196],[-78.39532,39.584223],[-78.395466,39.58738],[-78.397474,39.59024],[-78.402705,39.593604],[-78.412873,39.598319],[-78.420647,39.603191],[-78.425584,39.607607],[-78.431527,39.614492],[-78.433626,39.618267],[-78.4333,39.620577],[-78.430253,39.623298],[-78.425905,39.624556],[-78.420552,39.624029],[-78.412863,39.621099],[-78.395831,39.616084],[-78.390777,39.612125],[-78.383594,39.60892],[-78.378184,39.608186],[-78.373203,39.609538],[-78.372407,39.612305],[-78.379121,39.618135],[-78.382962,39.622254],[-78.38345,39.625099],[-78.38249,39.628224],[-78.380507,39.629367],[-78.373169,39.630467],[-78.367962,39.628937],[-78.362488,39.626057],[-78.358346,39.625589],[-78.353881,39.62773],[-78.353676,39.630795],[-78.35557,39.633471],[-78.358738,39.635597],[-78.359509,39.638089],[-78.358267,39.639668],[-78.355221,39.640584],[-78.351908,39.640494],[-78.333883,39.636494],[-78.340437,39.653032],[-78.363461,39.659801],[-78.334142,39.662405],[-78.343496,39.67566],[-78.32079,39.676055],[-78.313328,39.692482],[-78.342837,39.722666],[-78.380564,39.722639],[-78.438909,39.722598],[-78.461491,39.722984],[-78.537766,39.722597],[-78.546478,39.722975],[-78.575954,39.722664],[-78.658216,39.722924],[-78.723581,39.72313],[-78.808339,39.723011],[-78.928419,39.722844]]]},"properties":{"shapeName":"Allegany","shapeISO":"52423323B81858638532101","shapeGroup":"USA","shapeType":"ADM2","src_shape_id":"52423323B81858638532101","adm1ISO":"US-MD"}},
{"type":"Feature","geometry":{"type":"Polygon","coordinates":[[[-76.67412,38.49963],[-76.685448,38.494978],[-76.699319,38.497133],[-76.702205,38.501676],[-76.705309,38.502555],[-76.710532,38.509178],[-76.713542,38.510348],[-76.774641,38.509002],[-76.820863,38.434024],[-76.850319,38.398344],[-76.871812,38.388981],[-76.874136,38.380723],[-76.849935,38.365823],[-76.847887,38.355405],[-76.827108,38.347392],[-76.841607,38.336766],[-76.832694,38.330147],[-76.825207,38.311407],[-76.818433,38.295926],[-76.802349,38.280751],[-76.805226,38.253656],[-76.805951,38.252283],[-76.811929,38.252123],[-76.811649,38.250137],[-76.797454,38.236926],[-76.778627,38.228478],[-76.752288,38.222129],[-76.740057,38.235235],[-76.716378,38.233239],[-76.673464,38.234409],[-76.643931,38.225088],[-76.632546,38.225665],[-76.590639,38.21422],[-76.566299,38.1985],[-76.552959,38.187217],[-76.547335,38.175681],[-76.545337,38.165381],[-76.540382,38.152999],[-76.52987,38.134091],[-76.52242,38.139399],[-76.514826,38.141227],[-76.508827,38.140721],[-76.499844,38.137197],[-76.481038,38.115881],[-76.476224,38.104717],[-76.473268,38.103043],[-76.465332,38.105838],[-76.466406,38.1114],[-76.46974,38.115542],[-76.4698,38.119272],[-76.460992,38.135421],[-76.469668,38.153366],[-76.438888,38.160842],[-76.435442,38.146637],[-76.439843,38.138941],[-76.429583,38.126173],[-76.430427,38.119391],[-76.421216,38.106047],[-76.416552,38.104467],[-76.413162,38.106892],[-76.40537,38.106982],[-76.392337,38.102904],[-76.371792,38.079573],[-76.361239,38.05955],[-76.352752,38.05319],[-76.341406,38.053705],[-76.332814,38.049946],[-76.326996,38.045113],[-76.322095,38.036511],[-76.319478,38.043323],[-76.32931,38.071668],[-76.330796,38.099339],[-76.337404,38.110828],[-76.338537,38.11948],[-76.320138,38.138347],[-76.329707,38.155192],[-76.353518,38.178143],[-76.361879,38.192056],[-76.385246,38.217759],[-76.399322,38.259292],[-76.398854,38.267005],[-76.394173,38.278241],[-76.374483,38.296356],[-76.375025,38.299427],[-76.381495,38.303138],[-76.402896,38.31141],[-76.40894,38.304506],[-76.423914,38.300683],[-76.437581,38.292662],[-76.452792,38.293221],[-76.463844,38.299284],[-76.476323,38.313552],[-76.470856,38.323958],[-76.487577,38.326265],[-76.483132,38.342454],[-76.501477,38.372505],[-76.534077,38.397774],[-76.553437,38.395051],[-76.563904,38.40601],[-76.59753,38.423433],[-76.608375,38.424453],[-76.624194,38.443506],[-76.654347,38.465182],[-76.652144,38.473761],[-76.67412,38.49963]]]},"properties":{"shapeName":"St. Mary's","shapeISO":"52423323B54982247892787","shapeGroup":"USA","shapeType":"ADM2","src_shape_id":"52423323B54982247892787","adm1ISO":"US-MD"}},
{"type":"Feature","geometry":{"type":"Polygon","coordinates":[[[-76.787099,39.721094],[-76.804306,39.67589],[-76.831246,39.602188],[-76.866702,39.50091],[-76.869311,39.482467],[-76.893102,39.45741],[-76.887302,39.44051],[-76.895562,39.429495],[-76.881431,39.417411],[-76.884119,39.396576],[-76.873441,39.388873],[-76.891334,39.382237],[-76.888951,39.370577],[-76.87338,39.357158],[-76.882276,39.350193],[-76.874287,39.331701],[-76.834456,39.311534],[-76.822939,39.318842],[-76.794602,39.31424],[-76.778597,39.294997],[-76.794497,39.266623],[-76.763832,39.25132],[-76.764577,39.249086],[-76.73953,39.232171],[-76.71726,39.225487],[-76.70108,39.213252],[-76.697087,39.2141],[-76.696752,39.217407],[-76.650524,39.229474],[-76.641411,39.225588],[-76.631529,39.223869],[-76.618614,39.237406],[-76.644214,39.248932],[-76.659862,39.255517],[-76.698894,39.272713],[-76.711056,39.277897],[-76.711188,39.287402],[-76.711193,39.362806],[-76.711315,39.371941],[-76.626195,39.372025],[-76.544245,39.372189],[-76.529795,39.372066],[-76.529788,39.310399],[-76.529519,39.297064],[-76.529511,39.241322],[-76.520888,39.241099],[-76.512569,39.228488],[-76.50318,39.232079],[-76.49605,39.21919],[-76.500986,39.209384],[-76.498386,39.204816],[-76.488885,39.202216],[-76.480085,39.205116],[-76.463485,39.205916],[-76.442484,39.195416],[-76.425283,39.205716],[-76.417683,39.219816],[-76.395511,39.23171],[-76.371479,39.237959],[-76.349996,39.24883],[-76.343828,39.257264],[-76.356611,39.260864],[-76.384903,39.275936],[-76.381623,39.284286],[-76.380181,39.298601],[-76.364392,39.311848],[-76.336584,39.305119],[-76.329186,39.315044],[-76.350947,39.331149],[-76.347661,39.343059],[-76.335565,39.342287],[-76.343341,39.35872],[-76.341796,39.374155],[-76.359265,39.381412],[-76.357843,39.389842],[-76.360115,39.394786],[-76.371943,39.40511],[-76.373495,39.421426],[-76.386699,39.459713],[-76.420898,39.478422],[-76.433116,39.488276],[-76.436982,39.501972],[-76.494571,39.526558],[-76.510389,39.524396],[-76.532176,39.543985],[-76.547827,39.588227],[-76.559466,39.597668],[-76.565191,39.614512],[-76.566712,39.662697],[-76.569452,39.721517],[-76.609774,39.721485],[-76.715773,39.721401],[-76.787099,39.721094]]]},"properties":{"shapeName":"Baltimore","shapeISO":"52423323B66089118468318","shapeGroup":"USA","shapeType":"ADM2","src_shape_id":"52423323B66089118468318","adm1ISO":"US-MD"}},
{"type":"Feature","geometry":{"type":"Polygon","coordinates":[[[-76.67412,38.49963],[-76.662516,38.525498],[-76.675459,38.535884],[-76.701164,38.542482],[-76.702018,38.545549],[-76.705049,38.54293],[-76.740528,38.558681],[-76.742684,38.594225],[-76.749078,38.618453],[-76.757953,38.619721],[-76.862957,38.658657],[-76.913518,38.652936],[-76.96575,38.661278],[-76.998598,38.654672],[-77.021118,38.646452],[-77.047658,38.616311],[-77.077029,38.690176],[-77.086331,38.706136],[-77.091802,38.703423],[-77.099002,38.698623],[-77.102702,38.698323],[-77.105902,38.696823],[-77.122003,38.685824],[-77.132503,38.673824],[-77.135903,38.649825],[-77.131903,38.644225],[-77.132203,38.641225],[-77.130202,38.635025],[-77.106144,38.634255],[-77.110541,38.626828],[-77.124632,38.619786],[-77.129086,38.614372],[-77.148653,38.605608],[-77.169673,38.606878],[-77.183769,38.600707],[-77.221119,38.555225],[-77.237726,38.551878],[-77.263601,38.512352],[-77.274222,38.481778],[-77.259964,38.435829],[-77.259964,38.42791],[-77.26424,38.41429],[-77.250174,38.382789],[-77.216731,38.363167],[-77.207314,38.359875],[-77.186682,38.365644],[-77.13673,38.391807],[-77.127739,38.400841],[-77.123327,38.410654],[-77.110588,38.409218],[-77.106573,38.406245],[-77.091075,38.407554],[-77.086395,38.414763],[-77.075491,38.424718],[-77.04419,38.443024],[-77.04064,38.444626],[-77.016373,38.44558],[-77.00164,38.42196],[-76.998587,38.409302],[-76.988282,38.394983],[-76.983584,38.363007],[-76.975494,38.347335],[-76.95393,38.33329],[-76.942134,38.329609],[-76.929556,38.321096],[-76.923631,38.31494],[-76.922179,38.311347],[-76.920934,38.291576],[-76.908508,38.288438],[-76.886537,38.277012],[-76.864294,38.268953],[-76.847076,38.256168],[-76.842141,38.254499],[-76.837791,38.261617],[-76.834805,38.27402],[-76.840385,38.289192],[-76.846717,38.300309],[-76.853847,38.314297],[-76.85872,38.324833],[-76.869891,38.331825],[-76.86383,38.34385],[-76.856105,38.358575],[-76.847887,38.355405],[-76.849935,38.365823],[-76.874136,38.380723],[-76.871812,38.388981],[-76.850319,38.398344],[-76.820863,38.434024],[-76.774641,38.509002],[-76.713542,38.510348],[-76.710532,38.509178],[-76.705309,38.502555],[-76.702205,38.501676],[-76.699319,38.497133],[-76.685448,38.494978],[-76.67412,38.49963]]]},"properties":{"shapeName":"Charles","shapeISO":"52423323B57744592027693","shapeGroup":"USA","shapeType":"ADM2","src_shape_id":"52423323B57744592027693","adm1ISO":"US-MD"}},
{"type":"Feature","geometry":{"type":"Polygon","coordinates":[[[-75.788598,39.722207],[-75.812155,39.722297],[-75.998874,39.72195],[-76.013292,39.722292],[-76.027842,39.722204],[-76.135766,39.721915],[-76.233282,39.721655],[-76.212678,39.686413],[-76.173577,39.660014],[-76.147476,39.619415],[-76.106085,39.580533],[-76.094474,39.567818],[-76.085974,39.559019],[-76.075716,39.54304],[-76.063813,39.546618],[-76.006343,39.55036],[-75.999671,39.560496],[-75.992635,39.563106],[-75.970339,39.557645],[-75.967223,39.550148],[-75.966957,39.538658],[-75.976059,39.529976],[-75.9863,39.510406],[-75.994137,39.488751],[-75.996572,39.476666],[-76.002928,39.46965],[-76.012314,39.453123],[-76.009454,39.449209],[-76.002515,39.450212],[-75.998278,39.45719],[-75.990007,39.458654],[-75.976603,39.447816],[-75.976749,39.444635],[-75.982587,39.435295],[-75.997398,39.430322],[-76.006882,39.414535],[-76.016533,39.408473],[-76.035004,39.402002],[-76.040964,39.394245],[-76.039934,39.388088],[-76.03557,39.386188],[-76.002517,39.385032],[-76.002465,39.376448],[-75.982698,39.3675],[-75.964067,39.374733],[-75.942339,39.36776],[-75.926591,39.371002],[-75.922777,39.367256],[-75.895982,39.365879],[-75.885866,39.360805],[-75.867616,39.367821],[-75.855432,39.36457],[-75.842387,39.370986],[-75.831175,39.374181],[-75.82366,39.381421],[-75.818831,39.382307],[-75.809819,39.379776],[-75.806075,39.375266],[-75.76691,39.377661],[-75.770036,39.415981],[-75.775336,39.480927],[-75.781022,39.550606],[-75.787688,39.637825],[-75.788897,39.658588],[-75.788897,39.682295],[-75.788634,39.70042],[-75.788598,39.722207]]]},"properties":{"shapeName":"Cecil","shapeISO":"52423323B74434071620295","shapeGroup":"USA","shapeType":"ADM2","src_shape_id":"52423323B74434071620295","adm1ISO":"US-MD"}},
{"type":"Feature","geometry":{"type":"Polygon","coordinates":[[[-76.787099,39.721094],[-76.80937,39.720991],[-76.897734,39.72068],[-76.936766,39.720976],[-76.991064,39.72007],[-76.99932,39.720098],[-77.059061,39.720362],[-77.217026,39.720244],[-77.22634,39.706246],[-77.215272,39.699026],[-77.242467,39.69529],[-77.234314,39.678204],[-77.262153,39.665176],[-77.275619,39.647133],[-77.275848,39.632668],[-77.291459,39.630588],[-77.311163,39.639741],[-77.300554,39.625164],[-77.307418,39.619109],[-77.287749,39.604524],[-77.271576,39.606229],[-77.263703,39.594775],[-77.256511,39.603779],[-77.222105,39.576406],[-77.198026,39.575438],[-77.169447,39.554126],[-77.170748,39.534761],[-77.152342,39.532506],[-77.11,39.497488],[-77.106774,39.492199],[-77.117688,39.478627],[-77.116052,39.460352],[-77.147172,39.419013],[-77.158187,39.373459],[-77.168082,39.353965],[-77.151772,39.348639],[-77.101362,39.369331],[-77.064963,39.361943],[-77.025376,39.350601],[-76.969699,39.36399],[-76.929315,39.353959],[-76.882276,39.350193],[-76.87338,39.357158],[-76.888951,39.370577],[-76.891334,39.382237],[-76.873441,39.388873],[-76.884119,39.396576],[-76.881431,39.417411],[-76.895562,39.429495],[-76.887302,39.44051],[-76.893102,39.45741],[-76.869311,39.482467],[-76.866702,39.50091],[-76.831246,39.602188],[-76.804306,39.67589],[-76.787099,39.721094]]]},"properties":{"shapeName":"Carroll","shapeISO":"52423323B73545009733824","shapeGroup":"USA","shapeType":"ADM2","src_shape_id":"52423323B73545009733824","adm1ISO":"US-MD"}},
{"type":"Feature","geometry":{"type":"Polygon","coordinates":[[[-77.217026,39.720244],[-77.243452,39.720241],[-77.459436,39.720237],[-77.469147,39.720237],[-77.490357,39.69585],[-77.508362,39.68408],[-77.492876,39.676433],[-77.520166,39.640686],[-77.532762,39.631191],[-77.570185,39.620006],[-77.586764,39.571373],[-77.593974,39.563927],[-77.597707,39.540789],[-77.612535,39.529937],[-77.623011,39.499906],[-77.614413,39.491559],[-77.622027,39.481762],[-77.616052,39.469165],[-77.633845,39.446827],[-77.640414,39.402546],[-77.65618,39.368405],[-77.673963,39.343069],[-77.677126,39.324085],[-77.675849,39.3242],[-77.671344,39.321683],[-77.666133,39.317016],[-77.651,39.310792],[-77.640285,39.308249],[-77.636104,39.30779],[-77.615941,39.30273],[-77.605902,39.303696],[-77.598894,39.301891],[-77.592741,39.301298],[-77.588237,39.301963],[-77.578493,39.305236],[-77.570043,39.306358],[-77.566598,39.306129],[-77.563212,39.303911],[-77.561828,39.301921],[-77.56277,39.294509],[-77.560856,39.28616],[-77.553116,39.279276],[-77.551056,39.27589],[-77.545848,39.271543],[-77.54323,39.266945],[-77.540583,39.264955],[-77.534463,39.262369],[-77.522488,39.259094],[-77.519636,39.25724],[-77.508429,39.252638],[-77.496608,39.251053],[-77.486815,39.247594],[-77.484666,39.246131],[-77.480809,39.241672],[-77.471215,39.234517],[-77.460212,39.228367],[-77.457682,39.225028],[-77.458925,39.220344],[-77.454756,39.221671],[-77.285721,39.299385],[-77.262531,39.310288],[-77.168803,39.35351],[-77.168082,39.353965],[-77.158187,39.373459],[-77.147172,39.419013],[-77.116052,39.460352],[-77.117688,39.478627],[-77.106774,39.492199],[-77.11,39.497488],[-77.152342,39.532506],[-77.170748,39.534761],[-77.169447,39.554126],[-77.198026,39.575438],[-77.222105,39.576406],[-77.256511,39.603779],[-77.263703,39.594775],[-77.271576,39.606229],[-77.287749,39.604524],[-77.307418,39.619109],[-77.300554,39.625164],[-77.311163,39.639741],[-77.291459,39.630588],[-77.275848,39.632668],[-77.275619,39.647133],[-77.262153,39.665176],[-77.234314,39.678204],[-77.242467,39.69529],[-77.215272,39.699026],[-77.22634,39.706246],[-77.217026,39.720244]]]},"properties":{"shapeName":"Frederick","shapeISO":"52423323B20560007602633","shapeGroup":"USA","shapeType":"ADM2","src_shape_id":"52423323B20560007602633","adm1ISO":"US-MD"}},
{"type":"Feature","geometry":{"type":"Polygon","coordinates":[[[-76.158093,39.094006],[-76.145176,39.092832],[-76.15053,39.079429],[-76.158962,39.065494],[-76.169062,39.062795],[-76.175286,39.058813],[-76.184209,39.046272],[-76.178283,39.031671],[-76.167576,39.018281],[-76.163618,39.010065],[-76.16399,38.999549],[-76.202362,38.973087],[-76.218931,38.970546],[-76.229279,38.977588],[-76.258815,38.983672],[-76.27748,38.9825],[-76.293964,39.003956],[-76.302848,39.025836],[-76.301029,39.031603],[-76.301849,39.039659],[-76.311768,39.035265],[-76.320276,39.023021],[-76.323559,39.008969],[-76.322298,39.006383],[-76.322681,38.99961],[-76.35383,38.957242],[-76.361729,38.939183],[-76.36566,38.907485],[-76.36468,38.873839],[-76.376204,38.850469],[-76.375088,38.839482],[-76.368197,38.836133],[-76.361143,38.852],[-76.350392,38.857407],[-76.340589,38.855748],[-76.334021,38.860246],[-76.331032,38.864328],[-76.335366,38.886029],[-76.338503,38.892482],[-76.336106,38.905985],[-76.324099,38.911182],[-76.317949,38.91132],[-76.308427,38.898412],[-76.293256,38.902576],[-76.293869,38.910129],[-76.299433,38.91855],[-76.295913,38.928671],[-76.273085,38.941935],[-76.264945,38.930305],[-76.264685,38.924584],[-76.262228,38.919984],[-76.256399,38.918837],[-76.249676,38.920915],[-76.248025,38.923798],[-76.25087,38.928258],[-76.250159,38.938675],[-76.23204,38.942526],[-76.213844,38.937374],[-76.20364,38.92839],[-76.205065,38.892734],[-76.200084,38.882893],[-76.2026,38.862624],[-76.199546,38.850825],[-76.19106,38.864293],[-76.182242,38.858619],[-76.16992,38.865657],[-76.163722,38.879533],[-76.149842,38.882826],[-76.132068,38.879475],[-76.128005,38.876],[-76.12257,38.882048],[-76.103514,38.882316],[-76.102677,38.890175],[-76.113359,38.904525],[-76.111465,38.911014],[-76.115504,38.913724],[-76.114641,38.916262],[-76.110743,38.920606],[-76.11136,38.922955],[-76.110974,38.926659],[-76.108229,38.929743],[-76.106237,38.933081],[-76.103676,38.93901],[-76.101365,38.94136],[-76.093051,38.944616],[-75.949337,38.918341],[-75.953057,38.938668],[-75.93838,38.960731],[-75.940935,38.976303],[-75.919643,39.00012],[-75.890823,39.018262],[-75.869682,39.057355],[-75.848723,39.071662],[-75.848259,39.085773],[-75.83495,39.108445],[-75.791081,39.132836],[-75.747875,39.143287],[-75.74958,39.165041],[-75.751252,39.177992],[-75.756181,39.24623],[-75.806345,39.241997],[-75.839738,39.257708],[-75.867724,39.259491],[-75.874285,39.249737],[-75.87845,39.250088],[-75.880053,39.251534],[-75.88566,39.249207],[-75.887583,39.250218],[-75.889872,39.25388],[-75.893137,39.253659],[-75.894564,39.250214],[-75.893908,39.247914],[-75.897854,39.246896],[-75.912645,39.244507],[-75.919565,39.24318],[-75.923632,39.24411],[-75.940713,39.238502],[-75.944643,39.239109],[-75.948495,39.242401],[-75.951669,39.242683],[-75.956071,39.240566],[-75.962617,39.241997],[-75.966791,39.245388],[-75.970392,39.246364],[-75.977266,39.244797],[-75.984041,39.245968],[-75.98607,39.245094],[-75.986215,39.240459],[-75.98781,39.239303],[-76.009439,39.240105],[-76.020456,39.227409],[-76.027193,39.22673],[-76.056558,39.210346],[-76.068796,39.192353],[-76.06444,39.184651],[-76.046663,39.180759],[-76.039957,39.169979],[-76.047632,39.162674],[-76.081598,39.147667],[-76.07242,39.138214],[-76.094156,39.126862],[-76.11706,39.107106],[-76.158093,39.094006]]]},"properties":{"shapeName":"Queen Anne's","shapeISO":"52423323B53512454602615","shapeGroup":"USA","shapeType":"ADM2","src_shape_id":"52423323B53512454602615","adm1ISO":"US-MD"}},
{"type":"Feature","geometry":{"type":"MultiPolygon","coordinates":[[[[-75.86463,38.238328],[-75.851398,38.22644],[-75.846379,38.210485],[-75.864106,38.200866],[-75.877753,38.1983],[-75.884605,38.199759],[-75.886219,38.203317],[-75.888075,38.203821],[-75.942377,38.187074],[-75.951568,38.178101],[-75.951974,38.176247],[-75.947282,38.1708],[-75.947536,38.168282],[-75.951275,38.161895],[-75.959618,38.137149],[-75.949559,38.118135],[-75.945299,38.113099],[-75.938486,38.109984],[-75.936665,38.109964],[-75.937091,38.124217],[-75.900357,38.141158],[-75.868638,38.134389],[-75.866002,38.134894],[-75.859542,38.14055],[-75.849921,38.144422],[-75.843864,38.144607],[-75.827676,38.133446],[-75.837565,38.113761],[-75.842606,38.113119],[-75.863812,38.100976],[-75.880517,38.075019],[-75.874191,38.060296],[-75.871505,38.058878],[-75.858883,38.060143],[-75.860074,38.065751],[-75.858946,38.067331],[-75.844267,38.07228],[-75.819593,38.066822],[-75.812915,38.05894],[-75.829377,38.04316],[-75.847924,38.034378],[-75.849982,38.034302],[-75.850533,38.036705],[-75.857509,38.038786],[-75.873192,38.034383],[-75.875401,38.028249],[-75.875299,38.011973],[-75.88277,38.003003],[-75.898958,37.974522],[-75.890873,37.954855],[-75.894067,37.930798],[-75.898318,37.925122],[-75.892688,37.916856],[-75.885034,37.911725],[-75.860729,37.918318],[-75.832416,37.933321],[-75.829903,37.938564],[-75.783817,37.972602],[-75.759093,37.970671],[-75.750246,37.968881],[-75.737999,37.963534],[-75.727954,37.967264],[-75.722664,37.971318],[-75.722087,37.973424],[-75.713152,37.976631],[-75.685997,37.967615],[-75.671683,37.966584],[-75.663097,37.961203],[-75.665059,37.95629],[-75.669832,37.950572],[-75.665275,37.949501],[-75.655683,37.945441],[-75.647608,37.947035],[-75.648231,37.966783],[-75.644727,37.969787],[-75.641825,37.975975],[-75.633981,37.983561],[-75.632534,37.986701],[-75.630871,37.987826],[-75.626657,37.9889],[-75.625086,37.990585],[-75.624345,37.994216],[-75.63929,38.022986],[-75.655824,38.029765],[-75.660616,38.046336],[-75.655748,38.052607],[-75.638856,38.044715],[-75.622667,38.05498],[-75.617524,38.073024],[-75.581224,38.068309],[-75.57171,38.085181],[-75.540872,38.089488],[-75.542238,38.109279],[-75.576822,38.144305],[-75.550356,38.164077],[-75.5459,38.178748],[-75.561159,38.199431],[-75.575838,38.211291],[-75.605828,38.249133],[-75.612766,38.278634],[-75.663127,38.298952],[-75.696406,38.274202],[-75.696407,38.270683],[-75.693626,38.26811],[-75.694434,38.266912],[-75.720421,38.266652],[-75.723804,38.276124],[-75.727429,38.275417],[-75.728457,38.28096],[-75.734518,38.283046],[-75.737492,38.281908],[-75.740413,38.279367],[-75.745939,38.280434],[-75.748552,38.284614],[-75.749928,38.28383],[-75.749653,38.281116],[-75.753101,38.282063],[-75.752344,38.284796],[-75.754408,38.285452],[-75.762031,38.285999],[-75.768673,38.285191],[-75.772762,38.272874],[-75.796257,38.265778],[-75.798947,38.259384],[-75.802411,38.254821],[-75.839002,38.253486],[-75.86463,38.238328]]],[[[-75.993907,37.953497],[-75.988881,37.960345],[-75.994732,37.974702],[-75.982123,37.988556],[-75.980091,38.004899],[-75.986302,38.021954],[-76.002746,38.024945],[-76.007339,38.036714],[-76.020829,38.039132],[-76.04167,38.032156],[-76.046215,38.025541],[-76.048619,38.014851],[-76.04961,37.983636],[-76.046532,37.953594],[-76.041404,37.954014],[-76.030124,37.953663],[-76.021716,37.953895],[-75.993907,37.953497]]],[[[-76.048375,38.120558],[-76.043425,38.117876],[-76.039622,38.111998],[-76.042085,38.10987],[-76.050158,38.107766],[-76.059306,38.095759],[-76.036678,38.076517],[-76.023302,38.070768],[-76.011546,38.07232],[-76.005906,38.077178],[-76.00817,38.095393],[-76.021372,38.107942],[-76.020498,38.117052],[-76.011918,38.122222],[-76.012489,38.131739],[-76.017792,38.131375],[-76.022517,38.133461],[-76.031444,38.14762],[-76.048375,38.120558]]]]},"properties":{"shapeName":"Somerset","shapeISO":"52423323B97218068880690","shapeGroup":"USA","shapeType":"ADM2","src_shape_id":"52423323B97218068880690","adm1ISO":"US-MD"}},
{"type":"Feature","geometry":{"type":"Polygon","coordinates":[[[-78.928419,39.722844],[-79.045579,39.722936],[-79.056534,39.722889],[-79.392461,39.721447],[-79.476665,39.721086],[-79.476577,39.644214],[-79.477767,39.64229],[-79.478869,39.531697],[-79.482369,39.531697],[-79.482651,39.521372],[-79.484375,39.344308],[-79.486075,39.344308],[-79.486815,39.296375],[-79.487654,39.279941],[-79.48674,39.278157],[-79.487277,39.265213],[-79.485877,39.264913],[-79.486876,39.205969],[-79.47604,39.203736],[-79.469159,39.207308],[-79.452688,39.211727],[-79.439833,39.217082],[-79.424416,39.228179],[-79.425062,39.233694],[-79.420353,39.238888],[-79.412054,39.240554],[-79.387026,39.265548],[-79.376157,39.273162],[-79.361346,39.274932],[-79.353753,39.278047],[-79.343804,39.286104],[-79.345602,39.289741],[-79.344347,39.293542],[-79.332383,39.299927],[-79.314771,39.304389],[-79.302314,39.299562],[-79.292713,39.298737],[-79.290239,39.299331],[-79.283726,39.309648],[-79.28204,39.323056],[-79.272283,39.328972],[-79.269368,39.33074],[-79.255309,39.335882],[-79.253894,39.33723],[-79.253931,39.354093],[-79.252273,39.356671],[-79.235881,39.358697],[-79.22925,39.36367],[-79.22036,39.363165],[-79.213964,39.365328],[-79.202946,39.37788],[-79.19794,39.38614],[-79.195546,39.387798],[-79.193335,39.387982],[-79.189468,39.386508],[-79.179338,39.38835],[-79.17698,39.392138],[-79.174603,39.392764],[-79.170497,39.392034],[-79.167223,39.393264],[-79.165596,39.397142],[-79.1665,39.400896],[-79.161343,39.411903],[-79.159216,39.413029],[-79.153587,39.412028],[-79.151586,39.408776],[-79.149584,39.407775],[-79.145456,39.407775],[-79.142704,39.410527],[-79.140702,39.416657],[-79.132196,39.418283],[-79.129819,39.419909],[-79.128944,39.423287],[-79.12905,39.42955],[-79.124039,39.433212],[-79.119436,39.433169],[-79.116935,39.435796],[-79.116372,39.44049],[-79.114073,39.443329],[-79.107936,39.445756],[-79.10422,39.448366],[-79.095431,39.462556],[-79.096157,39.46555],[-79.098243,39.468453],[-79.098878,39.471446],[-79.094705,39.473261],[-79.091332,39.472415],[-79.083273,39.471387],[-79.06863,39.474523],[-79.067562,39.479451],[-78.998673,39.59995],[-78.928419,39.722844]]]},"properties":{"shapeName":"Garrett","shapeISO":"52423323B87744490422478","shapeGroup":"USA","shapeType":"ADM2","src_shape_id":"52423323B87744490422478","adm1ISO":"US-MD"}},
{"type":"Feature","geometry":{"type":"Polygon","coordinates":[[[-75.949337,38.918341],[-75.94964,38.884815],[-75.922799,38.854793],[-75.927773,38.838901],[-75.896318,38.812462],[-75.910005,38.806454],[-75.93252,38.796146],[-75.949457,38.778427],[-75.966371,38.77977],[-75.999338,38.752083],[-75.994592,38.741894],[-76.015047,38.728695],[-76.007532,38.720989],[-75.993249,38.707985],[-75.993051,38.696731],[-75.976793,38.697845],[-75.971674,38.684662],[-75.94525,38.674117],[-75.93773,38.67712],[-75.904863,38.687656],[-75.897091,38.70133],[-75.888987,38.695482],[-75.870469,38.69426],[-75.86432,38.697945],[-75.837976,38.703998],[-75.800279,38.695991],[-75.79841,38.676346],[-75.76301,38.686211],[-75.707557,38.635395],[-75.713077,38.705622],[-75.717786,38.76553],[-75.722803,38.829859],[-75.724216,38.84681],[-75.725779,38.868287],[-75.726043,38.869431],[-75.728122,38.895485],[-75.742411,39.074559],[-75.744032,39.094878],[-75.746015,39.115145],[-75.747875,39.143287],[-75.791081,39.132836],[-75.83495,39.108445],[-75.848259,39.085773],[-75.848723,39.071662],[-75.869682,39.057355],[-75.890823,39.018262],[-75.919643,39.00012],[-75.940935,38.976303],[-75.93838,38.960731],[-75.953057,38.938668],[-75.949337,38.918341]]]},"properties":{"shapeName":"Caroline","shapeISO":"52423323B10584672826222","shapeGroup":"USA","shapeType":"ADM2","src_shape_id":"52423323B10584672826222","adm1ISO":"US-MD"}},
{"type":"Feature","geometry":{"type":"Polygon","coordinates":[[[-76.882276,39.350193],[-76.929315,39.353959],[-76.969699,39.36399],[-77.025376,39.350601],[-77.064963,39.361943],[-77.101362,39.369331],[-77.151772,39.348639],[-77.168082,39.353965],[-77.168803,39.35351],[-77.187115,39.340603],[-77.170349,39.313117],[-77.140061,39.292103],[-77.134468,39.276842],[-77.130589,39.26842],[-77.103456,39.265961],[-77.070114,39.254112],[-77.061527,39.241279],[-77.044814,39.237674],[-77.032327,39.220325],[-77.009422,39.20674],[-77.00842,39.181578],[-76.996774,39.166372],[-76.973668,39.162217],[-76.975309,39.149545],[-76.951696,39.146215],[-76.958519,39.134031],[-76.929104,39.1384],[-76.917645,39.130143],[-76.915004,39.126705],[-76.888507,39.130975],[-76.870111,39.11272],[-76.840364,39.10315],[-76.826667,39.109956],[-76.813314,39.122472],[-76.786968,39.12879],[-76.781513,39.145506],[-76.746546,39.1796],[-76.721952,39.183039],[-76.720241,39.18972],[-76.712166,39.201941],[-76.697566,39.21204],[-76.697087,39.2141],[-76.70108,39.213252],[-76.71726,39.225487],[-76.73953,39.232171],[-76.764577,39.249086],[-76.763832,39.25132],[-76.794497,39.266623],[-76.778597,39.294997],[-76.794602,39.31424],[-76.822939,39.318842],[-76.834456,39.311534],[-76.874287,39.331701],[-76.882276,39.350193]]]},"properties":{"shapeName":"Howard","shapeISO":"52423323B13837989487105","shapeGroup":"USA","shapeType":"ADM2","src_shape_id":"52423323B13837989487105","adm1ISO":"US-MD"}},
{"type":"Feature","geometry":{"type":"Polygon","coordinates":[[[-78.333883,39.636494],[-78.308155,39.629614],[-78.283042,39.620478],[-78.271125,39.61965],[-78.266836,39.618826],[-78.265091,39.619282],[-78.263374,39.621683],[-78.263347,39.626425],[-78.262192,39.630472],[-78.25408,39.640097],[-78.246725,39.644766],[-78.238062,39.652089],[-78.22768,39.656804],[-78.225078,39.658886],[-78.223867,39.662615],[-78.233015,39.670479],[-78.233141,39.672883],[-78.231567,39.67439],[-78.227336,39.676129],[-78.206766,39.675998],[-78.202948,39.676661],[-78.196704,39.682082],[-78.192442,39.689126],[-78.19111,39.69027],[-78.182762,39.695118],[-78.176628,39.695975],[-78.171364,39.69562],[-78.162129,39.693651],[-78.154167,39.690539],[-78.143481,39.69042],[-78.135224,39.688313],[-78.132709,39.686985],[-78.123942,39.68566],[-78.111833,39.682601],[-78.107837,39.682145],[-78.10174,39.680294],[-78.097121,39.678169],[-78.089838,39.671676],[-78.082263,39.671174],[-78.077528,39.668888],[-78.068294,39.661068],[-78.051935,39.648215],[-78.047675,39.643115],[-78.038863,39.638129],[-78.035995,39.635728],[-78.030143,39.62747],[-78.023899,39.621705],[-78.022405,39.619608],[-78.011346,39.604091],[-78.006737,39.601345],[-78.002333,39.600496],[-77.976366,39.599869],[-77.973182,39.601325],[-77.968233,39.606551],[-77.962095,39.60871],[-77.955043,39.608086],[-77.950792,39.604624],[-77.951284,39.590414],[-77.946185,39.584822],[-77.939053,39.587147],[-77.936374,39.594516],[-77.935509,39.608484],[-77.94465,39.615256],[-77.944402,39.617155],[-77.941943,39.618798],[-77.937495,39.619158],[-77.932865,39.617684],[-77.928741,39.613916],[-77.925991,39.60765],[-77.922837,39.604894],[-77.914627,39.602824],[-77.903404,39.600753],[-77.89033,39.597555],[-77.884001,39.59826],[-77.881552,39.600098],[-77.881113,39.606222],[-77.881939,39.60812],[-77.886962,39.613337],[-77.885127,39.615783],[-77.874721,39.614301],[-77.868682,39.611146],[-77.857803,39.607888],[-77.853439,39.607125],[-77.842788,39.607263],[-77.838011,39.606133],[-77.831816,39.601113],[-77.829756,39.591058],[-77.829817,39.587296],[-77.830778,39.581186],[-77.83322,39.571024],[-77.836333,39.566378],[-77.842177,39.564341],[-77.85585,39.564615],[-77.865737,39.563555],[-77.872726,39.563903],[-77.878454,39.563501],[-77.886138,39.56044],[-77.887971,39.559206],[-77.888948,39.555958],[-77.886439,39.551955],[-77.871533,39.544286],[-77.865354,39.538389],[-77.864318,39.534821],[-77.865081,39.528234],[-77.866141,39.524735],[-77.866135,39.517669],[-77.863683,39.51504],[-77.860198,39.514333],[-77.84944,39.515603],[-77.841121,39.519556],[-77.840539,39.529204],[-77.836938,39.532178],[-77.833512,39.532636],[-77.827191,39.530466],[-77.82536,39.529185],[-77.823558,39.524085],[-77.825144,39.517893],[-77.829048,39.514433],[-77.845106,39.505853],[-77.847792,39.502322],[-77.846671,39.499582],[-77.839159,39.496456],[-77.825481,39.493775],[-77.807824,39.490249],[-77.794372,39.491001],[-77.788682,39.495412],[-77.784445,39.498069],[-77.781611,39.499075],[-77.774377,39.499508],[-77.770953,39.499095],[-77.765996,39.495732],[-77.765554,39.493033],[-77.76709,39.491341],[-77.771726,39.489215],[-77.781443,39.486305],[-77.795168,39.481001],[-77.798204,39.475727],[-77.795637,39.471267],[-77.789648,39.467835],[-77.782918,39.465413],[-77.782455,39.463371],[-77.783914,39.4615],[-77.787557,39.461187],[-77.796515,39.461584],[-77.798951,39.457977],[-77.796176,39.454146],[-77.789522,39.449639],[-77.789287,39.445256],[-77.792964,39.442114],[-77.797515,39.440514],[-77.799809,39.436951],[-77.795513,39.433015],[-77.787751,39.429159],[-77.774853,39.427853],[-77.763322,39.428444],[-77.758723,39.426818],[-77.753093,39.42327],[-77.752683,39.420182],[-77.747481,39.410938],[-77.740015,39.401702],[-77.736412,39.392692],[-77.73632,39.387752],[-77.740768,39.385417],[-77.749718,39.384179],[-77.753392,39.382102],[-77.753277,39.378328],[-77.744147,39.365147],[-77.743877,39.359955],[-77.745933,39.353229],[-77.75039,39.349458],[-77.758676,39.345495],[-77.761071,39.342542],[-77.760237,39.33863],[-77.757608,39.335396],[-77.753081,39.333364],[-77.733207,39.326339],[-77.726073,39.321659],[-77.719522,39.321322],[-77.715868,39.320649],[-77.707712,39.321567],[-77.697464,39.318641],[-77.692987,39.318458],[-77.687127,39.319922],[-77.681709,39.323674],[-77.677126,39.324085],[-77.673963,39.343069],[-77.65618,39.368405],[-77.640414,39.402546],[-77.633845,39.446827],[-77.616052,39.469165],[-77.622027,39.481762],[-77.614413,39.491559],[-77.623011,39.499906],[-77.612535,39.529937],[-77.597707,39.540789],[-77.593974,39.563927],[-77.586764,39.571373],[-77.570185,39.620006],[-77.532762,39.631191],[-77.520166,39.640686],[-77.492876,39.676433],[-77.508362,39.68408],[-77.490357,39.69585],[-77.469147,39.720237],[-77.534886,39.720346],[-77.669554,39.720963],[-77.674641,39.721045],[-77.724231,39.721086],[-77.73273,39.721285],[-77.790202,39.721718],[-77.874825,39.722395],[-78.073829,39.72247],[-78.098973,39.722474],[-78.20298,39.722558],[-78.204535,39.722662],[-78.243185,39.722619],[-78.269101,39.722748],[-78.330792,39.722817],[-78.342837,39.722666],[-78.313328,39.692482],[-78.32079,39.676055],[-78.343496,39.67566],[-78.334142,39.662405],[-78.363461,39.659801],[-78.340437,39.653032],[-78.333883,39.636494]]]},"properties":{"shapeName":"Washington","shapeISO":"52423323B42185126778068","shapeGroup":"USA","shapeType":"ADM2","src_shape_id":"52423323B42185126778068","adm1ISO":"US-MD"}},
{"type":"Feature","geometry":{"type":"Polygon","coordinates":[[[-75.612766,38.278634],[-75.456522,38.286207],[-75.372589,38.289718],[-75.356278,38.313172],[-75.323207,38.331905],[-75.307013,38.354768],[-75.329741,38.381298],[-75.317106,38.404251],[-75.341247,38.451976],[-75.393672,38.452121],[-75.428848,38.452678],[-75.500284,38.454151],[-75.560095,38.455586],[-75.583769,38.456432],[-75.589477,38.456294],[-75.598241,38.456863],[-75.630639,38.457912],[-75.663036,38.458767],[-75.693723,38.460136],[-75.696572,38.492391],[-75.698981,38.522029],[-75.700384,38.542751],[-75.70177,38.560776],[-75.724492,38.541238],[-75.744892,38.537783],[-75.75265,38.529762],[-75.757061,38.513371],[-75.794662,38.492381],[-75.815195,38.488802],[-75.821088,38.48367],[-75.814903,38.466467],[-75.836106,38.445639],[-75.819831,38.435894],[-75.845575,38.421876],[-75.85126,38.400356],[-75.838371,38.387484],[-75.860853,38.383585],[-75.862484,38.352141],[-75.861802,38.347578],[-75.871651,38.332267],[-75.88248,38.329122],[-75.893057,38.309169],[-75.903158,38.297885],[-75.901375,38.286039],[-75.907674,38.272605],[-75.917299,38.263134],[-75.911145,38.257959],[-75.908274,38.252053],[-75.908452,38.246656],[-75.900042,38.232141],[-75.895691,38.228569],[-75.890671,38.228017],[-75.885678,38.231014],[-75.889358,38.239508],[-75.888515,38.241431],[-75.883437,38.244453],[-75.874655,38.244522],[-75.87032,38.24344],[-75.86463,38.238328],[-75.839002,38.253486],[-75.802411,38.254821],[-75.798947,38.259384],[-75.796257,38.265778],[-75.772762,38.272874],[-75.768673,38.285191],[-75.762031,38.285999],[-75.754408,38.285452],[-75.752344,38.284796],[-75.753101,38.282063],[-75.749653,38.281116],[-75.749928,38.28383],[-75.748552,38.284614],[-75.745939,38.280434],[-75.740413,38.279367],[-75.737492,38.281908],[-75.734518,38.283046],[-75.728457,38.28096],[-75.727429,38.275417],[-75.723804,38.276124],[-75.720421,38.266652],[-75.694434,38.266912],[-75.693626,38.26811],[-75.696407,38.270683],[-75.696406,38.274202],[-75.663127,38.298952],[-75.612766,38.278634]]]},"properties":{"shapeName":"Wicomico","shapeISO":"52423323B57942162225750","shapeGroup":"USA","shapeType":"ADM2","src_shape_id":"52423323B57942162225750","adm1ISO":"US-MD"}},
{"type":"Feature","geometry":{"type":"MultiPolygon","coordinates":[[[[-76.031444,38.14762],[-76.03404,38.15791],[-76.032818,38.169149],[-76.021943,38.171984],[-76.022172,38.17789],[-76.048788,38.203739],[-76.071472,38.20351],[-76.088641,38.192657],[-76.092336,38.151363],[-76.089019,38.141041],[-76.090651,38.131193],[-76.09555,38.125131],[-76.090874,38.114468],[-76.085949,38.116666],[-76.085313,38.118569],[-76.061002,38.12701],[-76.056813,38.125131],[-76.048375,38.120558],[-76.031444,38.14762]]],[[[-75.94525,38.674117],[-75.95437,38.665699],[-75.957925,38.648044],[-75.983514,38.625122],[-75.980936,38.610062],[-75.991129,38.592491],[-76.029127,38.572275],[-76.026514,38.566828],[-76.041048,38.557297],[-76.056818,38.568036],[-76.088905,38.59024],[-76.111128,38.584016],[-76.126933,38.591447],[-76.138699,38.601757],[-76.151081,38.594719],[-76.165913,38.598692],[-76.165437,38.610208],[-76.170068,38.629233],[-76.174971,38.628799],[-76.190904,38.6211],[-76.2026,38.613019],[-76.203067,38.610749],[-76.212429,38.606746],[-76.231189,38.614018],[-76.236652,38.628606],[-76.246512,38.62629],[-76.264157,38.615117],[-76.271829,38.615669],[-76.279591,38.609528],[-76.268635,38.597761],[-76.273498,38.591398],[-76.305174,38.575301],[-76.308323,38.571777],[-76.290045,38.569166],[-76.279642,38.557239],[-76.275915,38.548817],[-76.277463,38.541859],[-76.281049,38.536138],[-76.278108,38.532476],[-76.274059,38.531215],[-76.253626,38.539401],[-76.248887,38.539031],[-76.244398,38.536974],[-76.247302,38.523826],[-76.260352,38.506263],[-76.26397,38.50346],[-76.281763,38.502173],[-76.283597,38.504165],[-76.289509,38.503914],[-76.318056,38.498207],[-76.327259,38.500129],[-76.336362,38.492243],[-76.331561,38.473556],[-76.320845,38.45987],[-76.30149,38.439775],[-76.283022,38.41352],[-76.280553,38.403151],[-76.282273,38.393126],[-76.270197,38.374599],[-76.250002,38.362312],[-76.26555,38.340938],[-76.257669,38.324863],[-76.230112,38.319786],[-76.217615,38.305691],[-76.199746,38.286229],[-76.189279,38.272423],[-76.182542,38.261078],[-76.165491,38.242805],[-76.149789,38.234501],[-76.135515,38.232193],[-76.125719,38.239025],[-76.099722,38.253655],[-76.074899,38.252189],[-76.069504,38.238463],[-76.058012,38.227087],[-76.032046,38.216692],[-76.035697,38.230564],[-76.04411,38.24169],[-76.044253,38.249381],[-76.038937,38.25494],[-76.027489,38.280116],[-76.030534,38.287968],[-76.050222,38.304109],[-76.049582,38.309602],[-76.045601,38.318254],[-76.04162,38.322145],[-76.033949,38.323219],[-76.016684,38.332437],[-76.010219,38.353219],[-76.012151,38.357085],[-76.011871,38.36059],[-76.006951,38.370224],[-76.002284,38.374485],[-75.973878,38.365858],[-75.96195,38.341439],[-75.961946,38.33258],[-75.964239,38.324293],[-75.969292,38.320172],[-75.981347,38.315155],[-76.008649,38.312269],[-76.017366,38.309114],[-76.016293,38.307214],[-76.007377,38.304326],[-75.990387,38.282923],[-75.985817,38.276474],[-75.984276,38.265163],[-75.972397,38.253648],[-75.968751,38.245916],[-75.972214,38.233308],[-75.946416,38.238898],[-75.940699,38.24691],[-75.944502,38.249153],[-75.948798,38.24881],[-75.954544,38.252902],[-75.95491,38.264006],[-75.951499,38.266957],[-75.938579,38.272337],[-75.94083,38.298444],[-75.927282,38.321384],[-75.914567,38.339283],[-75.889848,38.351679],[-75.863584,38.359507],[-75.862484,38.352141],[-75.860853,38.383585],[-75.838371,38.387484],[-75.85126,38.400356],[-75.845575,38.421876],[-75.819831,38.435894],[-75.836106,38.445639],[-75.814903,38.466467],[-75.821088,38.48367],[-75.815195,38.488802],[-75.794662,38.492381],[-75.757061,38.513371],[-75.75265,38.529762],[-75.744892,38.537783],[-75.724492,38.541238],[-75.70177,38.560776],[-75.707557,38.635395],[-75.76301,38.686211],[-75.79841,38.676346],[-75.800279,38.695991],[-75.837976,38.703998],[-75.86432,38.697945],[-75.870469,38.69426],[-75.888987,38.695482],[-75.897091,38.70133],[-75.904863,38.687656],[-75.93773,38.67712],[-75.94525,38.674117]]]]},"properties":{"shapeName":"Dorchester","shapeISO":"52423323B10442929932087","shapeGroup":"USA","shapeType":"ADM2","src_shape_id":"52423323B10442929932087","adm1ISO":"US-MD"}},
{"type":"Feature","geometry":{"type":"Polygon","coordinates":[[[-76.697087,39.2141],[-76.697566,39.21204],[-76.712166,39.201941],[-76.720241,39.18972],[-76.721952,39.183039],[-76.746546,39.1796],[-76.781513,39.145506],[-76.786968,39.12879],[-76.813314,39.122472],[-76.826667,39.109956],[-76.840364,39.10315],[-76.827417,39.092987],[-76.832721,39.075951],[-76.837726,39.07181],[-76.831426,39.069042],[-76.803943,39.062454],[-76.790743,39.04573],[-76.77653,39.045318],[-76.75126,39.034722],[-76.744519,39.017128],[-76.698461,38.983791],[-76.690535,38.924771],[-76.670113,38.906927],[-76.676278,38.895171],[-76.672147,38.886635],[-76.691529,38.859808],[-76.696373,38.822732],[-76.710641,38.815702],[-76.702405,38.787953],[-76.714319,38.778234],[-76.699273,38.753418],[-76.68636,38.748483],[-76.643074,38.769283],[-76.623238,38.767126],[-76.622939,38.726599],[-76.583288,38.721293],[-76.535586,38.721488],[-76.529239,38.713569],[-76.526657,38.724438],[-76.527182,38.72707],[-76.52987,38.728443],[-76.544477,38.727713],[-76.552745,38.735358],[-76.557537,38.744695],[-76.559886,38.767369],[-76.535381,38.778124],[-76.526981,38.787024],[-76.527481,38.791824],[-76.524681,38.795024],[-76.51008,38.801224],[-76.49888,38.817524],[-76.48988,38.838723],[-76.48988,38.842823],[-76.496581,38.853123],[-76.509287,38.848396],[-76.516946,38.851165],[-76.519444,38.863143],[-76.490682,38.884822],[-76.489382,38.887422],[-76.490882,38.894522],[-76.492782,38.895622],[-76.493882,38.899622],[-76.493682,38.910021],[-76.475763,38.914477],[-76.469482,38.911521],[-76.469382,38.907621],[-76.459481,38.907121],[-76.458082,38.914321],[-76.461882,38.924021],[-76.450282,38.941121],[-76.457783,38.94842],[-76.463083,38.94862],[-76.471283,38.95652],[-76.474884,38.96732],[-76.4742,38.972655],[-76.454583,38.97452],[-76.450483,38.97762],[-76.448983,38.982819],[-76.422183,38.989019],[-76.394082,39.011319],[-76.397782,39.022619],[-76.405083,39.033219],[-76.43893,39.052796],[-76.423083,39.074218],[-76.421862,39.08145],[-76.432983,39.113217],[-76.432483,39.126717],[-76.428683,39.131717],[-76.452784,39.143517],[-76.471485,39.154717],[-76.475985,39.161117],[-76.484025,39.164415],[-76.500928,39.161294],[-76.508386,39.169416],[-76.525787,39.177916],[-76.534187,39.190616],[-76.534259,39.206941],[-76.550088,39.197215],[-76.582388,39.207159],[-76.589164,39.213113],[-76.611697,39.234408],[-76.618614,39.237406],[-76.631529,39.223869],[-76.641411,39.225588],[-76.650524,39.229474],[-76.696752,39.217407],[-76.697087,39.2141]]]},"properties":{"shapeName":"Anne Arundel","shapeISO":"52423323B67559228618519","shapeGroup":"USA","shapeType":"ADM2","src_shape_id":"52423323B67559228618519","adm1ISO":"US-MD"}},
{"type":"Feature","geometry":{"type":"Polygon","coordinates":[[[-76.675459,38.535884],[-76.672276,38.552854],[-76.680704,38.580507],[-76.672559,38.599279],[-76.672336,38.617541],[-76.67847,38.627329],[-76.692855,38.636445],[-76.691632,38.648514],[-76.684306,38.656493],[-76.683868,38.662179],[-76.701005,38.66837],[-76.690463,38.673691],[-76.687149,38.681379],[-76.697433,38.687805],[-76.694948,38.702476],[-76.701962,38.710872],[-76.693591,38.724769],[-76.693702,38.727078],[-76.695557,38.731552],[-76.694998,38.735083],[-76.693843,38.735919],[-76.687011,38.735905],[-76.68402,38.738356],[-76.684868,38.746935],[-76.68636,38.748483],[-76.699273,38.753418],[-76.714319,38.778234],[-76.702405,38.787953],[-76.710641,38.815702],[-76.696373,38.822732],[-76.691529,38.859808],[-76.672147,38.886635],[-76.676278,38.895171],[-76.670113,38.906927],[-76.690535,38.924771],[-76.698461,38.983791],[-76.744519,39.017128],[-76.75126,39.034722],[-76.77653,39.045318],[-76.790743,39.04573],[-76.803943,39.062454],[-76.831426,39.069042],[-76.837726,39.07181],[-76.832721,39.075951],[-76.827417,39.092987],[-76.840364,39.10315],[-76.870111,39.11272],[-76.888507,39.130975],[-76.907294,39.117916],[-76.917585,39.091281],[-76.951774,39.045315],[-76.971725,39.018564],[-76.9911,38.992413],[-76.990538,38.975651],[-77.002592,38.965492],[-76.935098,38.913319],[-76.909395,38.89286],[-76.949698,38.86132],[-76.953698,38.85852],[-76.979499,38.83782],[-76.992699,38.828221],[-76.999999,38.821921],[-77.001399,38.821521],[-77.039008,38.791653],[-77.0401,38.789921],[-77.040375,38.785363],[-77.0411,38.773321],[-77.0419,38.741522],[-77.041,38.737922],[-77.0414,38.724523],[-77.0423,38.718523],[-77.0455,38.714323],[-77.053201,38.709923],[-77.065324,38.709572],[-77.071863,38.710589],[-77.072809,38.711534],[-77.079501,38.709523],[-77.086331,38.706136],[-77.077029,38.690176],[-77.047658,38.616311],[-77.021118,38.646452],[-76.998598,38.654672],[-76.96575,38.661278],[-76.913518,38.652936],[-76.862957,38.658657],[-76.757953,38.619721],[-76.749078,38.618453],[-76.742684,38.594225],[-76.740528,38.558681],[-76.705049,38.54293],[-76.702018,38.545549],[-76.701164,38.542482],[-76.675459,38.535884]]]},"properties":{"shapeName":"Prince George's","shapeISO":"52423323B69501139245181","shapeGroup":"USA","shapeType":"ADM2","src_shape_id":"52423323B69501139245181","adm1ISO":"US-MD"}},
{"type":"Feature","geometry":{"type":"MultiPolygon","coordinates":[[[[-76.199546,38.850825],[-76.197707,38.84372],[-76.191092,38.829668],[-76.193432,38.821795],[-76.19814,38.814448],[-76.21933,38.812379],[-76.245888,38.82224],[-76.250366,38.825446],[-76.26581,38.84752],[-76.264223,38.85158],[-76.271577,38.851779],[-76.278153,38.835502],[-76.277413,38.831427],[-76.288457,38.827355],[-76.297802,38.828322],[-76.300891,38.826198],[-76.308924,38.813354],[-76.310083,38.796854],[-76.32377,38.779295],[-76.334621,38.772919],[-76.341304,38.751909],[-76.340545,38.730346],[-76.348,38.686242],[-76.340343,38.671253],[-76.32242,38.679312],[-76.321867,38.68952],[-76.327843,38.703735],[-76.325548,38.717706],[-76.316148,38.729594],[-76.312758,38.730716],[-76.299403,38.727403],[-76.295959,38.72417],[-76.299173,38.719295],[-76.298501,38.718013],[-76.275017,38.712722],[-76.271598,38.713224],[-76.270279,38.724393],[-76.255095,38.736484],[-76.238687,38.735442],[-76.237042,38.724526],[-76.239843,38.719764],[-76.238727,38.712853],[-76.21281,38.6819],[-76.200336,38.670782],[-76.196718,38.672868],[-76.175161,38.673244],[-76.155613,38.658091],[-76.14716,38.636848],[-76.127646,38.635276],[-76.115287,38.623393],[-76.085221,38.6246],[-76.052777,38.602407],[-76.034714,38.583923],[-76.029127,38.572275],[-75.991129,38.592491],[-75.980936,38.610062],[-75.983514,38.625122],[-75.957925,38.648044],[-75.95437,38.665699],[-75.94525,38.674117],[-75.971674,38.684662],[-75.976793,38.697845],[-75.993051,38.696731],[-75.993249,38.707985],[-76.007532,38.720989],[-76.015047,38.728695],[-75.994592,38.741894],[-75.999338,38.752083],[-75.966371,38.77977],[-75.949457,38.778427],[-75.93252,38.796146],[-75.910005,38.806454],[-75.896318,38.812462],[-75.927773,38.838901],[-75.922799,38.854793],[-75.94964,38.884815],[-75.949337,38.918341],[-76.093051,38.944616],[-76.101365,38.94136],[-76.103676,38.93901],[-76.106237,38.933081],[-76.108229,38.929743],[-76.110974,38.926659],[-76.11136,38.922955],[-76.110743,38.920606],[-76.114641,38.916262],[-76.115504,38.913724],[-76.111465,38.911014],[-76.113359,38.904525],[-76.102677,38.890175],[-76.103514,38.882316],[-76.12257,38.882048],[-76.128005,38.876],[-76.132068,38.879475],[-76.149842,38.882826],[-76.163722,38.879533],[-76.16992,38.865657],[-76.182242,38.858619],[-76.19106,38.864293],[-76.199546,38.850825]]],[[[-76.397567,38.77072],[-76.390352,38.757012],[-76.381251,38.743805],[-76.363263,38.746619],[-76.362513,38.748417],[-76.370838,38.76565],[-76.369889,38.778646],[-76.379741,38.788322],[-76.397567,38.77072]]]]},"properties":{"shapeName":"Talbot","shapeISO":"52423323B33050228676147","shapeGroup":"USA","shapeType":"ADM2","src_shape_id":"52423323B33050228676147","adm1ISO":"US-MD"}},
{"type":"Feature","geometry":{"type":"Polygon","coordinates":[[[-75.624345,37.994216],[-75.563263,37.999601],[-75.448681,38.009337],[-75.375127,38.015422],[-75.283357,38.02378],[-75.254405,38.026334],[-75.242471,38.027036],[-75.216119,38.061794],[-75.193798,38.096021],[-75.177396,38.130022],[-75.158972,38.18425],[-75.143231,38.220483],[-75.116839,38.274237],[-75.102949,38.311533],[-75.09389,38.32344],[-75.087468,38.322777],[-75.08552,38.324278],[-75.072478,38.355286],[-75.061372,38.389474],[-75.054593,38.414838],[-75.048941,38.451271],[-75.066334,38.451299],[-75.141925,38.451204],[-75.185457,38.45102],[-75.252788,38.451404],[-75.260418,38.451499],[-75.341247,38.451976],[-75.317106,38.404251],[-75.329741,38.381298],[-75.307013,38.354768],[-75.323207,38.331905],[-75.356278,38.313172],[-75.372589,38.289718],[-75.456522,38.286207],[-75.612766,38.278634],[-75.605828,38.249133],[-75.575838,38.211291],[-75.561159,38.199431],[-75.5459,38.178748],[-75.550356,38.164077],[-75.576822,38.144305],[-75.542238,38.109279],[-75.540872,38.089488],[-75.57171,38.085181],[-75.581224,38.068309],[-75.617524,38.073024],[-75.622667,38.05498],[-75.638856,38.044715],[-75.655748,38.052607],[-75.660616,38.046336],[-75.655824,38.029765],[-75.63929,38.022986],[-75.624345,37.994216]]]},"properties":{"shapeName":"Worcester","shapeISO":"52423323B30792684212291","shapeGroup":"USA","shapeType":"ADM2","src_shape_id":"52423323B30792684212291","adm1ISO":"US-MD"}},
{"type":"Feature","geometry":{"type":"Polygon","coordinates":[[[-76.470856,38.323958],[-76.468241,38.328935],[-76.451842,38.321104],[-76.432946,38.324554],[-76.419223,38.322924],[-76.404942,38.341097],[-76.387004,38.361275],[-76.386231,38.382021],[-76.38835,38.387789],[-76.39338,38.389485],[-76.402712,38.396011],[-76.415386,38.41469],[-76.436273,38.433437],[-76.450939,38.44243],[-76.456004,38.447899],[-76.455801,38.451241],[-76.492701,38.482857],[-76.506025,38.504618],[-76.515708,38.528996],[-76.517508,38.539157],[-76.515108,38.555771],[-76.516342,38.590237],[-76.51128,38.615753],[-76.515556,38.629369],[-76.524622,38.645964],[-76.5324,38.678371],[-76.532539,38.699677],[-76.529239,38.713569],[-76.535586,38.721488],[-76.583288,38.721293],[-76.622939,38.726599],[-76.623238,38.767126],[-76.643074,38.769283],[-76.68636,38.748483],[-76.684868,38.746935],[-76.68402,38.738356],[-76.687011,38.735905],[-76.693843,38.735919],[-76.694998,38.735083],[-76.695557,38.731552],[-76.693702,38.727078],[-76.693591,38.724769],[-76.701962,38.710872],[-76.694948,38.702476],[-76.697433,38.687805],[-76.687149,38.681379],[-76.690463,38.673691],[-76.701005,38.66837],[-76.683868,38.662179],[-76.684306,38.656493],[-76.691632,38.648514],[-76.692855,38.636445],[-76.67847,38.627329],[-76.672336,38.617541],[-76.672559,38.599279],[-76.680704,38.580507],[-76.672276,38.552854],[-76.675459,38.535884],[-76.662516,38.525498],[-76.67412,38.49963],[-76.652144,38.473761],[-76.654347,38.465182],[-76.624194,38.443506],[-76.608375,38.424453],[-76.59753,38.423433],[-76.563904,38.40601],[-76.553437,38.395051],[-76.534077,38.397774],[-76.501477,38.372505],[-76.483132,38.342454],[-76.487577,38.326265],[-76.470856,38.323958]]]},"properties":{"shapeName":"Calvert","shapeISO":"52423323B93110691068578","shapeGroup":"USA","shapeType":"ADM2","src_shape_id":"52423323B93110691068578","adm1ISO":"US-MD"}},
{"type":"Feature","geometry":{"type":"Polygon","coordinates":[[[-76.618614,39.237406],[-76.611697,39.234408],[-76.589164,39.213113],[-76.582388,39.207159],[-76.550088,39.197215],[-76.534259,39.206941],[-76.534287,39.213216],[-76.555351,39.21698],[-76.564502,39.224622],[-76.559303,39.233357],[-76.578525,39.24883],[-76.586487,39.261345],[-76.577455,39.264565],[-76.545303,39.253259],[-76.535945,39.241488],[-76.529511,39.241322],[-76.529519,39.297064],[-76.529788,39.310399],[-76.529795,39.372066],[-76.544245,39.372189],[-76.626195,39.372025],[-76.711315,39.371941],[-76.711193,39.362806],[-76.711188,39.287402],[-76.711056,39.277897],[-76.698894,39.272713],[-76.659862,39.255517],[-76.644214,39.248932],[-76.618614,39.237406]]]},"properties":{"shapeName":"Baltimore","shapeISO":"52423323B61620821136351","shapeGroup":"USA","shapeType":"ADM2","src_shape_id":"52423323B61620821136351","adm1ISO":"US-MD"}},
{"type":"Feature","geometry":{"type":"Polygon","coordinates":[[[-77.002592,38.965492],[-76.990538,38.975651],[-76.9911,38.992413],[-76.971725,39.018564],[-76.951774,39.045315],[-76.917585,39.091281],[-76.907294,39.117916],[-76.888507,39.130975],[-76.915004,39.126705],[-76.917645,39.130143],[-76.929104,39.1384],[-76.958519,39.134031],[-76.951696,39.146215],[-76.975309,39.149545],[-76.973668,39.162217],[-76.996774,39.166372],[-77.00842,39.181578],[-77.009422,39.20674],[-77.032327,39.220325],[-77.044814,39.237674],[-77.061527,39.241279],[-77.070114,39.254112],[-77.103456,39.265961],[-77.130589,39.26842],[-77.134468,39.276842],[-77.140061,39.292103],[-77.170349,39.313117],[-77.187115,39.340603],[-77.168803,39.35351],[-77.262531,39.310288],[-77.285721,39.299385],[-77.454756,39.221671],[-77.458925,39.220344],[-77.459885,39.21869],[-77.470115,39.211848],[-77.473612,39.208415],[-77.475931,39.202032],[-77.475015,39.194942],[-77.478598,39.189176],[-77.485973,39.185673],[-77.505164,39.182058],[-77.510633,39.178492],[-77.516428,39.170899],[-77.521224,39.161065],[-77.524874,39.148463],[-77.527284,39.146244],[-77.52673,39.137323],[-77.524561,39.127829],[-77.519931,39.120933],[-77.515322,39.118599],[-77.499713,39.113958],[-77.494957,39.113046],[-77.485802,39.109311],[-77.481281,39.105666],[-77.477012,39.100339],[-77.472416,39.092532],[-77.469445,39.086395],[-77.462619,39.076256],[-77.458204,39.073731],[-77.452829,39.072476],[-77.437402,39.070619],[-77.423182,39.066886],[-77.415432,39.066443],[-77.404595,39.064504],[-77.399206,39.064792],[-77.385682,39.061995],[-77.38011,39.062816],[-77.375081,39.061305],[-77.367531,39.061095],[-77.359704,39.062012],[-77.350313,39.062141],[-77.340289,39.062999],[-77.335513,39.061779],[-77.333708,39.059516],[-77.328283,39.057803],[-77.324208,39.056516],[-77.314907,39.052216],[-77.310707,39.052016],[-77.301007,39.049516],[-77.293107,39.046516],[-77.274708,39.034099],[-77.266006,39.031917],[-77.255305,39.030017],[-77.248405,39.026917],[-77.246005,39.024917],[-77.244605,39.020117],[-77.246905,39.014817],[-77.251805,39.011417],[-77.255705,39.002417],[-77.253005,38.995717],[-77.249205,38.993717],[-77.248305,38.992317],[-77.249805,38.985917],[-77.234805,38.976318],[-77.23227,38.97951],[-77.229994,38.979866],[-77.228397,38.978412],[-77.224971,38.973357],[-77.221504,38.971318],[-77.211504,38.969418],[-77.209304,38.970418],[-77.203604,38.968918],[-77.202504,38.967918],[-77.197504,38.966818],[-77.188304,38.967518],[-77.183004,38.968818],[-77.171903,38.967518],[-77.165303,38.968018],[-77.151086,38.96584],[-77.146603,38.964218],[-77.137703,38.955318],[-77.131903,38.947418],[-77.127603,38.940018],[-77.119799,38.934378],[-77.119761,38.934351],[-77.104502,38.946418],[-77.100702,38.948918],[-77.091502,38.956518],[-77.054301,38.985118],[-77.04102,38.995556],[-77.036301,38.991718],[-77.0156,38.975918],[-77.002592,38.965492]]]},"properties":{"shapeName":"Montgomery","shapeISO":"52423323B79763443872127","shapeGroup":"USA","shapeType":"ADM2","src_shape_id":"52423323B79763443872127","adm1ISO":"US-MD"}},
{"type":"Feature","geometry":{"type":"Polygon","coordinates":[[[-75.76691,39.377661],[-75.806075,39.375266],[-75.809819,39.379776],[-75.818831,39.382307],[-75.82366,39.381421],[-75.831175,39.374181],[-75.842387,39.370986],[-75.855432,39.36457],[-75.867616,39.367821],[-75.885866,39.360805],[-75.895982,39.365879],[-75.922777,39.367256],[-75.926591,39.371002],[-75.942339,39.36776],[-75.964067,39.374733],[-75.982698,39.3675],[-76.002465,39.376448],[-76.00241,39.367509],[-76.022992,39.361904],[-76.032925,39.367422],[-76.049848,39.370652],[-76.110529,39.372265],[-76.116358,39.360933],[-76.134952,39.351078],[-76.136973,39.344422],[-76.133227,39.340499],[-76.145526,39.334407],[-76.159675,39.335917],[-76.170424,39.332102],[-76.185583,39.319342],[-76.186649,39.315483],[-76.186026,39.31247],[-76.179094,39.310106],[-76.17678,39.306455],[-76.177706,39.298709],[-76.181498,39.291805],[-76.185676,39.285375],[-76.203033,39.269879],[-76.211255,39.26982],[-76.21934,39.262005],[-76.232053,39.233349],[-76.251034,39.199222],[-76.255833,39.191603],[-76.266604,39.180531],[-76.274639,39.165498],[-76.278529,39.145772],[-76.260896,39.14341],[-76.25297,39.133634],[-76.233459,39.091393],[-76.23175,39.082834],[-76.231119,39.061025],[-76.237067,39.045529],[-76.240907,39.039806],[-76.242689,39.028934],[-76.231767,39.018526],[-76.209116,39.010018],[-76.200668,39.014528],[-76.208504,39.024826],[-76.212618,39.041166],[-76.210043,39.064418],[-76.203385,39.085634],[-76.18391,39.096352],[-76.158093,39.094006],[-76.11706,39.107106],[-76.094156,39.126862],[-76.07242,39.138214],[-76.081598,39.147667],[-76.047632,39.162674],[-76.039957,39.169979],[-76.046663,39.180759],[-76.06444,39.184651],[-76.068796,39.192353],[-76.056558,39.210346],[-76.027193,39.22673],[-76.020456,39.227409],[-76.009439,39.240105],[-75.98781,39.239303],[-75.986215,39.240459],[-75.98607,39.245094],[-75.984041,39.245968],[-75.977266,39.244797],[-75.970392,39.246364],[-75.966791,39.245388],[-75.962617,39.241997],[-75.956071,39.240566],[-75.951669,39.242683],[-75.948495,39.242401],[-75.944643,39.239109],[-75.940713,39.238502],[-75.923632,39.24411],[-75.919565,39.24318],[-75.912645,39.244507],[-75.897854,39.246896],[-75.893908,39.247914],[-75.894564,39.250214],[-75.893137,39.253659],[-75.889872,39.25388],[-75.887583,39.250218],[-75.88566,39.249207],[-75.880053,39.251534],[-75.87845,39.250088],[-75.874285,39.249737],[-75.867724,39.259491],[-75.839738,39.257708],[-75.806345,39.241997],[-75.756181,39.24623],[-75.760309,39.296808],[-75.76691,39.377661]]]},"properties":{"shapeName":"Kent","shapeISO":"52423323B63738133159827","shapeGroup":"USA","shapeType":"ADM2","src_shape_id":"52423323B63738133159827","adm1ISO":"US-MD"}},
{"type":"Feature","geometry":{"type":"Polygon","coordinates":[[[-76.357843,39.389842],[-76.357126,39.394087],[-76.329199,39.387658],[-76.315295,39.389311],[-76.304005,39.381504],[-76.305906,39.364417],[-76.320761,39.358169],[-76.29568,39.350016],[-76.29878,39.329216],[-76.289625,39.317175],[-76.296611,39.301145],[-76.281749,39.299668],[-76.27608,39.322916],[-76.256588,39.33887],[-76.266927,39.356147],[-76.285703,39.367724],[-76.268828,39.388668],[-76.269066,39.403087],[-76.254805,39.411902],[-76.250527,39.431089],[-76.251596,39.449628],[-76.231037,39.456418],[-76.22462,39.425673],[-76.241614,39.404005],[-76.250527,39.379299],[-76.239879,39.361416],[-76.224163,39.352788],[-76.197854,39.367606],[-76.190769,39.375932],[-76.180076,39.377617],[-76.171476,39.392218],[-76.158776,39.406318],[-76.146375,39.405318],[-76.121891,39.421234],[-76.116822,39.427622],[-76.102234,39.435667],[-76.083271,39.438329],[-76.081178,39.43672],[-76.060991,39.44773],[-76.060933,39.452216],[-76.071977,39.475055],[-76.083288,39.477868],[-76.098317,39.476124],[-76.104667,39.4788],[-76.113931,39.486709],[-76.117255,39.496076],[-76.096074,39.53692],[-76.075716,39.54304],[-76.085974,39.559019],[-76.094474,39.567818],[-76.106085,39.580533],[-76.147476,39.619415],[-76.173577,39.660014],[-76.212678,39.686413],[-76.233282,39.721655],[-76.239685,39.721653],[-76.380284,39.721638],[-76.418982,39.721534],[-76.517279,39.721623],[-76.569452,39.721517],[-76.566712,39.662697],[-76.565191,39.614512],[-76.559466,39.597668],[-76.547827,39.588227],[-76.532176,39.543985],[-76.510389,39.524396],[-76.494571,39.526558],[-76.436982,39.501972],[-76.433116,39.488276],[-76.420898,39.478422],[-76.386699,39.459713],[-76.373495,39.421426],[-76.371943,39.40511],[-76.360115,39.394786],[-76.357843,39.389842]]]},"properties":{"shapeName":"Harford","shapeISO":"52423323B62898369623051","shapeGroup":"USA","shapeType":"ADM2","src_shape_id":"52423323B62898369623051","adm1ISO":"US-MD"}}
]}