{"type":"FeatureCollection","bbox":[144.884682,14.110578,146.081581,20.557256], "features": [
{"type":"Feature","geometry":{"type":"Polygon","coordinates":[[[145.118763,14.124794],[145.122753,14.117445],[145.136451,14.118796],[145.152447,14.130586],[145.162685,14.127483],[145.169887,14.110578],[145.210218,14.116148],[145.230315,14.132674],[145.239314,14.149735],[145.26988,14.152168],[145.283345,14.160682],[145.284333,14.175372],[145.289468,14.190946],[145.25405,14.199657],[145.235664,14.198281],[145.203027,14.177115],[145.161136,14.168489],[145.118763,14.124794]]]},"properties":{"shapeName":"Rota","shapeISO":"52423323B33049838557264","shapeGroup":"USA","shapeType":"ADM2","src_shape_id":"52423323B33049838557264","adm1ISO":"US-MP"}},
{"type":"Feature","geometry":{"type":"Polygon","coordinates":[[[145.68676,15.132396],[145.689817,15.120811],[145.707019,15.106971],[145.732464,15.106242],[145.748806,15.091928],[145.756967,15.120638],[145.744283,15.130666],[145.74883,15.154973],[145.770716,15.154209],[145.7799,15.150873],[145.79382,15.148335],[145.792113,15.157252],[145.797475,15.166947],[145.783415,15.18317],[145.782236,15.202933],[145.799259,15.229942],[145.809091,15.239426],[145.808134,15.246908],[145.826382,15.259566],[145.830224,15.271384],[145.820557,15.287983],[145.81124,15.290126],[145.771662,15.250879],[145.739898,15.232603],[145.7105,15.242865],[145.710598,15.218238],[145.700137,15.156623],[145.68676,15.132396]]]},"properties":{"shapeName":"Saipan","shapeISO":"52423323B64374819566346","shapeGroup":"USA","shapeType":"ADM2","src_shape_id":"52423323B64374819566346","adm1ISO":"US-MP"}},
{"type":"Feature","geometry":{"type":"MultiPolygon","coordinates":[[[[145.582028,15.01593],[145.582802,14.993038],[145.597433,14.990152],[145.612237,14.969419],[145.62846,14.940512],[145.635244,14.922716],[145.645273,14.927238],[145.664311,14.94755],[145.665567,14.972657],[145.672312,15.00039],[145.66828,15.01622],[145.648616,15.033918],[145.660968,15.055351],[145.656973,15.084062],[145.645175,15.10117],[145.626592,15.083865],[145.598157,15.05494],[145.582028,15.01593]]],[[[145.544338,14.858763],[145.534412,14.845571],[145.545476,14.84042],[145.562781,14.843861],[145.575357,14.849169],[145.578626,14.86003],[145.572908,14.866475],[145.544338,14.858763]]]]},"properties":{"shapeName":"Tinian","shapeISO":"52423323B49434157073126","shapeGroup":"USA","shapeType":"ADM2","src_shape_id":"52423323B49434157073126","adm1ISO":"US-MP"}},
{"type":"Feature","geometry":{"type":"MultiPolygon","coordinates":[[[[146.033192,16.004523],[146.035674,15.989018],[146.053044,15.989018],[146.081581,16.027182],[146.067933,16.041492],[146.054285,16.033145],[146.033192,16.004523]]],[[[145.832717,17.316344],[145.831691,17.30653],[145.84467,17.2966],[145.855603,17.309135],[145.847718,17.319017],[145.839486,17.321301],[145.832717,17.316344]]],[[[145.814977,17.604052],[145.815763,17.591762],[145.826782,17.579722],[145.837893,17.579092],[145.851493,17.593145],[145.848111,17.608674],[145.834936,17.620767],[145.822351,17.618014],[145.814977,17.604052]]],[[[145.767389,16.707652],[145.76885,16.69659],[145.784301,16.690359],[145.79143,16.701143],[145.790242,16.711387],[145.778358,16.720493],[145.767389,16.707652]]],[[[145.710619,18.068841],[145.709969,18.044534],[145.72924,18.049843],[145.746271,18.063192],[145.752213,18.07562],[145.767662,18.097084],[145.78489,18.109229],[145.798295,18.108426],[145.810566,18.135679],[145.806521,18.157112],[145.797869,18.165076],[145.774075,18.168812],[145.760532,18.164847],[145.755192,18.149472],[145.76208,18.137644],[145.755492,18.126178],[145.758048,18.113654],[145.743894,18.100473],[145.730822,18.089176],[145.718924,18.078097],[145.710619,18.068841]]],[[[145.636326,18.778802],[145.640503,18.74652],[145.667297,18.725118],[145.685585,18.737506],[145.692757,18.744916],[145.699545,18.760792],[145.696474,18.788551],[145.679944,18.805677],[145.656973,18.812821],[145.641537,18.794828],[145.636326,18.778802]]],[[[145.633475,16.368003],[145.632983,16.351012],[145.646464,16.331915],[145.678309,16.33393],[145.702693,16.333635],[145.714885,16.338158],[145.724247,16.34771],[145.722646,16.360149],[145.703514,16.369662],[145.68765,16.368343],[145.644809,16.369494],[145.633475,16.368003]]],[[[145.389635,19.696915],[145.390128,19.68238],[145.4035,19.675596],[145.413627,19.681593],[145.418051,19.691229],[145.41284,19.703421],[145.39878,19.70637],[145.389635,19.696915]]],[[[145.210156,20.030322],[145.207234,20.022606],[145.214207,20.010752],[145.228141,20.011373],[145.23881,20.020462],[145.229962,20.032097],[145.219373,20.035076],[145.210156,20.030322]]],[[[144.884682,20.551692],[144.886326,20.539944],[144.895377,20.533887],[144.906073,20.54279],[144.903696,20.552805],[144.893001,20.557256],[144.884682,20.551692]]]]},"properties":{"shapeName":"Northern Islands","shapeISO":"52423323B84565222808084","shapeGroup":"USA","shapeType":"ADM2","src_shape_id":"52423323B84565222808084","adm1ISO":"US-MP"}}
]}