{"type":"FeatureCollection","bbox":[-109.050183,31.33232,-103.001973,37.000238],"features":[
{"type":"Feature","id":"USA:ADM2:US-NM.mckinley","properties":{"shapeName":"McKinley","shapeISO":"","shapeGroup":"USA","shapeType":"ADM2","adm1ISO":"US-NM","parentISO":"US-NM","parentID":"USA:ADM1:US-NM","src_shape_id":"52423323B62088987492925"},"geometry":{"type":"Polygon","coordinates":[[[-109.045983,36.002707],[-109.046022,35.925902],[-109.046035,35.879806],[-109.046306,35.616523],[-109.046492,35.546332],[-109.046807,35.363612],[-109.046515,35.317099],[-109.046095,35.250031],[-109.046035,35.175514],[-109.045862,34.959824],[-108.850358,34.959637],[-108.518974,34.959131],[-108.469412,34.959087],[-108.468666,35.292954],[-108.468725,35.306664],[-108.1125,35.3061],[-107.835459,35.305051],[-107.734234,35.304993],[-107.734251,35.348151],[-107.628323,35.34832],[-107.628798,35.304339],[-107.309396,35.305693],[-107.306132,35.419066],[-107.308404,35.654674],[-107.308677,35.998562],[-107.626521,36.000294],[-107.815756,36.001315],[-108.151227,36.002791],[-108.533797,36.002699],[-108.804552,36.002738],[-108.827192,36.002736],[-108.92949,36.002551],[-109.045983,36.002707]]]}},
{"type":"Feature","id":"USA:ADM2:US-NM.de-baca","properties":{"shapeName":"De Baca","shapeISO":"","shapeGroup":"USA","shapeType":"ADM2","adm1ISO":"US-NM","parentISO":"US-NM","parentID":"USA:ADM1:US-NM","src_shape_id":"52423323B76308023983940"},"geometry":{"type":"Polygon","coordinates":[[[-104.891755,34.347049],[-104.893387,34.088413],[-104.786439,34.08767],[-104.786114,34.000143],[-104.317413,33.995883],[-104.156278,33.995419],[-104.155609,34.083211],[-103.946028,34.082469],[-103.945679,34.250078],[-103.949179,34.259654],[-103.948787,34.605064],[-104.128889,34.605207],[-104.129152,34.779343],[-104.339826,34.779068],[-104.339734,34.69224],[-104.444944,34.691661],[-104.444771,34.604958],[-104.892033,34.604432],[-104.891755,34.347049]]]}},
{"type":"Feature","id":"USA:ADM2:US-NM.torrance","properties":{"shapeName":"Torrance","shapeISO":"","shapeGroup":"USA","shapeType":"ADM2","adm1ISO":"US-NM","parentISO":"US-NM","parentID":"USA:ADM1:US-NM","src_shape_id":"52423323B99143466886484"},"geometry":{"type":"Polygon","coordinates":[[[-106.411791,34.870258],[-106.463878,34.8702],[-106.464556,34.810523],[-106.466717,34.717017],[-106.464883,34.608391],[-106.4698,34.521223],[-106.416891,34.521721],[-106.416934,34.439693],[-106.415982,34.259828],[-106.101754,34.259989],[-105.925978,34.259996],[-105.313228,34.260037],[-105.313082,34.347211],[-105.312775,34.606957],[-105.290406,34.606772],[-105.290801,35.042036],[-105.682858,35.041639],[-105.714429,35.041611],[-106.029534,35.040684],[-106.194723,35.040262],[-106.243884,35.040009],[-106.243772,34.953361],[-106.156803,34.953432],[-106.14983,34.949921],[-106.149899,34.919026],[-106.149747,34.870148],[-106.360669,34.870337],[-106.411791,34.870258]]]}},
{"type":"Feature","id":"USA:ADM2:US-NM.catron","properties":{"shapeName":"Catron","shapeISO":"","shapeGroup":"USA","shapeType":"ADM2","adm1ISO":"US-NM","parentISO":"US-NM","parentID":"USA:ADM1:US-NM","src_shape_id":"52423323B25114965344080"},"geometry":{"type":"Polygon","coordinates":[[[-109.046952,33.778231],[-109.047155,33.740015],[-109.046672,33.62506],[-109.047308,33.409788],[-109.046574,33.375065],[-109.047055,33.369285],[-109.046837,33.365277],[-109.04748,33.250068],[-109.047247,33.2089],[-108.956446,33.207549],[-108.646607,33.209347],[-108.543188,33.20796],[-108.449998,33.201002],[-108.000608,33.201258],[-108.000612,33.478019],[-107.967787,33.477958],[-107.938969,33.474387],[-107.712764,33.476837],[-107.712758,33.811381],[-107.715781,33.825642],[-107.716311,34.259861],[-107.72543,34.259828],[-107.725671,34.360624],[-107.724804,34.578138],[-108.010602,34.579267],[-108.983417,34.579834],[-108.986585,34.57942],[-109.046166,34.579296],[-109.046192,34.522398],[-109.047016,34.000055],[-109.046436,33.875057],[-109.046952,33.778231]]]}},
{"type":"Feature","id":"USA:ADM2:US-NM.union","properties":{"shapeName":"Union","shapeISO":"","shapeGroup":"USA","shapeType":"ADM2","adm1ISO":"US-NM","parentISO":"US-NM","parentID":"USA:ADM1:US-NM","src_shape_id":"52423323B81982192352260"},"geometry":{"type":"Polygon","coordinates":[[[-103.002443,36.500403],[-103.002574,36.526594],[-103.002197,36.602722],[-103.002527,36.675192],[-103.002207,36.719433],[-103.001973,36.909579],[-103.002256,36.911593],[-103.002208,37.00011],[-103.086111,37.00018],[-103.155931,37.000238],[-103.733257,36.998022],[-103.734374,36.998047],[-104.007865,36.996245],[-104.009352,36.697663],[-104.00846,36.567622],[-104.008833,36.218121],[-104.008874,36.174533],[-103.794,36.173978],[-103.794534,36.085744],[-103.364986,36.086056],[-103.365071,35.99867],[-103.374873,35.998663],[-103.375126,35.739522],[-103.041281,35.739439],[-103.041155,35.791589],[-103.041926,35.796447],[-103.041725,35.814078],[-103.042195,35.825223],[-103.041314,35.8377],[-103.040833,36.055237],[-103.041683,36.31754],[-103.041754,36.318273],[-103.041933,36.500445],[-103.002443,36.500403]]]}},
{"type":"Feature","id":"USA:ADM2:US-NM.eddy","properties":{"shapeName":"Eddy","shapeISO":"","shapeGroup":"USA","shapeType":"ADM2","adm1ISO":"US-NM","parentISO":"US-NM","parentID":"USA:ADM1:US-NM","src_shape_id":"52423323B75257919011753"},"geometry":{"type":"Polygon","coordinates":[[[-104.851533,32.520546],[-104.851575,32.484306],[-104.851311,32.260185],[-104.847646,32.253502],[-104.847749,32.000488],[-104.643535,32.000448],[-104.640927,32.000401],[-104.531946,32.000316],[-104.531765,32.000122],[-104.329647,32.00008],[-104.02453,32.000015],[-103.980188,32.00013],[-103.875485,32.000559],[-103.748326,32.000203],[-103.722891,32.000214],[-103.722947,32.35292],[-103.722947,32.522349],[-103.814225,32.522373],[-103.814516,32.965119],[-104.050999,32.9654],[-104.358465,32.964444],[-104.362221,32.964604],[-104.55073,32.964002],[-104.841585,32.963218],[-104.84218,32.520545],[-104.851533,32.520546]]]}},
{"type":"Feature","id":"USA:ADM2:US-NM.taos","properties":{"shapeName":"Taos","shapeISO":"","shapeGroup":"USA","shapeType":"ADM2","adm1ISO":"US-NM","parentISO":"US-NM","parentID":"USA:ADM1:US-NM","src_shape_id":"52423323B45931261508118"},"geometry":{"type":"Polygon","coordinates":[[[-106.006327,36.995352],[-106.004705,36.976468],[-105.988,36.940468],[-105.985781,36.920454],[-105.971899,36.886253],[-105.974565,36.837497],[-105.984446,36.812071],[-105.979957,36.767349],[-105.982126,36.7464],[-105.97759,36.720958],[-105.981098,36.713451],[-105.970862,36.683117],[-105.968322,36.659609],[-105.984342,36.659638],[-105.984404,36.645292],[-105.972501,36.648094],[-105.964124,36.598332],[-105.955683,36.575596],[-105.949971,36.542597],[-105.95163,36.517363],[-105.94286,36.500025],[-105.938479,36.465522],[-105.955478,36.419105],[-105.951886,36.374523],[-105.95981,36.354795],[-105.998254,36.333739],[-106.038322,36.325667],[-106.058374,36.296984],[-105.856957,36.23044],[-105.838086,36.210654],[-105.761547,36.129977],[-105.735893,36.100139],[-105.6131,36.048564],[-105.53039,36.01302],[-105.506882,36.020778],[-105.489355,36.037404],[-105.462928,36.078375],[-105.420002,36.13171],[-105.414752,36.157127],[-105.421586,36.170114],[-105.397025,36.19158],[-105.392808,36.216126],[-105.409687,36.23682],[-105.387362,36.252848],[-105.341274,36.261869],[-105.327531,36.277042],[-105.335661,36.301483],[-105.328963,36.337263],[-105.332101,36.36696],[-105.32735,36.380326],[-105.327311,36.405436],[-105.340464,36.416084],[-105.332714,36.428793],[-105.338114,36.44485],[-105.353041,36.443067],[-105.356292,36.452303],[-105.339588,36.47047],[-105.336383,36.483506],[-105.318728,36.491699],[-105.343884,36.511157],[-105.349009,36.533046],[-105.377755,36.552102],[-105.349772,36.561425],[-105.357932,36.589755],[-105.374803,36.608628],[-105.363372,36.629104],[-105.351395,36.636911],[-105.364115,36.654083],[-105.360354,36.662985],[-105.370648,36.681038],[-105.352337,36.697232],[-105.335308,36.7024],[-105.326626,36.697866],[-105.313233,36.723242],[-105.290853,36.72847],[-105.280781,36.718341],[-105.250297,36.717374],[-105.230642,36.72379],[-105.224337,36.734086],[-105.226649,36.771438],[-105.235308,36.790662],[-105.226728,36.804689],[-105.233448,36.812002],[-105.223093,36.833547],[-105.229382,36.847716],[-105.200127,36.915634],[-105.211803,36.919734],[-105.236164,36.962347],[-105.236177,36.981955],[-105.220516,36.995175],[-105.251306,36.995611],[-105.41932,36.995862],[-105.447265,36.996023],[-105.508846,36.995901],[-105.512495,36.995783],[-105.533932,36.995881],[-105.62748,36.995685],[-105.66473,36.99588],[-105.71848,36.995852],[-105.996169,36.995424],[-106.006327,36.995352]]]}},
{"type":"Feature","id":"USA:ADM2:US-NM.otero","properties":{"shapeName":"Otero","shapeISO":"","shapeGroup":"USA","shapeType":"ADM2","adm1ISO":"US-NM","parentISO":"US-NM","parentID":"USA:ADM1:US-NM","src_shape_id":"52423323B11196773939758"},"geometry":{"type":"Polygon","coordinates":[[[-104.851533,32.520546],[-105.149288,32.518859],[-105.35402,32.518781],[-105.351991,32.604768],[-105.352523,32.962012],[-105.316057,32.962105],[-105.316234,33.002724],[-105.316978,33.132308],[-105.317386,33.305982],[-105.381824,33.30543],[-105.725967,33.304839],[-105.727181,33.390638],[-105.733904,33.390671],[-105.931649,33.389905],[-106.34572,33.3906],[-106.340547,33.116101],[-106.340525,33.052782],[-106.340719,32.958387],[-106.376595,32.958055],[-106.376952,32.516487],[-106.377181,32.081593],[-106.377274,32.023015],[-106.37719,32.001183],[-106.313317,32.001517],[-106.205925,32.001767],[-106.18185,32.002055],[-106.125544,32.002538],[-106.050461,32.002418],[-105.998013,32.002333],[-105.90061,32.002105],[-105.886169,32.001975],[-105.854071,32.002355],[-105.750537,32.002211],[-105.731372,32.001569],[-105.429291,32.000582],[-105.390406,32.000612],[-105.154003,32.000502],[-105.118049,32.00049],[-105.077055,32.000584],[-104.918366,32.000501],[-104.847749,32.000488],[-104.847646,32.253502],[-104.851311,32.260185],[-104.851575,32.484306],[-104.851533,32.520546]]]}},
{"type":"Feature","id":"USA:ADM2:US-NM.hidalgo","properties":{"shapeName":"Hidalgo","shapeISO":"","shapeGroup":"USA","shapeType":"ADM2","adm1ISO":"US-NM","parentISO":"US-NM","parentID":"USA:ADM1:US-NM","src_shape_id":"52423323B51310319192871"},"geometry":{"type":"Polygon","coordinates":[[[-109.047622,32.426382],[-109.048296,32.089119],[-109.048741,32.028179],[-109.048609,32.013656],[-109.0486,31.870796],[-109.049116,31.84372],[-109.048773,31.810781],[-109.049205,31.796556],[-109.049122,31.636603],[-109.049823,31.499533],[-109.050183,31.480009],[-109.050054,31.332507],[-108.861038,31.33232],[-108.788721,31.33237],[-108.707667,31.333196],[-108.475363,31.333442],[-108.208583,31.3334],[-108.208582,31.499747],[-108.208531,31.499803],[-108.208097,31.613494],[-108.208404,31.783604],[-108.210024,31.820504],[-108.217144,31.82048],[-108.217153,31.864144],[-108.524548,31.863619],[-108.52464,32.079833],[-108.537686,32.079837],[-108.536939,32.270716],[-108.537021,32.516623],[-108.64678,32.516526],[-108.646533,32.603735],[-108.738065,32.60351],[-108.852929,32.603379],[-108.854591,32.777281],[-109.047128,32.777799],[-109.047648,32.693444],[-109.047658,32.647053],[-109.047622,32.426382]]]}},
{"type":"Feature","id":"USA:ADM2:US-NM.guadalupe","properties":{"shapeName":"Guadalupe","shapeISO":"","shapeGroup":"USA","shapeType":"ADM2","adm1ISO":"US-NM","parentISO":"US-NM","parentID":"USA:ADM1:US-NM","src_shape_id":"52423323B63657680318402"},"geometry":{"type":"Polygon","coordinates":[[[-104.129152,34.779343],[-104.129027,34.954598],[-104.12561,34.96901],[-104.125146,35.083442],[-104.12513,35.142064],[-104.125145,35.215702],[-104.355214,35.216066],[-104.891151,35.216377],[-105.082532,35.216437],[-105.169427,35.216466],[-105.291179,35.216495],[-105.290801,35.042036],[-105.290406,34.606772],[-105.312775,34.606957],[-105.313082,34.347211],[-104.891755,34.347049],[-104.892033,34.604432],[-104.444771,34.604958],[-104.444944,34.691661],[-104.339734,34.69224],[-104.339826,34.779068],[-104.129152,34.779343]]]}},
{"type":"Feature","id":"USA:ADM2:US-NM.sandoval","properties":{"shapeName":"Sandoval","shapeISO":"","shapeGroup":"USA","shapeType":"ADM2","adm1ISO":"US-NM","parentISO":"US-NM","parentID":"USA:ADM1:US-NM","src_shape_id":"52423323B31850175994071"},"geometry":{"type":"MultiPolygon","coordinates":[[[[-106.248355,35.855658],[-106.276993,35.855553],[-106.263206,35.850506],[-106.261016,35.846733],[-106.249303,35.842801],[-106.248267,35.839184],[-106.248355,35.855658]]],[[[-107.309396,35.305693],[-107.2389,35.305513],[-107.197254,35.219465],[-106.962048,35.218398],[-106.763072,35.218],[-106.661068,35.217928],[-106.658129,35.217808],[-106.642504,35.207303],[-106.643376,35.197768],[-106.639737,35.202952],[-106.605392,35.217448],[-106.598735,35.217858],[-106.574057,35.217949],[-106.504224,35.21793],[-106.459389,35.217948],[-106.40241,35.217402],[-106.244226,35.215663],[-106.245172,35.238667],[-106.248959,35.30433],[-106.248936,35.377528],[-106.248858,35.443288],[-106.248684,35.505974],[-106.248678,35.530523],[-106.248667,35.652909],[-106.250509,35.755824],[-106.282616,35.791911],[-106.357038,35.81638],[-106.382368,35.807986],[-106.411158,35.810868],[-106.418529,35.8256],[-106.399644,35.828239],[-106.399723,35.960101],[-106.385219,35.952801],[-106.315803,35.952527],[-106.30017,35.958524],[-106.300384,35.973395],[-106.264251,35.972756],[-106.248171,35.966333],[-106.247174,36.00144],[-106.38203,36.000451],[-106.390846,36.001358],[-106.714261,35.999463],[-106.80826,35.998805],[-106.863519,35.998628],[-106.885327,35.998975],[-106.885063,36.216576],[-107.053741,36.21659],[-107.254039,36.216573],[-107.304631,36.214636],[-107.41105,36.218035],[-107.624293,36.219815],[-107.626521,36.000294],[-107.308677,35.998562],[-107.308404,35.654674],[-107.306132,35.419066],[-107.309396,35.305693]]]]}},
{"type":"Feature","id":"USA:ADM2:US-NM.cibola","properties":{"shapeName":"Cibola","shapeISO":"","shapeGroup":"USA","shapeType":"ADM2","adm1ISO":"US-NM","parentISO":"US-NM","parentID":"USA:ADM1:US-NM","src_shape_id":"52423323B12149519863623"},"geometry":{"type":"Polygon","coordinates":[[[-109.045862,34.959824],[-109.046083,34.828571],[-109.045635,34.814231],[-109.046115,34.799986],[-109.045374,34.785411],[-109.046097,34.771021],[-109.046166,34.579296],[-108.986585,34.57942],[-108.983417,34.579834],[-108.010602,34.579267],[-107.724804,34.578138],[-107.691575,34.579431],[-107.201753,34.578763],[-107.204391,34.608811],[-107.203322,34.796969],[-107.202892,34.957578],[-107.066572,34.957196],[-107.197254,35.219465],[-107.2389,35.305513],[-107.309396,35.305693],[-107.628798,35.304339],[-107.628323,35.34832],[-107.734251,35.348151],[-107.734234,35.304993],[-107.835459,35.305051],[-108.1125,35.3061],[-108.468725,35.306664],[-108.468666,35.292954],[-108.469412,34.959087],[-108.518974,34.959131],[-108.850358,34.959637],[-109.045862,34.959824]]]}},
{"type":"Feature","id":"USA:ADM2:US-NM.quay","properties":{"shapeName":"Quay","shapeISO":"","shapeGroup":"USA","shapeType":"ADM2","adm1ISO":"US-NM","parentISO":"US-NM","parentID":"USA:ADM1:US-NM","src_shape_id":"52423323B94362729193346"},"geometry":{"type":"Polygon","coordinates":[[[-103.948787,34.605064],[-103.738175,34.604676],[-103.706097,34.605016],[-103.705797,34.692452],[-103.635255,34.691893],[-103.495662,34.691399],[-103.495655,34.778581],[-103.44304,34.778261],[-103.390283,34.778128],[-103.389807,34.865435],[-103.284326,34.864996],[-103.284158,34.954178],[-103.042562,34.954148],[-103.042651,35.109919],[-103.04327,35.125064],[-103.042529,35.135602],[-103.04272,35.144741],[-103.042386,35.183155],[-103.042506,35.211868],[-103.042784,35.241243],[-103.042375,35.250062],[-103.041563,35.622493],[-103.041281,35.739439],[-103.375126,35.739522],[-103.379402,35.652526],[-103.379565,35.494724],[-103.379739,35.396802],[-103.388961,35.389628],[-103.637062,35.389668],[-103.637139,35.240825],[-103.842833,35.241523],[-103.857539,35.242411],[-103.85767,35.264145],[-104.12513,35.142064],[-104.125146,35.083442],[-104.12561,34.96901],[-104.129027,34.954598],[-104.129152,34.779343],[-104.128889,34.605207],[-103.948787,34.605064]]]}},
{"type":"Feature","id":"USA:ADM2:US-NM.dona-ana","properties":{"shapeName":"Doña Ana","shapeISO":"","shapeGroup":"USA","shapeType":"ADM2","adm1ISO":"US-NM","parentISO":"US-NM","parentID":"USA:ADM1:US-NM","src_shape_id":"52423323B79640001030180"},"geometry":{"type":"Polygon","coordinates":[[[-106.340525,33.052782],[-106.887901,32.822786],[-106.887743,32.779278],[-106.937884,32.77937],[-107.259403,32.780071],[-107.299484,32.779928],[-107.299641,32.605375],[-107.299499,32.595839],[-107.298301,32.220133],[-107.298753,32.082353],[-107.296604,32.043159],[-107.296804,31.783767],[-107.032971,31.783545],[-107.00057,31.783518],[-106.993554,31.783694],[-106.750557,31.783903],[-106.750557,31.783711],[-106.531741,31.783915],[-106.528252,31.783153],[-106.527633,31.789124],[-106.527953,31.790512],[-106.530525,31.792108],[-106.533053,31.791912],[-106.535853,31.798612],[-106.542107,31.802151],[-106.544724,31.804292],[-106.547154,31.80731],[-106.558454,31.810411],[-106.562955,31.811109],[-106.563454,31.812611],[-106.566854,31.813311],[-106.570954,31.810211],[-106.577254,31.810411],[-106.581354,31.813911],[-106.582154,31.815511],[-106.588055,31.822111],[-106.593836,31.824906],[-106.602737,31.825029],[-106.605277,31.827917],[-106.601955,31.83961],[-106.602055,31.84441],[-106.605855,31.84631],[-106.614647,31.846495],[-106.625773,31.856281],[-106.627818,31.860598],[-106.635936,31.86624],[-106.63589,31.871519],[-106.634883,31.874483],[-106.629207,31.883722],[-106.630702,31.886416],[-106.638164,31.891668],[-106.64291,31.892938],[-106.645306,31.894864],[-106.645489,31.898675],[-106.64085,31.904603],[-106.633678,31.909795],[-106.625957,31.912232],[-106.612073,31.918662],[-106.612453,31.921002],[-106.6211,31.927095],[-106.623983,31.931006],[-106.621955,31.936137],[-106.62242,31.941008],[-106.615263,31.94897],[-106.614385,31.952759],[-106.617717,31.956013],[-106.621366,31.957412],[-106.622136,31.961001],[-106.619381,31.964782],[-106.623196,31.972923],[-106.630124,31.971263],[-106.638196,31.976825],[-106.639539,31.980353],[-106.636502,31.985724],[-106.631192,31.989814],[-106.623578,31.991004],[-106.619458,31.994738],[-106.618496,32.0005],[-106.596945,32.0007],[-106.564311,32.00076],[-106.481154,32.001054],[-106.394308,32.001489],[-106.37719,32.001183],[-106.377274,32.023015],[-106.377181,32.081593],[-106.376952,32.516487],[-106.376595,32.958055],[-106.340719,32.958387],[-106.340525,33.052782]]]}},
{"type":"Feature","id":"USA:ADM2:US-NM.roosevelt","properties":{"shapeName":"Roosevelt","shapeISO":"","shapeGroup":"USA","shapeType":"ADM2","adm1ISO":"US-NM","parentISO":"US-NM","parentID":"USA:ADM1:US-NM","src_shape_id":"52423323B49332182234099"},"geometry":{"type":"Polygon","coordinates":[[[-103.946028,34.082469],[-103.8417,34.081915],[-103.841942,33.819206],[-103.716894,33.819564],[-103.718342,33.656216],[-103.509768,33.657268],[-103.510138,33.570123],[-103.05262,33.57058],[-103.051673,33.629495],[-103.051372,33.641956],[-103.051544,33.650493],[-103.050541,33.672414],[-103.049617,33.737772],[-103.049105,33.746276],[-103.047355,33.824681],[-103.046916,33.850306],[-103.045653,33.901543],[-103.045707,33.906305],[-103.044902,33.945623],[-103.043959,33.974635],[-103.043626,34.003639],[-103.043564,34.03272],[-103.043755,34.0373],[-103.043695,34.063084],[-103.043525,34.079388],[-103.043589,34.11284],[-103.043653,34.256909],[-103.043728,34.289447],[-103.043945,34.302654],[-103.143579,34.302965],[-103.251997,34.303191],[-103.319644,34.303264],[-103.459829,34.303267],[-103.472741,34.303307],[-103.740075,34.303062],[-103.738175,34.604676],[-103.948787,34.605064],[-103.949179,34.259654],[-103.945679,34.250078],[-103.946028,34.082469]]]}},
{"type":"Feature","id":"USA:ADM2:US-NM.valencia","properties":{"shapeName":"Valencia","shapeISO":"","shapeGroup":"USA","shapeType":"ADM2","adm1ISO":"US-NM","parentISO":"US-NM","parentID":"USA:ADM1:US-NM","src_shape_id":"52423323B5948069523635"},"geometry":{"type":"Polygon","coordinates":[[[-106.411791,34.870258],[-106.411568,34.889739],[-106.414485,34.892231],[-106.429496,34.903406],[-106.685965,34.90601],[-106.702881,34.885337],[-106.720101,34.872147],[-106.721844,34.870063],[-106.766238,34.869973],[-107.02442,34.869959],[-107.025006,34.871024],[-107.066572,34.957196],[-107.202892,34.957578],[-107.203322,34.796969],[-107.204391,34.608811],[-107.201753,34.578763],[-107.020058,34.579587],[-106.882823,34.579634],[-106.797836,34.543808],[-106.768291,34.531268],[-106.564658,34.4739],[-106.504634,34.457009],[-106.456324,34.43706],[-106.416934,34.439693],[-106.416891,34.521721],[-106.4698,34.521223],[-106.464883,34.608391],[-106.466717,34.717017],[-106.464556,34.810523],[-106.463878,34.8702],[-106.411791,34.870258]]]}},
{"type":"Feature","id":"USA:ADM2:US-NM.colfax","properties":{"shapeName":"Colfax","shapeISO":"","shapeGroup":"USA","shapeType":"ADM2","adm1ISO":"US-NM","parentISO":"US-NM","parentID":"USA:ADM1:US-NM","src_shape_id":"52423323B4860055459103"},"geometry":{"type":"Polygon","coordinates":[[[-104.007865,36.996245],[-104.250546,36.99465],[-104.338843,36.993541],[-104.519267,36.993772],[-104.624566,36.994383],[-104.625555,36.993605],[-104.645039,36.993384],[-104.732041,36.993453],[-104.73213,36.99349],[-105.000564,36.99327],[-105.029238,36.992735],[-105.12081,36.995434],[-105.155052,36.995345],[-105.220516,36.995175],[-105.236177,36.981955],[-105.236164,36.962347],[-105.211803,36.919734],[-105.200127,36.915634],[-105.229382,36.847716],[-105.223093,36.833547],[-105.233448,36.812002],[-105.226728,36.804689],[-105.235308,36.790662],[-105.226649,36.771438],[-105.224337,36.734086],[-105.230642,36.72379],[-105.250297,36.717374],[-105.280781,36.718341],[-105.290853,36.72847],[-105.313233,36.723242],[-105.326626,36.697866],[-105.335308,36.7024],[-105.352337,36.697232],[-105.370648,36.681038],[-105.360354,36.662985],[-105.364115,36.654083],[-105.351395,36.636911],[-105.363372,36.629104],[-105.374803,36.608628],[-105.357932,36.589755],[-105.349772,36.561425],[-105.377755,36.552102],[-105.349009,36.533046],[-105.343884,36.511157],[-105.318728,36.491699],[-105.336383,36.483506],[-105.339588,36.47047],[-105.356292,36.452303],[-105.353041,36.443067],[-105.338114,36.44485],[-105.332714,36.428793],[-105.340464,36.416084],[-105.327311,36.405436],[-105.32735,36.380326],[-105.332101,36.36696],[-105.328963,36.337263],[-105.335661,36.301483],[-105.327531,36.277042],[-105.341274,36.261869],[-104.865254,36.261425],[-104.865412,36.217875],[-104.436066,36.21854],[-104.008833,36.218121],[-104.00846,36.567622],[-104.009352,36.697663],[-104.007865,36.996245]]]}},
{"type":"Feature","id":"USA:ADM2:US-NM.chaves","properties":{"shapeName":"Chaves","shapeISO":"","shapeGroup":"USA","shapeType":"ADM2","adm1ISO":"US-NM","parentISO":"US-NM","parentID":"USA:ADM1:US-NM","src_shape_id":"52423323B32246312222809"},"geometry":{"type":"Polygon","coordinates":[[[-104.893387,34.088413],[-104.894583,33.824436],[-104.891116,33.816811],[-104.892066,33.594687],[-104.892178,33.566382],[-104.892443,33.398204],[-104.885098,33.393276],[-104.885414,33.347315],[-104.885139,33.305832],[-104.903847,33.305909],[-104.90544,33.220945],[-104.905766,33.138909],[-105.006491,33.134406],[-105.074902,33.134213],[-105.108631,33.131747],[-105.316978,33.132308],[-105.316234,33.002724],[-105.316057,32.962105],[-105.352523,32.962012],[-105.351991,32.604768],[-105.35402,32.518781],[-105.149288,32.518859],[-104.851533,32.520546],[-104.84218,32.520545],[-104.841585,32.963218],[-104.55073,32.964002],[-104.362221,32.964604],[-104.358465,32.964444],[-104.050999,32.9654],[-103.814516,32.965119],[-103.766426,32.965269],[-103.766399,33.162358],[-103.766322,33.311918],[-103.76637,33.395303],[-103.721408,33.395415],[-103.720818,33.569543],[-103.510138,33.570123],[-103.509768,33.657268],[-103.718342,33.656216],[-103.716894,33.819564],[-103.841942,33.819206],[-103.8417,34.081915],[-103.946028,34.082469],[-104.155609,34.083211],[-104.156278,33.995419],[-104.317413,33.995883],[-104.786114,34.000143],[-104.786439,34.08767],[-104.893387,34.088413]]]}},
{"type":"Feature","id":"USA:ADM2:US-NM.san-juan","properties":{"shapeName":"San Juan","shapeISO":"","shapeGroup":"USA","shapeType":"ADM2","adm1ISO":"US-NM","parentISO":"US-NM","parentID":"USA:ADM1:US-NM","src_shape_id":"52423323B37517446111976"},"geometry":{"type":"Polygon","coordinates":[[[-107.626521,36.000294],[-107.624293,36.219815],[-107.624979,36.308029],[-107.625449,36.420399],[-107.625971,36.479486],[-107.625295,36.578108],[-107.623416,36.626959],[-107.622765,36.67535],[-107.618913,36.718684],[-107.618304,36.769975],[-107.618218,36.798241],[-107.612646,36.799855],[-107.609736,36.798569],[-107.604593,36.801655],[-107.607176,36.804992],[-107.601639,36.810816],[-107.596893,36.810161],[-107.595877,36.815446],[-107.600685,36.818872],[-107.599487,36.82793],[-107.594225,36.834766],[-107.58363,36.83497],[-107.56938,36.842706],[-107.565238,36.848931],[-107.562588,36.855064],[-107.554098,36.853022],[-107.536849,36.855136],[-107.530387,36.860952],[-107.523814,36.872352],[-107.514671,36.87797],[-107.508335,36.875568],[-107.496648,36.876674],[-107.484124,36.886098],[-107.473773,36.895005],[-107.462651,36.896874],[-107.456587,36.89986],[-107.450645,36.906846],[-107.449603,36.918736],[-107.45465,36.929825],[-107.450665,36.942596],[-107.454924,36.952319],[-107.447617,36.961212],[-107.437743,36.968472],[-107.430883,36.981892],[-107.420923,37.000011],[-107.481747,37.00001],[-108.000633,37.000007],[-108.033471,36.999877],[-108.249369,36.999021],[-108.250646,36.999567],[-108.288411,36.999526],[-108.379313,36.999465],[-108.536423,36.999328],[-108.6197,36.999255],[-108.62032,36.999293],[-108.954415,36.998912],[-109.045234,36.99909],[-109.045283,36.968877],[-109.045444,36.874595],[-109.045442,36.52737],[-109.045442,36.500007],[-109.045879,36.314924],[-109.046194,36.181757],[-109.04574,36.117034],[-109.045983,36.002707],[-108.92949,36.002551],[-108.827192,36.002736],[-108.804552,36.002738],[-108.533797,36.002699],[-108.151227,36.002791],[-107.815756,36.001315],[-107.626521,36.000294]]]}},
{"type":"Feature","id":"USA:ADM2:US-NM.san-miguel","properties":{"shapeName":"San Miguel","shapeISO":"","shapeGroup":"USA","shapeType":"ADM2","adm1ISO":"US-NM","parentISO":"US-NM","parentID":"USA:ADM1:US-NM","src_shape_id":"52423323B97711428373458"},"geometry":{"type":"Polygon","coordinates":[[[-105.290801,35.042036],[-105.291179,35.216495],[-105.169427,35.216466],[-105.082532,35.216437],[-104.891151,35.216377],[-104.355214,35.216066],[-104.125145,35.215702],[-104.12513,35.142064],[-103.85767,35.264145],[-103.857539,35.242411],[-103.842833,35.241523],[-103.637139,35.240825],[-103.637062,35.389668],[-103.637035,35.422345],[-103.723618,35.422791],[-103.97691,35.801753],[-104.021711,35.7815],[-104.107436,35.781748],[-104.37013,35.779308],[-104.455943,35.778731],[-104.546373,35.780696],[-104.750655,35.783133],[-105.006427,35.771262],[-105.018612,35.769692],[-105.025464,35.754203],[-105.052858,35.776386],[-105.079475,35.786581],[-105.109736,35.807921],[-105.151313,35.80948],[-105.177667,35.825842],[-105.210886,35.827341],[-105.23778,35.838343],[-105.34784,35.870701],[-105.524339,35.870727],[-105.720539,35.871191],[-105.72191,35.822833],[-105.721217,35.812118],[-105.721217,35.73366],[-105.716354,35.65421],[-105.718026,35.55327],[-105.718113,35.464222],[-105.717419,35.304173],[-105.715397,35.215526],[-105.714429,35.041611],[-105.682858,35.041639],[-105.290801,35.042036]]]}},
{"type":"Feature","id":"USA:ADM2:US-NM.socorro","properties":{"shapeName":"Socorro","shapeISO":"","shapeGroup":"USA","shapeType":"ADM2","adm1ISO":"US-NM","parentISO":"US-NM","parentID":"USA:ADM1:US-NM","src_shape_id":"52423323B71844898406076"},"geometry":{"type":"Polygon","coordinates":[[[-106.416934,34.439693],[-106.456324,34.43706],[-106.504634,34.457009],[-106.564658,34.4739],[-106.768291,34.531268],[-106.797836,34.543808],[-106.882823,34.579634],[-107.020058,34.579587],[-107.201753,34.578763],[-107.691575,34.579431],[-107.724804,34.578138],[-107.725671,34.360624],[-107.72543,34.259828],[-107.716311,34.259861],[-107.715781,33.825642],[-107.712758,33.811381],[-107.712764,33.476837],[-107.402927,33.477774],[-106.474305,33.475791],[-106.469031,33.480205],[-106.372807,33.47988],[-106.37367,33.660509],[-106.268271,33.66054],[-106.158309,33.650284],[-106.052728,33.650302],[-106.05269,33.748468],[-106.052672,33.825611],[-105.924695,33.825629],[-105.925978,34.259996],[-106.101754,34.259989],[-106.415982,34.259828],[-106.416934,34.439693]]]}},
{"type":"Feature","id":"USA:ADM2:US-NM.grant","properties":{"shapeName":"Grant","shapeISO":"","shapeGroup":"USA","shapeType":"ADM2","adm1ISO":"US-NM","parentISO":"US-NM","parentID":"USA:ADM1:US-NM","src_shape_id":"52423323B35670822030134"},"geometry":{"type":"Polygon","coordinates":[[[-109.047247,33.2089],[-109.047126,33.138],[-109.047023,33.092922],[-109.046915,33.091936],[-109.04749,33.068425],[-109.047128,32.777799],[-108.854591,32.777281],[-108.852929,32.603379],[-108.738065,32.60351],[-108.646533,32.603735],[-108.64678,32.516526],[-108.537021,32.516623],[-108.536939,32.270716],[-108.537686,32.079837],[-108.52464,32.079833],[-108.524548,31.863619],[-108.217153,31.864144],[-108.216974,32.079868],[-108.229961,32.079875],[-108.22982,32.207164],[-108.229353,32.516842],[-108.052241,32.516932],[-107.923776,32.517421],[-107.924007,32.604384],[-107.608495,32.605454],[-107.716935,32.62256],[-107.736959,32.629499],[-107.725331,32.661086],[-107.727456,32.692118],[-107.719577,32.697479],[-107.715286,32.721575],[-107.722868,32.736124],[-107.716196,32.762681],[-107.721397,32.778082],[-107.736897,32.784381],[-107.749497,32.805081],[-107.745298,32.825479],[-107.758398,32.84608],[-107.773098,32.85378],[-107.778587,32.897314],[-107.766182,32.910807],[-107.780558,32.952781],[-107.829782,32.963923],[-107.856682,33.002544],[-107.855209,33.041122],[-107.851499,33.056198],[-107.836202,33.067768],[-107.845814,33.086041],[-107.842137,33.095823],[-107.852922,33.134326],[-107.856302,33.165323],[-107.83966,33.182774],[-107.861714,33.189756],[-107.865019,33.199979],[-108.000608,33.201258],[-108.449998,33.201002],[-108.543188,33.20796],[-108.646607,33.209347],[-108.956446,33.207549],[-109.047247,33.2089]]]}},
{"type":"Feature","id":"USA:ADM2:US-NM.los-alamos","properties":{"shapeName":"Los Alamos","shapeISO":"","shapeGroup":"USA","shapeType":"ADM2","adm1ISO":"US-NM","parentISO":"US-NM","parentID":"USA:ADM1:US-NM","src_shape_id":"52423323B125057761127"},"geometry":{"type":"Polygon","coordinates":[[[-106.248355,35.855658],[-106.245659,35.930748],[-106.245615,35.959354],[-106.248171,35.966333],[-106.264251,35.972756],[-106.300384,35.973395],[-106.30017,35.958524],[-106.315803,35.952527],[-106.385219,35.952801],[-106.399723,35.960101],[-106.399644,35.828239],[-106.418529,35.8256],[-106.411158,35.810868],[-106.382368,35.807986],[-106.357038,35.81638],[-106.282616,35.791911],[-106.250509,35.755824],[-106.216182,35.77229],[-106.21397,35.776688],[-106.208517,35.777791],[-106.193827,35.803995],[-106.173697,35.825532],[-106.172692,35.827801],[-106.20568,35.829347],[-106.225401,35.82876],[-106.248267,35.839184],[-106.249303,35.842801],[-106.261016,35.846733],[-106.263206,35.850506],[-106.276993,35.855553],[-106.248355,35.855658]]]}},
{"type":"Feature","id":"USA:ADM2:US-NM.mora","properties":{"shapeName":"Mora","shapeISO":"","shapeGroup":"USA","shapeType":"ADM2","adm1ISO":"US-NM","parentISO":"US-NM","parentID":"USA:ADM1:US-NM","src_shape_id":"52423323B50953457679894"},"geometry":{"type":"Polygon","coordinates":[[[-105.53039,36.01302],[-105.537126,35.990889],[-105.568055,35.973802],[-105.605068,35.97364],[-105.632119,35.979596],[-105.64517,35.962169],[-105.660029,35.95853],[-105.67964,35.968179],[-105.707591,35.968753],[-105.717487,35.978747],[-105.720539,35.871191],[-105.524339,35.870727],[-105.34784,35.870701],[-105.23778,35.838343],[-105.210886,35.827341],[-105.177667,35.825842],[-105.151313,35.80948],[-105.109736,35.807921],[-105.079475,35.786581],[-105.052858,35.776386],[-105.025464,35.754203],[-105.018612,35.769692],[-105.006427,35.771262],[-104.750655,35.783133],[-104.546373,35.780696],[-104.455943,35.778731],[-104.37013,35.779308],[-104.362178,35.783187],[-104.371129,35.804577],[-104.364128,35.812639],[-104.378135,35.823607],[-104.36692,35.829405],[-104.379929,35.835782],[-104.364969,35.842202],[-104.390532,35.859849],[-104.381928,35.861964],[-104.372606,35.883074],[-104.343749,35.912219],[-104.354416,35.929239],[-104.352507,35.940417],[-104.327294,35.960203],[-104.355734,35.982665],[-104.341181,35.991881],[-104.349863,36.010005],[-104.365304,36.013433],[-104.360559,36.023929],[-104.365734,36.044296],[-104.37976,36.049275],[-104.371038,36.066819],[-104.401085,36.091551],[-104.402932,36.117012],[-104.414556,36.123767],[-104.404371,36.155407],[-104.419918,36.168286],[-104.414439,36.176842],[-104.439129,36.193477],[-104.430475,36.213604],[-104.436066,36.21854],[-104.865412,36.217875],[-104.865254,36.261425],[-105.341274,36.261869],[-105.387362,36.252848],[-105.409687,36.23682],[-105.392808,36.216126],[-105.397025,36.19158],[-105.421586,36.170114],[-105.414752,36.157127],[-105.420002,36.13171],[-105.462928,36.078375],[-105.489355,36.037404],[-105.506882,36.020778],[-105.53039,36.01302]]]}},
{"type":"Feature","id":"USA:ADM2:US-NM.harding","properties":{"shapeName":"Harding","shapeISO":"","shapeGroup":"USA","shapeType":"ADM2","adm1ISO":"US-NM","parentISO":"US-NM","parentID":"USA:ADM1:US-NM","src_shape_id":"52423323B19647593546846"},"geometry":{"type":"Polygon","coordinates":[[[-104.008833,36.218121],[-104.436066,36.21854],[-104.430475,36.213604],[-104.439129,36.193477],[-104.414439,36.176842],[-104.419918,36.168286],[-104.404371,36.155407],[-104.414556,36.123767],[-104.402932,36.117012],[-104.401085,36.091551],[-104.371038,36.066819],[-104.37976,36.049275],[-104.365734,36.044296],[-104.360559,36.023929],[-104.365304,36.013433],[-104.349863,36.010005],[-104.341181,35.991881],[-104.355734,35.982665],[-104.327294,35.960203],[-104.352507,35.940417],[-104.354416,35.929239],[-104.343749,35.912219],[-104.372606,35.883074],[-104.381928,35.861964],[-104.390532,35.859849],[-104.364969,35.842202],[-104.379929,35.835782],[-104.36692,35.829405],[-104.378135,35.823607],[-104.364128,35.812639],[-104.371129,35.804577],[-104.362178,35.783187],[-104.37013,35.779308],[-104.107436,35.781748],[-104.021711,35.7815],[-103.97691,35.801753],[-103.723618,35.422791],[-103.637035,35.422345],[-103.637062,35.389668],[-103.388961,35.389628],[-103.379739,35.396802],[-103.379565,35.494724],[-103.379402,35.652526],[-103.375126,35.739522],[-103.374873,35.998663],[-103.365071,35.99867],[-103.364986,36.086056],[-103.794534,36.085744],[-103.794,36.173978],[-104.008874,36.174533],[-104.008833,36.218121]]]}},
{"type":"Feature","id":"USA:ADM2:US-NM.sierra","properties":{"shapeName":"Sierra","shapeISO":"","shapeGroup":"USA","shapeType":"ADM2","adm1ISO":"US-NM","parentISO":"US-NM","parentID":"USA:ADM1:US-NM","src_shape_id":"52423323B62367348264258"},"geometry":{"type":"Polygon","coordinates":[[[-108.000608,33.201258],[-107.865019,33.199979],[-107.861714,33.189756],[-107.83966,33.182774],[-107.856302,33.165323],[-107.852922,33.134326],[-107.842137,33.095823],[-107.845814,33.086041],[-107.836202,33.067768],[-107.851499,33.056198],[-107.855209,33.041122],[-107.856682,33.002544],[-107.829782,32.963923],[-107.780558,32.952781],[-107.766182,32.910807],[-107.778587,32.897314],[-107.773098,32.85378],[-107.758398,32.84608],[-107.745298,32.825479],[-107.749497,32.805081],[-107.736897,32.784381],[-107.721397,32.778082],[-107.716196,32.762681],[-107.722868,32.736124],[-107.715286,32.721575],[-107.719577,32.697479],[-107.727456,32.692118],[-107.725331,32.661086],[-107.736959,32.629499],[-107.716935,32.62256],[-107.608495,32.605454],[-107.299641,32.605375],[-107.299484,32.779928],[-107.259403,32.780071],[-106.937884,32.77937],[-106.887743,32.779278],[-106.887901,32.822786],[-106.340525,33.052782],[-106.340547,33.116101],[-106.34572,33.3906],[-106.371895,33.39062],[-106.372807,33.47988],[-106.469031,33.480205],[-106.474305,33.475791],[-107.402927,33.477774],[-107.712764,33.476837],[-107.938969,33.474387],[-107.967787,33.477958],[-108.000612,33.478019],[-108.000608,33.201258]]]}},
{"type":"Feature","id":"USA:ADM2:US-NM.santa-fe","properties":{"shapeName":"Santa Fe","shapeISO":"","shapeGroup":"USA","shapeType":"ADM2","adm1ISO":"US-NM","parentISO":"US-NM","parentID":"USA:ADM1:US-NM","src_shape_id":"52423323B7910284098796"},"geometry":{"type":"Polygon","coordinates":[[[-105.714429,35.041611],[-105.715397,35.215526],[-105.717419,35.304173],[-105.718113,35.464222],[-105.718026,35.55327],[-105.716354,35.65421],[-105.721217,35.73366],[-105.721217,35.812118],[-105.72191,35.822833],[-105.720539,35.871191],[-105.717487,35.978747],[-105.716818,36.002326],[-105.964424,36.002107],[-106.050886,36.002025],[-106.071163,36.001579],[-106.071346,35.999464],[-106.064908,35.996693],[-106.06767,35.994564],[-106.065602,35.989405],[-106.055895,35.989436],[-106.054163,35.985914],[-106.054356,35.930789],[-106.245659,35.930748],[-106.248355,35.855658],[-106.248267,35.839184],[-106.225401,35.82876],[-106.20568,35.829347],[-106.172692,35.827801],[-106.173697,35.825532],[-106.193827,35.803995],[-106.208517,35.777791],[-106.21397,35.776688],[-106.216182,35.77229],[-106.250509,35.755824],[-106.248667,35.652909],[-106.248678,35.530523],[-106.248684,35.505974],[-106.248858,35.443288],[-106.248936,35.377528],[-106.248959,35.30433],[-106.245172,35.238667],[-106.244226,35.215663],[-106.243884,35.040009],[-106.194723,35.040262],[-106.029534,35.040684],[-105.714429,35.041611]]]}},
{"type":"Feature","id":"USA:ADM2:US-NM.luna","properties":{"shapeName":"Luna","shapeISO":"","shapeGroup":"USA","shapeType":"ADM2","adm1ISO":"US-NM","parentISO":"US-NM","parentID":"USA:ADM1:US-NM","src_shape_id":"52423323B3054531487219"},"geometry":{"type":"Polygon","coordinates":[[[-108.208404,31.783604],[-108.05136,31.783591],[-107.848364,31.783637],[-107.64114,31.783721],[-107.422505,31.783604],[-107.296804,31.783767],[-107.296604,32.043159],[-107.298753,32.082353],[-107.298301,32.220133],[-107.299499,32.595839],[-107.299641,32.605375],[-107.608495,32.605454],[-107.924007,32.604384],[-107.923776,32.517421],[-108.052241,32.516932],[-108.229353,32.516842],[-108.22982,32.207164],[-108.229961,32.079875],[-108.216974,32.079868],[-108.217153,31.864144],[-108.217144,31.82048],[-108.210024,31.820504],[-108.208404,31.783604]]]}},
{"type":"Feature","id":"USA:ADM2:US-NM.bernalillo","properties":{"shapeName":"Bernalillo","shapeISO":"","shapeGroup":"USA","shapeType":"ADM2","adm1ISO":"US-NM","parentISO":"US-NM","parentID":"USA:ADM1:US-NM","src_shape_id":"52423323B92421028430791"},"geometry":{"type":"Polygon","coordinates":[[[-106.243884,35.040009],[-106.244226,35.215663],[-106.40241,35.217402],[-106.459389,35.217948],[-106.504224,35.21793],[-106.574057,35.217949],[-106.598735,35.217858],[-106.605392,35.217448],[-106.639737,35.202952],[-106.643376,35.197768],[-106.642504,35.207303],[-106.658129,35.217808],[-106.661068,35.217928],[-106.763072,35.218],[-106.962048,35.218398],[-107.197254,35.219465],[-107.066572,34.957196],[-107.025006,34.871024],[-107.02442,34.869959],[-106.766238,34.869973],[-106.721844,34.870063],[-106.720101,34.872147],[-106.702881,34.885337],[-106.685965,34.90601],[-106.429496,34.903406],[-106.414485,34.892231],[-106.411568,34.889739],[-106.411791,34.870258],[-106.360669,34.870337],[-106.149747,34.870148],[-106.149899,34.919026],[-106.14983,34.949921],[-106.156803,34.953432],[-106.243772,34.953361],[-106.243884,35.040009]]]}},
{"type":"Feature","id":"USA:ADM2:US-NM.lea","properties":{"shapeName":"Lea","shapeISO":"","shapeGroup":"USA","shapeType":"ADM2","adm1ISO":"US-NM","parentISO":"US-NM","parentID":"USA:ADM1:US-NM","src_shape_id":"52423323B76999377614602"},"geometry":{"type":"Polygon","coordinates":[[[-103.05262,33.57058],[-103.510138,33.570123],[-103.720818,33.569543],[-103.721408,33.395415],[-103.76637,33.395303],[-103.766322,33.311918],[-103.766399,33.162358],[-103.766426,32.965269],[-103.814516,32.965119],[-103.814225,32.522373],[-103.722947,32.522349],[-103.722947,32.35292],[-103.722891,32.000214],[-103.32651,32.000375],[-103.267642,32.00048],[-103.21565,32.000518],[-103.088707,32.000458],[-103.064432,32.000523],[-103.064353,32.087056],[-103.064431,32.145011],[-103.064705,32.522198],[-103.06477,32.587988],[-103.064824,32.624542],[-103.064642,32.646425],[-103.064873,32.682652],[-103.064816,32.777308],[-103.06472,32.784598],[-103.064708,32.827536],[-103.064898,32.849364],[-103.064871,32.868351],[-103.064578,32.900019],[-103.064666,32.959102],[-103.064634,32.999904],[-103.063989,33.038699],[-103.061793,33.14089],[-103.060112,33.219231],[-103.059729,33.256268],[-103.059251,33.260377],[-103.057496,33.329483],[-103.056664,33.388422],[-103.05262,33.57058]]]}},
{"type":"Feature","id":"USA:ADM2:US-NM.rio-arriba","properties":{"shapeName":"Rio Arriba","shapeISO":"","shapeGroup":"USA","shapeType":"ADM2","adm1ISO":"US-NM","parentISO":"US-NM","parentID":"USA:ADM1:US-NM","src_shape_id":"52423323B40891778777476"},"geometry":{"type":"Polygon","coordinates":[[[-107.420923,37.000011],[-107.430883,36.981892],[-107.437743,36.968472],[-107.447617,36.961212],[-107.454924,36.952319],[-107.450665,36.942596],[-107.45465,36.929825],[-107.449603,36.918736],[-107.450645,36.906846],[-107.456587,36.89986],[-107.462651,36.896874],[-107.473773,36.895005],[-107.484124,36.886098],[-107.496648,36.876674],[-107.508335,36.875568],[-107.514671,36.87797],[-107.523814,36.872352],[-107.530387,36.860952],[-107.536849,36.855136],[-107.554098,36.853022],[-107.562588,36.855064],[-107.565238,36.848931],[-107.56938,36.842706],[-107.58363,36.83497],[-107.594225,36.834766],[-107.599487,36.82793],[-107.600685,36.818872],[-107.595877,36.815446],[-107.596893,36.810161],[-107.601639,36.810816],[-107.607176,36.804992],[-107.604593,36.801655],[-107.609736,36.798569],[-107.612646,36.799855],[-107.618218,36.798241],[-107.618304,36.769975],[-107.618913,36.718684],[-107.622765,36.67535],[-107.623416,36.626959],[-107.625295,36.578108],[-107.625971,36.479486],[-107.625449,36.420399],[-107.624979,36.308029],[-107.624293,36.219815],[-107.41105,36.218035],[-107.304631,36.214636],[-107.254039,36.216573],[-107.053741,36.21659],[-106.885063,36.216576],[-106.885327,35.998975],[-106.863519,35.998628],[-106.80826,35.998805],[-106.714261,35.999463],[-106.390846,36.001358],[-106.38203,36.000451],[-106.247174,36.00144],[-106.248171,35.966333],[-106.245615,35.959354],[-106.245659,35.930748],[-106.054356,35.930789],[-106.054163,35.985914],[-106.055895,35.989436],[-106.065602,35.989405],[-106.06767,35.994564],[-106.064908,35.996693],[-106.071346,35.999464],[-106.071163,36.001579],[-106.050886,36.002025],[-105.964424,36.002107],[-105.716818,36.002326],[-105.717487,35.978747],[-105.707591,35.968753],[-105.67964,35.968179],[-105.660029,35.95853],[-105.64517,35.962169],[-105.632119,35.979596],[-105.605068,35.97364],[-105.568055,35.973802],[-105.537126,35.990889],[-105.53039,36.01302],[-105.6131,36.048564],[-105.735893,36.100139],[-105.761547,36.129977],[-105.838086,36.210654],[-105.856957,36.23044],[-106.058374,36.296984],[-106.038322,36.325667],[-105.998254,36.333739],[-105.95981,36.354795],[-105.951886,36.374523],[-105.955478,36.419105],[-105.938479,36.465522],[-105.94286,36.500025],[-105.95163,36.517363],[-105.949971,36.542597],[-105.955683,36.575596],[-105.964124,36.598332],[-105.972501,36.648094],[-105.984404,36.645292],[-105.984342,36.659638],[-105.968322,36.659609],[-105.970862,36.683117],[-105.981098,36.713451],[-105.97759,36.720958],[-105.982126,36.7464],[-105.979957,36.767349],[-105.984446,36.812071],[-105.974565,36.837497],[-105.971899,36.886253],[-105.985781,36.920454],[-105.988,36.940468],[-106.004705,36.976468],[-106.006327,36.995352],[-106.201479,36.994128],[-106.248685,36.994294],[-106.293289,36.993896],[-106.343149,36.994236],[-106.476285,36.993845],[-106.500599,36.993774],[-106.617169,36.992973],[-106.628743,36.993167],[-106.661354,36.993249],[-106.750601,36.992467],[-106.869806,36.992432],[-106.877302,37.000145],[-106.985524,37.000118],[-107.420923,37.000011]]]}},
{"type":"Feature","id":"USA:ADM2:US-NM.lincoln","properties":{"shapeName":"Lincoln","shapeISO":"","shapeGroup":"USA","shapeType":"ADM2","adm1ISO":"US-NM","parentISO":"US-NM","parentID":"USA:ADM1:US-NM","src_shape_id":"52423323B6872009723033"},"geometry":{"type":"Polygon","coordinates":[[[-104.891755,34.347049],[-105.313082,34.347211],[-105.313228,34.260037],[-105.925978,34.259996],[-105.924695,33.825629],[-106.052672,33.825611],[-106.05269,33.748468],[-106.052728,33.650302],[-106.158309,33.650284],[-106.268271,33.66054],[-106.37367,33.660509],[-106.372807,33.47988],[-106.371895,33.39062],[-106.34572,33.3906],[-105.931649,33.389905],[-105.733904,33.390671],[-105.727181,33.390638],[-105.725967,33.304839],[-105.381824,33.30543],[-105.317386,33.305982],[-105.316978,33.132308],[-105.108631,33.131747],[-105.074902,33.134213],[-105.006491,33.134406],[-104.905766,33.138909],[-104.90544,33.220945],[-104.903847,33.305909],[-104.885139,33.305832],[-104.885414,33.347315],[-104.885098,33.393276],[-104.892443,33.398204],[-104.892178,33.566382],[-104.892066,33.594687],[-104.891116,33.816811],[-104.894583,33.824436],[-104.893387,34.088413],[-104.891755,34.347049]]]}},
{"type":"Feature","id":"USA:ADM2:US-NM.curry","properties":{"shapeName":"Curry","shapeISO":"","shapeGroup":"USA","shapeType":"ADM2","adm1ISO":"US-NM","parentISO":"US-NM","parentID":"USA:ADM1:US-NM","src_shape_id":"52423323B94709577697602"},"geometry":{"type":"Polygon","coordinates":[[[-103.738175,34.604676],[-103.740075,34.303062],[-103.472741,34.303307],[-103.459829,34.303267],[-103.319644,34.303264],[-103.251997,34.303191],[-103.143579,34.302965],[-103.043945,34.302654],[-103.043988,34.312755],[-103.043955,34.379561],[-103.043623,34.384975],[-103.043547,34.405469],[-103.043603,34.462666],[-103.043081,34.619788],[-103.043295,34.653105],[-103.042836,34.671194],[-103.042778,34.747367],[-103.042779,34.79223],[-103.04279,34.850249],[-103.04253,34.899552],[-103.042562,34.954148],[-103.284158,34.954178],[-103.284326,34.864996],[-103.389807,34.865435],[-103.390283,34.778128],[-103.44304,34.778261],[-103.495655,34.778581],[-103.495662,34.691399],[-103.635255,34.691893],[-103.705797,34.692452],[-103.706097,34.605016],[-103.738175,34.604676]]]}}
]}