{"type":"FeatureCollection","bbox":[-104.048911,45.935062,-96.554516,49.00057], "features": [
{"type":"Feature","geometry":{"type":"Polygon","coordinates":[[[-100.069216,47.847309],[-100.069524,47.673658],[-100.032859,47.673629],[-100.033302,47.3272],[-99.480736,47.327084],[-99.26629,47.327202],[-99.265856,47.587626],[-99.26572,47.672977],[-99.297328,47.673012],[-99.297214,47.846819],[-99.812177,47.847265],[-100.069216,47.847309]]]},"properties":{"shapeName":"Wells","shapeISO":"52423323B624254264664","shapeGroup":"USA","shapeType":"ADM2","src_shape_id":"52423323B624254264664","adm1ISO":"US-ND"}},
{"type":"Feature","geometry":{"type":"Polygon","coordinates":[[[-98.467486,47.240461],[-98.46754,46.979602],[-98.439476,46.979666],[-98.439065,46.631128],[-98.033871,46.630735],[-97.682015,46.629936],[-97.681517,46.978489],[-97.706036,46.978566],[-97.706043,47.239986],[-97.961217,47.24052],[-98.467486,47.240461]]]},"properties":{"shapeName":"Barnes","shapeISO":"52423323B70837081191712","shapeGroup":"USA","shapeType":"ADM2","src_shape_id":"52423323B70837081191712","adm1ISO":"US-ND"}},
{"type":"Feature","geometry":{"type":"Polygon","coordinates":[[[-97.961217,47.24052],[-97.960477,47.326056],[-97.986594,47.326108],[-97.984333,47.666003],[-97.98482,47.672308],[-98.500191,47.672421],[-98.500095,47.587236],[-98.499256,47.326546],[-98.467297,47.326418],[-98.467486,47.240461],[-97.961217,47.24052]]]},"properties":{"shapeName":"Griggs","shapeISO":"52423323B60878721807061","shapeGroup":"USA","shapeType":"ADM2","src_shape_id":"52423323B60878721807061","adm1ISO":"US-ND"}},
{"type":"Feature","geometry":{"type":"Polygon","coordinates":[[[-98.439065,46.631128],[-99.036635,46.630219],[-99.037144,46.457376],[-99.037377,46.283159],[-99.003128,46.282906],[-98.661468,46.282771],[-98.502771,46.282935],[-98.034582,46.282804],[-98.033871,46.630735],[-98.439065,46.631128]]]},"properties":{"shapeName":"LaMoure","shapeISO":"52423323B85348929712808","shapeGroup":"USA","shapeType":"ADM2","src_shape_id":"52423323B85348929712808","adm1ISO":"US-ND"}},
{"type":"Feature","geometry":{"type":"Polygon","coordinates":[[[-97.706043,47.239986],[-97.451521,47.239069],[-97.451877,47.324476],[-97.474346,47.324784],[-97.472754,47.672059],[-97.496365,47.672067],[-97.882414,47.672187],[-97.98482,47.672308],[-97.984333,47.666003],[-97.986594,47.326108],[-97.960477,47.326056],[-97.961217,47.24052],[-97.706043,47.239986]]]},"properties":{"shapeName":"Steele","shapeISO":"52423323B76546880879751","shapeGroup":"USA","shapeType":"ADM2","src_shape_id":"52423323B76546880879751","adm1ISO":"US-ND"}},
{"type":"Feature","geometry":{"type":"Polygon","coordinates":[[[-100.033302,47.3272],[-100.113271,47.32727],[-100.114647,46.981674],[-100.075239,46.98129],[-100.076564,46.894143],[-100.081208,46.633404],[-99.915518,46.632933],[-99.44973,46.631638],[-99.446433,46.980897],[-99.481095,46.980702],[-99.480736,47.327084],[-100.033302,47.3272]]]},"properties":{"shapeName":"Kidder","shapeISO":"52423323B48688869895164","shapeGroup":"USA","shapeType":"ADM2","src_shape_id":"52423323B48688869895164","adm1ISO":"US-ND"}},
{"type":"Feature","geometry":{"type":"Polygon","coordinates":[[[-100.069216,47.847309],[-100.198006,47.847608],[-100.585171,47.847488],[-100.585116,47.67392],[-100.672418,47.674046],[-100.673295,47.327434],[-100.113271,47.32727],[-100.033302,47.3272],[-100.032859,47.673629],[-100.069524,47.673658],[-100.069216,47.847309]]]},"properties":{"shapeName":"Sheridan","shapeISO":"52423323B60934570924180","shapeGroup":"USA","shapeType":"ADM2","src_shape_id":"52423323B60934570924180","adm1ISO":"US-ND"}},
{"type":"Feature","geometry":{"type":"Polygon","coordinates":[[[-103.032692,46.980587],[-103.231002,46.980303],[-103.23158,46.629771],[-102.928014,46.630072],[-102.297382,46.630619],[-102.096595,46.631032],[-102.096249,46.717714],[-102.097215,46.980437],[-102.096685,46.981167],[-102.144888,46.981433],[-102.144781,47.010315],[-102.525474,47.010248],[-102.525473,46.981315],[-103.032692,46.980587]]]},"properties":{"shapeName":"Stark","shapeISO":"52423323B36823497446374","shapeGroup":"USA","shapeType":"ADM2","src_shape_id":"52423323B36823497446374","adm1ISO":"US-ND"}},
{"type":"Feature","geometry":{"type":"Polygon","coordinates":[[[-99.265856,47.587626],[-98.500095,47.587236],[-98.500191,47.672421],[-98.525188,47.672505],[-98.525526,47.846284],[-98.539094,47.846266],[-98.544786,47.847413],[-99.297214,47.846819],[-99.297328,47.673012],[-99.26572,47.672977],[-99.265856,47.587626]]]},"properties":{"shapeName":"Eddy","shapeISO":"52423323B20862519958454","shapeGroup":"USA","shapeType":"ADM2","src_shape_id":"52423323B20862519958454","adm1ISO":"US-ND"}},
{"type":"Feature","geometry":{"type":"Polygon","coordinates":[[[-97.682015,46.629936],[-97.304329,46.629364],[-97.279957,46.629356],[-97.052134,46.6299],[-97.032365,46.629923],[-96.798137,46.630334],[-96.791105,46.633163],[-96.789414,46.641647],[-96.790672,46.64912],[-96.796776,46.653371],[-96.798832,46.658079],[-96.798366,46.665322],[-96.793923,46.66922],[-96.792585,46.672181],[-96.793732,46.674951],[-96.792967,46.677435],[-96.788956,46.67839],[-96.788168,46.681887],[-96.784348,46.685062],[-96.784214,46.686776],[-96.78695,46.688228],[-96.78781,46.691189],[-96.786663,46.695869],[-96.78781,46.700454],[-96.791213,46.703755],[-96.786193,46.712848],[-96.78476,46.720503],[-96.779908,46.722923],[-96.779261,46.727437],[-96.784288,46.733001],[-96.781626,46.737205],[-96.781225,46.740952],[-96.78461,46.743102],[-96.785278,46.746254],[-96.783464,46.750361],[-96.783655,46.753131],[-96.787475,46.756761],[-96.786138,46.760964],[-96.783655,46.762587],[-96.785565,46.764402],[-96.784323,46.766981],[-96.784992,46.768796],[-96.788621,46.771279],[-96.788812,46.777583],[-96.79206,46.778347],[-96.792633,46.78064],[-96.791105,46.783696],[-96.793111,46.787708],[-96.796204,46.789889],[-96.797001,46.79158],[-96.795765,46.807803],[-96.801455,46.810409],[-96.802553,46.811529],[-96.799345,46.815444],[-96.800169,46.819672],[-96.797969,46.822372],[-96.791568,46.827872],[-96.787284,46.829067],[-96.789672,46.832314],[-96.785374,46.834033],[-96.783559,46.835944],[-96.783368,46.840815],[-96.779356,46.842152],[-96.780216,46.8454],[-96.777924,46.850749],[-96.782031,46.853423],[-96.781362,46.860491],[-96.78289,46.864598],[-96.780767,46.867171],[-96.779311,46.872707],[-96.779267,46.875971],[-96.781367,46.879371],[-96.780367,46.880171],[-96.775567,46.879171],[-96.771267,46.877471],[-96.768467,46.879571],[-96.767367,46.883671],[-96.773567,46.884771],[-96.776567,46.895671],[-96.773567,46.903571],[-96.770467,46.906771],[-96.765666,46.905071],[-96.763566,46.909471],[-96.763982,46.912515],[-96.76288,46.916894],[-96.75925,46.918231],[-96.760874,46.920905],[-96.76097,46.923866],[-96.759537,46.925777],[-96.761734,46.927305],[-96.76202,46.929311],[-96.760301,46.933418],[-96.763266,46.935071],[-96.775166,46.930871],[-96.780267,46.928271],[-96.783129,46.92549],[-96.785135,46.925777],[-96.786854,46.928929],[-96.790389,46.929406],[-96.79163,46.931221],[-96.791567,46.934272],[-96.790067,46.937672],[-96.791567,46.944472],[-96.792872,46.946026],[-96.797743,46.946408],[-96.799367,46.947363],[-96.798767,46.952996],[-96.799615,46.954324],[-96.799919,46.959236],[-96.798746,46.962407],[-96.799319,46.964126],[-96.802758,46.965941],[-96.809823,46.963908],[-96.819567,46.967461],[-96.821861,46.96938],[-96.822052,46.971099],[-96.819903,46.977365],[-96.822575,46.990149],[-96.824607,46.993317],[-96.823189,46.999973],[-96.827498,47.001619],[-96.831807,47.004361],[-96.83423,47.006679],[-96.832312,47.015192],[-96.833047,47.016037],[-96.829508,47.021545],[-96.826367,47.023213],[-96.819425,47.024922],[-96.817993,47.026546],[-96.82124,47.029985],[-96.821431,47.03285],[-96.818852,47.034187],[-96.818757,47.037626],[-96.820858,47.041446],[-96.818852,47.047082],[-96.81933,47.052908],[-96.822577,47.055869],[-96.824488,47.05969],[-96.824106,47.061505],[-96.821336,47.062938],[-96.8235,47.065919],[-96.824106,47.070674],[-96.820858,47.073826],[-96.821622,47.07631],[-96.819488,47.078189],[-96.819087,47.08116],[-96.820659,47.083627],[-96.819043,47.087581],[-96.820572,47.089778],[-96.818375,47.093312],[-96.818566,47.097896],[-96.819999,47.100857],[-96.818184,47.104201],[-96.818852,47.107162],[-96.822703,47.10963],[-96.820628,47.11372],[-96.821198,47.115731],[-96.827353,47.120152],[-96.825449,47.123362],[-96.824485,47.127196],[-96.82764,47.129512],[-96.828786,47.131518],[-96.82764,47.134766],[-96.828606,47.139808],[-96.832416,47.143744],[-96.830123,47.146801],[-96.831219,47.15053],[-96.828022,47.153964],[-96.822715,47.156237],[-96.824679,47.159027],[-96.822386,47.162752],[-96.8221,47.165044],[-96.824488,47.16705],[-96.824297,47.170871],[-96.825156,47.172303],[-96.829646,47.174978],[-96.829455,47.17727],[-96.826971,47.180136],[-96.826971,47.18281],[-96.83146,47.18558],[-96.832511,47.18835],[-96.831269,47.191789],[-96.833084,47.193604],[-96.838242,47.196374],[-96.838624,47.199621],[-96.837669,47.201149],[-96.832129,47.204874],[-96.835472,47.208409],[-96.833657,47.210414],[-96.833562,47.212802],[-96.836523,47.216145],[-96.83595,47.221017],[-96.838338,47.222067],[-96.838815,47.225028],[-96.835663,47.226557],[-96.837383,47.229262],[-96.837573,47.23181],[-96.836045,47.234007],[-96.833371,47.235058],[-96.833598,47.238045],[-97.451521,47.239069],[-97.706043,47.239986],[-97.706036,46.978566],[-97.681517,46.978489],[-97.682015,46.629936]]]},"properties":{"shapeName":"Cass","shapeISO":"52423323B23065259017698","shapeGroup":"USA","shapeType":"ADM2","src_shape_id":"52423323B23065259017698","adm1ISO":"US-ND"}},
{"type":"Feature","geometry":{"type":"Polygon","coordinates":[[[-99.26629,47.327202],[-98.499256,47.326546],[-98.500095,47.587236],[-99.265856,47.587626],[-99.26629,47.327202]]]},"properties":{"shapeName":"Foster","shapeISO":"52423323B95198922462079","shapeGroup":"USA","shapeType":"ADM2","src_shape_id":"52423323B95198922462079","adm1ISO":"US-ND"}},
{"type":"Feature","geometry":{"type":"Polygon","coordinates":[[[-99.52571,48.999267],[-99.525905,48.718392],[-99.493012,48.718367],[-99.493199,48.544842],[-99.492929,48.370954],[-99.200316,48.370666],[-98.970985,48.37048],[-98.970402,48.54424],[-98.970378,48.718097],[-98.9999,48.718137],[-98.999812,49.000014],[-99.010408,48.999817],[-99.263783,48.999467],[-99.52571,48.999267]]]},"properties":{"shapeName":"Towner","shapeISO":"52423323B68396918157782","shapeGroup":"USA","shapeType":"ADM2","src_shape_id":"52423323B68396918157782","adm1ISO":"US-ND"}},
{"type":"Feature","geometry":{"type":"Polygon","coordinates":[[[-97.279957,46.629356],[-97.280028,46.543067],[-97.280577,46.282329],[-97.259348,46.282205],[-97.259641,45.997193],[-97.228578,45.992468],[-97.2283,45.935149],[-97.144996,45.935286],[-97.118062,45.935493],[-97.103227,45.935999],[-97.00037,45.935241],[-96.998661,45.935708],[-96.894085,45.935562],[-96.805164,45.935439],[-96.791514,45.935865],[-96.701322,45.935815],[-96.659904,45.935568],[-96.639075,45.935326],[-96.618304,45.935415],[-96.597441,45.935217],[-96.563681,45.935253],[-96.562534,45.937095],[-96.561343,45.945663],[-96.562144,45.947726],[-96.564812,45.950357],[-96.570359,45.963603],[-96.572393,45.980239],[-96.572492,45.989585],[-96.573614,46.002317],[-96.575878,46.008007],[-96.574273,46.016553],[-96.576578,46.021854],[-96.577949,46.026882],[-96.573653,46.037919],[-96.566304,46.051424],[-96.560954,46.055423],[-96.55928,46.05828],[-96.556916,46.064838],[-96.55662,46.068928],[-96.558097,46.072104],[-96.554516,46.083986],[-96.556354,46.086888],[-96.556681,46.09724],[-96.559176,46.105032],[-96.563184,46.108003],[-96.566929,46.114758],[-96.56282,46.116258],[-96.563052,46.11952],[-96.570032,46.123764],[-96.571448,46.125728],[-96.57009,46.127045],[-96.569269,46.133694],[-96.574793,46.143154],[-96.579462,46.147609],[-96.580417,46.151242],[-96.577724,46.162805],[-96.578629,46.168143],[-96.582832,46.170913],[-96.584504,46.177131],[-96.586748,46.177313],[-96.587608,46.180083],[-96.587226,46.182757],[-96.588563,46.185241],[-96.588588,46.189697],[-96.587703,46.19527],[-96.584281,46.198061],[-96.583591,46.201055],[-96.586753,46.20992],[-96.591661,46.218191],[-96.595679,46.219858],[-96.597559,46.227741],[-96.598654,46.241634],[-96.598128,46.24312],[-96.592384,46.246084],[-96.590091,46.248663],[-96.590951,46.250191],[-96.594198,46.25172],[-96.593625,46.256687],[-96.595918,46.259934],[-96.599738,46.262131],[-96.596831,46.267921],[-96.595023,46.275143],[-96.598401,46.280088],[-96.59821,46.283144],[-96.596109,46.286105],[-96.596086,46.290544],[-96.600311,46.294415],[-96.598688,46.297758],[-96.601369,46.304138],[-96.598242,46.312571],[-96.598408,46.31449],[-96.601049,46.319562],[-96.59977,46.330394],[-96.601057,46.331147],[-96.608084,46.332584],[-96.614685,46.337426],[-96.62,46.340143],[-96.620463,46.341354],[-96.618156,46.344303],[-96.620799,46.347615],[-96.628531,46.349577],[-96.62922,46.352662],[-96.631595,46.35376],[-96.640276,46.351593],[-96.644344,46.351916],[-96.645968,46.35354],[-96.647305,46.358507],[-96.646541,46.362518],[-96.650727,46.363663],[-96.655215,46.365972],[-96.658018,46.37052],[-96.658445,46.373399],[-96.666037,46.374574],[-96.667198,46.375466],[-96.669803,46.384652],[-96.669141,46.390045],[-96.678516,46.404831],[-96.680696,46.407391],[-96.684843,46.407029],[-96.688091,46.407888],[-96.68895,46.413142],[-96.694299,46.414288],[-96.696592,46.415625],[-96.696401,46.418491],[-96.697929,46.420688],[-96.701367,46.420592],[-96.702323,46.42384],[-96.701176,46.426514],[-96.701654,46.428615],[-96.707003,46.430239],[-96.709104,46.435302],[-96.715504,46.436161],[-96.718656,46.439982],[-96.716447,46.444575],[-96.71665,46.447241],[-96.718178,46.448674],[-96.71856,46.451921],[-96.715602,46.453875],[-96.71487,46.45914],[-96.715566,46.46324],[-96.720423,46.468016],[-96.7209,46.471454],[-96.722429,46.472792],[-96.726727,46.474129],[-96.726923,46.47644],[-96.735132,46.478905],[-96.736374,46.480146],[-96.735037,46.483871],[-96.737138,46.485973],[-96.737807,46.489793],[-96.734579,46.494262],[-96.733621,46.497232],[-96.735508,46.49794],[-96.737711,46.500778],[-96.735897,46.506318],[-96.738571,46.509374],[-96.736156,46.513486],[-96.737417,46.517644],[-96.738484,46.525801],[-96.742029,46.529044],[-96.74435,46.533014],[-96.742248,46.536835],[-96.742344,46.538554],[-96.745018,46.540465],[-96.743012,46.542948],[-96.743586,46.544858],[-96.746356,46.546291],[-96.744541,46.551354],[-96.748839,46.558135],[-96.746642,46.560714],[-96.744445,46.565968],[-96.746451,46.574086],[-96.74817,46.575806],[-96.751609,46.576379],[-96.753042,46.578958],[-96.752087,46.582205],[-96.756958,46.583542],[-96.756671,46.585835],[-96.761829,46.588509],[-96.761829,46.592999],[-96.766605,46.597965],[-96.770235,46.598156],[-96.772455,46.600137],[-96.772097,46.606323],[-96.774772,46.607469],[-96.775631,46.609284],[-96.774103,46.613296],[-96.778497,46.616161],[-96.77907,46.620842],[-96.783941,46.621606],[-96.784824,46.629447],[-96.789959,46.631539],[-96.791105,46.633163],[-96.798137,46.630334],[-97.032365,46.629923],[-97.052134,46.6299],[-97.279957,46.629356]]]},"properties":{"shapeName":"Richland","shapeISO":"52423323B46553352512273","shapeGroup":"USA","shapeType":"ADM2","src_shape_id":"52423323B46553352512273","adm1ISO":"US-ND"}},
{"type":"Feature","geometry":{"type":"Polygon","coordinates":[[[-102.928014,46.630072],[-102.924558,46.281526],[-102.548214,46.282842],[-102.497459,46.283203],[-102.497485,46.206084],[-101.997898,46.205487],[-101.998079,46.283678],[-102.046939,46.283613],[-102.050996,46.630879],[-102.096595,46.631032],[-102.297382,46.630619],[-102.928014,46.630072]]]},"properties":{"shapeName":"Hettinger","shapeISO":"52423323B76867023232098","shapeGroup":"USA","shapeType":"ADM2","src_shape_id":"52423323B76867023232098","adm1ISO":"US-ND"}},
{"type":"Feature","geometry":{"type":"Polygon","coordinates":[[[-99.036635,46.630219],[-99.040387,46.630594],[-99.44973,46.631638],[-99.915518,46.632933],[-99.916768,46.283179],[-99.878441,46.282819],[-99.037377,46.283159],[-99.037144,46.457376],[-99.036635,46.630219]]]},"properties":{"shapeName":"Logan","shapeISO":"52423323B86928550468841","shapeGroup":"USA","shapeType":"ADM2","src_shape_id":"52423323B86928550468841","adm1ISO":"US-ND"}},
{"type":"Feature","geometry":{"type":"Polygon","coordinates":[[[-102.021666,48.807116],[-102.021439,48.720291],[-101.842152,48.720151],[-101.84198,48.459553],[-101.581923,48.459233],[-101.320823,48.458805],[-101.059812,48.458456],[-101.059671,48.545345],[-101.451286,48.546087],[-101.451436,48.720033],[-101.496695,48.720086],[-101.496748,48.999376],[-101.760188,48.999074],[-102.021156,48.998974],[-102.021666,48.807116]]]},"properties":{"shapeName":"Renville","shapeISO":"52423323B29134210824643","shapeGroup":"USA","shapeType":"ADM2","src_shape_id":"52423323B29134210824643","adm1ISO":"US-ND"}},
{"type":"Feature","geometry":{"type":"Polygon","coordinates":[[[-99.480736,47.327084],[-99.481095,46.980702],[-99.446433,46.980897],[-99.44973,46.631638],[-99.040387,46.630594],[-99.036635,46.630219],[-98.439065,46.631128],[-98.439476,46.979666],[-98.46754,46.979602],[-98.467486,47.240461],[-98.467297,47.326418],[-98.499256,47.326546],[-99.26629,47.327202],[-99.480736,47.327084]]]},"properties":{"shapeName":"Stutsman","shapeISO":"52423323B9912290141920","shapeGroup":"USA","shapeType":"ADM2","src_shape_id":"52423323B9912290141920","adm1ISO":"US-ND"}},
{"type":"Feature","geometry":{"type":"Polygon","coordinates":[[[-101.059671,48.545345],[-101.059635,48.632432],[-100.40679,48.631886],[-100.406398,48.544665],[-100.27667,48.544821],[-100.145868,48.545219],[-100.145504,48.718883],[-100.183044,48.718917],[-100.182717,48.999263],[-100.433991,48.999418],[-100.820447,48.999356],[-100.91903,48.99953],[-101.126525,48.999037],[-101.206664,48.999235],[-101.251526,48.999278],[-101.457828,48.999279],[-101.496748,48.999376],[-101.496695,48.720086],[-101.451436,48.720033],[-101.451286,48.546087],[-101.059671,48.545345]]]},"properties":{"shapeName":"Bottineau","shapeISO":"52423323B86057678992941","shapeGroup":"USA","shapeType":"ADM2","src_shape_id":"52423323B86057678992941","adm1ISO":"US-ND"}},
{"type":"Feature","geometry":{"type":"Polygon","coordinates":[[[-98.970402,48.54424],[-98.318108,48.543781],[-97.927164,48.543132],[-97.927421,48.717661],[-97.949587,48.717701],[-97.950214,49.00044],[-98.488714,49.00035],[-98.999812,49.000014],[-98.9999,48.718137],[-98.970378,48.718097],[-98.970402,48.54424]]]},"properties":{"shapeName":"Cavalier","shapeISO":"52423323B74139134626604","shapeGroup":"USA","shapeType":"ADM2","src_shape_id":"52423323B74139134626604","adm1ISO":"US-ND"}},
{"type":"Feature","geometry":{"type":"Polygon","coordinates":[[[-102.021156,48.998974],[-102.196718,48.998546],[-102.218084,48.998512],[-102.372516,48.998735],[-102.677661,48.999081],[-102.93879,48.999287],[-102.939943,48.720477],[-102.885697,48.720496],[-102.885786,48.633306],[-102.885774,48.546398],[-102.363421,48.546428],[-102.233903,48.546347],[-102.233611,48.720298],[-102.152556,48.720302],[-102.152175,48.807208],[-102.021666,48.807116],[-102.021156,48.998974]]]},"properties":{"shapeName":"Burke","shapeISO":"52423323B74352330437058","shapeGroup":"USA","shapeType":"ADM2","src_shape_id":"52423323B74352330437058","adm1ISO":"US-ND"}},
{"type":"Feature","geometry":{"type":"Polygon","coordinates":[[[-98.033871,46.630735],[-98.034582,46.282804],[-98.006724,46.282634],[-97.909268,46.282416],[-97.280577,46.282329],[-97.280028,46.543067],[-97.279957,46.629356],[-97.304329,46.629364],[-97.682015,46.629936],[-98.033871,46.630735]]]},"properties":{"shapeName":"Ransom","shapeISO":"52423323B99125508310727","shapeGroup":"USA","shapeType":"ADM2","src_shape_id":"52423323B99125508310727","adm1ISO":"US-ND"}},
{"type":"Feature","geometry":{"type":"Polygon","coordinates":[[[-97.280577,46.282329],[-97.909268,46.282416],[-98.006724,46.282634],[-98.008111,45.936103],[-97.978787,45.935945],[-97.958727,45.935886],[-97.784584,45.935335],[-97.777049,45.935401],[-97.6967,45.93536],[-97.542607,45.935266],[-97.518953,45.935312],[-97.481976,45.935146],[-97.318908,45.935062],[-97.228313,45.935149],[-97.2283,45.935149],[-97.228578,45.992468],[-97.259641,45.997193],[-97.259348,46.282205],[-97.280577,46.282329]]]},"properties":{"shapeName":"Sargent","shapeISO":"52423323B99155111830377","shapeGroup":"USA","shapeType":"ADM2","src_shape_id":"52423323B99155111830377","adm1ISO":"US-ND"}},
{"type":"Feature","geometry":{"type":"Polygon","coordinates":[[[-100.198006,47.847608],[-100.197568,48.021865],[-100.237102,48.021874],[-100.237342,48.371254],[-100.276411,48.371342],[-100.27667,48.544821],[-100.406398,48.544665],[-100.40679,48.631886],[-101.059635,48.632432],[-101.059671,48.545345],[-101.059812,48.458456],[-101.059925,48.371461],[-101.014148,48.37144],[-101.014329,48.283499],[-101.014793,48.109552],[-101.015034,48.022747],[-100.970507,48.022653],[-100.971335,47.848711],[-100.585171,47.847488],[-100.198006,47.847608]]]},"properties":{"shapeName":"McHenry","shapeISO":"52423323B92071804936124","shapeGroup":"USA","shapeType":"ADM2","src_shape_id":"52423323B92071804936124","adm1ISO":"US-ND"}},
{"type":"Feature","geometry":{"type":"Polygon","coordinates":[[[-99.52571,48.999267],[-99.723806,48.999067],[-100.166417,48.999254],[-100.182717,48.999263],[-100.183044,48.718917],[-100.145504,48.718883],[-100.145868,48.545219],[-99.493199,48.544842],[-99.493012,48.718367],[-99.525905,48.718392],[-99.52571,48.999267]]]},"properties":{"shapeName":"Rolette","shapeISO":"52423323B96885116348169","shapeGroup":"USA","shapeType":"ADM2","src_shape_id":"52423323B96885116348169","adm1ISO":"US-ND"}},
{"type":"Feature","geometry":{"type":"Polygon","coordinates":[[[-102.924558,46.281526],[-102.995465,46.28072],[-102.995678,45.945175],[-102.94208,45.945099],[-102.880262,45.945076],[-102.704881,45.945079],[-102.65163,45.945457],[-102.558589,45.945136],[-102.550957,45.945022],[-102.476034,45.94519],[-102.459596,45.945088],[-102.410356,45.945086],[-102.392706,45.944958],[-102.32824,45.944813],[-102.217877,45.944718],[-102.177003,45.944629],[-102.125439,45.944659],[-102.124638,45.94482],[-102.085132,45.944649],[-102.000689,45.944522],[-101.998629,45.944563],[-101.998585,46.053468],[-101.997898,46.205487],[-102.497485,46.206084],[-102.497459,46.283203],[-102.548214,46.282842],[-102.924558,46.281526]]]},"properties":{"shapeName":"Adams","shapeISO":"52423323B23495952860942","shapeGroup":"USA","shapeType":"ADM2","src_shape_id":"52423323B23495952860942","adm1ISO":"US-ND"}},
{"type":"Feature","geometry":{"type":"Polygon","coordinates":[[[-97.98482,47.672308],[-97.882414,47.672187],[-97.882189,48.020811],[-97.903609,48.020905],[-97.903444,48.194905],[-98.292194,48.195185],[-98.42211,48.194832],[-98.422669,48.021123],[-98.525619,48.021158],[-98.525565,47.915064],[-98.525526,47.846284],[-98.525188,47.672505],[-98.500191,47.672421],[-97.98482,47.672308]]]},"properties":{"shapeName":"Nelson","shapeISO":"52423323B93170673506058","shapeGroup":"USA","shapeType":"ADM2","src_shape_id":"52423323B93170673506058","adm1ISO":"US-ND"}},
{"type":"Feature","geometry":{"type":"Polygon","coordinates":[[[-102.144781,47.010315],[-102.144532,47.155883],[-102.144464,47.328087],[-102.205612,47.328079],[-102.205745,47.479835],[-102.205361,47.574514],[-102.231463,47.598314],[-102.252063,47.609914],[-102.265463,47.624315],[-102.263162,47.727116],[-102.285063,47.738816],[-102.291264,47.752816],[-102.261262,47.762116],[-102.262062,47.782017],[-102.335565,47.801118],[-102.358267,47.790618],[-102.375468,47.763517],[-102.385769,47.758016],[-102.41537,47.752017],[-102.472973,47.764918],[-102.499074,47.780018],[-102.561976,47.780119],[-102.624477,47.806421],[-102.642277,47.823721],[-102.642777,47.673919],[-102.784265,47.674313],[-103.099878,47.674424],[-103.099141,47.350401],[-103.099208,47.328722],[-103.03258,47.3287],[-103.032692,46.980587],[-102.525473,46.981315],[-102.525474,47.010248],[-102.144781,47.010315]]]},"properties":{"shapeName":"Dunn","shapeISO":"52423323B13029471752961","shapeGroup":"USA","shapeType":"ADM2","src_shape_id":"52423323B13029471752961","adm1ISO":"US-ND"}},
{"type":"Feature","geometry":{"type":"Polygon","coordinates":[[[-102.096249,46.717714],[-101.718165,46.718027],[-101.718115,46.631007],[-101.299281,46.63048],[-101.299,46.371459],[-101.048542,46.371401],[-101.048589,46.284688],[-101.025672,46.284227],[-101.015936,46.299809],[-101.016711,46.3204],[-100.995306,46.315548],[-100.97952,46.329701],[-100.957553,46.340059],[-100.960823,46.347692],[-100.941518,46.350026],[-100.939737,46.375005],[-100.929069,46.377829],[-100.91896,46.394991],[-100.895441,46.395968],[-100.884562,46.409104],[-100.883192,46.391049],[-100.869622,46.389171],[-100.857976,46.403003],[-100.853709,46.39544],[-100.814883,46.384709],[-100.805572,46.389824],[-100.77404,46.391715],[-100.769544,46.397906],[-100.724741,46.392559],[-100.720514,46.379753],[-100.709877,46.392837],[-100.691932,46.397935],[-100.686479,46.409745],[-100.665907,46.406329],[-100.626994,46.419018],[-100.60651,46.419402],[-100.590209,46.427902],[-100.598109,46.451302],[-100.586609,46.492702],[-100.578749,46.505564],[-100.545831,46.525199],[-100.544565,46.533774],[-100.587037,46.573443],[-100.565379,46.578457],[-100.561045,46.587855],[-100.568151,46.594033],[-100.62541,46.612192],[-100.6619,46.634458],[-100.641675,46.678399],[-100.675749,46.673744],[-100.728006,46.655707],[-100.745468,46.665793],[-100.748303,46.692554],[-100.778166,46.686494],[-100.797949,46.715602],[-100.778488,46.720037],[-100.779487,46.736579],[-100.805587,46.735479],[-100.834792,46.749139],[-100.839424,46.763784],[-100.819618,46.796452],[-100.818954,46.807912],[-100.833989,46.82196],[-100.858576,46.840238],[-100.861414,46.84348],[-100.875468,46.865147],[-100.903526,46.896513],[-100.907685,46.948675],[-100.933377,46.964416],[-100.935993,46.982848],[-101.575509,46.981248],[-101.764402,46.981314],[-102.096685,46.981167],[-102.097215,46.980437],[-102.096249,46.717714]]]},"properties":{"shapeName":"Morton","shapeISO":"52423323B52264110855151","shapeGroup":"USA","shapeType":"ADM2","src_shape_id":"52423323B52264110855151","adm1ISO":"US-ND"}},
{"type":"Feature","geometry":{"type":"Polygon","coordinates":[[[-97.472754,47.672059],[-96.891051,47.672157],[-96.896733,47.674766],[-96.899361,47.689481],[-96.90298,47.691584],[-96.907245,47.688501],[-96.909918,47.68953],[-96.910153,47.691243],[-96.907275,47.693984],[-96.911536,47.70052],[-96.915251,47.702377],[-96.914414,47.704822],[-96.915509,47.707976],[-96.920128,47.710391],[-96.9204,47.716535],[-96.923553,47.718209],[-96.923489,47.719817],[-96.91948,47.722523],[-96.91914,47.724739],[-96.925098,47.729059],[-96.930583,47.73436],[-96.932818,47.737147],[-96.93302,47.739957],[-96.929328,47.742996],[-96.928515,47.744892],[-96.92906,47.750339],[-96.934182,47.75242],[-96.932693,47.756812],[-96.937868,47.760203],[-96.938444,47.762419],[-96.936918,47.764544],[-96.939188,47.768405],[-96.949594,47.775236],[-96.956644,47.776196],[-96.95651,47.779806],[-96.965359,47.784945],[-96.961563,47.788715],[-96.957292,47.790155],[-96.957869,47.792029],[-96.963532,47.794609],[-96.966077,47.797305],[-96.97514,47.798334],[-96.976185,47.801552],[-96.980588,47.805622],[-96.980956,47.808345],[-96.977955,47.811627],[-96.9804,47.81567],[-96.980735,47.820419],[-96.979336,47.821817],[-96.979336,47.824541],[-96.982281,47.826676],[-96.981734,47.830429],[-96.986694,47.837647],[-96.992972,47.837919],[-96.998304,47.841732],[-96.996373,47.844406],[-96.996825,47.854413],[-96.998153,47.85889],[-97.005566,47.863985],[-97.001565,47.867385],[-97.005365,47.870185],[-97.017365,47.871586],[-97.021265,47.872586],[-97.023165,47.874986],[-97.018964,47.876886],[-97.017964,47.878486],[-97.019364,47.880286],[-97.023364,47.882086],[-97.025364,47.884286],[-97.024964,47.886886],[-97.019164,47.889786],[-97.018964,47.891086],[-97.024964,47.894986],[-97.023964,47.898086],[-97.020164,47.900486],[-97.020264,47.902186],[-97.024164,47.905286],[-97.023564,47.908486],[-97.020364,47.906386],[-97.017263,47.905686],[-97.015063,47.907186],[-97.015363,47.910286],[-97.017263,47.913086],[-97.023763,47.915886],[-97.018063,47.918086],[-97.017763,47.919786],[-97.029663,47.927586],[-97.035763,47.930187],[-97.037363,47.933287],[-97.035563,47.936587],[-97.036063,47.939387],[-97.039163,47.940487],[-97.044963,47.941087],[-97.051063,47.943387],[-97.054563,47.946287],[-97.055163,47.950787],[-97.052563,47.954787],[-97.052463,47.957187],[-97.054063,47.959687],[-97.061463,47.963588],[-97.061563,47.965888],[-97.057162,47.970488],[-97.059362,47.973988],[-97.053546,47.987956],[-97.053098,47.99026],[-97.054954,47.992932],[-97.062266,47.995956],[-97.064298,47.998516],[-97.066771,48.009566],[-97.063021,48.013187],[-97.063298,48.014997],[-97.069293,48.016184],[-97.072248,48.019115],[-97.07192,48.021403],[-97.06872,48.027702],[-97.07042,48.041773],[-97.072266,48.048076],[-97.07565,48.052733],[-97.082904,48.055802],[-97.086995,48.05823],[-97.097781,48.071088],[-97.103061,48.071677],[-97.104163,48.074586],[-97.10078,48.07746],[-97.09944,48.082114],[-97.099807,48.085892],[-97.102174,48.08913],[-97.105235,48.090448],[-97.105484,48.092788],[-97.103888,48.094525],[-97.104881,48.097859],[-97.108437,48.099832],[-97.109544,48.104731],[-97.113203,48.106196],[-97.119782,48.105389],[-97.123214,48.106656],[-97.123144,48.109505],[-97.121049,48.112289],[-97.121595,48.116933],[-97.126871,48.124285],[-97.128288,48.127193],[-97.129462,48.133141],[-97.132185,48.135837],[-97.131965,48.139571],[-97.134308,48.141841],[-97.14141,48.143598],[-97.142288,48.148064],[-97.140304,48.150902],[-97.13892,48.155312],[-97.139652,48.159119],[-97.144251,48.162498],[-97.146754,48.168564],[-97.145711,48.173231],[-97.142361,48.176617],[-97.141849,48.181742],[-97.144631,48.183207],[-97.146242,48.186062],[-97.141242,48.19361],[-97.87248,48.194938],[-97.878464,48.19511],[-97.903444,48.194905],[-97.903609,48.020905],[-97.882189,48.020811],[-97.882414,47.672187],[-97.496365,47.672067],[-97.472754,47.672059]]]},"properties":{"shapeName":"Grand Forks","shapeISO":"52423323B50078487315509","shapeGroup":"USA","shapeType":"ADM2","src_shape_id":"52423323B50078487315509","adm1ISO":"US-ND"}},
{"type":"Feature","geometry":{"type":"Polygon","coordinates":[[[-100.113271,47.32727],[-100.673295,47.327434],[-100.749344,47.327693],[-100.74938,47.157253],[-100.965063,47.15652],[-100.944726,47.1395],[-100.937493,47.093637],[-100.925465,47.076906],[-100.884251,47.047292],[-100.880497,47.019421],[-100.895739,47.002721],[-100.935993,46.982848],[-100.933377,46.964416],[-100.907685,46.948675],[-100.903526,46.896513],[-100.875468,46.865147],[-100.861414,46.84348],[-100.858576,46.840238],[-100.833989,46.82196],[-100.818954,46.807912],[-100.819618,46.796452],[-100.839424,46.763784],[-100.834792,46.749139],[-100.805587,46.735479],[-100.779487,46.736579],[-100.778488,46.720037],[-100.797949,46.715602],[-100.778166,46.686494],[-100.748303,46.692554],[-100.745468,46.665793],[-100.728006,46.655707],[-100.675749,46.673744],[-100.641675,46.678399],[-100.6619,46.634458],[-100.081208,46.633404],[-100.076564,46.894143],[-100.075239,46.98129],[-100.114647,46.981674],[-100.113271,47.32727]]]},"properties":{"shapeName":"Burleigh","shapeISO":"52423323B75133574344854","shapeGroup":"USA","shapeType":"ADM2","src_shape_id":"52423323B75133574344854","adm1ISO":"US-ND"}},
{"type":"Feature","geometry":{"type":"Polygon","coordinates":[[[-97.927164,48.543132],[-97.666268,48.543196],[-97.161286,48.542514],[-97.1631,48.543972],[-97.162726,48.546773],[-97.160872,48.549244],[-97.1558,48.551181],[-97.153456,48.551222],[-97.15222,48.553941],[-97.156422,48.557154],[-97.158771,48.56012],[-97.158647,48.564075],[-97.157411,48.565929],[-97.151647,48.567638],[-97.149625,48.569884],[-97.148883,48.575075],[-97.149749,48.579524],[-97.148438,48.581036],[-97.144931,48.58146],[-97.142924,48.583741],[-97.141594,48.590828],[-97.14394,48.594602],[-97.143693,48.597074],[-97.14085,48.60004],[-97.138255,48.604242],[-97.137389,48.607332],[-97.138255,48.609309],[-97.136154,48.613264],[-97.131457,48.614006],[-97.131334,48.619073],[-97.130098,48.621174],[-97.125648,48.620927],[-97.124042,48.623275],[-97.125896,48.626983],[-97.125278,48.629702],[-97.120828,48.631061],[-97.115052,48.629829],[-97.111568,48.630274],[-97.108475,48.632666],[-97.10966,48.638896],[-97.11193,48.642926],[-97.107823,48.647736],[-97.105919,48.65264],[-97.101799,48.656302],[-97.10056,48.658622],[-97.100683,48.661959],[-97.102661,48.664801],[-97.100018,48.667934],[-97.09982,48.671385],[-97.100683,48.679632],[-97.097717,48.683958],[-97.098706,48.687542],[-97.108664,48.691492],[-97.118295,48.700581],[-97.119036,48.7033],[-97.116935,48.70503],[-97.116194,48.709356],[-97.121262,48.713601],[-97.124337,48.719174],[-97.126407,48.721109],[-97.134238,48.725175],[-97.136092,48.727771],[-97.135103,48.729748],[-97.13535,48.734568],[-97.139005,48.736662],[-97.13962,48.738137],[-97.139497,48.746619],[-97.143185,48.750921],[-97.150069,48.754732],[-97.151298,48.757436],[-97.147487,48.763706],[-97.147487,48.766041],[-97.155232,48.775507],[-97.153265,48.781039],[-97.157813,48.784112],[-97.157102,48.790032],[-97.158111,48.791153],[-97.162968,48.792938],[-97.163708,48.799521],[-97.16593,48.8038],[-97.164883,48.807137],[-97.165633,48.809635],[-97.168506,48.81101],[-97.174054,48.812116],[-97.177054,48.814132],[-97.180037,48.818458],[-97.177756,48.824823],[-97.181,48.829],[-97.180375,48.834373],[-97.175736,48.836166],[-97.17382,48.838317],[-97.174364,48.842627],[-97.177252,48.846491],[-97.175627,48.849865],[-97.175627,48.853113],[-97.179081,48.856874],[-97.180126,48.861609],[-97.182375,48.863733],[-97.185498,48.864857],[-97.187372,48.867606],[-97.185748,48.872228],[-97.187747,48.874602],[-97.190496,48.875602],[-97.197992,48.880349],[-97.198867,48.882223],[-97.197867,48.886846],[-97.199991,48.891094],[-97.198117,48.893967],[-97.197992,48.89834],[-97.198867,48.899839],[-97.207698,48.902637],[-97.210551,48.904398],[-97.212716,48.908151],[-97.210819,48.913958],[-97.211171,48.916657],[-97.212936,48.918041],[-97.218002,48.919743],[-97.219195,48.924868],[-97.217473,48.927667],[-97.218676,48.931789],[-97.224515,48.934108],[-97.226404,48.938659],[-97.226833,48.943553],[-97.227864,48.945872],[-97.232157,48.948963],[-97.232329,48.950509],[-97.230869,48.958237],[-97.230869,48.960899],[-97.232501,48.963905],[-97.237551,48.965349],[-97.239219,48.968692],[-97.238035,48.975151],[-97.238397,48.982639],[-97.237307,48.985704],[-97.234224,48.988974],[-97.230843,48.991311],[-97.230413,48.993374],[-97.231407,48.99722],[-97.228732,49.00057],[-97.412306,49.000469],[-97.950214,49.00044],[-97.949587,48.717701],[-97.927421,48.717661],[-97.927164,48.543132]]]},"properties":{"shapeName":"Pembina","shapeISO":"52423323B24684286646871","shapeGroup":"USA","shapeType":"ADM2","src_shape_id":"52423323B24684286646871","adm1ISO":"US-ND"}},
{"type":"Feature","geometry":{"type":"Polygon","coordinates":[[[-97.451521,47.239069],[-96.833598,47.238045],[-96.837669,47.240884],[-96.838242,47.24289],[-96.834899,47.246424],[-96.835377,47.250436],[-96.840152,47.25311],[-96.839866,47.255498],[-96.841681,47.258172],[-96.840726,47.261229],[-96.84254,47.262853],[-96.842063,47.265336],[-96.839866,47.266005],[-96.83977,47.268775],[-96.843209,47.270494],[-96.840229,47.276989],[-96.841474,47.284049],[-96.844097,47.289989],[-96.843931,47.293028],[-96.832893,47.304498],[-96.832893,47.307077],[-96.835744,47.310851],[-96.84254,47.312426],[-96.841967,47.316915],[-96.837,47.318825],[-96.835854,47.321022],[-96.836618,47.323983],[-96.835186,47.328568],[-96.838338,47.331051],[-96.838529,47.332388],[-96.835854,47.335922],[-96.836618,47.338692],[-96.840595,47.340964],[-96.844021,47.34619],[-96.845167,47.349438],[-96.843448,47.354405],[-96.846886,47.356793],[-96.849274,47.359849],[-96.849465,47.36367],[-96.852426,47.366249],[-96.849561,47.368255],[-96.848916,47.370573],[-96.853763,47.373413],[-96.852685,47.374981],[-96.84894,47.375371],[-96.846934,47.376899],[-96.845597,47.381579],[-96.841108,47.384158],[-96.840726,47.391322],[-96.845501,47.394187],[-96.845119,47.400491],[-96.84808,47.403166],[-96.852748,47.405917],[-96.853334,47.408897],[-96.858103,47.410325],[-96.861842,47.414345],[-96.86124,47.417818],[-96.863602,47.418783],[-96.86427,47.42098],[-96.85959,47.424036],[-96.85873,47.426137],[-96.860641,47.427666],[-96.860832,47.430245],[-96.858539,47.433397],[-96.860068,47.435689],[-96.857489,47.440465],[-96.859546,47.44567],[-96.859248,47.451565],[-96.858157,47.454506],[-96.859686,47.456034],[-96.85959,47.458708],[-96.857489,47.460237],[-96.85682,47.463198],[-96.859564,47.466873],[-96.859877,47.470934],[-96.859112,47.472845],[-96.855865,47.47571],[-96.855005,47.479626],[-96.858157,47.481632],[-96.858539,47.483925],[-96.856151,47.485548],[-96.855865,47.488318],[-96.858539,47.489942],[-96.857966,47.492521],[-96.851662,47.497106],[-96.8518,47.49876],[-96.853326,47.50133],[-96.853061,47.506836],[-96.851758,47.510096],[-96.854213,47.514376],[-96.858463,47.5149],[-96.863254,47.517274],[-96.86356,47.520312],[-96.866372,47.524901],[-96.864748,47.527671],[-96.860533,47.529544],[-96.854719,47.535981],[-96.856725,47.540279],[-96.854623,47.542858],[-96.854432,47.545341],[-96.856438,47.546965],[-96.856247,47.548971],[-96.853764,47.552505],[-96.855101,47.554606],[-96.858011,47.556586],[-96.859162,47.559749],[-96.856861,47.563296],[-96.858682,47.564542],[-96.858778,47.567418],[-96.85667,47.567897],[-96.853698,47.570389],[-96.855903,47.57336],[-96.856382,47.575757],[-96.853282,47.579491],[-96.851302,47.589272],[-96.851973,47.591477],[-96.854752,47.594736],[-96.852835,47.597899],[-96.853794,47.599816],[-96.856912,47.602337],[-96.854821,47.606336],[-96.857121,47.610768],[-96.860264,47.612183],[-96.87368,47.613662],[-96.874087,47.614782],[-96.87088,47.61805],[-96.876364,47.619189],[-96.879505,47.620584],[-96.882402,47.633497],[-96.888582,47.638458],[-96.888175,47.639738],[-96.882866,47.641722],[-96.882385,47.649033],[-96.886979,47.653057],[-96.887616,47.658861],[-96.885582,47.663451],[-96.887135,47.666377],[-96.889636,47.668595],[-96.891051,47.672157],[-97.472754,47.672059],[-97.474346,47.324784],[-97.451877,47.324476],[-97.451521,47.239069]]]},"properties":{"shapeName":"Traill","shapeISO":"52423323B89415908777335","shapeGroup":"USA","shapeType":"ADM2","src_shape_id":"52423323B89415908777335","adm1ISO":"US-ND"}},
{"type":"Feature","geometry":{"type":"Polygon","coordinates":[[[-99.037377,46.283159],[-99.878441,46.282819],[-99.880072,45.941678],[-99.83869,45.941301],[-99.750406,45.940943],[-99.718083,45.940915],[-99.671948,45.94107],[-99.58879,45.941112],[-99.490264,45.94037],[-99.40127,45.940375],[-99.378496,45.940411],[-99.257755,45.940068],[-99.212581,45.940116],[-99.092878,45.940192],[-99.005764,45.939952],[-99.003128,46.282906],[-99.037377,46.283159]]]},"properties":{"shapeName":"McIntosh","shapeISO":"52423323B18464688172612","shapeGroup":"USA","shapeType":"ADM2","src_shape_id":"52423323B18464688172612","adm1ISO":"US-ND"}},
{"type":"Feature","geometry":{"type":"Polygon","coordinates":[[[-100.935993,46.982848],[-100.895739,47.002721],[-100.880497,47.019421],[-100.884251,47.047292],[-100.925465,47.076906],[-100.937493,47.093637],[-100.944726,47.1395],[-100.965063,47.15652],[-100.983229,47.1737],[-100.99283,47.204],[-100.97623,47.2343],[-100.977639,47.25],[-101.002832,47.2715],[-101.034633,47.286401],[-101.060434,47.293301],[-101.106436,47.295302],[-101.18388,47.279076],[-101.195273,47.248813],[-101.215452,47.248488],[-101.257041,47.264903],[-101.257954,47.241355],[-101.764429,47.241431],[-101.764402,46.981314],[-101.575509,46.981248],[-100.935993,46.982848]]]},"properties":{"shapeName":"Oliver","shapeISO":"52423323B97337379799338","shapeGroup":"USA","shapeType":"ADM2","src_shape_id":"52423323B97337379799338","adm1ISO":"US-ND"}},
{"type":"Feature","geometry":{"type":"Polygon","coordinates":[[[-102.885774,48.546398],[-102.885748,48.372586],[-102.828072,48.372928],[-102.828205,48.284146],[-102.828488,48.123672],[-102.794801,48.119138],[-102.762325,48.12997],[-102.737571,48.116616],[-102.741646,48.100768],[-102.758344,48.0951],[-102.733173,48.088326],[-102.703672,48.087926],[-102.663498,48.076659],[-102.668052,48.050867],[-102.654695,48.03926],[-102.639777,48.037128],[-102.608371,48.046359],[-102.599416,48.037254],[-102.593873,48.011627],[-102.552992,47.998654],[-102.565913,47.969036],[-102.610473,47.939124],[-102.647875,47.901623],[-102.656176,47.860822],[-102.642277,47.823721],[-102.624477,47.806421],[-102.561976,47.780119],[-102.499074,47.780018],[-102.472973,47.764918],[-102.41537,47.752017],[-102.385769,47.758016],[-102.385576,47.847758],[-101.871873,47.847597],[-101.871548,48.023184],[-101.922134,48.023181],[-101.922248,48.372338],[-101.97341,48.372103],[-101.973333,48.547141],[-102.233903,48.546347],[-102.363421,48.546428],[-102.885774,48.546398]]]},"properties":{"shapeName":"Mountrail","shapeISO":"52423323B97339274287027","shapeGroup":"USA","shapeType":"ADM2","src_shape_id":"52423323B97339274287027","adm1ISO":"US-ND"}},
{"type":"Feature","geometry":{"type":"Polygon","coordinates":[[[-102.885786,48.633306],[-102.894866,48.63344],[-102.907642,48.633091],[-103.798831,48.633511],[-104.047593,48.633992],[-104.047941,48.620198],[-104.048223,48.599063],[-104.047985,48.591614],[-104.047794,48.539745],[-104.047524,48.525921],[-104.048065,48.500033],[-104.047566,48.494148],[-104.047403,48.467094],[-104.047101,48.445911],[-104.046971,48.421073],[-104.047145,48.411065],[-104.046922,48.389308],[-104.046665,48.374781],[-104.046382,48.374162],[-104.046343,48.342298],[-104.04605,48.256769],[-104.045703,48.241423],[-104.045509,48.176257],[-104.04541,48.164398],[-104.044131,47.996115],[-104.03577,47.99414],[-104.020408,47.988238],[-104.014422,47.980442],[-104.01158,47.971421],[-103.996783,47.96872],[-103.98741,47.974314],[-103.986248,47.979859],[-103.963197,47.984728],[-103.945896,47.977328],[-103.931196,47.964528],[-103.912295,47.957528],[-103.894523,47.961523],[-103.869364,47.972798],[-103.85694,47.99405],[-103.860999,48.004356],[-103.84701,48.009805],[-103.826466,47.997023],[-103.825755,47.988139],[-103.804267,47.99126],[-103.792167,48.011632],[-103.797775,48.038969],[-103.769093,48.055275],[-103.73657,48.045408],[-103.719905,48.05212],[-103.729614,48.077249],[-103.716675,48.109333],[-103.701188,48.116231],[-103.678687,48.122331],[-103.660587,48.119231],[-103.646486,48.112031],[-103.630086,48.112232],[-103.620285,48.117332],[-103.611085,48.124532],[-103.603882,48.132071],[-103.587016,48.131058],[-103.586784,48.123732],[-103.598285,48.118632],[-103.605585,48.115932],[-103.607985,48.109932],[-103.604285,48.106432],[-103.589324,48.094836],[-103.580384,48.091132],[-103.569684,48.088232],[-103.559884,48.087332],[-103.554442,48.087553],[-103.547583,48.084232],[-103.549584,48.080332],[-103.559184,48.071932],[-103.572984,48.064732],[-103.583385,48.056432],[-103.585285,48.046632],[-103.580185,48.040532],[-103.569385,48.035732],[-103.557084,48.034232],[-103.545484,48.034232],[-103.534484,48.035333],[-103.525483,48.033333],[-103.519983,48.025733],[-103.515483,48.018233],[-103.508883,48.010733],[-103.500483,48.005866],[-103.485083,48.006733],[-103.467882,48.019433],[-103.443681,48.028733],[-103.419981,48.035632],[-103.39338,48.027332],[-103.37438,48.025332],[-103.354279,48.029432],[-103.335179,48.036032],[-103.323578,48.039632],[-103.312378,48.042031],[-103.303378,48.041131],[-103.295977,48.039631],[-103.290577,48.039631],[-103.283977,48.042931],[-103.280177,48.047731],[-103.277677,48.057031],[-103.272877,48.061031],[-103.267777,48.062131],[-103.261676,48.062631],[-103.247876,48.060331],[-103.234876,48.061931],[-103.226689,48.070735],[-103.230676,48.08093],[-103.242876,48.08483],[-103.253631,48.091234],[-103.250476,48.09493],[-103.201901,48.135216],[-103.122535,48.143394],[-103.092986,48.131867],[-103.003795,48.132308],[-102.964699,48.137967],[-102.933189,48.127126],[-102.899711,48.123286],[-102.866773,48.137028],[-102.833673,48.126428],[-102.828488,48.123672],[-102.828205,48.284146],[-102.828072,48.372928],[-102.885748,48.372586],[-102.885774,48.546398],[-102.885786,48.633306]]]},"properties":{"shapeName":"Williams","shapeISO":"52423323B9196090230965","shapeGroup":"USA","shapeType":"ADM2","src_shape_id":"52423323B9196090230965","adm1ISO":"US-ND"}},
{"type":"Feature","geometry":{"type":"Polygon","coordinates":[[[-102.096685,46.981167],[-101.764402,46.981314],[-101.764429,47.241431],[-101.257954,47.241355],[-101.257041,47.264903],[-101.283843,47.278304],[-101.345745,47.291905],[-101.356645,47.324806],[-101.362546,47.368006],[-101.375446,47.373006],[-101.402547,47.402307],[-101.412348,47.435507],[-101.437648,47.458889],[-101.440149,47.477307],[-101.420149,47.494407],[-101.387176,47.507469],[-101.370876,47.518704],[-101.372383,47.527382],[-101.396562,47.537798],[-101.428047,47.561994],[-101.45418,47.563167],[-101.479664,47.555422],[-101.498715,47.556361],[-101.567795,47.536526],[-101.641706,47.528387],[-101.707547,47.538286],[-101.741837,47.529237],[-101.813859,47.49651],[-101.835838,47.495482],[-101.867305,47.504123],[-101.892028,47.505141],[-101.923662,47.523337],[-101.962858,47.537898],[-102.01836,47.535912],[-102.03026,47.540212],[-102.021659,47.559612],[-102.036659,47.572713],[-102.06226,47.569413],[-102.07626,47.573813],[-102.161262,47.565413],[-102.205361,47.574514],[-102.205745,47.479835],[-102.205612,47.328079],[-102.144464,47.328087],[-102.144532,47.155883],[-102.144781,47.010315],[-102.144888,46.981433],[-102.096685,46.981167]]]},"properties":{"shapeName":"Mercer","shapeISO":"52423323B83406409622886","shapeGroup":"USA","shapeType":"ADM2","src_shape_id":"52423323B83406409622886","adm1ISO":"US-ND"}},
{"type":"Feature","geometry":{"type":"Polygon","coordinates":[[[-102.021666,48.807116],[-102.152175,48.807208],[-102.152556,48.720302],[-102.233611,48.720298],[-102.233903,48.546347],[-101.973333,48.547141],[-101.97341,48.372103],[-101.922248,48.372338],[-101.922134,48.023181],[-101.871548,48.023184],[-101.871873,47.847597],[-101.099892,47.848447],[-100.971335,47.848711],[-100.970507,48.022653],[-101.015034,48.022747],[-101.014793,48.109552],[-101.014329,48.283499],[-101.014148,48.37144],[-101.059925,48.371461],[-101.059812,48.458456],[-101.320823,48.458805],[-101.581923,48.459233],[-101.84198,48.459553],[-101.842152,48.720151],[-102.021439,48.720291],[-102.021666,48.807116]]]},"properties":{"shapeName":"Ward","shapeISO":"52423323B63405803062554","shapeGroup":"USA","shapeType":"ADM2","src_shape_id":"52423323B63405803062554","adm1ISO":"US-ND"}},
{"type":"Feature","geometry":{"type":"Polygon","coordinates":[[[-102.642277,47.823721],[-102.656176,47.860822],[-102.647875,47.901623],[-102.610473,47.939124],[-102.565913,47.969036],[-102.552992,47.998654],[-102.593873,48.011627],[-102.599416,48.037254],[-102.608371,48.046359],[-102.639777,48.037128],[-102.654695,48.03926],[-102.668052,48.050867],[-102.663498,48.076659],[-102.703672,48.087926],[-102.733173,48.088326],[-102.758344,48.0951],[-102.741646,48.100768],[-102.737571,48.116616],[-102.762325,48.12997],[-102.794801,48.119138],[-102.828488,48.123672],[-102.833673,48.126428],[-102.866773,48.137028],[-102.899711,48.123286],[-102.933189,48.127126],[-102.964699,48.137967],[-103.003795,48.132308],[-103.092986,48.131867],[-103.122535,48.143394],[-103.201901,48.135216],[-103.250476,48.09493],[-103.253631,48.091234],[-103.242876,48.08483],[-103.230676,48.08093],[-103.226689,48.070735],[-103.234876,48.061931],[-103.247876,48.060331],[-103.261676,48.062631],[-103.267777,48.062131],[-103.272877,48.061031],[-103.277677,48.057031],[-103.280177,48.047731],[-103.283977,48.042931],[-103.290577,48.039631],[-103.295977,48.039631],[-103.303378,48.041131],[-103.312378,48.042031],[-103.323578,48.039632],[-103.335179,48.036032],[-103.354279,48.029432],[-103.37438,48.025332],[-103.39338,48.027332],[-103.419981,48.035632],[-103.443681,48.028733],[-103.467882,48.019433],[-103.485083,48.006733],[-103.500483,48.005866],[-103.508883,48.010733],[-103.515483,48.018233],[-103.519983,48.025733],[-103.525483,48.033333],[-103.534484,48.035333],[-103.545484,48.034232],[-103.557084,48.034232],[-103.569385,48.035732],[-103.580185,48.040532],[-103.585285,48.046632],[-103.583385,48.056432],[-103.572984,48.064732],[-103.559184,48.071932],[-103.549584,48.080332],[-103.547583,48.084232],[-103.554442,48.087553],[-103.559884,48.087332],[-103.569684,48.088232],[-103.580384,48.091132],[-103.589324,48.094836],[-103.604285,48.106432],[-103.607985,48.109932],[-103.605585,48.115932],[-103.598285,48.118632],[-103.586784,48.123732],[-103.587016,48.131058],[-103.603882,48.132071],[-103.611085,48.124532],[-103.620285,48.117332],[-103.630086,48.112232],[-103.646486,48.112031],[-103.660587,48.119231],[-103.678687,48.122331],[-103.701188,48.116231],[-103.716675,48.109333],[-103.729614,48.077249],[-103.719905,48.05212],[-103.73657,48.045408],[-103.769093,48.055275],[-103.797775,48.038969],[-103.792167,48.011632],[-103.804267,47.99126],[-103.825755,47.988139],[-103.826466,47.997023],[-103.84701,48.009805],[-103.860999,48.004356],[-103.85694,47.99405],[-103.869364,47.972798],[-103.894523,47.961523],[-103.912295,47.957528],[-103.931196,47.964528],[-103.945896,47.977328],[-103.963197,47.984728],[-103.986248,47.979859],[-103.98741,47.974314],[-103.996783,47.96872],[-104.01158,47.971421],[-104.014422,47.980442],[-104.020408,47.988238],[-104.03577,47.99414],[-104.044131,47.996115],[-104.043944,47.971523],[-104.04334,47.949562],[-104.041673,47.862289],[-104.04188,47.841706],[-104.042578,47.808244],[-104.042395,47.803263],[-104.043253,47.747113],[-104.043753,47.625023],[-104.044252,47.612295],[-104.043923,47.603236],[-104.04412,47.523602],[-104.044808,47.438452],[-104.045076,47.397081],[-104.044874,47.375022],[-104.045344,47.343459],[-104.045318,47.330135],[-103.666734,47.329361],[-103.099208,47.328722],[-103.099141,47.350401],[-103.099878,47.674424],[-102.784265,47.674313],[-102.642777,47.673919],[-102.642277,47.823721]]]},"properties":{"shapeName":"McKenzie","shapeISO":"52423323B35448642149911","shapeGroup":"USA","shapeType":"ADM2","src_shape_id":"52423323B35448642149911","adm1ISO":"US-ND"}},
{"type":"Feature","geometry":{"type":"Polygon","coordinates":[[[-104.045109,46.540937],[-103.800892,46.540754],[-103.800836,46.62957],[-103.609221,46.629804],[-103.609556,46.979909],[-103.666997,46.979796],[-103.666734,47.329361],[-104.045318,47.330135],[-104.045132,47.276976],[-104.045528,47.215673],[-104.044799,47.127437],[-104.045092,47.09282],[-104.045029,47.081209],[-104.045365,47.078581],[-104.045087,47.037596],[-104.045577,46.941238],[-104.045553,46.933894],[-104.045912,46.830797],[-104.045413,46.72543],[-104.045485,46.708745],[-104.045282,46.641509],[-104.045109,46.540937]]]},"properties":{"shapeName":"Golden Valley","shapeISO":"52423323B64465165831461","shapeGroup":"USA","shapeType":"ADM2","src_shape_id":"52423323B64465165831461","adm1ISO":"US-ND"}},
{"type":"Feature","geometry":{"type":"Polygon","coordinates":[[[-99.812177,47.847265],[-99.812143,48.021459],[-99.848175,48.021544],[-99.846623,48.371306],[-99.492929,48.370954],[-99.493199,48.544842],[-100.145868,48.545219],[-100.27667,48.544821],[-100.276411,48.371342],[-100.237342,48.371254],[-100.237102,48.021874],[-100.197568,48.021865],[-100.198006,47.847608],[-100.069216,47.847309],[-99.812177,47.847265]]]},"properties":{"shapeName":"Pierce","shapeISO":"52423323B9617880676259","shapeGroup":"USA","shapeType":"ADM2","src_shape_id":"52423323B9617880676259","adm1ISO":"US-ND"}},
{"type":"Feature","geometry":{"type":"Polygon","coordinates":[[[-99.003128,46.282906],[-99.005764,45.939952],[-98.904438,45.939528],[-98.724384,45.938694],[-98.625388,45.938236],[-98.507015,45.937268],[-98.414527,45.936512],[-98.184646,45.936191],[-98.070524,45.936188],[-98.008111,45.936103],[-98.006724,46.282634],[-98.034582,46.282804],[-98.502771,46.282935],[-98.661468,46.282771],[-99.003128,46.282906]]]},"properties":{"shapeName":"Dickey","shapeISO":"52423323B72146276319196","shapeGroup":"USA","shapeType":"ADM2","src_shape_id":"52423323B72146276319196","adm1ISO":"US-ND"}},
{"type":"Feature","geometry":{"type":"Polygon","coordinates":[[[-100.585171,47.847488],[-100.971335,47.848711],[-101.099892,47.848447],[-101.871873,47.847597],[-102.385576,47.847758],[-102.385769,47.758016],[-102.375468,47.763517],[-102.358267,47.790618],[-102.335565,47.801118],[-102.262062,47.782017],[-102.261262,47.762116],[-102.291264,47.752816],[-102.285063,47.738816],[-102.263162,47.727116],[-102.265463,47.624315],[-102.252063,47.609914],[-102.231463,47.598314],[-102.205361,47.574514],[-102.161262,47.565413],[-102.07626,47.573813],[-102.06226,47.569413],[-102.036659,47.572713],[-102.021659,47.559612],[-102.03026,47.540212],[-102.01836,47.535912],[-101.962858,47.537898],[-101.923662,47.523337],[-101.892028,47.505141],[-101.867305,47.504123],[-101.835838,47.495482],[-101.813859,47.49651],[-101.741837,47.529237],[-101.707547,47.538286],[-101.641706,47.528387],[-101.567795,47.536526],[-101.498715,47.556361],[-101.479664,47.555422],[-101.45418,47.563167],[-101.428047,47.561994],[-101.396562,47.537798],[-101.372383,47.527382],[-101.370876,47.518704],[-101.387176,47.507469],[-101.420149,47.494407],[-101.440149,47.477307],[-101.437648,47.458889],[-101.412348,47.435507],[-101.402547,47.402307],[-101.375446,47.373006],[-101.362546,47.368006],[-101.356645,47.324806],[-101.345745,47.291905],[-101.283843,47.278304],[-101.257041,47.264903],[-101.215452,47.248488],[-101.195273,47.248813],[-101.18388,47.279076],[-101.106436,47.295302],[-101.060434,47.293301],[-101.034633,47.286401],[-101.002832,47.2715],[-100.977639,47.25],[-100.97623,47.2343],[-100.99283,47.204],[-100.983229,47.1737],[-100.965063,47.15652],[-100.74938,47.157253],[-100.749344,47.327693],[-100.673295,47.327434],[-100.672418,47.674046],[-100.585116,47.67392],[-100.585171,47.847488]]]},"properties":{"shapeName":"McLean","shapeISO":"52423323B32428642019843","shapeGroup":"USA","shapeType":"ADM2","src_shape_id":"52423323B32428642019843","adm1ISO":"US-ND"}},
{"type":"Feature","geometry":{"type":"Polygon","coordinates":[[[-102.93879,48.999287],[-103.356582,48.999543],[-103.376558,48.99891],[-103.500027,48.999284],[-103.643433,48.999391],[-103.806914,48.999334],[-103.852298,48.999569],[-103.969431,48.999535],[-104.020474,48.999538],[-104.0487,48.999601],[-104.048489,48.987015],[-104.048638,48.957132],[-104.048883,48.949638],[-104.048663,48.865742],[-104.048911,48.847395],[-104.048548,48.78856],[-104.048244,48.765644],[-104.048559,48.751364],[-104.048351,48.747141],[-104.047894,48.664199],[-104.047898,48.649919],[-104.047593,48.633992],[-103.798831,48.633511],[-102.907642,48.633091],[-102.894866,48.63344],[-102.885786,48.633306],[-102.885697,48.720496],[-102.939943,48.720477],[-102.93879,48.999287]]]},"properties":{"shapeName":"Divide","shapeISO":"52423323B7908254608729","shapeGroup":"USA","shapeType":"ADM2","src_shape_id":"52423323B7908254608729","adm1ISO":"US-ND"}},
{"type":"Feature","geometry":{"type":"Polygon","coordinates":[[[-102.096595,46.631032],[-102.050996,46.630879],[-102.046939,46.283613],[-101.998079,46.283678],[-101.997898,46.205487],[-101.998585,46.053468],[-101.991411,46.047023],[-101.965164,46.049844],[-101.937144,46.066365],[-101.894154,46.056832],[-101.894867,46.069261],[-101.874597,46.063378],[-101.849365,46.073282],[-101.843014,46.04998],[-101.856697,46.046274],[-101.842118,46.029143],[-101.825222,46.037091],[-101.802263,46.027938],[-101.779329,46.038992],[-101.766441,46.030831],[-101.755572,46.042524],[-101.746338,46.028355],[-101.737653,46.037613],[-101.719668,46.023446],[-101.660997,46.011848],[-101.644203,46.016115],[-101.638118,46.037134],[-101.622727,46.037035],[-101.606406,46.017825],[-101.591937,46.009558],[-101.574759,46.025534],[-101.554195,46.006843],[-101.527234,46.01719],[-101.534344,46.03081],[-101.517422,46.025367],[-101.485679,46.028197],[-101.497471,46.04181],[-101.49013,46.05036],[-101.458297,46.050004],[-101.42803,46.060567],[-101.414613,46.05839],[-101.407124,46.07082],[-101.386302,46.079428],[-101.36236,46.0704],[-101.299927,46.104852],[-101.301708,46.133277],[-101.246991,46.142218],[-101.228842,46.137839],[-101.21198,46.156215],[-101.189757,46.148701],[-101.198083,46.183778],[-101.170973,46.191822],[-101.167909,46.202036],[-101.143489,46.203355],[-101.10013,46.230208],[-101.116115,46.244598],[-101.091349,46.258063],[-101.087404,46.275341],[-101.058502,46.270179],[-101.044725,46.282152],[-101.025672,46.284227],[-101.048589,46.284688],[-101.048542,46.371401],[-101.299,46.371459],[-101.299281,46.63048],[-101.718115,46.631007],[-101.718165,46.718027],[-102.096249,46.717714],[-102.096595,46.631032]]]},"properties":{"shapeName":"Grant","shapeISO":"52423323B34394260918721","shapeGroup":"USA","shapeType":"ADM2","src_shape_id":"52423323B34394260918721","adm1ISO":"US-ND"}},
{"type":"Feature","geometry":{"type":"Polygon","coordinates":[[[-102.995465,46.28072],[-103.36062,46.279947],[-104.045428,46.280195],[-104.045248,46.125009],[-104.04577,46.123953],[-104.046833,46.000206],[-104.045454,45.945317],[-103.66849,45.945249],[-103.577094,45.94529],[-103.558721,45.945138],[-103.434862,45.945298],[-103.411336,45.945271],[-103.375471,45.944804],[-103.369159,45.945159],[-103.28412,45.945159],[-103.218407,45.945215],[-103.161262,45.945316],[-103.097883,45.945269],[-103.04779,45.945342],[-102.995678,45.945175],[-102.995465,46.28072]]]},"properties":{"shapeName":"Bowman","shapeISO":"52423323B51732533466336","shapeGroup":"USA","shapeType":"ADM2","src_shape_id":"52423323B51732533466336","adm1ISO":"US-ND"}},
{"type":"Feature","geometry":{"type":"Polygon","coordinates":[[[-101.998629,45.944563],[-101.973759,45.944463],[-101.886848,45.944566],[-101.852652,45.944464],[-101.766187,45.944329],[-101.758621,45.944485],[-101.730079,45.944363],[-101.72339,45.944194],[-101.681829,45.944451],[-101.628607,45.9443],[-101.562166,45.944244],[-101.557286,45.944107],[-101.4199,45.943771],[-101.373779,45.944273],[-101.365293,45.9441],[-101.333881,45.944174],[-101.287233,45.944115],[-101.271534,45.944217],[-101.203797,45.943903],[-101.175703,45.943991],[-101.142581,45.943849],[-101.106836,45.943992],[-101.101344,45.943849],[-100.980703,45.944076],[-100.976575,45.943872],[-100.938999,45.943856],[-100.935592,45.943765],[-100.890186,45.943869],[-100.769761,45.943774],[-100.750417,45.943657],[-100.720875,45.944032],[-100.65083,45.943688],[-100.627691,45.94365],[-100.511959,45.943662],[-100.507036,45.966556],[-100.533115,46.000504],[-100.560215,46.008404],[-100.600015,46.049904],[-100.614514,46.071804],[-100.616114,46.115703],[-100.626339,46.126991],[-100.629155,46.145616],[-100.615313,46.169703],[-100.592212,46.196402],[-100.575311,46.209402],[-100.55921,46.235702],[-100.558559,46.250001],[-100.57981,46.272302],[-100.58041,46.281402],[-100.559109,46.308002],[-100.549209,46.329301],[-100.551209,46.363502],[-100.559409,46.381702],[-100.590209,46.427902],[-100.60651,46.419402],[-100.626994,46.419018],[-100.665907,46.406329],[-100.686479,46.409745],[-100.691932,46.397935],[-100.709877,46.392837],[-100.720514,46.379753],[-100.724741,46.392559],[-100.769544,46.397906],[-100.77404,46.391715],[-100.805572,46.389824],[-100.814883,46.384709],[-100.853709,46.39544],[-100.857976,46.403003],[-100.869622,46.389171],[-100.883192,46.391049],[-100.884562,46.409104],[-100.895441,46.395968],[-100.91896,46.394991],[-100.929069,46.377829],[-100.939737,46.375005],[-100.941518,46.350026],[-100.960823,46.347692],[-100.957553,46.340059],[-100.97952,46.329701],[-100.995306,46.315548],[-101.016711,46.3204],[-101.015936,46.299809],[-101.025672,46.284227],[-101.044725,46.282152],[-101.058502,46.270179],[-101.087404,46.275341],[-101.091349,46.258063],[-101.116115,46.244598],[-101.10013,46.230208],[-101.143489,46.203355],[-101.167909,46.202036],[-101.170973,46.191822],[-101.198083,46.183778],[-101.189757,46.148701],[-101.21198,46.156215],[-101.228842,46.137839],[-101.246991,46.142218],[-101.301708,46.133277],[-101.299927,46.104852],[-101.36236,46.0704],[-101.386302,46.079428],[-101.407124,46.07082],[-101.414613,46.05839],[-101.42803,46.060567],[-101.458297,46.050004],[-101.49013,46.05036],[-101.497471,46.04181],[-101.485679,46.028197],[-101.517422,46.025367],[-101.534344,46.03081],[-101.527234,46.01719],[-101.554195,46.006843],[-101.574759,46.025534],[-101.591937,46.009558],[-101.606406,46.017825],[-101.622727,46.037035],[-101.638118,46.037134],[-101.644203,46.016115],[-101.660997,46.011848],[-101.719668,46.023446],[-101.737653,46.037613],[-101.746338,46.028355],[-101.755572,46.042524],[-101.766441,46.030831],[-101.779329,46.038992],[-101.802263,46.027938],[-101.825222,46.037091],[-101.842118,46.029143],[-101.856697,46.046274],[-101.843014,46.04998],[-101.849365,46.073282],[-101.874597,46.063378],[-101.894867,46.069261],[-101.894154,46.056832],[-101.937144,46.066365],[-101.965164,46.049844],[-101.991411,46.047023],[-101.998585,46.053468],[-101.998629,45.944563]]]},"properties":{"shapeName":"Sioux","shapeISO":"52423323B40893510468024","shapeGroup":"USA","shapeType":"ADM2","src_shape_id":"52423323B40893510468024","adm1ISO":"US-ND"}},
{"type":"Feature","geometry":{"type":"Polygon","coordinates":[[[-99.200316,48.370666],[-99.199921,48.155317],[-99.139366,48.143683],[-99.109322,48.107671],[-99.070453,48.107865],[-99.070361,48.021963],[-99.060221,48.021985],[-99.036854,48.047411],[-99.001048,48.053302],[-99.004298,48.041939],[-98.988611,48.013006],[-98.991263,47.990268],[-98.944808,48.002807],[-98.928868,47.996991],[-98.917507,48.004107],[-98.920007,48.018007],[-98.897707,48.027107],[-98.888906,48.009507],[-98.883406,48.024507],[-98.835404,48.049008],[-98.825104,48.062408],[-98.803903,48.059909],[-98.785401,48.029908],[-98.7832,48.001608],[-98.769764,47.998697],[-98.7673,48.030608],[-98.763599,48.001008],[-98.75062,47.982464],[-98.778632,47.973486],[-98.79457,47.951622],[-98.763039,47.971697],[-98.734997,47.981008],[-98.723597,47.997608],[-98.706397,48.003408],[-98.672096,48.000408],[-98.663495,47.964308],[-98.625694,47.936807],[-98.635294,47.931007],[-98.625394,47.916407],[-98.525565,47.915064],[-98.525619,48.021158],[-98.422669,48.021123],[-98.42211,48.194832],[-98.292194,48.195185],[-98.292122,48.369703],[-98.31868,48.36973],[-98.318108,48.543781],[-98.970402,48.54424],[-98.970985,48.37048],[-99.200316,48.370666]]]},"properties":{"shapeName":"Ramsey","shapeISO":"52423323B86703523671903","shapeGroup":"USA","shapeType":"ADM2","src_shape_id":"52423323B86703523671903","adm1ISO":"US-ND"}},
{"type":"Feature","geometry":{"type":"Polygon","coordinates":[[[-98.318108,48.543781],[-98.31868,48.36973],[-98.292122,48.369703],[-98.292194,48.195185],[-97.903444,48.194905],[-97.878464,48.19511],[-97.87248,48.194938],[-97.141242,48.19361],[-97.138016,48.197595],[-97.13914,48.202828],[-97.137749,48.206196],[-97.134747,48.207514],[-97.134381,48.210442],[-97.137015,48.212545],[-97.137416,48.215253],[-97.135186,48.217251],[-97.135626,48.220912],[-97.137531,48.221721],[-97.137699,48.225134],[-97.136313,48.226184],[-97.136313,48.228992],[-97.13932,48.230195],[-97.141263,48.234676],[-97.135772,48.237604],[-97.135626,48.238996],[-97.138627,48.242437],[-97.138042,48.246244],[-97.133443,48.249881],[-97.129393,48.250437],[-97.127285,48.253331],[-97.129244,48.256406],[-97.129393,48.258793],[-97.127155,48.260882],[-97.12856,48.264824],[-97.13193,48.266031],[-97.130289,48.269313],[-97.124089,48.271258],[-97.116579,48.279669],[-97.117735,48.283496],[-97.122169,48.290064],[-97.128871,48.29289],[-97.128647,48.297665],[-97.12335,48.298635],[-97.122305,48.301396],[-97.126185,48.303709],[-97.126185,48.309155],[-97.13096,48.311617],[-97.132452,48.315497],[-97.131259,48.319551],[-97.12761,48.323327],[-97.127775,48.326789],[-97.134781,48.328685],[-97.134863,48.331322],[-97.131978,48.335526],[-97.131154,48.33973],[-97.131731,48.341131],[-97.137913,48.344593],[-97.13849,48.347478],[-97.137501,48.35061],[-97.13986,48.353433],[-97.14387,48.354511],[-97.147757,48.359913],[-97.147757,48.366967],[-97.146385,48.370298],[-97.14423,48.371278],[-97.142075,48.374217],[-97.140115,48.380487],[-97.140899,48.384014],[-97.143642,48.386169],[-97.14521,48.388912],[-97.145601,48.394203],[-97.143838,48.397142],[-97.140115,48.399297],[-97.135804,48.404195],[-97.135021,48.406743],[-97.135609,48.411837],[-97.138352,48.415952],[-97.142466,48.416735],[-97.142075,48.420458],[-97.13698,48.422026],[-97.135609,48.426532],[-97.137822,48.428064],[-97.139305,48.432019],[-97.134979,48.436345],[-97.134238,48.439805],[-97.135103,48.442277],[-97.137698,48.444255],[-97.137081,48.449075],[-97.13362,48.452288],[-97.132631,48.45649],[-97.132755,48.45995],[-97.134238,48.461186],[-97.141777,48.464029],[-97.144125,48.46922],[-97.143754,48.473669],[-97.141406,48.476264],[-97.14462,48.478983],[-97.14499,48.481579],[-97.1403,48.48473],[-97.139285,48.486318],[-97.138873,48.49437],[-97.140356,48.496842],[-97.146288,48.499685],[-97.147647,48.501539],[-97.153085,48.524156],[-97.151973,48.529223],[-97.149131,48.532313],[-97.148883,48.53429],[-97.15049,48.536885],[-97.153951,48.53911],[-97.161286,48.542514],[-97.666268,48.543196],[-97.927164,48.543132],[-98.318108,48.543781]]]},"properties":{"shapeName":"Walsh","shapeISO":"52423323B16407049475855","shapeGroup":"USA","shapeType":"ADM2","src_shape_id":"52423323B16407049475855","adm1ISO":"US-ND"}},
{"type":"Feature","geometry":{"type":"Polygon","coordinates":[[[-100.081208,46.633404],[-100.6619,46.634458],[-100.62541,46.612192],[-100.568151,46.594033],[-100.561045,46.587855],[-100.565379,46.578457],[-100.587037,46.573443],[-100.544565,46.533774],[-100.545831,46.525199],[-100.578749,46.505564],[-100.586609,46.492702],[-100.598109,46.451302],[-100.590209,46.427902],[-100.559409,46.381702],[-100.551209,46.363502],[-100.549209,46.329301],[-100.559109,46.308002],[-100.58041,46.281402],[-100.57981,46.272302],[-100.558559,46.250001],[-100.55921,46.235702],[-100.575311,46.209402],[-100.592212,46.196402],[-100.615313,46.169703],[-100.629155,46.145616],[-100.626339,46.126991],[-100.616114,46.115703],[-100.614514,46.071804],[-100.600015,46.049904],[-100.560215,46.008404],[-100.533115,46.000504],[-100.507036,45.966556],[-100.511959,45.943662],[-100.499364,45.943639],[-100.462848,45.943574],[-100.430607,45.943646],[-100.410396,45.943461],[-100.294136,45.943277],[-100.274772,45.942953],[-100.170836,45.942522],[-100.14174,45.942514],[-100.084173,45.942309],[-100.06903,45.942178],[-99.965785,45.94183],[-99.880072,45.941678],[-99.878441,46.282819],[-99.916768,46.283179],[-99.915518,46.632933],[-100.081208,46.633404]]]},"properties":{"shapeName":"Emmons","shapeISO":"52423323B40885711739246","shapeGroup":"USA","shapeType":"ADM2","src_shape_id":"52423323B40885711739246","adm1ISO":"US-ND"}},
{"type":"Feature","geometry":{"type":"Polygon","coordinates":[[[-99.297214,47.846819],[-98.544786,47.847413],[-98.539094,47.846266],[-98.525526,47.846284],[-98.525565,47.915064],[-98.625394,47.916407],[-98.635294,47.931007],[-98.625694,47.936807],[-98.663495,47.964308],[-98.672096,48.000408],[-98.706397,48.003408],[-98.723597,47.997608],[-98.734997,47.981008],[-98.763039,47.971697],[-98.79457,47.951622],[-98.778632,47.973486],[-98.75062,47.982464],[-98.763599,48.001008],[-98.7673,48.030608],[-98.769764,47.998697],[-98.7832,48.001608],[-98.785401,48.029908],[-98.803903,48.059909],[-98.825104,48.062408],[-98.835404,48.049008],[-98.883406,48.024507],[-98.888906,48.009507],[-98.897707,48.027107],[-98.920007,48.018007],[-98.917507,48.004107],[-98.928868,47.996991],[-98.944808,48.002807],[-98.991263,47.990268],[-98.988611,48.013006],[-99.004298,48.041939],[-99.001048,48.053302],[-99.036854,48.047411],[-99.060221,48.021985],[-99.070361,48.021963],[-99.070453,48.107865],[-99.109322,48.107671],[-99.139366,48.143683],[-99.199921,48.155317],[-99.200316,48.370666],[-99.492929,48.370954],[-99.846623,48.371306],[-99.848175,48.021544],[-99.812143,48.021459],[-99.812177,47.847265],[-99.297214,47.846819]]]},"properties":{"shapeName":"Benson","shapeISO":"52423323B29085159471354","shapeGroup":"USA","shapeType":"ADM2","src_shape_id":"52423323B29085159471354","adm1ISO":"US-ND"}},
{"type":"Feature","geometry":{"type":"Polygon","coordinates":[[[-103.032692,46.980587],[-103.03258,47.3287],[-103.099208,47.328722],[-103.666734,47.329361],[-103.666997,46.979796],[-103.609556,46.979909],[-103.609221,46.629804],[-103.23158,46.629771],[-103.231002,46.980303],[-103.032692,46.980587]]]},"properties":{"shapeName":"Billings","shapeISO":"52423323B93368423435894","shapeGroup":"USA","shapeType":"ADM2","src_shape_id":"52423323B93368423435894","adm1ISO":"US-ND"}},
{"type":"Feature","geometry":{"type":"Polygon","coordinates":[[[-103.23158,46.629771],[-103.609221,46.629804],[-103.800836,46.62957],[-103.800892,46.540754],[-104.045109,46.540937],[-104.045056,46.509795],[-104.046114,46.383923],[-104.045492,46.366878],[-104.045428,46.280195],[-103.36062,46.279947],[-102.995465,46.28072],[-102.924558,46.281526],[-102.928014,46.630072],[-103.23158,46.629771]]]},"properties":{"shapeName":"Slope","shapeISO":"52423323B48039047752616","shapeGroup":"USA","shapeType":"ADM2","src_shape_id":"52423323B48039047752616","adm1ISO":"US-ND"}}
]}