{"type":"FeatureCollection","bbox":[-72.557248,42.696999,-70.703819,45.30546], "features": [
{"type":"Feature","geometry":{"type":"Polygon","coordinates":[[[-71.501089,45.013386],[-71.46504,45.013647],[-71.466248,45.011968],[-71.479612,45.002914],[-71.487566,45.000945],[-71.497413,45.003887],[-71.51461,45.003966],[-71.520023,45.0023],[-71.525017,45.00189],[-71.530092,44.999665],[-71.536981,44.994186],[-71.538593,44.988191],[-71.537785,44.984307],[-71.531606,44.976032],[-71.527164,44.973677],[-71.522371,44.966317],[-71.516224,44.964578],[-71.514844,44.95875],[-71.516815,44.947597],[-71.515499,44.943529],[-71.51695,44.939713],[-71.51519,44.927326],[-71.509208,44.923438],[-71.504484,44.919071],[-71.500789,44.914544],[-71.494404,44.911846],[-71.493921,44.910932],[-71.495845,44.904989],[-71.501089,44.904442],[-71.502474,44.902729],[-71.508643,44.897712],[-71.513871,44.894657],[-71.512293,44.890255],[-71.522394,44.88082],[-71.526639,44.879107],[-71.52889,44.876937],[-71.529155,44.873568],[-71.534589,44.869707],[-71.540117,44.868634],[-71.545902,44.866143],[-71.549534,44.862601],[-71.550305,44.859561],[-71.548346,44.855539],[-71.553657,44.852132],[-71.556806,44.848817],[-71.552655,44.842058],[-71.552219,44.837784],[-71.553713,44.836074],[-71.557673,44.83443],[-71.562257,44.824641],[-71.567908,44.823841],[-71.574315,44.818088],[-71.575501,44.816067],[-71.57514,44.813574],[-71.572865,44.810392],[-71.569217,44.808822],[-71.57313,44.797956],[-71.571707,44.794839],[-71.573248,44.791891],[-71.578939,44.786079],[-71.584393,44.785742],[-71.592967,44.782785],[-71.59695,44.778996],[-71.596036,44.775431],[-71.601472,44.772076],[-71.604616,44.767747],[-71.611768,44.764354],[-71.614268,44.760631],[-71.614239,44.758673],[-71.617942,44.755892],[-71.623925,44.755144],[-71.631256,44.753262],[-71.631968,44.750342],[-71.63111,44.748698],[-71.62691,44.747233],[-71.625181,44.743987],[-71.62506,44.737108],[-71.625612,44.730321],[-71.622594,44.727782],[-71.619068,44.729292],[-71.617432,44.728059],[-71.618356,44.722619],[-71.613095,44.718942],[-71.604913,44.708159],[-71.599751,44.705327],[-71.599206,44.703887],[-71.600773,44.700824],[-71.596859,44.69493],[-71.598043,44.692827],[-71.596438,44.687068],[-71.594225,44.683824],[-71.596305,44.679092],[-71.590025,44.675552],[-71.58301,44.674845],[-71.582528,44.672262],[-71.585646,44.669286],[-71.584575,44.66536],[-71.586579,44.66112],[-71.586579,44.659487],[-71.582966,44.65663],[-71.576014,44.6557],[-71.576313,44.653188],[-71.575146,44.650621],[-71.570236,44.650492],[-71.567646,44.653569],[-71.564412,44.652836],[-71.561773,44.650233],[-71.558572,44.644382],[-71.55886,44.640131],[-71.562637,44.639514],[-71.562125,44.636589],[-71.554635,44.632206],[-71.551723,44.627607],[-71.555761,44.624128],[-71.556561,44.616997],[-71.554098,44.609592],[-71.553874,44.607078],[-71.556015,44.601392],[-71.55445,44.598417],[-71.554615,44.595793],[-71.553448,44.59346],[-71.549269,44.593183],[-71.540602,44.590462],[-71.536252,44.58845],[-71.537725,44.584794],[-71.544923,44.579287],[-71.547449,44.578556],[-71.553201,44.580692],[-71.555484,44.57818],[-71.558636,44.570747],[-71.558566,44.565581],[-71.559847,44.564128],[-71.5634,44.563227],[-71.5696,44.562786],[-71.57552,44.564784],[-71.590171,44.565703],[-71.593924,44.563822],[-71.596138,44.560907],[-71.598117,44.555421],[-71.596805,44.553433],[-71.588077,44.547859],[-71.575194,44.540868],[-71.573084,44.537989],[-71.57302,44.536321],[-71.576885,44.530332],[-71.582506,44.524412],[-71.587105,44.522445],[-71.592856,44.523015],[-71.593972,44.519747],[-71.592118,44.517782],[-71.58691,44.514675],[-71.58496,44.51015],[-71.583234,44.508277],[-71.577069,44.50405],[-71.578761,44.501924],[-71.585242,44.501318],[-71.591503,44.499664],[-71.595237,44.496739],[-71.595485,44.494433],[-71.597918,44.488384],[-71.599481,44.486464],[-71.609569,44.484357],[-71.615924,44.485953],[-71.631008,44.484332],[-71.632796,44.483899],[-71.639313,44.477845],[-71.645891,44.47515],[-71.648179,44.472032],[-71.646552,44.468878],[-71.640848,44.465944],[-71.640405,44.464195],[-71.645069,44.460554],[-71.652321,44.461126],[-71.653349,44.460508],[-71.657314,44.454012],[-71.659022,44.444941],[-71.661831,44.440302],[-71.664192,44.43836],[-71.668945,44.436532],[-71.677385,44.435711],[-71.679934,44.434071],[-71.679159,44.432183],[-71.679951,44.427917],[-71.685851,44.423414],[-71.690921,44.421243],[-71.699435,44.416078],[-71.708042,44.411986],[-71.715088,44.410499],[-71.7262,44.411394],[-71.731521,44.411024],[-71.735924,44.410071],[-71.739922,44.406787],[-71.742309,44.402375],[-71.745012,44.401368],[-71.749534,44.401964],[-71.756092,44.40641],[-71.761967,44.407036],[-71.76569,44.406317],[-71.696886,44.332127],[-71.686922,44.33659],[-71.587005,44.304768],[-71.57582,44.254605],[-71.507413,44.262906],[-71.505841,44.255566],[-71.469707,44.259945],[-71.443339,44.249181],[-71.415899,44.212178],[-71.394875,44.214688],[-71.38424,44.178853],[-71.356483,44.165845],[-71.343239,44.123396],[-71.343589,44.092063],[-71.335883,44.085761],[-71.311759,44.091765],[-71.302451,44.137411],[-71.251958,44.244275],[-71.098435,44.235463],[-71.042281,44.237523],[-71.044386,44.283787],[-71.010272,44.284897],[-71.011271,44.301855],[-71.01275,44.340793],[-71.015364,44.378122],[-71.020774,44.473746],[-71.022993,44.500067],[-71.026656,44.558158],[-71.03104,44.655464],[-71.036706,44.736507],[-71.037519,44.755616],[-71.044647,44.845048],[-71.052708,44.930849],[-71.057862,45.000058],[-71.059005,45.004927],[-71.069388,45.144046],[-71.072601,45.180944],[-71.076915,45.246921],[-71.083925,45.30546],[-71.089484,45.304593],[-71.097773,45.301915],[-71.105152,45.294644],[-71.108676,45.288974],[-71.110744,45.284585],[-71.10935,45.282231],[-71.105692,45.282507],[-71.10734,45.278621],[-71.110736,45.275465],[-71.113163,45.27487],[-71.116333,45.272331],[-71.120113,45.265747],[-71.119915,45.262296],[-71.124518,45.255279],[-71.127963,45.253681],[-71.131954,45.245432],[-71.133995,45.244176],[-71.144802,45.24226],[-71.148166,45.242421],[-71.155735,45.246469],[-71.158193,45.248755],[-71.162846,45.250341],[-71.167447,45.2475],[-71.171265,45.246152],[-71.173368,45.246357],[-71.177509,45.243638],[-71.178577,45.241398],[-71.180906,45.239867],[-71.182588,45.241078],[-71.183786,45.244941],[-71.187442,45.247706],[-71.194879,45.250524],[-71.196659,45.253603],[-71.203034,45.254311],[-71.211801,45.250466],[-71.220635,45.25113],[-71.221995,45.253552],[-71.225812,45.2517],[-71.228049,45.249699],[-71.231123,45.249721],[-71.233028,45.25156],[-71.231573,45.253481],[-71.235365,45.260358],[-71.239347,45.261934],[-71.245504,45.268879],[-71.250394,45.2692],[-71.256442,45.273339],[-71.259615,45.273249],[-71.263043,45.27741],[-71.263816,45.282735],[-71.266755,45.291239],[-71.26494,45.293455],[-71.272321,45.296703],[-71.27922,45.294991],[-71.282748,45.297506],[-71.282553,45.299288],[-71.284397,45.302443],[-71.29651,45.299199],[-71.301108,45.296572],[-71.304897,45.292458],[-71.306873,45.28887],[-71.309009,45.287247],[-71.314319,45.287042],[-71.318398,45.284664],[-71.320923,45.282333],[-71.328465,45.281144],[-71.331734,45.279978],[-71.333966,45.275315],[-71.336393,45.273075],[-71.34403,45.271176],[-71.347623,45.272134],[-71.351667,45.269208],[-71.355,45.268635],[-71.360665,45.269844],[-71.363219,45.266438],[-71.359559,45.262691],[-71.356836,45.257184],[-71.357254,45.253345],[-71.359225,45.250921],[-71.363014,45.248214],[-71.368382,45.246588],[-71.371941,45.246358],[-71.376692,45.24492],[-71.379834,45.240625],[-71.380159,45.238866],[-71.383171,45.234913],[-71.38563,45.233223],[-71.389413,45.23503],[-71.391902,45.237225],[-71.394423,45.241225],[-71.402639,45.242598],[-71.406974,45.241525],[-71.417133,45.235584],[-71.433015,45.237665],[-71.438547,45.239013],[-71.442299,45.238556],[-71.443884,45.23707],[-71.442881,45.234808],[-71.440584,45.234991],[-71.438546,45.232774],[-71.431754,45.228752],[-71.421373,45.224045],[-71.417234,45.221302],[-71.415554,45.21801],[-71.403268,45.215357],[-71.399101,45.208637],[-71.397811,45.203562],[-71.405637,45.198148],[-71.405347,45.196046],[-71.408778,45.187979],[-71.412947,45.186288],[-71.415469,45.183318],[-71.416182,45.177353],[-71.419059,45.170497],[-71.424617,45.165881],[-71.423617,45.161105],[-71.426751,45.153266],[-71.43318,45.149175],[-71.437217,45.142342],[-71.435796,45.139668],[-71.433084,45.137908],[-71.426756,45.129681],[-71.428829,45.12389],[-71.432445,45.120462],[-71.440578,45.114473],[-71.445614,45.113376],[-71.448679,45.10901],[-71.449258,45.104531],[-71.452452,45.102291],[-71.455453,45.101467],[-71.458324,45.098816],[-71.46,45.095067],[-71.464838,45.093032],[-71.467448,45.08686],[-71.471383,45.084208],[-71.475287,45.084435],[-71.48077,45.083565],[-71.48022,45.081325],[-71.482863,45.079153],[-71.486346,45.078512],[-71.489147,45.073574],[-71.489146,45.072317],[-71.497918,45.070598],[-71.4984,45.069638],[-71.496106,45.065091],[-71.497739,45.05476],[-71.500546,45.051952],[-71.502769,45.052639],[-71.505092,45.051474],[-71.505223,45.0488],[-71.500875,45.045119],[-71.49718,45.044591],[-71.493151,45.045781],[-71.491086,45.04368],[-71.491149,45.041783],[-71.49401,45.034354],[-71.499946,45.026332],[-71.501089,45.013386]]]},"properties":{"shapeName":"Coos","shapeISO":"52423323B57801293190236","shapeGroup":"USA","shapeType":"ADM2","src_shape_id":"52423323B57801293190236","adm1ISO":"US-NH"}},
{"type":"Feature","geometry":{"type":"Polygon","coordinates":[[[-71.76569,44.406317],[-71.772802,44.403106],[-71.778614,44.399808],[-71.790689,44.400269],[-71.793925,44.39928],[-71.802354,44.393389],[-71.80349,44.390393],[-71.7999,44.38596],[-71.800317,44.384285],[-71.803462,44.383344],[-71.808829,44.383871],[-71.814389,44.381941],[-71.815774,44.375473],[-71.812425,44.372541],[-71.812833,44.370457],[-71.816158,44.367568],[-71.814992,44.363695],[-71.812474,44.358486],[-71.812903,44.355556],[-71.818839,44.352948],[-71.826247,44.352015],[-71.833262,44.350145],[-71.837721,44.347753],[-71.84432,44.344213],[-71.852629,44.340882],[-71.861942,44.340118],[-71.869911,44.336971],[-71.875864,44.337379],[-71.881896,44.340218],[-71.902333,44.347508],[-71.90691,44.348293],[-71.917435,44.346544],[-71.925089,44.342033],[-71.929111,44.337586],[-71.935396,44.335779],[-71.93905,44.335853],[-71.945164,44.337753],[-71.95812,44.337553],[-71.963134,44.336565],[-71.981121,44.337509],[-71.984618,44.336252],[-71.986485,44.331227],[-71.988307,44.329777],[-72.002315,44.32488],[-72.009978,44.32196],[-72.019131,44.320392],[-72.025784,44.322063],[-72.029062,44.322407],[-72.033137,44.320374],[-72.033807,44.317358],[-72.032342,44.315761],[-72.032542,44.303761],[-72.037031,44.297843],[-72.046303,44.291992],[-72.053356,44.29051],[-72.058881,44.286249],[-72.065435,44.277244],[-72.067775,44.270985],[-72.066465,44.26834],[-72.064545,44.268006],[-72.061175,44.263386],[-72.059783,44.256027],[-72.053991,44.246935],[-72.050113,44.244055],[-72.04789,44.238502],[-72.050657,44.23359],[-72.053583,44.226049],[-72.053901,44.222712],[-72.052663,44.21885],[-72.053234,44.216885],[-72.058606,44.208224],[-72.058067,44.206076],[-72.060068,44.200455],[-72.064578,44.196958],[-72.066167,44.189782],[-72.061339,44.18496],[-72.057497,44.179453],[-72.053022,44.167912],[-72.047594,44.16181],[-72.042388,44.160826],[-72.04065,44.157856],[-72.040083,44.155758],[-72.042868,44.151297],[-72.041984,44.137174],[-72.03786,44.133791],[-72.033704,44.13155],[-72.037507,44.124717],[-72.041949,44.125662],[-72.046431,44.12392],[-72.052343,44.1199],[-72.054676,44.112156],[-72.054832,44.110146],[-72.039675,44.10338],[-72.032984,44.101664],[-72.031241,44.10011],[-72.031879,44.093368],[-72.032895,44.091449],[-72.036292,44.089245],[-72.040013,44.088771],[-72.046236,44.089547],[-72.048782,44.08715],[-72.047306,44.085391],[-72.039784,44.08128],[-72.042505,44.074648],[-72.048571,44.071368],[-72.04829,44.069145],[-72.053483,44.064739],[-72.056342,44.059591],[-72.06207,44.055556],[-72.062714,44.051627],[-72.066423,44.049308],[-72.077373,44.0446],[-72.079596,44.041438],[-72.079398,44.03954],[-72.075487,44.034623],[-72.075649,44.031663],[-72.079997,44.029773],[-72.081865,44.026961],[-72.085258,44.024476],[-72.092031,44.024468],[-72.095101,44.02184],[-72.09567,44.019692],[-72.098898,44.015486],[-72.102476,44.014891],[-72.105293,44.012672],[-72.103577,44.00424],[-72.103766,44.002846],[-72.10902,44.000544],[-72.116986,43.994489],[-72.116707,43.991963],[-72.112814,43.988029],[-72.111757,43.984952],[-72.112491,43.975663],[-72.114703,43.969487],[-72.114274,43.967522],[-72.110946,43.966968],[-72.100895,43.96086],[-72.09869,43.957669],[-72.104422,43.950545],[-72.105876,43.949379],[-72.110873,43.947663],[-72.115269,43.947638],[-72.11784,43.946837],[-72.118986,43.943234],[-72.116767,43.935287],[-72.118014,43.923301],[-72.121003,43.918965],[-72.135118,43.910033],[-72.145042,43.905297],[-72.151325,43.901713],[-72.155725,43.897129],[-72.158586,43.892771],[-72.159217,43.888322],[-72.16082,43.887232],[-72.167225,43.886122],[-72.170605,43.886397],[-72.172786,43.883725],[-72.173577,43.879679],[-72.171905,43.876158],[-72.167477,43.869159],[-72.174775,43.866395],[-72.179387,43.86619],[-72.182957,43.865344],[-72.184789,43.863402],[-72.187917,43.856135],[-72.18738,43.853621],[-72.182865,43.845118],[-72.182204,43.834041],[-72.183338,43.830708],[-72.186239,43.82694],[-72.188571,43.821162],[-72.186425,43.815866],[-72.184185,43.812533],[-72.183334,43.808186],[-72.184848,43.804707],[-72.190755,43.800816],[-72.193185,43.794706],[-72.197037,43.790015],[-72.204071,43.786106],[-72.205522,43.782288],[-72.204761,43.771272],[-72.205206,43.770953],[-72.210816,43.767705],[-72.216492,43.766516],[-72.220117,43.763635],[-72.223646,43.757851],[-72.232714,43.748295],[-72.245069,43.743102],[-72.264246,43.734167],[-72.271181,43.734147],[-72.276073,43.727063],[-72.279856,43.724642],[-72.284806,43.720369],[-72.286951,43.717261],[-72.292216,43.711342],[-72.294895,43.709012],[-72.299716,43.706567],[-72.302868,43.702727],[-72.305327,43.695779],[-72.306021,43.68307],[-72.303093,43.678087],[-72.304323,43.669516],[-72.305772,43.666544],[-72.310842,43.659733],[-72.314021,43.656167],[-72.31506,43.649424],[-72.313864,43.646567],[-72.314084,43.642819],[-72.315248,43.641173],[-72.322518,43.63891],[-72.327396,43.636783],[-72.329661,43.634657],[-72.329472,43.632852],[-72.327237,43.630543],[-72.328967,43.627],[-72.332361,43.625079],[-72.334402,43.619259],[-72.334746,43.614528],[-72.332701,43.610322],[-72.328233,43.606848],[-72.327666,43.602688],[-72.329678,43.600193],[-72.208314,43.585216],[-72.171189,43.573994],[-72.106413,43.553494],[-72.120177,43.538311],[-72.090894,43.528866],[-72.069517,43.553181],[-72.067166,43.54398],[-71.935311,43.528889],[-71.930993,43.533864],[-71.892113,43.574627],[-71.849204,43.611209],[-71.817922,43.544217],[-71.79749,43.559422],[-71.777501,43.55251],[-71.761021,43.567738],[-71.735584,43.569279],[-71.727574,43.56342],[-71.716067,43.578777],[-71.731708,43.590069],[-71.707705,43.601032],[-71.688097,43.594959],[-71.66269,43.606487],[-71.651154,43.621128],[-71.656937,43.631602],[-71.650742,43.645061],[-71.655,43.661761],[-71.648347,43.68452],[-71.581404,43.691958],[-71.521467,43.698001],[-71.531659,43.760988],[-71.537755,43.795089],[-71.543806,43.796052],[-71.560622,43.875054],[-71.564604,43.893181],[-71.361966,43.915947],[-71.379547,44.001553],[-71.383614,44.02262],[-71.346657,44.068831],[-71.366356,44.068533],[-71.381631,44.097883],[-71.376519,44.118879],[-71.387139,44.15521],[-71.413172,44.167471],[-71.426508,44.210912],[-71.415899,44.212178],[-71.443339,44.249181],[-71.469707,44.259945],[-71.505841,44.255566],[-71.507413,44.262906],[-71.57582,44.254605],[-71.587005,44.304768],[-71.686922,44.33659],[-71.696886,44.332127],[-71.76569,44.406317]]]},"properties":{"shapeName":"Grafton","shapeISO":"52423323B26223057606715","shapeGroup":"USA","shapeType":"ADM2","src_shape_id":"52423323B26223057606715","adm1ISO":"US-NH"}},
{"type":"Feature","geometry":{"type":"Polygon","coordinates":[[[-70.820001,43.122595],[-70.825576,43.118215],[-70.833917,43.11802],[-70.8469,43.126095],[-70.862451,43.124368],[-70.860941,43.094629],[-70.875437,43.080431],[-70.933942,43.090142],[-70.980802,43.082376],[-71.012571,43.082002],[-71.072937,43.08169],[-71.026687,43.137956],[-71.127949,43.200081],[-71.133615,43.203607],[-71.247337,43.275241],[-71.25028,43.267448],[-71.280797,43.218612],[-71.313941,43.164635],[-71.31771,43.162408],[-71.329444,43.140649],[-71.356118,43.102052],[-71.391229,43.040972],[-71.402963,43.041063],[-71.392389,43.009318],[-71.377187,42.947154],[-71.384061,42.938358],[-71.451155,42.930909],[-71.442302,42.890408],[-71.427068,42.824849],[-71.387201,42.823568],[-71.36068,42.798971],[-71.364419,42.785246],[-71.358056,42.785146],[-71.351036,42.772192],[-71.260091,42.755743],[-71.24554,42.742576],[-71.233405,42.745498],[-71.223905,42.746698],[-71.181804,42.737599],[-71.186105,42.790698],[-71.174404,42.801598],[-71.167704,42.807398],[-71.165604,42.808698],[-71.149704,42.815498],[-71.132504,42.821398],[-71.064202,42.806298],[-71.053602,42.833098],[-71.047502,42.844098],[-71.044402,42.848798],[-71.031202,42.859098],[-70.966501,42.868998],[-70.9492,42.876098],[-70.9308,42.884598],[-70.92763,42.885335],[-70.9149,42.886598],[-70.902769,42.886539],[-70.886137,42.882619],[-70.848626,42.860948],[-70.837377,42.865005],[-70.830796,42.868927],[-70.82177,42.871889],[-70.817297,42.872299],[-70.81699,42.879873],[-70.815861,42.886259],[-70.813976,42.889775],[-70.811,42.892384],[-70.810682,42.906896],[-70.808713,42.912796],[-70.805972,42.916558],[-70.798154,42.920935],[-70.798637,42.924297],[-70.797807,42.930046],[-70.793997,42.939899],[-70.790683,42.942781],[-70.786565,42.947387],[-70.785131,42.950801],[-70.779069,42.956811],[-70.775598,42.957222],[-70.77173,42.96133],[-70.769674,42.964428],[-70.771914,42.966466],[-70.771801,42.968073],[-70.765223,42.975358],[-70.764568,42.98021],[-70.761475,42.98669],[-70.756702,42.991346],[-70.74997,42.991698],[-70.749025,42.995476],[-70.743794,43.008036],[-70.740361,43.01118],[-70.735478,43.01221],[-70.732685,43.016925],[-70.732136,43.022425],[-70.728444,43.027606],[-70.723179,43.029307],[-70.718937,43.032359],[-70.713551,43.042086],[-70.714177,43.046275],[-70.713631,43.056015],[-70.703819,43.059834],[-70.704697,43.070998],[-70.705997,43.073098],[-70.708897,43.074998],[-70.720297,43.074697],[-70.733498,43.073297],[-70.737898,43.073497],[-70.741898,43.077397],[-70.756398,43.079997],[-70.757598,43.080897],[-70.762998,43.089497],[-70.767999,43.093597],[-70.779099,43.095896],[-70.783881,43.100876],[-70.793907,43.106721],[-70.808709,43.117074],[-70.820001,43.122595]]]},"properties":{"shapeName":"Rockingham","shapeISO":"52423323B53018851624800","shapeGroup":"USA","shapeType":"ADM2","src_shape_id":"52423323B53018851624800","adm1ISO":"US-NH"}},
{"type":"Feature","geometry":{"type":"Polygon","coordinates":[[[-71.935311,43.528889],[-71.990306,43.464932],[-72.011364,43.43688],[-72.053753,43.441106],[-72.057767,43.422437],[-72.046811,43.410871],[-72.050305,43.378287],[-72.078626,43.338599],[-72.090147,43.322562],[-72.065443,43.255089],[-72.045285,43.254776],[-72.041546,43.222733],[-72.009075,43.187891],[-71.913216,43.207108],[-71.856101,43.115144],[-71.732561,43.139795],[-71.667772,43.152543],[-71.641292,43.054177],[-71.517468,43.068918],[-71.512768,43.049624],[-71.48911,43.051788],[-71.473982,43.035283],[-71.454784,43.044009],[-71.440623,43.018396],[-71.392389,43.009318],[-71.402963,43.041063],[-71.391229,43.040972],[-71.356118,43.102052],[-71.329444,43.140649],[-71.31771,43.162408],[-71.313941,43.164635],[-71.280797,43.218612],[-71.25028,43.267448],[-71.247337,43.275241],[-71.236012,43.285003],[-71.349052,43.346587],[-71.454983,43.402659],[-71.471455,43.411307],[-71.549424,43.452398],[-71.561552,43.454465],[-71.601211,43.435148],[-71.61998,43.443876],[-71.638047,43.491765],[-71.653474,43.48763],[-71.677294,43.5005],[-71.691027,43.517941],[-71.687624,43.528149],[-71.706347,43.537632],[-71.728716,43.560291],[-71.727574,43.56342],[-71.735584,43.569279],[-71.761021,43.567738],[-71.777501,43.55251],[-71.79749,43.559422],[-71.817922,43.544217],[-71.849204,43.611209],[-71.892113,43.574627],[-71.930993,43.533864],[-71.935311,43.528889]]]},"properties":{"shapeName":"Merrimack","shapeISO":"52423323B36577314859832","shapeGroup":"USA","shapeType":"ADM2","src_shape_id":"52423323B36577314859832","adm1ISO":"US-NH"}},
{"type":"Feature","geometry":{"type":"Polygon","coordinates":[[[-71.727574,43.56342],[-71.728716,43.560291],[-71.706347,43.537632],[-71.687624,43.528149],[-71.691027,43.517941],[-71.677294,43.5005],[-71.653474,43.48763],[-71.638047,43.491765],[-71.61998,43.443876],[-71.601211,43.435148],[-71.561552,43.454465],[-71.549424,43.452398],[-71.471455,43.411307],[-71.454983,43.402659],[-71.349052,43.346587],[-71.236012,43.285003],[-71.207569,43.308005],[-71.159365,43.355132],[-71.1908,43.515042],[-71.162676,43.538968],[-71.199466,43.559139],[-71.208942,43.550526],[-71.22791,43.564724],[-71.25826,43.571354],[-71.283682,43.588566],[-71.33564,43.62144],[-71.343621,43.628803],[-71.439891,43.695567],[-71.531659,43.760988],[-71.521467,43.698001],[-71.581404,43.691958],[-71.648347,43.68452],[-71.655,43.661761],[-71.650742,43.645061],[-71.656937,43.631602],[-71.651154,43.621128],[-71.66269,43.606487],[-71.688097,43.594959],[-71.707705,43.601032],[-71.731708,43.590069],[-71.716067,43.578777],[-71.727574,43.56342]]]},"properties":{"shapeName":"Belknap","shapeISO":"52423323B67114126748544","shapeGroup":"USA","shapeType":"ADM2","src_shape_id":"52423323B67114126748544","adm1ISO":"US-NH"}},
{"type":"Feature","geometry":{"type":"Polygon","coordinates":[[[-72.283034,42.721567],[-72.203571,42.719601],[-72.124527,42.717645],[-72.078628,42.716252],[-71.981403,42.713303],[-71.92902,42.712247],[-71.944284,42.788419],[-71.974711,42.789411],[-71.984217,42.833814],[-72.001216,42.919452],[-72.006191,42.943798],[-72.062223,42.944805],[-72.061247,42.965815],[-72.05795,43.018931],[-72.041973,43.082247],[-72.034863,43.12507],[-72.03815,43.128816],[-72.178498,43.131875],[-72.156662,43.181977],[-72.262484,43.169961],[-72.33214,43.162851],[-72.330327,43.155175],[-72.37644,43.157693],[-72.372046,43.132127],[-72.431633,43.135644],[-72.432091,43.159829],[-72.452095,43.161351],[-72.451554,43.155164],[-72.452802,43.151986],[-72.456538,43.149537],[-72.456891,43.146567],[-72.451987,43.138933],[-72.448304,43.137196],[-72.444215,43.137379],[-72.440906,43.135802],[-72.440781,43.131481],[-72.442934,43.130201],[-72.440968,43.127617],[-72.435937,43.12339],[-72.432973,43.119664],[-72.432662,43.114086],[-72.434846,43.109926],[-72.440588,43.106154],[-72.442428,43.103639],[-72.443052,43.10085],[-72.439215,43.094861],[-72.435192,43.086631],[-72.436191,43.081739],[-72.439871,43.077052],[-72.445203,43.071361],[-72.454711,43.063496],[-72.463813,43.057413],[-72.466492,43.054738],[-72.467364,43.052657],[-72.465897,43.047514],[-72.462249,43.044223],[-72.460253,43.04068],[-72.460906,43.03597],[-72.462991,43.02854],[-72.462398,43.025569],[-72.458999,43.019397],[-72.457036,43.017294],[-72.452985,43.01574],[-72.444636,43.010575],[-72.443763,43.006254],[-72.448715,43.001178],[-72.451798,43.000586],[-72.456937,43.001315],[-72.459952,43.000089],[-72.462941,42.996952],[-72.464715,42.993591],[-72.465336,42.989567],[-72.464027,42.986116],[-72.461628,42.982915],[-72.465986,42.978479],[-72.473828,42.972054],[-72.476723,42.971755],[-72.479246,42.973606],[-72.481707,42.973994],[-72.486873,42.971798],[-72.492598,42.967657],[-72.504227,42.965824],[-72.507902,42.96418],[-72.518423,42.963179],[-72.532187,42.954954],[-72.534555,42.949903],[-72.531694,42.946519],[-72.528551,42.945329],[-72.526625,42.93991],[-72.526347,42.935726],[-72.527098,42.928593],[-72.524243,42.91851],[-72.525272,42.914372],[-72.530219,42.911585],[-72.531589,42.907173],[-72.53147,42.897959],[-72.537288,42.891879],[-72.540709,42.889388],[-72.552835,42.884977],[-72.555416,42.875437],[-72.555132,42.871067],[-72.556215,42.866959],[-72.555133,42.86574],[-72.554233,42.860047],[-72.557248,42.853028],[-72.553427,42.846718],[-72.548551,42.84203],[-72.547403,42.837596],[-72.547435,42.832612],[-72.546134,42.823947],[-72.542785,42.808491],[-72.539601,42.804841],[-72.518355,42.79066],[-72.511747,42.784123],[-72.508859,42.779928],[-72.508373,42.774619],[-72.510155,42.77323],[-72.514837,42.771445],[-72.516732,42.768679],[-72.516083,42.765958],[-72.513106,42.763831],[-72.507986,42.764423],[-72.500691,42.767666],[-72.49925,42.769063],[-72.498787,42.77199],[-72.495344,42.773295],[-72.491123,42.772474],[-72.487768,42.769389],[-72.484879,42.765549],[-72.479355,42.763128],[-72.475939,42.757711],[-72.474724,42.750738],[-72.473072,42.745925],[-72.467828,42.741218],[-72.461002,42.733218],[-72.458489,42.729103],[-72.45852,42.726862],[-72.412034,42.725455],[-72.326284,42.72286],[-72.283034,42.721567]]]},"properties":{"shapeName":"Cheshire","shapeISO":"52423323B8710872997835","shapeGroup":"USA","shapeType":"ADM2","src_shape_id":"52423323B8710872997835","adm1ISO":"US-NH"}},
{"type":"Feature","geometry":{"type":"Polygon","coordinates":[[[-70.989037,43.792163],[-70.98993,43.839248],[-70.992654,43.896249],[-70.992843,43.916278],[-70.998445,44.041108],[-71.001368,44.09294],[-71.002163,44.110628],[-71.008568,44.2455],[-71.008737,44.258834],[-71.010272,44.284897],[-71.044386,44.283787],[-71.042281,44.237523],[-71.098435,44.235463],[-71.251958,44.244275],[-71.302451,44.137411],[-71.311759,44.091765],[-71.335883,44.085761],[-71.343589,44.092063],[-71.343239,44.123396],[-71.356483,44.165845],[-71.38424,44.178853],[-71.394875,44.214688],[-71.415899,44.212178],[-71.426508,44.210912],[-71.413172,44.167471],[-71.387139,44.15521],[-71.376519,44.118879],[-71.381631,44.097883],[-71.366356,44.068533],[-71.346657,44.068831],[-71.383614,44.02262],[-71.379547,44.001553],[-71.361966,43.915947],[-71.564604,43.893181],[-71.560622,43.875054],[-71.543806,43.796052],[-71.537755,43.795089],[-71.531659,43.760988],[-71.439891,43.695567],[-71.343621,43.628803],[-71.33564,43.62144],[-71.283682,43.588566],[-71.25826,43.571354],[-71.22791,43.564724],[-71.208942,43.550526],[-71.199466,43.559139],[-71.162676,43.538968],[-71.127809,43.572796],[-71.111497,43.506718],[-71.084839,43.506695],[-71.067566,43.527249],[-71.037932,43.529835],[-71.024245,43.482922],[-70.962537,43.54131],[-70.962147,43.541046],[-70.955929,43.541934],[-70.955253,43.540896],[-70.950839,43.551035],[-70.955018,43.554248],[-70.955861,43.559796],[-70.957235,43.561367],[-70.961849,43.562973],[-70.968547,43.568865],[-70.972717,43.570264],[-70.975706,43.625087],[-70.981947,43.700969],[-70.982084,43.715052],[-70.984902,43.752992],[-70.989037,43.792163]]]},"properties":{"shapeName":"Carroll","shapeISO":"52423323B18021300180262","shapeGroup":"USA","shapeType":"ADM2","src_shape_id":"52423323B18021300180262","adm1ISO":"US-NH"}},
{"type":"Feature","geometry":{"type":"Polygon","coordinates":[[[-71.24554,42.742576],[-71.260091,42.755743],[-71.351036,42.772192],[-71.358056,42.785146],[-71.364419,42.785246],[-71.36068,42.798971],[-71.387201,42.823568],[-71.427068,42.824849],[-71.442302,42.890408],[-71.451155,42.930909],[-71.384061,42.938358],[-71.377187,42.947154],[-71.392389,43.009318],[-71.440623,43.018396],[-71.454784,43.044009],[-71.473982,43.035283],[-71.48911,43.051788],[-71.512768,43.049624],[-71.517468,43.068918],[-71.641292,43.054177],[-71.667772,43.152543],[-71.732561,43.139795],[-71.856101,43.115144],[-71.913216,43.207108],[-72.009075,43.187891],[-72.036846,43.18248],[-72.023479,43.160134],[-72.03815,43.128816],[-72.034863,43.12507],[-72.041973,43.082247],[-72.05795,43.018931],[-72.061247,42.965815],[-72.062223,42.944805],[-72.006191,42.943798],[-72.001216,42.919452],[-71.984217,42.833814],[-71.974711,42.789411],[-71.944284,42.788419],[-71.92902,42.712247],[-71.898771,42.711431],[-71.805391,42.708906],[-71.745818,42.707296],[-71.630623,42.704768],[-71.54269,42.702685],[-71.432355,42.70007],[-71.351875,42.698163],[-71.330207,42.697199],[-71.294206,42.696999],[-71.27893,42.711267],[-71.267906,42.725899],[-71.255199,42.736647],[-71.24554,42.742576]]]},"properties":{"shapeName":"Hillsborough","shapeISO":"52423323B30528767978051","shapeGroup":"USA","shapeType":"ADM2","src_shape_id":"52423323B30528767978051","adm1ISO":"US-NH"}},
{"type":"Feature","geometry":{"type":"Polygon","coordinates":[[[-72.329678,43.600193],[-72.332383,43.599373],[-72.349927,43.587735],[-72.363917,43.583661],[-72.373127,43.579428],[-72.379441,43.574078],[-72.382626,43.564136],[-72.382784,43.562468],[-72.381188,43.554924],[-72.380384,43.540889],[-72.383311,43.535199],[-72.389098,43.528275],[-72.390701,43.52727],[-72.394219,43.527409],[-72.39595,43.523889],[-72.395826,43.520569],[-72.398564,43.513444],[-72.398377,43.510838],[-72.396306,43.508071],[-72.389557,43.503908],[-72.384774,43.500268],[-72.380895,43.493403],[-72.380429,43.488534],[-72.381724,43.4801],[-72.382952,43.476009],[-72.384492,43.474204],[-72.391527,43.468789],[-72.392629,43.465087],[-72.390568,43.451234],[-72.393993,43.444675],[-72.39566,43.43855],[-72.395917,43.430983],[-72.399973,43.415258],[-72.400132,43.411006],[-72.403812,43.391944],[-72.405254,43.390001],[-72.413155,43.384311],[-72.415382,43.38022],[-72.415979,43.37654],[-72.4151,43.365905],[-72.413378,43.36275],[-72.40395,43.358107],[-72.400442,43.357694],[-72.392171,43.357874],[-72.390104,43.356935],[-72.390921,43.354993],[-72.395404,43.350423],[-72.400982,43.345784],[-72.409038,43.334404],[-72.410354,43.331684],[-72.408697,43.327683],[-72.402533,43.320389],[-72.39762,43.317073],[-72.395463,43.313003],[-72.401667,43.303404],[-72.407843,43.282901],[-72.415451,43.271383],[-72.421584,43.263451],[-72.435222,43.258492],[-72.438694,43.252914],[-72.438938,43.244249],[-72.436655,43.238328],[-72.433775,43.233092],[-72.434467,43.230441],[-72.437657,43.225275],[-72.440501,43.219058],[-72.440564,43.215263],[-72.438595,43.209022],[-72.43772,43.202759],[-72.43897,43.201044],[-72.450281,43.192494],[-72.449436,43.189179],[-72.44375,43.18223],[-72.443406,43.179738],[-72.444905,43.177978],[-72.452557,43.172126],[-72.451869,43.170183],[-72.452095,43.161351],[-72.432091,43.159829],[-72.431633,43.135644],[-72.372046,43.132127],[-72.37644,43.157693],[-72.330327,43.155175],[-72.33214,43.162851],[-72.262484,43.169961],[-72.156662,43.181977],[-72.178498,43.131875],[-72.03815,43.128816],[-72.023479,43.160134],[-72.036846,43.18248],[-72.009075,43.187891],[-72.041546,43.222733],[-72.045285,43.254776],[-72.065443,43.255089],[-72.090147,43.322562],[-72.078626,43.338599],[-72.050305,43.378287],[-72.046811,43.410871],[-72.057767,43.422437],[-72.053753,43.441106],[-72.011364,43.43688],[-71.990306,43.464932],[-71.935311,43.528889],[-72.067166,43.54398],[-72.069517,43.553181],[-72.090894,43.528866],[-72.120177,43.538311],[-72.106413,43.553494],[-72.171189,43.573994],[-72.208314,43.585216],[-72.329678,43.600193]]]},"properties":{"shapeName":"Sullivan","shapeISO":"52423323B69622605067069","shapeGroup":"USA","shapeType":"ADM2","src_shape_id":"52423323B69622605067069","adm1ISO":"US-NH"}},
{"type":"Feature","geometry":{"type":"Polygon","coordinates":[[[-70.962147,43.541046],[-70.962537,43.54131],[-71.024245,43.482922],[-71.037932,43.529835],[-71.067566,43.527249],[-71.084839,43.506695],[-71.111497,43.506718],[-71.127809,43.572796],[-71.162676,43.538968],[-71.1908,43.515042],[-71.159365,43.355132],[-71.207569,43.308005],[-71.236012,43.285003],[-71.247337,43.275241],[-71.133615,43.203607],[-71.127949,43.200081],[-71.026687,43.137956],[-71.072937,43.08169],[-71.012571,43.082002],[-70.980802,43.082376],[-70.933942,43.090142],[-70.875437,43.080431],[-70.860941,43.094629],[-70.862451,43.124368],[-70.8469,43.126095],[-70.833917,43.11802],[-70.825576,43.118215],[-70.820001,43.122595],[-70.826801,43.127095],[-70.829301,43.132495],[-70.830001,43.138395],[-70.832901,43.143295],[-70.833801,43.146895],[-70.829102,43.157895],[-70.827802,43.166394],[-70.828302,43.168994],[-70.826202,43.172094],[-70.823502,43.174594],[-70.824802,43.179694],[-70.828302,43.186694],[-70.827202,43.189494],[-70.820703,43.191672],[-70.819147,43.195166],[-70.820764,43.199789],[-70.816904,43.214613],[-70.81312,43.217261],[-70.809671,43.22457],[-70.811853,43.228315],[-70.815454,43.229032],[-70.816233,43.235006],[-70.817866,43.23792],[-70.825072,43.240939],[-70.833651,43.242877],[-70.838679,43.24294],[-70.841274,43.248662],[-70.839214,43.251233],[-70.843303,43.25433],[-70.852016,43.256817],[-70.855083,43.2552],[-70.859608,43.257351],[-70.861385,43.263152],[-70.863231,43.265118],[-70.872586,43.270161],[-70.881705,43.272492],[-70.882805,43.273192],[-70.883705,43.277492],[-70.886505,43.282792],[-70.890205,43.284191],[-70.896305,43.285291],[-70.906006,43.291691],[-70.907406,43.293591],[-70.901391,43.298773],[-70.900387,43.301367],[-70.902311,43.304881],[-70.907406,43.304791],[-70.912461,43.308298],[-70.911626,43.309961],[-70.912005,43.31983],[-70.916422,43.320288],[-70.92395,43.324777],[-70.930784,43.329578],[-70.931642,43.331028],[-70.932736,43.336769],[-70.937111,43.337376],[-70.951526,43.334681],[-70.953035,43.333266],[-70.956529,43.3347],[-70.957861,43.337785],[-70.96044,43.341057],[-70.964029,43.341897],[-70.96723,43.343786],[-70.974864,43.357978],[-70.974157,43.362934],[-70.976409,43.367281],[-70.98186,43.373871],[-70.984336,43.376137],[-70.985966,43.380032],[-70.985959,43.384249],[-70.985206,43.386754],[-70.98765,43.38953],[-70.987391,43.393466],[-70.982877,43.394817],[-70.982818,43.399321],[-70.985768,43.401629],[-70.986678,43.40355],[-70.98725,43.411872],[-70.986813,43.414273],[-70.982899,43.419341],[-70.978053,43.421963],[-70.974621,43.423031],[-70.97104,43.425615],[-70.96836,43.429292],[-70.969363,43.43274],[-70.968783,43.4349],[-70.961151,43.43833],[-70.961641,43.443048],[-70.965811,43.447566],[-70.966901,43.450467],[-70.966267,43.453636],[-70.963991,43.456761],[-70.960451,43.466601],[-70.961429,43.469705],[-70.964434,43.473285],[-70.966018,43.472927],[-70.970947,43.473909],[-70.972957,43.475029],[-70.974246,43.477429],[-70.967969,43.480792],[-70.967405,43.482644],[-70.969573,43.48621],[-70.966719,43.491287],[-70.961949,43.497759],[-70.959186,43.49936],[-70.957959,43.50805],[-70.954756,43.509811],[-70.956857,43.512728],[-70.954046,43.518806],[-70.954067,43.522619],[-70.957215,43.525003],[-70.957047,43.528752],[-70.958221,43.531595],[-70.963343,43.535256],[-70.963282,43.538938],[-70.962147,43.541046]]]},"properties":{"shapeName":"Strafford","shapeISO":"52423323B44709532305945","shapeGroup":"USA","shapeType":"ADM2","src_shape_id":"52423323B44709532305945","adm1ISO":"US-NH"}}
]}