{"type":"FeatureCollection","bbox":[-84.820164,38.403209,-80.518697,41.977531], "features": [
{"type":"Feature","geometry":{"type":"Polygon","coordinates":[[[-83.865683,39.247341],[-83.869766,39.055538],[-83.872218,39.021312],[-83.816863,39.020181],[-83.705354,39.021359],[-83.673022,39.020438],[-83.611596,39.018898],[-83.385641,39.055205],[-83.353535,39.197593],[-83.343483,39.233224],[-83.344988,39.250612],[-83.362355,39.240584],[-83.381129,39.249626],[-83.393798,39.268056],[-83.376633,39.290952],[-83.386061,39.319698],[-83.375077,39.347835],[-83.372718,39.377424],[-83.590882,39.378744],[-83.784797,39.262896],[-83.801344,39.231575],[-83.813877,39.223052],[-83.835873,39.223312],[-83.834408,39.245723],[-83.865683,39.247341]]]},"properties":{"shapeName":"Highland","shapeISO":"52423323B51867153498623","shapeGroup":"USA","shapeType":"ADM2","src_shape_id":"52423323B51867153498623","adm1ISO":"US-OH"}},
{"type":"Feature","geometry":{"type":"Polygon","coordinates":[[[-82.824258,39.795004],[-82.837263,39.654608],[-82.842957,39.561488],[-82.731522,39.554453],[-82.730276,39.569074],[-82.620092,39.563995],[-82.61755,39.608613],[-82.496127,39.602857],[-82.490333,39.661712],[-82.374535,39.654967],[-82.366055,39.742528],[-82.40425,39.744613],[-82.396598,39.833065],[-82.472406,39.837231],[-82.462817,39.930388],[-82.473427,39.925073],[-82.772874,39.939334],[-82.782499,39.93967],[-82.810801,39.94117],[-82.8131,39.911671],[-82.794387,39.910793],[-82.799217,39.859692],[-82.80248,39.822961],[-82.8215,39.824279],[-82.824258,39.795004]]]},"properties":{"shapeName":"Fairfield","shapeISO":"52423323B60724250997999","shapeGroup":"USA","shapeType":"ADM2","src_shape_id":"52423323B60724250997999","adm1ISO":"US-OH"}},
{"type":"Feature","geometry":{"type":"Polygon","coordinates":[[[-83.421058,41.166788],[-83.421156,41.130263],[-83.420323,40.991897],[-83.305008,40.992795],[-83.112741,40.993455],[-82.853188,40.993669],[-82.829516,40.996632],[-82.838542,41.217007],[-82.840091,41.255345],[-83.13161,41.256404],[-83.249516,41.253024],[-83.323164,41.254897],[-83.419847,41.254011],[-83.421058,41.166788]]]},"properties":{"shapeName":"Seneca","shapeISO":"52423323B66347180618520","shapeGroup":"USA","shapeType":"ADM2","src_shape_id":"52423323B66347180618520","adm1ISO":"US-OH"}},
{"type":"Feature","geometry":{"type":"Polygon","coordinates":[[[-84.806087,41.696097],[-84.806215,41.674558],[-84.805678,41.63235],[-84.805817,41.613048],[-84.804734,41.530143],[-84.804462,41.488232],[-84.803924,41.435539],[-84.803961,41.426052],[-84.341669,41.427576],[-84.341907,41.485527],[-84.342056,41.514115],[-84.38074,41.51395],[-84.381317,41.616738],[-84.39838,41.616988],[-84.399552,41.705868],[-84.438072,41.704911],[-84.74996,41.698253],[-84.806087,41.696097]]]},"properties":{"shapeName":"Williams","shapeISO":"52423323B84599741370960","shapeGroup":"USA","shapeType":"ADM2","src_shape_id":"52423323B84599741370960","adm1ISO":"US-OH"}},
{"type":"Feature","geometry":{"type":"Polygon","coordinates":[[[-82.840091,41.255345],[-82.841479,41.290031],[-82.844569,41.362402],[-82.84771,41.430503],[-82.903082,41.430479],[-82.95294,41.43018],[-82.952228,41.458247],[-83.037444,41.457541],[-83.067463,41.457177],[-83.3382,41.457516],[-83.338995,41.501197],[-83.41463,41.500236],[-83.419847,41.254011],[-83.323164,41.254897],[-83.249516,41.253024],[-83.13161,41.256404],[-82.840091,41.255345]]]},"properties":{"shapeName":"Sandusky","shapeISO":"52423323B66860409179158","shapeGroup":"USA","shapeType":"ADM2","src_shape_id":"52423323B66860409179158","adm1ISO":"US-OH"}},
{"type":"Feature","geometry":{"type":"Polygon","coordinates":[[[-81.338061,40.214261],[-81.339569,40.172007],[-81.225928,40.170083],[-81.220399,40.172598],[-81.109941,40.167841],[-80.882896,40.159503],[-80.871557,40.379466],[-80.865508,40.422937],[-80.941915,40.424708],[-81.10008,40.430604],[-81.217498,40.431735],[-81.269955,40.433494],[-81.275323,40.303442],[-81.334605,40.304324],[-81.338061,40.214261]]]},"properties":{"shapeName":"Harrison","shapeISO":"52423323B91604440598292","shapeGroup":"USA","shapeType":"ADM2","src_shape_id":"52423323B91604440598292","adm1ISO":"US-OH"}},
{"type":"Feature","geometry":{"type":"Polygon","coordinates":[[[-83.020802,40.433803],[-83.022083,40.418892],[-82.924785,40.415012],[-82.929592,40.358131],[-82.744935,40.349611],[-82.646507,40.345084],[-82.642841,40.522119],[-82.6428,40.550019],[-82.623613,40.549887],[-82.624764,40.637291],[-82.644121,40.637248],[-82.644981,40.666433],[-82.626169,40.66614],[-82.627195,40.709424],[-82.689117,40.711041],[-82.727168,40.711211],[-82.858201,40.712431],[-82.858306,40.705027],[-82.859757,40.646403],[-82.957719,40.635661],[-82.958067,40.557942],[-82.958405,40.490672],[-83.016789,40.484519],[-83.020802,40.433803]]]},"properties":{"shapeName":"Morrow","shapeISO":"52423323B2612836546555","shapeGroup":"USA","shapeType":"ADM2","src_shape_id":"52423323B2612836546555","adm1ISO":"US-OH"}},
{"type":"Feature","geometry":{"type":"Polygon","coordinates":[[[-82.126203,40.668237],[-82.220669,40.667588],[-82.220336,40.594715],[-82.220114,40.568214],[-82.179073,40.57312],[-82.184611,40.456288],[-81.898405,40.448842],[-81.892411,40.448075],[-81.709136,40.444783],[-81.669658,40.443874],[-81.668975,40.632871],[-81.649203,40.635114],[-81.650049,40.668125],[-81.876908,40.667195],[-82.126203,40.668237]]]},"properties":{"shapeName":"Holmes","shapeISO":"52423323B45716544412555","shapeGroup":"USA","shapeType":"ADM2","src_shape_id":"52423323B45716544412555","adm1ISO":"US-OH"}},
{"type":"Feature","geometry":{"type":"Polygon","coordinates":[[[-81.650049,40.668125],[-81.647995,40.825784],[-81.647739,40.914024],[-81.647693,40.988571],[-81.688495,40.988598],[-81.977385,40.989969],[-82.078631,40.991161],[-82.129338,40.991815],[-82.127904,40.90091],[-82.125014,40.886271],[-82.126203,40.668237],[-81.876908,40.667195],[-81.650049,40.668125]]]},"properties":{"shapeName":"Wayne","shapeISO":"52423323B53124474487881","shapeGroup":"USA","shapeType":"ADM2","src_shape_id":"52423323B53124474487881","adm1ISO":"US-OH"}},
{"type":"Feature","geometry":{"type":"Polygon","coordinates":[[[-83.112741,40.993455],[-83.111364,40.702923],[-83.090581,40.702558],[-82.858306,40.705027],[-82.858201,40.712431],[-82.727168,40.711211],[-82.724796,40.995646],[-82.829516,40.996632],[-82.853188,40.993669],[-83.112741,40.993455]]]},"properties":{"shapeName":"Crawford","shapeISO":"52423323B92428589808296","shapeGroup":"USA","shapeType":"ADM2","src_shape_id":"52423323B92428589808296","adm1ISO":"US-OH"}},
{"type":"Feature","geometry":{"type":"Polygon","coordinates":[[[-84.803497,41.25257],[-84.803477,41.173897],[-84.803418,41.164657],[-84.803785,41.140528],[-84.803239,41.121422],[-84.803379,41.08931],[-84.803318,40.989402],[-84.399491,40.990323],[-84.341916,40.9907],[-84.341607,41.165532],[-84.341606,41.209038],[-84.457064,41.209442],[-84.457222,41.253493],[-84.803497,41.25257]]]},"properties":{"shapeName":"Paulding","shapeISO":"52423323B38130377602201","shapeGroup":"USA","shapeType":"ADM2","src_shape_id":"52423323B38130377602201","adm1ISO":"US-OH"}},
{"type":"Feature","geometry":{"type":"Polygon","coordinates":[[[-81.391698,41.34828],[-81.391835,41.276662],[-81.392118,41.13573],[-81.39322,41.040648],[-81.393253,40.988539],[-81.357533,40.988725],[-81.20315,40.987997],[-81.195683,40.988213],[-81.086316,40.988039],[-81.001699,40.987791],[-81.002364,41.062101],[-81.002294,41.134197],[-81.002625,41.202562],[-81.002884,41.27185],[-81.003195,41.347867],[-81.003323,41.347868],[-81.391698,41.34828]]]},"properties":{"shapeName":"Portage","shapeISO":"52423323B44702428912558","shapeGroup":"USA","shapeType":"ADM2","src_shape_id":"52423323B44702428912558","adm1ISO":"US-OH"}},
{"type":"Feature","geometry":{"type":"Polygon","coordinates":[[[-84.053741,39.850466],[-84.055058,39.836219],[-84.092943,39.838353],[-84.096942,39.793683],[-84.11194,39.626367],[-84.110574,39.61845],[-84.1142,39.577991],[-84.056912,39.574421],[-83.977009,39.569177],[-83.6702,39.550262],[-83.653334,39.716884],[-83.648851,39.765852],[-83.647173,39.773037],[-83.646614,39.776004],[-83.738903,39.781301],[-83.76666,39.791149],[-83.829378,39.797774],[-83.827429,39.822659],[-83.941293,39.828846],[-83.939587,39.843805],[-84.053741,39.850466]]]},"properties":{"shapeName":"Greene","shapeISO":"52423323B31889876987005","shapeGroup":"USA","shapeType":"ADM2","src_shape_id":"52423323B31889876987005","adm1ISO":"US-OH"}},
{"type":"Feature","geometry":{"type":"Polygon","coordinates":[[[-82.782499,39.93967],[-82.773829,39.976133],[-82.767487,40.051036],[-82.761831,40.125863],[-82.971311,40.134941],[-83.017016,40.136755],[-83.169985,40.143095],[-83.170212,40.106935],[-83.206277,40.107741],[-83.210591,40.065285],[-83.2122,40.048077],[-83.255354,40.048255],[-83.259927,40.00428],[-83.245966,39.987023],[-83.250231,39.970336],[-83.225647,39.93227],[-83.252035,39.917371],[-83.243706,39.812511],[-83.120359,39.807831],[-83.013075,39.804402],[-82.824258,39.795004],[-82.8215,39.824279],[-82.80248,39.822961],[-82.799217,39.859692],[-82.794387,39.910793],[-82.8131,39.911671],[-82.810801,39.94117],[-82.782499,39.93967]]]},"properties":{"shapeName":"Franklin","shapeISO":"52423323B46586650957438","shapeGroup":"USA","shapeType":"ADM2","src_shape_id":"52423323B46586650957438","adm1ISO":"US-OH"}},
{"type":"Feature","geometry":{"type":"Polygon","coordinates":[[[-84.43258,40.197045],[-84.436337,40.180809],[-84.432287,40.180848],[-84.425907,39.91963],[-84.157676,39.922978],[-84.16707,39.912205],[-84.157222,39.886002],[-84.051017,39.879818],[-84.036074,40.04019],[-84.022924,40.183953],[-84.219142,40.195507],[-84.218663,40.200012],[-84.298871,40.198326],[-84.43258,40.197045]]]},"properties":{"shapeName":"Miami","shapeISO":"52423323B70548517333003","shapeGroup":"USA","shapeType":"ADM2","src_shape_id":"52423323B70548517333003","adm1ISO":"US-OH"}},
{"type":"Feature","geometry":{"type":"Polygon","coordinates":[[[-82.623613,40.549887],[-82.374902,40.550879],[-82.336966,40.555009],[-82.338487,40.63851],[-82.339215,40.726691],[-82.378401,40.727153],[-82.378957,40.787235],[-82.389694,40.796034],[-82.388563,40.808177],[-82.407763,40.808255],[-82.42084,40.823522],[-82.416435,40.829615],[-82.417904,40.992946],[-82.432856,40.992952],[-82.724796,40.995646],[-82.727168,40.711211],[-82.689117,40.711041],[-82.627195,40.709424],[-82.626169,40.66614],[-82.644981,40.666433],[-82.644121,40.637248],[-82.624764,40.637291],[-82.623613,40.549887]]]},"properties":{"shapeName":"Richland","shapeISO":"52423323B34604508478331","shapeGroup":"USA","shapeType":"ADM2","src_shape_id":"52423323B34604508478331","adm1ISO":"US-OH"}},
{"type":"Feature","geometry":{"type":"Polygon","coordinates":[[[-83.353535,39.197593],[-83.145026,39.18758],[-82.840369,39.17202],[-82.785895,39.168777],[-82.766696,39.167776],[-82.762896,39.207975],[-82.760115,39.237652],[-82.748595,39.368173],[-82.740733,39.468358],[-82.998208,39.480069],[-82.9807,39.489869],[-82.978745,39.500862],[-82.992601,39.506396],[-83.266741,39.516257],[-83.372718,39.377424],[-83.375077,39.347835],[-83.386061,39.319698],[-83.376633,39.290952],[-83.393798,39.268056],[-83.381129,39.249626],[-83.362355,39.240584],[-83.344988,39.250612],[-83.343483,39.233224],[-83.353535,39.197593]]]},"properties":{"shapeName":"Ross","shapeISO":"52423323B5632937542361","shapeGroup":"USA","shapeType":"ADM2","src_shape_id":"52423323B5632937542361","adm1ISO":"US-OH"}},
{"type":"Feature","geometry":{"type":"Polygon","coordinates":[[[-81.688495,40.988598],[-81.686994,41.135964],[-81.684954,41.277154],[-81.705155,41.277262],[-81.807892,41.276059],[-81.839114,41.27557],[-81.878057,41.275052],[-81.972489,41.274837],[-81.973899,41.199839],[-82.072469,41.199858],[-82.07427,41.136464],[-82.169879,41.137105],[-82.171496,41.063545],[-82.173363,40.992054],[-82.129338,40.991815],[-82.078631,40.991161],[-81.977385,40.989969],[-81.688495,40.988598]]]},"properties":{"shapeName":"Medina","shapeISO":"52423323B44345511959461","shapeGroup":"USA","shapeType":"ADM2","src_shape_id":"52423323B44345511959461","adm1ISO":"US-OH"}},
{"type":"Feature","geometry":{"type":"Polygon","coordinates":[[[-84.80227,40.572223],[-84.802488,40.528054],[-84.802552,40.501818],[-84.803933,40.462572],[-84.804509,40.411563],[-84.804123,40.352765],[-84.599593,40.353217],[-84.434636,40.354267],[-84.434392,40.354542],[-84.455423,40.358597],[-84.455034,40.451313],[-84.455718,40.567896],[-84.456185,40.68487],[-84.456177,40.728314],[-84.802124,40.728154],[-84.802099,40.702484],[-84.802225,40.674784],[-84.80214,40.644867],[-84.80227,40.572223]]]},"properties":{"shapeName":"Mercer","shapeISO":"52423323B6373952643979","shapeGroup":"USA","shapeType":"ADM2","src_shape_id":"52423323B6373952643979","adm1ISO":"US-OH"}},
{"type":"Feature","geometry":{"type":"Polygon","coordinates":[[[-80.941915,40.424708],[-80.940157,40.468357],[-80.92457,40.467983],[-80.920924,40.556323],[-80.863571,40.555419],[-80.861998,40.599412],[-80.860826,40.642578],[-80.918129,40.643472],[-80.917176,40.726942],[-81.087293,40.727824],[-81.198603,40.72918],[-81.237231,40.72355],[-81.241254,40.650542],[-81.317743,40.651587],[-81.321663,40.566656],[-81.264748,40.56505],[-81.268438,40.476722],[-81.269955,40.433494],[-81.217498,40.431735],[-81.10008,40.430604],[-80.941915,40.424708]]]},"properties":{"shapeName":"Carroll","shapeISO":"52423323B82446565962653","shapeGroup":"USA","shapeType":"ADM2","src_shape_id":"52423323B82446565962653","adm1ISO":"US-OH"}},
{"type":"Feature","geometry":{"type":"Polygon","coordinates":[[[-83.169985,40.143095],[-83.172334,40.244265],[-83.248432,40.244474],[-83.248599,40.443997],[-83.248302,40.501005],[-83.248187,40.507042],[-83.418382,40.50524],[-83.520231,40.504085],[-83.53282,40.39681],[-83.551342,40.229378],[-83.494502,40.225475],[-83.503718,40.111476],[-83.206277,40.107741],[-83.170212,40.106935],[-83.169985,40.143095]]]},"properties":{"shapeName":"Union","shapeISO":"52423323B76161760058948","shapeGroup":"USA","shapeType":"ADM2","src_shape_id":"52423323B76161760058948","adm1ISO":"US-OH"}},
{"type":"Feature","geometry":{"type":"Polygon","coordinates":[[[-84.1142,39.577991],[-84.285345,39.589166],[-84.365237,39.589501],[-84.364741,39.543851],[-84.332043,39.548562],[-84.336756,39.496645],[-84.33765,39.482365],[-84.338539,39.473538],[-84.336952,39.456222],[-84.34141,39.412431],[-84.353214,39.292295],[-84.33411,39.293295],[-84.262755,39.288361],[-84.256511,39.276428],[-84.258907,39.273751],[-84.259436,39.270804],[-84.006786,39.255076],[-83.977009,39.569177],[-84.056912,39.574421],[-84.1142,39.577991]]]},"properties":{"shapeName":"Warren","shapeISO":"52423323B78802175284896","shapeGroup":"USA","shapeType":"ADM2","src_shape_id":"52423323B78802175284896","adm1ISO":"US-OH"}},
{"type":"Feature","geometry":{"type":"Polygon","coordinates":[[[-83.372718,39.377424],[-83.266741,39.516257],[-83.252439,39.695446],[-83.653334,39.716884],[-83.6702,39.550262],[-83.57629,39.544555],[-83.590882,39.378744],[-83.372718,39.377424]]]},"properties":{"shapeName":"Fayette","shapeISO":"52423323B90080084315603","shapeGroup":"USA","shapeType":"ADM2","src_shape_id":"52423323B90080084315603","adm1ISO":"US-OH"}},
{"type":"Feature","geometry":{"type":"Polygon","coordinates":[[[-83.421058,41.166788],[-83.881154,41.167832],[-83.880428,40.920437],[-83.880068,40.819927],[-83.515887,40.818142],[-83.514732,40.905123],[-83.476745,40.904972],[-83.476797,40.948387],[-83.457685,40.948525],[-83.457854,40.991679],[-83.420323,40.991897],[-83.421156,41.130263],[-83.421058,41.166788]]]},"properties":{"shapeName":"Hancock","shapeISO":"52423323B63270252094254","shapeGroup":"USA","shapeType":"ADM2","src_shape_id":"52423323B63270252094254","adm1ISO":"US-OH"}},
{"type":"Feature","geometry":{"type":"Polygon","coordinates":[[[-83.590882,39.378744],[-83.57629,39.544555],[-83.6702,39.550262],[-83.977009,39.569177],[-84.006786,39.255076],[-83.993124,39.254243],[-83.865683,39.247341],[-83.834408,39.245723],[-83.835873,39.223312],[-83.813877,39.223052],[-83.801344,39.231575],[-83.784797,39.262896],[-83.590882,39.378744]]]},"properties":{"shapeName":"Clinton","shapeISO":"52423323B39504847617427","shapeGroup":"USA","shapeType":"ADM2","src_shape_id":"52423323B39504847617427","adm1ISO":"US-OH"}},
{"type":"Feature","geometry":{"type":"Polygon","coordinates":[[[-83.020802,40.433803],[-83.165119,40.43903],[-83.248599,40.443997],[-83.248432,40.244474],[-83.172334,40.244265],[-83.169985,40.143095],[-83.017016,40.136755],[-82.971311,40.134941],[-82.761831,40.125863],[-82.750751,40.277004],[-82.744935,40.349611],[-82.929592,40.358131],[-82.924785,40.415012],[-83.022083,40.418892],[-83.020802,40.433803]]]},"properties":{"shapeName":"Delaware","shapeISO":"52423323B18396846916905","shapeGroup":"USA","shapeType":"ADM2","src_shape_id":"52423323B18396846916905","adm1ISO":"US-OH"}},
{"type":"Feature","geometry":{"type":"Polygon","coordinates":[[[-81.003323,41.347868],[-81.003129,41.501693],[-81.00284,41.57135],[-81.003635,41.715145],[-81.102262,41.714315],[-81.101426,41.641465],[-81.190925,41.641343],[-81.294673,41.640897],[-81.295884,41.569958],[-81.391009,41.569724],[-81.391522,41.44523],[-81.374996,41.445294],[-81.374776,41.424435],[-81.391768,41.424277],[-81.391698,41.34828],[-81.003323,41.347868]]]},"properties":{"shapeName":"Geauga","shapeISO":"52423323B9355871384257","shapeGroup":"USA","shapeType":"ADM2","src_shape_id":"52423323B9355871384257","adm1ISO":"US-OH"}},
{"type":"Feature","geometry":{"type":"Polygon","coordinates":[[[-83.880428,40.920437],[-83.995233,40.919851],[-83.99517,40.905074],[-84.109521,40.904738],[-84.109591,40.861002],[-84.340536,40.859107],[-84.340106,40.816151],[-84.397379,40.815949],[-84.396783,40.684934],[-84.222804,40.685965],[-84.222754,40.656956],[-84.107913,40.657946],[-84.107792,40.643077],[-83.880199,40.644698],[-83.880068,40.819927],[-83.880428,40.920437]]]},"properties":{"shapeName":"Allen","shapeISO":"52423323B40875098856035","shapeGroup":"USA","shapeType":"ADM2","src_shape_id":"52423323B40875098856035","adm1ISO":"US-OH"}},
{"type":"Feature","geometry":{"type":"Polygon","coordinates":[[[-83.520231,40.504085],[-83.52004,40.509295],[-83.85592,40.530446],[-83.879843,40.531869],[-83.879937,40.538716],[-83.90854,40.535398],[-83.993872,40.535182],[-84.002377,40.483123],[-84.001981,40.393638],[-84.004842,40.390392],[-84.003705,40.312935],[-84.010335,40.317188],[-84.014768,40.273467],[-83.7842,40.260054],[-83.785358,40.245221],[-83.551342,40.229378],[-83.53282,40.39681],[-83.520231,40.504085]]]},"properties":{"shapeName":"Logan","shapeISO":"52423323B19570537341993","shapeGroup":"USA","shapeType":"ADM2","src_shape_id":"52423323B19570537341993","adm1ISO":"US-OH"}},
{"type":"Feature","geometry":{"type":"Polygon","coordinates":[[[-84.341907,41.485527],[-84.114868,41.486312],[-83.882948,41.487551],[-83.882492,41.599809],[-83.877373,41.617555],[-83.880392,41.720097],[-83.899769,41.719969],[-83.998854,41.71683],[-84.019378,41.716676],[-84.134422,41.712939],[-84.360421,41.706633],[-84.399552,41.705868],[-84.39838,41.616988],[-84.381317,41.616738],[-84.38074,41.51395],[-84.342056,41.514115],[-84.341907,41.485527]]]},"properties":{"shapeName":"Fulton","shapeISO":"52423323B87203223255400","shapeGroup":"USA","shapeType":"ADM2","src_shape_id":"52423323B87203223255400","adm1ISO":"US-OH"}},
{"type":"Feature","geometry":{"type":"Polygon","coordinates":[[[-81.269955,40.433494],[-81.268438,40.476722],[-81.264748,40.56505],[-81.321663,40.566656],[-81.317743,40.651587],[-81.447063,40.653467],[-81.438007,40.66287],[-81.459023,40.666928],[-81.467388,40.656015],[-81.553961,40.645338],[-81.649203,40.635114],[-81.668975,40.632871],[-81.669658,40.443874],[-81.709136,40.444783],[-81.712292,40.370812],[-81.616034,40.368126],[-81.622687,40.221316],[-81.338061,40.214261],[-81.334605,40.304324],[-81.275323,40.303442],[-81.269955,40.433494]]]},"properties":{"shapeName":"Tuscarawas","shapeISO":"52423323B94424103890514","shapeGroup":"USA","shapeType":"ADM2","src_shape_id":"52423323B94424103890514","adm1ISO":"US-OH"}},
{"type":"Feature","geometry":{"type":"Polygon","coordinates":[[[-81.338061,40.214261],[-81.622687,40.221316],[-81.667594,40.222476],[-81.670903,40.150984],[-81.71628,40.152174],[-81.728615,39.931736],[-81.691108,39.930764],[-81.69415,39.842644],[-81.580317,39.839112],[-81.578594,39.897691],[-81.464112,39.894558],[-81.462754,39.923508],[-81.387316,39.921404],[-81.38601,39.950702],[-81.347842,39.94997],[-81.234057,39.951278],[-81.225928,40.170083],[-81.339569,40.172007],[-81.338061,40.214261]]]},"properties":{"shapeName":"Guernsey","shapeISO":"52423323B21597350777733","shapeGroup":"USA","shapeType":"ADM2","src_shape_id":"52423323B21597350777733","adm1ISO":"US-OH"}},
{"type":"Feature","geometry":{"type":"Polygon","coordinates":[[[-82.289667,39.384203],[-82.29848,39.295004],[-82.260247,39.292923],[-82.268587,39.203768],[-81.960886,39.188752],[-81.755819,39.180532],[-81.752758,39.184684],[-81.749857,39.186497],[-81.741537,39.189604],[-81.737089,39.193844],[-81.735809,39.196276],[-81.733361,39.205876],[-81.729953,39.211892],[-81.725587,39.215843],[-81.721812,39.269605],[-81.818365,39.272589],[-81.816618,39.302066],[-81.835451,39.302815],[-81.834639,39.317571],[-81.853672,39.318173],[-81.844867,39.450224],[-82.055783,39.460061],[-82.047532,39.550833],[-82.159165,39.556582],[-82.167383,39.466315],[-82.280414,39.472914],[-82.289667,39.384203]]]},"properties":{"shapeName":"Athens","shapeISO":"52423323B42850579427463","shapeGroup":"USA","shapeType":"ADM2","src_shape_id":"52423323B42850579427463","adm1ISO":"US-OH"}},
{"type":"Feature","geometry":{"type":"Polygon","coordinates":[[[-82.184611,40.456288],[-82.184457,40.452683],[-82.195915,40.239079],[-82.182827,40.238632],[-82.187109,40.166888],[-81.721991,40.152955],[-81.71628,40.152174],[-81.670903,40.150984],[-81.667594,40.222476],[-81.622687,40.221316],[-81.616034,40.368126],[-81.712292,40.370812],[-81.709136,40.444783],[-81.892411,40.448075],[-81.898405,40.448842],[-82.184611,40.456288]]]},"properties":{"shapeName":"Coshocton","shapeISO":"52423323B75653296475511","shapeGroup":"USA","shapeType":"ADM2","src_shape_id":"52423323B75653296475511","adm1ISO":"US-OH"}},
{"type":"Feature","geometry":{"type":"Polygon","coordinates":[[[-82.785895,39.168777],[-82.807094,38.948081],[-82.753395,38.945381],[-82.760694,38.854883],[-82.650043,38.849081],[-82.575587,38.844486],[-82.574387,38.853483],[-82.455183,38.844585],[-82.435313,39.035087],[-82.424681,39.13798],[-82.540286,39.144479],[-82.536418,39.180783],[-82.65149,39.189575],[-82.650091,39.202277],[-82.762896,39.207975],[-82.766696,39.167776],[-82.785895,39.168777]]]},"properties":{"shapeName":"Jackson","shapeISO":"52423323B30327543932736","shapeGroup":"USA","shapeType":"ADM2","src_shape_id":"52423323B30327543932736","adm1ISO":"US-OH"}},
{"type":"Feature","geometry":{"type":"Polygon","coordinates":[[[-83.653334,39.716884],[-83.252439,39.695446],[-83.243706,39.812511],[-83.252035,39.917371],[-83.225647,39.93227],[-83.250231,39.970336],[-83.245966,39.987023],[-83.259927,40.00428],[-83.255354,40.048255],[-83.2122,40.048077],[-83.210591,40.065285],[-83.206277,40.107741],[-83.503718,40.111476],[-83.516159,40.010196],[-83.511801,40.003912],[-83.564885,39.848233],[-83.588045,39.768786],[-83.647173,39.773037],[-83.648851,39.765852],[-83.653334,39.716884]]]},"properties":{"shapeName":"Madison","shapeISO":"52423323B7238246753004","shapeGroup":"USA","shapeType":"ADM2","src_shape_id":"52423323B7238246753004","adm1ISO":"US-OH"}},
{"type":"Feature","geometry":{"type":"Polygon","coordinates":[[[-82.829516,40.996632],[-82.724796,40.995646],[-82.432856,40.992952],[-82.43692,41.065387],[-82.3365,41.065769],[-82.34062,41.137907],[-82.341289,41.187955],[-82.34409,41.20216],[-82.344007,41.211274],[-82.342318,41.283562],[-82.841479,41.290031],[-82.840091,41.255345],[-82.838542,41.217007],[-82.829516,40.996632]]]},"properties":{"shapeName":"Huron","shapeISO":"52423323B64843440353794","shapeGroup":"USA","shapeType":"ADM2","src_shape_id":"52423323B64843440353794","adm1ISO":"US-OH"}},
{"type":"Feature","geometry":{"type":"Polygon","coordinates":[[[-82.374535,39.654967],[-82.379894,39.596746],[-82.261958,39.5906],[-82.26357,39.562145],[-82.159165,39.556582],[-82.047532,39.550833],[-82.039609,39.550225],[-82.024223,39.724694],[-82.080228,39.727681],[-82.076643,39.770968],[-82.072938,39.816235],[-82.170051,39.820758],[-82.162376,39.909382],[-82.233978,39.913268],[-82.41867,39.922455],[-82.462817,39.930388],[-82.472406,39.837231],[-82.396598,39.833065],[-82.40425,39.744613],[-82.366055,39.742528],[-82.374535,39.654967]]]},"properties":{"shapeName":"Perry","shapeISO":"52423323B79068710555574","shapeGroup":"USA","shapeType":"ADM2","src_shape_id":"52423323B79068710555574","adm1ISO":"US-OH"}},
{"type":"Feature","geometry":{"type":"Polygon","coordinates":[[[-81.003635,41.715145],[-81.004767,41.726444],[-81.00212,41.854916],[-81.010494,41.85397],[-81.024529,41.846477],[-81.051924,41.839565],[-81.09272,41.822996],[-81.112889,41.817579],[-81.184372,41.786679],[-81.248676,41.761299],[-81.264228,41.758151],[-81.279929,41.759952],[-81.286929,41.760251],[-81.30163,41.750551],[-81.353233,41.727751],[-81.388636,41.707152],[-81.442649,41.673263],[-81.466042,41.649156],[-81.488644,41.631356],[-81.487846,41.570059],[-81.391009,41.569724],[-81.295884,41.569958],[-81.294673,41.640897],[-81.190925,41.641343],[-81.101426,41.641465],[-81.102262,41.714315],[-81.003635,41.715145]]]},"properties":{"shapeName":"Lake","shapeISO":"52423323B78273597344346","shapeGroup":"USA","shapeType":"ADM2","src_shape_id":"52423323B78273597344346","adm1ISO":"US-OH"}},
{"type":"Feature","geometry":{"type":"Polygon","coordinates":[[[-81.002294,41.134197],[-80.789476,41.134167],[-80.51917,41.133396],[-80.519148,41.171211],[-80.518834,41.209221],[-80.518897,41.232564],[-80.518697,41.248863],[-80.519,41.268308],[-80.518798,41.305517],[-80.519133,41.312416],[-80.519349,41.340748],[-80.519253,41.378926],[-80.519029,41.416446],[-80.518997,41.435462],[-80.519173,41.462589],[-80.519212,41.489021],[-80.519229,41.499932],[-81.003129,41.501693],[-81.003323,41.347868],[-81.003195,41.347867],[-81.002884,41.27185],[-81.002625,41.202562],[-81.002294,41.134197]]]},"properties":{"shapeName":"Trumbull","shapeISO":"52423323B93296857747121","shapeGroup":"USA","shapeType":"ADM2","src_shape_id":"52423323B93296857747121","adm1ISO":"US-OH"}},
{"type":"Feature","geometry":{"type":"Polygon","coordinates":[[[-84.814134,39.726628],[-84.814624,39.669182],[-84.814328,39.655822],[-84.81471,39.628862],[-84.815161,39.568359],[-84.815041,39.567703],[-84.478932,39.568798],[-84.479218,39.591032],[-84.480154,39.657058],[-84.483595,39.830406],[-84.485372,39.918499],[-84.812416,39.916924],[-84.812703,39.891593],[-84.813708,39.843067],[-84.813798,39.826779],[-84.814184,39.81422],[-84.814214,39.799763],[-84.814134,39.726628]]]},"properties":{"shapeName":"Preble","shapeISO":"52423323B89596948569542","shapeGroup":"USA","shapeType":"ADM2","src_shape_id":"52423323B89596948569542","adm1ISO":"US-OH"}},
{"type":"Feature","geometry":{"type":"Polygon","coordinates":[[[-83.420323,40.991897],[-83.457854,40.991679],[-83.457685,40.948525],[-83.476797,40.948387],[-83.476745,40.904972],[-83.514732,40.905123],[-83.515887,40.818142],[-83.4963,40.817948],[-83.495803,40.701625],[-83.440207,40.702311],[-83.440282,40.687619],[-83.41984,40.686831],[-83.413926,40.687285],[-83.304696,40.687163],[-83.304691,40.702014],[-83.111364,40.702923],[-83.112741,40.993455],[-83.305008,40.992795],[-83.420323,40.991897]]]},"properties":{"shapeName":"Wyandot","shapeISO":"52423323B18569406073310","shapeGroup":"USA","shapeType":"ADM2","src_shape_id":"52423323B18569406073310","adm1ISO":"US-OH"}},
{"type":"Feature","geometry":{"type":"Polygon","coordinates":[[[-81.086316,40.988039],[-81.086683,40.901617],[-80.896036,40.901003],[-80.895817,40.930195],[-80.821639,40.929783],[-80.821927,40.900943],[-80.519781,40.900332],[-80.519895,40.906669],[-80.519095,40.921069],[-80.519004,40.987388],[-80.518931,41.015395],[-80.518932,41.070962],[-80.519196,41.105366],[-80.519016,41.125101],[-80.51917,41.133396],[-80.789476,41.134167],[-81.002294,41.134197],[-81.002364,41.062101],[-81.001699,40.987791],[-81.086316,40.988039]]]},"properties":{"shapeName":"Mahoning","shapeISO":"52423323B65372362934971","shapeGroup":"USA","shapeType":"ADM2","src_shape_id":"52423323B65372362934971","adm1ISO":"US-OH"}},
{"type":"Feature","geometry":{"type":"Polygon","coordinates":[[[-82.268587,39.203768],[-82.306673,39.205502],[-82.322878,39.027682],[-82.323898,39.013162],[-82.095469,39.002786],[-82.098877,38.958327],[-82.094869,38.964586],[-82.093169,38.970988],[-82.091569,38.973786],[-82.089069,38.975986],[-82.079368,38.981086],[-82.068868,38.984886],[-82.058768,38.990086],[-82.051567,38.994386],[-82.049167,38.997286],[-82.045667,39.003786],[-82.041567,39.017886],[-82.038767,39.022686],[-82.035967,39.025486],[-82.027266,39.028386],[-82.017566,39.030086],[-82.007066,39.029586],[-82.002265,39.027886],[-81.994965,39.022486],[-81.991365,39.018386],[-81.987065,39.011986],[-81.983765,39.005486],[-81.982765,39.001986],[-81.982036,38.995705],[-81.981162,38.994359],[-81.977459,38.992687],[-81.973875,38.992421],[-81.967773,38.992963],[-81.960836,38.994283],[-81.959264,38.995235],[-81.951451,38.99604],[-81.941833,38.993303],[-81.936832,38.990422],[-81.93319,38.987667],[-81.926565,38.977516],[-81.918218,38.966603],[-81.912447,38.954351],[-81.906604,38.94527],[-81.900599,38.937679],[-81.898474,38.929611],[-81.899957,38.925413],[-81.908345,38.917411],[-81.91194,38.915572],[-81.917761,38.910612],[-81.919102,38.908623],[-81.926675,38.901319],[-81.928356,38.895379],[-81.926971,38.89161],[-81.915902,38.884278],[-81.910316,38.879302],[-81.908649,38.878468],[-81.898545,38.87459],[-81.892841,38.873877],[-81.889237,38.874287],[-81.874861,38.881182],[-81.858925,38.890198],[-81.855975,38.892742],[-81.848657,38.901415],[-81.845316,38.910096],[-81.846074,38.9132],[-81.84449,38.928754],[-81.838071,38.937143],[-81.83152,38.943705],[-81.82503,38.946611],[-81.819696,38.947024],[-81.814239,38.946176],[-81.806141,38.94212],[-81.79638,38.932506],[-81.793376,38.930212],[-81.785651,38.926201],[-81.77411,38.922973],[-81.766231,38.922954],[-81.762663,38.924129],[-81.759999,38.925836],[-81.75851,38.92795],[-81.756135,38.933553],[-81.756979,38.93716],[-81.769707,38.948715],[-81.773964,38.951653],[-81.778849,38.9559],[-81.78074,38.958983],[-81.781824,38.964943],[-81.779887,38.972781],[-81.775738,38.980745],[-81.776727,38.98515],[-81.775555,38.990115],[-81.771979,38.996853],[-81.767192,39.000123],[-81.765157,39.002587],[-81.764257,39.006587],[-81.764257,39.015287],[-81.767257,39.019987],[-81.772858,39.026187],[-81.786558,39.036587],[-81.793308,39.040361],[-81.800359,39.044986],[-81.803359,39.047686],[-81.808959,39.055186],[-81.811659,39.059586],[-81.813359,39.065886],[-81.814159,39.073486],[-81.813859,39.079286],[-81.812359,39.082086],[-81.807859,39.083986],[-81.803059,39.083886],[-81.798159,39.082886],[-81.790758,39.079786],[-81.781458,39.078086],[-81.775558,39.078386],[-81.764858,39.081986],[-81.760757,39.084086],[-81.752357,39.089886],[-81.747257,39.095386],[-81.745457,39.098086],[-81.742957,39.106586],[-81.742157,39.116785],[-81.744572,39.126824],[-81.744842,39.130906],[-81.744529,39.138837],[-81.743569,39.141941],[-81.744625,39.148421],[-81.754258,39.171484],[-81.756258,39.177284],[-81.755819,39.180532],[-81.960886,39.188752],[-82.268587,39.203768]]]},"properties":{"shapeName":"Meigs","shapeISO":"52423323B59957998601513","shapeGroup":"USA","shapeType":"ADM2","src_shape_id":"52423323B59957998601513","adm1ISO":"US-OH"}},
{"type":"Feature","geometry":{"type":"Polygon","coordinates":[[[-80.861998,40.599412],[-80.747116,40.596999],[-80.747324,40.583335],[-80.667961,40.582504],[-80.665896,40.587736],[-80.662568,40.591608],[-80.655192,40.596552],[-80.65172,40.597752],[-80.644967,40.603656],[-80.639383,40.611288],[-80.634359,40.616103],[-80.627175,40.619944],[-80.616006,40.621704],[-80.60388,40.625072],[-80.598768,40.625271],[-80.592053,40.622504],[-80.583637,40.615528],[-80.57986,40.614312],[-80.57674,40.614232],[-80.57194,40.615464],[-80.567844,40.61756],[-80.560724,40.623688],[-80.55113,40.628855],[-80.545896,40.62971],[-80.539544,40.63213],[-80.53274,40.635598],[-80.530096,40.636263],[-80.525663,40.636076],[-80.52192,40.637],[-80.518994,40.638809],[-80.519062,40.792306],[-80.518996,40.801229],[-80.519085,40.849165],[-80.519023,40.851347],[-80.519006,40.877551],[-80.519781,40.900332],[-80.821927,40.900943],[-80.821639,40.929783],[-80.895817,40.930195],[-80.896036,40.901003],[-81.086683,40.901617],[-81.087293,40.727824],[-80.917176,40.726942],[-80.918129,40.643472],[-80.860826,40.642578],[-80.861998,40.599412]]]},"properties":{"shapeName":"Columbiana","shapeISO":"52423323B72409574475457","shapeGroup":"USA","shapeType":"ADM2","src_shape_id":"52423323B72409574475457","adm1ISO":"US-OH"}},
{"type":"Feature","geometry":{"type":"Polygon","coordinates":[[[-83.882948,41.487551],[-83.883239,41.414511],[-83.854265,41.414459],[-83.845625,41.425036],[-83.781686,41.449349],[-83.773287,41.463624],[-83.747222,41.466224],[-83.732654,41.484692],[-83.712437,41.492864],[-83.703259,41.529068],[-83.625639,41.570059],[-83.612739,41.570759],[-83.588039,41.600958],[-83.569939,41.617158],[-83.415945,41.619118],[-83.238359,41.623254],[-83.182379,41.623162],[-83.165717,41.623254],[-83.194528,41.631016],[-83.231664,41.644226],[-83.238195,41.651175],[-83.278459,41.672086],[-83.290684,41.676802],[-83.293932,41.680854],[-83.326829,41.70157],[-83.337981,41.703418],[-83.337989,41.69869],[-83.341821,41.693526],[-83.357077,41.687771],[-83.375734,41.686655],[-83.392634,41.691955],[-83.409535,41.691255],[-83.446036,41.706855],[-83.449005,41.710727],[-83.45563,41.727453],[-83.453836,41.732655],[-83.497737,41.731855],[-83.504338,41.731555],[-83.58524,41.729356],[-83.59524,41.729156],[-83.665942,41.726957],[-83.685342,41.726457],[-83.708942,41.725158],[-83.763154,41.723555],[-83.859546,41.721258],[-83.880392,41.720097],[-83.877373,41.617555],[-83.882492,41.599809],[-83.882948,41.487551]]]},"properties":{"shapeName":"Lucas","shapeISO":"52423323B77631375313133","shapeGroup":"USA","shapeType":"ADM2","src_shape_id":"52423323B77631375313133","adm1ISO":"US-OH"}},
{"type":"Feature","geometry":{"type":"Polygon","coordinates":[[[-82.762896,39.207975],[-82.650091,39.202277],[-82.65149,39.189575],[-82.536418,39.180783],[-82.540286,39.144479],[-82.424681,39.13798],[-82.435313,39.035087],[-82.322878,39.027682],[-82.306673,39.205502],[-82.268587,39.203768],[-82.260247,39.292923],[-82.29848,39.295004],[-82.289667,39.384203],[-82.402234,39.390236],[-82.514483,39.395775],[-82.517584,39.369476],[-82.63439,39.375974],[-82.63569,39.361574],[-82.748595,39.368173],[-82.760115,39.237652],[-82.762896,39.207975]]]},"properties":{"shapeName":"Vinton","shapeISO":"52423323B79986289007094","shapeGroup":"USA","shapeType":"ADM2","src_shape_id":"52423323B79986289007094","adm1ISO":"US-OH"}},
{"type":"Feature","geometry":{"type":"Polygon","coordinates":[[[-82.744935,40.349611],[-82.750751,40.277004],[-82.476118,40.264711],[-82.477277,40.245818],[-82.346321,40.240221],[-82.280946,40.239259],[-82.270178,40.240191],[-82.195915,40.239079],[-82.184457,40.452683],[-82.184611,40.456288],[-82.179073,40.57312],[-82.220114,40.568214],[-82.336966,40.555009],[-82.374902,40.550879],[-82.623613,40.549887],[-82.6428,40.550019],[-82.642841,40.522119],[-82.646507,40.345084],[-82.744935,40.349611]]]},"properties":{"shapeName":"Knox","shapeISO":"52423323B4232054148696","shapeGroup":"USA","shapeType":"ADM2","src_shape_id":"52423323B4232054148696","adm1ISO":"US-OH"}},
{"type":"Feature","geometry":{"type":"Polygon","coordinates":[[[-81.878057,41.275052],[-81.876964,41.350693],[-81.971266,41.351276],[-81.970468,41.386756],[-81.969469,41.478025],[-81.968134,41.50643],[-81.994569,41.514448],[-82.01197,41.515647],[-82.094173,41.495047],[-82.165377,41.474448],[-82.181602,41.471642],[-82.184778,41.474048],[-82.186178,41.473448],[-82.188854,41.468105],[-82.193379,41.464548],[-82.254682,41.434449],[-82.268483,41.43085],[-82.291584,41.42845],[-82.334186,41.430251],[-82.34808,41.428439],[-82.345206,41.357438],[-82.342318,41.283562],[-82.344007,41.211274],[-82.34409,41.20216],[-82.341289,41.187955],[-82.34062,41.137907],[-82.3365,41.065769],[-82.171496,41.063545],[-82.169879,41.137105],[-82.07427,41.136464],[-82.072469,41.199858],[-81.973899,41.199839],[-81.972489,41.274837],[-81.878057,41.275052]]]},"properties":{"shapeName":"Lorain","shapeISO":"52423323B65155384259912","shapeGroup":"USA","shapeType":"ADM2","src_shape_id":"52423323B65155384259912","adm1ISO":"US-OH"}},
{"type":"Feature","geometry":{"type":"Polygon","coordinates":[[[-82.731522,39.554453],[-82.740733,39.468358],[-82.748595,39.368173],[-82.63569,39.361574],[-82.63439,39.375974],[-82.517584,39.369476],[-82.514483,39.395775],[-82.402234,39.390236],[-82.289667,39.384203],[-82.280414,39.472914],[-82.167383,39.466315],[-82.159165,39.556582],[-82.26357,39.562145],[-82.261958,39.5906],[-82.379894,39.596746],[-82.374535,39.654967],[-82.490333,39.661712],[-82.496127,39.602857],[-82.61755,39.608613],[-82.620092,39.563995],[-82.730276,39.569074],[-82.731522,39.554453]]]},"properties":{"shapeName":"Hocking","shapeISO":"52423323B99959311448402","shapeGroup":"USA","shapeType":"ADM2","src_shape_id":"52423323B99959311448402","adm1ISO":"US-OH"}},
{"type":"Feature","geometry":{"type":"Polygon","coordinates":[[[-81.649203,40.635114],[-81.553961,40.645338],[-81.467388,40.656015],[-81.459023,40.666928],[-81.438007,40.66287],[-81.447063,40.653467],[-81.317743,40.651587],[-81.241254,40.650542],[-81.237231,40.72355],[-81.198603,40.72918],[-81.087293,40.727824],[-81.086683,40.901617],[-81.086316,40.988039],[-81.195683,40.988213],[-81.20315,40.987997],[-81.357533,40.988725],[-81.393253,40.988539],[-81.416338,40.988464],[-81.420422,40.906512],[-81.536445,40.91032],[-81.647739,40.914024],[-81.647995,40.825784],[-81.650049,40.668125],[-81.649203,40.635114]]]},"properties":{"shapeName":"Stark","shapeISO":"52423323B51569510980228","shapeGroup":"USA","shapeType":"ADM2","src_shape_id":"52423323B51569510980228","adm1ISO":"US-OH"}},
{"type":"Feature","geometry":{"type":"Polygon","coordinates":[[[-84.353214,39.292295],[-84.46546,39.30293],[-84.483205,39.301705],[-84.504649,39.305965],[-84.562352,39.308087],[-84.630052,39.312064],[-84.641819,39.305052],[-84.703285,39.304756],[-84.819456,39.30516],[-84.819638,39.261863],[-84.819818,39.244342],[-84.820164,39.227233],[-84.819807,39.157621],[-84.81999,39.149089],[-84.820162,39.105487],[-84.813772,39.106499],[-84.810758,39.109149],[-84.793825,39.112947],[-84.787685,39.115305],[-84.783996,39.118068],[-84.766754,39.138566],[-84.754454,39.146666],[-84.750754,39.147366],[-84.744154,39.147466],[-84.732053,39.144466],[-84.726153,39.141966],[-84.718553,39.137067],[-84.714053,39.132667],[-84.701952,39.118967],[-84.689752,39.104167],[-84.684852,39.100467],[-84.677252,39.098268],[-84.666152,39.097968],[-84.657251,39.095468],[-84.650351,39.091668],[-84.632451,39.076768],[-84.623473,39.074363],[-84.620117,39.073465],[-84.607933,39.073246],[-84.601687,39.074123],[-84.592413,39.078096],[-84.572149,39.082068],[-84.563949,39.087368],[-84.557549,39.094868],[-84.554449,39.097668],[-84.550849,39.099368],[-84.543549,39.099668],[-84.541349,39.099168],[-84.524649,39.092168],[-84.519548,39.092068],[-84.509748,39.093668],[-84.506087,39.095088],[-84.502067,39.096649],[-84.493748,39.102468],[-84.487748,39.110768],[-84.480948,39.116768],[-84.470547,39.121468],[-84.462047,39.121768],[-84.455347,39.120368],[-84.449798,39.117762],[-84.445247,39.114469],[-84.440647,39.109669],[-84.435546,39.102269],[-84.432846,39.094269],[-84.433946,39.092469],[-84.434646,39.086869],[-84.432946,39.083969],[-84.432646,39.078269],[-84.433146,39.072969],[-84.432346,39.067569],[-84.429846,39.05827],[-84.427918,39.05497],[-84.425735,39.053067],[-84.421472,39.050946],[-84.406946,39.04567],[-84.402545,39.04567],[-84.400945,39.04637],[-84.394145,39.04527],[-84.386845,39.04517],[-84.360444,39.04137],[-84.346044,39.036971],[-84.336344,39.032871],[-84.326544,39.027471],[-84.319941,39.022088],[-84.315245,39.057343],[-84.299333,39.174455],[-84.288293,39.186495],[-84.276382,39.203881],[-84.284309,39.213251],[-84.309361,39.208782],[-84.320033,39.223441],[-84.282229,39.252271],[-84.261413,39.264694],[-84.259436,39.270804],[-84.258907,39.273751],[-84.256511,39.276428],[-84.262755,39.288361],[-84.33411,39.293295],[-84.353214,39.292295]]]},"properties":{"shapeName":"Hamilton","shapeISO":"52423323B74792918686733","shapeGroup":"USA","shapeType":"ADM2","src_shape_id":"52423323B74792918686733","adm1ISO":"US-OH"}},
{"type":"Feature","geometry":{"type":"Polygon","coordinates":[[[-83.419847,41.254011],[-83.41463,41.500236],[-83.415945,41.619118],[-83.569939,41.617158],[-83.588039,41.600958],[-83.612739,41.570759],[-83.625639,41.570059],[-83.703259,41.529068],[-83.712437,41.492864],[-83.732654,41.484692],[-83.747222,41.466224],[-83.773287,41.463624],[-83.781686,41.449349],[-83.845625,41.425036],[-83.854265,41.414459],[-83.883239,41.414511],[-83.881154,41.167832],[-83.421058,41.166788],[-83.419847,41.254011]]]},"properties":{"shapeName":"Wood","shapeISO":"52423323B2328996184544","shapeGroup":"USA","shapeType":"ADM2","src_shape_id":"52423323B2328996184544","adm1ISO":"US-OH"}},
{"type":"Feature","geometry":{"type":"Polygon","coordinates":[[[-83.647173,39.773037],[-83.588045,39.768786],[-83.564885,39.848233],[-83.511801,40.003912],[-83.516159,40.010196],[-83.807229,40.02735],[-84.036074,40.04019],[-84.051017,39.879818],[-84.053741,39.850466],[-83.939587,39.843805],[-83.941293,39.828846],[-83.827429,39.822659],[-83.829378,39.797774],[-83.76666,39.791149],[-83.738903,39.781301],[-83.646614,39.776004],[-83.647173,39.773037]]]},"properties":{"shapeName":"Clark","shapeISO":"52423323B77322804510799","shapeGroup":"USA","shapeType":"ADM2","src_shape_id":"52423323B77322804510799","adm1ISO":"US-OH"}},
{"type":"Feature","geometry":{"type":"Polygon","coordinates":[[[-82.126203,40.668237],[-82.125014,40.886271],[-82.127904,40.90091],[-82.129338,40.991815],[-82.173363,40.992054],[-82.171496,41.063545],[-82.3365,41.065769],[-82.43692,41.065387],[-82.432856,40.992952],[-82.417904,40.992946],[-82.416435,40.829615],[-82.42084,40.823522],[-82.407763,40.808255],[-82.388563,40.808177],[-82.389694,40.796034],[-82.378957,40.787235],[-82.378401,40.727153],[-82.339215,40.726691],[-82.338487,40.63851],[-82.336966,40.555009],[-82.220114,40.568214],[-82.220336,40.594715],[-82.220669,40.667588],[-82.126203,40.668237]]]},"properties":{"shapeName":"Ashland","shapeISO":"52423323B55530951280256","shapeGroup":"USA","shapeType":"ADM2","src_shape_id":"52423323B55530951280256","adm1ISO":"US-OH"}},
{"type":"Feature","geometry":{"type":"Polygon","coordinates":[[[-81.684954,41.277154],[-81.670514,41.277263],[-81.590546,41.277562],[-81.565143,41.277766],[-81.573006,41.302658],[-81.585448,41.308872],[-81.588103,41.342659],[-81.598056,41.351165],[-81.53645,41.350622],[-81.517662,41.350162],[-81.450335,41.349156],[-81.391698,41.34828],[-81.391768,41.424277],[-81.374776,41.424435],[-81.374996,41.445294],[-81.391522,41.44523],[-81.391009,41.569724],[-81.487846,41.570059],[-81.488644,41.631356],[-81.500444,41.623456],[-81.529746,41.614556],[-81.562848,41.587557],[-81.599751,41.560657],[-81.633656,41.540466],[-81.664855,41.531458],[-81.706868,41.50588],[-81.710957,41.501758],[-81.738759,41.488558],[-81.744759,41.487158],[-81.76886,41.491657],[-81.782262,41.496058],[-81.794161,41.496656],[-81.810762,41.495656],[-81.860266,41.483849],[-81.877364,41.483453],[-81.937866,41.491451],[-81.958467,41.49865],[-81.962668,41.501349],[-81.964916,41.505454],[-81.968134,41.50643],[-81.969469,41.478025],[-81.970468,41.386756],[-81.971266,41.351276],[-81.876964,41.350693],[-81.878057,41.275052],[-81.839114,41.27557],[-81.807892,41.276059],[-81.705155,41.277262],[-81.684954,41.277154]]]},"properties":{"shapeName":"Cuyahoga","shapeISO":"52423323B65833811425835","shapeGroup":"USA","shapeType":"ADM2","src_shape_id":"52423323B65833811425835","adm1ISO":"US-OH"}},
{"type":"Feature","geometry":{"type":"MultiPolygon","coordinates":[[[[-82.735711,41.603369],[-82.73577,41.60099],[-82.725831,41.595207],[-82.702031,41.585445],[-82.688748,41.585904],[-82.686037,41.587254],[-82.680673,41.594619],[-82.677776,41.617994],[-82.680154,41.618978],[-82.691127,41.611339],[-82.700212,41.612198],[-82.703442,41.617742],[-82.707314,41.619617],[-82.718806,41.619637],[-82.735711,41.603369]]],[[[-82.841479,41.290031],[-82.342318,41.283562],[-82.345206,41.357438],[-82.34808,41.428439],[-82.361788,41.426652],[-82.39809,41.413953],[-82.431319,41.396874],[-82.460603,41.386324],[-82.481218,41.38135],[-82.499103,41.381549],[-82.513831,41.384265],[-82.558084,41.400013],[-82.616956,41.428433],[-82.617749,41.431841],[-82.658306,41.461886],[-82.687925,41.492332],[-82.694726,41.493953],[-82.71924,41.482431],[-82.739227,41.477763],[-82.819495,41.48496],[-82.834404,41.479661],[-82.914394,41.45883],[-82.952228,41.458247],[-82.95294,41.43018],[-82.903082,41.430479],[-82.84771,41.430503],[-82.844569,41.362402],[-82.841479,41.290031]]]]},"properties":{"shapeName":"Erie","shapeISO":"52423323B39503954322515","shapeGroup":"USA","shapeType":"ADM2","src_shape_id":"52423323B39503954322515","adm1ISO":"US-OH"}},
{"type":"Feature","geometry":{"type":"Polygon","coordinates":[[[-84.341669,41.427576],[-84.228459,41.427818],[-84.228227,41.16587],[-83.881154,41.167832],[-83.883239,41.414511],[-83.882948,41.487551],[-84.114868,41.486312],[-84.341907,41.485527],[-84.341669,41.427576]]]},"properties":{"shapeName":"Henry","shapeISO":"52423323B76163857838554","shapeGroup":"USA","shapeType":"ADM2","src_shape_id":"52423323B76163857838554","adm1ISO":"US-OH"}},
{"type":"Feature","geometry":{"type":"Polygon","coordinates":[[[-83.865683,39.247341],[-83.993124,39.254243],[-83.997767,39.191031],[-84.052689,38.771383],[-84.04449,38.770579],[-84.023117,38.775068],[-84.006108,38.780163],[-83.995451,38.781919],[-83.978818,38.787111],[-83.962127,38.787391],[-83.95355,38.786179],[-83.943982,38.783623],[-83.928458,38.77459],[-83.928595,38.77221],[-83.92699,38.771569],[-83.917221,38.769672],[-83.912926,38.76977],[-83.903921,38.768159],[-83.887111,38.765607],[-83.873172,38.762425],[-83.866534,38.760207],[-83.859032,38.7568],[-83.852089,38.75144],[-83.848738,38.747185],[-83.846211,38.742297],[-83.842744,38.730372],[-83.84251,38.727026],[-83.840599,38.721919],[-83.8367,38.717864],[-83.834019,38.716015],[-83.821858,38.709582],[-83.813884,38.707453],[-83.806321,38.70662],[-83.798553,38.704675],[-83.79068,38.701683],[-83.787117,38.699496],[-83.783624,38.695648],[-83.779965,38.684914],[-83.777145,38.671212],[-83.775765,38.666755],[-83.772164,38.658157],[-83.769351,38.655227],[-83.762449,38.65211],[-83.749924,38.64962],[-83.738211,38.647939],[-83.720783,38.646711],[-83.717919,38.645254],[-83.716937,38.643664],[-83.713409,38.641598],[-83.708168,38.63985],[-83.705318,38.639769],[-83.673022,39.020438],[-83.705354,39.021359],[-83.816863,39.020181],[-83.872218,39.021312],[-83.869766,39.055538],[-83.865683,39.247341]]]},"properties":{"shapeName":"Brown","shapeISO":"52423323B39524161644268","shapeGroup":"USA","shapeType":"ADM2","src_shape_id":"52423323B39524161644268","adm1ISO":"US-OH"}},
{"type":"Feature","geometry":{"type":"Polygon","coordinates":[[[-82.807094,38.948081],[-82.999902,38.956331],[-83.043624,38.956947],[-83.212111,38.960156],[-83.217238,38.971766],[-83.215256,38.99193],[-83.234064,38.998827],[-83.237691,39.009614],[-83.270821,39.015799],[-83.268272,38.625028],[-83.267554,38.618358],[-83.264015,38.621542],[-83.26113,38.62273],[-83.254562,38.62341],[-83.251107,38.626231],[-83.245576,38.627943],[-83.239519,38.628595],[-83.232408,38.627576],[-83.22308,38.624165],[-83.211031,38.618585],[-83.202457,38.616963],[-83.191404,38.617605],[-83.172651,38.620259],[-83.164748,38.620075],[-83.15693,38.620554],[-83.14284,38.625083],[-83.138576,38.628293],[-83.13505,38.631726],[-83.128977,38.640238],[-83.126315,38.645251],[-83.122551,38.659207],[-83.117864,38.66608],[-83.112376,38.671692],[-83.10744,38.675227],[-83.10275,38.677323],[-83.08423,38.681097],[-83.064323,38.688983],[-83.053108,38.695839],[-83.044736,38.70555],[-83.042342,38.708327],[-83.038446,38.716385],[-83.033018,38.723813],[-83.027921,38.727151],[-83.021756,38.728798],[-83.01182,38.730065],[-82.9993,38.729384],[-82.994,38.728584],[-82.986099,38.726284],[-82.979399,38.725984],[-82.968699,38.728784],[-82.958899,38.734984],[-82.943151,38.743288],[-82.923698,38.750084],[-82.894197,38.756584],[-82.889197,38.756084],[-82.879496,38.751484],[-82.875496,38.747284],[-82.872596,38.742584],[-82.871296,38.739384],[-82.869896,38.728185],[-82.870396,38.722085],[-82.871196,38.718385],[-82.875296,38.704985],[-82.876896,38.697385],[-82.877596,38.690185],[-82.874896,38.682835],[-82.869596,38.678185],[-82.863295,38.669285],[-82.859395,38.660386],[-82.856295,38.646085],[-82.856795,38.632885],[-82.855799,38.620821],[-82.854295,38.613461],[-82.851318,38.604341],[-82.84719,38.595173],[-82.84431,38.590869],[-82.839542,38.586166],[-82.820165,38.57271],[-82.816016,38.57074],[-82.758483,38.59095],[-82.740387,38.597174],[-82.766192,38.644686],[-82.763899,38.679982],[-82.706408,38.677511],[-82.70149,38.690886],[-82.695391,38.749985],[-82.66289,38.747985],[-82.65909,38.762685],[-82.650043,38.849081],[-82.760694,38.854883],[-82.753395,38.945381],[-82.807094,38.948081]]]},"properties":{"shapeName":"Scioto","shapeISO":"52423323B59045982564985","shapeGroup":"USA","shapeType":"ADM2","src_shape_id":"52423323B59045982564985","adm1ISO":"US-OH"}},
{"type":"Feature","geometry":{"type":"Polygon","coordinates":[[[-82.858306,40.705027],[-83.090581,40.702558],[-83.111364,40.702923],[-83.304691,40.702014],[-83.304696,40.687163],[-83.413926,40.687285],[-83.41984,40.686831],[-83.419832,40.643581],[-83.420207,40.603191],[-83.415307,40.515503],[-83.418382,40.50524],[-83.248187,40.507042],[-83.248302,40.501005],[-83.248599,40.443997],[-83.165119,40.43903],[-83.020802,40.433803],[-83.016789,40.484519],[-82.958405,40.490672],[-82.958067,40.557942],[-82.957719,40.635661],[-82.859757,40.646403],[-82.858306,40.705027]]]},"properties":{"shapeName":"Marion","shapeISO":"52423323B93885037654379","shapeGroup":"USA","shapeType":"ADM2","src_shape_id":"52423323B93885037654379","adm1ISO":"US-OH"}},
{"type":"Feature","geometry":{"type":"Polygon","coordinates":[[[-80.882896,40.159503],[-80.766273,40.155119],[-80.702928,40.157265],[-80.686141,40.181615],[-80.681816,40.185574],[-80.679604,40.186379],[-80.672604,40.192379],[-80.668104,40.199679],[-80.666303,40.206279],[-80.664303,40.219178],[-80.661547,40.229806],[-80.652102,40.244978],[-80.644602,40.251278],[-80.637102,40.254278],[-80.6225,40.261778],[-80.6193,40.265178],[-80.616199,40.272278],[-80.616799,40.285277],[-80.614899,40.291977],[-80.606599,40.303877],[-80.602898,40.307077],[-80.599898,40.317677],[-80.600498,40.321177],[-80.602898,40.327877],[-80.610799,40.340876],[-80.6128,40.347676],[-80.6118,40.355176],[-80.608698,40.361976],[-80.607599,40.369576],[-80.609699,40.374976],[-80.6144,40.378776],[-80.6192,40.381776],[-80.630744,40.384908],[-80.6336,40.390475],[-80.6322,40.393675],[-80.629703,40.395015],[-80.6281,40.395875],[-80.615199,40.399875],[-80.611799,40.403875],[-80.612699,40.407675],[-80.612299,40.418575],[-80.612999,40.429375],[-80.612299,40.434875],[-80.611199,40.437775],[-80.604899,40.446675],[-80.604399,40.449775],[-80.598298,40.458374],[-80.596098,40.463374],[-80.594798,40.471374],[-80.595498,40.475274],[-80.599198,40.482574],[-80.602454,40.484234],[-80.609062,40.489514],[-80.618007,40.502057],[-80.620887,40.512265],[-80.622199,40.520505],[-80.627511,40.535801],[-80.630487,40.537929],[-80.633111,40.538713],[-80.641384,40.548425],[-80.65244,40.562552],[-80.65532,40.565192],[-80.662712,40.570184],[-80.666921,40.573672],[-80.667785,40.578104],[-80.667961,40.582504],[-80.747324,40.583335],[-80.747116,40.596999],[-80.861998,40.599412],[-80.863571,40.555419],[-80.920924,40.556323],[-80.92457,40.467983],[-80.940157,40.468357],[-80.941915,40.424708],[-80.865508,40.422937],[-80.871557,40.379466],[-80.882896,40.159503]]]},"properties":{"shapeName":"Jefferson","shapeISO":"52423323B31823357110320","shapeGroup":"USA","shapeType":"ADM2","src_shape_id":"52423323B31823357110320","adm1ISO":"US-OH"}},
{"type":"Feature","geometry":{"type":"Polygon","coordinates":[[[-84.819456,39.30516],[-84.703285,39.304756],[-84.641819,39.305052],[-84.630052,39.312064],[-84.562352,39.308087],[-84.504649,39.305965],[-84.483205,39.301705],[-84.46546,39.30293],[-84.353214,39.292295],[-84.34141,39.412431],[-84.336952,39.456222],[-84.338539,39.473538],[-84.33765,39.482365],[-84.336756,39.496645],[-84.332043,39.548562],[-84.364741,39.543851],[-84.365237,39.589501],[-84.474251,39.590163],[-84.479218,39.591032],[-84.478932,39.568798],[-84.815041,39.567703],[-84.81496,39.566259],[-84.81536,39.521959],[-84.81556,39.51106],[-84.815759,39.47736],[-84.817458,39.391761],[-84.819456,39.30516]]]},"properties":{"shapeName":"Butler","shapeISO":"52423323B28721217330629","shapeGroup":"USA","shapeType":"ADM2","src_shape_id":"52423323B28721217330629","adm1ISO":"US-OH"}},
{"type":"Feature","geometry":{"type":"Polygon","coordinates":[[[-82.462817,39.930388],[-82.41867,39.922455],[-82.233978,39.913268],[-82.231699,39.951083],[-82.198776,39.950148],[-82.19479,40.020702],[-82.187109,40.166888],[-82.182827,40.238632],[-82.195915,40.239079],[-82.270178,40.240191],[-82.280946,40.239259],[-82.346321,40.240221],[-82.477277,40.245818],[-82.476118,40.264711],[-82.750751,40.277004],[-82.761831,40.125863],[-82.767487,40.051036],[-82.773829,39.976133],[-82.782499,39.93967],[-82.772874,39.939334],[-82.473427,39.925073],[-82.462817,39.930388]]]},"properties":{"shapeName":"Licking","shapeISO":"52423323B76437525910289","shapeGroup":"USA","shapeType":"ADM2","src_shape_id":"52423323B76437525910289","adm1ISO":"US-OH"}},
{"type":"Feature","geometry":{"type":"Polygon","coordinates":[[[-81.844867,39.450224],[-81.825761,39.44918],[-81.823162,39.49408],[-81.760963,39.488591],[-81.708531,39.480783],[-81.705079,39.530998],[-81.722221,39.531558],[-81.715526,39.583408],[-81.688888,39.590519],[-81.588189,39.586981],[-81.586136,39.664001],[-81.643204,39.665689],[-81.63989,39.753428],[-81.697446,39.75558],[-82.020396,39.769067],[-82.026178,39.768372],[-82.076643,39.770968],[-82.080228,39.727681],[-82.024223,39.724694],[-82.039609,39.550225],[-82.047532,39.550833],[-82.055783,39.460061],[-81.844867,39.450224]]]},"properties":{"shapeName":"Morgan","shapeISO":"52423323B32788955396058","shapeGroup":"USA","shapeType":"ADM2","src_shape_id":"52423323B32788955396058","adm1ISO":"US-OH"}},
{"type":"Feature","geometry":{"type":"Polygon","coordinates":[[[-82.824258,39.795004],[-83.013075,39.804402],[-83.120359,39.807831],[-83.243706,39.812511],[-83.252439,39.695446],[-83.266741,39.516257],[-82.992601,39.506396],[-82.978745,39.500862],[-82.9807,39.489869],[-82.998208,39.480069],[-82.740733,39.468358],[-82.731522,39.554453],[-82.842957,39.561488],[-82.837263,39.654608],[-82.824258,39.795004]]]},"properties":{"shapeName":"Pickaway","shapeISO":"52423323B28425501128806","shapeGroup":"USA","shapeType":"ADM2","src_shape_id":"52423323B28425501128806","adm1ISO":"US-OH"}},
{"type":"Feature","geometry":{"type":"Polygon","coordinates":[[[-83.385641,39.055205],[-83.314593,39.052203],[-83.310422,39.042382],[-83.270821,39.015799],[-83.237691,39.009614],[-83.234064,38.998827],[-83.215256,38.99193],[-83.217238,38.971766],[-83.212111,38.960156],[-83.043624,38.956947],[-82.999902,38.956331],[-82.807094,38.948081],[-82.785895,39.168777],[-82.840369,39.17202],[-83.145026,39.18758],[-83.353535,39.197593],[-83.385641,39.055205]]]},"properties":{"shapeName":"Pike","shapeISO":"52423323B24396319361709","shapeGroup":"USA","shapeType":"ADM2","src_shape_id":"52423323B24396319361709","adm1ISO":"US-OH"}},
{"type":"Feature","geometry":{"type":"Polygon","coordinates":[[[-84.434392,40.354542],[-84.434023,40.378254],[-84.338773,40.37875],[-84.339142,40.481084],[-84.002377,40.483123],[-83.993872,40.535182],[-83.90854,40.535398],[-83.879937,40.538716],[-83.880199,40.644698],[-84.107792,40.643077],[-84.107913,40.657946],[-84.222754,40.656956],[-84.222804,40.685965],[-84.396783,40.684934],[-84.456185,40.68487],[-84.455718,40.567896],[-84.455034,40.451313],[-84.455423,40.358597],[-84.434392,40.354542]]]},"properties":{"shapeName":"Auglaize","shapeISO":"52423323B61073346070608","shapeGroup":"USA","shapeType":"ADM2","src_shape_id":"52423323B61073346070608","adm1ISO":"US-OH"}},
{"type":"Feature","geometry":{"type":"Polygon","coordinates":[[[-82.575587,38.844486],[-82.582687,38.779085],[-82.483583,38.772286],[-82.486583,38.742986],[-82.466882,38.741486],[-82.472482,38.682287],[-82.354472,38.676078],[-82.361678,38.58519],[-82.287105,38.582596],[-82.274274,38.593691],[-82.271474,38.595391],[-82.262074,38.598191],[-82.252473,38.598791],[-82.245973,38.598491],[-82.222172,38.591392],[-82.218971,38.591691],[-82.205175,38.591727],[-82.193828,38.593104],[-82.188771,38.594992],[-82.181971,38.599392],[-82.177271,38.603792],[-82.175171,38.608492],[-82.17207,38.619292],[-82.17207,38.625992],[-82.172671,38.629692],[-82.174271,38.633191],[-82.176771,38.642791],[-82.179071,38.648891],[-82.185571,38.659591],[-82.186071,38.666791],[-82.187671,38.672691],[-82.190871,38.680391],[-82.190171,38.68739],[-82.185071,38.69919],[-82.182871,38.70549],[-82.182471,38.70879],[-82.186572,38.72249],[-82.188272,38.73409],[-82.189672,38.73739],[-82.193272,38.74119],[-82.19561,38.752449],[-82.198886,38.757733],[-82.201541,38.76038],[-82.207145,38.763951],[-82.216618,38.768358],[-82.220453,38.773747],[-82.221522,38.779818],[-82.22157,38.787195],[-82.217273,38.795688],[-82.214498,38.798699],[-82.209294,38.80268],[-82.199284,38.808696],[-82.191176,38.815145],[-82.179482,38.817384],[-82.165902,38.822445],[-82.161574,38.82464],[-82.147671,38.836988],[-82.144871,38.840488],[-82.14162,38.851402],[-82.139228,38.865028],[-82.139992,38.870353],[-82.142171,38.877088],[-82.145271,38.883487],[-82.144571,38.891687],[-82.143171,38.898087],[-82.13477,38.905587],[-82.12887,38.909987],[-82.12097,38.921087],[-82.11167,38.932587],[-82.110569,38.935287],[-82.11087,38.940387],[-82.109069,38.945587],[-82.100569,38.955686],[-82.098877,38.958327],[-82.095469,39.002786],[-82.323898,39.013162],[-82.322878,39.027682],[-82.435313,39.035087],[-82.455183,38.844585],[-82.574387,38.853483],[-82.575587,38.844486]]]},"properties":{"shapeName":"Gallia","shapeISO":"52423323B24958589312778","shapeGroup":"USA","shapeType":"ADM2","src_shape_id":"52423323B24958589312778","adm1ISO":"US-OH"}},
{"type":"Feature","geometry":{"type":"Polygon","coordinates":[[[-84.036074,40.04019],[-83.807229,40.02735],[-83.516159,40.010196],[-83.503718,40.111476],[-83.494502,40.225475],[-83.551342,40.229378],[-83.785358,40.245221],[-83.7842,40.260054],[-84.014768,40.273467],[-84.022924,40.183953],[-84.036074,40.04019]]]},"properties":{"shapeName":"Champaign","shapeISO":"52423323B54986091117207","shapeGroup":"USA","shapeType":"ADM2","src_shape_id":"52423323B54986091117207","adm1ISO":"US-OH"}},
{"type":"Feature","geometry":{"type":"Polygon","coordinates":[[[-84.022924,40.183953],[-84.014768,40.273467],[-84.010335,40.317188],[-84.003705,40.312935],[-84.004842,40.390392],[-84.001981,40.393638],[-84.002377,40.483123],[-84.339142,40.481084],[-84.338773,40.37875],[-84.434023,40.378254],[-84.434392,40.354542],[-84.434636,40.354267],[-84.43258,40.197045],[-84.298871,40.198326],[-84.218663,40.200012],[-84.219142,40.195507],[-84.022924,40.183953]]]},"properties":{"shapeName":"Shelby","shapeISO":"52423323B28276778913523","shapeGroup":"USA","shapeType":"ADM2","src_shape_id":"52423323B28276778913523","adm1ISO":"US-OH"}},
{"type":"Feature","geometry":{"type":"Polygon","coordinates":[[[-81.003129,41.501693],[-80.519229,41.499932],[-80.519161,41.528777],[-80.519343,41.539305],[-80.519357,41.644293],[-80.519428,41.671236],[-80.519377,41.701481],[-80.519412,41.739367],[-80.519243,41.765146],[-80.519297,41.849571],[-80.519349,41.929176],[-80.519308,41.944],[-80.519429,41.977531],[-80.55384,41.967823],[-80.581886,41.957618],[-80.72082,41.919752],[-80.757949,41.91336],[-80.782056,41.906643],[-80.784686,41.911533],[-80.800798,41.909643],[-80.808701,41.901614],[-80.814947,41.897702],[-80.900346,41.86892],[-80.936248,41.86236],[-81.00212,41.854916],[-81.004767,41.726444],[-81.003635,41.715145],[-81.00284,41.57135],[-81.003129,41.501693]]]},"properties":{"shapeName":"Ashtabula","shapeISO":"52423323B34743732368607","shapeGroup":"USA","shapeType":"ADM2","src_shape_id":"52423323B34743732368607","adm1ISO":"US-OH"}},
{"type":"Feature","geometry":{"type":"Polygon","coordinates":[[[-82.650043,38.849081],[-82.65909,38.762685],[-82.66289,38.747985],[-82.695391,38.749985],[-82.70149,38.690886],[-82.706408,38.677511],[-82.763899,38.679982],[-82.766192,38.644686],[-82.740387,38.597174],[-82.758483,38.59095],[-82.816016,38.57074],[-82.800116,38.56319],[-82.78978,38.559958],[-82.779476,38.55903],[-82.763699,38.560406],[-82.739586,38.558998],[-82.730962,38.559271],[-82.72485,38.557607],[-82.719666,38.553671],[-82.714146,38.550551],[-82.700049,38.544343],[-82.696625,38.542119],[-82.689969,38.535927],[-82.675728,38.515511],[-82.665485,38.505745],[-82.657055,38.496823],[-82.648399,38.490375],[-82.637711,38.484456],[-82.62411,38.479704],[-82.613806,38.474536],[-82.610462,38.471464],[-82.608206,38.468056],[-82.604093,38.459848],[-82.600765,38.437432],[-82.596925,38.426712],[-82.593677,38.421816],[-82.588253,38.415496],[-82.57998,38.410137],[-82.57718,38.408777],[-82.569372,38.406265],[-82.560668,38.404345],[-82.549803,38.403209],[-82.540203,38.403673],[-82.529583,38.405189],[-82.507682,38.410789],[-82.486581,38.418089],[-82.45968,38.424689],[-82.44708,38.426989],[-82.434379,38.430089],[-82.404886,38.439354],[-82.38975,38.434362],[-82.381777,38.43479],[-82.360149,38.438603],[-82.340644,38.440955],[-82.330339,38.444507],[-82.324003,38.449275],[-82.318115,38.457883],[-82.313939,38.468091],[-82.312515,38.476123],[-82.310643,38.483179],[-82.306355,38.490699],[-82.304227,38.496315],[-82.303075,38.504391],[-82.303975,38.51769],[-82.302875,38.52319],[-82.300275,38.529391],[-82.297775,38.533291],[-82.295675,38.538491],[-82.293275,38.560291],[-82.293875,38.572691],[-82.293475,38.575391],[-82.291275,38.578991],[-82.287105,38.582596],[-82.361678,38.58519],[-82.354472,38.676078],[-82.472482,38.682287],[-82.466882,38.741486],[-82.486583,38.742986],[-82.483583,38.772286],[-82.582687,38.779085],[-82.575587,38.844486],[-82.650043,38.849081]]]},"properties":{"shapeName":"Lawrence","shapeISO":"52423323B32939129903827","shapeGroup":"USA","shapeType":"ADM2","src_shape_id":"52423323B32939129903827","adm1ISO":"US-OH"}},
{"type":"Feature","geometry":{"type":"MultiPolygon","coordinates":[[[[-82.843577,41.647229],[-82.842103,41.628331],[-82.827015,41.633709],[-82.793073,41.6647],[-82.782723,41.694011],[-82.810491,41.720532],[-82.820413,41.724557],[-82.825724,41.722818],[-82.835122,41.708979],[-82.843577,41.647229]]],[[[-82.952228,41.458247],[-82.914394,41.45883],[-82.834404,41.479661],[-82.819495,41.48496],[-82.739227,41.477763],[-82.71924,41.482431],[-82.694726,41.493953],[-82.710017,41.497598],[-82.713908,41.501705],[-82.719815,41.510304],[-82.721918,41.516685],[-82.711636,41.527209],[-82.710939,41.536656],[-82.717882,41.541938],[-82.749911,41.546478],[-82.772014,41.540588],[-82.7855,41.540683],[-82.794328,41.546494],[-82.820211,41.570672],[-82.834105,41.587595],[-82.847661,41.585647],[-82.852961,41.583335],[-82.859535,41.576379],[-82.855201,41.564122],[-82.856774,41.54827],[-82.869426,41.53397],[-82.875233,41.529692],[-82.888204,41.522516],[-82.897732,41.519249],[-82.934373,41.514361],[-82.969646,41.524237],[-82.99992,41.538542],[-83.028076,41.555664],[-83.043083,41.567971],[-83.066597,41.595348],[-83.08604,41.606688],[-83.103932,41.613566],[-83.145891,41.617912],[-83.165717,41.623254],[-83.182379,41.623162],[-83.238359,41.623254],[-83.415945,41.619118],[-83.41463,41.500236],[-83.338995,41.501197],[-83.3382,41.457516],[-83.067463,41.457177],[-83.037444,41.457541],[-82.952228,41.458247]]]]},"properties":{"shapeName":"Ottawa","shapeISO":"52423323B40981635802423","shapeGroup":"USA","shapeType":"ADM2","src_shape_id":"52423323B40981635802423","adm1ISO":"US-OH"}},
{"type":"Feature","geometry":{"type":"Polygon","coordinates":[[[-84.259436,39.270804],[-84.261413,39.264694],[-84.282229,39.252271],[-84.320033,39.223441],[-84.309361,39.208782],[-84.284309,39.213251],[-84.276382,39.203881],[-84.288293,39.186495],[-84.299333,39.174455],[-84.315245,39.057343],[-84.319941,39.022088],[-84.313685,39.016989],[-84.304703,39.006463],[-84.299367,38.995993],[-84.29726,38.989702],[-84.296471,38.985313],[-84.295081,38.968302],[-84.288169,38.955796],[-84.279921,38.945175],[-84.274915,38.941518],[-84.260801,38.9266],[-84.257014,38.923215],[-84.245651,38.907042],[-84.242693,38.903194],[-84.240159,38.900919],[-84.234457,38.893233],[-84.232347,38.884332],[-84.231919,38.874874],[-84.231841,38.872877],[-84.233731,38.853583],[-84.233269,38.842678],[-84.23131,38.830559],[-84.230431,38.82743],[-84.225304,38.817672],[-84.222063,38.81376],[-84.212908,38.805714],[-84.205596,38.802595],[-84.198362,38.800927],[-84.155916,38.794916],[-84.135092,38.789492],[-84.115659,38.782728],[-84.10884,38.779254],[-84.094338,38.775253],[-84.071495,38.770482],[-84.063414,38.771158],[-84.052689,38.771383],[-83.997767,39.191031],[-83.993124,39.254243],[-84.006786,39.255076],[-84.259436,39.270804]]]},"properties":{"shapeName":"Clermont","shapeISO":"52423323B73529130957654","shapeGroup":"USA","shapeType":"ADM2","src_shape_id":"52423323B73529130957654","adm1ISO":"US-OH"}},
{"type":"Feature","geometry":{"type":"Polygon","coordinates":[[[-84.053741,39.850466],[-84.051017,39.879818],[-84.157222,39.886002],[-84.16707,39.912205],[-84.157676,39.922978],[-84.425907,39.91963],[-84.485372,39.918499],[-84.483595,39.830406],[-84.480154,39.657058],[-84.479218,39.591032],[-84.474251,39.590163],[-84.365237,39.589501],[-84.285345,39.589166],[-84.1142,39.577991],[-84.110574,39.61845],[-84.11194,39.626367],[-84.096942,39.793683],[-84.092943,39.838353],[-84.055058,39.836219],[-84.053741,39.850466]]]},"properties":{"shapeName":"Montgomery","shapeISO":"52423323B48095289602104","shapeGroup":"USA","shapeType":"ADM2","src_shape_id":"52423323B48095289602104","adm1ISO":"US-OH"}},
{"type":"Feature","geometry":{"type":"Polygon","coordinates":[[[-81.71628,40.152174],[-81.721991,40.152955],[-82.187109,40.166888],[-82.19479,40.020702],[-82.198776,39.950148],[-82.231699,39.951083],[-82.233978,39.913268],[-82.162376,39.909382],[-82.170051,39.820758],[-82.072938,39.816235],[-82.076643,39.770968],[-82.026178,39.768372],[-82.020396,39.769067],[-81.697446,39.75558],[-81.69415,39.842644],[-81.691108,39.930764],[-81.728615,39.931736],[-81.71628,40.152174]]]},"properties":{"shapeName":"Muskingum","shapeISO":"52423323B20353272340555","shapeGroup":"USA","shapeType":"ADM2","src_shape_id":"52423323B20353272340555","adm1ISO":"US-OH"}},
{"type":"Feature","geometry":{"type":"Polygon","coordinates":[[[-83.673022,39.020438],[-83.705318,38.639769],[-83.70401,38.639731],[-83.685524,38.631897],[-83.679488,38.630043],[-83.668115,38.628075],[-83.663915,38.627937],[-83.659308,38.628599],[-83.65292,38.630611],[-83.649741,38.63276],[-83.645918,38.637014],[-83.642998,38.64328],[-83.639958,38.652475],[-83.6394,38.659178],[-83.637381,38.667937],[-83.634022,38.673358],[-83.626926,38.679394],[-83.61574,38.684152],[-83.574758,38.692678],[-83.569102,38.692849],[-83.561874,38.695378],[-83.549302,38.698794],[-83.533343,38.702112],[-83.520957,38.703052],[-83.512575,38.701723],[-83.504369,38.699263],[-83.493346,38.694194],[-83.486481,38.690106],[-83.476424,38.682268],[-83.472161,38.67813],[-83.468063,38.675477],[-83.459813,38.673624],[-83.457059,38.673972],[-83.446993,38.67015],[-83.440408,38.669368],[-83.420198,38.668435],[-83.412043,38.666506],[-83.384759,38.663178],[-83.376306,38.66148],[-83.366665,38.658544],[-83.356449,38.654016],[-83.340008,38.645681],[-83.32764,38.637496],[-83.322387,38.630622],[-83.320535,38.62272],[-83.320103,38.61605],[-83.319105,38.61224],[-83.317546,38.609249],[-83.311452,38.603321],[-83.307836,38.600831],[-83.301955,38.598185],[-83.294197,38.596595],[-83.288889,38.597984],[-83.286518,38.599248],[-83.268514,38.615111],[-83.267554,38.618358],[-83.268272,38.625028],[-83.270821,39.015799],[-83.310422,39.042382],[-83.314593,39.052203],[-83.385641,39.055205],[-83.611596,39.018898],[-83.673022,39.020438]]]},"properties":{"shapeName":"Adams","shapeISO":"52423323B26888190258650","shapeGroup":"USA","shapeType":"ADM2","src_shape_id":"52423323B26888190258650","adm1ISO":"US-OH"}},
{"type":"Feature","geometry":{"type":"Polygon","coordinates":[[[-83.418382,40.50524],[-83.415307,40.515503],[-83.420207,40.603191],[-83.419832,40.643581],[-83.41984,40.686831],[-83.440282,40.687619],[-83.440207,40.702311],[-83.495803,40.701625],[-83.4963,40.817948],[-83.515887,40.818142],[-83.880068,40.819927],[-83.880199,40.644698],[-83.879937,40.538716],[-83.879843,40.531869],[-83.85592,40.530446],[-83.52004,40.509295],[-83.520231,40.504085],[-83.418382,40.50524]]]},"properties":{"shapeName":"Hardin","shapeISO":"52423323B45782198481298","shapeGroup":"USA","shapeType":"ADM2","src_shape_id":"52423323B45782198481298","adm1ISO":"US-OH"}},
{"type":"Feature","geometry":{"type":"Polygon","coordinates":[[[-81.647739,40.914024],[-81.536445,40.91032],[-81.420422,40.906512],[-81.416338,40.988464],[-81.393253,40.988539],[-81.39322,41.040648],[-81.392118,41.13573],[-81.391835,41.276662],[-81.391698,41.34828],[-81.450335,41.349156],[-81.517662,41.350162],[-81.53645,41.350622],[-81.598056,41.351165],[-81.588103,41.342659],[-81.585448,41.308872],[-81.573006,41.302658],[-81.565143,41.277766],[-81.590546,41.277562],[-81.670514,41.277263],[-81.684954,41.277154],[-81.686994,41.135964],[-81.688495,40.988598],[-81.647693,40.988571],[-81.647739,40.914024]]]},"properties":{"shapeName":"Summit","shapeISO":"52423323B73320668116479","shapeGroup":"USA","shapeType":"ADM2","src_shape_id":"52423323B73320668116479","adm1ISO":"US-OH"}},
{"type":"Feature","geometry":{"type":"Polygon","coordinates":[[[-81.225928,40.170083],[-81.234057,39.951278],[-81.23732,39.867836],[-81.017091,39.859883],[-81.017151,39.85819],[-80.821283,39.84999],[-80.816434,39.85304],[-80.799902,39.85892],[-80.793135,39.863759],[-80.790765,39.867288],[-80.79016,39.87226],[-80.793993,39.882795],[-80.796166,39.885538],[-80.802343,39.891618],[-80.806183,39.897314],[-80.809015,39.903234],[-80.809687,39.906114],[-80.809287,39.910322],[-80.807622,39.914946],[-80.806022,39.917138],[-80.803398,39.91877],[-80.795718,39.919698],[-80.782853,39.91717],[-80.772645,39.911314],[-80.768276,39.90965],[-80.76066,39.908914],[-80.758308,39.910434],[-80.756436,39.913938],[-80.75594,39.916562],[-80.756788,39.920594],[-80.761316,39.929106],[-80.764515,39.94661],[-80.764483,39.950258],[-80.763379,39.953522],[-80.758531,39.959249],[-80.755139,39.961569],[-80.746274,39.966241],[-80.74317,39.969121],[-80.74013,39.970801],[-80.738721,39.985121],[-80.740049,39.993937],[-80.741089,39.996865],[-80.742049,40.005649],[-80.740513,40.015233],[-80.737809,40.020769],[-80.737393,40.027601],[-80.736304,40.029937],[-80.733271,40.033365],[-80.731508,40.03748],[-80.730908,40.04918],[-80.733108,40.05878],[-80.734308,40.05968],[-80.737108,40.06498],[-80.738508,40.07148],[-80.738608,40.07568],[-80.736808,40.08008],[-80.730708,40.08648],[-80.713007,40.09688],[-80.710207,40.09958],[-80.707706,40.10538],[-80.706706,40.11088],[-80.70811,40.117264],[-80.708814,40.118096],[-80.710558,40.125279],[-80.710046,40.138319],[-80.707326,40.145007],[-80.705998,40.151599],[-80.702928,40.157265],[-80.766273,40.155119],[-80.882896,40.159503],[-81.109941,40.167841],[-81.220399,40.172598],[-81.225928,40.170083]]]},"properties":{"shapeName":"Belmont","shapeISO":"52423323B48788624024896","shapeGroup":"USA","shapeType":"ADM2","src_shape_id":"52423323B48788624024896","adm1ISO":"US-OH"}},
{"type":"Feature","geometry":{"type":"Polygon","coordinates":[[[-84.399491,40.990323],[-84.398412,40.903273],[-84.340974,40.903604],[-84.340536,40.859107],[-84.109591,40.861002],[-84.109521,40.904738],[-83.99517,40.905074],[-83.995233,40.919851],[-83.880428,40.920437],[-83.881154,41.167832],[-84.228227,41.16587],[-84.341607,41.165532],[-84.341916,40.9907],[-84.399491,40.990323]]]},"properties":{"shapeName":"Putnam","shapeISO":"52423323B37159201054732","shapeGroup":"USA","shapeType":"ADM2","src_shape_id":"52423323B37159201054732","adm1ISO":"US-OH"}},
{"type":"Feature","geometry":{"type":"Polygon","coordinates":[[[-84.803961,41.426052],[-84.804138,41.4083],[-84.803931,41.367967],[-84.803587,41.271281],[-84.803497,41.25257],[-84.457222,41.253493],[-84.457064,41.209442],[-84.341606,41.209038],[-84.341607,41.165532],[-84.228227,41.16587],[-84.228459,41.427818],[-84.341669,41.427576],[-84.803961,41.426052]]]},"properties":{"shapeName":"Defiance","shapeISO":"52423323B79040942886335","shapeGroup":"USA","shapeType":"ADM2","src_shape_id":"52423323B79040942886335","adm1ISO":"US-OH"}},
{"type":"Feature","geometry":{"type":"Polygon","coordinates":[[[-81.725587,39.215843],[-81.724369,39.216516],[-81.711632,39.219236],[-81.700912,39.220852],[-81.694607,39.224115],[-81.691343,39.227955],[-81.691071,39.230147],[-81.692207,39.236099],[-81.695728,39.242867],[-81.696992,39.248755],[-81.696384,39.257043],[-81.692064,39.263235],[-81.689487,39.266051],[-81.683631,39.270947],[-81.678335,39.273763],[-81.670191,39.275971],[-81.656142,39.277363],[-81.643182,39.277203],[-81.621309,39.273651],[-81.6139,39.275347],[-81.608412,39.276051],[-81.603356,39.275539],[-81.595164,39.273395],[-81.588587,39.269795],[-81.585563,39.268755],[-81.570251,39.267683],[-81.567351,39.270683],[-81.565251,39.276183],[-81.565051,39.293882],[-81.560151,39.317882],[-81.559651,39.330782],[-81.557551,39.338782],[-81.54235,39.352882],[-81.534474,39.358242],[-81.524313,39.361618],[-81.513497,39.367058],[-81.503193,39.37325],[-81.489048,39.384082],[-81.482904,39.389682],[-81.473192,39.400178],[-81.467748,39.403782],[-81.456147,39.409282],[-81.446547,39.410382],[-81.435646,39.408482],[-81.428646,39.405382],[-81.420582,39.400386],[-81.41271,39.394626],[-81.406693,39.388098],[-81.402774,39.376922],[-81.400748,39.369229],[-81.395887,39.355561],[-81.393798,39.351714],[-81.391253,39.348822],[-81.38456,39.343457],[-81.379678,39.342089],[-81.375965,39.341705],[-81.371274,39.342069],[-81.356915,39.343186],[-81.347571,39.345778],[-81.342627,39.34805],[-81.335603,39.352802],[-81.326178,39.358194],[-81.319602,39.361298],[-81.304802,39.370546],[-81.297521,39.374386],[-81.281409,39.379266],[-81.275681,39.383794],[-81.27072,39.385922],[-81.259792,39.386706],[-81.249092,39.39],[-81.241844,39.390284],[-81.223585,39.38607],[-81.217319,39.387598],[-81.213068,39.390664],[-81.211658,39.392985],[-81.210874,39.39712],[-81.211437,39.402039],[-81.210837,39.403571],[-81.205227,39.410794],[-81.200416,39.415311],[-81.190718,39.42357],[-81.18595,39.430739],[-81.179938,39.435129],[-81.170638,39.439183],[-81.163524,39.441194],[-81.152538,39.443183],[-81.138138,39.443783],[-81.134438,39.445083],[-81.128537,39.449383],[-81.124737,39.453383],[-81.121476,39.457765],[-81.115137,39.466283],[-81.114437,39.466283],[-81.100837,39.487183],[-81.091437,39.496983],[-81.075954,39.509668],[-81.070598,39.515999],[-81.060383,39.522752],[-81.051986,39.529318],[-81.049959,39.531901],[-81.044906,39.536308],[-81.03871,39.540055],[-81.036795,39.572126],[-81.246812,39.579045],[-81.265351,39.576818],[-81.264265,39.605352],[-81.283079,39.605804],[-81.283534,39.591846],[-81.356294,39.600873],[-81.394938,39.601555],[-81.39504,39.615689],[-81.413854,39.615882],[-81.413669,39.63051],[-81.452716,39.631173],[-81.451939,39.645457],[-81.473164,39.645984],[-81.473475,39.583326],[-81.588189,39.586981],[-81.688888,39.590519],[-81.715526,39.583408],[-81.722221,39.531558],[-81.705079,39.530998],[-81.708531,39.480783],[-81.760963,39.488591],[-81.823162,39.49408],[-81.825761,39.44918],[-81.844867,39.450224],[-81.853672,39.318173],[-81.834639,39.317571],[-81.835451,39.302815],[-81.816618,39.302066],[-81.818365,39.272589],[-81.721812,39.269605],[-81.725587,39.215843]]]},"properties":{"shapeName":"Washington","shapeISO":"52423323B97388910931036","shapeGroup":"USA","shapeType":"ADM2","src_shape_id":"52423323B97388910931036","adm1ISO":"US-OH"}},
{"type":"Feature","geometry":{"type":"Polygon","coordinates":[[[-84.43258,40.197045],[-84.434636,40.354267],[-84.599593,40.353217],[-84.804123,40.352765],[-84.803922,40.310101],[-84.805632,40.223667],[-84.80618,40.198003],[-84.806771,40.180136],[-84.808296,40.129035],[-84.809742,40.048937],[-84.810938,40.005087],[-84.811217,39.995339],[-84.812198,39.927348],[-84.812416,39.916924],[-84.485372,39.918499],[-84.425907,39.91963],[-84.432287,40.180848],[-84.436337,40.180809],[-84.43258,40.197045]]]},"properties":{"shapeName":"Darke","shapeISO":"52423323B38982554043434","shapeGroup":"USA","shapeType":"ADM2","src_shape_id":"52423323B38982554043434","adm1ISO":"US-OH"}},
{"type":"Feature","geometry":{"type":"Polygon","coordinates":[[[-80.821283,39.84999],[-81.017151,39.85819],[-81.017091,39.859883],[-81.23732,39.867836],[-81.313595,39.869479],[-81.319129,39.707368],[-81.280592,39.70712],[-81.283079,39.605804],[-81.264265,39.605352],[-81.265351,39.576818],[-81.246812,39.579045],[-81.036795,39.572126],[-81.03871,39.540055],[-81.030173,39.545219],[-81.026666,39.548555],[-81.023904,39.552321],[-81.020059,39.555418],[-81.008664,39.562806],[-80.996808,39.569128],[-80.993699,39.571261],[-80.987736,39.57727],[-80.978668,39.583525],[-80.97044,39.590135],[-80.943786,39.606934],[-80.93691,39.612624],[-80.933296,39.61482],[-80.925845,39.617404],[-80.917624,39.618711],[-80.906251,39.618439],[-80.896518,39.616765],[-80.892212,39.616764],[-80.880364,39.620714],[-80.876006,39.627092],[-80.871024,39.638971],[-80.869806,39.646904],[-80.866651,39.652624],[-80.865579,39.662759],[-80.866674,39.678495],[-80.865809,39.686492],[-80.863702,39.691732],[-80.861722,39.693633],[-80.852004,39.698568],[-80.844725,39.699448],[-80.839116,39.701041],[-80.833886,39.703505],[-80.831875,39.705663],[-80.829768,39.711847],[-80.829727,39.714049],[-80.831555,39.719483],[-80.833466,39.72082],[-80.836601,39.723933],[-80.846095,39.73782],[-80.852742,39.741048],[-80.854721,39.7426],[-80.865343,39.753259],[-80.8676,39.757124],[-80.869937,39.763563],[-80.869096,39.766372],[-80.866333,39.771746],[-80.863052,39.775205],[-80.835315,39.790698],[-80.826083,39.798592],[-80.824973,39.8011],[-80.822185,39.811716],[-80.822484,39.824979],[-80.823034,39.827492],[-80.826232,39.83581],[-80.826968,39.841664],[-80.82428,39.847167],[-80.821283,39.84999]]]},"properties":{"shapeName":"Monroe","shapeISO":"52423323B17076198557768","shapeGroup":"USA","shapeType":"ADM2","src_shape_id":"52423323B17076198557768","adm1ISO":"US-OH"}},
{"type":"Feature","geometry":{"type":"Polygon","coordinates":[[[-81.69415,39.842644],[-81.697446,39.75558],[-81.63989,39.753428],[-81.643204,39.665689],[-81.586136,39.664001],[-81.588189,39.586981],[-81.473475,39.583326],[-81.473164,39.645984],[-81.451939,39.645457],[-81.452716,39.631173],[-81.413669,39.63051],[-81.413854,39.615882],[-81.39504,39.615689],[-81.394938,39.601555],[-81.356294,39.600873],[-81.283534,39.591846],[-81.283079,39.605804],[-81.280592,39.70712],[-81.319129,39.707368],[-81.313595,39.869479],[-81.23732,39.867836],[-81.234057,39.951278],[-81.347842,39.94997],[-81.38601,39.950702],[-81.387316,39.921404],[-81.462754,39.923508],[-81.464112,39.894558],[-81.578594,39.897691],[-81.580317,39.839112],[-81.69415,39.842644]]]},"properties":{"shapeName":"Noble","shapeISO":"52423323B8132923889565","shapeGroup":"USA","shapeType":"ADM2","src_shape_id":"52423323B8132923889565","adm1ISO":"US-OH"}},
{"type":"Feature","geometry":{"type":"Polygon","coordinates":[[[-84.803318,40.989402],[-84.802941,40.922575],[-84.802175,40.800609],[-84.802543,40.765523],[-84.802124,40.728154],[-84.456177,40.728314],[-84.456185,40.68487],[-84.396783,40.684934],[-84.397379,40.815949],[-84.340106,40.816151],[-84.340536,40.859107],[-84.340974,40.903604],[-84.398412,40.903273],[-84.399491,40.990323],[-84.803318,40.989402]]]},"properties":{"shapeName":"Van Wert","shapeISO":"52423323B68690141030407","shapeGroup":"USA","shapeType":"ADM2","src_shape_id":"52423323B68690141030407","adm1ISO":"US-OH"}}
]}