{"type":"FeatureCollection","bbox":[-67.940798,17.878312,-65.221566,18.51576], "features": [
{"type":"Feature","geometry":{"type":"Polygon","coordinates":[[[-66.463209,18.371476],[-66.46514,18.35224],[-66.454287,18.332657],[-66.453351,18.309893],[-66.464881,18.283243],[-66.455701,18.257729],[-66.409429,18.263313],[-66.390955,18.273395],[-66.384026,18.2908],[-66.37771,18.293979],[-66.373018,18.302766],[-66.36527,18.333232],[-66.377056,18.344249],[-66.385923,18.344737],[-66.395583,18.371888],[-66.400996,18.36371],[-66.421862,18.377811],[-66.443798,18.37103],[-66.451576,18.372217],[-66.463209,18.371476]]]},"properties":{"shapeName":"Morovis","shapeISO":"52423323B72611764841085","shapeGroup":"USA","shapeType":"ADM2","src_shape_id":"52423323B72611764841085","adm1ISO":"US-PR"}},
{"type":"Feature","geometry":{"type":"Polygon","coordinates":[[[-66.052553,18.113072],[-66.051786,18.109881],[-66.013054,18.096505],[-66.010243,18.075568],[-65.975976,18.094311],[-65.962049,18.0865],[-65.933171,18.09339],[-65.926225,18.119966],[-65.920663,18.137826],[-65.928339,18.142848],[-65.932006,18.161903],[-65.929842,18.164116],[-65.929402,18.197436],[-65.951739,18.215922],[-65.951017,18.229295],[-65.989046,18.220342],[-65.997648,18.206995],[-65.999611,18.188711],[-66.003853,18.1856],[-66.011317,18.186063],[-66.022254,18.166038],[-66.020281,18.144084],[-66.035366,18.119544],[-66.052553,18.113072]]]},"properties":{"shapeName":"San Lorenzo","shapeISO":"52423323B11153152222342","shapeGroup":"USA","shapeType":"ADM2","src_shape_id":"52423323B11153152222342","adm1ISO":"US-PR"}},
{"type":"Feature","geometry":{"type":"Polygon","coordinates":[[[-66.588179,18.389411],[-66.582276,18.373719],[-66.590783,18.338063],[-66.539634,18.344408],[-66.533621,18.351336],[-66.530527,18.385016],[-66.543077,18.405425],[-66.564311,18.413312],[-66.588179,18.389411]]]},"properties":{"shapeName":"Florida","shapeISO":"52423323B1142335795557","shapeGroup":"USA","shapeType":"ADM2","src_shape_id":"52423323B1142335795557","adm1ISO":"US-PR"}},
{"type":"Feature","geometry":{"type":"Polygon","coordinates":[[[-66.240458,18.184797],[-66.242733,18.180251],[-66.223714,18.16572],[-66.216897,18.143223],[-66.187332,18.137056],[-66.18227,18.144628],[-66.175065,18.133748],[-66.164746,18.144466],[-66.131879,18.13258],[-66.130825,18.138831],[-66.118501,18.138154],[-66.101724,18.151259],[-66.095097,18.16908],[-66.103757,18.170456],[-66.101671,18.183085],[-66.117772,18.209952],[-66.141063,18.197909],[-66.143939,18.228114],[-66.169124,18.224293],[-66.182481,18.202305],[-66.207098,18.196936],[-66.211849,18.17309],[-66.240458,18.184797]]]},"properties":{"shapeName":"Cidra","shapeISO":"52423323B11408712561371","shapeGroup":"USA","shapeType":"ADM2","src_shape_id":"52423323B11408712561371","adm1ISO":"US-PR"}},
{"type":"Feature","geometry":{"type":"Polygon","coordinates":[[[-66.169124,18.224293],[-66.178249,18.246312],[-66.190674,18.258843],[-66.201667,18.276416],[-66.206133,18.276663],[-66.218203,18.274713],[-66.227882,18.254209],[-66.266464,18.245273],[-66.265331,18.233548],[-66.27026,18.219381],[-66.263551,18.184962],[-66.240458,18.184797],[-66.211849,18.17309],[-66.207098,18.196936],[-66.182481,18.202305],[-66.169124,18.224293]]]},"properties":{"shapeName":"Comerío","shapeISO":"52423323B86132788198176","shapeGroup":"USA","shapeType":"ADM2","src_shape_id":"52423323B86132788198176","adm1ISO":"US-PR"}},
{"type":"Feature","geometry":{"type":"Polygon","coordinates":[[[-66.010243,18.075568],[-66.010519,18.067701],[-65.988521,18.058944],[-65.977788,18.061096],[-65.933872,18.036823],[-65.907391,18.035901],[-65.879253,18.020515],[-65.86469,18.02574],[-65.850911,18.011957],[-65.839589,18.01508],[-65.832427,18.014919],[-65.834272,18.038991],[-65.831088,18.050667],[-65.825846,18.057485],[-65.817105,18.063381],[-65.809172,18.056821],[-65.801829,18.05853],[-65.796754,18.069746],[-65.82924,18.084716],[-65.848049,18.099167],[-65.848115,18.117491],[-65.870209,18.108429],[-65.877613,18.11817],[-65.907451,18.126148],[-65.926225,18.119966],[-65.933171,18.09339],[-65.962049,18.0865],[-65.975976,18.094311],[-66.010243,18.075568]]]},"properties":{"shapeName":"Yabucoa","shapeISO":"52423323B8139894881456","shapeGroup":"USA","shapeType":"ADM2","src_shape_id":"52423323B8139894881456","adm1ISO":"US-PR"}},
{"type":"Feature","geometry":{"type":"Polygon","coordinates":[[[-67.037934,18.289708],[-67.040227,18.271988],[-67.061827,18.270085],[-67.082001,18.254949],[-67.056217,18.245441],[-67.050353,18.227481],[-67.032964,18.218089],[-67.019835,18.195474],[-67.003802,18.193504],[-66.978379,18.207919],[-66.897963,18.187747],[-66.912858,18.233012],[-66.907235,18.253093],[-66.90854,18.252075],[-66.918934,18.256459],[-66.924231,18.260488],[-66.929902,18.258763],[-66.928823,18.254266],[-66.932473,18.253747],[-66.933481,18.258667],[-66.938389,18.258791],[-66.946387,18.268767],[-67.00592,18.27916],[-67.038189,18.280473],[-67.037934,18.289708]]]},"properties":{"shapeName":"Las Marías","shapeISO":"52423323B88446663762190","shapeGroup":"USA","shapeType":"ADM2","src_shape_id":"52423323B88446663762190","adm1ISO":"US-PR"}},
{"type":"Feature","geometry":{"type":"Polygon","coordinates":[[[-66.37771,18.293979],[-66.383031,18.275351],[-66.350791,18.241238],[-66.340119,18.238692],[-66.326125,18.247925],[-66.313297,18.249327],[-66.296084,18.257548],[-66.278074,18.329978],[-66.305717,18.369995],[-66.318762,18.367414],[-66.338237,18.367937],[-66.36527,18.333232],[-66.373018,18.302766],[-66.37771,18.293979]]]},"properties":{"shapeName":"Corozal","shapeISO":"52423323B17082300411624","shapeGroup":"USA","shapeType":"ADM2","src_shape_id":"52423323B17082300411624","adm1ISO":"US-PR"}},
{"type":"Feature","geometry":{"type":"Polygon","coordinates":[[[-67.159732,18.15323],[-67.133753,18.13187],[-67.126156,18.115146],[-67.100491,18.106398],[-67.081049,18.106718],[-67.079529,18.116999],[-67.092118,18.125372],[-67.093913,18.14231],[-67.086358,18.149832],[-67.098381,18.158553],[-67.159732,18.15323]]]},"properties":{"shapeName":"Hormigueros","shapeISO":"52423323B60583840273125","shapeGroup":"USA","shapeType":"ADM2","src_shape_id":"52423323B60583840273125","adm1ISO":"US-PR"}},
{"type":"Feature","geometry":{"type":"Polygon","coordinates":[[[-65.928339,18.142848],[-65.896104,18.202273],[-65.874763,18.215917],[-65.851932,18.248014],[-65.852614,18.254975],[-65.874692,18.253057],[-65.918533,18.270133],[-65.94584,18.252658],[-65.939471,18.234121],[-65.951017,18.229295],[-65.951739,18.215922],[-65.929402,18.197436],[-65.929842,18.164116],[-65.932006,18.161903],[-65.928339,18.142848]]]},"properties":{"shapeName":"Juncos","shapeISO":"52423323B57121552581282","shapeGroup":"USA","shapeType":"ADM2","src_shape_id":"52423323B57121552581282","adm1ISO":"US-PR"}},
{"type":"Feature","geometry":{"type":"Polygon","coordinates":[[[-66.926516,18.15127],[-66.911622,18.113525],[-66.920695,18.103472],[-66.901032,18.039857],[-66.887483,18.034078],[-66.884652,18.024819],[-66.863218,17.998032],[-66.859469,17.954319],[-66.856473,17.956556],[-66.852287,17.955006],[-66.83668,17.965974],[-66.825977,17.999701],[-66.829661,18.018712],[-66.81803,18.02931],[-66.824981,18.042685],[-66.816612,18.07073],[-66.802208,18.090995],[-66.810011,18.108316],[-66.810664,18.113033],[-66.796266,18.121464],[-66.797555,18.133448],[-66.804056,18.148059],[-66.826276,18.160219],[-66.827325,18.171245],[-66.836758,18.170556],[-66.850119,18.162889],[-66.856779,18.138593],[-66.888097,18.153401],[-66.903805,18.146366],[-66.926516,18.15127]]]},"properties":{"shapeName":"Yauco","shapeISO":"52423323B65711938596700","shapeGroup":"USA","shapeType":"ADM2","src_shape_id":"52423323B65711938596700","adm1ISO":"US-PR"}},
{"type":"Feature","geometry":{"type":"Polygon","coordinates":[[[-66.198929,18.466661],[-66.23053,18.454395],[-66.257939,18.455025],[-66.264313,18.426543],[-66.252552,18.39419],[-66.233915,18.401284],[-66.196978,18.389292],[-66.198011,18.414629],[-66.187554,18.419743],[-66.172651,18.421053],[-66.169514,18.431001],[-66.139551,18.462306],[-66.129401,18.465635],[-66.12925,18.472561],[-66.137957,18.473895],[-66.142223,18.464277],[-66.153035,18.45446],[-66.161214,18.45341],[-66.182074,18.463472],[-66.18672,18.469735],[-66.193917,18.467254],[-66.198929,18.466661]]]},"properties":{"shapeName":"Toa Baja","shapeISO":"52423323B61278008297409","shapeGroup":"USA","shapeType":"ADM2","src_shape_id":"52423323B61278008297409","adm1ISO":"US-PR"}},
{"type":"Feature","geometry":{"type":"Polygon","coordinates":[[[-66.166143,18.050066],[-66.180508,18.025072],[-66.20559,18.012983],[-66.206208,17.962896],[-66.222511,17.942079],[-66.225357,17.925405],[-66.218878,17.91568],[-66.209436,17.92124],[-66.197066,17.930069],[-66.193398,17.93679],[-66.18328,17.935948],[-66.174967,17.935736],[-66.167568,17.933488],[-66.158799,17.929843],[-66.155385,17.929409],[-66.14791,17.933966],[-66.135031,17.941375],[-66.127007,17.946956],[-66.116192,17.949144],[-66.081408,17.966555],[-66.069977,17.96636],[-66.071608,17.993735],[-66.095207,18.022189],[-66.082261,18.032961],[-66.089397,18.056259],[-66.068318,18.078726],[-66.053144,18.107296],[-66.068569,18.101831],[-66.102568,18.105035],[-66.112705,18.090162],[-66.129029,18.08864],[-66.119813,18.062902],[-66.138985,18.03692],[-66.166143,18.050066]]]},"properties":{"shapeName":"Guayama","shapeISO":"52423323B16848468403028","shapeGroup":"USA","shapeType":"ADM2","src_shape_id":"52423323B16848468403028","adm1ISO":"US-PR"}},
{"type":"Feature","geometry":{"type":"Polygon","coordinates":[[[-66.190674,18.258843],[-66.161598,18.282541],[-66.143859,18.279593],[-66.137985,18.298414],[-66.140207,18.30058],[-66.141781,18.322406],[-66.13381,18.334681],[-66.141643,18.361818],[-66.134516,18.374582],[-66.118358,18.379257],[-66.124065,18.399103],[-66.121281,18.414391],[-66.131578,18.424659],[-66.158543,18.421564],[-66.169514,18.431001],[-66.172651,18.421053],[-66.187554,18.419743],[-66.198011,18.414629],[-66.196978,18.389292],[-66.197291,18.360202],[-66.199674,18.354553],[-66.198627,18.351111],[-66.200469,18.347141],[-66.199552,18.339891],[-66.203613,18.336676],[-66.201529,18.328986],[-66.204012,18.315911],[-66.204732,18.316038],[-66.213535,18.306286],[-66.206133,18.276663],[-66.201667,18.276416],[-66.190674,18.258843]]]},"properties":{"shapeName":"Bayamón","shapeISO":"52423323B11777472364014","shapeGroup":"USA","shapeType":"ADM2","src_shape_id":"52423323B11777472364014","adm1ISO":"US-PR"}},
{"type":"Feature","geometry":{"type":"Polygon","coordinates":[[[-65.852614,18.254975],[-65.846287,18.258086],[-65.836385,18.275249],[-65.868113,18.293986],[-65.862759,18.321493],[-65.876708,18.361514],[-65.867445,18.378201],[-65.8765,18.378684],[-65.869947,18.408918],[-65.899928,18.413685],[-65.919276,18.402996],[-65.931338,18.393682],[-65.923706,18.385856],[-65.91315,18.379294],[-65.917095,18.367768],[-65.915921,18.348095],[-65.903139,18.32066],[-65.915645,18.292419],[-65.907256,18.272175],[-65.918533,18.270133],[-65.874692,18.253057],[-65.852614,18.254975]]]},"properties":{"shapeName":"Canóvanas","shapeISO":"52423323B58893245125586","shapeGroup":"USA","shapeType":"ADM2","src_shape_id":"52423323B58893245125586","adm1ISO":"US-PR"}},
{"type":"Feature","geometry":{"type":"Polygon","coordinates":[[[-65.951017,18.229295],[-65.939471,18.234121],[-65.94584,18.252658],[-65.918533,18.270133],[-65.939294,18.286774],[-65.942427,18.293472],[-65.968147,18.310156],[-66.021745,18.305037],[-66.03057,18.301183],[-66.029892,18.290873],[-66.008231,18.278176],[-66.013969,18.264709],[-66.009459,18.241054],[-66.013742,18.225648],[-65.997648,18.206995],[-65.989046,18.220342],[-65.951017,18.229295]]]},"properties":{"shapeName":"Gurabo","shapeISO":"52423323B32764376391113","shapeGroup":"USA","shapeType":"ADM2","src_shape_id":"52423323B32764376391113","adm1ISO":"US-PR"}},
{"type":"Feature","geometry":{"type":"Polygon","coordinates":[[[-66.884652,18.024819],[-66.895215,18.023359],[-66.958747,18.03248],[-66.961934,17.991595],[-66.981049,17.952507],[-66.980515,17.951651],[-66.9681,17.947254],[-66.959997,17.940219],[-66.955576,17.93156],[-66.94174,17.932964],[-66.92726,17.926878],[-66.923825,17.926926],[-66.919297,17.932065],[-66.912521,17.947449],[-66.909358,17.949883],[-66.904584,17.95053],[-66.899638,17.948301],[-66.883439,17.952529],[-66.879289,17.951577],[-66.877306,17.947933],[-66.863532,17.94467],[-66.862544,17.952025],[-66.859469,17.954319],[-66.863218,17.998032],[-66.884652,18.024819]]]},"properties":{"shapeName":"Guánica","shapeISO":"52423323B79106599781981","shapeGroup":"USA","shapeType":"ADM2","src_shape_id":"52423323B79106599781981","adm1ISO":"US-PR"}},
{"type":"Feature","geometry":{"type":"Polygon","coordinates":[[[-66.957515,18.489174],[-66.966779,18.449918],[-66.947939,18.437869],[-66.938587,18.419124],[-66.947332,18.401599],[-66.922019,18.393207],[-66.919496,18.378581],[-66.903674,18.365875],[-66.898899,18.366111],[-66.900981,18.385356],[-66.901428,18.484555],[-66.906871,18.483559],[-66.944635,18.491696],[-66.957515,18.489174]]]},"properties":{"shapeName":"Quebradillas","shapeISO":"52423323B74070322698639","shapeGroup":"USA","shapeType":"ADM2","src_shape_id":"52423323B74070322698639","adm1ISO":"US-PR"}},
{"type":"Feature","geometry":{"type":"Polygon","coordinates":[[[-67.132209,18.389394],[-67.12665,18.37145],[-67.134514,18.346517],[-67.130166,18.31793],[-67.121401,18.323963],[-67.108045,18.320016],[-67.063468,18.311566],[-67.052582,18.306658],[-67.035852,18.329543],[-67.047404,18.350862],[-67.042022,18.355808],[-67.027172,18.393379],[-67.052812,18.448357],[-67.056506,18.460957],[-67.098936,18.437035],[-67.12517,18.408929],[-67.132209,18.389394]]]},"properties":{"shapeName":"Moca","shapeISO":"52423323B30804513522660","shapeGroup":"USA","shapeType":"ADM2","src_shape_id":"52423323B30804513522660","adm1ISO":"US-PR"}},
{"type":"Feature","geometry":{"type":"Polygon","coordinates":[[[-66.206133,18.276663],[-66.213535,18.306286],[-66.204732,18.316038],[-66.217177,18.334197],[-66.233007,18.32455],[-66.258507,18.331912],[-66.278074,18.329978],[-66.296084,18.257548],[-66.313297,18.249327],[-66.307071,18.241484],[-66.29384,18.246412],[-66.266464,18.245273],[-66.227882,18.254209],[-66.218203,18.274713],[-66.206133,18.276663]]]},"properties":{"shapeName":"Naranjito","shapeISO":"52423323B8068619404186","shapeGroup":"USA","shapeType":"ADM2","src_shape_id":"52423323B8068619404186","adm1ISO":"US-PR"}},
{"type":"Feature","geometry":{"type":"Polygon","coordinates":[[[-66.240458,18.184797],[-66.263551,18.184962],[-66.27026,18.219381],[-66.265331,18.233548],[-66.266464,18.245273],[-66.29384,18.246412],[-66.307071,18.241484],[-66.313297,18.249327],[-66.326125,18.247925],[-66.340119,18.238692],[-66.350791,18.241238],[-66.351652,18.194199],[-66.363732,18.200666],[-66.373766,18.173697],[-66.351256,18.165491],[-66.322321,18.165506],[-66.314846,18.152091],[-66.277715,18.174197],[-66.248291,18.165618],[-66.242733,18.180251],[-66.240458,18.184797]]]},"properties":{"shapeName":"Barranquitas","shapeISO":"52423323B15402942481985","shapeGroup":"USA","shapeType":"ADM2","src_shape_id":"52423323B15402942481985","adm1ISO":"US-PR"}},
{"type":"Feature","geometry":{"type":"Polygon","coordinates":[[[-66.926516,18.15127],[-66.971865,18.141543],[-66.975539,18.143398],[-66.977854,18.143802],[-66.970368,18.131901],[-66.984133,18.106969],[-66.980601,18.078778],[-66.983336,18.052521],[-66.982674,18.041205],[-66.958747,18.03248],[-66.895215,18.023359],[-66.884652,18.024819],[-66.887483,18.034078],[-66.901032,18.039857],[-66.920695,18.103472],[-66.911622,18.113525],[-66.926516,18.15127]]]},"properties":{"shapeName":"Sabana Grande","shapeISO":"52423323B59988568496806","shapeGroup":"USA","shapeType":"ADM2","src_shape_id":"52423323B59988568496806","adm1ISO":"US-PR"}},
{"type":"Feature","geometry":{"type":"Polygon","coordinates":[[[-67.019835,18.195474],[-67.017387,18.189902],[-67.03452,18.185522],[-67.05146,18.174056],[-67.013843,18.165877],[-66.977854,18.143802],[-66.975539,18.143398],[-66.971865,18.141543],[-66.926516,18.15127],[-66.903805,18.146366],[-66.888097,18.153401],[-66.856779,18.138593],[-66.850119,18.162889],[-66.836758,18.170556],[-66.862831,18.174811],[-66.86399,18.186751],[-66.897963,18.187747],[-66.978379,18.207919],[-67.003802,18.193504],[-67.019835,18.195474]]]},"properties":{"shapeName":"Maricao","shapeISO":"52423323B91102328415682","shapeGroup":"USA","shapeType":"ADM2","src_shape_id":"52423323B91102328415682","adm1ISO":"US-PR"}},
{"type":"Feature","geometry":{"type":"Polygon","coordinates":[[[-66.463209,18.371476],[-66.473344,18.367607],[-66.483428,18.366043],[-66.511774,18.362006],[-66.529281,18.350258],[-66.533621,18.351336],[-66.539634,18.344408],[-66.590783,18.338063],[-66.600227,18.339606],[-66.606987,18.328189],[-66.611122,18.322376],[-66.585267,18.322692],[-66.566618,18.298552],[-66.554701,18.281586],[-66.564454,18.24265],[-66.548881,18.22057],[-66.532723,18.200522],[-66.531021,18.18014],[-66.543131,18.163101],[-66.531554,18.155682],[-66.511048,18.178104],[-66.51771,18.225937],[-66.501071,18.256845],[-66.466967,18.24567],[-66.455701,18.257729],[-66.464881,18.283243],[-66.453351,18.309893],[-66.454287,18.332657],[-66.46514,18.35224],[-66.463209,18.371476]]]},"properties":{"shapeName":"Ciales","shapeISO":"52423323B28131645769529","shapeGroup":"USA","shapeType":"ADM2","src_shape_id":"52423323B28131645769529","adm1ISO":"US-PR"}},
{"type":"Feature","geometry":{"type":"Polygon","coordinates":[[[-66.521897,18.151957],[-66.530041,18.106947],[-66.518242,18.085033],[-66.492365,18.098188],[-66.454632,18.081253],[-66.430312,18.082056],[-66.421377,18.098592],[-66.430492,18.116406],[-66.419366,18.145307],[-66.434571,18.17354],[-66.438559,18.172966],[-66.444558,18.176677],[-66.470543,18.177832],[-66.521897,18.151957]]]},"properties":{"shapeName":"Villalba","shapeISO":"52423323B39360840436508","shapeGroup":"USA","shapeType":"ADM2","src_shape_id":"52423323B39360840436508","adm1ISO":"US-PR"}},
{"type":"Feature","geometry":{"type":"Polygon","coordinates":[[[-67.056506,18.460957],[-67.058459,18.479985],[-67.07706,18.488969],[-67.103466,18.514526],[-67.125654,18.511709],[-67.138248,18.507779],[-67.142829,18.505488],[-67.164143,18.487399],[-67.169015,18.478491],[-67.16901,18.466355],[-67.161745,18.453465],[-67.156618,18.439565],[-67.155244,18.424404],[-67.156598,18.418986],[-67.160143,18.41559],[-67.156559,18.393981],[-67.132209,18.389394],[-67.12517,18.408929],[-67.098936,18.437035],[-67.056506,18.460957]]]},"properties":{"shapeName":"Aguadilla","shapeISO":"52423323B63484657830280","shapeGroup":"USA","shapeType":"ADM2","src_shape_id":"52423323B63484657830280","adm1ISO":"US-PR"}},
{"type":"Feature","geometry":{"type":"Polygon","coordinates":[[[-66.117772,18.209952],[-66.090191,18.227603],[-66.077311,18.256513],[-66.066101,18.303324],[-66.080473,18.297298],[-66.086463,18.285097],[-66.107785,18.277877],[-66.143859,18.279593],[-66.161598,18.282541],[-66.190674,18.258843],[-66.178249,18.246312],[-66.169124,18.224293],[-66.143939,18.228114],[-66.141063,18.197909],[-66.117772,18.209952]]]},"properties":{"shapeName":"Aguas Buenas","shapeISO":"52423323B72724897935672","shapeGroup":"USA","shapeType":"ADM2","src_shape_id":"52423323B72724897935672","adm1ISO":"US-PR"}},
{"type":"Feature","geometry":{"type":"Polygon","coordinates":[[[-65.750178,18.385053],[-65.770429,18.366146],[-65.753511,18.341541],[-65.762492,18.306097],[-65.758859,18.290607],[-65.753589,18.296758],[-65.731853,18.288568],[-65.719461,18.306582],[-65.685918,18.329994],[-65.669155,18.363476],[-65.67417,18.36394],[-65.683393,18.368489],[-65.689857,18.366873],[-65.699067,18.368159],[-65.714338,18.376346],[-65.718616,18.391909],[-65.731174,18.395108],[-65.732639,18.392586],[-65.729988,18.386007],[-65.733565,18.382214],[-65.742152,18.380462],[-65.750178,18.385053]]]},"properties":{"shapeName":"Luquillo","shapeISO":"52423323B5772281676312","shapeGroup":"USA","shapeType":"ADM2","src_shape_id":"52423323B5772281676312","adm1ISO":"US-PR"}},
{"type":"Feature","geometry":{"type":"Polygon","coordinates":[[[-65.997648,18.206995],[-66.013742,18.225648],[-66.009459,18.241054],[-66.013969,18.264709],[-66.008231,18.278176],[-66.029892,18.290873],[-66.03057,18.301183],[-66.021745,18.305037],[-66.025612,18.309617],[-66.041533,18.312347],[-66.045334,18.299421],[-66.066101,18.303324],[-66.077311,18.256513],[-66.090191,18.227603],[-66.117772,18.209952],[-66.101671,18.183085],[-66.103757,18.170456],[-66.095097,18.16908],[-66.065966,18.148414],[-66.069588,18.137519],[-66.052553,18.113072],[-66.035366,18.119544],[-66.020281,18.144084],[-66.022254,18.166038],[-66.011317,18.186063],[-66.003853,18.1856],[-65.999611,18.188711],[-65.997648,18.206995]]]},"properties":{"shapeName":"Caguas","shapeISO":"52423323B15729403870987","shapeGroup":"USA","shapeType":"ADM2","src_shape_id":"52423323B15729403870987","adm1ISO":"US-PR"}},
{"type":"Feature","geometry":{"type":"Polygon","coordinates":[[[-66.443798,18.37103],[-66.448987,18.387217],[-66.439411,18.410369],[-66.439492,18.462248],[-66.438812,18.485716],[-66.439959,18.485528],[-66.44185,18.479754],[-66.449182,18.470994],[-66.456484,18.468923],[-66.47029,18.469073],[-66.511607,18.476851],[-66.529474,18.48288],[-66.533231,18.481743],[-66.527332,18.456013],[-66.537519,18.435926],[-66.521163,18.431161],[-66.543783,18.418151],[-66.543077,18.405425],[-66.530527,18.385016],[-66.533621,18.351336],[-66.529281,18.350258],[-66.511774,18.362006],[-66.483428,18.366043],[-66.473344,18.367607],[-66.463209,18.371476],[-66.451576,18.372217],[-66.443798,18.37103]]]},"properties":{"shapeName":"Manatí","shapeISO":"52423323B91072384884845","shapeGroup":"USA","shapeType":"ADM2","src_shape_id":"52423323B91072384884845","adm1ISO":"US-PR"}},
{"type":"Feature","geometry":{"type":"Polygon","coordinates":[[[-66.606987,18.328189],[-66.671619,18.324525],[-66.7173,18.315684],[-66.719759,18.336247],[-66.735945,18.349678],[-66.77007,18.325016],[-66.770361,18.320648],[-66.826126,18.323385],[-66.829556,18.287748],[-66.827207,18.244099],[-66.825704,18.244297],[-66.817556,18.235427],[-66.817269,18.230339],[-66.798757,18.230029],[-66.794504,18.249874],[-66.781699,18.250251],[-66.764695,18.237679],[-66.760624,18.225898],[-66.739356,18.22052],[-66.732179,18.225762],[-66.707723,18.216704],[-66.693728,18.216894],[-66.681318,18.204168],[-66.681694,18.187613],[-66.664695,18.175468],[-66.676988,18.150958],[-66.670492,18.152834],[-66.653181,18.159152],[-66.649465,18.15886],[-66.654548,18.169594],[-66.628429,18.214301],[-66.625139,18.246691],[-66.606734,18.238483],[-66.597473,18.284107],[-66.578755,18.284052],[-66.566618,18.298552],[-66.585267,18.322692],[-66.611122,18.322376],[-66.606987,18.328189]]]},"properties":{"shapeName":"Utuado","shapeISO":"52423323B53991752457296","shapeGroup":"USA","shapeType":"ADM2","src_shape_id":"52423323B53991752457296","adm1ISO":"US-PR"}},
{"type":"Feature","geometry":{"type":"Polygon","coordinates":[[[-65.867445,18.378201],[-65.859686,18.382068],[-65.852536,18.401703],[-65.828455,18.423546],[-65.831474,18.426852],[-65.838823,18.431868],[-65.878681,18.438325],[-65.904986,18.450929],[-65.907754,18.446896],[-65.916841,18.444622],[-65.925668,18.444884],[-65.95849,18.451357],[-65.990788,18.460422],[-65.992808,18.458032],[-65.967211,18.432386],[-65.961459,18.433371],[-65.930398,18.428481],[-65.919276,18.402996],[-65.899928,18.413685],[-65.869947,18.408918],[-65.8765,18.378684],[-65.867445,18.378201]]]},"properties":{"shapeName":"Loíza","shapeISO":"52423323B3277020886605","shapeGroup":"USA","shapeType":"ADM2","src_shape_id":"52423323B3277020886605","adm1ISO":"US-PR"}},
{"type":"Feature","geometry":{"type":"Polygon","coordinates":[[[-66.052553,18.113072],[-66.069588,18.137519],[-66.065966,18.148414],[-66.095097,18.16908],[-66.101724,18.151259],[-66.118501,18.138154],[-66.130825,18.138831],[-66.131879,18.13258],[-66.164746,18.144466],[-66.175065,18.133748],[-66.18227,18.144628],[-66.187332,18.137056],[-66.216897,18.143223],[-66.226826,18.116644],[-66.224488,18.095342],[-66.201751,18.067642],[-66.202036,18.046116],[-66.166143,18.050066],[-66.138985,18.03692],[-66.119813,18.062902],[-66.129029,18.08864],[-66.112705,18.090162],[-66.102568,18.105035],[-66.068569,18.101831],[-66.053144,18.107296],[-66.051786,18.109881],[-66.052553,18.113072]]]},"properties":{"shapeName":"Cayey","shapeISO":"52423323B40146913346839","shapeGroup":"USA","shapeType":"ADM2","src_shape_id":"52423323B40146913346839","adm1ISO":"US-PR"}},
{"type":"Feature","geometry":{"type":"Polygon","coordinates":[[[-66.958747,18.03248],[-66.982674,18.041205],[-66.983336,18.052521],[-67.007869,18.06023],[-67.036189,18.05782],[-67.067911,18.066327],[-67.109043,18.056088],[-67.115851,18.033369],[-67.110133,18.015871],[-67.102277,17.97496],[-67.109984,17.945809],[-67.101467,17.946624],[-67.089826,17.951421],[-67.076533,17.967762],[-67.062477,17.973822],[-67.024521,17.970725],[-67.014743,17.968471],[-67.004702,17.960821],[-66.996861,17.968167],[-66.986084,17.96734],[-66.982205,17.961195],[-66.982668,17.955103],[-66.981049,17.952507],[-66.961934,17.991595],[-66.958747,18.03248]]]},"properties":{"shapeName":"Lajas","shapeISO":"52423323B1226588316364","shapeGroup":"USA","shapeType":"ADM2","src_shape_id":"52423323B1226588316364","adm1ISO":"US-PR"}},
{"type":"Feature","geometry":{"type":"Polygon","coordinates":[[[-66.566618,18.298552],[-66.578755,18.284052],[-66.597473,18.284107],[-66.606734,18.238483],[-66.625139,18.246691],[-66.628429,18.214301],[-66.654548,18.169594],[-66.649465,18.15886],[-66.636602,18.15168],[-66.591003,18.172482],[-66.552764,18.15206],[-66.547218,18.153133],[-66.543131,18.163101],[-66.531021,18.18014],[-66.532723,18.200522],[-66.548881,18.22057],[-66.564454,18.24265],[-66.554701,18.281586],[-66.566618,18.298552]]]},"properties":{"shapeName":"Jayuya","shapeISO":"52423323B32135121114798","shapeGroup":"USA","shapeType":"ADM2","src_shape_id":"52423323B32135121114798","adm1ISO":"US-PR"}},
{"type":"Feature","geometry":{"type":"Polygon","coordinates":[[[-65.796754,18.069746],[-65.795026,18.073564],[-65.794684,18.07861],[-65.796287,18.079838],[-65.796709,18.083749],[-65.777582,18.129242],[-65.766917,18.148427],[-65.758726,18.156604],[-65.74363,18.16396],[-65.739123,18.173456],[-65.766044,18.182099],[-65.760502,18.195584],[-65.792475,18.206762],[-65.826061,18.200411],[-65.836446,18.175246],[-65.846569,18.177933],[-65.854117,18.177279],[-65.863072,18.14017],[-65.877613,18.11817],[-65.870209,18.108429],[-65.848115,18.117491],[-65.848049,18.099167],[-65.82924,18.084716],[-65.796754,18.069746]]]},"properties":{"shapeName":"Humacao","shapeISO":"52423323B42234793142601","shapeGroup":"USA","shapeType":"ADM2","src_shape_id":"52423323B42234793142601","adm1ISO":"US-PR"}},
{"type":"Feature","geometry":{"type":"Polygon","coordinates":[[[-66.455701,18.257729],[-66.466967,18.24567],[-66.501071,18.256845],[-66.51771,18.225937],[-66.511048,18.178104],[-66.531554,18.155682],[-66.543131,18.163101],[-66.547218,18.153133],[-66.544279,18.147622],[-66.521897,18.151957],[-66.470543,18.177832],[-66.444558,18.176677],[-66.423647,18.172028],[-66.413684,18.16334],[-66.373766,18.173697],[-66.363732,18.200666],[-66.351652,18.194199],[-66.350791,18.241238],[-66.383031,18.275351],[-66.37771,18.293979],[-66.384026,18.2908],[-66.390955,18.273395],[-66.409429,18.263313],[-66.455701,18.257729]]]},"properties":{"shapeName":"Orocovis","shapeISO":"52423323B43736341835391","shapeGroup":"USA","shapeType":"ADM2","src_shape_id":"52423323B43736341835391","adm1ISO":"US-PR"}},
{"type":"Feature","geometry":{"type":"Polygon","coordinates":[[[-66.898899,18.366111],[-66.893338,18.367092],[-66.889953,18.367987],[-66.876957,18.356832],[-66.854736,18.355338],[-66.824221,18.343001],[-66.810673,18.38663],[-66.813972,18.390221],[-66.823641,18.412468],[-66.828972,18.472714],[-66.836633,18.487703],[-66.849672,18.490748],[-66.867385,18.490788],[-66.901428,18.484555],[-66.900981,18.385356],[-66.898899,18.366111]]]},"properties":{"shapeName":"Camuy","shapeISO":"52423323B84341860753916","shapeGroup":"USA","shapeType":"ADM2","src_shape_id":"52423323B84341860753916","adm1ISO":"US-PR"}},
{"type":"Feature","geometry":{"type":"Polygon","coordinates":[[[-66.143859,18.279593],[-66.107785,18.277877],[-66.086463,18.285097],[-66.080473,18.297298],[-66.085145,18.30051],[-66.08758,18.334614],[-66.099665,18.342628],[-66.098201,18.34964],[-66.088349,18.357143],[-66.09004,18.375059],[-66.106504,18.382686],[-66.099811,18.412008],[-66.097863,18.416427],[-66.107803,18.42758],[-66.108279,18.438905],[-66.112389,18.440108],[-66.116131,18.439631],[-66.131578,18.424659],[-66.121281,18.414391],[-66.124065,18.399103],[-66.118358,18.379257],[-66.134516,18.374582],[-66.141643,18.361818],[-66.13381,18.334681],[-66.141781,18.322406],[-66.140207,18.30058],[-66.137985,18.298414],[-66.143859,18.279593]]]},"properties":{"shapeName":"Guaynabo","shapeISO":"52423323B55438776297696","shapeGroup":"USA","shapeType":"ADM2","src_shape_id":"52423323B55438776297696","adm1ISO":"US-PR"}},
{"type":"Feature","geometry":{"type":"Polygon","coordinates":[[[-65.575577,18.115672],[-65.576858,18.103227],[-65.570626,18.097328],[-65.569303,18.091619],[-65.558644,18.085663],[-65.542085,18.08118],[-65.524207,18.08198],[-65.507263,18.091649],[-65.479788,18.096355],[-65.468766,18.092646],[-65.465847,18.087718],[-65.456808,18.087781],[-65.451378,18.086099],[-65.426309,18.093752],[-65.423763,18.097767],[-65.411765,18.106214],[-65.399789,18.108835],[-65.393348,18.10829],[-65.38647,18.110434],[-65.383102,18.106052],[-65.374417,18.108044],[-65.375228,18.115312],[-65.373668,18.121422],[-65.365882,18.124696],[-65.3554,18.125123],[-65.350788,18.123354],[-65.355999,18.112314],[-65.342035,18.111383],[-65.338504,18.112442],[-65.327182,18.124109],[-65.322792,18.126592],[-65.296034,18.127993],[-65.283246,18.133002],[-65.276212,18.131939],[-65.275163,18.134433],[-65.28796,18.1481],[-65.294894,18.142833],[-65.302293,18.141092],[-65.308715,18.145175],[-65.313474,18.144299],[-65.334287,18.147764],[-65.371371,18.15752],[-65.399515,18.161938],[-65.437056,18.157663],[-65.467908,18.14377],[-65.489827,18.135915],[-65.51171,18.132843],[-65.546197,18.119332],[-65.575577,18.115672]]]},"properties":{"shapeName":"Vieques","shapeISO":"52423323B81395860012193","shapeGroup":"USA","shapeType":"ADM2","src_shape_id":"52423323B81395860012193","adm1ISO":"US-PR"}},
{"type":"Feature","geometry":{"type":"Polygon","coordinates":[[[-65.739123,18.173456],[-65.734662,18.180371],[-65.728469,18.185591],[-65.717997,18.190179],[-65.712531,18.189149],[-65.710893,18.186966],[-65.695854,18.179327],[-65.691019,18.179001],[-65.694513,18.187014],[-65.690747,18.194993],[-65.664125,18.207139],[-65.662486,18.206732],[-65.657797,18.2225],[-65.670998,18.223055],[-65.693026,18.239021],[-65.683001,18.252719],[-65.702401,18.259476],[-65.721916,18.252206],[-65.762399,18.271335],[-65.766829,18.280007],[-65.784857,18.294003],[-65.793221,18.296532],[-65.79554,18.289515],[-65.811422,18.290144],[-65.824218,18.273057],[-65.815662,18.26253],[-65.828787,18.230246],[-65.826061,18.200411],[-65.792475,18.206762],[-65.760502,18.195584],[-65.766044,18.182099],[-65.739123,18.173456]]]},"properties":{"shapeName":"Naguabo","shapeISO":"52423323B92327379026195","shapeGroup":"USA","shapeType":"ADM2","src_shape_id":"52423323B92327379026195","adm1ISO":"US-PR"}},
{"type":"Feature","geometry":{"type":"Polygon","coordinates":[[[-66.769047,18.134986],[-66.760964,18.111614],[-66.769688,18.087836],[-66.765882,18.0822],[-66.769496,18.058828],[-66.765129,18.038983],[-66.753515,18.049555],[-66.736288,18.042407],[-66.741718,18.030534],[-66.732993,18.017497],[-66.748426,18.011071],[-66.76019,17.998373],[-66.758465,17.995184],[-66.756254,17.987015],[-66.751335,17.98682],[-66.746246,17.990352],[-66.731116,17.991661],[-66.716955,17.990347],[-66.713392,17.987766],[-66.709854,17.982112],[-66.699114,17.977571],[-66.686766,17.991489],[-66.689444,18.04026],[-66.680351,18.077055],[-66.678085,18.100703],[-66.694068,18.130537],[-66.713593,18.132108],[-66.727342,18.113043],[-66.749616,18.113667],[-66.769047,18.134986]]]},"properties":{"shapeName":"Peñuelas","shapeISO":"52423323B18041062174834","shapeGroup":"USA","shapeType":"ADM2","src_shape_id":"52423323B18041062174834","adm1ISO":"US-PR"}},
{"type":"Feature","geometry":{"type":"Polygon","coordinates":[[[-67.239089,18.37532],[-67.26067,18.3702],[-67.268258,18.366992],[-67.271349,18.362332],[-67.267483,18.353152],[-67.235136,18.299938],[-67.225402,18.296651],[-67.220708,18.305703],[-67.182851,18.313029],[-67.195507,18.330312],[-67.227335,18.348769],[-67.239089,18.37532]]]},"properties":{"shapeName":"Rincón","shapeISO":"52423323B9429339455263","shapeGroup":"USA","shapeType":"ADM2","src_shape_id":"52423323B9429339455263","adm1ISO":"US-PR"}},
{"type":"Feature","geometry":{"type":"Polygon","coordinates":[[[-65.926225,18.119966],[-65.907451,18.126148],[-65.877613,18.11817],[-65.863072,18.14017],[-65.854117,18.177279],[-65.846569,18.177933],[-65.836446,18.175246],[-65.826061,18.200411],[-65.828787,18.230246],[-65.815662,18.26253],[-65.824218,18.273057],[-65.836385,18.275249],[-65.846287,18.258086],[-65.852614,18.254975],[-65.851932,18.248014],[-65.874763,18.215917],[-65.896104,18.202273],[-65.928339,18.142848],[-65.920663,18.137826],[-65.926225,18.119966]]]},"properties":{"shapeName":"Las Piedras","shapeISO":"52423323B77773616076355","shapeGroup":"USA","shapeType":"ADM2","src_shape_id":"52423323B77773616076355","adm1ISO":"US-PR"}},
{"type":"Feature","geometry":{"type":"Polygon","coordinates":[[[-67.132209,18.389394],[-67.156559,18.393981],[-67.160143,18.41559],[-67.202166,18.389911],[-67.216997,18.382081],[-67.226743,18.37825],[-67.239089,18.37532],[-67.227335,18.348769],[-67.195507,18.330312],[-67.182851,18.313029],[-67.145773,18.322668],[-67.130166,18.31793],[-67.134514,18.346517],[-67.12665,18.37145],[-67.132209,18.389394]]]},"properties":{"shapeName":"Aguada","shapeISO":"52423323B31237535640697","shapeGroup":"USA","shapeType":"ADM2","src_shape_id":"52423323B31237535640697","adm1ISO":"US-PR"}},
{"type":"Feature","geometry":{"type":"Polygon","coordinates":[[[-67.037934,18.289708],[-67.040708,18.300305],[-67.052582,18.306658],[-67.063468,18.311566],[-67.108045,18.320016],[-67.121401,18.323963],[-67.130166,18.31793],[-67.145773,18.322668],[-67.182851,18.313029],[-67.220708,18.305703],[-67.225402,18.296651],[-67.209962,18.294977],[-67.196055,18.290446],[-67.18997,18.281018],[-67.187872,18.266877],[-67.161223,18.273015],[-67.141498,18.269957],[-67.135632,18.251471],[-67.135818,18.245931],[-67.082001,18.254949],[-67.061827,18.270085],[-67.040227,18.271988],[-67.037934,18.289708]]]},"properties":{"shapeName":"Añasco","shapeISO":"52423323B92182718553781","shapeGroup":"USA","shapeType":"ADM2","src_shape_id":"52423323B92182718553781","adm1ISO":"US-PR"}},
{"type":"Feature","geometry":{"type":"Polygon","coordinates":[[[-66.129401,18.465635],[-66.108446,18.445357],[-66.108279,18.438905],[-66.107803,18.42758],[-66.097863,18.416427],[-66.099811,18.412008],[-66.106504,18.382686],[-66.09004,18.375059],[-66.088349,18.357143],[-66.098201,18.34964],[-66.099665,18.342628],[-66.08758,18.334614],[-66.085145,18.30051],[-66.080473,18.297298],[-66.066101,18.303324],[-66.045334,18.299421],[-66.041533,18.312347],[-66.035497,18.319843],[-66.035531,18.344371],[-66.032503,18.355704],[-66.035347,18.369684],[-66.025094,18.379777],[-65.999554,18.380068],[-65.991808,18.403872],[-66.024987,18.423981],[-66.029733,18.427798],[-66.042967,18.444177],[-66.036557,18.450219],[-66.039438,18.454444],[-66.04327,18.453658],[-66.073985,18.458103],[-66.083252,18.462025],[-66.092096,18.466538],[-66.11654,18.469826],[-66.124721,18.471868],[-66.12925,18.472561],[-66.129401,18.465635]]]},"properties":{"shapeName":"San Juan","shapeISO":"52423323B15729416108881","shapeGroup":"USA","shapeType":"ADM2","src_shape_id":"52423323B15729416108881","adm1ISO":"US-PR"}},
{"type":"Feature","geometry":{"type":"Polygon","coordinates":[[[-66.957515,18.489174],[-66.959539,18.489881],[-66.988957,18.497727],[-67.020275,18.510606],[-67.079289,18.513259],[-67.093751,18.51576],[-67.103466,18.514526],[-67.07706,18.488969],[-67.058459,18.479985],[-67.056506,18.460957],[-67.052812,18.448357],[-67.027172,18.393379],[-67.009141,18.395128],[-66.938328,18.376435],[-66.922019,18.393207],[-66.947332,18.401599],[-66.938587,18.419124],[-66.947939,18.437869],[-66.966779,18.449918],[-66.957515,18.489174]]]},"properties":{"shapeName":"Isabela","shapeISO":"52423323B40695299315200","shapeGroup":"USA","shapeType":"ADM2","src_shape_id":"52423323B40695299315200","adm1ISO":"US-PR"}},
{"type":"Feature","geometry":{"type":"Polygon","coordinates":[[[-65.836385,18.275249],[-65.824218,18.273057],[-65.811422,18.290144],[-65.79554,18.289515],[-65.793221,18.296532],[-65.784857,18.294003],[-65.766829,18.280007],[-65.758859,18.290607],[-65.762492,18.306097],[-65.753511,18.341541],[-65.770429,18.366146],[-65.750178,18.385053],[-65.750453,18.385211],[-65.771693,18.40628],[-65.769747,18.409476],[-65.770528,18.412943],[-65.774935,18.413954],[-65.7845,18.412904],[-65.788494,18.418521],[-65.792058,18.422333],[-65.805791,18.410799],[-65.816689,18.410666],[-65.828455,18.423546],[-65.852536,18.401703],[-65.859686,18.382068],[-65.867445,18.378201],[-65.876708,18.361514],[-65.862759,18.321493],[-65.868113,18.293986],[-65.836385,18.275249]]]},"properties":{"shapeName":"Río Grande","shapeISO":"52423323B67874562212910","shapeGroup":"USA","shapeType":"ADM2","src_shape_id":"52423323B67874562212910","adm1ISO":"US-PR"}},
{"type":"Feature","geometry":{"type":"Polygon","coordinates":[[[-66.166143,18.050066],[-66.202036,18.046116],[-66.201751,18.067642],[-66.224488,18.095342],[-66.240051,18.093189],[-66.242236,18.077151],[-66.257525,18.075887],[-66.27938,18.068919],[-66.28481,18.059725],[-66.297942,18.056945],[-66.331242,18.015894],[-66.342605,17.993564],[-66.33815,17.976494],[-66.323657,17.978539],[-66.316948,17.976686],[-66.297677,17.959151],[-66.29078,17.946494],[-66.275649,17.948263],[-66.264329,17.944541],[-66.257674,17.936853],[-66.251186,17.932788],[-66.253879,17.920101],[-66.243233,17.913772],[-66.224399,17.912429],[-66.218878,17.91568],[-66.225357,17.925405],[-66.222511,17.942079],[-66.206208,17.962896],[-66.20559,18.012983],[-66.180508,18.025072],[-66.166143,18.050066]]]},"properties":{"shapeName":"Salinas","shapeISO":"52423323B3757307003168","shapeGroup":"USA","shapeType":"ADM2","src_shape_id":"52423323B3757307003168","adm1ISO":"US-PR"}},
{"type":"Feature","geometry":{"type":"Polygon","coordinates":[[[-66.907235,18.253093],[-66.909968,18.302814],[-66.893338,18.367092],[-66.898899,18.366111],[-66.903674,18.365875],[-66.919496,18.378581],[-66.922019,18.393207],[-66.938328,18.376435],[-67.009141,18.395128],[-67.027172,18.393379],[-67.042022,18.355808],[-67.047404,18.350862],[-67.035852,18.329543],[-67.052582,18.306658],[-67.040708,18.300305],[-67.037934,18.289708],[-67.038189,18.280473],[-67.00592,18.27916],[-66.946387,18.268767],[-66.938389,18.258791],[-66.933481,18.258667],[-66.932473,18.253747],[-66.928823,18.254266],[-66.929902,18.258763],[-66.924231,18.260488],[-66.918934,18.256459],[-66.90854,18.252075],[-66.907235,18.253093]]]},"properties":{"shapeName":"San Sebastián","shapeISO":"52423323B44939102873256","shapeGroup":"USA","shapeType":"ADM2","src_shape_id":"52423323B44939102873256","adm1ISO":"US-PR"}},
{"type":"Feature","geometry":{"type":"Polygon","coordinates":[[[-67.100491,18.106398],[-67.105565,18.073864],[-67.099119,18.067361],[-67.109043,18.056088],[-67.067911,18.066327],[-67.036189,18.05782],[-67.007869,18.06023],[-66.983336,18.052521],[-66.980601,18.078778],[-66.984133,18.106969],[-66.970368,18.131901],[-66.977854,18.143802],[-67.013843,18.165877],[-67.05146,18.174056],[-67.082143,18.168076],[-67.086358,18.149832],[-67.093913,18.14231],[-67.092118,18.125372],[-67.079529,18.116999],[-67.081049,18.106718],[-67.100491,18.106398]]]},"properties":{"shapeName":"San Germán","shapeISO":"52423323B41088190294642","shapeGroup":"USA","shapeType":"ADM2","src_shape_id":"52423323B41088190294642","adm1ISO":"US-PR"}},
{"type":"Feature","geometry":{"type":"Polygon","coordinates":[[[-66.588179,18.389411],[-66.58322,18.437784],[-66.587768,18.437602],[-66.580058,18.468106],[-66.586776,18.484951],[-66.624616,18.494202],[-66.645837,18.48878],[-66.664362,18.487812],[-66.679874,18.484947],[-66.683717,18.48137],[-66.710741,18.472614],[-66.733984,18.47346],[-66.742065,18.474684],[-66.749299,18.476704],[-66.764892,18.4841],[-66.768127,18.477657],[-66.77014,18.433865],[-66.76794,18.427249],[-66.77007,18.325016],[-66.735945,18.349678],[-66.719759,18.336247],[-66.7173,18.315684],[-66.671619,18.324525],[-66.606987,18.328189],[-66.600227,18.339606],[-66.590783,18.338063],[-66.582276,18.373719],[-66.588179,18.389411]]]},"properties":{"shapeName":"Arecibo","shapeISO":"52423323B51190014897639","shapeGroup":"USA","shapeType":"ADM2","src_shape_id":"52423323B51190014897639","adm1ISO":"US-PR"}},
{"type":"Feature","geometry":{"type":"Polygon","coordinates":[[[-66.278074,18.329978],[-66.258507,18.331912],[-66.233007,18.32455],[-66.217177,18.334197],[-66.204732,18.316038],[-66.204012,18.315911],[-66.201529,18.328986],[-66.203613,18.336676],[-66.199552,18.339891],[-66.200469,18.347141],[-66.198627,18.351111],[-66.199674,18.354553],[-66.197291,18.360202],[-66.196978,18.389292],[-66.233915,18.401284],[-66.252552,18.39419],[-66.270786,18.383771],[-66.303661,18.38408],[-66.314156,18.380804],[-66.318762,18.367414],[-66.305717,18.369995],[-66.278074,18.329978]]]},"properties":{"shapeName":"Toa Alta","shapeISO":"52423323B98554944088847","shapeGroup":"USA","shapeType":"ADM2","src_shape_id":"52423323B98554944088847","adm1ISO":"US-PR"}},
{"type":"Feature","geometry":{"type":"Polygon","coordinates":[[[-66.521897,18.151957],[-66.544279,18.147622],[-66.547218,18.153133],[-66.552764,18.15206],[-66.564559,18.139415],[-66.561585,18.115296],[-66.549057,18.095627],[-66.555418,18.084519],[-66.545256,18.068756],[-66.546171,18.053801],[-66.537338,18.041289],[-66.542194,18.031041],[-66.530418,18.003078],[-66.541594,17.991608],[-66.540536,17.975479],[-66.510141,17.985621],[-66.491394,17.990265],[-66.46134,17.990276],[-66.454886,17.986787],[-66.450366,17.983228],[-66.421052,18.019312],[-66.426987,18.04263],[-66.424103,18.047975],[-66.430062,18.07639],[-66.430312,18.082056],[-66.454632,18.081253],[-66.492365,18.098188],[-66.518242,18.085033],[-66.530041,18.106947],[-66.521897,18.151957]]]},"properties":{"shapeName":"Juana Díaz","shapeISO":"52423323B66250868095677","shapeGroup":"USA","shapeType":"ADM2","src_shape_id":"52423323B66250868095677","adm1ISO":"US-PR"}},
{"type":"Feature","geometry":{"type":"Polygon","coordinates":[[[-65.919276,18.402996],[-65.930398,18.428481],[-65.961459,18.433371],[-65.967211,18.432386],[-65.992808,18.458032],[-65.997178,18.449898],[-66.006521,18.44435],[-66.023219,18.443878],[-66.036557,18.450219],[-66.042967,18.444177],[-66.029733,18.427798],[-66.024987,18.423981],[-65.991808,18.403872],[-65.999554,18.380068],[-65.991496,18.377007],[-65.989641,18.365843],[-65.982046,18.358497],[-65.9566,18.318313],[-65.938984,18.308746],[-65.942427,18.293472],[-65.939294,18.286774],[-65.918533,18.270133],[-65.907256,18.272175],[-65.915645,18.292419],[-65.903139,18.32066],[-65.915921,18.348095],[-65.917095,18.367768],[-65.91315,18.379294],[-65.923706,18.385856],[-65.931338,18.393682],[-65.919276,18.402996]]]},"properties":{"shapeName":"Carolina","shapeISO":"52423323B24006196223482","shapeGroup":"USA","shapeType":"ADM2","src_shape_id":"52423323B24006196223482","adm1ISO":"US-PR"}},
{"type":"Feature","geometry":{"type":"Polygon","coordinates":[[[-66.169514,18.431001],[-66.158543,18.421564],[-66.131578,18.424659],[-66.116131,18.439631],[-66.112389,18.440108],[-66.108279,18.438905],[-66.108446,18.445357],[-66.129401,18.465635],[-66.139551,18.462306],[-66.169514,18.431001]]]},"properties":{"shapeName":"Cataño","shapeISO":"52423323B13112190165396","shapeGroup":"USA","shapeType":"ADM2","src_shape_id":"52423323B13112190165396","adm1ISO":"US-PR"}},
{"type":"Feature","geometry":{"type":"Polygon","coordinates":[[[-65.758859,18.290607],[-65.766829,18.280007],[-65.762399,18.271335],[-65.721916,18.252206],[-65.702401,18.259476],[-65.683001,18.252719],[-65.693026,18.239021],[-65.670998,18.223055],[-65.657797,18.2225],[-65.662486,18.206732],[-65.635279,18.199978],[-65.628412,18.205152],[-65.637563,18.224447],[-65.638179,18.229124],[-65.617127,18.227413],[-65.610234,18.210932],[-65.599063,18.212964],[-65.589081,18.228542],[-65.574843,18.249679],[-65.604292,18.259693],[-65.622356,18.275717],[-65.623276,18.288504],[-65.634365,18.283587],[-65.666128,18.288047],[-65.682172,18.275072],[-65.695011,18.285683],[-65.69989,18.273082],[-65.717508,18.267747],[-65.737737,18.273884],[-65.753589,18.296758],[-65.758859,18.290607]]]},"properties":{"shapeName":"Ceiba","shapeISO":"52423323B98587415300192","shapeGroup":"USA","shapeType":"ADM2","src_shape_id":"52423323B98587415300192","adm1ISO":"US-PR"}},
{"type":"Feature","geometry":{"type":"Polygon","coordinates":[[[-66.373766,18.173697],[-66.413684,18.16334],[-66.423647,18.172028],[-66.444558,18.176677],[-66.438559,18.172966],[-66.434571,18.17354],[-66.419366,18.145307],[-66.430492,18.116406],[-66.421377,18.098592],[-66.430312,18.082056],[-66.430062,18.07639],[-66.424103,18.047975],[-66.426987,18.04263],[-66.372224,18.032617],[-66.356777,18.036945],[-66.331242,18.015894],[-66.297942,18.056945],[-66.28481,18.059725],[-66.27938,18.068919],[-66.257525,18.075887],[-66.259947,18.082615],[-66.272939,18.086589],[-66.310765,18.118171],[-66.320911,18.126008],[-66.314846,18.152091],[-66.322321,18.165506],[-66.351256,18.165491],[-66.373766,18.173697]]]},"properties":{"shapeName":"Coamo","shapeISO":"52423323B45396051816333","shapeGroup":"USA","shapeType":"ADM2","src_shape_id":"52423323B45396051816333","adm1ISO":"US-PR"}},
{"type":"Feature","geometry":{"type":"Polygon","coordinates":[[[-65.337496,18.34834],[-65.342066,18.345293],[-65.327316,18.323669],[-65.337449,18.308311],[-65.327698,18.295846],[-65.283267,18.280217],[-65.26028,18.290826],[-65.249855,18.296694],[-65.222851,18.310467],[-65.221566,18.320962],[-65.255931,18.34212],[-65.298326,18.330532],[-65.304407,18.332057],[-65.309831,18.337976],[-65.321752,18.338319],[-65.329332,18.341958],[-65.335699,18.349538],[-65.337496,18.34834]]]},"properties":{"shapeName":"Culebra","shapeISO":"52423323B10065184809144","shapeGroup":"USA","shapeType":"ADM2","src_shape_id":"52423323B10065184809144","adm1ISO":"US-PR"}},
{"type":"Feature","geometry":{"type":"Polygon","coordinates":[[[-66.852287,17.955006],[-66.838582,17.949934],[-66.822398,17.954502],[-66.808268,17.965638],[-66.787243,17.972917],[-66.784951,17.978329],[-66.785085,17.995862],[-66.770305,18.005958],[-66.764489,18.00632],[-66.76019,17.998373],[-66.748426,18.011071],[-66.732993,18.017497],[-66.741718,18.030534],[-66.736288,18.042407],[-66.753515,18.049555],[-66.765129,18.038983],[-66.769496,18.058828],[-66.765882,18.0822],[-66.769688,18.087836],[-66.760964,18.111614],[-66.769047,18.134986],[-66.784398,18.138655],[-66.797555,18.133448],[-66.796266,18.121464],[-66.810664,18.113033],[-66.810011,18.108316],[-66.802208,18.090995],[-66.816612,18.07073],[-66.824981,18.042685],[-66.81803,18.02931],[-66.829661,18.018712],[-66.825977,17.999701],[-66.83668,17.965974],[-66.852287,17.955006]]]},"properties":{"shapeName":"Guayanilla","shapeISO":"52423323B52221590077134","shapeGroup":"USA","shapeType":"ADM2","src_shape_id":"52423323B52221590077134","adm1ISO":"US-PR"}},
{"type":"Feature","geometry":{"type":"Polygon","coordinates":[[[-66.36527,18.333232],[-66.338237,18.367937],[-66.318762,18.367414],[-66.314156,18.380804],[-66.303661,18.38408],[-66.299924,18.423916],[-66.317419,18.451077],[-66.315029,18.474683],[-66.315475,18.474727],[-66.337726,18.485623],[-66.349646,18.486338],[-66.347833,18.428863],[-66.358896,18.421035],[-66.362873,18.395424],[-66.364282,18.389819],[-66.373241,18.37194],[-66.377056,18.344249],[-66.36527,18.333232]]]},"properties":{"shapeName":"Vega Alta","shapeISO":"52423323B37641528063122","shapeGroup":"USA","shapeType":"ADM2","src_shape_id":"52423323B37641528063122","adm1ISO":"US-PR"}},
{"type":"Feature","geometry":{"type":"Polygon","coordinates":[[[-66.897963,18.187747],[-66.86399,18.186751],[-66.862831,18.174811],[-66.836758,18.170556],[-66.827325,18.171245],[-66.836299,18.185787],[-66.832694,18.229102],[-66.817269,18.230339],[-66.817556,18.235427],[-66.825704,18.244297],[-66.827207,18.244099],[-66.829556,18.287748],[-66.826126,18.323385],[-66.824221,18.343001],[-66.854736,18.355338],[-66.876957,18.356832],[-66.889953,18.367987],[-66.893338,18.367092],[-66.909968,18.302814],[-66.907235,18.253093],[-66.912858,18.233012],[-66.897963,18.187747]]]},"properties":{"shapeName":"Lares","shapeISO":"52423323B33690071450754","shapeGroup":"USA","shapeType":"ADM2","src_shape_id":"52423323B33690071450754","adm1ISO":"US-PR"}},
{"type":"Feature","geometry":{"type":"MultiPolygon","coordinates":[[[[-66.533303,17.894145],[-66.532115,17.878312],[-66.517854,17.882836],[-66.50597,17.893014],[-66.50597,17.906585],[-66.517854,17.907716],[-66.533303,17.894145]]],[[[-66.670492,18.152834],[-66.676949,18.12998],[-66.694068,18.130537],[-66.678085,18.100703],[-66.680351,18.077055],[-66.689444,18.04026],[-66.686766,17.991489],[-66.699114,17.977571],[-66.672817,17.966454],[-66.664389,17.968262],[-66.657795,17.974608],[-66.645649,17.980263],[-66.631942,17.982749],[-66.623786,17.981053],[-66.605033,17.969018],[-66.59439,17.970685],[-66.589656,17.969389],[-66.583231,17.961232],[-66.540536,17.975479],[-66.541594,17.991608],[-66.530418,18.003078],[-66.542194,18.031041],[-66.537338,18.041289],[-66.546171,18.053801],[-66.545256,18.068756],[-66.555418,18.084519],[-66.549057,18.095627],[-66.561585,18.115296],[-66.564559,18.139415],[-66.552764,18.15206],[-66.591003,18.172482],[-66.636602,18.15168],[-66.649465,18.15886],[-66.653181,18.159152],[-66.670492,18.152834]]]]},"properties":{"shapeName":"Ponce","shapeISO":"52423323B51950353714831","shapeGroup":"USA","shapeType":"ADM2","src_shape_id":"52423323B51950353714831","adm1ISO":"US-PR"}},
{"type":"Feature","geometry":{"type":"Polygon","coordinates":[[[-66.797555,18.133448],[-66.784398,18.138655],[-66.769047,18.134986],[-66.749616,18.113667],[-66.727342,18.113043],[-66.713593,18.132108],[-66.694068,18.130537],[-66.676949,18.12998],[-66.670492,18.152834],[-66.676988,18.150958],[-66.664695,18.175468],[-66.681694,18.187613],[-66.681318,18.204168],[-66.693728,18.216894],[-66.707723,18.216704],[-66.732179,18.225762],[-66.739356,18.22052],[-66.760624,18.225898],[-66.764695,18.237679],[-66.781699,18.250251],[-66.794504,18.249874],[-66.798757,18.230029],[-66.817269,18.230339],[-66.832694,18.229102],[-66.836299,18.185787],[-66.827325,18.171245],[-66.826276,18.160219],[-66.804056,18.148059],[-66.797555,18.133448]]]},"properties":{"shapeName":"Adjuntas","shapeISO":"52423323B48021062516164","shapeGroup":"USA","shapeType":"ADM2","src_shape_id":"52423323B48021062516164","adm1ISO":"US-PR"}},
{"type":"Feature","geometry":{"type":"MultiPolygon","coordinates":[[[[-67.082001,18.254949],[-67.135818,18.245931],[-67.135632,18.251471],[-67.141498,18.269957],[-67.161223,18.273015],[-67.187872,18.266877],[-67.175428,18.248011],[-67.172999,18.230669],[-67.158,18.216722],[-67.152664,18.203496],[-67.155184,18.195004],[-67.1807,18.168184],[-67.162199,18.152487],[-67.159732,18.15323],[-67.098381,18.158553],[-67.086358,18.149832],[-67.082143,18.168076],[-67.05146,18.174056],[-67.03452,18.185522],[-67.017387,18.189902],[-67.019835,18.195474],[-67.032964,18.218089],[-67.050353,18.227481],[-67.056217,18.245441],[-67.082001,18.254949]]],[[[-67.49353,18.388787],[-67.491154,18.376382],[-67.475704,18.370743],[-67.466197,18.379766],[-67.473328,18.392171],[-67.482835,18.396681],[-67.49353,18.388787]]],[[[-67.934478,18.111309],[-67.940798,18.079719],[-67.92784,18.068575],[-67.918777,18.063119],[-67.90443,18.059133],[-67.89592,18.052345],[-67.871461,18.057803],[-67.865597,18.065443],[-67.853097,18.078198],[-67.845292,18.081941],[-67.843614,18.085102],[-67.843201,18.094861],[-67.848244,18.108323],[-67.861547,18.122147],[-67.869803,18.118854],[-67.876429,18.11416],[-67.887098,18.112577],[-67.910879,18.119671],[-67.932184,18.113224],[-67.934478,18.111309]]]]},"properties":{"shapeName":"Mayagüez","shapeISO":"52423323B13977400518801","shapeGroup":"USA","shapeType":"ADM2","src_shape_id":"52423323B13977400518801","adm1ISO":"US-PR"}},
{"type":"Feature","geometry":{"type":"Polygon","coordinates":[[[-66.242733,18.180251],[-66.248291,18.165618],[-66.277715,18.174197],[-66.314846,18.152091],[-66.320911,18.126008],[-66.310765,18.118171],[-66.272939,18.086589],[-66.259947,18.082615],[-66.257525,18.075887],[-66.242236,18.077151],[-66.240051,18.093189],[-66.224488,18.095342],[-66.226826,18.116644],[-66.216897,18.143223],[-66.223714,18.16572],[-66.242733,18.180251]]]},"properties":{"shapeName":"Aibonito","shapeISO":"52423323B30468560709175","shapeGroup":"USA","shapeType":"ADM2","src_shape_id":"52423323B30468560709175","adm1ISO":"US-PR"}},
{"type":"Feature","geometry":{"type":"Polygon","coordinates":[[[-67.159732,18.15323],[-67.162199,18.152487],[-67.1807,18.168184],[-67.176553,18.151049],[-67.182181,18.10851],[-67.18392,18.103686],[-67.195289,18.096152],[-67.199313,18.091138],[-67.198211,18.076831],[-67.196693,18.066494],[-67.209886,18.035442],[-67.193268,18.031853],[-67.17376,18.024551],[-67.172137,18.021425],[-67.172396,18.014909],[-67.174298,18.011152],[-67.177892,18.008885],[-67.207693,17.998022],[-67.211972,17.992996],[-67.21527,17.983467],[-67.214329,17.962439],[-67.2121,17.95603],[-67.21152,17.952627],[-67.203713,17.94552],[-67.194784,17.932829],[-67.183456,17.931138],[-67.182487,17.937757],[-67.187473,17.946255],[-67.188716,17.950992],[-67.183507,17.962709],[-67.178565,17.964795],[-67.16703,17.963076],[-67.133732,17.951922],[-67.12825,17.948156],[-67.109984,17.945809],[-67.102277,17.97496],[-67.110133,18.015871],[-67.115851,18.033369],[-67.109043,18.056088],[-67.099119,18.067361],[-67.105565,18.073864],[-67.100491,18.106398],[-67.126156,18.115146],[-67.133753,18.13187],[-67.159732,18.15323]]]},"properties":{"shapeName":"Cabo Rojo","shapeISO":"52423323B53542655119676","shapeGroup":"USA","shapeType":"ADM2","src_shape_id":"52423323B53542655119676","adm1ISO":"US-PR"}},
{"type":"Feature","geometry":{"type":"Polygon","coordinates":[[[-66.331242,18.015894],[-66.356777,18.036945],[-66.372224,18.032617],[-66.426987,18.04263],[-66.421052,18.019312],[-66.450366,17.983228],[-66.445479,17.979382],[-66.412129,17.957289],[-66.398943,17.950928],[-66.391225,17.945822],[-66.385057,17.939007],[-66.371589,17.951472],[-66.368775,17.95772],[-66.365096,17.964835],[-66.362509,17.968234],[-66.33815,17.976494],[-66.342605,17.993564],[-66.331242,18.015894]]]},"properties":{"shapeName":"Santa Isabel","shapeISO":"52423323B69111161141403","shapeGroup":"USA","shapeType":"ADM2","src_shape_id":"52423323B69111161141403","adm1ISO":"US-PR"}},
{"type":"Feature","geometry":{"type":"Polygon","coordinates":[[[-66.069977,17.96636],[-66.068676,17.966338],[-66.058215,17.959241],[-66.049031,17.954564],[-66.046583,17.954856],[-66.023998,17.975899],[-66.019537,17.978357],[-66.046925,18.0091],[-66.043681,18.029448],[-66.057261,18.040437],[-66.082261,18.032961],[-66.095207,18.022189],[-66.071608,17.993735],[-66.069977,17.96636]]]},"properties":{"shapeName":"Arroyo","shapeISO":"52423323B97779835384319","shapeGroup":"USA","shapeType":"ADM2","src_shape_id":"52423323B97779835384319","adm1ISO":"US-PR"}},
{"type":"Feature","geometry":{"type":"Polygon","coordinates":[[[-65.988521,18.058944],[-65.989118,18.056921],[-65.985185,18.050465],[-65.985576,18.045213],[-65.979949,18.0389],[-65.981898,18.034843],[-65.952846,18.023114],[-65.943121,17.99253],[-65.913843,17.980514],[-65.905317,17.983977],[-65.8961,17.990263],[-65.884935,17.988524],[-65.87512,18.002829],[-65.870333,18.0066],[-65.850911,18.011957],[-65.86469,18.02574],[-65.879253,18.020515],[-65.907391,18.035901],[-65.933872,18.036823],[-65.977788,18.061096],[-65.988521,18.058944]]]},"properties":{"shapeName":"Maunabo","shapeISO":"52423323B46245109709528","shapeGroup":"USA","shapeType":"ADM2","src_shape_id":"52423323B46245109709528","adm1ISO":"US-PR"}},
{"type":"Feature","geometry":{"type":"MultiPolygon","coordinates":[[[[-65.594156,18.392702],[-65.595237,18.382787],[-65.58587,18.375949],[-65.577043,18.350988],[-65.567676,18.342268],[-65.564267,18.348011],[-65.565947,18.358336],[-65.566902,18.380324],[-65.58623,18.393386],[-65.594156,18.392702]]],[[[-65.753589,18.296758],[-65.737737,18.273884],[-65.717508,18.267747],[-65.69989,18.273082],[-65.695011,18.285683],[-65.682172,18.275072],[-65.666128,18.288047],[-65.634365,18.283587],[-65.623276,18.288504],[-65.626397,18.331905],[-65.633289,18.347472],[-65.619266,18.367324],[-65.613744,18.38196],[-65.61784,18.387849],[-65.62402,18.387173],[-65.643747,18.379504],[-65.64971,18.374063],[-65.6539,18.366937],[-65.664854,18.363079],[-65.669155,18.363476],[-65.685918,18.329994],[-65.719461,18.306582],[-65.731853,18.288568],[-65.753589,18.296758]]]]},"properties":{"shapeName":"Fajardo","shapeISO":"52423323B64463590012985","shapeGroup":"USA","shapeType":"ADM2","src_shape_id":"52423323B64463590012985","adm1ISO":"US-PR"}},
{"type":"Feature","geometry":{"type":"Polygon","coordinates":[[[-66.377056,18.344249],[-66.373241,18.37194],[-66.364282,18.389819],[-66.362873,18.395424],[-66.358896,18.421035],[-66.347833,18.428863],[-66.349646,18.486338],[-66.377284,18.488047],[-66.394285,18.489751],[-66.410342,18.489889],[-66.420919,18.488642],[-66.438812,18.485716],[-66.439492,18.462248],[-66.439411,18.410369],[-66.448987,18.387217],[-66.443798,18.37103],[-66.421862,18.377811],[-66.400996,18.36371],[-66.395583,18.371888],[-66.385923,18.344737],[-66.377056,18.344249]]]},"properties":{"shapeName":"Vega Baja","shapeISO":"52423323B42777689659233","shapeGroup":"USA","shapeType":"ADM2","src_shape_id":"52423323B42777689659233","adm1ISO":"US-PR"}},
{"type":"Feature","geometry":{"type":"Polygon","coordinates":[[[-66.77007,18.325016],[-66.76794,18.427249],[-66.77014,18.433865],[-66.768127,18.477657],[-66.764892,18.4841],[-66.780309,18.491414],[-66.799318,18.492778],[-66.836633,18.487703],[-66.828972,18.472714],[-66.823641,18.412468],[-66.813972,18.390221],[-66.810673,18.38663],[-66.824221,18.343001],[-66.826126,18.323385],[-66.770361,18.320648],[-66.77007,18.325016]]]},"properties":{"shapeName":"Hatillo","shapeISO":"52423323B55997906288289","shapeGroup":"USA","shapeType":"ADM2","src_shape_id":"52423323B55997906288289","adm1ISO":"US-PR"}},
{"type":"Feature","geometry":{"type":"Polygon","coordinates":[[[-66.198929,18.466661],[-66.203396,18.466132],[-66.220146,18.466003],[-66.241795,18.468743],[-66.251545,18.472467],[-66.258013,18.476909],[-66.269797,18.480284],[-66.276597,18.478132],[-66.283673,18.472206],[-66.291223,18.47235],[-66.315029,18.474683],[-66.317419,18.451077],[-66.299924,18.423916],[-66.303661,18.38408],[-66.270786,18.383771],[-66.252552,18.39419],[-66.264313,18.426543],[-66.257939,18.455025],[-66.23053,18.454395],[-66.198929,18.466661]]]},"properties":{"shapeName":"Dorado","shapeISO":"52423323B28169903287246","shapeGroup":"USA","shapeType":"ADM2","src_shape_id":"52423323B28169903287246","adm1ISO":"US-PR"}},
{"type":"Feature","geometry":{"type":"Polygon","coordinates":[[[-66.051786,18.109881],[-66.053144,18.107296],[-66.068318,18.078726],[-66.089397,18.056259],[-66.082261,18.032961],[-66.057261,18.040437],[-66.043681,18.029448],[-66.046925,18.0091],[-66.019537,17.978357],[-66.017306,17.979586],[-66.007729,17.980544],[-65.995183,17.978992],[-65.985356,17.971857],[-65.984548,17.969414],[-65.976609,17.967672],[-65.924736,17.97609],[-65.913843,17.980514],[-65.943121,17.99253],[-65.952846,18.023114],[-65.981898,18.034843],[-65.979949,18.0389],[-65.985576,18.045213],[-65.985185,18.050465],[-65.989118,18.056921],[-65.988521,18.058944],[-66.010519,18.067701],[-66.010243,18.075568],[-66.013054,18.096505],[-66.051786,18.109881]]]},"properties":{"shapeName":"Patillas","shapeISO":"52423323B32786783590075","shapeGroup":"USA","shapeType":"ADM2","src_shape_id":"52423323B32786783590075","adm1ISO":"US-PR"}},
{"type":"Feature","geometry":{"type":"Polygon","coordinates":[[[-65.942427,18.293472],[-65.938984,18.308746],[-65.9566,18.318313],[-65.982046,18.358497],[-65.989641,18.365843],[-65.991496,18.377007],[-65.999554,18.380068],[-66.025094,18.379777],[-66.035347,18.369684],[-66.032503,18.355704],[-66.035531,18.344371],[-66.035497,18.319843],[-66.041533,18.312347],[-66.025612,18.309617],[-66.021745,18.305037],[-65.968147,18.310156],[-65.942427,18.293472]]]},"properties":{"shapeName":"Trujillo Alto","shapeISO":"52423323B26167875661566","shapeGroup":"USA","shapeType":"ADM2","src_shape_id":"52423323B26167875661566","adm1ISO":"US-PR"}},
{"type":"Feature","geometry":{"type":"Polygon","coordinates":[[[-66.543077,18.405425],[-66.543783,18.418151],[-66.521163,18.431161],[-66.537519,18.435926],[-66.527332,18.456013],[-66.533231,18.481743],[-66.534838,18.481256],[-66.558501,18.48999],[-66.563483,18.490515],[-66.562914,18.488453],[-66.565239,18.485526],[-66.584072,18.48429],[-66.586776,18.484951],[-66.580058,18.468106],[-66.587768,18.437602],[-66.58322,18.437784],[-66.588179,18.389411],[-66.564311,18.413312],[-66.543077,18.405425]]]},"properties":{"shapeName":"Barceloneta","shapeISO":"52423323B30821332153735","shapeGroup":"USA","shapeType":"ADM2","src_shape_id":"52423323B30821332153735","adm1ISO":"US-PR"}}
]}