{"type":"FeatureCollection","bbox":[-71.862773,41.146347,-71.120571,42.018807],"features":[
{"type":"Feature","id":"USA:ADM2:US-RI.washington","properties":{"shapeName":"Washington","shapeISO":"","shapeGroup":"USA","shapeType":"ADM2","adm1ISO":"US-RI","parentISO":"US-RI","parentID":"USA:ADM1:US-RI","src_shape_id":"52423323B82979522420472"},"geometry":{"type":"MultiPolygon","coordinates":[[[[-71.613134,41.160289],[-71.611707,41.153247],[-71.599994,41.14694],[-71.593701,41.146347],[-71.551954,41.151726],[-71.547052,41.153692],[-71.543873,41.161329],[-71.544447,41.16492],[-71.550227,41.166795],[-71.56097,41.176194],[-71.565753,41.184381],[-71.56412,41.19538],[-71.55746,41.20455],[-71.554068,41.212965],[-71.555007,41.21683],[-71.561094,41.224215],[-71.573786,41.228444],[-71.576662,41.224442],[-71.577302,41.214718],[-71.580229,41.204845],[-71.589551,41.196565],[-71.594995,41.1884],[-71.605566,41.182147],[-71.613134,41.160289]]],[[[-71.860514,41.320256],[-71.86211,41.31662],[-71.862773,41.309799],[-71.857433,41.306326],[-71.833756,41.315639],[-71.785958,41.325747],[-71.773703,41.327985],[-71.720741,41.331575],[-71.701632,41.336976],[-71.688071,41.342831],[-71.624506,41.360878],[-71.555382,41.373324],[-71.526725,41.376644],[-71.513402,41.37471],[-71.483296,41.37173],[-71.474919,41.386112],[-71.455372,41.40797],[-71.455846,41.432994],[-71.448949,41.438487],[-71.4412,41.44161],[-71.437671,41.44131],[-71.433613,41.445003],[-71.428653,41.454166],[-71.427936,41.459537],[-71.430927,41.465663],[-71.430745,41.470644],[-71.422992,41.47269],[-71.421158,41.469896],[-71.418405,41.47266],[-71.417622,41.477942],[-71.417958,41.482081],[-71.419972,41.484766],[-71.421426,41.498637],[-71.414938,41.516312],[-71.414826,41.523135],[-71.417399,41.534545],[-71.42165,41.537901],[-71.442568,41.565084],[-71.447713,41.580409],[-71.403771,41.58933],[-71.408637,41.653828],[-71.442509,41.645827],[-71.451367,41.629464],[-71.467845,41.634174],[-71.488032,41.615222],[-71.484428,41.6026],[-71.52243,41.602575],[-71.544808,41.602002],[-71.643984,41.600988],[-71.658758,41.598702],[-71.789359,41.596861],[-71.793569,41.505762],[-71.797684,41.416717],[-71.818391,41.419607],[-71.83965,41.412127],[-71.842564,41.409863],[-71.843473,41.405838],[-71.842132,41.395367],[-71.833444,41.384532],[-71.831614,41.370907],[-71.837739,41.363537],[-71.835952,41.353943],[-71.829596,41.344552],[-71.839014,41.33405],[-71.860514,41.320256]]]]}},
{"type":"Feature","id":"USA:ADM2:US-RI.kent","properties":{"shapeName":"Kent","shapeISO":"","shapeGroup":"USA","shapeType":"ADM2","adm1ISO":"US-RI","parentISO":"US-RI","parentID":"USA:ADM1:US-RI","src_shape_id":"52423323B26023060829136"},"geometry":{"type":"Polygon","coordinates":[[[-71.408637,41.653828],[-71.409303,41.662652],[-71.425453,41.670794],[-71.430039,41.66755],[-71.444469,41.664418],[-71.449319,41.68741],[-71.445924,41.691153],[-71.441897,41.690034],[-71.443083,41.688312],[-71.441337,41.686455],[-71.41807,41.684217],[-71.390552,41.684105],[-71.390776,41.680638],[-71.389881,41.671912],[-71.38205,41.667326],[-71.377911,41.666655],[-71.372989,41.672584],[-71.365718,41.694956],[-71.365718,41.711624],[-71.363938,41.717399],[-71.376535,41.721657],[-71.381051,41.727333],[-71.380575,41.745956],[-71.384583,41.757488],[-71.399578,41.76833],[-71.405204,41.767619],[-71.417587,41.762263],[-71.419079,41.761894],[-71.43407,41.760945],[-71.440663,41.757804],[-71.446539,41.748896],[-71.444117,41.740645],[-71.451279,41.739713],[-71.452851,41.734344],[-71.46025,41.732287],[-71.49785,41.731159],[-71.534287,41.73018],[-71.547354,41.731212],[-71.562939,41.729681],[-71.668435,41.727479],[-71.700585,41.726703],[-71.789693,41.725207],[-71.786995,41.656001],[-71.787637,41.639926],[-71.789359,41.596861],[-71.658758,41.598702],[-71.643984,41.600988],[-71.544808,41.602002],[-71.52243,41.602575],[-71.484428,41.6026],[-71.488032,41.615222],[-71.467845,41.634174],[-71.451367,41.629464],[-71.442509,41.645827],[-71.408637,41.653828]]]}},
{"type":"Feature","id":"USA:ADM2:US-RI.bristol","properties":{"shapeName":"Bristol","shapeISO":"","shapeGroup":"USA","shapeType":"ADM2","adm1ISO":"US-RI","parentISO":"US-RI","parentID":"USA:ADM1:US-RI","src_shape_id":"52423323B87258541323822"},"geometry":{"type":"Polygon","coordinates":[[[-71.362153,41.756318],[-71.360135,41.749503],[-71.352291,41.74507],[-71.344448,41.736202],[-71.336132,41.724968],[-71.314821,41.723817],[-71.30576,41.718671],[-71.291218,41.702675],[-71.29312,41.688356],[-71.298936,41.681533],[-71.302628,41.681756],[-71.306096,41.672584],[-71.303747,41.654797],[-71.301397,41.649987],[-71.29916,41.64954],[-71.285347,41.636862],[-71.272693,41.638544],[-71.267056,41.644954],[-71.254698,41.649068],[-71.253417,41.660602],[-71.241551,41.667214],[-71.235353,41.672143],[-71.237636,41.681644],[-71.245336,41.694864],[-71.240992,41.697753],[-71.227876,41.705507],[-71.224799,41.710507],[-71.261393,41.75231],[-71.317925,41.776166],[-71.322679,41.772601],[-71.342396,41.758974],[-71.347077,41.759401],[-71.362153,41.756318]]]}},
{"type":"Feature","id":"USA:ADM2:US-RI.providence","properties":{"shapeName":"Providence","shapeISO":"","shapeGroup":"USA","shapeType":"ADM2","adm1ISO":"US-RI","parentISO":"US-RI","parentID":"USA:ADM1:US-RI","src_shape_id":"52423323B73822827864171"},"geometry":{"type":"Polygon","coordinates":[[[-71.384583,41.757488],[-71.385567,41.760319],[-71.385496,41.768673],[-71.390832,41.778842],[-71.390558,41.783717],[-71.381288,41.785312],[-71.371543,41.783363],[-71.365126,41.777514],[-71.364651,41.764751],[-71.362153,41.756318],[-71.347077,41.759401],[-71.342396,41.758974],[-71.322679,41.772601],[-71.317925,41.776166],[-71.327897,41.78051],[-71.329397,41.782609],[-71.329297,41.786809],[-71.333897,41.794509],[-71.339298,41.796309],[-71.340798,41.800209],[-71.339298,41.804409],[-71.339198,41.809009],[-71.347198,41.823109],[-71.344898,41.828009],[-71.335198,41.835509],[-71.341798,41.843709],[-71.342199,41.844809],[-71.333998,41.862309],[-71.340799,41.881609],[-71.338699,41.898408],[-71.3527,41.896708],[-71.3738,41.894408],[-71.381701,41.893208],[-71.381402,41.964808],[-71.381466,41.985093],[-71.381402,42.018807],[-71.498259,42.017229],[-71.527607,42.015007],[-71.55944,42.014351],[-71.576909,42.014107],[-71.680877,42.011713],[-71.766011,42.009754],[-71.799243,42.008074],[-71.797923,41.935404],[-71.794693,41.854417],[-71.792768,41.80701],[-71.791063,41.770282],[-71.789693,41.725207],[-71.700585,41.726703],[-71.668435,41.727479],[-71.562939,41.729681],[-71.547354,41.731212],[-71.534287,41.73018],[-71.49785,41.731159],[-71.46025,41.732287],[-71.452851,41.734344],[-71.451279,41.739713],[-71.444117,41.740645],[-71.446539,41.748896],[-71.440663,41.757804],[-71.43407,41.760945],[-71.419079,41.761894],[-71.417587,41.762263],[-71.405204,41.767619],[-71.399578,41.76833],[-71.384583,41.757488]]]}},
{"type":"Feature","id":"USA:ADM2:US-RI.newport","properties":{"shapeName":"Newport","shapeISO":"","shapeGroup":"USA","shapeType":"ADM2","adm1ISO":"US-RI","parentISO":"US-RI","parentID":"USA:ADM1:US-RI","src_shape_id":"52423323B54307219453205"},"geometry":{"type":"MultiPolygon","coordinates":[[[[-71.195641,41.675099],[-71.204985,41.658528],[-71.219191,41.653676],[-71.233235,41.640239],[-71.251083,41.638789],[-71.271863,41.623995],[-71.275235,41.619453],[-71.272413,41.61505],[-71.273446,41.606999],[-71.285143,41.577136],[-71.288377,41.573283],[-71.294364,41.571425],[-71.303653,41.559934],[-71.310534,41.546929],[-71.31308,41.534681],[-71.330832,41.518373],[-71.330695,41.507708],[-71.341123,41.498606],[-71.343014,41.495623],[-71.327823,41.482993],[-71.32738,41.476394],[-71.335993,41.469655],[-71.347071,41.471238],[-71.361521,41.464839],[-71.362744,41.460387],[-71.351097,41.45081],[-71.337696,41.44891],[-71.321411,41.455608],[-71.312719,41.454605],[-71.312695,41.45141],[-71.311395,41.45081],[-71.304395,41.45451],[-71.295112,41.484358],[-71.28564,41.487813],[-71.264794,41.48891],[-71.252693,41.48591],[-71.245993,41.48131],[-71.246704,41.471968],[-71.240711,41.47488],[-71.236752,41.483377],[-71.237176,41.486555],[-71.238587,41.486854],[-71.240615,41.500566],[-71.229445,41.521553],[-71.22799,41.528306],[-71.234776,41.532547],[-71.236643,41.535861],[-71.236131,41.574776],[-71.243601,41.587517],[-71.24071,41.619234],[-71.216161,41.625499],[-71.212005,41.622999],[-71.212657,41.610081],[-71.207781,41.600669],[-71.208651,41.571037],[-71.213564,41.545827],[-71.200789,41.51438],[-71.206383,41.499224],[-71.199693,41.49552],[-71.199391,41.491778],[-71.190168,41.484294],[-71.190017,41.478284],[-71.196608,41.464764],[-71.196858,41.461124],[-71.193021,41.457939],[-71.170132,41.463982],[-71.167346,41.471413],[-71.140225,41.485864],[-71.141094,41.489946],[-71.136868,41.493951],[-71.120571,41.497457],[-71.122401,41.522165],[-71.131313,41.592317],[-71.131619,41.593927],[-71.137493,41.60257],[-71.140589,41.605111],[-71.14151,41.616085],[-71.140469,41.623902],[-71.135689,41.628411],[-71.132671,41.658753],[-71.132889,41.660111],[-71.145871,41.662804],[-71.15399,41.664111],[-71.176091,41.668111],[-71.175991,41.671411],[-71.195641,41.675099]]],[[[-71.366166,41.660989],[-71.36287,41.651466],[-71.351295,41.635794],[-71.346571,41.632238],[-71.333306,41.629545],[-71.325878,41.623997],[-71.32661,41.616123],[-71.32956,41.609106],[-71.333752,41.605868],[-71.337049,41.594697],[-71.33595,41.585907],[-71.331201,41.580327],[-71.326104,41.578592],[-71.317475,41.583196],[-71.307382,41.597993],[-71.303353,41.6066],[-71.305551,41.622532],[-71.31489,41.630407],[-71.326413,41.636053],[-71.332449,41.643798],[-71.336183,41.64797],[-71.338697,41.658791],[-71.344822,41.667014],[-71.366166,41.660989]]],[[[-71.400561,41.460948],[-71.399569,41.448604],[-71.390276,41.455051],[-71.389285,41.460613],[-71.383587,41.46479],[-71.380948,41.474569],[-71.360404,41.483129],[-71.363293,41.50196],[-71.359869,41.556317],[-71.363561,41.570869],[-71.370195,41.573972],[-71.373619,41.573223],[-71.379022,41.567781],[-71.384479,41.556745],[-71.392138,41.524477],[-71.391006,41.514587],[-71.378915,41.504956],[-71.386512,41.493079],[-71.395928,41.492223],[-71.400561,41.460948]]]]}}
]}