{"type":"FeatureCollection","bbox":[-83.353242,32.034606,-78.541089,35.215409], "features": [
{"type":"Feature","geometry":{"type":"Polygon","coordinates":[[[-82.574234,35.143649],[-82.580691,35.141749],[-82.586039,35.143149],[-82.588162,35.142935],[-82.592434,35.139009],[-82.598144,35.137736],[-82.602362,35.139043],[-82.60971,35.139046],[-82.614406,35.136708],[-82.621189,35.134642],[-82.62644,35.12791],[-82.629035,35.126162],[-82.632578,35.12584],[-82.642241,35.129222],[-82.6453,35.128417],[-82.65142,35.124874],[-82.653514,35.121975],[-82.657862,35.119399],[-82.662385,35.11813],[-82.669618,35.11811],[-82.672517,35.119399],[-82.676865,35.125357],[-82.680891,35.126162],[-82.686044,35.124552],[-82.686742,35.119797],[-82.690553,35.116178],[-82.691359,35.113279],[-82.688782,35.108609],[-82.68846,35.106354],[-82.689638,35.104124],[-82.694902,35.098463],[-82.698606,35.097175],[-82.70392,35.097658],[-82.715301,35.09295],[-82.720446,35.093272],[-82.723466,35.094348],[-82.727014,35.094149],[-82.728965,35.091985],[-82.729687,35.087834],[-82.735908,35.082708],[-82.738383,35.07946],[-82.741765,35.078333],[-82.746435,35.079138],[-82.749495,35.078494],[-82.751106,35.075756],[-82.751269,35.07347],[-82.754166,35.069636],[-82.757708,35.068026],[-82.764468,35.068184],[-82.749355,35.047836],[-82.713855,35.059769],[-82.676666,35.064752],[-82.641157,35.060298],[-82.588602,35.07398],[-82.571382,35.074566],[-82.57489,35.064135],[-82.59232,35.060136],[-82.598822,35.041289],[-82.585756,35.032346],[-82.594145,35.008212],[-82.53787,35.015703],[-82.543136,35.004398],[-82.533631,34.98609],[-82.547822,34.97835],[-82.527415,34.965916],[-82.525788,34.952591],[-82.520759,34.926961],[-82.515963,34.925922],[-82.493788,34.895224],[-82.496255,34.88903],[-82.490182,34.885118],[-82.492538,34.879007],[-82.487515,34.874908],[-82.48894,34.867672],[-82.487147,34.865147],[-82.489116,34.860876],[-82.483563,34.8587],[-82.484349,34.856201],[-82.484618,34.851682],[-82.48914,34.841152],[-82.480337,34.840551],[-82.487192,34.832129],[-82.480534,34.824021],[-82.487207,34.818818],[-82.460943,34.796671],[-82.458374,34.779207],[-82.452019,34.776435],[-82.454636,34.764683],[-82.455148,34.75069],[-82.463196,34.745102],[-82.463176,34.685156],[-82.456705,34.680266],[-82.467713,34.667057],[-82.461881,34.65547],[-82.456293,34.657504],[-82.452939,34.623777],[-82.42839,34.597199],[-82.417297,34.553457],[-82.392295,34.543742],[-82.365351,34.519881],[-82.314,34.484009],[-82.236004,34.535969],[-82.238058,34.586963],[-82.211369,34.646749],[-82.197295,34.676925],[-82.177958,34.718794],[-82.163791,34.748331],[-82.146796,34.785561],[-82.151573,34.781902],[-82.165097,34.796594],[-82.162549,34.802804],[-82.16609,34.806937],[-82.171378,34.80543],[-82.173145,34.805558],[-82.173163,34.809249],[-82.174693,34.812081],[-82.18083,34.819265],[-82.183424,34.821047],[-82.19372,34.832145],[-82.195984,34.835274],[-82.199886,34.837815],[-82.202814,34.837872],[-82.210819,34.843777],[-82.221889,34.853886],[-82.226542,34.850538],[-82.223429,34.913079],[-82.221978,34.948004],[-82.21969,35.037727],[-82.215944,35.196036],[-82.230919,35.196791],[-82.257519,35.198643],[-82.274924,35.200078],[-82.28252,35.199865],[-82.288457,35.198612],[-82.295358,35.194972],[-82.30717,35.193019],[-82.315875,35.190685],[-82.317875,35.187865],[-82.323354,35.184796],[-82.326921,35.185063],[-82.330553,35.186774],[-82.330783,35.189039],[-82.333938,35.190668],[-82.338017,35.189017],[-82.340137,35.189195],[-82.341198,35.191517],[-82.344558,35.193122],[-82.353658,35.192229],[-82.361473,35.190838],[-82.36326,35.189646],[-82.364303,35.184732],[-82.368994,35.181754],[-82.371302,35.181456],[-82.376812,35.184434],[-82.379716,35.186891],[-82.381205,35.19121],[-82.378748,35.19806],[-82.380528,35.202283],[-82.38378,35.207653],[-82.384033,35.210549],[-82.390443,35.215402],[-82.392934,35.215409],[-82.395701,35.213221],[-82.403352,35.20448],[-82.411305,35.20249],[-82.417601,35.200138],[-82.419748,35.19862],[-82.424465,35.193099],[-82.428004,35.183231],[-82.435693,35.167722],[-82.439599,35.16587],[-82.448973,35.165044],[-82.451205,35.165267],[-82.452935,35.169006],[-82.452991,35.174697],[-82.455613,35.177432],[-82.460096,35.17815],[-82.467995,35.17464],[-82.472317,35.174626],[-82.47614,35.175493],[-82.483941,35.173805],[-82.487361,35.172501],[-82.49077,35.169722],[-82.49551,35.164319],[-82.499847,35.163682],[-82.506141,35.163901],[-82.516048,35.163449],[-82.521407,35.158858],[-82.525934,35.156756],[-82.529977,35.155624],[-82.532564,35.155624],[-82.534666,35.156918],[-82.536222,35.159266],[-82.540487,35.160313],[-82.54744,35.160313],[-82.550512,35.159505],[-82.554231,35.156918],[-82.554878,35.152875],[-82.558597,35.150935],[-82.563771,35.151582],[-82.566197,35.150126],[-82.569916,35.145275],[-82.574234,35.143649]]]},"properties":{"shapeName":"Greenville","shapeISO":"52423323B27353440150163","shapeGroup":"USA","shapeType":"ADM2","src_shape_id":"52423323B27353440150163","adm1ISO":"US-SC"}},
{"type":"Feature","geometry":{"type":"Polygon","coordinates":[[[-81.222676,33.440006],[-81.213185,33.397872],[-81.21517,33.366261],[-81.220827,33.259155],[-81.220606,33.206024],[-81.227399,33.160772],[-81.215927,33.150121],[-81.206445,33.129641],[-81.193102,33.118674],[-81.148712,33.080911],[-81.124829,33.053454],[-81.101177,33.04911],[-81.086565,33.035207],[-81.082294,33.026636],[-80.93716,33.10259],[-80.906028,33.060234],[-80.896077,33.061416],[-80.884178,33.086484],[-80.895429,33.125354],[-80.797915,33.17695],[-80.837503,33.203718],[-80.846154,33.238334],[-80.887112,33.264189],[-80.890199,33.261398],[-80.89226,33.268397],[-80.918428,33.283378],[-80.940106,33.303566],[-80.959317,33.309993],[-80.985341,33.327024],[-81.031359,33.34883],[-81.055353,33.353918],[-81.082413,33.37547],[-81.117719,33.383461],[-81.157007,33.406183],[-81.189534,33.411689],[-81.206609,33.437818],[-81.222676,33.440006]]]},"properties":{"shapeName":"Bamberg","shapeISO":"52423323B84288855823535","shapeGroup":"USA","shapeType":"ADM2","src_shape_id":"52423323B84288855823535","adm1ISO":"US-SC"}},
{"type":"Feature","geometry":{"type":"Polygon","coordinates":[[[-81.870087,34.135364],[-81.927448,34.077677],[-81.946122,34.038949],[-81.989146,33.998273],[-82.009821,33.96463],[-82.008302,33.961653],[-81.932047,33.976921],[-81.894598,33.975422],[-81.870363,33.891992],[-81.857907,33.880669],[-81.835189,33.865554],[-81.824627,33.867211],[-81.776409,33.845905],[-81.721149,33.832035],[-81.651762,33.814517],[-81.584252,33.86735],[-81.571488,33.877237],[-81.570305,33.884989],[-81.534866,33.953383],[-81.4924,34.034264],[-81.471975,34.076559],[-81.501677,34.074014],[-81.513853,34.08226],[-81.538902,34.081751],[-81.544358,34.087499],[-81.548542,34.093912],[-81.568514,34.099694],[-81.595289,34.118466],[-81.619949,34.124731],[-81.636966,34.146188],[-81.672674,34.156016],[-81.691506,34.17295],[-81.709039,34.173186],[-81.731617,34.18762],[-81.74395,34.179165],[-81.771028,34.173861],[-81.78586,34.166208],[-81.810819,34.175388],[-81.838792,34.172211],[-81.860574,34.17938],[-81.876359,34.167841],[-81.878851,34.156711],[-81.870087,34.135364]]]},"properties":{"shapeName":"Saluda","shapeISO":"52423323B78035589313404","shapeGroup":"USA","shapeType":"ADM2","src_shape_id":"52423323B78035589313404","adm1ISO":"US-SC"}},
{"type":"Feature","geometry":{"type":"Polygon","coordinates":[[[-83.108617,35.000666],[-83.105535,34.996351],[-83.104604,34.99279],[-83.104494,34.989339],[-83.106995,34.982727],[-83.110029,34.980642],[-83.112025,34.975903],[-83.120391,34.968413],[-83.121807,34.963627],[-83.121144,34.958973],[-83.124382,34.955247],[-83.127039,34.953785],[-83.126765,34.948749],[-83.121218,34.942691],[-83.121116,34.939136],[-83.125179,34.937054],[-83.128074,34.93812],[-83.13036,34.935174],[-83.130558,34.930939],[-83.140625,34.924922],[-83.143265,34.924763],[-83.14995,34.927225],[-83.153257,34.926349],[-83.155883,34.924307],[-83.158023,34.920124],[-83.160941,34.918276],[-83.165026,34.91886],[-83.168528,34.917887],[-83.170758,34.914238],[-83.174038,34.910918],[-83.178936,34.908257],[-83.180875,34.904715],[-83.186545,34.899541],[-83.190413,34.897947],[-83.19479,34.89785],[-83.197631,34.895053],[-83.203355,34.893724],[-83.204576,34.890291],[-83.201187,34.88466],[-83.205631,34.880149],[-83.209687,34.880286],[-83.213327,34.882803],[-83.220103,34.878131],[-83.229244,34.879914],[-83.232383,34.878058],[-83.237514,34.877064],[-83.239085,34.875668],[-83.238423,34.869778],[-83.240851,34.866743],[-83.245606,34.865529],[-83.247022,34.863101],[-83.247224,34.858447],[-83.252586,34.85349],[-83.253766,34.848064],[-83.255722,34.845599],[-83.25815,34.844992],[-83.262197,34.846409],[-83.26766,34.845296],[-83.269986,34.837203],[-83.267297,34.832755],[-83.268163,34.8214],[-83.271218,34.818447],[-83.27566,34.816869],[-83.283155,34.821335],[-83.284816,34.82305],[-83.289918,34.824484],[-83.291124,34.822515],[-83.291329,34.81884],[-83.294296,34.814732],[-83.301372,34.814161],[-83.302969,34.812221],[-83.301486,34.808684],[-83.301186,34.804015],[-83.303647,34.80241],[-83.313786,34.799918],[-83.32387,34.789719],[-83.319949,34.773732],[-83.321012,34.765378],[-83.320066,34.759623],[-83.33867,34.742302],[-83.348833,34.737201],[-83.353242,34.728655],[-83.352497,34.716128],[-83.351396,34.714463],[-83.349792,34.708281],[-83.347722,34.705481],[-83.347835,34.703676],[-83.34964,34.700967],[-83.349415,34.697582],[-83.344675,34.693519],[-83.340387,34.689005],[-83.339339,34.686673],[-83.338694,34.682009],[-83.336211,34.680541],[-83.330288,34.681349],[-83.321467,34.67755],[-83.318528,34.67478],[-83.316405,34.669323],[-83.314398,34.668951],[-83.308921,34.67028],[-83.304645,34.669568],[-83.301481,34.666589],[-83.300852,34.662477],[-83.292887,34.654203],[-83.286587,34.650903],[-83.277964,34.64486],[-83.271986,34.641903],[-83.262286,34.640303],[-83.255285,34.637703],[-83.248285,34.631703],[-83.244585,34.626304],[-83.240673,34.624514],[-83.243385,34.618004],[-83.231784,34.611304],[-83.221406,34.609954],[-83.211602,34.610912],[-83.199783,34.608405],[-83.196983,34.606005],[-83.179443,34.608027],[-83.173432,34.607169],[-83.169998,34.605451],[-83.169576,34.603873],[-83.170982,34.598805],[-83.170282,34.592405],[-83.168282,34.591005],[-83.154581,34.588205],[-83.152581,34.578306],[-83.13988,34.568006],[-83.12968,34.561706],[-83.12718,34.562006],[-83.122905,34.560136],[-83.103991,34.540173],[-83.103567,34.536637],[-83.102183,34.532186],[-83.096862,34.531531],[-83.092568,34.532951],[-83.087793,34.532085],[-83.084859,34.530974],[-83.078117,34.524844],[-83.077999,34.523753],[-83.086865,34.517805],[-83.087193,34.515946],[-83.069455,34.502138],[-83.065519,34.501133],[-83.057847,34.503718],[-83.054467,34.502897],[-83.049471,34.4951],[-83.048293,34.493261],[-83.043775,34.488823],[-83.034716,34.483502],[-83.032517,34.483039],[-83.029319,34.484154],[-83.002928,34.472139],[-82.995094,34.47249],[-82.995283,34.475655],[-82.992219,34.479205],[-82.855107,34.609014],[-82.86481,34.613533],[-82.866874,34.617432],[-82.85868,34.621671],[-82.852488,34.614949],[-82.852917,34.618648],[-82.844821,34.618726],[-82.840159,34.623127],[-82.854896,34.62511],[-82.839311,34.645005],[-82.822818,34.654411],[-82.839871,34.65262],[-82.852506,34.669504],[-82.850152,34.696498],[-82.865591,34.702396],[-82.855429,34.724813],[-82.873319,34.736811],[-82.900148,34.742447],[-82.888984,34.760827],[-82.883524,34.791795],[-82.896729,34.802903],[-82.89631,34.8374],[-82.904855,34.871334],[-82.909292,34.894134],[-82.900256,34.902407],[-82.908477,34.919079],[-82.903183,34.935236],[-82.919193,34.960058],[-82.915789,34.971843],[-82.938643,34.980919],[-82.943608,34.988161],[-82.920593,35.01568],[-82.918179,35.036221],[-82.897503,35.056028],[-82.999871,35.029957],[-83.00867,35.027587],[-83.108617,35.000666]]]},"properties":{"shapeName":"Oconee","shapeISO":"52423323B77121612808563","shapeGroup":"USA","shapeType":"ADM2","src_shape_id":"52423323B77121612808563","adm1ISO":"US-SC"}},
{"type":"Feature","geometry":{"type":"Polygon","coordinates":[[[-79.633416,34.298001],[-79.617612,34.297178],[-79.601006,34.290539],[-79.56157,34.257951],[-79.547933,34.23092],[-79.554714,34.247023],[-79.524427,34.251592],[-79.480715,34.288088],[-79.440153,34.292838],[-79.432798,34.293896],[-79.411043,34.300179],[-79.374532,34.298862],[-79.305387,34.269314],[-79.2944,34.277001],[-79.27186,34.269761],[-79.259539,34.259038],[-79.239805,34.254346],[-79.214323,34.255546],[-79.173478,34.287541],[-79.128168,34.253659],[-79.093734,34.277969],[-79.08607,34.294963],[-79.071258,34.299319],[-79.143245,34.359824],[-79.198985,34.406706],[-79.249766,34.449781],[-79.306656,34.500433],[-79.323252,34.514641],[-79.324857,34.516289],[-79.35832,34.545365],[-79.450037,34.621043],[-79.528836,34.482751],[-79.633416,34.298001]]]},"properties":{"shapeName":"Dillon","shapeISO":"52423323B8509439867450","shapeGroup":"USA","shapeType":"ADM2","src_shape_id":"52423323B8509439867450","adm1ISO":"US-SC"}},
{"type":"Feature","geometry":{"type":"Polygon","coordinates":[[[-80.288599,34.366214],[-80.288695,34.364146],[-80.279238,34.35175],[-80.252872,34.340721],[-80.244087,34.323708],[-80.206305,34.339062],[-80.191303,34.366698],[-80.177228,34.36621],[-80.175039,34.326278],[-80.164744,34.306284],[-80.135416,34.284559],[-80.135806,34.272444],[-80.134544,34.270314],[-80.123162,34.253467],[-80.117724,34.238326],[-80.111736,34.22862],[-80.11273,34.197025],[-80.15842,34.16124],[-80.133532,34.128384],[-80.097678,34.10748],[-80.076748,34.086112],[-80.069881,34.086198],[-79.974128,34.147034],[-79.913983,34.185223],[-79.837481,34.23366],[-79.819061,34.245354],[-79.801086,34.254959],[-79.785328,34.249394],[-79.771286,34.24896],[-79.749386,34.24506],[-79.752486,34.24726],[-79.729569,34.295197],[-79.684553,34.284598],[-79.657767,34.305197],[-79.660367,34.322287],[-79.692876,34.356848],[-79.673703,34.374401],[-79.689445,34.381772],[-79.683404,34.399155],[-79.701496,34.40535],[-79.715282,34.394381],[-79.725015,34.41725],[-79.750569,34.436804],[-79.749787,34.450602],[-79.749277,34.46797],[-79.734315,34.465999],[-79.721904,34.488027],[-79.72783,34.496831],[-79.754581,34.505576],[-79.764007,34.518321],[-79.770105,34.496273],[-79.78293,34.497776],[-79.790506,34.485303],[-79.809475,34.486086],[-79.814888,34.497199],[-79.833492,34.513441],[-79.829984,34.531932],[-79.843679,34.533092],[-79.862031,34.521048],[-79.863644,34.50874],[-79.88497,34.49112],[-79.902079,34.489241],[-79.919849,34.495771],[-79.940643,34.488049],[-79.965325,34.487617],[-79.981041,34.501518],[-80.027832,34.486329],[-80.046083,34.492274],[-80.076514,34.476346],[-80.154247,34.436058],[-80.288599,34.366214]]]},"properties":{"shapeName":"Darlington","shapeISO":"52423323B78464360666079","shapeGroup":"USA","shapeType":"ADM2","src_shape_id":"52423323B78464360666079","adm1ISO":"US-SC"}},
{"type":"Feature","geometry":{"type":"Polygon","coordinates":[[[-81.854006,34.594556],[-81.849341,34.594646],[-81.84285,34.600642],[-81.800265,34.574818],[-81.749609,34.568351],[-81.714361,34.554052],[-81.677324,34.557979],[-81.643555,34.533659],[-81.627193,34.521692],[-81.617794,34.525256],[-81.588786,34.497019],[-81.552947,34.476881],[-81.557024,34.463928],[-81.541458,34.445173],[-81.48465,34.49001],[-81.468979,34.494059],[-81.458726,34.48698],[-81.443278,34.495606],[-81.423244,34.494386],[-81.427548,34.529489],[-81.419832,34.566595],[-81.422709,34.572036],[-81.415897,34.633596],[-81.44192,34.653734],[-81.454199,34.675194],[-81.454132,34.693688],[-81.456422,34.723824],[-81.478367,34.723695],[-81.482354,34.744405],[-81.4531,34.76091],[-81.453466,34.781789],[-81.478457,34.821516],[-81.461758,34.831025],[-81.45726,34.839287],[-81.481948,34.866502],[-81.514875,34.877137],[-81.543536,34.869893],[-81.586736,34.88732],[-81.611605,34.876153],[-81.640695,34.881351],[-81.646723,34.900158],[-81.663634,34.898686],[-81.684601,34.913034],[-81.711697,34.912584],[-81.742703,34.882158],[-81.783393,34.837132],[-81.82436,34.679924],[-81.839465,34.646633],[-81.854006,34.594556]]]},"properties":{"shapeName":"Union","shapeISO":"52423323B84836072976250","shapeGroup":"USA","shapeType":"ADM2","src_shape_id":"52423323B84836072976250","adm1ISO":"US-SC"}},
{"type":"Feature","geometry":{"type":"Polygon","coordinates":[[[-80.288599,34.366214],[-80.285541,34.393685],[-80.291407,34.392739],[-80.302218,34.399828],[-80.311444,34.424297],[-80.321218,34.426329],[-80.327408,34.473174],[-80.327593,34.497767],[-80.334735,34.510035],[-80.353637,34.520908],[-80.354775,34.531132],[-80.372339,34.546776],[-80.381386,34.573766],[-80.379385,34.584369],[-80.389891,34.599455],[-80.408376,34.614772],[-80.550555,34.560123],[-80.527437,34.503942],[-80.544053,34.507498],[-80.548909,34.493271],[-80.599088,34.495194],[-80.614281,34.488815],[-80.613633,34.499946],[-80.632108,34.480616],[-80.632216,34.49144],[-80.65842,34.478619],[-80.676065,34.493123],[-80.689082,34.515331],[-80.698165,34.515974],[-80.709188,34.505122],[-80.713332,34.487341],[-80.739932,34.480017],[-80.74562,34.512598],[-80.737677,34.539504],[-80.743348,34.539923],[-80.87923,34.457783],[-80.838579,34.418994],[-80.825654,34.411872],[-80.793481,34.413305],[-80.78321,34.406492],[-80.781447,34.385862],[-80.769929,34.377118],[-80.825924,34.268767],[-80.840954,34.238928],[-80.867057,34.186676],[-80.868512,34.181712],[-80.851382,34.174078],[-80.775519,34.113697],[-80.719321,34.068979],[-80.692968,34.081287],[-80.658848,34.085879],[-80.616189,34.099612],[-80.618536,34.109177],[-80.580113,34.099956],[-80.47986,34.168703],[-80.46467,34.178556],[-80.454548,34.20797],[-80.443243,34.208733],[-80.430803,34.227004],[-80.431039,34.276639],[-80.437362,34.284509],[-80.421657,34.294308],[-80.400925,34.295203],[-80.382007,34.305195],[-80.353034,34.303337],[-80.365775,34.32816],[-80.363762,34.339554],[-80.32511,34.339298],[-80.301662,34.357343],[-80.288695,34.364146],[-80.288599,34.366214]]]},"properties":{"shapeName":"Kershaw","shapeISO":"52423323B16296289860077","shapeGroup":"USA","shapeType":"ADM2","src_shape_id":"52423323B16296289860077","adm1ISO":"US-SC"}},
{"type":"Feature","geometry":{"type":"Polygon","coordinates":[[[-82.487207,34.818818],[-82.528389,34.798872],[-82.635427,34.746836],[-82.675613,34.7273],[-82.787572,34.672741],[-82.840159,34.623127],[-82.844821,34.618726],[-82.855107,34.609014],[-82.992219,34.479205],[-82.979572,34.482709],[-82.960672,34.482009],[-82.954671,34.477309],[-82.947371,34.479609],[-82.940871,34.486109],[-82.92847,34.484209],[-82.92577,34.481809],[-82.92287,34.481409],[-82.908369,34.485409],[-82.902669,34.485909],[-82.882868,34.47901],[-82.876868,34.47531],[-82.873835,34.471515],[-82.876468,34.46581],[-82.875467,34.46351],[-82.865349,34.460326],[-82.860711,34.457435],[-82.860878,34.451476],[-82.860131,34.449714],[-82.855766,34.443984],[-82.854438,34.432282],[-82.851371,34.426819],[-82.848655,34.423851],[-82.847785,34.420578],[-82.84745,34.412056],[-82.842001,34.399773],[-82.84133,34.397339],[-82.842001,34.39251],[-82.841528,34.390137],[-82.836615,34.382683],[-82.835207,34.373906],[-82.835008,34.366076],[-82.833706,34.364249],[-82.823424,34.358879],[-82.809953,34.350005],[-82.798202,34.341324],[-82.795227,34.340967],[-82.794058,34.339779],[-82.791239,34.331055],[-82.791612,34.327435],[-82.79097,34.323557],[-82.786844,34.310388],[-82.781756,34.302908],[-82.780312,34.296708],[-82.773706,34.288751],[-82.770932,34.285409],[-82.76527,34.281546],[-82.761999,34.281499],[-82.755032,34.276074],[-82.74986,34.270877],[-82.74666,34.266414],[-82.74876,34.263414],[-82.74406,34.252414],[-82.744986,34.244868],[-82.744838,34.242964],[-82.741984,34.230203],[-82.744419,34.22492],[-82.740451,34.219686],[-82.742384,34.213773],[-82.742152,34.211904],[-82.683786,34.248013],[-82.391865,34.433674],[-82.314,34.484009],[-82.365351,34.519881],[-82.392295,34.543742],[-82.417297,34.553457],[-82.42839,34.597199],[-82.452939,34.623777],[-82.456293,34.657504],[-82.461881,34.65547],[-82.467713,34.667057],[-82.456705,34.680266],[-82.463176,34.685156],[-82.463196,34.745102],[-82.455148,34.75069],[-82.454636,34.764683],[-82.452019,34.776435],[-82.458374,34.779207],[-82.460943,34.796671],[-82.487207,34.818818]]]},"properties":{"shapeName":"Anderson","shapeISO":"52423323B54252786462612","shapeGroup":"USA","shapeType":"ADM2","src_shape_id":"52423323B54252786462612","adm1ISO":"US-SC"}},
{"type":"Feature","geometry":{"type":"Polygon","coordinates":[[[-82.742152,34.211904],[-82.741924,34.21007],[-82.732765,34.195345],[-82.731979,34.193161],[-82.732363,34.180571],[-82.730828,34.175913],[-82.725413,34.169781],[-82.723316,34.165902],[-82.717511,34.150511],[-82.715377,34.148172],[-82.704144,34.141014],[-82.699762,34.139325],[-82.692156,34.138993],[-82.69039,34.1383],[-82.686294,34.134461],[-82.677324,34.131664],[-82.675224,34.129786],[-82.668117,34.120167],[-82.666883,34.113598],[-82.661855,34.107761],[-82.660326,34.106904],[-82.659081,34.103551],[-82.654023,34.100353],[-82.648188,34.098656],[-82.641557,34.092219],[-82.640349,34.086311],[-82.642801,34.081319],[-82.645224,34.079053],[-82.645665,34.076053],[-82.643984,34.072244],[-82.640547,34.067602],[-82.635995,34.064948],[-82.630976,34.065535],[-82.626967,34.063464],[-82.622159,34.058523],[-82.620959,34.054423],[-82.619159,34.051323],[-82.613359,34.046823],[-82.609659,34.039924],[-82.603059,34.034824],[-82.596159,34.030524],[-82.594559,34.028724],[-82.594059,34.025924],[-82.595859,34.018525],[-82.594492,34.013944],[-82.558863,34.046465],[-82.530571,34.071932],[-82.499564,34.072105],[-82.483555,34.081222],[-82.452711,34.060351],[-82.376593,34.057381],[-82.326951,34.064127],[-82.267188,34.108367],[-82.246671,34.14406],[-82.24045,34.163027],[-82.240166,34.179154],[-82.247751,34.219626],[-82.26465,34.245125],[-82.307626,34.277544],[-82.311085,34.320448],[-82.334238,34.342637],[-82.288681,34.377369],[-82.246341,34.409683],[-82.266909,34.433675],[-82.314844,34.470301],[-82.314,34.484009],[-82.391865,34.433674],[-82.683786,34.248013],[-82.742152,34.211904]]]},"properties":{"shapeName":"Abbeville","shapeISO":"52423323B54775259864963","shapeGroup":"USA","shapeType":"ADM2","src_shape_id":"52423323B54775259864963","adm1ISO":"US-SC"}},
{"type":"Feature","geometry":{"type":"Polygon","coordinates":[[[-79.633416,34.298001],[-79.635982,34.301227],[-79.657767,34.305197],[-79.684553,34.284598],[-79.729569,34.295197],[-79.752486,34.24726],[-79.749386,34.24506],[-79.771286,34.24896],[-79.785328,34.249394],[-79.801086,34.254959],[-79.819061,34.245354],[-79.837481,34.23366],[-79.913983,34.185223],[-79.974128,34.147034],[-80.069881,34.086198],[-80.025933,34.073233],[-80.000597,34.047884],[-79.999794,34.046264],[-79.955697,34.020556],[-79.903661,34.002252],[-79.89352,33.988024],[-79.974604,33.946534],[-79.945951,33.886004],[-79.902428,33.88907],[-79.875623,33.885252],[-79.86643,33.884329],[-79.854894,33.891745],[-79.847159,33.884494],[-79.834884,33.882608],[-79.798373,33.835569],[-79.743391,33.835063],[-79.724939,33.814559],[-79.687976,33.804921],[-79.67733,33.814701],[-79.648888,33.815268],[-79.635811,33.818045],[-79.634883,33.808366],[-79.496489,33.775364],[-79.47118,33.784127],[-79.441536,33.784394],[-79.433276,33.792899],[-79.386551,33.807685],[-79.386024,33.816203],[-79.352232,33.815142],[-79.340396,33.802803],[-79.32432,33.79913],[-79.314594,33.806989],[-79.314841,33.826079],[-79.336867,33.832559],[-79.34486,33.842603],[-79.368344,33.842938],[-79.38979,33.867082],[-79.389522,33.873204],[-79.409841,33.885301],[-79.401349,33.892813],[-79.429,33.897818],[-79.482635,33.937596],[-79.492911,33.949742],[-79.481466,33.963928],[-79.496098,33.969264],[-79.516943,33.993987],[-79.508649,34.004996],[-79.512828,34.013768],[-79.512862,34.046062],[-79.528254,34.070976],[-79.529435,34.099852],[-79.515311,34.097214],[-79.524551,34.116744],[-79.517208,34.126274],[-79.532482,34.126318],[-79.54396,34.151705],[-79.568987,34.175094],[-79.571883,34.185373],[-79.548319,34.204439],[-79.544039,34.219683],[-79.547933,34.23092],[-79.56157,34.257951],[-79.601006,34.290539],[-79.617612,34.297178],[-79.633416,34.298001]]]},"properties":{"shapeName":"Florence","shapeISO":"52423323B42496570047924","shapeGroup":"USA","shapeType":"ADM2","src_shape_id":"52423323B42496570047924","adm1ISO":"US-SC"}},
{"type":"Feature","geometry":{"type":"Polygon","coordinates":[[[-82.314,34.484009],[-82.314844,34.470301],[-82.266909,34.433675],[-82.246341,34.409683],[-82.23052,34.391854],[-82.223629,34.391714],[-82.209165,34.375779],[-82.200854,34.376926],[-82.178003,34.358141],[-82.168861,34.330158],[-82.155448,34.331727],[-82.134031,34.323801],[-82.120012,34.303825],[-82.110085,34.30797],[-82.083674,34.299247],[-82.053509,34.27643],[-82.050756,34.268704],[-82.025566,34.258453],[-82.00718,34.241527],[-81.992074,34.242267],[-81.978379,34.238116],[-81.971083,34.222164],[-81.945023,34.203155],[-81.926731,34.219728],[-81.903457,34.262871],[-81.893007,34.302931],[-81.867576,34.316397],[-81.84847,34.323535],[-81.837446,34.342384],[-81.814864,34.347005],[-81.78263,34.365096],[-81.737106,34.430551],[-81.722494,34.449668],[-81.703201,34.452638],[-81.643555,34.533659],[-81.677324,34.557979],[-81.714361,34.554052],[-81.749609,34.568351],[-81.800265,34.574818],[-81.84285,34.600642],[-81.849341,34.594646],[-81.854006,34.594556],[-81.863279,34.580238],[-81.879308,34.596601],[-81.890879,34.591173],[-81.895297,34.601856],[-81.910847,34.60348],[-81.943895,34.643474],[-81.969876,34.65701],[-82.001444,34.661598],[-82.012301,34.668594],[-82.040921,34.684355],[-82.057838,34.701166],[-82.071625,34.704249],[-82.066659,34.715503],[-82.078968,34.719761],[-82.083917,34.744817],[-82.101263,34.744179],[-82.10978,34.756329],[-82.116036,34.749353],[-82.131816,34.778473],[-82.146796,34.785561],[-82.163791,34.748331],[-82.177958,34.718794],[-82.197295,34.676925],[-82.211369,34.646749],[-82.238058,34.586963],[-82.236004,34.535969],[-82.314,34.484009]]]},"properties":{"shapeName":"Laurens","shapeISO":"52423323B54800472139978","shapeGroup":"USA","shapeType":"ADM2","src_shape_id":"52423323B54800472139978","adm1ISO":"US-SC"}},
{"type":"Feature","geometry":{"type":"Polygon","coordinates":[[[-79.450037,34.621043],[-79.461566,34.630305],[-79.471602,34.637207],[-79.479308,34.644647],[-79.490204,34.653826],[-79.519046,34.677328],[-79.554457,34.70637],[-79.561694,34.712003],[-79.63158,34.768842],[-79.675302,34.804751],[-79.692949,34.80498],[-79.744119,34.805658],[-79.77361,34.805938],[-79.870696,34.805385],[-79.927419,34.806558],[-79.928012,34.80657],[-79.934325,34.801277],[-79.925243,34.765303],[-79.909738,34.754607],[-79.893042,34.741971],[-79.869618,34.690747],[-79.859391,34.677796],[-79.85501,34.673358],[-79.830457,34.657219],[-79.796093,34.648051],[-79.777464,34.613499],[-79.80388,34.60906],[-79.829984,34.531932],[-79.833492,34.513441],[-79.814888,34.497199],[-79.809475,34.486086],[-79.790506,34.485303],[-79.78293,34.497776],[-79.770105,34.496273],[-79.764007,34.518321],[-79.754581,34.505576],[-79.72783,34.496831],[-79.721904,34.488027],[-79.734315,34.465999],[-79.749277,34.46797],[-79.749787,34.450602],[-79.750569,34.436804],[-79.725015,34.41725],[-79.715282,34.394381],[-79.701496,34.40535],[-79.683404,34.399155],[-79.689445,34.381772],[-79.673703,34.374401],[-79.692876,34.356848],[-79.660367,34.322287],[-79.657767,34.305197],[-79.635982,34.301227],[-79.633416,34.298001],[-79.528836,34.482751],[-79.450037,34.621043]]]},"properties":{"shapeName":"Marlboro","shapeISO":"52423323B54358685786571","shapeGroup":"USA","shapeType":"ADM2","src_shape_id":"52423323B54358685786571","adm1ISO":"US-SC"}},
{"type":"Feature","geometry":{"type":"Polygon","coordinates":[[[-80.408376,34.614772],[-80.435039,34.642082],[-80.431651,34.659768],[-80.460785,34.676991],[-80.473068,34.692364],[-80.488535,34.704591],[-80.489763,34.720223],[-80.487736,34.722272],[-80.517874,34.762723],[-80.544482,34.783963],[-80.561713,34.817488],[-80.62608,34.818224],[-80.646604,34.818599],[-80.72695,34.819275],[-80.777715,34.819704],[-80.797546,34.819793],[-80.786521,34.902299],[-80.782045,34.935789],[-80.821563,34.979702],[-80.840388,35.001644],[-80.88489,35.053517],[-80.906236,35.076426],[-80.905888,35.04679],[-80.897449,35.033103],[-80.909461,35.01667],[-80.902299,35.005749],[-80.885399,34.990218],[-80.889261,34.985213],[-80.886543,34.980959],[-80.885899,34.976709],[-80.884424,34.975723],[-80.882416,34.970847],[-80.88424,34.968292],[-80.880615,34.965595],[-80.879845,34.962522],[-80.875681,34.965025],[-80.873996,34.965098],[-80.867184,34.929111],[-80.878265,34.902958],[-80.878453,34.861977],[-80.867073,34.847341],[-80.88876,34.831198],[-80.898218,34.820753],[-80.876124,34.788054],[-80.878281,34.759085],[-80.866002,34.706176],[-80.860277,34.695854],[-80.888472,34.66861],[-80.896377,34.635231],[-80.8914,34.596794],[-80.882349,34.584751],[-80.872866,34.552972],[-80.877494,34.543153],[-80.881723,34.500124],[-80.898725,34.486701],[-80.87923,34.457783],[-80.743348,34.539923],[-80.737677,34.539504],[-80.74562,34.512598],[-80.739932,34.480017],[-80.713332,34.487341],[-80.709188,34.505122],[-80.698165,34.515974],[-80.689082,34.515331],[-80.676065,34.493123],[-80.65842,34.478619],[-80.632216,34.49144],[-80.632108,34.480616],[-80.613633,34.499946],[-80.614281,34.488815],[-80.599088,34.495194],[-80.548909,34.493271],[-80.544053,34.507498],[-80.527437,34.503942],[-80.550555,34.560123],[-80.408376,34.614772]]]},"properties":{"shapeName":"Lancaster","shapeISO":"52423323B10055621117527","shapeGroup":"USA","shapeType":"ADM2","src_shape_id":"52423323B10055621117527","adm1ISO":"US-SC"}},
{"type":"Feature","geometry":{"type":"Polygon","coordinates":[[[-81.012333,33.880087],[-81.037906,33.870875],[-81.038782,33.848362],[-81.047519,33.789432],[-81.054127,33.778545],[-81.058524,33.74706],[-81.036127,33.745218],[-81.03287,33.764062],[-81.014006,33.781248],[-80.966998,33.777188],[-80.939956,33.769137],[-80.924971,33.75681],[-80.945604,33.749304],[-80.955746,33.737825],[-80.992,33.732179],[-81.042857,33.707138],[-80.984213,33.644804],[-80.965492,33.625289],[-80.943957,33.643611],[-80.939788,33.60882],[-80.91968,33.605512],[-80.885198,33.618296],[-80.807634,33.604088],[-80.731568,33.549509],[-80.693858,33.52176],[-80.696093,33.510465],[-80.659023,33.470989],[-80.627294,33.473828],[-80.61133,33.470423],[-80.624954,33.48877],[-80.624705,33.498906],[-80.58793,33.538889],[-80.610349,33.550739],[-80.603618,33.555407],[-80.552275,33.565421],[-80.540146,33.561807],[-80.511209,33.538436],[-80.496276,33.558488],[-80.515237,33.574712],[-80.503338,33.591631],[-80.519802,33.597375],[-80.521572,33.616537],[-80.540517,33.629039],[-80.534088,33.643918],[-80.565382,33.666082],[-80.565212,33.679719],[-80.589783,33.684245],[-80.615267,33.711842],[-80.629641,33.738927],[-80.62011,33.743244],[-80.656402,33.761405],[-80.659054,33.772993],[-80.686595,33.756],[-80.72254,33.767353],[-80.73738,33.756624],[-80.746998,33.776454],[-80.74734,33.761749],[-80.759734,33.774004],[-80.784863,33.761015],[-80.782971,33.768906],[-80.807594,33.774218],[-80.815693,33.781076],[-80.829262,33.7782],[-80.837475,33.793913],[-80.865762,33.802726],[-80.879816,33.815627],[-80.898538,33.808774],[-80.917313,33.813742],[-80.913106,33.832941],[-80.940587,33.828489],[-80.950828,33.840902],[-80.965948,33.847855],[-80.985709,33.848737],[-80.98622,33.857471],[-80.999787,33.860609],[-80.996577,33.873815],[-81.012333,33.880087]]]},"properties":{"shapeName":"Calhoun","shapeISO":"52423323B26821031365156","shapeGroup":"USA","shapeType":"ADM2","src_shape_id":"52423323B26821031365156","adm1ISO":"US-SC"}},
{"type":"Feature","geometry":{"type":"Polygon","coordinates":[[[-81.870087,34.135364],[-81.897557,34.14662],[-81.90765,34.167337],[-81.904477,34.176415],[-81.916993,34.176988],[-81.926752,34.195863],[-81.945023,34.203155],[-81.971083,34.222164],[-81.978379,34.238116],[-81.992074,34.242267],[-82.00718,34.241527],[-82.025566,34.258453],[-82.050756,34.268704],[-82.053509,34.27643],[-82.083674,34.299247],[-82.110085,34.30797],[-82.120012,34.303825],[-82.134031,34.323801],[-82.155448,34.331727],[-82.168861,34.330158],[-82.178003,34.358141],[-82.200854,34.376926],[-82.209165,34.375779],[-82.223629,34.391714],[-82.23052,34.391854],[-82.246341,34.409683],[-82.288681,34.377369],[-82.334238,34.342637],[-82.311085,34.320448],[-82.307626,34.277544],[-82.26465,34.245125],[-82.247751,34.219626],[-82.240166,34.179154],[-82.24045,34.163027],[-82.246671,34.14406],[-82.267188,34.108367],[-82.326951,34.064127],[-82.306247,33.971591],[-82.245059,34.018788],[-82.237697,34.013153],[-82.22008,33.990418],[-82.20029,33.978604],[-82.16772,33.973059],[-82.150831,33.986724],[-82.075691,33.979452],[-82.045134,33.983403],[-82.046978,33.953217],[-82.008302,33.961653],[-82.009821,33.96463],[-81.989146,33.998273],[-81.946122,34.038949],[-81.927448,34.077677],[-81.870087,34.135364]]]},"properties":{"shapeName":"Greenwood","shapeISO":"52423323B39271330460485","shapeGroup":"USA","shapeType":"ADM2","src_shape_id":"52423323B39271330460485","adm1ISO":"US-SC"}},
{"type":"Feature","geometry":{"type":"Polygon","coordinates":[[[-81.410284,32.744659],[-81.410848,32.7417],[-81.412673,32.739089],[-81.418545,32.732592],[-81.420519,32.720244],[-81.421197,32.711984],[-81.42752,32.701902],[-81.426738,32.700873],[-81.413103,32.692654],[-81.410753,32.694778],[-81.408313,32.694914],[-81.401259,32.680162],[-81.401032,32.6775],[-81.40429,32.667804],[-81.407196,32.660525],[-81.405276,32.656523],[-81.398317,32.656313],[-81.393821,32.653497],[-81.393036,32.651549],[-81.394592,32.649576],[-81.403585,32.643404],[-81.405112,32.642696],[-81.404241,32.638264],[-81.402849,32.636216],[-81.407274,32.631743],[-81.409333,32.631102],[-81.411526,32.632913],[-81.413414,32.637374],[-81.414764,32.637446],[-81.418434,32.63471],[-81.418663,32.629398],[-81.411909,32.618416],[-81.404717,32.611213],[-81.397109,32.605593],[-81.393868,32.602346],[-81.389265,32.595389],[-81.381002,32.589658],[-81.37624,32.589223],[-81.373181,32.592121],[-81.36976,32.591237],[-81.368985,32.590031],[-81.368389,32.584227],[-81.366967,32.577065],[-81.328756,32.561234],[-81.320591,32.55954],[-81.309012,32.560976],[-81.300596,32.562849],[-81.296763,32.562654],[-81.281301,32.556447],[-81.222583,32.603831],[-81.207209,32.610532],[-81.014628,32.753064],[-80.995343,32.730553],[-80.976119,32.720227],[-80.964159,32.694707],[-80.945868,32.687354],[-80.951472,32.660134],[-80.96263,32.653349],[-80.958673,32.642513],[-80.92929,32.63658],[-80.918974,32.626567],[-80.902451,32.621567],[-80.869708,32.660941],[-80.837216,32.699827],[-80.826312,32.704327],[-80.845167,32.720116],[-80.84853,32.73027],[-80.866194,32.775587],[-80.895891,32.810811],[-80.900199,32.832819],[-80.944765,32.875704],[-80.958835,32.876686],[-80.976634,32.897291],[-80.986706,32.90068],[-80.999346,32.931253],[-81.029633,32.973918],[-81.053068,32.989484],[-81.064535,33.013285],[-81.082294,33.026636],[-81.219566,32.953356],[-81.236959,32.94025],[-81.237684,32.906737],[-81.260119,32.902985],[-81.276732,32.892092],[-81.261665,32.839145],[-81.329104,32.788806],[-81.338546,32.768462],[-81.367976,32.760607],[-81.393993,32.744873],[-81.410284,32.744659]]]},"properties":{"shapeName":"Hampton","shapeISO":"52423323B13440849980241","shapeGroup":"USA","shapeType":"ADM2","src_shape_id":"52423323B13440849980241","adm1ISO":"US-SC"}},
{"type":"Feature","geometry":{"type":"Polygon","coordinates":[[[-80.869708,32.660941],[-80.848445,32.614863],[-80.832252,32.596369],[-80.83921,32.557515],[-80.838742,32.520936],[-80.820231,32.490794],[-80.817432,32.472595],[-80.818693,32.463941],[-80.830168,32.462099],[-80.847732,32.428997],[-80.847976,32.411648],[-80.829243,32.411476],[-80.842899,32.393397],[-80.841939,32.384906],[-80.873718,32.369065],[-80.877597,32.345907],[-80.892057,32.353737],[-80.921886,32.35184],[-80.934389,32.320011],[-80.934943,32.300114],[-80.982111,32.305931],[-81.006372,32.306527],[-80.991573,32.268042],[-81.012455,32.236232],[-81.012334,32.218455],[-80.994292,32.196393],[-80.948426,32.167392],[-80.953828,32.141718],[-80.96723,32.140723],[-80.961474,32.126364],[-80.941265,32.137178],[-80.908444,32.130656],[-80.928284,32.122231],[-80.900576,32.111623],[-80.908114,32.078178],[-80.878114,32.079798],[-80.858738,32.099587],[-80.844434,32.109715],[-80.831534,32.112715],[-80.828397,32.113228],[-80.821533,32.108595],[-80.812506,32.109752],[-80.789999,32.1225],[-80.749094,32.140143],[-80.721466,32.160433],[-80.68886,32.200977],[-80.669169,32.216789],[-80.677848,32.236412],[-80.717799,32.26698],[-80.738086,32.264174],[-80.76126,32.28005],[-80.766041,32.292614],[-80.753453,32.306828],[-80.737121,32.306035],[-80.73364,32.319475],[-80.714604,32.325662],[-80.68853,32.302855],[-80.644797,32.291503],[-80.646461,32.265078],[-80.63886,32.255624],[-80.618289,32.260189],[-80.596397,32.273555],[-80.571099,32.273284],[-80.545691,32.282082],[-80.539432,32.28703],[-80.517874,32.298802],[-80.466345,32.319176],[-80.455195,32.326464],[-80.456817,32.33689],[-80.445454,32.350341],[-80.434306,32.375199],[-80.429294,32.389673],[-80.429944,32.401788],[-80.432963,32.410665],[-80.457505,32.41027],[-80.467591,32.425265],[-80.480159,32.447054],[-80.48462,32.460982],[-80.480253,32.477413],[-80.476913,32.485396],[-80.504619,32.496953],[-80.507978,32.505213],[-80.514083,32.513903],[-80.536486,32.52923],[-80.551507,32.565775],[-80.56244,32.550963],[-80.567315,32.566444],[-80.582826,32.566205],[-80.576169,32.577767],[-80.586361,32.586178],[-80.599791,32.581053],[-80.611665,32.589877],[-80.620884,32.581206],[-80.629627,32.590709],[-80.647831,32.596377],[-80.659754,32.612689],[-80.666451,32.64571],[-80.680064,32.643919],[-80.683138,32.652389],[-80.668147,32.667498],[-80.685008,32.672957],[-80.70333,32.664592],[-80.7065,32.67325],[-80.739246,32.68231],[-80.744891,32.674235],[-80.763255,32.675375],[-80.80788,32.689444],[-80.826312,32.704327],[-80.837216,32.699827],[-80.869708,32.660941]]]},"properties":{"shapeName":"Beaufort","shapeISO":"52423323B11454809492263","shapeGroup":"USA","shapeType":"ADM2","src_shape_id":"52423323B11454809492263","adm1ISO":"US-SC"}},
{"type":"Feature","geometry":{"type":"Polygon","coordinates":[[[-80.401343,32.858472],[-80.394261,32.844582],[-80.407482,32.811112],[-80.435695,32.787413],[-80.446013,32.76481],[-80.453633,32.739906],[-80.422955,32.714763],[-80.416136,32.695298],[-80.420274,32.66961],[-80.405788,32.653005],[-80.389404,32.652826],[-80.408507,32.626699],[-80.427223,32.625189],[-80.418175,32.60448],[-80.395098,32.619232],[-80.389431,32.618506],[-80.387608,32.61653],[-80.387837,32.609145],[-80.396233,32.596635],[-80.38874,32.574476],[-80.396067,32.561643],[-80.416589,32.546324],[-80.379035,32.530938],[-80.352826,32.500193],[-80.33633,32.493571],[-80.324763,32.503584],[-80.349288,32.51828],[-80.346919,32.526277],[-80.321277,32.523183],[-80.319092,32.511032],[-80.284711,32.530398],[-80.276046,32.51695],[-80.246364,32.53112],[-80.205233,32.555553],[-80.190111,32.546847],[-80.183377,32.539995],[-80.171767,32.546124],[-80.167289,32.559891],[-80.148409,32.578485],[-80.121371,32.590529],[-80.077042,32.603325],[-80.037279,32.610242],[-80.010508,32.608858],[-80.000804,32.605898],[-79.991753,32.616395],[-79.98692,32.626394],[-79.975251,32.639543],[-79.968471,32.639738],[-79.915685,32.664921],[-79.884964,32.684408],[-79.887097,32.701953],[-79.870339,32.727783],[-79.868355,32.734855],[-79.879112,32.75084],[-79.928549,32.754239],[-79.92736,32.772527],[-79.923201,32.781819],[-79.886004,32.787913],[-79.870631,32.778269],[-79.863425,32.771028],[-79.862712,32.761534],[-79.84853,32.755254],[-79.840353,32.756822],[-79.81824,32.766358],[-79.811024,32.776966],[-79.726392,32.806002],[-79.716764,32.813633],[-79.719882,32.825802],[-79.702959,32.835787],[-79.699485,32.840003],[-79.695144,32.850404],[-79.655429,32.872711],[-79.631152,32.888612],[-79.576009,32.906241],[-79.569765,32.926698],[-79.572617,32.933891],[-79.574954,32.934532],[-79.58169,32.931347],[-79.5859,32.926467],[-79.606197,32.925959],[-79.612931,32.934821],[-79.617718,32.944876],[-79.617614,32.952732],[-79.606618,32.972254],[-79.601023,32.979288],[-79.586593,32.99134],[-79.580728,33.006453],[-79.557563,33.021275],[-79.522452,33.035356],[-79.506926,33.032819],[-79.48873,33.015838],[-79.483502,33.001271],[-79.46105,33.007645],[-79.42345,33.015091],[-79.416518,33.006821],[-79.403715,33.003909],[-79.359964,33.006678],[-79.339316,33.050342],[-79.335349,33.065368],[-79.337172,33.072308],[-79.329912,33.089992],[-79.291594,33.109779],[-79.290756,33.110057],[-79.268172,33.134483],[-79.291253,33.146569],[-79.350819,33.153534],[-79.404861,33.184935],[-79.43839,33.215142],[-79.446702,33.213464],[-79.46738,33.206489],[-79.473738,33.210372],[-79.492821,33.191827],[-79.496948,33.177433],[-79.512832,33.166182],[-79.521616,33.146714],[-79.533955,33.144041],[-79.560464,33.156409],[-79.612277,33.138452],[-79.645211,33.120484],[-79.660504,33.090838],[-79.67449,33.080863],[-79.703035,33.04594],[-79.714657,33.040648],[-79.729027,33.014095],[-79.762313,32.988714],[-79.769327,32.968551],[-79.763583,32.95818],[-79.770987,32.941866],[-79.783099,32.94317],[-79.802198,32.929922],[-79.82436,32.91988],[-79.827521,32.922333],[-79.836433,32.91958],[-79.843317,32.893662],[-79.863523,32.869917],[-79.897282,32.858772],[-79.896713,32.830478],[-79.906111,32.82325],[-79.91431,32.818898],[-79.919205,32.818997],[-79.928308,32.823989],[-79.933539,32.851829],[-79.951853,32.857123],[-79.959652,32.863845],[-79.964516,32.877956],[-79.950451,32.91018],[-79.99422,32.902775],[-80.011777,32.899887],[-80.041272,32.954992],[-80.042409,32.959584],[-80.039907,32.982588],[-80.050769,32.990994],[-80.055465,32.999518],[-80.087291,32.992064],[-80.098225,32.988112],[-80.102872,33.001182],[-80.132138,33.01049],[-80.149249,33.021607],[-80.160755,33.020953],[-80.163444,33.014348],[-80.162596,33.010508],[-80.167663,33.002504],[-80.145732,32.984345],[-80.136227,32.999259],[-80.110546,32.985498],[-80.129849,32.979596],[-80.138249,32.981543],[-80.140946,32.979619],[-80.135374,32.975689],[-80.100678,32.946039],[-80.0893,32.936146],[-80.079031,32.927817],[-80.089199,32.90545],[-80.097128,32.886831],[-80.103708,32.893291],[-80.11888,32.893187],[-80.122797,32.901772],[-80.125444,32.889642],[-80.162188,32.87462],[-80.163497,32.85455],[-80.1857,32.860813],[-80.18304,32.846243],[-80.160653,32.840779],[-80.155048,32.825705],[-80.148487,32.81904],[-80.157718,32.818221],[-80.275444,32.843384],[-80.301691,32.851909],[-80.401343,32.858472]]]},"properties":{"shapeName":"Charleston","shapeISO":"52423323B18388852349045","shapeGroup":"USA","shapeType":"ADM2","src_shape_id":"52423323B18388852349045","adm1ISO":"US-SC"}},
{"type":"Feature","geometry":{"type":"Polygon","coordinates":[[[-81.571488,33.877237],[-81.560736,33.862652],[-81.546949,33.85869],[-81.533593,33.832161],[-81.512015,33.812808],[-81.4747,33.798435],[-81.460481,33.797163],[-81.43582,33.775454],[-81.426746,33.743204],[-81.415205,33.732124],[-81.357389,33.722873],[-81.302861,33.704679],[-81.285926,33.693108],[-81.277012,33.696213],[-81.207398,33.658883],[-81.187274,33.652944],[-81.086636,33.695416],[-81.042857,33.707138],[-80.992,33.732179],[-80.955746,33.737825],[-80.945604,33.749304],[-80.924971,33.75681],[-80.939956,33.769137],[-80.966998,33.777188],[-81.014006,33.781248],[-81.03287,33.764062],[-81.036127,33.745218],[-81.058524,33.74706],[-81.054127,33.778545],[-81.047519,33.789432],[-81.038782,33.848362],[-81.037906,33.870875],[-81.012333,33.880087],[-81.008757,33.904109],[-81.029717,33.915461],[-81.017552,33.932128],[-81.019317,33.936762],[-81.045935,33.977346],[-81.055618,34.001742],[-81.103826,34.023323],[-81.110563,34.036907],[-81.121493,34.0516],[-81.12526,34.055747],[-81.139285,34.068348],[-81.152552,34.077405],[-81.171265,34.086886],[-81.172892,34.090152],[-81.233436,34.101775],[-81.275848,34.097388],[-81.288315,34.117536],[-81.311907,34.141187],[-81.311737,34.143403],[-81.302269,34.162402],[-81.314459,34.186912],[-81.338964,34.197594],[-81.352352,34.196696],[-81.374769,34.179016],[-81.403675,34.177883],[-81.437175,34.12997],[-81.388567,34.080234],[-81.394086,34.071552],[-81.42473,34.083177],[-81.444677,34.077891],[-81.466672,34.087254],[-81.471975,34.076559],[-81.4924,34.034264],[-81.534866,33.953383],[-81.570305,33.884989],[-81.571488,33.877237]]]},"properties":{"shapeName":"Lexington","shapeISO":"52423323B37398835360821","shapeGroup":"USA","shapeType":"ADM2","src_shape_id":"52423323B37398835360821","adm1ISO":"US-SC"}},
{"type":"Feature","geometry":{"type":"Polygon","coordinates":[[[-81.423244,34.494386],[-81.412856,34.467953],[-81.421243,34.453831],[-81.397951,34.40094],[-81.394848,34.387105],[-81.3721,34.351667],[-81.366474,34.325829],[-81.353994,34.302891],[-81.339677,34.289988],[-81.3423,34.266935],[-81.330147,34.259091],[-81.316914,34.239465],[-81.296608,34.237398],[-81.278243,34.229639],[-81.251276,34.202953],[-81.226415,34.205694],[-81.178296,34.174559],[-81.16888,34.194382],[-81.181199,34.220292],[-81.095866,34.213879],[-81.06987,34.232253],[-81.042531,34.236603],[-81.040055,34.232786],[-80.961989,34.252017],[-80.903643,34.259256],[-80.825924,34.268767],[-80.769929,34.377118],[-80.781447,34.385862],[-80.78321,34.406492],[-80.793481,34.413305],[-80.825654,34.411872],[-80.838579,34.418994],[-80.87923,34.457783],[-80.898725,34.486701],[-80.881723,34.500124],[-80.877494,34.543153],[-81.002683,34.547884],[-81.059993,34.553251],[-81.245057,34.563829],[-81.422709,34.572036],[-81.419832,34.566595],[-81.427548,34.529489],[-81.423244,34.494386]]]},"properties":{"shapeName":"Fairfield","shapeISO":"52423323B16928233595838","shapeGroup":"USA","shapeType":"ADM2","src_shape_id":"52423323B16928233595838","adm1ISO":"US-SC"}},
{"type":"Feature","geometry":{"type":"Polygon","coordinates":[[[-79.974604,33.946534],[-80.042858,33.914272],[-80.121615,33.869562],[-80.135483,33.868772],[-80.195374,33.838989],[-80.255408,33.80409],[-80.262675,33.796006],[-80.274062,33.785875],[-80.397134,33.767828],[-80.396996,33.746871],[-80.392006,33.715557],[-80.434429,33.711897],[-80.425938,33.724097],[-80.430928,33.738313],[-80.449296,33.737535],[-80.454444,33.71353],[-80.478712,33.714272],[-80.497598,33.674327],[-80.534088,33.643918],[-80.540517,33.629039],[-80.521572,33.616537],[-80.519802,33.597375],[-80.503338,33.591631],[-80.515237,33.574712],[-80.496276,33.558488],[-80.485022,33.560054],[-80.468424,33.541065],[-80.451864,33.545923],[-80.447327,33.524534],[-80.468363,33.523244],[-80.456105,33.510828],[-80.460051,33.502902],[-80.439088,33.502032],[-80.436328,33.477073],[-80.393148,33.445346],[-80.354542,33.430415],[-80.322571,33.431378],[-80.276678,33.446934],[-80.272658,33.438188],[-80.242422,33.449602],[-80.238078,33.439589],[-80.22227,33.443723],[-80.208958,33.442669],[-80.208165,33.452298],[-80.191577,33.447514],[-80.150723,33.448184],[-80.144246,33.464113],[-80.152048,33.478579],[-80.123306,33.502535],[-80.1017,33.496898],[-80.045076,33.600842],[-80.020882,33.645811],[-79.993236,33.704465],[-79.974385,33.721597],[-79.995641,33.767913],[-79.944508,33.810221],[-79.915308,33.818655],[-79.875623,33.885252],[-79.902428,33.88907],[-79.945951,33.886004],[-79.974604,33.946534]]]},"properties":{"shapeName":"Clarendon","shapeISO":"52423323B77456184843444","shapeGroup":"USA","shapeType":"ADM2","src_shape_id":"52423323B77456184843444","adm1ISO":"US-SC"}},
{"type":"Feature","geometry":{"type":"Polygon","coordinates":[[[-79.547933,34.23092],[-79.544039,34.219683],[-79.548319,34.204439],[-79.571883,34.185373],[-79.568987,34.175094],[-79.54396,34.151705],[-79.532482,34.126318],[-79.517208,34.126274],[-79.524551,34.116744],[-79.515311,34.097214],[-79.529435,34.099852],[-79.528254,34.070976],[-79.512862,34.046062],[-79.512828,34.013768],[-79.508649,34.004996],[-79.516943,33.993987],[-79.496098,33.969264],[-79.481466,33.963928],[-79.492911,33.949742],[-79.482635,33.937596],[-79.429,33.897818],[-79.401349,33.892813],[-79.409841,33.885301],[-79.389522,33.873204],[-79.38979,33.867082],[-79.368344,33.842938],[-79.34486,33.842603],[-79.336867,33.832559],[-79.314841,33.826079],[-79.314594,33.806989],[-79.32432,33.79913],[-79.32328,33.788748],[-79.317044,33.779885],[-79.292581,33.750174],[-79.286251,33.737393],[-79.291577,33.728988],[-79.282998,33.715979],[-79.271667,33.721862],[-79.27506,33.708859],[-79.266809,33.70318],[-79.240658,33.704714],[-79.246387,33.695354],[-79.190267,33.705794],[-79.195903,33.727893],[-79.22037,33.748295],[-79.220455,33.756989],[-79.230099,33.76191],[-79.248097,33.784422],[-79.260286,33.814861],[-79.248929,33.829765],[-79.262348,33.839764],[-79.256832,33.878976],[-79.263761,33.892696],[-79.282628,33.900667],[-79.286377,33.89525],[-79.316972,33.93415],[-79.311438,33.942393],[-79.339079,33.969729],[-79.331301,33.979002],[-79.332461,33.995004],[-79.309057,34.008181],[-79.30211,34.029192],[-79.265092,34.043989],[-79.242964,34.067965],[-79.250444,34.089765],[-79.205774,34.13298],[-79.20781,34.145292],[-79.191676,34.176419],[-79.171444,34.181744],[-79.153942,34.207214],[-79.130862,34.221564],[-79.134712,34.225927],[-79.128267,34.23075],[-79.128168,34.253659],[-79.173478,34.287541],[-79.214323,34.255546],[-79.239805,34.254346],[-79.259539,34.259038],[-79.27186,34.269761],[-79.2944,34.277001],[-79.305387,34.269314],[-79.374532,34.298862],[-79.411043,34.300179],[-79.432798,34.293896],[-79.440153,34.292838],[-79.480715,34.288088],[-79.524427,34.251592],[-79.554714,34.247023],[-79.547933,34.23092]]]},"properties":{"shapeName":"Marion","shapeISO":"52423323B89464999427747","shapeGroup":"USA","shapeType":"ADM2","src_shape_id":"52423323B89464999427747","adm1ISO":"US-SC"}},
{"type":"Feature","geometry":{"type":"Polygon","coordinates":[[[-79.875623,33.885252],[-79.915308,33.818655],[-79.944508,33.810221],[-79.995641,33.767913],[-79.974385,33.721597],[-79.993236,33.704465],[-80.020882,33.645811],[-80.045076,33.600842],[-80.1017,33.496898],[-80.082174,33.505735],[-80.012139,33.505179],[-80.00445,33.495741],[-79.970867,33.500696],[-79.914736,33.46349],[-79.910229,33.45572],[-79.894149,33.453657],[-79.867285,33.430564],[-79.877635,33.428478],[-79.860167,33.415117],[-79.854774,33.402775],[-79.813865,33.382328],[-79.807706,33.372806],[-79.796394,33.377646],[-79.781641,33.368227],[-79.761395,33.342255],[-79.756404,33.330113],[-79.73996,33.321613],[-79.709579,33.321253],[-79.677017,33.304951],[-79.680886,33.319611],[-79.677249,33.336769],[-79.652403,33.361334],[-79.634422,33.372153],[-79.62508,33.390412],[-79.595997,33.421555],[-79.590113,33.443547],[-79.544581,33.487542],[-79.538083,33.496903],[-79.499344,33.515811],[-79.493054,33.520762],[-79.483062,33.537037],[-79.457212,33.558107],[-79.435736,33.572709],[-79.433642,33.576716],[-79.442473,33.59604],[-79.433291,33.621559],[-79.419845,33.648475],[-79.409335,33.688897],[-79.392661,33.711819],[-79.346557,33.755341],[-79.337767,33.774612],[-79.317044,33.779885],[-79.32328,33.788748],[-79.32432,33.79913],[-79.340396,33.802803],[-79.352232,33.815142],[-79.386024,33.816203],[-79.386551,33.807685],[-79.433276,33.792899],[-79.441536,33.784394],[-79.47118,33.784127],[-79.496489,33.775364],[-79.634883,33.808366],[-79.635811,33.818045],[-79.648888,33.815268],[-79.67733,33.814701],[-79.687976,33.804921],[-79.724939,33.814559],[-79.743391,33.835063],[-79.798373,33.835569],[-79.834884,33.882608],[-79.847159,33.884494],[-79.854894,33.891745],[-79.86643,33.884329],[-79.875623,33.885252]]]},"properties":{"shapeName":"Williamsburg","shapeISO":"52423323B81362152802157","shapeGroup":"USA","shapeType":"ADM2","src_shape_id":"52423323B81362152802157","adm1ISO":"US-SC"}},
{"type":"Feature","geometry":{"type":"Polygon","coordinates":[[[-80.797915,33.17695],[-80.790299,33.180846],[-80.502793,33.334502],[-80.494132,33.321173],[-80.495179,33.302552],[-80.484581,33.28004],[-80.427095,33.257768],[-80.394213,33.264669],[-80.361854,33.257449],[-80.357357,33.274781],[-80.344648,33.277854],[-80.314743,33.264113],[-80.294484,33.271262],[-80.253839,33.299266],[-80.247903,33.338169],[-80.239881,33.351383],[-80.238466,33.39116],[-80.222571,33.391295],[-80.225204,33.409344],[-80.22227,33.443723],[-80.238078,33.439589],[-80.242422,33.449602],[-80.272658,33.438188],[-80.276678,33.446934],[-80.322571,33.431378],[-80.354542,33.430415],[-80.393148,33.445346],[-80.436328,33.477073],[-80.439088,33.502032],[-80.460051,33.502902],[-80.456105,33.510828],[-80.468363,33.523244],[-80.447327,33.524534],[-80.451864,33.545923],[-80.468424,33.541065],[-80.485022,33.560054],[-80.496276,33.558488],[-80.511209,33.538436],[-80.540146,33.561807],[-80.552275,33.565421],[-80.603618,33.555407],[-80.610349,33.550739],[-80.58793,33.538889],[-80.624705,33.498906],[-80.624954,33.48877],[-80.61133,33.470423],[-80.627294,33.473828],[-80.659023,33.470989],[-80.696093,33.510465],[-80.693858,33.52176],[-80.731568,33.549509],[-80.807634,33.604088],[-80.885198,33.618296],[-80.91968,33.605512],[-80.939788,33.60882],[-80.943957,33.643611],[-80.965492,33.625289],[-80.984213,33.644804],[-81.042857,33.707138],[-81.086636,33.695416],[-81.187274,33.652944],[-81.215662,33.627801],[-81.335645,33.521772],[-81.3711,33.492443],[-81.372934,33.490423],[-81.344234,33.480897],[-81.301448,33.481224],[-81.263273,33.451569],[-81.242911,33.441142],[-81.222676,33.440006],[-81.206609,33.437818],[-81.189534,33.411689],[-81.157007,33.406183],[-81.117719,33.383461],[-81.082413,33.37547],[-81.055353,33.353918],[-81.031359,33.34883],[-80.985341,33.327024],[-80.959317,33.309993],[-80.940106,33.303566],[-80.918428,33.283378],[-80.89226,33.268397],[-80.890199,33.261398],[-80.887112,33.264189],[-80.846154,33.238334],[-80.837503,33.203718],[-80.797915,33.17695]]]},"properties":{"shapeName":"Orangeburg","shapeISO":"52423323B42791453202127","shapeGroup":"USA","shapeType":"ADM2","src_shape_id":"52423323B42791453202127","adm1ISO":"US-SC"}},
{"type":"Feature","geometry":{"type":"Polygon","coordinates":[[[-81.281301,32.556447],[-81.279241,32.554596],[-81.275216,32.545208],[-81.274805,32.541149],[-81.277134,32.535423],[-81.252885,32.518336],[-81.24983,32.517547],[-81.245013,32.518323],[-81.237098,32.51732],[-81.234663,32.516276],[-81.234026,32.513784],[-81.234837,32.512277],[-81.238414,32.510198],[-81.238284,32.505994],[-81.233588,32.498494],[-81.227531,32.49389],[-81.212431,32.478691],[-81.200032,32.467991],[-81.194832,32.465092],[-81.192432,32.464792],[-81.189232,32.465592],[-81.187332,32.462892],[-81.192632,32.456292],[-81.197532,32.452092],[-81.200911,32.451599],[-81.202362,32.450454],[-81.203049,32.44717],[-81.20114,32.444039],[-81.202591,32.439839],[-81.207249,32.437548],[-81.208433,32.435993],[-81.205133,32.423794],[-81.194934,32.411495],[-81.189734,32.407295],[-81.177234,32.391696],[-81.178134,32.384596],[-81.181075,32.380404],[-81.173435,32.372597],[-81.169335,32.369442],[-81.168725,32.36755],[-81.170861,32.362728],[-81.170129,32.361324],[-81.161735,32.356098],[-81.155035,32.350099],[-81.154436,32.346093],[-81.150592,32.345876],[-81.149076,32.346688],[-81.147635,32.349399],[-81.144035,32.351099],[-81.140935,32.349399],[-81.133635,32.341299],[-81.133035,32.3348],[-81.137035,32.33],[-81.137636,32.3282],[-81.135736,32.3246],[-81.125436,32.309301],[-81.123936,32.308701],[-81.122336,32.305401],[-81.119636,32.287602],[-81.121436,32.284502],[-81.128037,32.276303],[-81.130837,32.274603],[-81.136537,32.272703],[-81.145837,32.263403],[-81.148337,32.255104],[-81.155598,32.246028],[-81.15659,32.243916],[-81.155998,32.241484],[-81.146534,32.226944],[-81.143142,32.221737],[-81.136015,32.212864],[-81.128286,32.20864],[-81.123153,32.201335],[-81.118237,32.189207],[-81.117937,32.185307],[-81.120437,32.178708],[-81.119437,32.175408],[-81.121137,32.174908],[-81.128137,32.169108],[-81.129637,32.165608],[-81.128437,32.164408],[-81.123137,32.162908],[-81.122037,32.161809],[-81.120037,32.153309],[-81.118337,32.144409],[-81.119137,32.14211],[-81.119997,32.134274],[-81.117237,32.117611],[-81.113337,32.113211],[-81.111137,32.112011],[-81.100461,32.111187],[-81.093389,32.111236],[-81.091501,32.110788],[-81.090877,32.106996],[-81.088237,32.103956],[-81.083549,32.100788],[-81.066909,32.090357],[-81.060445,32.087509],[-81.050237,32.085314],[-81.038268,32.084475],[-81.032677,32.085456],[-81.021625,32.090903],[-81.016012,32.09743],[-81.011964,32.100182],[-81.006748,32.101158],[-80.999836,32.09902],[-80.994336,32.094614],[-80.991736,32.091214],[-80.987736,32.084215],[-80.983136,32.079615],[-80.978836,32.077315],[-80.959405,32.071265],[-80.954485,32.068628],[-80.943229,32.05783],[-80.93356,32.04756],[-80.926756,32.041678],[-80.922797,32.039157],[-80.917848,32.037581],[-80.89298,32.034955],[-80.88552,32.034606],[-80.892347,32.04377],[-80.905381,32.051949],[-80.878114,32.079798],[-80.908114,32.078178],[-80.900576,32.111623],[-80.928284,32.122231],[-80.908444,32.130656],[-80.941265,32.137178],[-80.961474,32.126364],[-80.96723,32.140723],[-80.953828,32.141718],[-80.948426,32.167392],[-80.994292,32.196393],[-81.012334,32.218455],[-81.012455,32.236232],[-80.991573,32.268042],[-81.006372,32.306527],[-80.982111,32.305931],[-80.934943,32.300114],[-80.934389,32.320011],[-80.921886,32.35184],[-80.892057,32.353737],[-80.877597,32.345907],[-80.873718,32.369065],[-80.841939,32.384906],[-80.842899,32.393397],[-80.829243,32.411476],[-80.847976,32.411648],[-80.847732,32.428997],[-80.830168,32.462099],[-80.818693,32.463941],[-80.817432,32.472595],[-80.820231,32.490794],[-80.838742,32.520936],[-80.83921,32.557515],[-80.832252,32.596369],[-80.848445,32.614863],[-80.869708,32.660941],[-80.902451,32.621567],[-80.918974,32.626567],[-80.92929,32.63658],[-80.958673,32.642513],[-80.96263,32.653349],[-80.951472,32.660134],[-80.945868,32.687354],[-80.964159,32.694707],[-80.976119,32.720227],[-80.995343,32.730553],[-81.014628,32.753064],[-81.207209,32.610532],[-81.222583,32.603831],[-81.281301,32.556447]]]},"properties":{"shapeName":"Jasper","shapeISO":"52423323B27439582532785","shapeGroup":"USA","shapeType":"ADM2","src_shape_id":"52423323B27439582532785","adm1ISO":"US-SC"}},
{"type":"Feature","geometry":{"type":"Polygon","coordinates":[[[-82.594492,34.013944],[-82.591859,34.009025],[-82.589249,34.000125],[-82.586238,33.997158],[-82.583398,33.995293],[-82.576226,33.993113],[-82.575355,33.990911],[-82.58,33.987018],[-82.580555,33.98247],[-82.57958,33.979768],[-82.574728,33.97412],[-82.569868,33.970691],[-82.568292,33.968779],[-82.566149,33.963907],[-82.565704,33.958689],[-82.564534,33.955747],[-82.556839,33.94536],[-82.554501,33.943826],[-82.543132,33.940956],[-82.539774,33.941558],[-82.534115,33.943658],[-82.526745,33.943772],[-82.524519,33.943367],[-82.512954,33.936976],[-82.507644,33.931463],[-82.503588,33.926055],[-82.496113,33.913466],[-82.492933,33.909761],[-82.480115,33.901904],[-82.469917,33.892845],[-82.459395,33.886393],[-82.455109,33.881657],[-82.448113,33.87755],[-82.440507,33.87513],[-82.438648,33.873926],[-82.431154,33.867058],[-82.429168,33.865851],[-82.422807,33.863761],[-82.417875,33.86424],[-82.414263,33.865355],[-82.408358,33.866327],[-82.403885,33.865484],[-82.400521,33.86335],[-82.39574,33.859096],[-82.390531,33.857169],[-82.384977,33.854435],[-82.379754,33.851093],[-82.37429,33.845597],[-82.369111,33.842382],[-82.351885,33.836439],[-82.346937,33.834305],[-82.337833,33.827163],[-82.324484,33.82004],[-82.31475,33.811506],[-82.313343,33.809212],[-82.309001,33.805899],[-82.302889,33.802914],[-82.300217,33.800634],[-82.298927,33.795846],[-82.299605,33.78649],[-82.29829,33.783525],[-82.294988,33.781875],[-82.289766,33.782039],[-82.285808,33.780065],[-82.281064,33.776063],[-82.277685,33.772039],[-82.270449,33.76792],[-82.267723,33.767658],[-82.265023,33.765749],[-82.26321,33.761969],[-82.259475,33.760252],[-82.255271,33.759697],[-82.247476,33.752598],[-82.246165,33.746354],[-82.240409,33.734908],[-82.239102,33.730879],[-82.235757,33.714397],[-82.237196,33.707887],[-82.23458,33.700223],[-82.222713,33.689131],[-82.218653,33.686305],[-82.216872,33.684406],[-82.212051,33.677323],[-82.208415,33.669878],[-82.200722,33.664646],[-82.199851,33.661764],[-82.199751,33.657617],[-82.20119,33.646904],[-82.196587,33.630588],[-82.186158,33.620886],[-82.179858,33.615951],[-82.174355,33.613123],[-82.161912,33.610649],[-82.158335,33.609716],[-82.153361,33.606325],[-82.151064,33.600962],[-82.14882,33.598098],[-82.142876,33.594284],[-82.133527,33.590541],[-82.129084,33.589931],[-82.125868,33.590747],[-82.120389,33.594891],[-82.115331,33.596508],[-82.113665,33.600268],[-82.095531,33.633875],[-82.110478,33.655305],[-82.131745,33.659526],[-82.134485,33.673912],[-82.148451,33.676779],[-82.143928,33.684751],[-82.166031,33.690323],[-82.182991,33.72412],[-82.164195,33.743374],[-82.172383,33.765718],[-82.153349,33.782568],[-82.123514,33.827788],[-82.113732,33.829887],[-82.152048,33.878016],[-82.155962,33.887353],[-82.148279,33.902818],[-82.155704,33.929297],[-82.046978,33.953217],[-82.045134,33.983403],[-82.075691,33.979452],[-82.150831,33.986724],[-82.16772,33.973059],[-82.20029,33.978604],[-82.22008,33.990418],[-82.237697,34.013153],[-82.245059,34.018788],[-82.306247,33.971591],[-82.326951,34.064127],[-82.376593,34.057381],[-82.452711,34.060351],[-82.483555,34.081222],[-82.499564,34.072105],[-82.530571,34.071932],[-82.558863,34.046465],[-82.594492,34.013944]]]},"properties":{"shapeName":"McCormick","shapeISO":"52423323B96528325771668","shapeGroup":"USA","shapeType":"ADM2","src_shape_id":"52423323B96528325771668","adm1ISO":"US-SC"}},
{"type":"Feature","geometry":{"type":"Polygon","coordinates":[[[-82.008302,33.961653],[-82.046978,33.953217],[-82.155704,33.929297],[-82.148279,33.902818],[-82.155962,33.887353],[-82.152048,33.878016],[-82.113732,33.829887],[-82.123514,33.827788],[-82.153349,33.782568],[-82.172383,33.765718],[-82.164195,33.743374],[-82.182991,33.72412],[-82.166031,33.690323],[-82.143928,33.684751],[-82.148451,33.676779],[-82.134485,33.673912],[-82.131745,33.659526],[-82.110478,33.655305],[-82.095531,33.633875],[-82.113665,33.600268],[-82.115331,33.596508],[-82.10938,33.596587],[-82.106244,33.595643],[-82.09882,33.586364],[-82.094132,33.582748],[-82.087492,33.58062],[-82.073108,33.577516],[-82.069043,33.575388],[-82.057731,33.56678],[-82.054947,33.565388],[-82.048963,33.564876],[-82.046339,33.563836],[-82.037379,33.554668],[-82.034899,33.549164],[-82.033027,33.54646],[-82.028242,33.54494],[-82.023442,33.54074],[-82.023442,33.537941],[-82.019842,33.535041],[-82.011994,33.531922],[-81.940521,33.588249],[-81.860345,33.651014],[-81.77837,33.715276],[-81.715537,33.764534],[-81.651762,33.814517],[-81.721149,33.832035],[-81.776409,33.845905],[-81.824627,33.867211],[-81.835189,33.865554],[-81.857907,33.880669],[-81.870363,33.891992],[-81.894598,33.975422],[-81.932047,33.976921],[-82.008302,33.961653]]]},"properties":{"shapeName":"Edgefield","shapeISO":"52423323B30535713106767","shapeGroup":"USA","shapeType":"ADM2","src_shape_id":"52423323B30535713106767","adm1ISO":"US-SC"}},
{"type":"Feature","geometry":{"type":"Polygon","coordinates":[[[-80.616189,34.099612],[-80.636529,34.082989],[-80.613872,34.057331],[-80.606419,34.057989],[-80.600955,34.039393],[-80.625288,34.003711],[-80.646382,33.999669],[-80.633385,33.966974],[-80.615763,33.965479],[-80.628264,33.948788],[-80.62153,33.933765],[-80.634096,33.91734],[-80.617033,33.895526],[-80.625335,33.866818],[-80.633548,33.852687],[-80.619077,33.839315],[-80.615679,33.814521],[-80.596208,33.786438],[-80.605641,33.757483],[-80.62011,33.743244],[-80.629641,33.738927],[-80.615267,33.711842],[-80.589783,33.684245],[-80.565212,33.679719],[-80.565382,33.666082],[-80.534088,33.643918],[-80.497598,33.674327],[-80.478712,33.714272],[-80.454444,33.71353],[-80.449296,33.737535],[-80.430928,33.738313],[-80.425938,33.724097],[-80.434429,33.711897],[-80.392006,33.715557],[-80.396996,33.746871],[-80.397134,33.767828],[-80.274062,33.785875],[-80.262675,33.796006],[-80.255408,33.80409],[-80.195374,33.838989],[-80.135483,33.868772],[-80.121615,33.869562],[-80.042858,33.914272],[-79.974604,33.946534],[-79.89352,33.988024],[-79.903661,34.002252],[-79.955697,34.020556],[-79.999794,34.046264],[-80.000597,34.047884],[-80.026763,34.00855],[-80.070367,34.007927],[-80.164687,33.957312],[-80.180429,33.95209],[-80.188327,34.004843],[-80.228347,33.995185],[-80.249802,33.992173],[-80.269063,34.035107],[-80.294934,34.039444],[-80.303248,34.063229],[-80.321724,34.080363],[-80.378744,34.080708],[-80.405529,34.081376],[-80.481321,34.112629],[-80.47986,34.168703],[-80.580113,34.099956],[-80.618536,34.109177],[-80.616189,34.099612]]]},"properties":{"shapeName":"Sumter","shapeISO":"52423323B67044193776379","shapeGroup":"USA","shapeType":"ADM2","src_shape_id":"52423323B67044193776379","adm1ISO":"US-SC"}},
{"type":"Feature","geometry":{"type":"Polygon","coordinates":[[[-81.193102,33.118674],[-81.2105,33.120643],[-81.264336,33.110829],[-81.323796,33.108316],[-81.36486,33.108067],[-81.453205,33.135027],[-81.541884,33.158285],[-81.614302,33.094667],[-81.610803,33.092636],[-81.609479,33.089868],[-81.610081,33.082889],[-81.606839,33.081723],[-81.60359,33.084584],[-81.600214,33.083972],[-81.598168,33.081084],[-81.598289,33.079159],[-81.600214,33.075188],[-81.599251,33.071819],[-81.594558,33.069893],[-81.590708,33.071217],[-81.588542,33.070856],[-81.583807,33.067027],[-81.578335,33.058942],[-81.572883,33.054186],[-81.566762,33.053769],[-81.563273,33.055574],[-81.559182,33.05413],[-81.559663,33.049076],[-81.557016,33.045106],[-81.553646,33.044143],[-81.546788,33.047151],[-81.544261,33.046911],[-81.542513,33.04526],[-81.538792,33.039191],[-81.519635,33.029187],[-81.513234,33.028552],[-81.511248,33.027792],[-81.502033,33.015119],[-81.492256,33.009348],[-81.491422,33.008084],[-81.4912,32.99783],[-81.49146,32.995443],[-81.494739,32.979004],[-81.499833,32.963822],[-81.501372,32.96292],[-81.505259,32.963025],[-81.507147,32.961336],[-81.508539,32.957162],[-81.507048,32.9512],[-81.504019,32.948097],[-81.499449,32.944994],[-81.499569,32.943728],[-81.502719,32.938694],[-81.50243,32.935359],[-81.499832,32.93262],[-81.495095,32.931602],[-81.483201,32.921808],[-81.480011,32.91345],[-81.479187,32.905644],[-81.465927,32.899895],[-81.464072,32.89782],[-81.464658,32.896005],[-81.470839,32.890527],[-81.477103,32.887475],[-81.479448,32.881088],[-81.475921,32.877647],[-81.470379,32.876273],[-81.468045,32.876681],[-81.453923,32.87408],[-81.452886,32.87297],[-81.451354,32.868589],[-81.45302,32.859642],[-81.455981,32.854113],[-81.452576,32.847956],[-81.444869,32.850973],[-81.443598,32.850634],[-81.426478,32.840779],[-81.421617,32.835184],[-81.417987,32.818202],[-81.419755,32.813737],[-81.423775,32.81052],[-81.424877,32.801888],[-81.425237,32.794196],[-81.425002,32.79034],[-81.428034,32.787624],[-81.42902,32.785511],[-81.428316,32.783116],[-81.426484,32.781426],[-81.422117,32.779312],[-81.421131,32.778045],[-81.421272,32.774664],[-81.424717,32.772654],[-81.426484,32.770297],[-81.426202,32.768325],[-81.422399,32.767057],[-81.417609,32.76269],[-81.415215,32.757759],[-81.416764,32.752265],[-81.415356,32.748885],[-81.411411,32.747335],[-81.410284,32.744659],[-81.393993,32.744873],[-81.367976,32.760607],[-81.338546,32.768462],[-81.329104,32.788806],[-81.261665,32.839145],[-81.276732,32.892092],[-81.260119,32.902985],[-81.237684,32.906737],[-81.236959,32.94025],[-81.219566,32.953356],[-81.082294,33.026636],[-81.086565,33.035207],[-81.101177,33.04911],[-81.124829,33.053454],[-81.148712,33.080911],[-81.193102,33.118674]]]},"properties":{"shapeName":"Allendale","shapeISO":"52423323B67769542433711","shapeGroup":"USA","shapeType":"ADM2","src_shape_id":"52423323B67769542433711","adm1ISO":"US-SC"}},
{"type":"Feature","geometry":{"type":"MultiPolygon","coordinates":[[[[-82.855107,34.609014],[-82.844821,34.618726],[-82.852917,34.618648],[-82.852488,34.614949],[-82.85868,34.621671],[-82.866874,34.617432],[-82.86481,34.613533],[-82.855107,34.609014]]],[[[-82.764468,35.068184],[-82.77005,35.065483],[-82.77738,35.06415],[-82.781977,35.066824],[-82.779932,35.070442],[-82.779932,35.072213],[-82.777411,35.076892],[-82.776361,35.081356],[-82.778655,35.083582],[-82.783287,35.085607],[-82.787871,35.085031],[-82.80977,35.078755],[-82.897503,35.056028],[-82.918179,35.036221],[-82.920593,35.01568],[-82.943608,34.988161],[-82.938643,34.980919],[-82.915789,34.971843],[-82.919193,34.960058],[-82.903183,34.935236],[-82.908477,34.919079],[-82.900256,34.902407],[-82.909292,34.894134],[-82.904855,34.871334],[-82.89631,34.8374],[-82.896729,34.802903],[-82.883524,34.791795],[-82.888984,34.760827],[-82.900148,34.742447],[-82.873319,34.736811],[-82.855429,34.724813],[-82.865591,34.702396],[-82.850152,34.696498],[-82.852506,34.669504],[-82.839871,34.65262],[-82.822818,34.654411],[-82.839311,34.645005],[-82.854896,34.62511],[-82.840159,34.623127],[-82.787572,34.672741],[-82.675613,34.7273],[-82.635427,34.746836],[-82.528389,34.798872],[-82.487207,34.818818],[-82.480534,34.824021],[-82.487192,34.832129],[-82.480337,34.840551],[-82.48914,34.841152],[-82.484618,34.851682],[-82.484349,34.856201],[-82.483563,34.8587],[-82.489116,34.860876],[-82.487147,34.865147],[-82.48894,34.867672],[-82.487515,34.874908],[-82.492538,34.879007],[-82.490182,34.885118],[-82.496255,34.88903],[-82.493788,34.895224],[-82.515963,34.925922],[-82.520759,34.926961],[-82.525788,34.952591],[-82.527415,34.965916],[-82.547822,34.97835],[-82.533631,34.98609],[-82.543136,35.004398],[-82.53787,35.015703],[-82.594145,35.008212],[-82.585756,35.032346],[-82.598822,35.041289],[-82.59232,35.060136],[-82.57489,35.064135],[-82.571382,35.074566],[-82.588602,35.07398],[-82.641157,35.060298],[-82.676666,35.064752],[-82.713855,35.059769],[-82.749355,35.047836],[-82.764468,35.068184]]]]},"properties":{"shapeName":"Pickens","shapeISO":"52423323B51993782969568","shapeGroup":"USA","shapeType":"ADM2","src_shape_id":"52423323B51993782969568","adm1ISO":"US-SC"}},
{"type":"Feature","geometry":{"type":"Polygon","coordinates":[[[-79.446702,33.213464],[-79.458737,33.235225],[-79.473936,33.229777],[-79.482647,33.245923],[-79.493996,33.236036],[-79.546464,33.255462],[-79.549766,33.264985],[-79.561021,33.262321],[-79.562253,33.272529],[-79.606577,33.279326],[-79.630995,33.292935],[-79.664254,33.298329],[-79.677017,33.304951],[-79.709579,33.321253],[-79.73996,33.321613],[-79.756404,33.330113],[-79.761395,33.342255],[-79.781641,33.368227],[-79.796394,33.377646],[-79.807706,33.372806],[-79.813865,33.382328],[-79.854774,33.402775],[-79.860167,33.415117],[-79.877635,33.428478],[-79.867285,33.430564],[-79.894149,33.453657],[-79.910229,33.45572],[-79.914736,33.46349],[-79.970867,33.500696],[-80.00445,33.495741],[-80.012139,33.505179],[-80.082174,33.505735],[-80.1017,33.496898],[-80.123306,33.502535],[-80.152048,33.478579],[-80.144246,33.464113],[-80.150723,33.448184],[-80.191577,33.447514],[-80.208165,33.452298],[-80.208958,33.442669],[-80.22227,33.443723],[-80.225204,33.409344],[-80.222571,33.391295],[-80.238466,33.39116],[-80.239881,33.351383],[-80.247903,33.338169],[-80.253839,33.299266],[-80.294484,33.271262],[-80.314743,33.264113],[-80.344648,33.277854],[-80.357357,33.274781],[-80.361854,33.257449],[-80.34841,33.248928],[-80.330821,33.19843],[-80.296355,33.17946],[-80.310959,33.158361],[-80.335943,33.145469],[-80.251357,33.089704],[-80.183203,33.044771],[-80.164255,33.0323],[-80.149249,33.021607],[-80.132138,33.01049],[-80.102872,33.001182],[-80.098225,32.988112],[-80.087291,32.992064],[-80.055465,32.999518],[-80.050769,32.990994],[-80.039907,32.982588],[-80.042409,32.959584],[-80.041272,32.954992],[-80.011777,32.899887],[-79.99422,32.902775],[-79.950451,32.91018],[-79.964516,32.877956],[-79.959652,32.863845],[-79.951853,32.857123],[-79.933539,32.851829],[-79.928308,32.823989],[-79.919205,32.818997],[-79.91431,32.818898],[-79.906111,32.82325],[-79.896713,32.830478],[-79.897282,32.858772],[-79.863523,32.869917],[-79.843317,32.893662],[-79.836433,32.91958],[-79.827521,32.922333],[-79.82436,32.91988],[-79.802198,32.929922],[-79.783099,32.94317],[-79.770987,32.941866],[-79.763583,32.95818],[-79.769327,32.968551],[-79.762313,32.988714],[-79.729027,33.014095],[-79.714657,33.040648],[-79.703035,33.04594],[-79.67449,33.080863],[-79.660504,33.090838],[-79.645211,33.120484],[-79.612277,33.138452],[-79.560464,33.156409],[-79.533955,33.144041],[-79.521616,33.146714],[-79.512832,33.166182],[-79.496948,33.177433],[-79.492821,33.191827],[-79.473738,33.210372],[-79.46738,33.206489],[-79.446702,33.213464]]]},"properties":{"shapeName":"Berkeley","shapeISO":"52423323B42356104193293","shapeGroup":"USA","shapeType":"ADM2","src_shape_id":"52423323B42356104193293","adm1ISO":"US-SC"}},
{"type":"Feature","geometry":{"type":"Polygon","coordinates":[[[-81.082294,33.026636],[-81.064535,33.013285],[-81.053068,32.989484],[-81.029633,32.973918],[-80.999346,32.931253],[-80.986706,32.90068],[-80.976634,32.897291],[-80.958835,32.876686],[-80.944765,32.875704],[-80.900199,32.832819],[-80.895891,32.810811],[-80.866194,32.775587],[-80.84853,32.73027],[-80.845167,32.720116],[-80.826312,32.704327],[-80.80788,32.689444],[-80.763255,32.675375],[-80.744891,32.674235],[-80.739246,32.68231],[-80.7065,32.67325],[-80.70333,32.664592],[-80.685008,32.672957],[-80.668147,32.667498],[-80.683138,32.652389],[-80.680064,32.643919],[-80.666451,32.64571],[-80.659754,32.612689],[-80.647831,32.596377],[-80.629627,32.590709],[-80.620884,32.581206],[-80.611665,32.589877],[-80.599791,32.581053],[-80.586361,32.586178],[-80.576169,32.577767],[-80.582826,32.566205],[-80.567315,32.566444],[-80.56244,32.550963],[-80.551507,32.565775],[-80.536486,32.52923],[-80.514083,32.513903],[-80.507978,32.505213],[-80.504619,32.496953],[-80.476913,32.485396],[-80.472071,32.49697],[-80.465713,32.495306],[-80.452081,32.497292],[-80.43941,32.503478],[-80.423457,32.497995],[-80.418505,32.4909],[-80.417899,32.476082],[-80.415946,32.47208],[-80.41349,32.470678],[-80.392564,32.475338],[-80.38683,32.478816],[-80.380719,32.486365],[-80.363959,32.496104],[-80.343886,32.490801],[-80.338357,32.478736],[-80.332441,32.47811],[-80.277684,32.516167],[-80.276046,32.51695],[-80.284711,32.530398],[-80.319092,32.511032],[-80.321277,32.523183],[-80.346919,32.526277],[-80.349288,32.51828],[-80.324763,32.503584],[-80.33633,32.493571],[-80.352826,32.500193],[-80.379035,32.530938],[-80.416589,32.546324],[-80.396067,32.561643],[-80.38874,32.574476],[-80.396233,32.596635],[-80.387837,32.609145],[-80.387608,32.61653],[-80.389431,32.618506],[-80.395098,32.619232],[-80.418175,32.60448],[-80.427223,32.625189],[-80.408507,32.626699],[-80.389404,32.652826],[-80.405788,32.653005],[-80.420274,32.66961],[-80.416136,32.695298],[-80.422955,32.714763],[-80.453633,32.739906],[-80.446013,32.76481],[-80.435695,32.787413],[-80.407482,32.811112],[-80.394261,32.844582],[-80.401343,32.858472],[-80.400212,32.872481],[-80.385347,32.886125],[-80.405648,32.914541],[-80.402282,32.946746],[-80.418406,32.976045],[-80.408699,32.984611],[-80.406486,33.019017],[-80.392607,33.027566],[-80.387822,33.032849],[-80.391674,33.044989],[-80.412025,33.046602],[-80.474791,33.0644],[-80.49683,33.063178],[-80.504198,33.057628],[-80.526064,33.061186],[-80.532016,33.069659],[-80.553401,33.062069],[-80.591491,33.057826],[-80.623818,33.066933],[-80.626695,33.075066],[-80.670446,33.103558],[-80.691653,33.13753],[-80.709739,33.156476],[-80.73742,33.170376],[-80.790299,33.180846],[-80.797915,33.17695],[-80.895429,33.125354],[-80.884178,33.086484],[-80.896077,33.061416],[-80.906028,33.060234],[-80.93716,33.10259],[-81.082294,33.026636]]]},"properties":{"shapeName":"Colleton","shapeISO":"52423323B97274503585716","shapeGroup":"USA","shapeType":"ADM2","src_shape_id":"52423323B97274503585716","adm1ISO":"US-SC"}},
{"type":"Feature","geometry":{"type":"Polygon","coordinates":[[[-80.149249,33.021607],[-80.164255,33.0323],[-80.183203,33.044771],[-80.251357,33.089704],[-80.335943,33.145469],[-80.310959,33.158361],[-80.296355,33.17946],[-80.330821,33.19843],[-80.34841,33.248928],[-80.361854,33.257449],[-80.394213,33.264669],[-80.427095,33.257768],[-80.484581,33.28004],[-80.495179,33.302552],[-80.494132,33.321173],[-80.502793,33.334502],[-80.790299,33.180846],[-80.73742,33.170376],[-80.709739,33.156476],[-80.691653,33.13753],[-80.670446,33.103558],[-80.626695,33.075066],[-80.623818,33.066933],[-80.591491,33.057826],[-80.553401,33.062069],[-80.532016,33.069659],[-80.526064,33.061186],[-80.504198,33.057628],[-80.49683,33.063178],[-80.474791,33.0644],[-80.412025,33.046602],[-80.391674,33.044989],[-80.387822,33.032849],[-80.392607,33.027566],[-80.406486,33.019017],[-80.408699,32.984611],[-80.418406,32.976045],[-80.402282,32.946746],[-80.405648,32.914541],[-80.385347,32.886125],[-80.400212,32.872481],[-80.401343,32.858472],[-80.301691,32.851909],[-80.275444,32.843384],[-80.157718,32.818221],[-80.148487,32.81904],[-80.155048,32.825705],[-80.160653,32.840779],[-80.18304,32.846243],[-80.1857,32.860813],[-80.163497,32.85455],[-80.162188,32.87462],[-80.125444,32.889642],[-80.122797,32.901772],[-80.11888,32.893187],[-80.103708,32.893291],[-80.097128,32.886831],[-80.089199,32.90545],[-80.079031,32.927817],[-80.0893,32.936146],[-80.100678,32.946039],[-80.135374,32.975689],[-80.140946,32.979619],[-80.138249,32.981543],[-80.129849,32.979596],[-80.110546,32.985498],[-80.136227,32.999259],[-80.145732,32.984345],[-80.167663,33.002504],[-80.162596,33.010508],[-80.163444,33.014348],[-80.160755,33.020953],[-80.149249,33.021607]]]},"properties":{"shapeName":"Dorchester","shapeISO":"52423323B90119869144557","shapeGroup":"USA","shapeType":"ADM2","src_shape_id":"52423323B90119869144557","adm1ISO":"US-SC"}},
{"type":"Feature","geometry":{"type":"Polygon","coordinates":[[[-79.829984,34.531932],[-79.80388,34.60906],[-79.777464,34.613499],[-79.796093,34.648051],[-79.830457,34.657219],[-79.85501,34.673358],[-79.859391,34.677796],[-79.869618,34.690747],[-79.893042,34.741971],[-79.909738,34.754607],[-79.925243,34.765303],[-79.934325,34.801277],[-79.928012,34.80657],[-80.000544,34.808148],[-80.072915,34.809743],[-80.077226,34.809723],[-80.159255,34.811397],[-80.233963,34.812938],[-80.32081,34.814088],[-80.399874,34.815135],[-80.451663,34.816403],[-80.491817,34.816805],[-80.499791,34.817268],[-80.561713,34.817488],[-80.544482,34.783963],[-80.517874,34.762723],[-80.487736,34.722272],[-80.489763,34.720223],[-80.488535,34.704591],[-80.473068,34.692364],[-80.460785,34.676991],[-80.431651,34.659768],[-80.435039,34.642082],[-80.408376,34.614772],[-80.389891,34.599455],[-80.379385,34.584369],[-80.381386,34.573766],[-80.372339,34.546776],[-80.354775,34.531132],[-80.353637,34.520908],[-80.334735,34.510035],[-80.327593,34.497767],[-80.327408,34.473174],[-80.321218,34.426329],[-80.311444,34.424297],[-80.302218,34.399828],[-80.291407,34.392739],[-80.285541,34.393685],[-80.288599,34.366214],[-80.154247,34.436058],[-80.076514,34.476346],[-80.046083,34.492274],[-80.027832,34.486329],[-79.981041,34.501518],[-79.965325,34.487617],[-79.940643,34.488049],[-79.919849,34.495771],[-79.902079,34.489241],[-79.88497,34.49112],[-79.863644,34.50874],[-79.862031,34.521048],[-79.843679,34.533092],[-79.829984,34.531932]]]},"properties":{"shapeName":"Chesterfield","shapeISO":"52423323B78786867018867","shapeGroup":"USA","shapeType":"ADM2","src_shape_id":"52423323B78786867018867","adm1ISO":"US-SC"}},
{"type":"Feature","geometry":{"type":"Polygon","coordinates":[[[-81.471975,34.076559],[-81.466672,34.087254],[-81.444677,34.077891],[-81.42473,34.083177],[-81.394086,34.071552],[-81.388567,34.080234],[-81.437175,34.12997],[-81.403675,34.177883],[-81.374769,34.179016],[-81.352352,34.196696],[-81.338964,34.197594],[-81.345331,34.205037],[-81.316914,34.239465],[-81.330147,34.259091],[-81.3423,34.266935],[-81.339677,34.289988],[-81.353994,34.302891],[-81.366474,34.325829],[-81.3721,34.351667],[-81.394848,34.387105],[-81.397951,34.40094],[-81.421243,34.453831],[-81.412856,34.467953],[-81.423244,34.494386],[-81.443278,34.495606],[-81.458726,34.48698],[-81.468979,34.494059],[-81.48465,34.49001],[-81.541458,34.445173],[-81.557024,34.463928],[-81.552947,34.476881],[-81.588786,34.497019],[-81.617794,34.525256],[-81.627193,34.521692],[-81.643555,34.533659],[-81.703201,34.452638],[-81.722494,34.449668],[-81.737106,34.430551],[-81.78263,34.365096],[-81.814864,34.347005],[-81.837446,34.342384],[-81.84847,34.323535],[-81.867576,34.316397],[-81.893007,34.302931],[-81.903457,34.262871],[-81.926731,34.219728],[-81.945023,34.203155],[-81.926752,34.195863],[-81.916993,34.176988],[-81.904477,34.176415],[-81.90765,34.167337],[-81.897557,34.14662],[-81.870087,34.135364],[-81.878851,34.156711],[-81.876359,34.167841],[-81.860574,34.17938],[-81.838792,34.172211],[-81.810819,34.175388],[-81.78586,34.166208],[-81.771028,34.173861],[-81.74395,34.179165],[-81.731617,34.18762],[-81.709039,34.173186],[-81.691506,34.17295],[-81.672674,34.156016],[-81.636966,34.146188],[-81.619949,34.124731],[-81.595289,34.118466],[-81.568514,34.099694],[-81.548542,34.093912],[-81.544358,34.087499],[-81.538902,34.081751],[-81.513853,34.08226],[-81.501677,34.074014],[-81.471975,34.076559]]]},"properties":{"shapeName":"Newberry","shapeISO":"52423323B77423065564035","shapeGroup":"USA","shapeType":"ADM2","src_shape_id":"52423323B77423065564035","adm1ISO":"US-SC"}},
{"type":"Feature","geometry":{"type":"Polygon","coordinates":[[[-79.290756,33.110057],[-79.246093,33.124871],[-79.238265,33.137061],[-79.215456,33.155575],[-79.195634,33.166022],[-79.187873,33.173718],[-79.172397,33.206583],[-79.180566,33.237962],[-79.180321,33.254148],[-79.162335,33.327253],[-79.158432,33.332818],[-79.152038,33.350932],[-79.147499,33.37825],[-79.135444,33.403874],[-79.101363,33.461023],[-79.084591,33.483676],[-79.041128,33.52378],[-79.028519,33.533372],[-79.007359,33.566572],[-79.001581,33.572681],[-79.015683,33.569115],[-79.016148,33.572783],[-79.101077,33.572976],[-79.102184,33.581682],[-79.09679,33.600356],[-79.121281,33.604782],[-79.146033,33.657987],[-79.151938,33.658198],[-79.152187,33.677378],[-79.190267,33.705794],[-79.246387,33.695354],[-79.240658,33.704714],[-79.266809,33.70318],[-79.27506,33.708859],[-79.271667,33.721862],[-79.282998,33.715979],[-79.291577,33.728988],[-79.286251,33.737393],[-79.292581,33.750174],[-79.317044,33.779885],[-79.337767,33.774612],[-79.346557,33.755341],[-79.392661,33.711819],[-79.409335,33.688897],[-79.419845,33.648475],[-79.433291,33.621559],[-79.442473,33.59604],[-79.433642,33.576716],[-79.435736,33.572709],[-79.457212,33.558107],[-79.483062,33.537037],[-79.493054,33.520762],[-79.499344,33.515811],[-79.538083,33.496903],[-79.544581,33.487542],[-79.590113,33.443547],[-79.595997,33.421555],[-79.62508,33.390412],[-79.634422,33.372153],[-79.652403,33.361334],[-79.677249,33.336769],[-79.680886,33.319611],[-79.677017,33.304951],[-79.664254,33.298329],[-79.630995,33.292935],[-79.606577,33.279326],[-79.562253,33.272529],[-79.561021,33.262321],[-79.549766,33.264985],[-79.546464,33.255462],[-79.493996,33.236036],[-79.482647,33.245923],[-79.473936,33.229777],[-79.458737,33.235225],[-79.446702,33.213464],[-79.43839,33.215142],[-79.404861,33.184935],[-79.350819,33.153534],[-79.291253,33.146569],[-79.268172,33.134483],[-79.290756,33.110057]]]},"properties":{"shapeName":"Georgetown","shapeISO":"52423323B59284003127327","shapeGroup":"USA","shapeType":"ADM2","src_shape_id":"52423323B59284003127327","adm1ISO":"US-SC"}},
{"type":"Feature","geometry":{"type":"Polygon","coordinates":[[[-81.45726,34.839287],[-81.453312,34.846365],[-81.463066,34.854976],[-81.478733,34.899965],[-81.470977,34.912323],[-81.473845,34.935889],[-81.492388,34.946781],[-81.475878,34.982327],[-81.488289,35.026875],[-81.461403,35.04797],[-81.408687,35.048758],[-81.403713,35.107337],[-81.40134,35.136683],[-81.366603,35.164896],[-81.44563,35.168031],[-81.493404,35.169958],[-81.494268,35.169889],[-81.581684,35.173087],[-81.64671,35.175876],[-81.716262,35.178859],[-81.768112,35.180395],[-81.802085,35.181402],[-81.87469,35.184127],[-81.84245,35.123691],[-81.833749,35.107934],[-81.808966,35.062494],[-81.806256,35.055512],[-81.80765,35.035653],[-81.794335,35.035385],[-81.775426,34.989508],[-81.755086,34.930287],[-81.734834,34.932935],[-81.711697,34.912584],[-81.684601,34.913034],[-81.663634,34.898686],[-81.646723,34.900158],[-81.640695,34.881351],[-81.611605,34.876153],[-81.586736,34.88732],[-81.543536,34.869893],[-81.514875,34.877137],[-81.481948,34.866502],[-81.45726,34.839287]]]},"properties":{"shapeName":"Cherokee","shapeISO":"52423323B2982594216676","shapeGroup":"USA","shapeType":"ADM2","src_shape_id":"52423323B2982594216676","adm1ISO":"US-SC"}},
{"type":"Feature","geometry":{"type":"Polygon","coordinates":[[[-80.288695,34.364146],[-80.301662,34.357343],[-80.32511,34.339298],[-80.363762,34.339554],[-80.365775,34.32816],[-80.353034,34.303337],[-80.382007,34.305195],[-80.400925,34.295203],[-80.421657,34.294308],[-80.437362,34.284509],[-80.431039,34.276639],[-80.430803,34.227004],[-80.443243,34.208733],[-80.454548,34.20797],[-80.46467,34.178556],[-80.47986,34.168703],[-80.481321,34.112629],[-80.405529,34.081376],[-80.378744,34.080708],[-80.321724,34.080363],[-80.303248,34.063229],[-80.294934,34.039444],[-80.269063,34.035107],[-80.249802,33.992173],[-80.228347,33.995185],[-80.188327,34.004843],[-80.180429,33.95209],[-80.164687,33.957312],[-80.070367,34.007927],[-80.026763,34.00855],[-80.000597,34.047884],[-80.025933,34.073233],[-80.069881,34.086198],[-80.076748,34.086112],[-80.097678,34.10748],[-80.133532,34.128384],[-80.15842,34.16124],[-80.11273,34.197025],[-80.111736,34.22862],[-80.117724,34.238326],[-80.123162,34.253467],[-80.134544,34.270314],[-80.135806,34.272444],[-80.135416,34.284559],[-80.164744,34.306284],[-80.175039,34.326278],[-80.177228,34.36621],[-80.191303,34.366698],[-80.206305,34.339062],[-80.244087,34.323708],[-80.252872,34.340721],[-80.279238,34.35175],[-80.288695,34.364146]]]},"properties":{"shapeName":"Lee","shapeISO":"52423323B63410184829220","shapeGroup":"USA","shapeType":"ADM2","src_shape_id":"52423323B63410184829220","adm1ISO":"US-SC"}},
{"type":"Feature","geometry":{"type":"Polygon","coordinates":[[[-82.146796,34.785561],[-82.131816,34.778473],[-82.116036,34.749353],[-82.10978,34.756329],[-82.101263,34.744179],[-82.083917,34.744817],[-82.078968,34.719761],[-82.066659,34.715503],[-82.071625,34.704249],[-82.057838,34.701166],[-82.040921,34.684355],[-82.012301,34.668594],[-82.001444,34.661598],[-81.969876,34.65701],[-81.943895,34.643474],[-81.910847,34.60348],[-81.895297,34.601856],[-81.890879,34.591173],[-81.879308,34.596601],[-81.863279,34.580238],[-81.854006,34.594556],[-81.839465,34.646633],[-81.82436,34.679924],[-81.783393,34.837132],[-81.742703,34.882158],[-81.711697,34.912584],[-81.734834,34.932935],[-81.755086,34.930287],[-81.775426,34.989508],[-81.794335,35.035385],[-81.80765,35.035653],[-81.806256,35.055512],[-81.808966,35.062494],[-81.833749,35.107934],[-81.84245,35.123691],[-81.87469,35.184127],[-81.925616,35.185512],[-81.969349,35.187236],[-82.001426,35.1885],[-82.08959,35.190705],[-82.138951,35.193129],[-82.176878,35.193797],[-82.195487,35.194958],[-82.215944,35.196036],[-82.21969,35.037727],[-82.221978,34.948004],[-82.223429,34.913079],[-82.226542,34.850538],[-82.221889,34.853886],[-82.210819,34.843777],[-82.202814,34.837872],[-82.199886,34.837815],[-82.195984,34.835274],[-82.19372,34.832145],[-82.183424,34.821047],[-82.18083,34.819265],[-82.174693,34.812081],[-82.173163,34.809249],[-82.173145,34.805558],[-82.171378,34.80543],[-82.16609,34.806937],[-82.162549,34.802804],[-82.165097,34.796594],[-82.151573,34.781902],[-82.146796,34.785561]]]},"properties":{"shapeName":"Spartanburg","shapeISO":"52423323B24740485283278","shapeGroup":"USA","shapeType":"ADM2","src_shape_id":"52423323B24740485283278","adm1ISO":"US-SC"}},
{"type":"Feature","geometry":{"type":"Polygon","coordinates":[[[-81.478457,34.821516],[-81.331452,34.822276],[-81.178329,34.820913],[-81.032943,34.821029],[-80.898218,34.820753],[-80.88876,34.831198],[-80.867073,34.847341],[-80.878453,34.861977],[-80.878265,34.902958],[-80.867184,34.929111],[-80.873996,34.965098],[-80.875681,34.965025],[-80.879845,34.962522],[-80.880615,34.965595],[-80.88424,34.968292],[-80.882416,34.970847],[-80.884424,34.975723],[-80.885899,34.976709],[-80.886543,34.980959],[-80.889261,34.985213],[-80.885399,34.990218],[-80.902299,35.005749],[-80.909461,35.01667],[-80.897449,35.033103],[-80.905888,35.04679],[-80.906236,35.076426],[-80.934953,35.107416],[-80.957873,35.092646],[-81.041492,35.04471],[-81.050021,35.055253],[-81.055698,35.060128],[-81.057651,35.06244],[-81.058032,35.073197],[-81.057239,35.086136],[-81.052081,35.096283],[-81.050082,35.098824],[-81.046527,35.100624],[-81.037372,35.102548],[-81.034961,35.104112],[-81.032809,35.108056],[-81.033008,35.113754],[-81.036762,35.122559],[-81.038971,35.126306],[-81.050423,35.131055],[-81.051207,35.133244],[-81.047829,35.14375],[-81.047094,35.145164],[-81.042873,35.149255],[-81.043628,35.149884],[-81.109298,35.154122],[-81.13821,35.155424],[-81.241689,35.160088],[-81.328043,35.163412],[-81.366603,35.164896],[-81.40134,35.136683],[-81.403713,35.107337],[-81.408687,35.048758],[-81.461403,35.04797],[-81.488289,35.026875],[-81.475878,34.982327],[-81.492388,34.946781],[-81.473845,34.935889],[-81.470977,34.912323],[-81.478733,34.899965],[-81.463066,34.854976],[-81.453312,34.846365],[-81.45726,34.839287],[-81.461758,34.831025],[-81.478457,34.821516]]]},"properties":{"shapeName":"York","shapeISO":"52423323B59570542533624","shapeGroup":"USA","shapeType":"ADM2","src_shape_id":"52423323B59570542533624","adm1ISO":"US-SC"}},
{"type":"Feature","geometry":{"type":"Polygon","coordinates":[[[-81.422709,34.572036],[-81.245057,34.563829],[-81.059993,34.553251],[-81.002683,34.547884],[-80.877494,34.543153],[-80.872866,34.552972],[-80.882349,34.584751],[-80.8914,34.596794],[-80.896377,34.635231],[-80.888472,34.66861],[-80.860277,34.695854],[-80.866002,34.706176],[-80.878281,34.759085],[-80.876124,34.788054],[-80.898218,34.820753],[-81.032943,34.821029],[-81.178329,34.820913],[-81.331452,34.822276],[-81.478457,34.821516],[-81.453466,34.781789],[-81.4531,34.76091],[-81.482354,34.744405],[-81.478367,34.723695],[-81.456422,34.723824],[-81.454132,34.693688],[-81.454199,34.675194],[-81.44192,34.653734],[-81.415897,34.633596],[-81.422709,34.572036]]]},"properties":{"shapeName":"Chester","shapeISO":"52423323B83893074042223","shapeGroup":"USA","shapeType":"ADM2","src_shape_id":"52423323B83893074042223","adm1ISO":"US-SC"}},
{"type":"Feature","geometry":{"type":"Polygon","coordinates":[[[-81.651762,33.814517],[-81.715537,33.764534],[-81.77837,33.715276],[-81.860345,33.651014],[-81.940521,33.588249],[-82.011994,33.531922],[-82.010041,33.530441],[-82.007641,33.523341],[-82.001341,33.520141],[-81.991941,33.504441],[-81.990385,33.500765],[-81.990941,33.494241],[-81.989341,33.490042],[-81.985941,33.486542],[-81.98064,33.484042],[-81.97354,33.482642],[-81.96704,33.480642],[-81.94644,33.471743],[-81.94174,33.470043],[-81.934139,33.468343],[-81.929439,33.465843],[-81.926339,33.462943],[-81.920839,33.452044],[-81.913535,33.44128],[-81.913359,33.437424],[-81.916239,33.43312],[-81.924984,33.429294],[-81.926792,33.426582],[-81.927244,33.422852],[-81.924896,33.419313],[-81.921071,33.417425],[-81.919333,33.415619],[-81.920124,33.410759],[-81.923063,33.408272],[-81.93493,33.406012],[-81.936964,33.404203],[-81.937303,33.401265],[-81.935456,33.397857],[-81.930864,33.380082],[-81.92484,33.374146],[-81.92574,33.371146],[-81.930637,33.368171],[-81.93464,33.368946],[-81.93964,33.372546],[-81.94374,33.372346],[-81.94634,33.370646],[-81.94674,33.367346],[-81.94474,33.364047],[-81.93484,33.356047],[-81.93564,33.352047],[-81.93984,33.347747],[-81.93974,33.344947],[-81.93724,33.343647],[-81.93274,33.343547],[-81.92474,33.345347],[-81.917976,33.341596],[-81.91914,33.334448],[-81.91834,33.332848],[-81.913317,33.329538],[-81.911269,33.327622],[-81.909288,33.324187],[-81.906447,33.324187],[-81.902616,33.330264],[-81.900304,33.331123],[-81.89694,33.327648],[-81.897332,33.322337],[-81.88664,33.316949],[-81.88414,33.310449],[-81.875839,33.307449],[-81.870439,33.312949],[-81.867939,33.314049],[-81.853655,33.310332],[-81.847299,33.306789],[-81.846139,33.303849],[-81.849639,33.29955],[-81.857339,33.29955],[-81.861539,33.29795],[-81.863239,33.28885],[-81.861339,33.28625],[-81.851839,33.28355],[-81.844039,33.27865],[-81.83826,33.272981],[-81.83834,33.269104],[-81.840081,33.267046],[-81.847339,33.266351],[-81.85314,33.250751],[-81.851983,33.247388],[-81.846539,33.241752],[-81.837019,33.237658],[-81.831739,33.233552],[-81.827939,33.228752],[-81.819639,33.226652],[-81.811739,33.223853],[-81.809639,33.222653],[-81.808139,33.219453],[-81.807939,33.213753],[-81.805239,33.211453],[-81.790239,33.208453],[-81.784538,33.208153],[-81.778938,33.209853],[-81.777538,33.211353],[-81.777338,33.214953],[-81.781038,33.219853],[-81.778438,33.221853],[-81.774038,33.221153],[-81.768938,33.217453],[-81.767638,33.215753],[-81.763538,33.203654],[-81.761638,33.201754],[-81.758238,33.200254],[-81.757087,33.198128],[-81.516322,33.382317],[-81.378083,33.487138],[-81.372934,33.490423],[-81.3711,33.492443],[-81.335645,33.521772],[-81.215662,33.627801],[-81.187274,33.652944],[-81.207398,33.658883],[-81.277012,33.696213],[-81.285926,33.693108],[-81.302861,33.704679],[-81.357389,33.722873],[-81.415205,33.732124],[-81.426746,33.743204],[-81.43582,33.775454],[-81.460481,33.797163],[-81.4747,33.798435],[-81.512015,33.812808],[-81.533593,33.832161],[-81.546949,33.85869],[-81.560736,33.862652],[-81.571488,33.877237],[-81.584252,33.86735],[-81.651762,33.814517]]]},"properties":{"shapeName":"Aiken","shapeISO":"52423323B95410020978847","shapeGroup":"USA","shapeType":"ADM2","src_shape_id":"52423323B95410020978847","adm1ISO":"US-SC"}},
{"type":"Feature","geometry":{"type":"Polygon","coordinates":[[[-81.222676,33.440006],[-81.242911,33.441142],[-81.263273,33.451569],[-81.301448,33.481224],[-81.344234,33.480897],[-81.372934,33.490423],[-81.378083,33.487138],[-81.516322,33.382317],[-81.757087,33.198128],[-81.760638,33.189254],[-81.765738,33.187954],[-81.772438,33.181255],[-81.772438,33.180455],[-81.766738,33.170755],[-81.764438,33.165555],[-81.763138,33.159455],[-81.755138,33.151556],[-81.743838,33.141456],[-81.724337,33.129457],[-81.717137,33.124057],[-81.704637,33.116457],[-81.696937,33.116557],[-81.683536,33.112657],[-81.658436,33.103158],[-81.646436,33.094558],[-81.642336,33.093158],[-81.637235,33.092958],[-81.632235,33.093958],[-81.617782,33.095283],[-81.614302,33.094667],[-81.541884,33.158285],[-81.453205,33.135027],[-81.36486,33.108067],[-81.323796,33.108316],[-81.264336,33.110829],[-81.2105,33.120643],[-81.193102,33.118674],[-81.206445,33.129641],[-81.215927,33.150121],[-81.227399,33.160772],[-81.220606,33.206024],[-81.220827,33.259155],[-81.21517,33.366261],[-81.213185,33.397872],[-81.222676,33.440006]]]},"properties":{"shapeName":"Barnwell","shapeISO":"52423323B69510084173682","shapeGroup":"USA","shapeType":"ADM2","src_shape_id":"52423323B69510084173682","adm1ISO":"US-SC"}},
{"type":"Feature","geometry":{"type":"Polygon","coordinates":[[[-79.128168,34.253659],[-79.128267,34.23075],[-79.134712,34.225927],[-79.130862,34.221564],[-79.153942,34.207214],[-79.171444,34.181744],[-79.191676,34.176419],[-79.20781,34.145292],[-79.205774,34.13298],[-79.250444,34.089765],[-79.242964,34.067965],[-79.265092,34.043989],[-79.30211,34.029192],[-79.309057,34.008181],[-79.332461,33.995004],[-79.331301,33.979002],[-79.339079,33.969729],[-79.311438,33.942393],[-79.316972,33.93415],[-79.286377,33.89525],[-79.282628,33.900667],[-79.263761,33.892696],[-79.256832,33.878976],[-79.262348,33.839764],[-79.248929,33.829765],[-79.260286,33.814861],[-79.248097,33.784422],[-79.230099,33.76191],[-79.220455,33.756989],[-79.22037,33.748295],[-79.195903,33.727893],[-79.190267,33.705794],[-79.152187,33.677378],[-79.151938,33.658198],[-79.146033,33.657987],[-79.121281,33.604782],[-79.09679,33.600356],[-79.102184,33.581682],[-79.101077,33.572976],[-79.016148,33.572783],[-79.015683,33.569115],[-79.001581,33.572681],[-78.938079,33.639833],[-78.862934,33.705661],[-78.812934,33.743479],[-78.77274,33.768518],[-78.714119,33.800145],[-78.672263,33.817594],[-78.584843,33.844289],[-78.553946,33.847838],[-78.541089,33.851119],[-78.615935,33.91553],[-78.650367,33.944345],[-78.662533,33.954527],[-78.702774,33.989275],[-78.710144,33.994695],[-78.712209,33.996739],[-78.769486,34.045249],[-78.811713,34.081013],[-78.87475,34.134402],[-78.909884,34.163888],[-78.963695,34.209048],[-78.995763,34.235961],[-79.071247,34.29931],[-79.071258,34.299319],[-79.08607,34.294963],[-79.093734,34.277969],[-79.128168,34.253659]]]},"properties":{"shapeName":"Horry","shapeISO":"52423323B30660787387820","shapeGroup":"USA","shapeType":"ADM2","src_shape_id":"52423323B30660787387820","adm1ISO":"US-SC"}},
{"type":"Feature","geometry":{"type":"Polygon","coordinates":[[[-80.825924,34.268767],[-80.903643,34.259256],[-80.961989,34.252017],[-81.040055,34.232786],[-81.042531,34.236603],[-81.06987,34.232253],[-81.095866,34.213879],[-81.181199,34.220292],[-81.16888,34.194382],[-81.178296,34.174559],[-81.226415,34.205694],[-81.251276,34.202953],[-81.278243,34.229639],[-81.296608,34.237398],[-81.316914,34.239465],[-81.345331,34.205037],[-81.338964,34.197594],[-81.314459,34.186912],[-81.302269,34.162402],[-81.311737,34.143403],[-81.311907,34.141187],[-81.288315,34.117536],[-81.275848,34.097388],[-81.233436,34.101775],[-81.172892,34.090152],[-81.171265,34.086886],[-81.152552,34.077405],[-81.139285,34.068348],[-81.12526,34.055747],[-81.121493,34.0516],[-81.110563,34.036907],[-81.103826,34.023323],[-81.055618,34.001742],[-81.045935,33.977346],[-81.019317,33.936762],[-81.017552,33.932128],[-81.029717,33.915461],[-81.008757,33.904109],[-81.012333,33.880087],[-80.996577,33.873815],[-80.999787,33.860609],[-80.98622,33.857471],[-80.985709,33.848737],[-80.965948,33.847855],[-80.950828,33.840902],[-80.940587,33.828489],[-80.913106,33.832941],[-80.917313,33.813742],[-80.898538,33.808774],[-80.879816,33.815627],[-80.865762,33.802726],[-80.837475,33.793913],[-80.829262,33.7782],[-80.815693,33.781076],[-80.807594,33.774218],[-80.782971,33.768906],[-80.784863,33.761015],[-80.759734,33.774004],[-80.74734,33.761749],[-80.746998,33.776454],[-80.73738,33.756624],[-80.72254,33.767353],[-80.686595,33.756],[-80.659054,33.772993],[-80.656402,33.761405],[-80.62011,33.743244],[-80.605641,33.757483],[-80.596208,33.786438],[-80.615679,33.814521],[-80.619077,33.839315],[-80.633548,33.852687],[-80.625335,33.866818],[-80.617033,33.895526],[-80.634096,33.91734],[-80.62153,33.933765],[-80.628264,33.948788],[-80.615763,33.965479],[-80.633385,33.966974],[-80.646382,33.999669],[-80.625288,34.003711],[-80.600955,34.039393],[-80.606419,34.057989],[-80.613872,34.057331],[-80.636529,34.082989],[-80.616189,34.099612],[-80.658848,34.085879],[-80.692968,34.081287],[-80.719321,34.068979],[-80.775519,34.113697],[-80.851382,34.174078],[-80.868512,34.181712],[-80.867057,34.186676],[-80.840954,34.238928],[-80.825924,34.268767]]]},"properties":{"shapeName":"Richland","shapeISO":"52423323B12098340912267","shapeGroup":"USA","shapeType":"ADM2","src_shape_id":"52423323B12098340912267","adm1ISO":"US-SC"}}
]}