{"type":"FeatureCollection","bbox":[-73.437741,42.726862,-71.46504,45.016668],"features":[
{"type":"Feature","id":"USA:ADM2:US-VT.essex","properties":{"shapeName":"Essex","shapeISO":"","shapeGroup":"USA","shapeType":"ADM2","adm1ISO":"US-VT","parentISO":"US-VT","parentID":"USA:ADM1:US-VT","src_shape_id":"52423323B77822845094766"},"geometry":{"type":"Polygon","coordinates":[[[-71.501089,45.013386],[-71.560563,45.012564],[-71.609841,45.012718],[-71.691899,45.011428],[-71.767453,45.011446],[-71.897658,45.008229],[-71.928511,44.907307],[-71.874434,44.876391],[-71.925843,44.832246],[-71.974319,44.786528],[-71.939937,44.769041],[-71.837295,44.716646],[-71.910283,44.647047],[-71.842733,44.611174],[-71.898112,44.557866],[-71.908658,44.547089],[-71.856638,44.496187],[-71.903559,44.454481],[-71.933289,44.441183],[-71.837721,44.347753],[-71.833262,44.350145],[-71.826247,44.352015],[-71.818839,44.352948],[-71.812903,44.355556],[-71.812474,44.358486],[-71.814992,44.363695],[-71.816158,44.367568],[-71.812833,44.370457],[-71.812425,44.372541],[-71.815774,44.375473],[-71.814389,44.381941],[-71.808829,44.383871],[-71.803462,44.383344],[-71.800317,44.384285],[-71.7999,44.38596],[-71.80349,44.390393],[-71.802354,44.393389],[-71.793925,44.39928],[-71.790689,44.400269],[-71.778614,44.399808],[-71.772802,44.403106],[-71.76569,44.406317],[-71.761967,44.407036],[-71.756092,44.40641],[-71.749534,44.401964],[-71.745012,44.401368],[-71.742309,44.402375],[-71.739922,44.406787],[-71.735924,44.410071],[-71.731521,44.411024],[-71.7262,44.411394],[-71.715088,44.410499],[-71.708042,44.411986],[-71.699435,44.416078],[-71.690921,44.421243],[-71.685851,44.423414],[-71.679951,44.427917],[-71.679159,44.432183],[-71.679934,44.434071],[-71.677385,44.435711],[-71.668945,44.436532],[-71.664192,44.43836],[-71.661831,44.440302],[-71.659022,44.444941],[-71.657314,44.454012],[-71.653349,44.460508],[-71.652321,44.461126],[-71.645069,44.460554],[-71.640405,44.464195],[-71.640848,44.465944],[-71.646552,44.468878],[-71.648179,44.472032],[-71.645891,44.47515],[-71.639313,44.477845],[-71.632796,44.483899],[-71.631008,44.484332],[-71.615924,44.485953],[-71.609569,44.484357],[-71.599481,44.486464],[-71.597918,44.488384],[-71.595485,44.494433],[-71.595237,44.496739],[-71.591503,44.499664],[-71.585242,44.501318],[-71.578761,44.501924],[-71.577069,44.50405],[-71.583234,44.508277],[-71.58496,44.51015],[-71.58691,44.514675],[-71.592118,44.517782],[-71.593972,44.519747],[-71.592856,44.523015],[-71.587105,44.522445],[-71.582506,44.524412],[-71.576885,44.530332],[-71.57302,44.536321],[-71.573084,44.537989],[-71.575194,44.540868],[-71.588077,44.547859],[-71.596805,44.553433],[-71.598117,44.555421],[-71.596138,44.560907],[-71.593924,44.563822],[-71.590171,44.565703],[-71.57552,44.564784],[-71.5696,44.562786],[-71.5634,44.563227],[-71.559847,44.564128],[-71.558566,44.565581],[-71.558636,44.570747],[-71.555484,44.57818],[-71.553201,44.580692],[-71.547449,44.578556],[-71.544923,44.579287],[-71.537725,44.584794],[-71.536252,44.58845],[-71.540602,44.590462],[-71.549269,44.593183],[-71.553448,44.59346],[-71.554615,44.595793],[-71.55445,44.598417],[-71.556015,44.601392],[-71.553874,44.607078],[-71.554098,44.609592],[-71.556561,44.616997],[-71.555761,44.624128],[-71.551723,44.627607],[-71.554635,44.632206],[-71.562125,44.636589],[-71.562637,44.639514],[-71.55886,44.640131],[-71.558572,44.644382],[-71.561773,44.650233],[-71.564412,44.652836],[-71.567646,44.653569],[-71.570236,44.650492],[-71.575146,44.650621],[-71.576313,44.653188],[-71.576014,44.6557],[-71.582966,44.65663],[-71.586579,44.659487],[-71.586579,44.66112],[-71.584575,44.66536],[-71.585646,44.669286],[-71.582528,44.672262],[-71.58301,44.674845],[-71.590025,44.675552],[-71.596305,44.679092],[-71.594225,44.683824],[-71.596438,44.687068],[-71.598043,44.692827],[-71.596859,44.69493],[-71.600773,44.700824],[-71.599206,44.703887],[-71.599751,44.705327],[-71.604913,44.708159],[-71.613095,44.718942],[-71.618356,44.722619],[-71.617432,44.728059],[-71.619068,44.729292],[-71.622594,44.727782],[-71.625612,44.730321],[-71.62506,44.737108],[-71.625181,44.743987],[-71.62691,44.747233],[-71.63111,44.748698],[-71.631968,44.750342],[-71.631256,44.753262],[-71.623925,44.755144],[-71.617942,44.755892],[-71.614239,44.758673],[-71.614268,44.760631],[-71.611768,44.764354],[-71.604616,44.767747],[-71.601472,44.772076],[-71.596036,44.775431],[-71.59695,44.778996],[-71.592967,44.782785],[-71.584393,44.785742],[-71.578939,44.786079],[-71.573248,44.791891],[-71.571707,44.794839],[-71.57313,44.797956],[-71.569217,44.808822],[-71.572865,44.810392],[-71.57514,44.813574],[-71.575501,44.816067],[-71.574315,44.818088],[-71.567908,44.823841],[-71.562257,44.824641],[-71.557673,44.83443],[-71.553713,44.836074],[-71.552219,44.837784],[-71.552655,44.842058],[-71.556806,44.848817],[-71.553657,44.852132],[-71.548346,44.855539],[-71.550305,44.859561],[-71.549534,44.862601],[-71.545902,44.866143],[-71.540117,44.868634],[-71.534589,44.869707],[-71.529155,44.873568],[-71.52889,44.876937],[-71.526639,44.879107],[-71.522394,44.88082],[-71.512293,44.890255],[-71.513871,44.894657],[-71.508643,44.897712],[-71.502474,44.902729],[-71.501089,44.904442],[-71.495845,44.904989],[-71.493921,44.910932],[-71.494404,44.911846],[-71.500789,44.914544],[-71.504484,44.919071],[-71.509208,44.923438],[-71.51519,44.927326],[-71.51695,44.939713],[-71.515499,44.943529],[-71.516815,44.947597],[-71.514844,44.95875],[-71.516224,44.964578],[-71.522371,44.966317],[-71.527164,44.973677],[-71.531606,44.976032],[-71.537785,44.984307],[-71.538593,44.988191],[-71.536981,44.994186],[-71.530092,44.999665],[-71.525017,45.00189],[-71.520023,45.0023],[-71.51461,45.003966],[-71.497413,45.003887],[-71.487566,45.000945],[-71.479612,45.002914],[-71.466248,45.011968],[-71.46504,45.013647],[-71.501089,45.013386]]]}},
{"type":"Feature","id":"USA:ADM2:US-VT.orleans","properties":{"shapeName":"Orleans","shapeISO":"","shapeGroup":"USA","shapeType":"ADM2","adm1ISO":"US-VT","parentISO":"US-VT","parentID":"USA:ADM1:US-VT","src_shape_id":"52423323B93976880688423"},"geometry":{"type":"Polygon","coordinates":[[[-71.897658,45.008229],[-71.91501,45.0078],[-71.947202,45.008368],[-71.986706,45.007881],[-72.023293,45.006801],[-72.02974,45.006791],[-72.033615,45.008887],[-72.05217,45.006378],[-72.103059,45.005607],[-72.160507,45.006194],[-72.27087,45.004195],[-72.291867,45.004505],[-72.310074,45.003831],[-72.348584,45.005634],[-72.401299,45.006598],[-72.448866,45.008546],[-72.481034,45.008879],[-72.532504,45.007869],[-72.554361,45.008284],[-72.53803,44.935988],[-72.538744,44.925611],[-72.532639,44.833355],[-72.578162,44.781587],[-72.417316,44.722902],[-72.476652,44.64185],[-72.482303,44.633937],[-72.368152,44.592296],[-72.374787,44.584134],[-72.262966,44.542345],[-72.237434,44.576827],[-72.1466,44.703504],[-72.088865,44.683723],[-72.114504,44.749633],[-72.012505,44.69883],[-72.003979,44.704989],[-71.939937,44.769041],[-71.974319,44.786528],[-71.925843,44.832246],[-71.874434,44.876391],[-71.928511,44.907307],[-71.897658,45.008229]]]}},
{"type":"Feature","id":"USA:ADM2:US-VT.rutland","properties":{"shapeName":"Rutland","shapeISO":"","shapeGroup":"USA","shapeType":"ADM2","adm1ISO":"US-VT","parentISO":"US-VT","parentID":"USA:ADM1:US-VT","src_shape_id":"52423323B74682295131774"},"geometry":{"type":"Polygon","coordinates":[[[-73.362953,43.75319],[-73.369726,43.744283],[-73.370725,43.73558],[-73.369917,43.728798],[-73.370613,43.725338],[-73.377757,43.717721],[-73.382966,43.714067],[-73.385884,43.711345],[-73.391791,43.70349],[-73.393724,43.699209],[-73.398333,43.694634],[-73.402079,43.693115],[-73.40474,43.690222],[-73.405244,43.688376],[-73.403475,43.684703],[-73.404127,43.681348],[-73.407777,43.672528],[-73.408062,43.669447],[-73.414547,43.658218],[-73.415514,43.652459],[-73.418764,43.647889],[-73.42354,43.645685],[-73.426464,43.642607],[-73.428584,43.636552],[-73.427911,43.634437],[-73.41832,43.623334],[-73.417828,43.620595],[-73.423709,43.612365],[-73.421617,43.603032],[-73.424978,43.598784],[-73.430326,43.590541],[-73.430948,43.587045],[-73.428637,43.584003],[-73.426664,43.582983],[-73.420379,43.581498],[-73.416965,43.577739],[-73.40563,43.571188],[-73.398126,43.568074],[-73.395768,43.568096],[-73.391961,43.569924],[-73.384189,43.575521],[-73.38255,43.579202],[-73.383427,43.584736],[-73.383447,43.596787],[-73.377749,43.599665],[-73.373444,43.603301],[-73.372376,43.606023],[-73.376037,43.612605],[-73.369934,43.619102],[-73.372487,43.62276],[-73.37189,43.624498],[-73.3689,43.624719],[-73.365563,43.623449],[-73.358594,43.625074],[-73.347622,43.622518],[-73.342182,43.626079],[-73.327703,43.625922],[-73.323894,43.627638],[-73.317567,43.627364],[-73.31281,43.624611],[-73.310607,43.624123],[-73.307683,43.627501],[-73.306235,43.628027],[-73.302553,43.625717],[-73.302077,43.624373],[-73.300286,43.610815],[-73.298021,43.610037],[-73.293742,43.605212],[-73.292233,43.602559],[-73.292203,43.598169],[-73.293243,43.592567],[-73.296925,43.587332],[-73.292365,43.585113],[-73.295345,43.580244],[-73.293537,43.578527],[-73.284913,43.579281],[-73.281297,43.577588],[-73.279727,43.57425],[-73.269381,43.571982],[-73.2641,43.568893],[-73.258632,43.564958],[-73.252603,43.55686],[-73.248642,43.553866],[-73.250409,43.550434],[-73.250133,43.543438],[-73.246586,43.541864],[-73.242043,43.534934],[-73.241391,43.532354],[-73.241892,43.529427],[-73.246822,43.525789],[-73.247699,43.523182],[-73.246721,43.518884],[-73.247062,43.514928],[-73.248402,43.470452],[-73.252583,43.371006],[-73.253085,43.354723],[-73.254515,43.314679],[-73.122705,43.308691],[-72.986131,43.304837],[-72.991298,43.291651],[-72.975914,43.304453],[-72.867903,43.300751],[-72.866077,43.346979],[-72.853692,43.347593],[-72.85344,43.371085],[-72.825914,43.380299],[-72.7598,43.354153],[-72.758519,43.381962],[-72.7373,43.421788],[-72.723996,43.461703],[-72.727185,43.468726],[-72.749542,43.474437],[-72.771544,43.477871],[-72.770287,43.491841],[-72.791071,43.495009],[-72.774983,43.579384],[-72.77283,43.591574],[-72.758006,43.587526],[-72.700946,43.68284],[-72.820044,43.716843],[-72.806064,43.742439],[-72.818606,43.746314],[-72.782813,43.804347],[-72.79066,43.823853],[-72.831097,43.839025],[-72.837596,43.829186],[-72.873367,43.839642],[-72.874553,43.85814],[-72.958854,43.826551],[-73.016832,43.804962],[-73.029939,43.846725],[-73.156174,43.842323],[-73.218957,43.8373],[-73.206323,43.766784],[-73.231378,43.764478],[-73.362953,43.75319]]]}},
{"type":"Feature","id":"USA:ADM2:US-VT.windsor","properties":{"shapeName":"Windsor","shapeISO":"","shapeGroup":"USA","shapeType":"ADM2","adm1ISO":"US-VT","parentISO":"US-VT","parentID":"USA:ADM1:US-VT","src_shape_id":"52423323B43011596920250"},"geometry":{"type":"Polygon","coordinates":[[[-72.205206,43.770953],[-72.337452,43.809714],[-72.460133,43.8383],[-72.574444,43.873357],[-72.703522,43.909356],[-72.783209,43.928976],[-72.791337,43.961864],[-72.807033,43.940516],[-72.816331,43.937814],[-72.865284,43.861665],[-72.874177,43.864069],[-72.876557,43.902774],[-72.953084,43.874879],[-72.980159,43.882596],[-72.980166,43.863937],[-72.972897,43.866701],[-72.958854,43.826551],[-72.874553,43.85814],[-72.873367,43.839642],[-72.837596,43.829186],[-72.831097,43.839025],[-72.79066,43.823853],[-72.782813,43.804347],[-72.818606,43.746314],[-72.806064,43.742439],[-72.820044,43.716843],[-72.700946,43.68284],[-72.758006,43.587526],[-72.77283,43.591574],[-72.774983,43.579384],[-72.791071,43.495009],[-72.770287,43.491841],[-72.771544,43.477871],[-72.749542,43.474437],[-72.727185,43.468726],[-72.723996,43.461703],[-72.7373,43.421788],[-72.758519,43.381962],[-72.7598,43.354153],[-72.825914,43.380299],[-72.85344,43.371085],[-72.853692,43.347593],[-72.866077,43.346979],[-72.867903,43.300751],[-72.819901,43.299219],[-72.819369,43.255507],[-72.755813,43.239814],[-72.730271,43.233258],[-72.685638,43.222504],[-72.549913,43.235818],[-72.433775,43.233092],[-72.436655,43.238328],[-72.438938,43.244249],[-72.438694,43.252914],[-72.435222,43.258492],[-72.421584,43.263451],[-72.415451,43.271383],[-72.407843,43.282901],[-72.401667,43.303404],[-72.395463,43.313003],[-72.39762,43.317073],[-72.402533,43.320389],[-72.408697,43.327683],[-72.410354,43.331684],[-72.409038,43.334404],[-72.400982,43.345784],[-72.395404,43.350423],[-72.390921,43.354993],[-72.390104,43.356935],[-72.392171,43.357874],[-72.400442,43.357694],[-72.40395,43.358107],[-72.413378,43.36275],[-72.4151,43.365905],[-72.415979,43.37654],[-72.415382,43.38022],[-72.413155,43.384311],[-72.405254,43.390001],[-72.403812,43.391944],[-72.400132,43.411006],[-72.399973,43.415258],[-72.395917,43.430983],[-72.39566,43.43855],[-72.393993,43.444675],[-72.390568,43.451234],[-72.392629,43.465087],[-72.391527,43.468789],[-72.384492,43.474204],[-72.382952,43.476009],[-72.381724,43.4801],[-72.380429,43.488534],[-72.380895,43.493403],[-72.384774,43.500268],[-72.389557,43.503908],[-72.396306,43.508071],[-72.398377,43.510838],[-72.398564,43.513444],[-72.395826,43.520569],[-72.39595,43.523889],[-72.394219,43.527409],[-72.390701,43.52727],[-72.389098,43.528275],[-72.383311,43.535199],[-72.380384,43.540889],[-72.381188,43.554924],[-72.382784,43.562468],[-72.382626,43.564136],[-72.379441,43.574078],[-72.373127,43.579428],[-72.363917,43.583661],[-72.349927,43.587735],[-72.332383,43.599373],[-72.329678,43.600193],[-72.327666,43.602688],[-72.328233,43.606848],[-72.332701,43.610322],[-72.334746,43.614528],[-72.334402,43.619259],[-72.332361,43.625079],[-72.328967,43.627],[-72.327237,43.630543],[-72.329472,43.632852],[-72.329661,43.634657],[-72.327396,43.636783],[-72.322518,43.63891],[-72.315248,43.641173],[-72.314084,43.642819],[-72.313864,43.646567],[-72.31506,43.649424],[-72.314021,43.656167],[-72.310842,43.659733],[-72.305772,43.666544],[-72.304323,43.669516],[-72.303093,43.678087],[-72.306021,43.68307],[-72.305327,43.695779],[-72.302868,43.702727],[-72.299716,43.706567],[-72.294895,43.709012],[-72.292216,43.711342],[-72.286951,43.717261],[-72.284806,43.720369],[-72.279856,43.724642],[-72.276073,43.727063],[-72.271181,43.734147],[-72.264246,43.734167],[-72.245069,43.743102],[-72.232714,43.748295],[-72.223646,43.757851],[-72.220117,43.763635],[-72.216492,43.766516],[-72.210816,43.767705],[-72.205206,43.770953]]]}},
{"type":"Feature","id":"USA:ADM2:US-VT.grand-isle","properties":{"shapeName":"Grand Isle","shapeISO":"","shapeGroup":"USA","shapeType":"ADM2","adm1ISO":"US-VT","parentISO":"US-VT","parentID":"USA:ADM1:US-VT","src_shape_id":"52423323B86601759690165"},"geometry":{"type":"Polygon","coordinates":[[[-73.361488,44.563527],[-73.293812,44.578414],[-73.267743,44.591038],[-73.258379,44.600387],[-73.254466,44.607906],[-73.252757,44.64105],[-73.23321,44.6498],[-73.228855,44.722875],[-73.256322,44.759453],[-73.259061,44.771986],[-73.241881,44.804379],[-73.208865,44.82348],[-73.194021,44.886853],[-73.192788,44.908709],[-73.230778,44.927446],[-73.240995,44.949584],[-73.229712,44.959317],[-73.19193,45.01363],[-73.241062,45.012761],[-73.249324,45.01219],[-73.343126,45.010849],[-73.35019,44.994313],[-73.353431,44.990174],[-73.354635,44.987361],[-73.352888,44.980653],[-73.35022,44.976231],[-73.344742,44.970477],[-73.338736,44.965895],[-73.337908,44.96055],[-73.339605,44.943379],[-73.338484,44.924121],[-73.338981,44.91769],[-73.341108,44.914641],[-73.347839,44.911318],[-73.353659,44.907355],[-73.35622,44.904501],[-73.360329,44.897245],[-73.362231,44.891472],[-73.366461,44.875049],[-73.369105,44.866689],[-73.371969,44.862423],[-73.375711,44.860754],[-73.379824,44.857046],[-73.381399,44.848814],[-73.381361,44.84503],[-73.379454,44.838019],[-73.375347,44.836316],[-73.371331,44.830751],[-73.36568,44.82646],[-73.358082,44.823319],[-73.353474,44.820395],[-73.350202,44.816403],[-73.335445,44.804611],[-73.333935,44.799209],[-73.333156,44.788768],[-73.333773,44.785201],[-73.335715,44.782095],[-73.344256,44.776291],[-73.347074,44.772997],[-73.348696,44.768255],[-73.354363,44.755305],[-73.357673,44.751027],[-73.363793,44.745263],[-73.365563,44.741795],[-73.36507,44.725655],[-73.365562,44.700306],[-73.361325,44.695378],[-73.36131,44.694532],[-73.365299,44.687555],[-73.370144,44.684862],[-73.367416,44.681301],[-73.367211,44.678522],[-73.371845,44.676965],[-73.372722,44.668748],[-73.370067,44.66608],[-73.370592,44.662527],[-73.374136,44.662349],[-73.379076,44.656781],[-73.377975,44.652927],[-73.383159,44.645773],[-73.378563,44.641484],[-73.386785,44.636378],[-73.385901,44.631053],[-73.387348,44.623681],[-73.389968,44.619629],[-73.389822,44.617219],[-73.382934,44.612193],[-73.380728,44.605248],[-73.376851,44.599607],[-73.376334,44.597227],[-73.377899,44.593857],[-73.381642,44.590592],[-73.38185,44.589325],[-73.377796,44.585137],[-73.375668,44.582047],[-73.37439,44.575464],[-73.367276,44.567554],[-73.361488,44.563527]]]}},
{"type":"Feature","id":"USA:ADM2:US-VT.franklin","properties":{"shapeName":"Franklin","shapeISO":"","shapeGroup":"USA","shapeType":"ADM2","adm1ISO":"US-VT","parentISO":"US-VT","parentID":"USA:ADM1:US-VT","src_shape_id":"52423323B67393823438357"},"geometry":{"type":"Polygon","coordinates":[[[-72.554361,45.008284],[-72.555913,45.008313],[-72.582372,45.011552],[-72.589881,45.013246],[-72.674771,45.015468],[-72.777307,45.015882],[-72.845634,45.016668],[-72.9306,45.015161],[-72.936441,45.014276],[-72.96804,45.014107],[-73.014767,45.014989],[-73.01554,45.015081],[-73.048387,45.014799],[-73.052439,45.01573],[-73.059686,45.015878],[-73.065099,45.014795],[-73.08497,45.01476],[-73.085973,45.015503],[-73.19193,45.01363],[-73.229712,44.959317],[-73.240995,44.949584],[-73.230778,44.927446],[-73.192788,44.908709],[-73.194021,44.886853],[-73.208865,44.82348],[-73.241881,44.804379],[-73.259061,44.771986],[-73.256322,44.759453],[-73.228855,44.722875],[-73.128197,44.685534],[-73.038029,44.651166],[-72.924113,44.63306],[-72.92669,44.647241],[-72.92269,44.649779],[-72.902744,44.646184],[-72.890925,44.656953],[-72.851069,44.711079],[-72.795506,44.692209],[-72.783057,44.7403],[-72.771554,44.740271],[-72.767031,44.76638],[-72.756451,44.766447],[-72.744604,44.786466],[-72.675842,44.794222],[-72.612103,44.801596],[-72.578162,44.781587],[-72.532639,44.833355],[-72.538744,44.925611],[-72.53803,44.935988],[-72.554361,45.008284]]]}},
{"type":"Feature","id":"USA:ADM2:US-VT.chittenden","properties":{"shapeName":"Chittenden","shapeISO":"","shapeGroup":"USA","shapeType":"ADM2","adm1ISO":"US-VT","parentISO":"US-VT","parentID":"USA:ADM1:US-VT","src_shape_id":"52423323B83826367261250"},"geometry":{"type":"Polygon","coordinates":[[[-73.313423,44.264208],[-73.270379,44.260115],[-73.196801,44.266643],[-73.133084,44.275064],[-73.069021,44.284073],[-73.016524,44.285341],[-73.020379,44.303753],[-72.973319,44.293429],[-72.965448,44.231402],[-72.952168,44.16128],[-72.895981,44.276293],[-72.911399,44.281778],[-72.87914,44.330035],[-72.855593,44.36556],[-72.826113,44.359199],[-72.804466,44.390477],[-72.839133,44.403364],[-72.804996,44.451685],[-72.838639,44.459238],[-72.803568,44.506181],[-72.830757,44.516439],[-72.80935,44.54793],[-72.829074,44.552282],[-72.910573,44.630864],[-72.924113,44.63306],[-73.038029,44.651166],[-73.128197,44.685534],[-73.228855,44.722875],[-73.23321,44.6498],[-73.252757,44.64105],[-73.254466,44.607906],[-73.258379,44.600387],[-73.267743,44.591038],[-73.293812,44.578414],[-73.361488,44.563527],[-73.360089,44.562555],[-73.356789,44.557927],[-73.350028,44.555401],[-73.342933,44.551916],[-73.338752,44.548055],[-73.338631,44.546853],[-73.338996,44.543311],[-73.331596,44.535933],[-73.330589,44.531043],[-73.328513,44.528487],[-73.323936,44.527129],[-73.322027,44.525298],[-73.321112,44.519866],[-73.320837,44.51364],[-73.319266,44.511969],[-73.312872,44.507255],[-73.306708,44.500343],[-73.304922,44.492218],[-73.304419,44.485748],[-73.299886,44.476661],[-73.29894,44.471313],[-73.298726,44.463966],[-73.300115,44.45472],[-73.295217,44.445893],[-73.293614,44.440568],[-73.293856,44.437565],[-73.296032,44.428348],[-73.310492,44.40261],[-73.312419,44.394719],[-73.315017,44.388522],[-73.31703,44.385987],[-73.320955,44.382678],[-73.33037,44.375996],[-73.333576,44.372297],[-73.33494,44.36445],[-73.334638,44.356886],[-73.327336,44.344378],[-73.325128,44.338543],[-73.323998,44.333851],[-73.323836,44.325427],[-73.324546,44.319256],[-73.32423,44.310032],[-73.322268,44.301532],[-73.316839,44.287692],[-73.3123,44.280034],[-73.311026,44.274249],[-73.313423,44.264208]]]}},
{"type":"Feature","id":"USA:ADM2:US-VT.washington","properties":{"shapeName":"Washington","shapeISO":"","shapeGroup":"USA","shapeType":"ADM2","adm1ISO":"US-VT","parentISO":"US-VT","parentID":"USA:ADM1:US-VT","src_shape_id":"52423323B84121936183506"},"geometry":{"type":"Polygon","coordinates":[[[-72.952168,44.16128],[-72.934286,44.163628],[-72.90902,44.072596],[-72.896905,44.073669],[-72.821554,44.052643],[-72.742304,44.029664],[-72.683773,44.012947],[-72.63479,44.089459],[-72.628911,44.088648],[-72.589334,44.160291],[-72.564002,44.153638],[-72.559689,44.162867],[-72.443033,44.128678],[-72.419748,44.220988],[-72.368354,44.204066],[-72.316303,44.272592],[-72.317622,44.298393],[-72.269851,44.340236],[-72.217105,44.411096],[-72.220268,44.421075],[-72.223711,44.424591],[-72.321278,44.462581],[-72.434316,44.506107],[-72.490549,44.425702],[-72.492915,44.423039],[-72.596808,44.479301],[-72.654399,44.398233],[-72.765857,44.442604],[-72.804996,44.451685],[-72.839133,44.403364],[-72.804466,44.390477],[-72.826113,44.359199],[-72.855593,44.36556],[-72.87914,44.330035],[-72.911399,44.281778],[-72.895981,44.276293],[-72.952168,44.16128]]]}},
{"type":"Feature","id":"USA:ADM2:US-VT.windham","properties":{"shapeName":"Windham","shapeISO":"","shapeGroup":"USA","shapeType":"ADM2","adm1ISO":"US-VT","parentISO":"US-VT","parentID":"USA:ADM1:US-VT","src_shape_id":"52423323B2511363637596"},"geometry":{"type":"Polygon","coordinates":[[[-72.45852,42.726862],[-72.458489,42.729103],[-72.461002,42.733218],[-72.467828,42.741218],[-72.473072,42.745925],[-72.474724,42.750738],[-72.475939,42.757711],[-72.479355,42.763128],[-72.484879,42.765549],[-72.487768,42.769389],[-72.491123,42.772474],[-72.495344,42.773295],[-72.498787,42.77199],[-72.49925,42.769063],[-72.500691,42.767666],[-72.507986,42.764423],[-72.513106,42.763831],[-72.516083,42.765958],[-72.516732,42.768679],[-72.514837,42.771445],[-72.510155,42.77323],[-72.508373,42.774619],[-72.508859,42.779928],[-72.511747,42.784123],[-72.518355,42.79066],[-72.539601,42.804841],[-72.542785,42.808491],[-72.546134,42.823947],[-72.547435,42.832612],[-72.547403,42.837596],[-72.548551,42.84203],[-72.553427,42.846718],[-72.557248,42.853028],[-72.554233,42.860047],[-72.555133,42.86574],[-72.556215,42.866959],[-72.555132,42.871067],[-72.555416,42.875437],[-72.552835,42.884977],[-72.540709,42.889388],[-72.537288,42.891879],[-72.53147,42.897959],[-72.531589,42.907173],[-72.530219,42.911585],[-72.525272,42.914372],[-72.524243,42.91851],[-72.527098,42.928593],[-72.526347,42.935726],[-72.526625,42.93991],[-72.528551,42.945329],[-72.531694,42.946519],[-72.534555,42.949903],[-72.532187,42.954954],[-72.518423,42.963179],[-72.507902,42.96418],[-72.504227,42.965824],[-72.492598,42.967657],[-72.486873,42.971798],[-72.481707,42.973994],[-72.479246,42.973606],[-72.476723,42.971755],[-72.473828,42.972054],[-72.465986,42.978479],[-72.461628,42.982915],[-72.464027,42.986116],[-72.465336,42.989567],[-72.464715,42.993591],[-72.462941,42.996952],[-72.459952,43.000089],[-72.456937,43.001315],[-72.451798,43.000586],[-72.448715,43.001178],[-72.443763,43.006254],[-72.444636,43.010575],[-72.452985,43.01574],[-72.457036,43.017294],[-72.458999,43.019397],[-72.462398,43.025569],[-72.462991,43.02854],[-72.460906,43.03597],[-72.460253,43.04068],[-72.462249,43.044223],[-72.465897,43.047514],[-72.467364,43.052657],[-72.466492,43.054738],[-72.463813,43.057413],[-72.454711,43.063496],[-72.445203,43.071361],[-72.439871,43.077052],[-72.436191,43.081739],[-72.435192,43.086631],[-72.439215,43.094861],[-72.443052,43.10085],[-72.442428,43.103639],[-72.440588,43.106154],[-72.434846,43.109926],[-72.432662,43.114086],[-72.432973,43.119664],[-72.435937,43.12339],[-72.440968,43.127617],[-72.442934,43.130201],[-72.440781,43.131481],[-72.440906,43.135802],[-72.444215,43.137379],[-72.448304,43.137196],[-72.451987,43.138933],[-72.456891,43.146567],[-72.456538,43.149537],[-72.452802,43.151986],[-72.451554,43.155164],[-72.452095,43.161351],[-72.451869,43.170183],[-72.452557,43.172126],[-72.444905,43.177978],[-72.443406,43.179738],[-72.44375,43.18223],[-72.449436,43.189179],[-72.450281,43.192494],[-72.43897,43.201044],[-72.43772,43.202759],[-72.438595,43.209022],[-72.440564,43.215263],[-72.440501,43.219058],[-72.437657,43.225275],[-72.434467,43.230441],[-72.433775,43.233092],[-72.549913,43.235818],[-72.685638,43.222504],[-72.730271,43.233258],[-72.755813,43.239814],[-72.819369,43.255507],[-72.847919,43.262497],[-72.851394,43.205329],[-72.861995,43.205104],[-72.864932,43.166238],[-72.868738,43.113179],[-72.996901,43.119104],[-72.998678,43.109313],[-73.002797,43.022891],[-73.008064,42.930096],[-72.921377,42.926801],[-72.926025,42.829924],[-72.930262,42.739169],[-72.809114,42.73659],[-72.686175,42.733178],[-72.516712,42.728476],[-72.45852,42.726862]]]}},
{"type":"Feature","id":"USA:ADM2:US-VT.orange","properties":{"shapeName":"Orange","shapeISO":"","shapeGroup":"USA","shapeType":"ADM2","adm1ISO":"US-VT","parentISO":"US-VT","parentID":"USA:ADM1:US-VT","src_shape_id":"52423323B71374601240136"},"geometry":{"type":"Polygon","coordinates":[[[-72.04065,44.157856],[-72.045768,44.15741],[-72.166148,44.190947],[-72.174382,44.192192],[-72.304981,44.183158],[-72.368354,44.204066],[-72.419748,44.220988],[-72.443033,44.128678],[-72.559689,44.162867],[-72.564002,44.153638],[-72.589334,44.160291],[-72.628911,44.088648],[-72.63479,44.089459],[-72.683773,44.012947],[-72.742304,44.029664],[-72.791337,43.961864],[-72.783209,43.928976],[-72.703522,43.909356],[-72.574444,43.873357],[-72.460133,43.8383],[-72.337452,43.809714],[-72.205206,43.770953],[-72.204761,43.771272],[-72.205522,43.782288],[-72.204071,43.786106],[-72.197037,43.790015],[-72.193185,43.794706],[-72.190755,43.800816],[-72.184848,43.804707],[-72.183334,43.808186],[-72.184185,43.812533],[-72.186425,43.815866],[-72.188571,43.821162],[-72.186239,43.82694],[-72.183338,43.830708],[-72.182204,43.834041],[-72.182865,43.845118],[-72.18738,43.853621],[-72.187917,43.856135],[-72.184789,43.863402],[-72.182957,43.865344],[-72.179387,43.86619],[-72.174775,43.866395],[-72.167477,43.869159],[-72.171905,43.876158],[-72.173577,43.879679],[-72.172786,43.883725],[-72.170605,43.886397],[-72.167225,43.886122],[-72.16082,43.887232],[-72.159217,43.888322],[-72.158586,43.892771],[-72.155725,43.897129],[-72.151325,43.901713],[-72.145042,43.905297],[-72.135118,43.910033],[-72.121003,43.918965],[-72.118014,43.923301],[-72.116767,43.935287],[-72.118986,43.943234],[-72.11784,43.946837],[-72.115269,43.947638],[-72.110873,43.947663],[-72.105876,43.949379],[-72.104422,43.950545],[-72.09869,43.957669],[-72.100895,43.96086],[-72.110946,43.966968],[-72.114274,43.967522],[-72.114703,43.969487],[-72.112491,43.975663],[-72.111757,43.984952],[-72.112814,43.988029],[-72.116707,43.991963],[-72.116986,43.994489],[-72.10902,44.000544],[-72.103766,44.002846],[-72.103577,44.00424],[-72.105293,44.012672],[-72.102476,44.014891],[-72.098898,44.015486],[-72.09567,44.019692],[-72.095101,44.02184],[-72.092031,44.024468],[-72.085258,44.024476],[-72.081865,44.026961],[-72.079997,44.029773],[-72.075649,44.031663],[-72.075487,44.034623],[-72.079398,44.03954],[-72.079596,44.041438],[-72.077373,44.0446],[-72.066423,44.049308],[-72.062714,44.051627],[-72.06207,44.055556],[-72.056342,44.059591],[-72.053483,44.064739],[-72.04829,44.069145],[-72.048571,44.071368],[-72.042505,44.074648],[-72.039784,44.08128],[-72.047306,44.085391],[-72.048782,44.08715],[-72.046236,44.089547],[-72.040013,44.088771],[-72.036292,44.089245],[-72.032895,44.091449],[-72.031879,44.093368],[-72.031241,44.10011],[-72.032984,44.101664],[-72.039675,44.10338],[-72.054832,44.110146],[-72.054676,44.112156],[-72.052343,44.1199],[-72.046431,44.12392],[-72.041949,44.125662],[-72.037507,44.124717],[-72.033704,44.13155],[-72.03786,44.133791],[-72.041984,44.137174],[-72.042868,44.151297],[-72.040083,44.155758],[-72.04065,44.157856]]]}},
{"type":"Feature","id":"USA:ADM2:US-VT.caledonia","properties":{"shapeName":"Caledonia","shapeISO":"","shapeGroup":"USA","shapeType":"ADM2","adm1ISO":"US-VT","parentISO":"US-VT","parentID":"USA:ADM1:US-VT","src_shape_id":"52423323B73732041573461"},"geometry":{"type":"Polygon","coordinates":[[[-71.837721,44.347753],[-71.933289,44.441183],[-71.903559,44.454481],[-71.856638,44.496187],[-71.908658,44.547089],[-71.898112,44.557866],[-71.842733,44.611174],[-71.910283,44.647047],[-71.837295,44.716646],[-71.939937,44.769041],[-72.003979,44.704989],[-72.012505,44.69883],[-72.114504,44.749633],[-72.088865,44.683723],[-72.1466,44.703504],[-72.237434,44.576827],[-72.262966,44.542345],[-72.374787,44.584134],[-72.429848,44.512054],[-72.434316,44.506107],[-72.321278,44.462581],[-72.223711,44.424591],[-72.220268,44.421075],[-72.217105,44.411096],[-72.269851,44.340236],[-72.317622,44.298393],[-72.316303,44.272592],[-72.368354,44.204066],[-72.304981,44.183158],[-72.174382,44.192192],[-72.166148,44.190947],[-72.045768,44.15741],[-72.04065,44.157856],[-72.042388,44.160826],[-72.047594,44.16181],[-72.053022,44.167912],[-72.057497,44.179453],[-72.061339,44.18496],[-72.066167,44.189782],[-72.064578,44.196958],[-72.060068,44.200455],[-72.058067,44.206076],[-72.058606,44.208224],[-72.053234,44.216885],[-72.052663,44.21885],[-72.053901,44.222712],[-72.053583,44.226049],[-72.050657,44.23359],[-72.04789,44.238502],[-72.050113,44.244055],[-72.053991,44.246935],[-72.059783,44.256027],[-72.061175,44.263386],[-72.064545,44.268006],[-72.066465,44.26834],[-72.067775,44.270985],[-72.065435,44.277244],[-72.058881,44.286249],[-72.053356,44.29051],[-72.046303,44.291992],[-72.037031,44.297843],[-72.032542,44.303761],[-72.032342,44.315761],[-72.033807,44.317358],[-72.033137,44.320374],[-72.029062,44.322407],[-72.025784,44.322063],[-72.019131,44.320392],[-72.009978,44.32196],[-72.002315,44.32488],[-71.988307,44.329777],[-71.986485,44.331227],[-71.984618,44.336252],[-71.981121,44.337509],[-71.963134,44.336565],[-71.95812,44.337553],[-71.945164,44.337753],[-71.93905,44.335853],[-71.935396,44.335779],[-71.929111,44.337586],[-71.925089,44.342033],[-71.917435,44.346544],[-71.90691,44.348293],[-71.902333,44.347508],[-71.881896,44.340218],[-71.875864,44.337379],[-71.869911,44.336971],[-71.861942,44.340118],[-71.852629,44.340882],[-71.84432,44.344213],[-71.837721,44.347753]]]}},
{"type":"Feature","id":"USA:ADM2:US-VT.addison","properties":{"shapeName":"Addison","shapeISO":"","shapeGroup":"USA","shapeType":"ADM2","adm1ISO":"US-VT","parentISO":"US-VT","parentID":"USA:ADM1:US-VT","src_shape_id":"52423323B4110590871178"},"geometry":{"type":"Polygon","coordinates":[[[-73.379331,43.808485],[-73.376362,43.798775],[-73.368185,43.793355],[-73.362499,43.79022],[-73.357548,43.785942],[-73.354759,43.77673],[-73.350594,43.771948],[-73.350708,43.770472],[-73.354598,43.764176],[-73.362953,43.75319],[-73.231378,43.764478],[-73.206323,43.766784],[-73.218957,43.8373],[-73.156174,43.842323],[-73.029939,43.846725],[-73.016832,43.804962],[-72.958854,43.826551],[-72.972897,43.866701],[-72.980166,43.863937],[-72.980159,43.882596],[-72.953084,43.874879],[-72.876557,43.902774],[-72.874177,43.864069],[-72.865284,43.861665],[-72.816331,43.937814],[-72.807033,43.940516],[-72.791337,43.961864],[-72.742304,44.029664],[-72.821554,44.052643],[-72.896905,44.073669],[-72.90902,44.072596],[-72.934286,44.163628],[-72.952168,44.16128],[-72.965448,44.231402],[-72.973319,44.293429],[-73.020379,44.303753],[-73.016524,44.285341],[-73.069021,44.284073],[-73.133084,44.275064],[-73.196801,44.266643],[-73.270379,44.260115],[-73.313423,44.264208],[-73.316619,44.257778],[-73.319803,44.249556],[-73.323597,44.243906],[-73.330501,44.244263],[-73.334043,44.24098],[-73.336779,44.239566],[-73.343231,44.238058],[-73.342313,44.23454],[-73.34989,44.230365],[-73.350807,44.225952],[-73.354748,44.223608],[-73.355277,44.219563],[-73.357909,44.216202],[-73.361477,44.210383],[-73.362014,44.208554],[-73.370679,44.204555],[-73.37529,44.199877],[-73.377694,44.199462],[-73.382253,44.197187],[-73.383988,44.193167],[-73.388503,44.192327],[-73.390806,44.189081],[-73.389659,44.181258],[-73.390384,44.179495],[-73.395863,44.175794],[-73.397386,44.171605],[-73.395533,44.166131],[-73.398729,44.162257],[-73.399635,44.155335],[-73.402382,44.145865],[-73.403269,44.144304],[-73.408119,44.139382],[-73.411721,44.137834],[-73.415762,44.132835],[-73.413752,44.126077],[-73.411723,44.117549],[-73.411317,44.112695],[-73.41632,44.099431],[-73.42924,44.079423],[-73.430208,44.071725],[-73.431992,44.063459],[-73.437741,44.045015],[-73.436881,44.042587],[-73.430773,44.038755],[-73.427988,44.037717],[-73.423121,44.032768],[-73.414365,44.029535],[-73.410777,44.026953],[-73.40774,44.021321],[-73.406,44.016238],[-73.405978,44.011494],[-73.411225,43.986211],[-73.412582,43.982729],[-73.412614,43.979989],[-73.411249,43.975605],[-73.406824,43.967326],[-73.405526,43.948822],[-73.40859,43.932942],[-73.407743,43.929896],[-73.400927,43.917057],[-73.397257,43.905677],[-73.395879,43.903053],[-73.383492,43.89096],[-73.376313,43.880301],[-73.374052,43.875572],[-73.374151,43.874172],[-73.379335,43.864657],[-73.381502,43.859244],[-73.382047,43.855017],[-73.380988,43.852642],[-73.373743,43.847702],[-73.372248,43.845346],[-73.373689,43.842619],[-73.376599,43.839366],[-73.381866,43.837324],[-73.38839,43.832413],[-73.390195,43.829373],[-73.392752,43.822205],[-73.390303,43.81738],[-73.38326,43.813319],[-73.379331,43.808485]]]}},
{"type":"Feature","id":"USA:ADM2:US-VT.lamoille","properties":{"shapeName":"Lamoille","shapeISO":"","shapeGroup":"USA","shapeType":"ADM2","adm1ISO":"US-VT","parentISO":"US-VT","parentID":"USA:ADM1:US-VT","src_shape_id":"52423323B54117752265696"},"geometry":{"type":"Polygon","coordinates":[[[-72.578162,44.781587],[-72.612103,44.801596],[-72.675842,44.794222],[-72.744604,44.786466],[-72.756451,44.766447],[-72.767031,44.76638],[-72.771554,44.740271],[-72.783057,44.7403],[-72.795506,44.692209],[-72.851069,44.711079],[-72.890925,44.656953],[-72.902744,44.646184],[-72.92269,44.649779],[-72.92669,44.647241],[-72.924113,44.63306],[-72.910573,44.630864],[-72.829074,44.552282],[-72.80935,44.54793],[-72.830757,44.516439],[-72.803568,44.506181],[-72.838639,44.459238],[-72.804996,44.451685],[-72.765857,44.442604],[-72.654399,44.398233],[-72.596808,44.479301],[-72.492915,44.423039],[-72.490549,44.425702],[-72.434316,44.506107],[-72.429848,44.512054],[-72.374787,44.584134],[-72.368152,44.592296],[-72.482303,44.633937],[-72.476652,44.64185],[-72.417316,44.722902],[-72.578162,44.781587]]]}},
{"type":"Feature","id":"USA:ADM2:US-VT.bennington","properties":{"shapeName":"Bennington","shapeISO":"","shapeGroup":"USA","shapeType":"ADM2","adm1ISO":"US-VT","parentISO":"US-VT","parentID":"USA:ADM1:US-VT","src_shape_id":"52423323B50806890780295"},"geometry":{"type":"Polygon","coordinates":[[[-73.023016,42.741144],[-72.930262,42.739169],[-72.926025,42.829924],[-72.921377,42.926801],[-73.008064,42.930096],[-73.002797,43.022891],[-72.998678,43.109313],[-72.996901,43.119104],[-72.868738,43.113179],[-72.864932,43.166238],[-72.861995,43.205104],[-72.851394,43.205329],[-72.847919,43.262497],[-72.819369,43.255507],[-72.819901,43.299219],[-72.867903,43.300751],[-72.975914,43.304453],[-72.991298,43.291651],[-72.986131,43.304837],[-73.122705,43.308691],[-73.254515,43.314679],[-73.256494,43.259258],[-73.258719,43.229903],[-73.265575,43.096232],[-73.269781,43.035932],[-73.274295,42.943661],[-73.275805,42.897258],[-73.278674,42.833419],[-73.284312,42.834963],[-73.285389,42.834102],[-73.287064,42.820149],[-73.283751,42.813873],[-73.286338,42.808047],[-73.290945,42.801929],[-73.276422,42.746028],[-73.264958,42.745949],[-73.142495,42.743517],[-73.023016,42.741144]]]}}
]}