{"type":"FeatureCollection","bbox":[18.845,42.2349,22.9353,46.1642],"features":[
{"type":"Feature","id":"SRB:ADM0:SRB","properties":{"shapeName":"Serbia","shapeISO":"SRB","shapeType":"ADM0"},"geometry":{"type":"Polygon","coordinates":[[[20.2428,46.1081],[19.5499,46.1642],[19.2635,45.9814],[18.9013,45.9312],[18.845,45.8157],[19.0181,45.5674],[18.9755,45.3911],[19.1417,45.1622],[19.0852,44.9873],[19.3687,44.8871],[19.1299,44.5183],[19.1772,44.287],[19.6189,44.0357],[19.2754,43.9333],[19.4617,43.7621],[19.4817,43.5608],[19.3556,43.3931],[19.6187,43.1682],[19.9292,43.1139],[20.1169,42.9767],[20.4764,42.9664],[20.8386,43.1705],[21.0926,43.0907],[21.3787,42.7441],[21.7387,42.6822],[21.6174,42.3866],[21.6769,42.2349],[21.9415,42.3331],[22.424,42.3259],[22.506,42.8701],[22.727,42.8869],[22.9353,43.0856],[22.8045,43.329],[22.5189,43.4742],[22.3495,43.8079],[22.3996,43.9933],[22.6047,44.0794],[22.6815,44.3053],[22.3197,44.6853],[21.6563,44.6877],[21.3685,44.8649],[21.4933,45.1451],[20.9815,45.3328],[20.7607,45.4933],[20.7134,45.7333],[20.2428,46.1081]]]}}
]}