{"type":"FeatureCollection","bbox":[15.7243,42.55719,19.62278,45.270542],"features":[
{"type":"Feature","id":"BIH:ADM1:BA-BRC","properties":{"shapeName":"Brčko District","shapeISO":"BA-BRC","shapeGroup":"BIH","shapeType":"ADM1","parentISO":"BIH","parentID":"BIH:ADM0:BIH","src_shape_id":"54001226B82378099338701"},"geometry":{"type":"Polygon","coordinates":[[[18.785485,44.966562],[18.774677,44.966768],[18.765028,44.963055],[18.754532,44.957186],[18.746914,44.951555],[18.745017,44.949242],[18.737434,44.94209],[18.718643,44.940053],[18.704762,44.939573],[18.69816,44.936817],[18.68614,44.92735],[18.680046,44.924233],[18.670905,44.921237],[18.663625,44.917161],[18.6577,44.911167],[18.650929,44.90805],[18.639417,44.900016],[18.6318,44.888983],[18.627398,44.874709],[18.618934,44.865711],[18.614363,44.859832],[18.612332,44.854791],[18.605899,44.84543],[18.597942,44.838468],[18.58897,44.837148],[18.576612,44.834267],[18.575293,44.832521],[18.571202,44.827107],[18.566543,44.819499],[18.559393,44.813812],[18.550075,44.810045],[18.544875,44.811583],[18.541191,44.814734],[18.53664,44.817193],[18.530573,44.818961],[18.523531,44.817654],[18.522448,44.809507],[18.52689,44.804127],[18.533499,44.79936],[18.541191,44.79444],[18.543141,44.78998],[18.542166,44.786059],[18.538157,44.782906],[18.537507,44.780753],[18.546933,44.774139],[18.549858,44.768524],[18.548342,44.76437],[18.548992,44.758293],[18.551917,44.754292],[18.558309,44.748752],[18.574344,44.735439],[18.575861,44.730437],[18.579436,44.726665],[18.581928,44.726434],[18.58507,44.728358],[18.589295,44.728974],[18.596338,44.728897],[18.603813,44.72628],[18.60858,44.725048],[18.616164,44.72551],[18.62624,44.727896],[18.636966,44.72882],[18.64325,44.725356],[18.646717,44.718582],[18.650942,44.71481],[18.656468,44.712269],[18.663944,44.713193],[18.667519,44.715425],[18.672069,44.71658],[18.677053,44.715271],[18.686371,44.716272],[18.693331,44.720682],[18.699502,44.725067],[18.704425,44.732604],[18.711844,44.739155],[18.717808,44.742701],[18.728278,44.745656],[18.738917,44.747829],[18.74921,44.749137],[18.754735,44.750676],[18.762103,44.750445],[18.766978,44.748906],[18.772287,44.745751],[18.778029,44.743212],[18.782363,44.741904],[18.787671,44.743366],[18.792655,44.746444],[18.801874,44.752874],[18.805873,44.755985],[18.818333,44.763216],[18.821739,44.770245],[18.824616,44.77385],[18.846793,44.777095],[18.866769,44.776494],[18.875741,44.775893],[18.89013,44.774211],[18.89724,44.770726],[18.90672,44.768322],[18.912815,44.770005],[18.918232,44.772889],[18.923987,44.778657],[18.933637,44.793676],[18.939392,44.800763],[18.944132,44.815056],[18.948026,44.8219],[18.956321,44.827303],[18.962923,44.828384],[18.975958,44.827784],[18.982391,44.825022],[18.988485,44.819979],[18.992887,44.819018],[18.998291,44.820114],[19.002299,44.823879],[19.002516,44.830411],[18.998399,44.833714],[18.99634,44.836865],[18.999916,44.841167],[19.005441,44.846314],[19.005875,44.852421],[18.997965,44.854551],[18.993903,44.855151],[18.98747,44.852991],[18.973419,44.853111],[18.958522,44.849271],[18.927712,44.84579],[18.910053,44.846135],[18.900002,44.843697],[18.876989,44.846885],[18.855564,44.852699],[18.837842,44.861136],[18.822765,44.87126],[18.811127,44.880819],[18.795785,44.888878],[18.777269,44.893001],[18.770921,44.89806],[18.766382,44.90769],[18.765028,44.913684],[18.759103,44.921237],[18.755378,44.929747],[18.756902,44.93502],[18.760626,44.937656],[18.774508,44.930945],[18.782634,44.928428],[18.79296,44.932383],[18.800409,44.934421],[18.813613,44.939214],[18.811412,44.943168],[18.803456,44.947002],[18.796515,44.949758],[18.78822,44.957066],[18.785173,44.962696],[18.785485,44.966562]]]}},
{"type":"Feature","id":"BIH:ADM1:BA-SRP","properties":{"shapeName":"Republika Srpska","shapeISO":"BA-SRP","shapeGroup":"BIH","shapeType":"ADM1","parentISO":"BIH","parentID":"BIH:ADM0:BIH","src_shape_id":"54001226B66267900922909"},"geometry":{"type":"MultiPolygon","coordinates":[[[[19.42135,43.543405],[19.427783,43.547455],[19.432523,43.55224],[19.432523,43.556411],[19.424059,43.565243],[19.41898,43.567206],[19.410346,43.563281],[19.399512,43.554571],[19.401544,43.551994],[19.405776,43.550767],[19.408992,43.547332],[19.411701,43.542915],[19.416102,43.541074],[19.42135,43.543405]]],[[[18.801874,44.752874],[18.816491,44.742115],[18.822416,44.735021],[18.824955,44.729248],[18.822924,44.721069],[18.818522,44.714333],[18.807349,44.705069],[18.791267,44.701941],[18.775524,44.69448],[18.758879,44.689626],[18.749737,44.685146],[18.742326,44.679435],[18.737834,44.674761],[18.736209,44.668443],[18.736967,44.661508],[18.741497,44.650781],[18.740312,44.620063],[18.743698,44.615363],[18.749115,44.611748],[18.758256,44.603553],[18.776878,44.594512],[18.788051,44.591016],[18.790759,44.588002],[18.793739,44.574517],[18.795039,44.56456],[18.800239,44.559157],[18.808798,44.554834],[18.819524,44.552826],[18.832959,44.552672],[18.840529,44.554235],[18.845269,44.552667],[18.850348,44.549892],[18.857966,44.537827],[18.863891,44.536017],[18.87591,44.534931],[18.891654,44.531311],[18.90452,44.530225],[18.914846,44.530587],[18.925172,44.533724],[18.932113,44.543619],[18.935499,44.55134],[18.934314,44.561955],[18.934314,44.573413],[18.940577,44.582456],[18.945995,44.588484],[18.952597,44.595235],[18.957845,44.601262],[18.959876,44.60753],[18.968002,44.615484],[18.975789,44.61693],[18.995765,44.616448],[19.007276,44.615363],[19.017264,44.61235],[19.029283,44.607048],[19.032838,44.602588],[19.032838,44.579201],[19.027421,44.566538],[19.02539,44.562679],[19.028776,44.55713],[19.03487,44.551943],[19.03487,44.544222],[19.024036,44.539637],[19.013878,44.532759],[19.010323,44.528294],[19.011001,44.523828],[19.020142,44.519966],[19.026575,44.516828],[19.025908,44.510407],[19.021147,44.50588],[19.016386,44.500598],[19.010831,44.492862],[19.004218,44.493051],[19.000515,44.49456],[18.996019,44.494938],[18.987554,44.487956],[18.992845,44.474934],[18.994432,44.467573],[18.985174,44.464175],[18.978297,44.464364],[18.972213,44.463042],[18.964542,44.455113],[18.96322,44.446994],[18.956078,44.441517],[18.9492,44.437551],[18.945311,44.432957],[18.944877,44.428547],[18.942819,44.42375],[18.935885,44.413071],[18.930251,44.40866],[18.921692,44.405951],[18.910749,44.406028],[18.902624,44.408892],[18.892873,44.414464],[18.885722,44.413535],[18.874021,44.405873],[18.869146,44.403938],[18.867845,44.40208],[18.868062,44.399139],[18.874021,44.391088],[18.874563,44.386752],[18.873913,44.383345],[18.863512,44.380945],[18.858745,44.377151],[18.854844,44.372504],[18.846935,44.369406],[18.836318,44.369484],[18.827542,44.368245],[18.821908,44.363907],[18.818549,44.359182],[18.815407,44.3519],[18.805995,44.347228],[18.792114,44.345896],[18.782295,44.342869],[18.767567,44.330882],[18.763504,44.326038],[18.762827,44.322284],[18.760796,44.318287],[18.754024,44.311625],[18.748268,44.300965],[18.746914,44.29115],[18.758764,44.272365],[18.761811,44.239871],[18.768752,44.231987],[18.777555,44.218885],[18.783988,44.206995],[18.792621,44.202747],[18.80007,44.20032],[18.804641,44.198014],[18.809889,44.190003],[18.807349,44.184055],[18.800578,44.179563],[18.796176,44.177864],[18.793806,44.174221],[18.799562,44.166086],[18.796346,44.1622],[18.784665,44.152605],[18.780771,44.147139],[18.777894,44.132439],[18.775185,44.126364],[18.770953,44.121989],[18.766551,44.120288],[18.759441,44.122111],[18.749284,44.119923],[18.742005,44.116399],[18.730663,44.115062],[18.69008,44.097582],[18.647098,44.076504],[18.611554,44.056014],[18.60858,44.051084],[18.605872,44.048203],[18.603055,44.043608],[18.598288,44.031068],[18.592871,44.023746],[18.583878,44.020707],[18.568385,44.010267],[18.562534,43.987899],[18.554842,43.984703],[18.543466,43.982754],[18.537291,43.978622],[18.535015,43.973632],[18.529056,43.967004],[18.520064,43.961702],[18.517572,43.95788],[18.524506,43.954916],[18.530736,43.950027],[18.535137,43.948321],[18.536661,43.943445],[18.538692,43.932474],[18.54394,43.93284],[18.548849,43.934547],[18.554436,43.933937],[18.557144,43.931011],[18.566286,43.924427],[18.567979,43.920647],[18.564932,43.912233],[18.560584,43.90334],[18.551375,43.888272],[18.546283,43.882259],[18.537291,43.875465],[18.531548,43.868514],[18.536749,43.859374],[18.535124,43.85164],[18.528948,43.84828],[18.515839,43.839685],[18.505329,43.831948],[18.49547,43.817644],[18.490615,43.810192],[18.483505,43.800907],[18.473009,43.799441],[18.462683,43.800418],[18.45151,43.80555],[18.43729,43.812513],[18.424763,43.823384],[18.421208,43.833399],[18.422772,43.840544],[18.419522,43.842342],[18.412154,43.843357],[18.399153,43.839607],[18.389551,43.834498],[18.378209,43.830834],[18.370253,43.828758],[18.361619,43.823995],[18.356371,43.819964],[18.351123,43.815323],[18.345029,43.809337],[18.334872,43.802251],[18.335549,43.79663],[18.338088,43.791743],[18.324376,43.78551],[18.325561,43.781966],[18.329116,43.776465],[18.342151,43.772554],[18.352647,43.769987],[18.361111,43.764363],[18.363989,43.75825],[18.364158,43.753359],[18.365851,43.746022],[18.368729,43.74113],[18.374993,43.734892],[18.38278,43.730733],[18.398862,43.725228],[18.40262,43.717966],[18.405004,43.712093],[18.408687,43.707237],[18.420497,43.703399],[18.441082,43.703086],[18.459175,43.706846],[18.479002,43.70802],[18.530059,43.706875],[18.550034,43.705774],[18.557822,43.703081],[18.566624,43.695493],[18.578305,43.688761],[18.602175,43.676763],[18.622827,43.66807],[18.627737,43.665621],[18.634508,43.666845],[18.642803,43.671253],[18.650421,43.673947],[18.6555,43.675049],[18.661425,43.672968],[18.668196,43.669172],[18.67666,43.665498],[18.68394,43.665131],[18.700191,43.672723],[18.714581,43.684844],[18.728293,43.705406],[18.747083,43.726819],[18.762488,43.738195],[18.779586,43.752136],[18.78822,43.756294],[18.797869,43.760084],[18.829018,43.758617],[18.834151,43.756949],[18.846393,43.754915],[18.865787,43.755541],[18.879655,43.757497],[18.89699,43.760549],[18.90198,43.762774],[18.908752,43.763018],[18.910952,43.760695],[18.914677,43.748712],[18.924726,43.742705],[18.929384,43.738165],[18.93231,43.732059],[18.936535,43.725483],[18.94076,43.720941],[18.942927,43.717653],[18.943625,43.707242],[18.945317,43.699165],[18.948026,43.694881],[18.957168,43.682518],[18.960384,43.677743],[18.966648,43.674559],[18.976128,43.676396],[18.984423,43.677253],[18.98984,43.674437],[18.995257,43.670764],[19.000505,43.665743],[19.002705,43.661457],[19.005414,43.653006],[18.995257,43.648077],[18.98854,43.64353],[18.977489,43.636552],[18.968821,43.63169],[18.945202,43.621887],[18.933718,43.613338],[18.923425,43.607689],[18.911399,43.606983],[18.90284,43.601806],[18.893739,43.591134],[18.878896,43.578107],[18.852352,43.573241],[18.82245,43.566176],[18.814565,43.563856],[18.762986,43.564814],[18.747909,43.569989],[18.738122,43.575738],[18.721987,43.581103],[18.708497,43.583594],[18.693684,43.597005],[18.679401,43.603326],[18.66286,43.603296],[18.650401,43.605022],[18.631224,43.607062],[18.617464,43.604708],[18.613347,43.603625],[18.59845,43.600805],[18.589139,43.598721],[18.581522,43.596024],[18.575766,43.598599],[18.569502,43.602889],[18.557991,43.609876],[18.545633,43.614411],[18.541232,43.620662],[18.539708,43.627401],[18.529043,43.637326],[18.518209,43.639164],[18.513638,43.637449],[18.505681,43.636223],[18.499079,43.637816],[18.487737,43.641246],[18.470301,43.643942],[18.464037,43.651291],[18.45862,43.660232],[18.454896,43.664029],[18.447955,43.665253],[18.43729,43.662069],[18.428318,43.656436],[18.421038,43.648107],[18.410881,43.639409],[18.405803,43.631813],[18.399031,43.623113],[18.392768,43.61674],[18.384134,43.60865],[18.3755,43.596392],[18.371776,43.581923],[18.366217,43.565469],[18.362425,43.562407],[18.357116,43.560052],[18.351915,43.560759],[18.346282,43.562643],[18.339673,43.561544],[18.334364,43.558011],[18.328405,43.547803],[18.329813,43.542384],[18.332163,43.535797],[18.336565,43.528065],[18.333687,43.484354],[18.318134,43.484656],[18.311131,43.482594],[18.293588,43.472983],[18.290688,43.469613],[18.276807,43.470227],[18.257847,43.47809],[18.242949,43.481283],[18.228391,43.481898],[18.217726,43.480669],[18.210785,43.47723],[18.212139,43.471087],[18.213832,43.468139],[18.214171,43.464207],[18.211124,43.46089],[18.203675,43.462118],[18.195549,43.468016],[18.189963,43.47121],[18.179467,43.475264],[18.172865,43.479932],[18.168294,43.480792],[18.160507,43.478827],[18.154413,43.47465],[18.146456,43.470473],[18.136638,43.473544],[18.084159,43.476738],[18.008488,43.479072],[18.00087,43.47551],[17.989528,43.466787],[17.975647,43.458924],[17.969891,43.452533],[17.968537,43.442087],[17.973446,43.433605],[17.9748,43.429671],[17.97243,43.425491],[17.963797,43.415655],[17.960242,43.412334],[17.955671,43.407046],[17.951269,43.395977],[17.947767,43.388034],[17.946445,43.379576],[17.94909,43.373231],[17.954909,43.367463],[17.964431,43.362656],[17.971838,43.356694],[17.97845,43.346308],[17.987179,43.335727],[17.993792,43.326876],[17.998024,43.31533],[17.998289,43.300702],[17.99409,43.266692],[17.98789,43.247729],[17.976731,43.235084],[17.965572,43.227857],[17.950693,43.217617],[17.937881,43.212196],[17.926722,43.209786],[17.918747,43.205933],[17.905633,43.190738],[17.899115,43.18088],[17.894599,43.177517],[17.891674,43.173804],[17.891566,43.170643],[17.895358,43.165191],[17.9037,43.159817],[17.928836,43.152388],[17.932519,43.150491],[17.938153,43.144641],[17.93967,43.137842],[17.936745,43.132861],[17.92721,43.119261],[17.92656,43.11325],[17.929811,43.109058],[17.943895,43.107476],[17.964589,43.107081],[17.97824,43.106211],[17.985932,43.104629],[17.990049,43.101702],[17.993555,43.084078],[17.99418,43.074911],[17.990435,43.069491],[17.979549,43.063361],[17.969464,43.060474],[17.964697,43.057861],[17.956788,43.047728],[17.955596,43.041156],[17.952671,43.03688],[17.944112,43.033474],[17.937828,43.025792],[17.936034,43.017911],[17.937727,43.011598],[17.939589,43.007266],[17.940097,43.003428],[17.938234,42.998352],[17.927908,42.989437],[17.921475,42.981387],[17.920967,42.977053],[17.925707,42.973832],[17.932648,42.967515],[17.938234,42.961445],[17.943482,42.958472],[17.950592,42.956861],[17.955813,42.954071],[17.957438,42.949313],[17.959063,42.942096],[17.962639,42.933054],[17.970114,42.920281],[17.975816,42.908647],[17.977001,42.898975],[17.982926,42.876277],[17.990374,42.862132],[17.999347,42.851088],[18.013059,42.847985],[18.025078,42.8424],[18.033712,42.828],[18.046747,42.820426],[18.059443,42.816204],[18.066723,42.813348],[18.071801,42.808877],[18.080265,42.797947],[18.089238,42.787761],[18.109552,42.774093],[18.115138,42.770987],[18.117001,42.766637],[18.114969,42.763157],[18.114123,42.760174],[18.114969,42.757067],[18.119878,42.754208],[18.124618,42.752716],[18.140362,42.746874],[18.154582,42.742025],[18.166771,42.742274],[18.175574,42.738171],[18.196565,42.722254],[18.200966,42.716782],[18.216033,42.701606],[18.230253,42.689413],[18.231777,42.680826],[18.23804,42.672239],[18.247182,42.667882],[18.257,42.663899],[18.264957,42.659666],[18.273082,42.653815],[18.279854,42.649955],[18.286964,42.643231],[18.292381,42.635137],[18.298137,42.628287],[18.301194,42.623466],[18.313034,42.618321],[18.31625,42.619567],[18.328777,42.619318],[18.336395,42.616827],[18.355863,42.612964],[18.365851,42.608479],[18.371607,42.597888],[18.377376,42.592295],[18.387885,42.591896],[18.39742,42.590141],[18.405979,42.585993],[18.413021,42.579851],[18.419522,42.573309],[18.426564,42.568522],[18.428731,42.563175],[18.43404,42.559185],[18.439132,42.55719],[18.446932,42.558068],[18.452025,42.562058],[18.461125,42.564213],[18.467626,42.562537],[18.473801,42.561819],[18.484202,42.56541],[18.49547,42.582643],[18.504788,42.58376],[18.516164,42.5836],[18.524723,42.582324],[18.527973,42.579691],[18.533499,42.578415],[18.538482,42.578654],[18.544116,42.58017],[18.550725,42.582962],[18.553975,42.585355],[18.549425,42.591258],[18.538916,42.596123],[18.529923,42.602982],[18.53014,42.620604],[18.534149,42.629612],[18.540107,42.635909],[18.550075,42.642285],[18.568385,42.642524],[18.581603,42.643401],[18.58832,42.647704],[18.58702,42.651051],[18.579653,42.65631],[18.569902,42.662286],[18.563239,42.665393],[18.556637,42.674977],[18.561715,42.685057],[18.562392,42.706209],[18.564762,42.712926],[18.569672,42.717279],[18.575597,42.721757],[18.576612,42.726482],[18.575258,42.733943],[18.571703,42.735063],[18.562562,42.730213],[18.558499,42.727477],[18.549019,42.723622],[18.542247,42.724617],[18.534122,42.729218],[18.514315,42.735809],[18.499756,42.74215],[18.490615,42.751473],[18.476903,42.764276],[18.469116,42.775833],[18.465222,42.783909],[18.461159,42.791363],[18.458789,42.802791],[18.456081,42.809249],[18.458958,42.81608],[18.464037,42.820301],[18.467592,42.823902],[18.472671,42.830234],[18.473179,42.833214],[18.464037,42.838428],[18.461328,42.843765],[18.46573,42.848233],[18.469454,42.850964],[18.474993,42.8563],[18.480627,42.859],[18.487994,42.860906],[18.49417,42.863289],[18.493195,42.867021],[18.485611,42.870436],[18.482686,42.874247],[18.487344,42.877105],[18.501862,42.881869],[18.508688,42.886711],[18.496337,42.893538],[18.496012,42.89838],[18.494603,42.905046],[18.485503,42.915521],[18.483552,42.922106],[18.483986,42.939479],[18.48041,42.953436],[18.482036,42.977697],[18.485178,42.981343],[18.490053,42.983879],[18.506954,42.986098],[18.51313,42.98911],[18.521472,42.994182],[18.523098,43.018663],[18.527215,43.020802],[18.540107,43.021119],[18.550075,43.023733],[18.557334,43.02603],[18.566435,43.028089],[18.576836,43.029039],[18.584636,43.025713],[18.592004,43.021594],[18.598112,43.020015],[18.614194,43.020386],[18.630276,43.024965],[18.63874,43.030411],[18.649236,43.033133],[18.659055,43.036103],[18.66261,43.043774],[18.65787,43.05231],[18.653468,43.067771],[18.644665,43.088668],[18.652283,43.153662],[18.665826,43.170949],[18.67683,43.197982],[18.71001,43.219204],[18.718136,43.223769],[18.703408,43.234253],[18.69088,43.242269],[18.68868,43.247572],[18.691896,43.255833],[18.703238,43.261504],[18.713396,43.270626],[18.726769,43.275433],[18.746576,43.285662],[18.762488,43.289852],[18.773323,43.293179],[18.802779,43.301557],[18.820723,43.31018],[18.846962,43.32028],[18.858135,43.328408],[18.853734,43.334196],[18.852041,43.339736],[18.855427,43.346015],[18.867446,43.346877],[18.874725,43.346508],[18.879465,43.343553],[18.884713,43.344168],[18.897579,43.347246],[18.902488,43.350078],[18.908244,43.349708],[18.916812,43.343977],[18.919794,43.340548],[18.923677,43.334194],[18.927629,43.32915],[18.940804,43.326678],[18.950836,43.325714],[18.958204,43.32461],[18.962646,43.318304],[18.962429,43.307662],[18.956903,43.304272],[18.949969,43.299305],[18.947911,43.297333],[18.946286,43.292917],[18.948344,43.288738],[18.952353,43.283217],[18.963946,43.275408],[18.975281,43.273091],[18.983915,43.270872],[18.988316,43.267791],[18.98984,43.256203],[18.995765,43.251394],[19.00389,43.248805],[19.011678,43.249791],[19.018111,43.25423],[19.022173,43.261997],[19.026744,43.268161],[19.033516,43.278021],[19.040626,43.286894],[19.046889,43.290961],[19.056369,43.293671],[19.066018,43.294041],[19.073298,43.295396],[19.079392,43.298723],[19.079561,43.302912],[19.074821,43.308086],[19.073129,43.31252],[19.075668,43.31523],[19.083116,43.320403],[19.084132,43.325822],[19.080746,43.328654],[19.077022,43.335181],[19.076345,43.340106],[19.072451,43.34503],[19.057723,43.348477],[19.05146,43.352786],[19.040964,43.363248],[19.036393,43.368663],[19.034701,43.373462],[19.039271,43.378261],[19.040795,43.380845],[19.038256,43.386627],[19.038763,43.393762],[19.032331,43.3961],[19.027591,43.399052],[19.027252,43.405201],[19.030638,43.40803],[19.032669,43.412826],[19.03013,43.417376],[19.020819,43.424262],[19.018957,43.428565],[19.016756,43.437662],[19.014386,43.443316],[19.011001,43.44688],[19.00389,43.442824],[18.997627,43.445282],[18.986793,43.451673],[18.983238,43.451305],[18.979513,43.44983],[18.97325,43.449338],[18.966817,43.451673],[18.962077,43.456712],[18.956152,43.474282],[18.956321,43.485951],[18.952766,43.496022],[18.941762,43.50253],[18.937361,43.500565],[18.933806,43.497373],[18.929405,43.495653],[18.920432,43.497864],[18.919247,43.500565],[18.919755,43.504986],[18.923141,43.509406],[18.927542,43.510879],[18.931605,43.509283],[18.946502,43.51223],[18.959876,43.511984],[18.967663,43.513703],[18.974435,43.516895],[18.98019,43.520332],[18.987131,43.52696],[18.98747,43.532974],[18.984423,43.538251],[18.984253,43.549786],[18.988824,43.551504],[18.99441,43.552485],[18.998812,43.551381],[19.005245,43.54635],[19.015402,43.533711],[19.02302,43.528801],[19.029961,43.526347],[19.038763,43.520086],[19.033685,43.515667],[19.027252,43.512475],[19.02539,43.510634],[19.024543,43.507196],[19.03013,43.501548],[19.036732,43.49946],[19.040626,43.497373],[19.047736,43.497373],[19.061448,43.502898],[19.072113,43.503758],[19.087349,43.508178],[19.097167,43.511493],[19.118159,43.514194],[19.138134,43.522296],[19.155402,43.523646],[19.184519,43.523033],[19.197046,43.527451],[19.21973,43.527206],[19.232765,43.524628],[19.248848,43.527697],[19.250879,43.535552],[19.250879,43.543651],[19.253588,43.548927],[19.260528,43.556779],[19.26019,43.559601],[19.256465,43.565489],[19.25782,43.577018],[19.256127,43.580697],[19.25765,43.583272],[19.268315,43.587687],[19.275933,43.590507],[19.28609,43.592959],[19.294724,43.591733],[19.299464,43.588913],[19.306743,43.589526],[19.316054,43.59161],[19.324688,43.590629],[19.334168,43.591978],[19.340431,43.594185],[19.348896,43.596392],[19.356852,43.599457],[19.362777,43.602276],[19.368364,43.605831],[19.374289,43.607792],[19.381399,43.605709],[19.386985,43.599579],[19.39054,43.592714],[19.392741,43.589403],[19.401713,43.582904],[19.409669,43.575301],[19.414071,43.573216],[19.427275,43.573584],[19.432692,43.577386],[19.43773,43.579912],[19.442172,43.582894],[19.450081,43.583993],[19.458315,43.582816],[19.468066,43.578185],[19.474675,43.573947],[19.479226,43.573241],[19.484426,43.575752],[19.492877,43.580462],[19.498186,43.581796],[19.50577,43.584778],[19.511945,43.586269],[19.517037,43.588388],[19.519204,43.591213],[19.515087,43.594116],[19.511404,43.598275],[19.509887,43.606827],[19.508478,43.611612],[19.50667,43.615024],[19.501761,43.626176],[19.503623,43.628749],[19.511749,43.625931],[19.517335,43.628504],[19.520552,43.63218],[19.521398,43.639531],[19.524107,43.644677],[19.535787,43.660355],[19.537988,43.664886],[19.541205,43.669049],[19.543236,43.674804],[19.538327,43.6786],[19.533587,43.685088],[19.529693,43.691087],[19.526985,43.701857],[19.527492,43.715318],[19.52326,43.720702],[19.487541,43.745655],[19.484324,43.75177],[19.479584,43.755927],[19.470443,43.761918],[19.469565,43.769895],[19.466052,43.773364],[19.441982,43.783868],[19.426111,43.793415],[19.412092,43.798188],[19.407596,43.802197],[19.401776,43.811169],[19.399131,43.82472],[19.395164,43.828918],[19.381906,43.836573],[19.369379,43.843411],[19.358883,43.851347],[19.352789,43.857817],[19.352281,43.861479],[19.355667,43.865628],[19.356006,43.871608],[19.348049,43.873561],[19.334168,43.880761],[19.326888,43.883323],[19.319778,43.888081],[19.325365,43.891253],[19.332475,43.898085],[19.332644,43.901744],[19.315377,43.903696],[19.310637,43.908696],[19.306743,43.919916],[19.301665,43.926378],[19.293878,43.929548],[19.286937,43.940764],[19.278134,43.946858],[19.268823,43.954292],[19.26256,43.96002],[19.254942,43.965869],[19.249863,43.971839],[19.246139,43.983534],[19.2458,43.988284],[19.241568,43.995226],[19.240891,44.005211],[19.244107,44.006429],[19.250879,44.002411],[19.258835,43.996566],[19.271024,43.985361],[19.277457,43.985726],[19.28135,43.987066],[19.289476,43.988527],[19.306235,43.986944],[19.321641,43.980976],[19.333152,43.975981],[19.343648,43.973301],[19.353128,43.969646],[19.361084,43.964041],[19.369041,43.960264],[19.373611,43.959411],[19.380383,43.961239],[19.385123,43.961726],[19.395957,43.961604],[19.408315,43.949418],[19.420612,43.946726],[19.430796,43.946804],[19.437513,43.948364],[19.448564,43.950237],[19.461674,43.948598],[19.469258,43.946336],[19.483234,43.944152],[19.49526,43.946414],[19.508045,43.949301],[19.522021,43.953512],[19.52863,43.956398],[19.534914,43.963495],[19.543581,43.971137],[19.551061,43.970142],[19.561462,43.974284],[19.557857,43.98102],[19.558342,43.986159],[19.55959,43.989851],[19.565692,43.993941],[19.573943,43.996635],[19.582403,43.998481],[19.596479,44.004815],[19.603205,44.005663],[19.609996,44.009176],[19.619313,44.009488],[19.620072,44.01089],[19.617146,44.014708],[19.611838,44.018604],[19.607179,44.022811],[19.602303,44.025226],[19.597645,44.02951],[19.60252,44.033483],[19.611621,44.039169],[19.619963,44.045711],[19.62278,44.049371],[19.620397,44.051863],[19.606637,44.053654],[19.599486,44.055289],[19.595715,44.059858],[19.592668,44.064724],[19.589959,44.066913],[19.580648,44.068616],[19.576078,44.067643],[19.574385,44.066184],[19.576755,44.062169],[19.579294,44.054505],[19.578955,44.050855],[19.573369,44.048787],[19.566767,44.050125],[19.554917,44.057182],[19.53456,44.074378],[19.528476,44.076849],[19.521599,44.078939],[19.513664,44.082739],[19.506258,44.085209],[19.496471,44.089959],[19.493032,44.095468],[19.484568,44.107055],[19.47822,44.112943],[19.47531,44.114082],[19.469226,44.120728],[19.473987,44.126425],[19.481129,44.13326],[19.479542,44.137246],[19.4724,44.14389],[19.462085,44.146737],[19.456794,44.144459],[19.45362,44.136866],[19.450711,44.133639],[19.443833,44.130222],[19.432459,44.134209],[19.421086,44.138765],[19.407596,44.148255],[19.379875,44.171793],[19.363793,44.179442],[19.35736,44.189761],[19.345341,44.199835],[19.345848,44.207601],[19.347541,44.210271],[19.346864,44.215852],[19.338738,44.221919],[19.33512,44.225262],[19.335913,44.236066],[19.335649,44.247814],[19.334062,44.255582],[19.331417,44.260129],[19.324275,44.266569],[19.320307,44.267516],[19.310256,44.264675],[19.303643,44.263539],[19.298089,44.265054],[19.285921,44.267327],[19.276928,44.2696],[19.269786,44.266948],[19.262644,44.260508],[19.252857,44.253688],[19.24598,44.25293],[19.229316,44.254256],[19.228787,44.259939],[19.224026,44.268274],[19.218715,44.275032],[19.206865,44.285091],[19.199585,44.287515],[19.192983,44.284485],[19.190782,44.280243],[19.186042,44.276365],[19.176054,44.274062],[19.166067,44.276001],[19.157602,44.27988],[19.149815,44.287515],[19.142197,44.295876],[19.136272,44.30157],[19.133902,44.30787],[19.133564,44.315744],[19.135087,44.320588],[19.133733,44.324464],[19.127639,44.32846],[19.118328,44.330398],[19.110371,44.333546],[19.110033,44.345291],[19.112403,44.3626],[19.104446,44.368893],[19.099706,44.380388],[19.100891,44.383171],[19.105124,44.386559],[19.119513,44.387043],[19.124761,44.392607],[19.127639,44.397204],[19.133902,44.401316],[19.141351,44.404461],[19.147614,44.410991],[19.147953,44.420302],[19.146768,44.428886],[19.14097,44.444728],[19.139912,44.449826],[19.137531,44.472103],[19.134622,44.478709],[19.131712,44.487013],[19.128538,44.493994],[19.127744,44.502484],[19.13568,44.50871],[19.148905,44.513048],[19.164776,44.514368],[19.171992,44.5155],[19.178932,44.518035],[19.182826,44.520328],[19.182995,44.523828],[19.17707,44.533604],[19.180287,44.538672],[19.187905,44.542774],[19.190275,44.5476],[19.185027,44.551461],[19.179779,44.556648],[19.179779,44.565332],[19.185196,44.568468],[19.197892,44.571845],[19.207203,44.574015],[19.217868,44.578236],[19.219222,44.582336],[19.214313,44.587882],[19.215667,44.594271],[19.219392,44.599575],[19.229549,44.601142],[19.236997,44.60307],[19.239198,44.604878],[19.23649,44.610422],[19.236659,44.615966],[19.240383,44.62187],[19.244615,44.638495],[19.247663,44.643916],[19.252233,44.647047],[19.257481,44.648131],[19.263575,44.646324],[19.270347,44.642591],[19.275764,44.646806],[19.277457,44.6562],[19.277118,44.667518],[19.281012,44.674139],[19.289476,44.679316],[19.296417,44.684371],[19.298956,44.692675],[19.298618,44.697008],[19.30285,44.703505],[19.310468,44.708799],[19.317408,44.714574],[19.324688,44.723475],[19.326381,44.731052],[19.326719,44.742837],[19.325703,44.74957],[19.32231,44.754963],[19.307679,44.758951],[19.301855,44.761561],[19.301647,44.764121],[19.308043,44.770524],[19.307502,44.7736],[19.298509,44.775216],[19.302626,44.777215],[19.308152,44.777754],[19.310535,44.781829],[19.308694,44.785751],[19.305443,44.788827],[19.299809,44.791826],[19.297968,44.795824],[19.301651,44.80182],[19.305118,44.809046],[19.311185,44.813735],[19.320611,44.813965],[19.325703,44.8185],[19.327112,44.82434],[19.330362,44.826415],[19.333287,44.82703],[19.337296,44.830103],[19.340763,44.82995],[19.349431,44.822419],[19.351597,44.826722],[19.348564,44.833023],[19.344013,44.838017],[19.342172,44.841935],[19.351056,44.847159],[19.356473,44.849232],[19.3621,44.850471],[19.364131,44.853231],[19.363285,44.855992],[19.357021,44.861511],[19.359053,44.864751],[19.364808,44.86895],[19.372596,44.876269],[19.369718,44.878908],[19.349065,44.879507],[19.321101,44.886442],[19.313959,44.89019],[19.299147,44.895812],[19.290418,44.900121],[19.280366,44.898247],[19.271373,44.895062],[19.259999,44.899934],[19.253651,44.903681],[19.247038,44.906491],[19.236458,44.904805],[19.219265,44.891876],[19.207891,44.890565],[19.196781,44.901433],[19.190433,44.913984],[19.181175,44.916794],[19.165834,44.914921],[19.158957,44.912111],[19.148641,44.905554],[19.142197,44.89414],[19.132548,44.893301],[19.123068,44.89366],[19.115789,44.889703],[19.114942,44.886344],[19.111387,44.881667],[19.102754,44.877348],[19.095474,44.875789],[19.079561,44.875789],[19.072959,44.87279],[19.068896,44.86991],[19.065849,44.861631],[19.05383,44.855031],[19.046551,44.854071],[19.033516,44.850951],[19.00643,44.852271],[19.005875,44.852421],[19.005441,44.846314],[18.999916,44.841167],[18.99634,44.836865],[18.998399,44.833714],[19.002516,44.830411],[19.002299,44.823879],[18.998291,44.820114],[18.992887,44.819018],[18.988485,44.819979],[18.982391,44.825022],[18.975958,44.827784],[18.962923,44.828384],[18.956321,44.827303],[18.948026,44.8219],[18.944132,44.815056],[18.939392,44.800763],[18.933637,44.793676],[18.923987,44.778657],[18.918232,44.772889],[18.912815,44.770005],[18.90672,44.768322],[18.89724,44.770726],[18.89013,44.774211],[18.875741,44.775893],[18.866769,44.776494],[18.846793,44.777095],[18.824616,44.77385],[18.821739,44.770245],[18.818333,44.763216],[18.805873,44.755985],[18.801874,44.752874]]],[[[18.745017,44.949242],[18.739242,44.951915],[18.73155,44.953831],[18.721474,44.954138],[18.706522,44.955441],[18.691112,44.959977],[18.678631,44.962676],[18.667259,44.966846],[18.657274,44.971997],[18.651935,44.975234],[18.64507,44.978717],[18.637096,44.980532],[18.630925,44.983572],[18.626695,44.988379],[18.619306,44.992767],[18.612047,44.996368],[18.601971,44.999816],[18.594496,45.001655],[18.583878,45.001042],[18.577811,45.002038],[18.56871,45.011996],[18.548992,45.019425],[18.532523,45.025322],[18.520497,45.030146],[18.512549,45.037168],[18.504588,45.042886],[18.493147,45.052194],[18.489819,45.057778],[18.489928,45.062186],[18.476257,45.067005],[18.461974,45.071489],[18.458981,45.073074],[18.453372,45.067887],[18.442924,45.066122],[18.426889,45.062832],[18.414971,45.057934],[18.407604,45.052729],[18.405979,45.048213],[18.408037,45.044233],[18.407387,45.041554],[18.401537,45.040405],[18.39742,45.042778],[18.393736,45.04607],[18.388427,45.046912],[18.38431,45.045458],[18.378321,45.041318],[18.374438,45.035634],[18.371734,45.027597],[18.367989,45.026029],[18.362208,45.027925],[18.352999,45.03229],[18.347582,45.03428],[18.344006,45.033974],[18.338914,45.031218],[18.333714,45.025705],[18.328947,45.0146],[18.319846,45.008472],[18.316921,45.006864],[18.308903,45.006328],[18.304461,45.008932],[18.301644,45.016285],[18.300344,45.029839],[18.294494,45.035276],[18.28691,45.039333],[18.274233,45.044386],[18.234797,45.056786],[18.222554,45.059694],[18.210528,45.064745],[18.193735,45.076758],[18.189277,45.081237],[18.180314,45.08032],[18.167617,45.082472],[18.152381,45.090002],[18.132744,45.090719],[18.121233,45.090002],[18.1148,45.08785],[18.106505,45.086894],[18.100749,45.088328],[18.093978,45.092631],[18.091608,45.096455],[18.088222,45.100398],[18.08162,45.105059],[18.076203,45.106492],[18.07197,45.108762],[18.07451,45.113422],[18.082805,45.116289],[18.085852,45.118559],[18.086529,45.122739],[18.082805,45.127995],[18.077557,45.136355],[18.072817,45.13934],[18.061813,45.142803],[18.051148,45.143758],[18.040991,45.143878],[18.033542,45.141251],[18.026263,45.140892],[18.013228,45.149728],[17.997315,45.149728],[17.990882,45.147818],[17.984111,45.141251],[17.977678,45.134086],[17.973277,45.125845],[17.968029,45.120948],[17.952454,45.114975],[17.937049,45.110077],[17.932309,45.108285],[17.929431,45.103983],[17.930616,45.098009],[17.934002,45.093467],[17.934849,45.088926],[17.931294,45.081276],[17.927231,45.078647],[17.918259,45.074223],[17.913349,45.071115],[17.9037,45.067409],[17.891342,45.062028],[17.881862,45.056886],[17.869166,45.051744],[17.860254,45.049821],[17.842703,45.05028],[17.829052,45.051964],[17.821143,45.056709],[17.811283,45.060689],[17.804024,45.06398],[17.801857,45.0675],[17.794382,45.073162],[17.782897,45.078135],[17.777805,45.08196],[17.771955,45.084561],[17.747144,45.091675],[17.731326,45.100088],[17.724934,45.104581],[17.714269,45.112944],[17.704789,45.1182],[17.695478,45.118678],[17.682951,45.120111],[17.677703,45.123098],[17.674317,45.128592],[17.667377,45.132772],[17.658743,45.13313],[17.647909,45.130264],[17.637413,45.1268],[17.620992,45.120828],[17.617437,45.115931],[17.606603,45.114378],[17.594753,45.108523],[17.591706,45.109479],[17.582564,45.114736],[17.575116,45.119514],[17.569191,45.120231],[17.563773,45.118081],[17.557171,45.117364],[17.553786,45.121903],[17.554801,45.12692],[17.55988,45.135519],[17.554293,45.13934],[17.549046,45.137549],[17.544644,45.13313],[17.535672,45.120111],[17.528562,45.116886],[17.507598,45.117139],[17.496438,45.11584],[17.491671,45.114234],[17.486037,45.116528],[17.480187,45.120045],[17.481595,45.123179],[17.486471,45.127613],[17.491563,45.134262],[17.492646,45.139918],[17.487662,45.14137],[17.482029,45.140606],[17.47542,45.138695],[17.466861,45.132657],[17.45906,45.129065],[17.454943,45.126466],[17.448767,45.12723],[17.440425,45.130135],[17.438366,45.136632],[17.439775,45.14244],[17.443242,45.149088],[17.444325,45.15352],[17.442375,45.154971],[17.437066,45.154436],[17.432299,45.151227],[17.420896,45.142683],[17.412262,45.138146],[17.39855,45.133727],[17.389239,45.134683],[17.376374,45.137429],[17.362323,45.138504],[17.340316,45.140892],[17.329989,45.143758],[17.319832,45.14734],[17.317462,45.15319],[17.322371,45.155458],[17.326096,45.158562],[17.324234,45.162263],[17.312905,45.162535],[17.307488,45.165972],[17.306079,45.170097],[17.302937,45.175214],[17.296003,45.17636],[17.286686,45.172465],[17.281919,45.174298],[17.269676,45.18163],[17.264692,45.185219],[17.2596,45.184761],[17.25245,45.173229],[17.251583,45.166431],[17.249416,45.15352],[17.245299,45.1484],[17.237281,45.14435],[17.226014,45.140071],[17.205429,45.14351],[17.189394,45.145726],[17.167183,45.147331],[17.155963,45.15522],[17.145806,45.163098],[17.135987,45.167634],[17.11652,45.175033],[17.088079,45.183267],[17.070758,45.186899],[17.066424,45.189495],[17.059707,45.195221],[17.056674,45.200107],[17.053965,45.20652],[17.050281,45.2111],[17.045406,45.215068],[17.038364,45.219419],[17.036847,45.222929],[17.03273,45.223005],[17.027204,45.217358],[17.021679,45.217663],[17.017887,45.219571],[17.023195,45.226821],[17.023954,45.229644],[17.022762,45.231933],[17.017995,45.233535],[17.005536,45.233612],[17.00196,45.232086],[17.001405,45.226683],[16.997173,45.222509],[16.989386,45.221794],[16.987693,45.228471],[16.98363,45.239319],[16.980414,45.244326],[16.970595,45.245041],[16.967209,45.241823],[16.968733,45.236697],[16.972965,45.231452],[16.973981,45.226563],[16.971611,45.22394],[16.965008,45.224298],[16.959761,45.22704],[16.947233,45.225013],[16.938769,45.227994],[16.939277,45.235266],[16.945371,45.245398],[16.952481,45.24957],[16.959083,45.254218],[16.957729,45.259104],[16.948588,45.263631],[16.938092,45.267563],[16.927596,45.270542],[16.918793,45.268278],[16.912191,45.263751],[16.907959,45.259819],[16.906435,45.25386],[16.906266,45.24957],[16.903219,45.245279],[16.89814,45.246233],[16.891369,45.248855],[16.884767,45.245875],[16.880196,45.241703],[16.87918,45.232763],[16.876472,45.227279],[16.860898,45.232524],[16.857214,45.229492],[16.852555,45.229568],[16.848763,45.231475],[16.843779,45.230483],[16.841937,45.228118],[16.846054,45.22125],[16.845404,45.218656],[16.836737,45.213389],[16.833378,45.210336],[16.838254,45.20484],[16.839879,45.198733],[16.839771,45.191404],[16.838254,45.186135],[16.832965,45.183147],[16.823824,45.182551],[16.812482,45.186727],[16.804356,45.189232],[16.793183,45.192215],[16.768298,45.193647],[16.759834,45.195555],[16.747476,45.200446],[16.739519,45.205933],[16.729531,45.207126],[16.720221,45.207245],[16.712772,45.2014],[16.705662,45.197225],[16.699568,45.194124],[16.69432,45.193885],[16.685348,45.197464],[16.666218,45.201758],[16.645511,45.208504],[16.635652,45.213542],[16.629693,45.218732],[16.62471,45.221403],[16.611383,45.227202],[16.603583,45.230102],[16.592965,45.230102],[16.587114,45.227584],[16.579314,45.225829],[16.574113,45.222776],[16.567071,45.216061],[16.562846,45.214534],[16.558187,45.215068],[16.545944,45.220029],[16.534785,45.222319],[16.526122,45.220115],[16.520644,45.218063],[16.514889,45.215133],[16.504904,45.212446],[16.49374,45.205021],[16.492492,45.195053],[16.485164,45.189266],[16.478771,45.187128],[16.471621,45.183844],[16.467504,45.178498],[16.472054,45.172999],[16.474546,45.166965],[16.476449,45.158085],[16.472217,45.147937],[16.460705,45.140295],[16.439883,45.130383],[16.426171,45.125248],[16.410082,45.121956],[16.403906,45.11798],[16.395564,45.113317],[16.390472,45.109341],[16.390255,45.105059],[16.393722,45.098252],[16.400114,45.093587],[16.403256,45.089916],[16.401956,45.084485],[16.392855,45.074539],[16.386246,45.062296],[16.383003,45.057006],[16.372846,45.04983],[16.364889,45.042893],[16.364043,45.032127],[16.364889,45.01741],[16.362688,45.007237],[16.35761,45.003407],[16.347622,45.003766],[16.341358,45.006878],[16.329678,45.003527],[16.31969,45.00209],[16.309194,45.001252],[16.301068,44.998739],[16.296982,45.001556],[16.293505,44.999816],[16.28397,44.995985],[16.258726,44.987787],[16.250384,44.985641],[16.242367,44.984262],[16.238033,44.981963],[16.233374,44.981427],[16.227307,44.98204],[16.223407,44.983879],[16.217881,44.987404],[16.211164,44.989549],[16.204555,44.986254],[16.200113,44.980354],[16.197079,44.975372],[16.194912,44.969164],[16.203471,44.962495],[16.20748,44.954138],[16.223082,44.93305],[16.227429,44.909848],[16.230815,44.900736],[16.237586,44.8939],[16.252483,44.884665],[16.263825,44.879388],[16.271951,44.874709],[16.280415,44.86943],[16.290573,44.868111],[16.301915,44.867631],[16.311395,44.866071],[16.318335,44.862471],[16.326123,44.852991],[16.32917,44.84543],[16.332556,44.838948],[16.337634,44.831626],[16.346098,44.824902],[16.35524,44.823221],[16.379448,44.836668],[16.387404,44.841349],[16.3979,44.850111],[16.40738,44.860431],[16.418214,44.867391],[16.431419,44.866311],[16.449871,44.861391],[16.471201,44.856112],[16.487622,44.853831],[16.531975,44.853831],[16.546533,44.855391],[16.551781,44.857432],[16.560584,44.857432],[16.569218,44.854791],[16.574296,44.851551],[16.58293,44.849511],[16.59715,44.853831],[16.604598,44.852511],[16.614078,44.84651],[16.623728,44.838228],[16.633546,44.830905],[16.643365,44.822741],[16.649121,44.819499],[16.658601,44.818778],[16.674683,44.819979],[16.691082,44.820062],[16.704837,44.819874],[16.714624,44.816684],[16.72732,44.808053],[16.735255,44.805238],[16.746365,44.803548],[16.755887,44.801672],[16.764352,44.799419],[16.770435,44.794727],[16.77308,44.781398],[16.77599,44.772386],[16.781809,44.765813],[16.788951,44.759615],[16.796357,44.751163],[16.801647,44.739703],[16.807202,44.728805],[16.809318,44.7211],[16.808676,44.712577],[16.805317,44.704954],[16.803367,44.698947],[16.802717,44.693325],[16.804342,44.686624],[16.809218,44.681309],[16.818752,44.680616],[16.832945,44.679922],[16.840529,44.67738],[16.847463,44.6706],[16.84768,44.66066],[16.846488,44.648637],[16.848005,44.644552],[16.851038,44.639926],[16.85288,44.633836],[16.852663,44.626203],[16.85418,44.623041],[16.867073,44.617566],[16.87379,44.612707],[16.879207,44.608002],[16.882458,44.604531],[16.887875,44.597126],[16.888525,44.592265],[16.886683,44.586401],[16.880616,44.577527],[16.876932,44.572819],[16.876824,44.5695],[16.878016,44.564946],[16.883758,44.558771],[16.887333,44.557922],[16.895026,44.55437],[16.898059,44.551745],[16.891884,44.543407],[16.88755,44.539777],[16.884408,44.535684],[16.879424,44.533908],[16.869132,44.535916],[16.860898,44.535452],[16.851147,44.529737],[16.84837,44.52757],[16.840414,44.523104],[16.833473,44.519725],[16.826194,44.516948],[16.817052,44.515258],[16.810112,44.516707],[16.802663,44.517673],[16.794876,44.515983],[16.783364,44.513931],[16.775577,44.516707],[16.76779,44.521414],[16.761019,44.523587],[16.75357,44.524311],[16.743921,44.522139],[16.730378,44.521294],[16.704646,44.523587],[16.697536,44.524794],[16.666726,44.527449],[16.648613,44.525639],[16.630161,44.526604],[16.61357,44.527932],[16.598769,44.530587],[16.588453,44.533981],[16.569672,44.533415],[16.556712,44.532284],[16.542163,44.535866],[16.529732,44.536055],[16.513596,44.535112],[16.482384,44.534169],[16.469562,44.530896],[16.462412,44.528501],[16.455694,44.524176],[16.446702,44.515061],[16.442043,44.508571],[16.439876,44.500071],[16.437513,44.492681],[16.439544,44.486643],[16.442253,44.481449],[16.446316,44.476014],[16.454442,44.468403],[16.475772,44.457046],[16.487622,44.448829],[16.53576,44.412916],[16.545402,44.409434],[16.548865,44.404898],[16.559405,44.396129],[16.566854,44.382958],[16.572055,44.378235],[16.585923,44.376221],[16.596974,44.373124],[16.604341,44.366773],[16.611708,44.361816],[16.621893,44.356006],[16.630018,44.35283],[16.639119,44.350041],[16.646486,44.34237],[16.655479,44.335861],[16.664905,44.330127],[16.671622,44.328112],[16.683757,44.327104],[16.690149,44.324934],[16.704992,44.325864],[16.713984,44.323694],[16.719726,44.321213],[16.745295,44.301444],[16.76393,44.28578],[16.774223,44.282183],[16.783872,44.277092],[16.790644,44.274426],[16.795384,44.270426],[16.799785,44.264728],[16.806049,44.260364],[16.814344,44.256484],[16.824332,44.250664],[16.82941,44.246177],[16.846,44.239992],[16.866823,44.239264],[16.883243,44.237809],[16.891538,44.23223],[16.891708,44.223253],[16.892893,44.216702],[16.894416,44.211727],[16.897463,44.205538],[16.901526,44.199592],[16.905928,44.197043],[16.911683,44.190974],[16.914392,44.186483],[16.918455,44.181263],[16.921841,44.179078],[16.94334,44.169729],[16.951804,44.167422],[16.971611,44.157342],[16.991234,44.145541],[17.02027,44.127579],[17.040097,44.113735],[17.050281,44.100198],[17.058082,44.090861],[17.066641,44.083546],[17.072336,44.075549],[17.076568,44.068616],[17.081139,44.064481],[17.093327,44.05998],[17.102807,44.05779],[17.125322,44.054019],[17.137003,44.04976],[17.146314,44.048543],[17.157942,44.052711],[17.166142,44.056513],[17.202115,44.056132],[17.228566,44.057653],[17.240733,44.061265],[17.244436,44.068487],[17.248404,44.074378],[17.255546,44.081789],[17.26401,44.092239],[17.27221,44.101927],[17.281468,44.111233],[17.286229,44.11769],[17.287551,44.145218],[17.2857,44.154708],[17.282261,44.165334],[17.285964,44.174062],[17.286493,44.181271],[17.281732,44.188858],[17.278823,44.197202],[17.2775,44.208769],[17.267184,44.219007],[17.258381,44.221433],[17.251271,44.227863],[17.245685,44.234656],[17.242299,44.239386],[17.238067,44.246541],[17.241453,44.254786],[17.238913,44.279153],[17.236543,44.290544],[17.232819,44.297088],[17.226556,44.305447],[17.216229,44.318045],[17.208273,44.323616],[17.199131,44.325917],[17.19456,44.330277],[17.195407,44.338026],[17.195745,44.353159],[17.198962,44.361269],[17.205733,44.367078],[17.215552,44.370345],[17.226894,44.37688],[17.229772,44.382324],[17.228248,44.386196],[17.217414,44.387768],[17.213351,44.391156],[17.211658,44.401074],[17.21352,44.407121],[17.217245,44.409056],[17.223508,44.414014],[17.226894,44.418246],[17.228079,44.422478],[17.226556,44.429127],[17.220631,44.435655],[17.217583,44.44182],[17.218599,44.445445],[17.221308,44.449071],[17.22554,44.451609],[17.234851,44.452213],[17.242468,44.451971],[17.250256,44.448225],[17.259566,44.440611],[17.265153,44.438073],[17.291054,44.435655],[17.29817,44.433808],[17.306079,44.433499],[17.314097,44.434814],[17.324064,44.44077],[17.32699,44.443478],[17.331648,44.451058],[17.338149,44.457554],[17.346166,44.458636],[17.352884,44.45709],[17.359601,44.452682],[17.369941,44.446896],[17.381114,44.443632],[17.389578,44.44049],[17.39635,44.434084],[17.40109,44.42816],[17.409723,44.421148],[17.418526,44.419214],[17.424112,44.416433],[17.428345,44.412442],[17.434683,44.404325],[17.443458,44.39643],[17.452993,44.38861],[17.465669,44.376609],[17.484087,44.372117],[17.490479,44.369639],[17.50046,44.369619],[17.511633,44.3649],[17.515866,44.358969],[17.520436,44.35437],[17.531778,44.353643],[17.541936,44.354128],[17.563773,44.354006],[17.574608,44.356064],[17.579348,44.357396],[17.588997,44.353643],[17.596446,44.349528],[17.605079,44.347712],[17.609142,44.35098],[17.620146,44.351828],[17.633858,44.351464],[17.647739,44.350012],[17.654511,44.34977],[17.658743,44.353764],[17.664499,44.360179],[17.671778,44.365505],[17.67838,44.369377],[17.684813,44.371797],[17.691754,44.372887],[17.696832,44.371797],[17.704958,44.369377],[17.7141,44.370587],[17.721379,44.372887],[17.734922,44.380751],[17.743047,44.384744],[17.760992,44.391277],[17.773985,44.400522],[17.783771,44.402034],[17.793294,44.405247],[17.79779,44.409215],[17.801229,44.414505],[17.804139,44.420173],[17.813396,44.422818],[17.828209,44.42414],[17.839054,44.427352],[17.850957,44.430563],[17.872382,44.434529],[17.918671,44.446805],[17.936129,44.454169],[17.941419,44.457567],[17.945651,44.466629],[17.947767,44.472669],[17.959406,44.479275],[17.964431,44.485503],[17.965225,44.490787],[17.960199,44.496258],[17.959141,44.502862],[17.964167,44.507766],[17.974218,44.510784],[17.976599,44.515689],[17.97316,44.518518],[17.966018,44.527004],[17.961257,44.536809],[17.959935,44.545858],[17.955967,44.551702],[17.949619,44.559807],[17.944858,44.567533],[17.944329,44.578462],[17.941948,44.590519],[17.93798,44.596923],[17.929781,44.605775],[17.923168,44.611236],[17.914704,44.615943],[17.900156,44.622721],[17.894865,44.632698],[17.894072,44.641921],[17.895923,44.652083],[17.896717,44.658292],[17.900949,44.667322],[17.906239,44.675035],[17.909678,44.684251],[17.913646,44.68914],[17.921581,44.693277],[17.927136,44.69873],[17.934542,44.70813],[17.939081,44.712408],[17.945175,44.714574],[17.947207,44.713852],[17.949577,44.709521],[17.951947,44.707355],[17.960411,44.706513],[17.967013,44.708318],[17.975816,44.709521],[17.985973,44.711687],[17.996638,44.712168],[18.014075,44.709882],[18.034727,44.705912],[18.041296,44.702721],[18.049963,44.702028],[18.060472,44.700179],[18.065131,44.6981],[18.072932,44.693402],[18.077807,44.689859],[18.080191,44.685161],[18.077482,44.681771],[18.075641,44.676301],[18.078024,44.671371],[18.076074,44.666439],[18.068057,44.66328],[18.068923,44.657963],[18.07239,44.656267],[18.077266,44.654803],[18.078566,44.653724],[18.082683,44.646787],[18.086583,44.63931],[18.094709,44.630058],[18.09804,44.622352],[18.101257,44.617653],[18.10532,44.613917],[18.108875,44.609579],[18.109721,44.60536],[18.105489,44.601021],[18.10278,44.596441],[18.102611,44.590534],[18.106335,44.584747],[18.106843,44.579924],[18.106335,44.574377],[18.106843,44.569915],[18.11006,44.570036],[18.118693,44.574257],[18.127496,44.578115],[18.141039,44.581974],[18.153397,44.586797],[18.187424,44.591016],[18.197073,44.593427],[18.206553,44.594271],[18.222296,44.597526],[18.230422,44.595115],[18.242103,44.586797],[18.249044,44.584988],[18.262925,44.584024],[18.277653,44.578718],[18.293058,44.577271],[18.309479,44.578959],[18.331825,44.581492],[18.360942,44.580286],[18.374654,44.58125],[18.39446,44.58318],[18.404618,44.585229],[18.413759,44.58969],[18.427471,44.601262],[18.430688,44.60765],[18.429841,44.614038],[18.421208,44.617653],[18.40648,44.618255],[18.401909,44.621147],[18.390905,44.636207],[18.370253,44.6344],[18.361788,44.637773],[18.352308,44.642832],[18.347907,44.652587],[18.345706,44.661378],[18.338935,44.670167],[18.33047,44.677751],[18.322175,44.678473],[18.314896,44.675704],[18.307617,44.679195],[18.296105,44.685695],[18.285779,44.690268],[18.273421,44.693638],[18.262925,44.694841],[18.253953,44.698692],[18.246335,44.706273],[18.242442,44.707716],[18.229921,44.702105],[18.212261,44.705493],[18.206086,44.707187],[18.196876,44.711884],[18.189624,44.716498],[18.17879,44.720468],[18.165586,44.723235],[18.156783,44.729489],[18.160676,44.734059],[18.163385,44.740552],[18.158137,44.751013],[18.158814,44.757745],[18.17168,44.764356],[18.185392,44.769524],[18.196226,44.777696],[18.2096,44.7807],[18.218064,44.782142],[18.225851,44.785026],[18.231438,44.785746],[18.238887,44.784785],[18.245658,44.781421],[18.250906,44.779739],[18.265295,44.779258],[18.288826,44.779018],[18.313711,44.779378],[18.322345,44.783464],[18.327254,44.78863],[18.336903,44.796439],[18.346722,44.807249],[18.358064,44.814335],[18.359926,44.817818],[18.35654,44.824302],[18.355525,44.835347],[18.358741,44.848551],[18.36365,44.854671],[18.370591,44.860671],[18.37786,44.871635],[18.389498,44.883443],[18.394259,44.890003],[18.398227,44.8945],[18.409072,44.903868],[18.41013,44.908739],[18.402724,44.920727],[18.409072,44.922787],[18.415949,44.921664],[18.425736,44.917918],[18.432084,44.916794],[18.443458,44.916607],[18.45351,44.921289],[18.456419,44.925971],[18.461974,44.92672],[18.469645,44.925035],[18.472025,44.92054],[18.469909,44.915108],[18.469645,44.911924],[18.473612,44.906866],[18.476257,44.90087],[18.478109,44.895062],[18.480754,44.88944],[18.486044,44.888316],[18.492392,44.886255],[18.497418,44.882319],[18.502973,44.876883],[18.512231,44.868823],[18.524134,44.857012],[18.526779,44.850824],[18.522779,44.84339],[18.523118,44.839549],[18.529551,44.834627],[18.535307,44.832466],[18.548849,44.830905],[18.558329,44.831145],[18.575293,44.832521],[18.576612,44.834267],[18.58897,44.837148],[18.597942,44.838468],[18.605899,44.84543],[18.612332,44.854791],[18.614363,44.859832],[18.618934,44.865711],[18.627398,44.874709],[18.6318,44.888983],[18.639417,44.900016],[18.650929,44.90805],[18.6577,44.911167],[18.663625,44.917161],[18.670905,44.921237],[18.680046,44.924233],[18.68614,44.92735],[18.69816,44.936817],[18.704762,44.939573],[18.718643,44.940053],[18.737434,44.94209],[18.745017,44.949242]]]]}},
{"type":"Feature","id":"BIH:ADM1:BA-BIH","properties":{"shapeName":"Federation of Bosnia and Herzegovina","shapeISO":"BA-BIH","shapeGroup":"BIH","shapeType":"ADM1","parentISO":"BIH","parentID":"BIH:ADM0:BIH","src_shape_id":"54001226B17629474923252"},"geometry":{"type":"MultiPolygon","coordinates":[[[[18.785485,44.966562],[18.790251,44.971439],[18.792005,44.975832],[18.795039,44.979128],[18.796231,44.981503],[18.792547,44.987787],[18.787563,44.991771],[18.778029,44.995219],[18.758527,45.000582],[18.751485,45.000352],[18.745309,44.997901],[18.739242,44.99453],[18.731116,44.994836],[18.724724,44.997364],[18.725923,45.007118],[18.727616,45.0137],[18.727277,45.019683],[18.72423,45.023393],[18.714919,45.031768],[18.706963,45.035955],[18.681517,45.042714],[18.675698,45.046825],[18.670407,45.053179],[18.669085,45.058972],[18.675169,45.063829],[18.67993,45.06906],[18.681781,45.076159],[18.679665,45.082696],[18.67464,45.088298],[18.66353,45.09166],[18.654272,45.089979],[18.649247,45.085124],[18.65295,45.079147],[18.655859,45.072983],[18.656124,45.065511],[18.652685,45.058785],[18.641047,45.062148],[18.630731,45.063829],[18.617241,45.065137],[18.619357,45.069621],[18.626499,45.07373],[18.629144,45.078213],[18.629408,45.085124],[18.624118,45.087365],[18.61486,45.086991],[18.607983,45.080641],[18.602693,45.079521],[18.594229,45.085684],[18.590526,45.090166],[18.580474,45.094648],[18.572274,45.097448],[18.567249,45.096141],[18.564075,45.09278],[18.565926,45.086244],[18.572803,45.080455],[18.577829,45.074291],[18.575448,45.071115],[18.566984,45.072423],[18.5609,45.076906],[18.554552,45.084937],[18.548469,45.090539],[18.540798,45.094087],[18.53445,45.093901],[18.528895,45.090353],[18.532069,45.081388],[18.536301,45.073917],[18.536566,45.066258],[18.532333,45.060279],[18.51805,45.059532],[18.513553,45.061774],[18.502444,45.0614],[18.494509,45.060653],[18.489928,45.062186],[18.489819,45.057778],[18.493147,45.052194],[18.504588,45.042886],[18.512549,45.037168],[18.520497,45.030146],[18.532523,45.025322],[18.548992,45.019425],[18.56871,45.011996],[18.577811,45.002038],[18.583878,45.001042],[18.594496,45.001655],[18.601971,44.999816],[18.612047,44.996368],[18.619306,44.992767],[18.626695,44.988379],[18.630925,44.983572],[18.637096,44.980532],[18.64507,44.978717],[18.651935,44.975234],[18.657274,44.971997],[18.667259,44.966846],[18.678631,44.962676],[18.691112,44.959977],[18.706522,44.955441],[18.721474,44.954138],[18.73155,44.953831],[18.739242,44.951915],[18.745017,44.949242],[18.746914,44.951555],[18.754532,44.957186],[18.765028,44.963055],[18.774677,44.966768],[18.785485,44.966562]]],[[[18.458981,45.073074],[18.442929,45.081202],[18.437374,45.089979],[18.434465,45.099689],[18.430497,45.10473],[18.422826,45.107344],[18.410395,45.111077],[18.385002,45.112197],[18.378378,45.107448],[18.35671,45.10709],[18.342659,45.106612],[18.336903,45.104581],[18.323699,45.105536],[18.314219,45.108523],[18.300676,45.117125],[18.296444,45.117483],[18.292212,45.115453],[18.285779,45.11832],[18.282901,45.122262],[18.280192,45.133011],[18.275283,45.138385],[18.265464,45.139459],[18.256323,45.138982],[18.242949,45.136713],[18.227544,45.13516],[18.204691,45.127875],[18.200797,45.125367],[18.197919,45.119395],[18.204183,45.115692],[18.214509,45.111869],[18.216879,45.109718],[18.217049,45.103266],[18.21434,45.097053],[18.212309,45.094423],[18.199781,45.087253],[18.191994,45.081515],[18.189277,45.081237],[18.193735,45.076758],[18.210528,45.064745],[18.222554,45.059694],[18.234797,45.056786],[18.274233,45.044386],[18.28691,45.039333],[18.294494,45.035276],[18.300344,45.029839],[18.301644,45.016285],[18.304461,45.008932],[18.308903,45.006328],[18.316921,45.006864],[18.319846,45.008472],[18.328947,45.0146],[18.333714,45.025705],[18.338914,45.031218],[18.344006,45.033974],[18.347582,45.03428],[18.352999,45.03229],[18.362208,45.027925],[18.367989,45.026029],[18.371734,45.027597],[18.374438,45.035634],[18.378321,45.041318],[18.38431,45.045458],[18.388427,45.046912],[18.393736,45.04607],[18.39742,45.042778],[18.401537,45.040405],[18.407387,45.041554],[18.408037,45.044233],[18.405979,45.048213],[18.407604,45.052729],[18.414971,45.057934],[18.426889,45.062832],[18.442924,45.066122],[18.453372,45.067887],[18.458981,45.073074]]],[[[18.575293,44.832521],[18.558329,44.831145],[18.548849,44.830905],[18.535307,44.832466],[18.529551,44.834627],[18.523118,44.839549],[18.522779,44.84339],[18.526779,44.850824],[18.524134,44.857012],[18.512231,44.868823],[18.502973,44.876883],[18.497418,44.882319],[18.492392,44.886255],[18.486044,44.888316],[18.480754,44.88944],[18.478109,44.895062],[18.476257,44.90087],[18.473612,44.906866],[18.469645,44.911924],[18.469909,44.915108],[18.472025,44.92054],[18.469645,44.925035],[18.461974,44.92672],[18.456419,44.925971],[18.45351,44.921289],[18.443458,44.916607],[18.432084,44.916794],[18.425736,44.917918],[18.415949,44.921664],[18.409072,44.922787],[18.402724,44.920727],[18.41013,44.908739],[18.409072,44.903868],[18.398227,44.8945],[18.394259,44.890003],[18.389498,44.883443],[18.37786,44.871635],[18.370591,44.860671],[18.36365,44.854671],[18.358741,44.848551],[18.355525,44.835347],[18.35654,44.824302],[18.359926,44.817818],[18.358064,44.814335],[18.346722,44.807249],[18.336903,44.796439],[18.327254,44.78863],[18.322345,44.783464],[18.313711,44.779378],[18.288826,44.779018],[18.265295,44.779258],[18.250906,44.779739],[18.245658,44.781421],[18.238887,44.784785],[18.231438,44.785746],[18.225851,44.785026],[18.218064,44.782142],[18.2096,44.7807],[18.196226,44.777696],[18.185392,44.769524],[18.17168,44.764356],[18.158814,44.757745],[18.158137,44.751013],[18.163385,44.740552],[18.160676,44.734059],[18.156783,44.729489],[18.165586,44.723235],[18.17879,44.720468],[18.189624,44.716498],[18.196876,44.711884],[18.206086,44.707187],[18.212261,44.705493],[18.229921,44.702105],[18.242442,44.707716],[18.246335,44.706273],[18.253953,44.698692],[18.262925,44.694841],[18.273421,44.693638],[18.285779,44.690268],[18.296105,44.685695],[18.307617,44.679195],[18.314896,44.675704],[18.322175,44.678473],[18.33047,44.677751],[18.338935,44.670167],[18.345706,44.661378],[18.347907,44.652587],[18.352308,44.642832],[18.361788,44.637773],[18.370253,44.6344],[18.390905,44.636207],[18.401909,44.621147],[18.40648,44.618255],[18.421208,44.617653],[18.429841,44.614038],[18.430688,44.60765],[18.427471,44.601262],[18.413759,44.58969],[18.404618,44.585229],[18.39446,44.58318],[18.374654,44.58125],[18.360942,44.580286],[18.331825,44.581492],[18.309479,44.578959],[18.293058,44.577271],[18.277653,44.578718],[18.262925,44.584024],[18.249044,44.584988],[18.242103,44.586797],[18.230422,44.595115],[18.222296,44.597526],[18.206553,44.594271],[18.197073,44.593427],[18.187424,44.591016],[18.153397,44.586797],[18.141039,44.581974],[18.127496,44.578115],[18.118693,44.574257],[18.11006,44.570036],[18.106843,44.569915],[18.106335,44.574377],[18.106843,44.579924],[18.106335,44.584747],[18.102611,44.590534],[18.10278,44.596441],[18.105489,44.601021],[18.109721,44.60536],[18.108875,44.609579],[18.10532,44.613917],[18.101257,44.617653],[18.09804,44.622352],[18.094709,44.630058],[18.086583,44.63931],[18.082683,44.646787],[18.078566,44.653724],[18.077266,44.654803],[18.07239,44.656267],[18.068923,44.657963],[18.068057,44.66328],[18.076074,44.666439],[18.078024,44.671371],[18.075641,44.676301],[18.077482,44.681771],[18.080191,44.685161],[18.077807,44.689859],[18.072932,44.693402],[18.065131,44.6981],[18.060472,44.700179],[18.049963,44.702028],[18.041296,44.702721],[18.034727,44.705912],[18.014075,44.709882],[17.996638,44.712168],[17.985973,44.711687],[17.975816,44.709521],[17.967013,44.708318],[17.960411,44.706513],[17.951947,44.707355],[17.949577,44.709521],[17.947207,44.713852],[17.945175,44.714574],[17.939081,44.712408],[17.934542,44.70813],[17.927136,44.69873],[17.921581,44.693277],[17.913646,44.68914],[17.909678,44.684251],[17.906239,44.675035],[17.900949,44.667322],[17.896717,44.658292],[17.895923,44.652083],[17.894072,44.641921],[17.894865,44.632698],[17.900156,44.622721],[17.914704,44.615943],[17.923168,44.611236],[17.929781,44.605775],[17.93798,44.596923],[17.941948,44.590519],[17.944329,44.578462],[17.944858,44.567533],[17.949619,44.559807],[17.955967,44.551702],[17.959935,44.545858],[17.961257,44.536809],[17.966018,44.527004],[17.97316,44.518518],[17.976599,44.515689],[17.974218,44.510784],[17.964167,44.507766],[17.959141,44.502862],[17.960199,44.496258],[17.965225,44.490787],[17.964431,44.485503],[17.959406,44.479275],[17.947767,44.472669],[17.945651,44.466629],[17.941419,44.457567],[17.936129,44.454169],[17.918671,44.446805],[17.872382,44.434529],[17.850957,44.430563],[17.839054,44.427352],[17.828209,44.42414],[17.813396,44.422818],[17.804139,44.420173],[17.801229,44.414505],[17.79779,44.409215],[17.793294,44.405247],[17.783771,44.402034],[17.773985,44.400522],[17.760992,44.391277],[17.743047,44.384744],[17.734922,44.380751],[17.721379,44.372887],[17.7141,44.370587],[17.704958,44.369377],[17.696832,44.371797],[17.691754,44.372887],[17.684813,44.371797],[17.67838,44.369377],[17.671778,44.365505],[17.664499,44.360179],[17.658743,44.353764],[17.654511,44.34977],[17.647739,44.350012],[17.633858,44.351464],[17.620146,44.351828],[17.609142,44.35098],[17.605079,44.347712],[17.596446,44.349528],[17.588997,44.353643],[17.579348,44.357396],[17.574608,44.356064],[17.563773,44.354006],[17.541936,44.354128],[17.531778,44.353643],[17.520436,44.35437],[17.515866,44.358969],[17.511633,44.3649],[17.50046,44.369619],[17.490479,44.369639],[17.484087,44.372117],[17.465669,44.376609],[17.452993,44.38861],[17.443458,44.39643],[17.434683,44.404325],[17.428345,44.412442],[17.424112,44.416433],[17.418526,44.419214],[17.409723,44.421148],[17.40109,44.42816],[17.39635,44.434084],[17.389578,44.44049],[17.381114,44.443632],[17.369941,44.446896],[17.359601,44.452682],[17.352884,44.45709],[17.346166,44.458636],[17.338149,44.457554],[17.331648,44.451058],[17.32699,44.443478],[17.324064,44.44077],[17.314097,44.434814],[17.306079,44.433499],[17.29817,44.433808],[17.291054,44.435655],[17.265153,44.438073],[17.259566,44.440611],[17.250256,44.448225],[17.242468,44.451971],[17.234851,44.452213],[17.22554,44.451609],[17.221308,44.449071],[17.218599,44.445445],[17.217583,44.44182],[17.220631,44.435655],[17.226556,44.429127],[17.228079,44.422478],[17.226894,44.418246],[17.223508,44.414014],[17.217245,44.409056],[17.21352,44.407121],[17.211658,44.401074],[17.213351,44.391156],[17.217414,44.387768],[17.228248,44.386196],[17.229772,44.382324],[17.226894,44.37688],[17.215552,44.370345],[17.205733,44.367078],[17.198962,44.361269],[17.195745,44.353159],[17.195407,44.338026],[17.19456,44.330277],[17.199131,44.325917],[17.208273,44.323616],[17.216229,44.318045],[17.226556,44.305447],[17.232819,44.297088],[17.236543,44.290544],[17.238913,44.279153],[17.241453,44.254786],[17.238067,44.246541],[17.242299,44.239386],[17.245685,44.234656],[17.251271,44.227863],[17.258381,44.221433],[17.267184,44.219007],[17.2775,44.208769],[17.278823,44.197202],[17.281732,44.188858],[17.286493,44.181271],[17.285964,44.174062],[17.282261,44.165334],[17.2857,44.154708],[17.287551,44.145218],[17.286229,44.11769],[17.281468,44.111233],[17.27221,44.101927],[17.26401,44.092239],[17.255546,44.081789],[17.248404,44.074378],[17.244436,44.068487],[17.240733,44.061265],[17.228566,44.057653],[17.202115,44.056132],[17.166142,44.056513],[17.157942,44.052711],[17.146314,44.048543],[17.137003,44.04976],[17.125322,44.054019],[17.102807,44.05779],[17.093327,44.05998],[17.081139,44.064481],[17.076568,44.068616],[17.072336,44.075549],[17.066641,44.083546],[17.058082,44.090861],[17.050281,44.100198],[17.040097,44.113735],[17.02027,44.127579],[16.991234,44.145541],[16.971611,44.157342],[16.951804,44.167422],[16.94334,44.169729],[16.921841,44.179078],[16.918455,44.181263],[16.914392,44.186483],[16.911683,44.190974],[16.905928,44.197043],[16.901526,44.199592],[16.897463,44.205538],[16.894416,44.211727],[16.892893,44.216702],[16.891708,44.223253],[16.891538,44.23223],[16.883243,44.237809],[16.866823,44.239264],[16.846,44.239992],[16.82941,44.246177],[16.824332,44.250664],[16.814344,44.256484],[16.806049,44.260364],[16.799785,44.264728],[16.795384,44.270426],[16.790644,44.274426],[16.783872,44.277092],[16.774223,44.282183],[16.76393,44.28578],[16.745295,44.301444],[16.719726,44.321213],[16.713984,44.323694],[16.704992,44.325864],[16.690149,44.324934],[16.683757,44.327104],[16.671622,44.328112],[16.664905,44.330127],[16.655479,44.335861],[16.646486,44.34237],[16.639119,44.350041],[16.630018,44.35283],[16.621893,44.356006],[16.611708,44.361816],[16.604341,44.366773],[16.596974,44.373124],[16.585923,44.376221],[16.572055,44.378235],[16.566854,44.382958],[16.559405,44.396129],[16.548865,44.404898],[16.545402,44.409434],[16.53576,44.412916],[16.487622,44.448829],[16.475772,44.457046],[16.454442,44.468403],[16.446316,44.476014],[16.442253,44.481449],[16.439544,44.486643],[16.437513,44.492681],[16.439876,44.500071],[16.442043,44.508571],[16.446702,44.515061],[16.455694,44.524176],[16.462412,44.528501],[16.469562,44.530896],[16.482384,44.534169],[16.513596,44.535112],[16.529732,44.536055],[16.542163,44.535866],[16.556712,44.532284],[16.569672,44.533415],[16.588453,44.533981],[16.598769,44.530587],[16.61357,44.527932],[16.630161,44.526604],[16.648613,44.525639],[16.666726,44.527449],[16.697536,44.524794],[16.704646,44.523587],[16.730378,44.521294],[16.743921,44.522139],[16.75357,44.524311],[16.761019,44.523587],[16.76779,44.521414],[16.775577,44.516707],[16.783364,44.513931],[16.794876,44.515983],[16.802663,44.517673],[16.810112,44.516707],[16.817052,44.515258],[16.826194,44.516948],[16.833473,44.519725],[16.840414,44.523104],[16.84837,44.52757],[16.851147,44.529737],[16.860898,44.535452],[16.869132,44.535916],[16.879424,44.533908],[16.884408,44.535684],[16.88755,44.539777],[16.891884,44.543407],[16.898059,44.551745],[16.895026,44.55437],[16.887333,44.557922],[16.883758,44.558771],[16.878016,44.564946],[16.876824,44.5695],[16.876932,44.572819],[16.880616,44.577527],[16.886683,44.586401],[16.888525,44.592265],[16.887875,44.597126],[16.882458,44.604531],[16.879207,44.608002],[16.87379,44.612707],[16.867073,44.617566],[16.85418,44.623041],[16.852663,44.626203],[16.85288,44.633836],[16.851038,44.639926],[16.848005,44.644552],[16.846488,44.648637],[16.84768,44.66066],[16.847463,44.6706],[16.840529,44.67738],[16.832945,44.679922],[16.818752,44.680616],[16.809218,44.681309],[16.804342,44.686624],[16.802717,44.693325],[16.803367,44.698947],[16.805317,44.704954],[16.808676,44.712577],[16.809318,44.7211],[16.807202,44.728805],[16.801647,44.739703],[16.796357,44.751163],[16.788951,44.759615],[16.781809,44.765813],[16.77599,44.772386],[16.77308,44.781398],[16.770435,44.794727],[16.764352,44.799419],[16.755887,44.801672],[16.746365,44.803548],[16.735255,44.805238],[16.72732,44.808053],[16.714624,44.816684],[16.704837,44.819874],[16.691082,44.820062],[16.674683,44.819979],[16.658601,44.818778],[16.649121,44.819499],[16.643365,44.822741],[16.633546,44.830905],[16.623728,44.838228],[16.614078,44.84651],[16.604598,44.852511],[16.59715,44.853831],[16.58293,44.849511],[16.574296,44.851551],[16.569218,44.854791],[16.560584,44.857432],[16.551781,44.857432],[16.546533,44.855391],[16.531975,44.853831],[16.487622,44.853831],[16.471201,44.856112],[16.449871,44.861391],[16.431419,44.866311],[16.418214,44.867391],[16.40738,44.860431],[16.3979,44.850111],[16.387404,44.841349],[16.379448,44.836668],[16.35524,44.823221],[16.346098,44.824902],[16.337634,44.831626],[16.332556,44.838948],[16.32917,44.84543],[16.326123,44.852991],[16.318335,44.862471],[16.311395,44.866071],[16.301915,44.867631],[16.290573,44.868111],[16.280415,44.86943],[16.271951,44.874709],[16.263825,44.879388],[16.252483,44.884665],[16.237586,44.8939],[16.230815,44.900736],[16.227429,44.909848],[16.223082,44.93305],[16.20748,44.954138],[16.203471,44.962495],[16.194912,44.969164],[16.197079,44.975372],[16.200113,44.980354],[16.204555,44.986254],[16.211164,44.989549],[16.217881,44.987404],[16.223407,44.983879],[16.227307,44.98204],[16.233374,44.981427],[16.238033,44.981963],[16.242367,44.984262],[16.250384,44.985641],[16.258726,44.987787],[16.28397,44.995985],[16.293505,44.999816],[16.296982,45.001556],[16.294297,45.003407],[16.291588,45.009152],[16.278215,45.016692],[16.266873,45.016931],[16.251806,45.021239],[16.247066,45.019564],[16.239448,45.019085],[16.233862,45.021837],[16.227429,45.025906],[16.218457,45.03105],[16.208807,45.032247],[16.20102,45.029973],[16.195772,45.030213],[16.192048,45.036075],[16.185784,45.043013],[16.184938,45.051864],[16.181552,45.05593],[16.173437,45.062335],[16.176347,45.070741],[16.171586,45.074851],[16.163386,45.078213],[16.153599,45.086244],[16.146193,45.089606],[16.139051,45.092407],[16.129264,45.097075],[16.118948,45.099316],[16.100962,45.10417],[16.092233,45.10865],[16.088265,45.112757],[16.087736,45.11817],[16.089852,45.121903],[16.09382,45.126569],[16.09382,45.129742],[16.081917,45.143363],[16.072924,45.149332],[16.066046,45.155861],[16.057846,45.161643],[16.044092,45.167611],[16.045679,45.173206],[16.045944,45.178613],[16.043034,45.180478],[16.03457,45.178986],[16.027428,45.177308],[16.019493,45.179545],[16.014467,45.182156],[16.017112,45.186443],[16.023725,45.194273],[16.025841,45.198933],[16.02637,45.203779],[16.024783,45.207319],[16.020022,45.212351],[16.013673,45.215332],[16.00468,45.21645],[16.000448,45.2185],[15.99648,45.221295],[15.993306,45.225207],[15.987889,45.228948],[15.979933,45.232286],[15.974008,45.230975],[15.968252,45.228113],[15.963681,45.225013],[15.954878,45.218097],[15.939812,45.212254],[15.934564,45.210704],[15.927792,45.21297],[15.92593,45.218097],[15.916958,45.227994],[15.895797,45.226206],[15.891904,45.227398],[15.885979,45.22394],[15.884963,45.219051],[15.879207,45.215593],[15.866172,45.216547],[15.859909,45.21762],[15.850429,45.219767],[15.838355,45.216213],[15.829254,45.216137],[15.820479,45.216519],[15.819287,45.213847],[15.823729,45.211405],[15.824379,45.209344],[15.822697,45.206015],[15.816085,45.206388],[15.81053,45.207506],[15.806562,45.207133],[15.803388,45.204151],[15.802066,45.198746],[15.799421,45.19651],[15.79413,45.194273],[15.78646,45.19185],[15.77826,45.191104],[15.77297,45.188494],[15.768473,45.184393],[15.763447,45.177494],[15.76186,45.172087],[15.762389,45.162949],[15.76186,45.156421],[15.76186,45.149706],[15.763712,45.141497],[15.76715,45.135153],[15.771383,45.130861],[15.776937,45.126196],[15.78064,45.12097],[15.782492,45.114811],[15.781963,45.10977],[15.774821,45.105477],[15.769531,45.100249],[15.768209,45.092594],[15.767415,45.08531],[15.763183,45.076719],[15.757364,45.070181],[15.751015,45.067192],[15.742022,45.060653],[15.741758,45.055608],[15.745725,45.052432],[15.746656,45.048276],[15.746148,45.045525],[15.746995,45.041817],[15.748857,45.037869],[15.753428,45.029973],[15.760876,45.022914],[15.763246,45.019085],[15.766801,45.015854],[15.772218,45.012144],[15.783222,45.005801],[15.786269,45.003048],[15.785761,44.999816],[15.782376,44.996345],[15.775943,44.991795],[15.774419,44.988084],[15.77899,44.983774],[15.781529,44.979343],[15.780344,44.971799],[15.778482,44.968206],[15.765108,44.967607],[15.755967,44.965451],[15.753258,44.963055],[15.752073,44.958503],[15.751904,44.951555],[15.751058,44.947601],[15.747672,44.944846],[15.74344,44.943648],[15.738192,44.941251],[15.737515,44.938016],[15.741578,44.930346],[15.744794,44.921956],[15.748011,44.918719],[15.752073,44.910807],[15.760368,44.882026],[15.77188,44.863671],[15.790956,44.849323],[15.790692,44.845198],[15.785402,44.840509],[15.779053,44.837508],[15.749957,44.836383],[15.744403,44.833944],[15.738583,44.830755],[15.727739,44.82644],[15.7243,44.822501],[15.726945,44.815559],[15.731971,44.80749],[15.777297,44.758586],[15.787793,44.743799],[15.798289,44.738508],[15.815048,44.732856],[15.817587,44.731173],[15.820634,44.724918],[15.825882,44.719025],[15.828421,44.7171],[15.831638,44.716378],[15.837224,44.716619],[15.839086,44.717942],[15.844673,44.726843],[15.849074,44.729729],[15.854999,44.728767],[15.862448,44.726242],[15.870066,44.727083],[15.875144,44.729369],[15.880223,44.733698],[15.884794,44.73959],[15.891057,44.74428],[15.900876,44.746324],[15.90951,44.746324],[15.915096,44.745843],[15.918651,44.7444],[15.921867,44.741274],[15.917127,44.735141],[15.919497,44.729008],[15.923052,44.722272],[15.924163,44.71658],[15.927305,44.711576],[15.931205,44.709266],[15.935864,44.709882],[15.939764,44.711653],[15.944856,44.7125],[15.950599,44.712346],[15.956883,44.710113],[15.965983,44.702413],[15.975843,44.694789],[15.982885,44.688319],[15.98126,44.678305],[15.982993,44.671987],[15.985918,44.667826],[15.993719,44.664513],[16.018963,44.659427],[16.030073,44.658668],[16.037744,44.655846],[16.044886,44.649825],[16.049118,44.645308],[16.054143,44.638157],[16.058905,44.629875],[16.061814,44.618014],[16.059963,44.610859],[16.054143,44.604456],[16.045679,44.597111],[16.034305,44.590331],[16.024254,44.586375],[16.020286,44.582984],[16.019757,44.575071],[16.039595,44.55943],[16.045415,44.559241],[16.055201,44.557545],[16.06393,44.554906],[16.072924,44.551325],[16.078478,44.546801],[16.085884,44.539637],[16.100168,44.530964],[16.10622,44.523225],[16.107744,44.519242],[16.115023,44.509223],[16.124672,44.504876],[16.130428,44.498236],[16.127211,44.49413],[16.126365,44.490628],[16.126331,44.486005],[16.129365,44.480517],[16.13424,44.475183],[16.138249,44.471472],[16.143883,44.463121],[16.144316,44.451986],[16.145616,44.445566],[16.143666,44.442163],[16.138899,44.436206],[16.139116,44.432106],[16.142149,44.426381],[16.1467,44.419726],[16.154175,44.416708],[16.164035,44.413922],[16.169018,44.409279],[16.17021,44.405873],[16.169668,44.400378],[16.164793,44.396352],[16.139874,44.394804],[16.127848,44.394572],[16.125031,44.392791],[16.126223,44.389462],[16.137382,44.381487],[16.157317,44.370181],[16.165985,44.365766],[16.175736,44.364372],[16.182886,44.362048],[16.192962,44.357478],[16.20228,44.352055],[16.208455,44.347407],[16.209146,44.340811],[16.206437,44.337542],[16.197634,44.332093],[16.183076,44.322163],[16.181383,44.311383],[16.182229,44.306174],[16.187139,44.297693],[16.188154,44.288848],[16.194249,44.280607],[16.194249,44.271759],[16.193233,44.25612],[16.19391,44.24836],[16.195603,44.245086],[16.204575,44.244601],[16.212362,44.24363],[16.21761,44.242539],[16.221335,44.23975],[16.221165,44.237203],[16.226921,44.228105],[16.224212,44.224709],[16.209823,44.222646],[16.204745,44.220463],[16.198596,44.216944],[16.193612,44.215158],[16.189712,44.214848],[16.184728,44.213605],[16.174977,44.209567],[16.179094,44.207626],[16.18397,44.206616],[16.197621,44.208324],[16.204338,44.209567],[16.212356,44.210421],[16.217231,44.210344],[16.222648,44.208868],[16.22709,44.20481],[16.232,44.199592],[16.245373,44.190732],[16.251975,44.185755],[16.259255,44.179442],[16.265688,44.173371],[16.268565,44.168272],[16.279908,44.161836],[16.28651,44.154792],[16.297005,44.146168],[16.302423,44.142888],[16.306655,44.14143],[16.309025,44.132439],[16.309533,44.128308],[16.311225,44.125027],[16.310887,44.120409],[16.31478,44.118708],[16.32206,44.117979],[16.336618,44.121382],[16.351854,44.120045],[16.372676,44.114697],[16.380971,44.11093],[16.388589,44.098531],[16.38842,44.09002],[16.390282,44.084791],[16.392821,44.080535],[16.399931,44.078103],[16.414998,44.076157],[16.432096,44.072265],[16.436666,44.068738],[16.438359,44.060953],[16.438021,44.05122],[16.435143,44.046353],[16.431926,44.042946],[16.43108,44.03747],[16.432942,44.03102],[16.434974,44.027368],[16.439036,44.022378],[16.442422,44.020552],[16.479157,44.019821],[16.487114,44.016534],[16.494732,44.011665],[16.508232,44.007708],[16.516414,44.00287],[16.518078,43.997932],[16.517662,43.995039],[16.515027,43.991048],[16.512791,43.985405],[16.511924,43.980571],[16.513441,43.975581],[16.5168,43.969032],[16.52265,43.963885],[16.530668,43.959362],[16.533701,43.957022],[16.535868,43.953902],[16.541719,43.947194],[16.548653,43.94228],[16.559543,43.941241],[16.567517,43.937546],[16.572024,43.93445],[16.577156,43.928108],[16.581589,43.926285],[16.587981,43.921681],[16.641503,43.879052],[16.650136,43.876734],[16.673836,43.861845],[16.687379,43.858183],[16.702954,43.8533],[16.706821,43.847552],[16.707029,43.844751],[16.709247,43.842601],[16.712368,43.83705],[16.711926,43.814047],[16.711276,43.807715],[16.706834,43.801459],[16.710192,43.796533],[16.722652,43.785583],[16.727635,43.783002],[16.729586,43.779404],[16.730561,43.775571],[16.740745,43.767278],[16.766774,43.765708],[16.775916,43.761551],[16.782857,43.757883],[16.788782,43.753115],[16.795045,43.747367],[16.805838,43.732576],[16.806462,43.728467],[16.810622,43.723557],[16.824906,43.722204],[16.831632,43.720099],[16.835723,43.715889],[16.842379,43.70396],[16.86013,43.702106],[16.869838,43.697243],[16.87698,43.690374],[16.885216,43.675206],[16.900095,43.65966],[16.916152,43.64596],[16.917128,43.637728],[16.921136,43.629651],[16.92807,43.618436],[16.94118,43.609886],[16.959355,43.588457],[16.970727,43.576452],[16.987715,43.574091],[16.997843,43.565862],[17.001093,43.561779],[17.002394,43.557147],[17.005319,43.551808],[17.021787,43.550002],[17.028504,43.546782],[17.044106,43.535944],[17.052015,43.535395],[17.057974,43.528247],[17.066424,43.522748],[17.076067,43.514734],[17.080184,43.512613],[17.102719,43.511277],[17.111278,43.508055],[17.121029,43.498939],[17.131322,43.491944],[17.140856,43.48825],[17.149199,43.486757],[17.157216,43.488722],[17.16285,43.492809],[17.171301,43.49666],[17.182027,43.499568],[17.193294,43.498625],[17.203153,43.496189],[17.218514,43.489252],[17.235179,43.483686],[17.246288,43.478888],[17.255017,43.473706],[17.262159,43.468715],[17.267978,43.463915],[17.273532,43.454315],[17.280939,43.436648],[17.28279,43.433382],[17.282261,43.428388],[17.277765,43.424546],[17.270887,43.416861],[17.261894,43.413787],[17.254488,43.409944],[17.249198,43.405524],[17.249727,43.401296],[17.254223,43.396107],[17.259778,43.391879],[17.262159,43.387842],[17.258984,43.379191],[17.257133,43.3765],[17.259778,43.37054],[17.261629,43.363425],[17.26401,43.359194],[17.271681,43.350732],[17.273268,43.340344],[17.277765,43.334188],[17.28041,43.325529],[17.284113,43.318987],[17.289932,43.311289],[17.298661,43.302434],[17.311357,43.290114],[17.312086,43.286009],[17.312294,43.280103],[17.313265,43.275711],[17.316662,43.267128],[17.325148,43.264364],[17.338366,43.256158],[17.344216,43.251582],[17.347466,43.248188],[17.358409,43.246294],[17.376611,43.246215],[17.38322,43.24511],[17.390587,43.241559],[17.399471,43.236744],[17.414422,43.230508],[17.420381,43.226088],[17.42569,43.219851],[17.430024,43.209507],[17.429591,43.203584],[17.428182,43.200425],[17.425799,43.197582],[17.422765,43.195607],[17.42049,43.191342],[17.420815,43.187708],[17.422765,43.184785],[17.427532,43.181151],[17.444759,43.175226],[17.476936,43.165981],[17.489829,43.160686],[17.510414,43.154047],[17.528291,43.145194],[17.579754,43.119972],[17.616807,43.101148],[17.6297,43.097113],[17.639993,43.092841],[17.642701,43.082476],[17.649263,43.068513],[17.658743,43.064555],[17.663652,43.059608],[17.667884,43.051444],[17.673132,43.030163],[17.68549,43.005656],[17.693189,43.004879],[17.696115,43.000204],[17.699582,42.993468],[17.707924,42.983562],[17.714858,42.977142],[17.717458,42.973178],[17.7141,42.96858],[17.681272,42.957956],[17.670329,42.954071],[17.660903,42.951216],[17.633492,42.949947],[17.618433,42.945427],[17.600509,42.939389],[17.596784,42.936787],[17.600001,42.933069],[17.607957,42.928978],[17.618114,42.91869],[17.624378,42.913606],[17.629795,42.910755],[17.635139,42.90576],[17.639577,42.898294],[17.643321,42.89484],[17.650324,42.890268],[17.653969,42.888378],[17.661336,42.89195],[17.667945,42.903538],[17.677371,42.915838],[17.688097,42.925914],[17.697848,42.92526],[17.704281,42.921293],[17.711899,42.917326],[17.718332,42.916334],[17.729335,42.920177],[17.747957,42.918937],[17.762854,42.913358],[17.771826,42.905671],[17.776735,42.899843],[17.781814,42.895502],[17.78757,42.895006],[17.799081,42.900091],[17.802805,42.903811],[17.806022,42.911003],[17.810762,42.916582],[17.814825,42.917574],[17.825828,42.917202],[17.835139,42.914474],[17.84208,42.906787],[17.845127,42.900959],[17.858839,42.891906],[17.862733,42.881363],[17.865441,42.871686],[17.87052,42.864862],[17.87526,42.859278],[17.887279,42.849847],[17.89659,42.84513],[17.901499,42.842151],[17.905901,42.8388],[17.903869,42.834455],[17.897775,42.830607],[17.891511,42.825641],[17.892696,42.82204],[17.903192,42.818191],[17.908271,42.814217],[17.914365,42.812478],[17.919951,42.81223],[17.927569,42.814714],[17.934341,42.814838],[17.944837,42.80987],[17.951947,42.804778],[17.964643,42.800431],[17.971414,42.797823],[17.985804,42.788133],[18.00087,42.784158],[18.004764,42.779933],[18.008996,42.760796],[18.014075,42.757316],[18.029987,42.756073],[18.040314,42.754084],[18.058597,42.736928],[18.065538,42.729343],[18.08145,42.717652],[18.089745,42.714792],[18.09584,42.711309],[18.098548,42.708199],[18.10277,42.697329],[18.10806,42.690525],[18.115202,42.686053],[18.119434,42.684498],[18.130543,42.683914],[18.138743,42.680025],[18.153556,42.660966],[18.158052,42.659215],[18.163343,42.659604],[18.168897,42.661549],[18.17551,42.662327],[18.180536,42.659604],[18.190323,42.649099],[18.201167,42.642679],[18.234231,42.616601],[18.246663,42.606673],[18.252429,42.60362],[18.258016,42.606237],[18.266311,42.613587],[18.279515,42.618944],[18.287641,42.62455],[18.294074,42.626294],[18.301194,42.623466],[18.298137,42.628287],[18.292381,42.635137],[18.286964,42.643231],[18.279854,42.649955],[18.273082,42.653815],[18.264957,42.659666],[18.257,42.663899],[18.247182,42.667882],[18.23804,42.672239],[18.231777,42.680826],[18.230253,42.689413],[18.216033,42.701606],[18.200966,42.716782],[18.196565,42.722254],[18.175574,42.738171],[18.166771,42.742274],[18.154582,42.742025],[18.140362,42.746874],[18.124618,42.752716],[18.119878,42.754208],[18.114969,42.757067],[18.114123,42.760174],[18.114969,42.763157],[18.117001,42.766637],[18.115138,42.770987],[18.109552,42.774093],[18.089238,42.787761],[18.080265,42.797947],[18.071801,42.808877],[18.066723,42.813348],[18.059443,42.816204],[18.046747,42.820426],[18.033712,42.828],[18.025078,42.8424],[18.013059,42.847985],[17.999347,42.851088],[17.990374,42.862132],[17.982926,42.876277],[17.977001,42.898975],[17.975816,42.908647],[17.970114,42.920281],[17.962639,42.933054],[17.959063,42.942096],[17.957438,42.949313],[17.955813,42.954071],[17.950592,42.956861],[17.943482,42.958472],[17.938234,42.961445],[17.932648,42.967515],[17.925707,42.973832],[17.920967,42.977053],[17.921475,42.981387],[17.927908,42.989437],[17.938234,42.998352],[17.940097,43.003428],[17.939589,43.007266],[17.937727,43.011598],[17.936034,43.017911],[17.937828,43.025792],[17.944112,43.033474],[17.952671,43.03688],[17.955596,43.041156],[17.956788,43.047728],[17.964697,43.057861],[17.969464,43.060474],[17.979549,43.063361],[17.990435,43.069491],[17.99418,43.074911],[17.993555,43.084078],[17.990049,43.101702],[17.985932,43.104629],[17.97824,43.106211],[17.964589,43.107081],[17.943895,43.107476],[17.929811,43.109058],[17.92656,43.11325],[17.92721,43.119261],[17.936745,43.132861],[17.93967,43.137842],[17.938153,43.144641],[17.932519,43.150491],[17.928836,43.152388],[17.9037,43.159817],[17.895358,43.165191],[17.891566,43.170643],[17.891674,43.173804],[17.894599,43.177517],[17.899115,43.18088],[17.905633,43.190738],[17.918747,43.205933],[17.926722,43.209786],[17.937881,43.212196],[17.950693,43.217617],[17.965572,43.227857],[17.976731,43.235084],[17.98789,43.247729],[17.99409,43.266692],[17.998289,43.300702],[17.998024,43.31533],[17.993792,43.326876],[17.987179,43.335727],[17.97845,43.346308],[17.971838,43.356694],[17.964431,43.362656],[17.954909,43.367463],[17.94909,43.373231],[17.946445,43.379576],[17.947767,43.388034],[17.951269,43.395977],[17.955671,43.407046],[17.960242,43.412334],[17.963797,43.415655],[17.97243,43.425491],[17.9748,43.429671],[17.973446,43.433605],[17.968537,43.442087],[17.969891,43.452533],[17.975647,43.458924],[17.989528,43.466787],[18.00087,43.47551],[18.008488,43.479072],[18.084159,43.476738],[18.136638,43.473544],[18.146456,43.470473],[18.154413,43.47465],[18.160507,43.478827],[18.168294,43.480792],[18.172865,43.479932],[18.179467,43.475264],[18.189963,43.47121],[18.195549,43.468016],[18.203675,43.462118],[18.211124,43.46089],[18.214171,43.464207],[18.213832,43.468139],[18.212139,43.471087],[18.210785,43.47723],[18.217726,43.480669],[18.228391,43.481898],[18.242949,43.481283],[18.257847,43.47809],[18.276807,43.470227],[18.290688,43.469613],[18.293588,43.472983],[18.311131,43.482594],[18.318134,43.484656],[18.333687,43.484354],[18.336565,43.528065],[18.332163,43.535797],[18.329813,43.542384],[18.328405,43.547803],[18.334364,43.558011],[18.339673,43.561544],[18.346282,43.562643],[18.351915,43.560759],[18.357116,43.560052],[18.362425,43.562407],[18.366217,43.565469],[18.371776,43.581923],[18.3755,43.596392],[18.384134,43.60865],[18.392768,43.61674],[18.399031,43.623113],[18.405803,43.631813],[18.410881,43.639409],[18.421038,43.648107],[18.428318,43.656436],[18.43729,43.662069],[18.447955,43.665253],[18.454896,43.664029],[18.45862,43.660232],[18.464037,43.651291],[18.470301,43.643942],[18.487737,43.641246],[18.499079,43.637816],[18.505681,43.636223],[18.513638,43.637449],[18.518209,43.639164],[18.529043,43.637326],[18.539708,43.627401],[18.541232,43.620662],[18.545633,43.614411],[18.557991,43.609876],[18.569502,43.602889],[18.575766,43.598599],[18.581522,43.596024],[18.589139,43.598721],[18.59845,43.600805],[18.613347,43.603625],[18.617464,43.604708],[18.631224,43.607062],[18.650401,43.605022],[18.66286,43.603296],[18.679401,43.603326],[18.693684,43.597005],[18.708497,43.583594],[18.721987,43.581103],[18.738122,43.575738],[18.747909,43.569989],[18.762986,43.564814],[18.814565,43.563856],[18.82245,43.566176],[18.852352,43.573241],[18.878896,43.578107],[18.893739,43.591134],[18.90284,43.601806],[18.911399,43.606983],[18.923425,43.607689],[18.933718,43.613338],[18.945202,43.621887],[18.968821,43.63169],[18.977489,43.636552],[18.98854,43.64353],[18.995257,43.648077],[19.005414,43.653006],[19.002705,43.661457],[19.000505,43.665743],[18.995257,43.670764],[18.98984,43.674437],[18.984423,43.677253],[18.976128,43.676396],[18.966648,43.674559],[18.960384,43.677743],[18.957168,43.682518],[18.948026,43.694881],[18.945317,43.699165],[18.943625,43.707242],[18.942927,43.717653],[18.94076,43.720941],[18.936535,43.725483],[18.93231,43.732059],[18.929384,43.738165],[18.924726,43.742705],[18.914677,43.748712],[18.910952,43.760695],[18.908752,43.763018],[18.90198,43.762774],[18.89699,43.760549],[18.879655,43.757497],[18.865787,43.755541],[18.846393,43.754915],[18.834151,43.756949],[18.829018,43.758617],[18.797869,43.760084],[18.78822,43.756294],[18.779586,43.752136],[18.762488,43.738195],[18.747083,43.726819],[18.728293,43.705406],[18.714581,43.684844],[18.700191,43.672723],[18.68394,43.665131],[18.67666,43.665498],[18.668196,43.669172],[18.661425,43.672968],[18.6555,43.675049],[18.650421,43.673947],[18.642803,43.671253],[18.634508,43.666845],[18.627737,43.665621],[18.622827,43.66807],[18.602175,43.676763],[18.578305,43.688761],[18.566624,43.695493],[18.557822,43.703081],[18.550034,43.705774],[18.530059,43.706875],[18.479002,43.70802],[18.459175,43.706846],[18.441082,43.703086],[18.420497,43.703399],[18.408687,43.707237],[18.405004,43.712093],[18.40262,43.717966],[18.398862,43.725228],[18.38278,43.730733],[18.374993,43.734892],[18.368729,43.74113],[18.365851,43.746022],[18.364158,43.753359],[18.363989,43.75825],[18.361111,43.764363],[18.352647,43.769987],[18.342151,43.772554],[18.329116,43.776465],[18.325561,43.781966],[18.324376,43.78551],[18.338088,43.791743],[18.335549,43.79663],[18.334872,43.802251],[18.345029,43.809337],[18.351123,43.815323],[18.356371,43.819964],[18.361619,43.823995],[18.370253,43.828758],[18.378209,43.830834],[18.389551,43.834498],[18.399153,43.839607],[18.412154,43.843357],[18.419522,43.842342],[18.422772,43.840544],[18.421208,43.833399],[18.424763,43.823384],[18.43729,43.812513],[18.45151,43.80555],[18.462683,43.800418],[18.473009,43.799441],[18.483505,43.800907],[18.490615,43.810192],[18.49547,43.817644],[18.505329,43.831948],[18.515839,43.839685],[18.528948,43.84828],[18.535124,43.85164],[18.536749,43.859374],[18.531548,43.868514],[18.537291,43.875465],[18.546283,43.882259],[18.551375,43.888272],[18.560584,43.90334],[18.564932,43.912233],[18.567979,43.920647],[18.566286,43.924427],[18.557144,43.931011],[18.554436,43.933937],[18.548849,43.934547],[18.54394,43.93284],[18.538692,43.932474],[18.536661,43.943445],[18.535137,43.948321],[18.530736,43.950027],[18.524506,43.954916],[18.517572,43.95788],[18.520064,43.961702],[18.529056,43.967004],[18.535015,43.973632],[18.537291,43.978622],[18.543466,43.982754],[18.554842,43.984703],[18.562534,43.987899],[18.568385,44.010267],[18.583878,44.020707],[18.592871,44.023746],[18.598288,44.031068],[18.603055,44.043608],[18.605872,44.048203],[18.60858,44.051084],[18.611554,44.056014],[18.647098,44.076504],[18.69008,44.097582],[18.730663,44.115062],[18.742005,44.116399],[18.749284,44.119923],[18.759441,44.122111],[18.766551,44.120288],[18.770953,44.121989],[18.775185,44.126364],[18.777894,44.132439],[18.780771,44.147139],[18.784665,44.152605],[18.796346,44.1622],[18.799562,44.166086],[18.793806,44.174221],[18.796176,44.177864],[18.800578,44.179563],[18.807349,44.184055],[18.809889,44.190003],[18.804641,44.198014],[18.80007,44.20032],[18.792621,44.202747],[18.783988,44.206995],[18.777555,44.218885],[18.768752,44.231987],[18.761811,44.239871],[18.758764,44.272365],[18.746914,44.29115],[18.748268,44.300965],[18.754024,44.311625],[18.760796,44.318287],[18.762827,44.322284],[18.763504,44.326038],[18.767567,44.330882],[18.782295,44.342869],[18.792114,44.345896],[18.805995,44.347228],[18.815407,44.3519],[18.818549,44.359182],[18.821908,44.363907],[18.827542,44.368245],[18.836318,44.369484],[18.846935,44.369406],[18.854844,44.372504],[18.858745,44.377151],[18.863512,44.380945],[18.873913,44.383345],[18.874563,44.386752],[18.874021,44.391088],[18.868062,44.399139],[18.867845,44.40208],[18.869146,44.403938],[18.874021,44.405873],[18.885722,44.413535],[18.892873,44.414464],[18.902624,44.408892],[18.910749,44.406028],[18.921692,44.405951],[18.930251,44.40866],[18.935885,44.413071],[18.942819,44.42375],[18.944877,44.428547],[18.945311,44.432957],[18.9492,44.437551],[18.956078,44.441517],[18.96322,44.446994],[18.964542,44.455113],[18.972213,44.463042],[18.978297,44.464364],[18.985174,44.464175],[18.994432,44.467573],[18.992845,44.474934],[18.987554,44.487956],[18.996019,44.494938],[19.000515,44.49456],[19.004218,44.493051],[19.010831,44.492862],[19.016386,44.500598],[19.021147,44.50588],[19.025908,44.510407],[19.026575,44.516828],[19.020142,44.519966],[19.011001,44.523828],[19.010323,44.528294],[19.013878,44.532759],[19.024036,44.539637],[19.03487,44.544222],[19.03487,44.551943],[19.028776,44.55713],[19.02539,44.562679],[19.027421,44.566538],[19.032838,44.579201],[19.032838,44.602588],[19.029283,44.607048],[19.017264,44.61235],[19.007276,44.615363],[18.995765,44.616448],[18.975789,44.61693],[18.968002,44.615484],[18.959876,44.60753],[18.957845,44.601262],[18.952597,44.595235],[18.945995,44.588484],[18.940577,44.582456],[18.934314,44.573413],[18.934314,44.561955],[18.935499,44.55134],[18.932113,44.543619],[18.925172,44.533724],[18.914846,44.530587],[18.90452,44.530225],[18.891654,44.531311],[18.87591,44.534931],[18.863891,44.536017],[18.857966,44.537827],[18.850348,44.549892],[18.845269,44.552667],[18.840529,44.554235],[18.832959,44.552672],[18.819524,44.552826],[18.808798,44.554834],[18.800239,44.559157],[18.795039,44.56456],[18.793739,44.574517],[18.790759,44.588002],[18.788051,44.591016],[18.776878,44.594512],[18.758256,44.603553],[18.749115,44.611748],[18.743698,44.615363],[18.740312,44.620063],[18.741497,44.650781],[18.736967,44.661508],[18.736209,44.668443],[18.737834,44.674761],[18.742326,44.679435],[18.749737,44.685146],[18.758879,44.689626],[18.775524,44.69448],[18.791267,44.701941],[18.807349,44.705069],[18.818522,44.714333],[18.822924,44.721069],[18.824955,44.729248],[18.822416,44.735021],[18.816491,44.742115],[18.801874,44.752874],[18.792655,44.746444],[18.787671,44.743366],[18.782363,44.741904],[18.778029,44.743212],[18.772287,44.745751],[18.766978,44.748906],[18.762103,44.750445],[18.754735,44.750676],[18.74921,44.749137],[18.738917,44.747829],[18.728278,44.745656],[18.717808,44.742701],[18.711844,44.739155],[18.704425,44.732604],[18.699502,44.725067],[18.693331,44.720682],[18.686371,44.716272],[18.677053,44.715271],[18.672069,44.71658],[18.667519,44.715425],[18.663944,44.713193],[18.656468,44.712269],[18.650942,44.71481],[18.646717,44.718582],[18.64325,44.725356],[18.636966,44.72882],[18.62624,44.727896],[18.616164,44.72551],[18.60858,44.725048],[18.603813,44.72628],[18.596338,44.728897],[18.589295,44.728974],[18.58507,44.728358],[18.581928,44.726434],[18.579436,44.726665],[18.575861,44.730437],[18.574344,44.735439],[18.558309,44.748752],[18.551917,44.754292],[18.548992,44.758293],[18.548342,44.76437],[18.549858,44.768524],[18.546933,44.774139],[18.537507,44.780753],[18.538157,44.782906],[18.542166,44.786059],[18.543141,44.78998],[18.541191,44.79444],[18.533499,44.79936],[18.52689,44.804127],[18.522448,44.809507],[18.523531,44.817654],[18.530573,44.818961],[18.53664,44.817193],[18.541191,44.814734],[18.544875,44.811583],[18.550075,44.810045],[18.559393,44.813812],[18.566543,44.819499],[18.571202,44.827107],[18.575293,44.832521]]]]}}
]}