{"type":"FeatureCollection","bbox":[-8.156,49.9667,1.7712,60.5332],"features":[
{"type":"Feature","id":"GBR:ADM0:GBR","properties":{"shapeName":"United Kingdom","shapeISO":"GBR","shapeType":"ADM0"},"geometry":{"type":"MultiPolygon","coordinates":[[[[-7.2471,55.0693],[-7.4053,55.0036],[-7.5517,54.7547],[-7.9066,54.6613],[-7.7493,54.5962],[-8.0022,54.5434],[-8.156,54.4391],[-7.895,54.2936],[-7.837,54.2043],[-7.609,54.1399],[-7.3103,54.1147],[-7.209,54.2934],[-7.0493,54.4115],[-6.8797,54.3416],[-6.8239,54.2324],[-6.6403,54.168],[-6.6165,54.0373],[-6.2846,54.1052],[-6.0405,54.0364],[-5.912,54.0913],[-5.862,54.2305],[-5.6126,54.2556],[-5.4335,54.4663],[-5.5366,54.6575],[-5.748,54.6804],[-5.702,54.8247],[-5.7976,54.8446],[-6.0621,55.0741],[-6.0371,55.1679],[-6.4759,55.2487],[-6.7545,55.1778],[-6.9467,55.1954],[-7.0172,55.0711],[-7.2471,55.0693]]],[[[-2.6654,51.6173],[-2.6962,51.5126],[-2.9596,51.3743],[-3.0575,51.2082],[-3.385,51.1862],[-3.7692,51.2477],[-4.1523,51.2116],[-4.2347,51.0553],[-4.3377,50.9966],[-4.5264,51.015],[-4.5501,50.8096],[-4.7925,50.5952],[-5.0253,50.5242],[-5.0503,50.4287],[-5.438,50.1943],[-5.6846,50.1615],[-5.5784,50.0548],[-5.4748,50.1304],[-5.324,50.0895],[-5.2104,49.9667],[-5.0981,50.0144],[-5.0204,50.192],[-4.8002,50.2296],[-4.7521,50.3303],[-4.4954,50.3284],[-4.2161,50.4157],[-4.0329,50.2949],[-3.8263,50.2342],[-3.6456,50.226],[-3.632,50.3123],[-3.4875,50.4116],[-3.4673,50.5856],[-3.2598,50.6745],[-2.8648,50.7338],[-2.6929,50.6928],[-2.4835,50.5904],[-2.4359,50.6375],[-1.9837,50.5966],[-1.9493,50.7133],[-1.6706,50.7401],[-1.3173,50.8002],[-1.0562,50.783],[-0.9392,50.8432],[-0.8128,50.7348],[-0.569,50.8021],[-0.1732,50.829],[0.271,50.7474],[0.3703,50.8188],[0.6242,50.8587],[0.8023,50.9392],[0.9452,50.9094],[1.0276,51.0417],[1.3572,51.131],[1.4131,51.2217],[1.4238,51.3921],[0.9772,51.3492],[0.5545,51.4122],[0.9245,51.5883],[0.9518,51.6784],[0.887,51.7821],[0.9888,51.8303],[1.1354,51.7817],[1.2883,51.8606],[1.3323,51.9401],[1.5823,52.0815],[1.6305,52.2705],[1.7712,52.4859],[1.7472,52.6252],[1.6442,52.7758],[1.2747,52.9292],[0.9661,52.9744],[0.5696,52.9693],[0.3792,52.7908],[0.2468,52.7957],[0.0221,52.9126],[0.3298,53.0865],[0.3421,53.2263],[0.2195,53.4195],[-0.0466,53.5704],[0.1335,53.6426],[-0.1511,53.8993],[-0.2195,54.0228],[-0.1114,54.1316],[-0.2339,54.1605],[-0.3976,54.2692],[-0.563,54.4774],[-0.7879,54.5608],[-1.1036,54.6247],[-1.2755,54.7484],[-1.3702,54.9755],[-1.4801,55.0854],[-1.5701,55.2862],[-1.6308,55.5851],[-1.8217,55.6364],[-2.1468,55.9173],[-2.3078,55.935],[-2.6351,56.0581],[-2.8028,56.0648],[-2.9399,55.9693],[-3.3035,55.9776],[-3.1276,56.1229],[-2.9643,56.2056],[-2.7836,56.192],[-2.5768,56.2839],[-2.8216,56.3762],[-2.7648,56.4757],[-2.53,56.5808],[-2.4407,56.7348],[-2.2199,56.8726],[-2.1562,57.0207],[-2.0493,57.1188],[-1.9803,57.3193],[-1.7593,57.4736],[-1.8295,57.6135],[-1.9325,57.6824],[-2.1081,57.705],[-2.4329,57.6681],[-2.9161,57.7028],[-3.0787,57.6694],[-3.2847,57.7204],[-3.4919,57.7131],[-3.8375,57.593],[-4.1186,57.593],[-3.9148,57.8077],[-4.1391,57.8469],[-4.0301,57.9532],[-3.2205,58.3056],[-3.0863,58.4142],[-3.1293,58.5126],[-3.0191,58.6403],[-3.2041,58.6611],[-3.8101,58.5731],[-4.1606,58.5626],[-4.3824,58.5246],[-4.9882,58.6283],[-5.0501,58.4538],[-5.1732,58.3539],[-5.0964,58.2768],[-5.3108,58.2434],[-5.2926,57.9806],[-5.487,57.8559],[-5.6126,57.9288],[-5.8074,57.8439],[-5.7628,57.634],[-5.8697,57.5009],[-5.8078,57.3549],[-5.5994,57.2792],[-5.8317,56.9971],[-5.7355,56.8941],[-5.9136,56.7637],[-6.0034,56.6187],[-5.6674,56.4985],[-5.4109,56.5521],[-5.3943,56.4655],[-5.5096,56.4006],[-5.5981,56.2586],[-5.5225,56.1658],[-5.5868,56.012],[-5.6964,55.916],[-5.5812,55.7576],[-5.7218,55.5646],[-5.7723,55.3013],[-5.64,55.3039],[-5.455,55.5919],[-5.4335,55.721],[-5.3178,55.783],[-5.4072,55.8663],[-5.4476,56.0094],[-5.3136,56.0124],[-4.9831,55.871],[-4.8611,55.7567],[-4.9205,55.7086],[-4.6711,55.5844],[-4.6178,55.4956],[-4.8325,55.3311],[-4.8824,55.2186],[-5.0078,55.1412],[-5.047,55.0151],[-5.1708,55.0087],[-5.1282,54.8489],[-4.9537,54.81],[-4.8591,54.8663],[-4.5967,54.7753],[-4.5056,54.7047],[-4.3481,54.702],[-4.3476,54.8073],[-3.9642,54.7719],[-3.8443,54.8663],[-3.3879,54.8834],[-3.6342,54.5129],[-3.4743,54.3935],[-3.4074,54.2777],[-3.241,54.1121],[-2.8509,54.1846],[-2.796,54.1252],[-3.0176,53.932],[-3.0492,53.7695],[-2.9517,53.7081],[-3.0995,53.572],[-3.0583,53.4348],[-3.1852,53.3773],[-3.5623,53.2944],[-3.7689,53.3192],[-4.0669,53.2291],[-4.1515,53.2281],[-4.3409,53.1127],[-4.3582,53.0285],[-4.5961,52.9284],[-4.7554,52.8093],[-4.501,52.8268],[-4.4066,52.8925],[-4.1299,52.8892],[-4.0488,52.7216],[-4.1222,52.6287],[-4.0531,52.5424],[-4.0963,52.3879],[-4.1971,52.2793],[-4.5138,52.1357],[-4.6375,52.1385],[-4.7776,52.0649],[-5.2889,51.9169],[-5.1259,51.856],[-4.941,51.5965],[-4.7123,51.6501],[-4.6454,51.7321],[-4.3793,51.7269],[-4.2937,51.6723],[-4.2724,51.5548],[-3.9746,51.563],[-3.8549,51.6238],[-3.7179,51.4786],[-3.5392,51.3985],[-3.1848,51.3976],[-3.1056,51.4972],[-2.8587,51.5461],[-2.6654,51.6173]]],[[[-1.0828,50.7133],[-1.2958,50.7732],[-1.5059,50.7077],[-1.3155,50.5892],[-1.1684,50.6035],[-1.0828,50.7133]]],[[[-4.0981,53.3096],[-4.2032,53.2985],[-4.2767,53.401],[-4.5535,53.4006],[-4.571,53.2755],[-4.496,53.1826],[-4.3439,53.1321],[-4.2294,53.1822],[-4.1955,53.2203],[-4.0981,53.2501],[-4.0981,53.3096]]],[[[-5.0708,55.5093],[-5.16,55.6762],[-5.3552,55.6896],[-5.3457,55.4827],[-5.1636,55.4349],[-5.0708,55.5093]]],[[[-6.0304,55.7291],[-6.1202,55.9294],[-6.4091,55.8636],[-6.4932,55.7392],[-6.321,55.7335],[-6.2153,55.6267],[-6.0304,55.7291]]],[[[-5.7976,56.1126],[-5.9244,56.056],[-6.0752,55.916],[-5.9621,55.8048],[-5.7402,56.0765],[-5.7976,56.1126]]],[[[-5.6883,56.4348],[-5.7218,56.4901],[-5.9521,56.5242],[-6.0583,56.6402],[-6.2884,56.608],[-6.2885,56.5323],[-6.1274,56.4744],[-6.3275,56.2772],[-6.147,56.2839],[-5.72,56.3528],[-5.6883,56.4348]]],[[[-7.2438,57.3255],[-7.353,57.408],[-7.4554,57.2367],[-7.2711,57.1479],[-7.2438,57.3255]]],[[[-7.1294,57.6529],[-7.1817,57.6885],[-7.5448,57.593],[-7.2875,57.5088],[-7.1339,57.5384],[-7.1294,57.6529]]],[[[-6.5641,57.3466],[-6.3183,57.161],[-6.0235,57.1957],[-5.9189,57.0501],[-5.6909,57.1895],[-6.1066,57.3235],[-6.1539,57.5895],[-6.3143,57.6992],[-6.7065,57.5109],[-6.7148,57.3766],[-6.5641,57.3466]]],[[[-6.9551,57.7438],[-6.5375,57.9213],[-6.3524,58.0386],[-6.394,58.1018],[-6.3179,58.2683],[-6.1669,58.4195],[-6.3456,58.4632],[-6.8186,58.2851],[-6.8971,58.1721],[-7.0561,58.2257],[-7.1265,58.124],[-7.0363,57.9606],[-6.8971,57.9356],[-7.0793,57.8127],[-6.9551,57.7438]]],[[[-2.7277,58.9709],[-3.012,59.0174],[-3.0845,59.128],[-3.3238,59.1274],[-3.3667,59.0161],[-3.2028,58.9159],[-2.9736,58.9538],[-2.8393,58.8826],[-2.7277,58.9709]]],[[[-1.097,60.4165],[-1.3361,60.5332],[-1.4381,60.4605],[-1.3964,60.3218],[-1.6574,60.3062],[-1.6697,60.2396],[-1.2626,60.1151],[-1.376,59.9086],[-1.2746,59.8821],[-1.0753,60.321],[-1.097,60.4165]]]]}}
]}