{"type":"FeatureCollection","bbox":[22.1537,45.227,40.1417,52.3689],"features":[
{"type":"Feature","id":"UKR:ADM0:UKR","properties":{"shapeName":"Ukraine","shapeISO":"UKR","shapeType":"ADM0"},"geometry":{"type":"Polygon","coordinates":[[[31.7643,52.1006],[31.4749,52.1178],[30.9405,52.0201],[30.662,51.8194],[30.5341,51.5533],[30.6383,51.3359],[30.3551,51.3053],[30.1486,51.4844],[29.8286,51.43],[29.618,51.4856],[29.297,51.3737],[29.1604,51.6033],[28.7999,51.5326],[28.3469,51.5252],[27.4773,51.6237],[27.1779,51.7471],[26.8548,51.7493],[26.4078,51.8506],[25.7679,51.9285],[25.1833,51.9498],[24.3908,51.88],[23.9813,51.586],[23.5944,51.605],[23.634,51.3393],[23.8747,51.1361],[24.1065,50.5386],[23.7475,50.3894],[23.1015,49.9571],[22.6409,49.5288],[22.7445,49.0455],[22.5396,49.0722],[22.3225,48.7003],[22.1537,48.5859],[22.3571,48.2431],[22.6001,48.1011],[23.0631,48.0075],[23.9773,47.9623],[24.231,47.897],[24.5616,47.9405],[24.8966,47.7101],[25.2617,47.8986],[26.1731,47.9931],[26.3035,48.212],[26.6179,48.259],[26.8428,48.3937],[27.1758,48.3618],[27.5038,48.4724],[27.7518,48.452],[28.1999,48.2117],[28.7993,48.1118],[28.9504,47.9348],[29.124,47.976],[29.2386,47.756],[29.1174,47.5333],[29.3589,47.3527],[29.5566,47.324],[29.5587,46.9457],[29.8436,46.8541],[29.9526,46.7247],[29.727,46.4558],[29.2833,46.3974],[29.1627,46.5381],[28.9458,46.4548],[29.0154,46.1826],[28.932,45.9932],[28.2705,45.5215],[28.3302,45.3229],[28.7101,45.227],[29.3221,45.4438],[29.7562,45.3212],[29.5897,45.5591],[30.1384,45.8198],[30.4942,46.0805],[30.9914,46.6013],[31.481,46.6464],[31.8584,46.6291],[32.1117,46.5124],[31.9683,46.3511],[32.2625,46.1282],[32.5034,46.0761],[32.7898,46.1343],[33.2935,46.1357],[33.8462,46.1957],[34.3619,46.0557],[34.4646,45.9553],[34.8744,45.9261],[34.8113,46.1662],[35.2914,46.2934],[35.9016,46.6527],[36.1895,46.669],[36.8862,46.804],[37.2082,46.9336],[37.3352,46.8825],[37.5807,47.0904],[38.2166,47.1033],[38.201,47.2906],[38.3529,47.6071],[38.7345,47.6771],[38.8772,47.8612],[39.7591,47.8329],[39.8431,48.1198],[39.9932,48.2732],[39.8092,48.5838],[39.6317,48.5869],[39.7587,48.8954],[40.1417,49.2458],[40.0409,49.4555],[39.5704,49.7133],[39.238,49.7651],[38.3442,49.9921],[37.9953,49.9213],[37.7276,50.0787],[37.4353,50.4249],[36.6826,50.2607],[36.269,50.2814],[36.1058,50.4211],[35.6969,50.3451],[35.4253,50.5005],[35.3417,50.9159],[34.9618,51.2153],[34.7481,51.1647],[34.2803,51.3613],[34.128,51.6807],[34.3857,51.8177],[34.0682,52.031],[34.0557,52.1703],[33.8041,52.3546],[33.1965,52.3689],[32.9269,52.2469],[32.5284,52.3162],[32.0956,52.0407],[31.7643,52.1006]]]}}
]}