{"type":"FeatureCollection","bbox":[22.3482,41.2338,28.6052,44.1972],"features":[
{"type":"Feature","id":"BGR:ADM1:BG-01","properties":{"shapeName":"Blagoevgrad","shapeISO":"BG-01","shapeType":"ADM1"},"geometry":{"type":"Polygon","coordinates":[[[24.0911,41.6764],[23.7995,41.8499],[23.7636,41.9724],[23.799,42.0618],[23.7603,42.1857],[23.5086,42.1012],[23.415,42.0538],[23.1767,42.0985],[23.0691,42.0485],[22.9705,42.0678],[22.8728,42.0173],[22.888,41.9223],[23.048,41.7181],[22.9673,41.635],[22.9876,41.5679],[22.9716,41.3313],[23.2151,41.3172],[23.3086,41.3973],[23.6493,41.3747],[23.9132,41.4564],[24.0761,41.4728],[24.0773,41.5341],[24.0911,41.6764]]]}},
{"type":"Feature","id":"BGR:ADM1:BG-02","properties":{"shapeName":"Burgas","shapeISO":"BG-02","shapeType":"ADM1"},"geometry":{"type":"Polygon","coordinates":[[[27.8734,42.8348],[27.6986,42.8853],[27.4475,42.884],[27.2397,42.966],[27.1151,42.9359],[26.5639,42.9209],[26.5659,42.7941],[26.6987,42.7036],[26.8855,42.4437],[26.9501,42.2844],[26.9472,42.1616],[27.0447,42.0898],[27.202,42.0618],[27.2884,42.0958],[27.4145,41.9869],[27.5757,41.9245],[27.8302,41.9913],[28.034,41.9782],[27.993,42.0587],[27.7524,42.2519],[27.7209,42.4022],[27.5864,42.4517],[27.585,42.5586],[27.7417,42.7067],[27.8886,42.6976],[27.8734,42.8348]]]}},
{"type":"Feature","id":"BGR:ADM1:BG-08","properties":{"shapeName":"Dobrich","shapeISO":"BG-08","shapeType":"ADM1"},"geometry":{"type":"Polygon","coordinates":[[[27.4282,43.5971],[27.54,43.5093],[27.7199,43.4758],[27.8512,43.3657],[27.9912,43.4009],[28.0509,43.3117],[28.1486,43.4025],[28.3123,43.4174],[28.4693,43.3768],[28.6052,43.512],[28.5856,43.7082],[28.2365,43.7681],[28.0102,43.8515],[27.9436,43.9931],[27.6965,43.989],[27.6266,43.9164],[27.4382,43.8686],[27.2135,43.7456],[27.2208,43.6674],[27.4282,43.5971]]]}},
{"type":"Feature","id":"BGR:ADM1:BG-07","properties":{"shapeName":"Gabrovo","shapeISO":"BG-07","shapeType":"ADM1"},"geometry":{"type":"Polygon","coordinates":[[[25.0682,43.1915],[24.9475,43.2104],[24.8646,43.0208],[24.8505,42.9008],[24.9651,42.8278],[24.9886,42.7539],[25.1538,42.776],[25.4048,42.7392],[25.6303,42.7628],[25.6113,42.8699],[25.5287,42.926],[25.5582,43.0169],[25.2816,43.0639],[25.1226,43.1238],[25.0682,43.1915]]]}},
{"type":"Feature","id":"BGR:ADM1:BG-26","properties":{"shapeName":"Haskovo","shapeISO":"BG-26","shapeType":"ADM1"},"geometry":{"type":"Polygon","coordinates":[[[26.5552,41.9342],[26.4799,42.029],[26.515,42.1373],[26.1736,42.2206],[26.1175,42.1612],[26.1351,42.0493],[26.0501,42.0241],[25.9648,42.0929],[25.8414,42.1202],[25.7573,42.0585],[25.6737,42.1525],[25.4499,42.162],[25.3278,42.1188],[25.2969,41.9622],[25.2294,41.9097],[25.2422,41.8363],[25.5695,41.7617],[25.6192,41.624],[25.7126,41.6183],[25.8535,41.4858],[25.8472,41.3966],[25.9463,41.3154],[26.1343,41.36],[26.1809,41.5519],[26.0586,41.7029],[26.1499,41.7507],[26.293,41.7068],[26.3978,41.8256],[26.5117,41.824],[26.5552,41.9342]]]}},
{"type":"Feature","id":"BGR:ADM1:BG-09","properties":{"shapeName":"Kardzhali","shapeISO":"BG-09","shapeType":"ADM1"},"geometry":{"type":"Polygon","coordinates":[[[25.2294,41.9097],[25.0593,41.7985],[25.0896,41.6277],[24.9786,41.5759],[25.0202,41.5113],[25.1695,41.5018],[25.139,41.3884],[25.1782,41.3075],[25.3018,41.2338],[25.568,41.3111],[25.7071,41.291],[25.8228,41.3357],[25.9463,41.3154],[25.8472,41.3966],[25.8535,41.4858],[25.7126,41.6183],[25.6192,41.624],[25.5695,41.7617],[25.2422,41.8363],[25.2294,41.9097]]]}},
{"type":"Feature","id":"BGR:ADM1:BG-10","properties":{"shapeName":"Kyustendil","shapeISO":"BG-10","shapeType":"ADM1"},"geometry":{"type":"Polygon","coordinates":[[[23.5086,42.1012],[23.3157,42.3619],[23.228,42.3705],[22.8452,42.3572],[22.7567,42.4127],[22.5813,42.6219],[22.4558,42.6387],[22.4461,42.5689],[22.5557,42.4726],[22.4139,42.2672],[22.5403,42.1278],[22.6781,42.0615],[22.8728,42.0173],[22.9705,42.0678],[23.0691,42.0485],[23.1767,42.0985],[23.415,42.0538],[23.5086,42.1012]]]}},
{"type":"Feature","id":"BGR:ADM1:BG-11","properties":{"shapeName":"Lovech","shapeISO":"BG-11","shapeType":"ADM1"},"geometry":{"type":"Polygon","coordinates":[[[25.0682,43.1915],[25.1315,43.2937],[25.0528,43.3702],[24.9029,43.2963],[24.7507,43.3121],[24.6338,43.2364],[24.4402,43.2432],[24.3854,43.2834],[24.0292,43.2218],[24.0362,43.1178],[23.962,43.0591],[24.1467,42.9411],[24.137,42.7853],[24.3742,42.7594],[24.4861,42.7984],[24.6224,42.7869],[24.6991,42.7232],[24.9886,42.7539],[24.9651,42.8278],[24.8505,42.9008],[24.8646,43.0208],[24.9475,43.2104],[25.0682,43.1915]]]}},
{"type":"Feature","id":"BGR:ADM1:BG-12","properties":{"shapeName":"Montana","shapeISO":"BG-12","shapeType":"ADM1"},"geometry":{"type":"Polygon","coordinates":[[[23.6214,43.7958],[23.4447,43.8521],[23.2453,43.8429],[23.0273,43.7912],[23.0466,43.7055],[22.944,43.6746],[22.9227,43.5824],[22.7912,43.4831],[22.738,43.3924],[22.8634,43.2508],[22.9864,43.1972],[23.104,43.1287],[23.307,43.1306],[23.4053,43.168],[23.3839,43.3637],[23.4522,43.51],[23.548,43.587],[23.6332,43.7399],[23.6214,43.7958]]]}},
{"type":"Feature","id":"BGR:ADM1:BG-13","properties":{"shapeName":"Pazardzhik","shapeISO":"BG-13","shapeType":"ADM1"},"geometry":{"type":"Polygon","coordinates":[[[23.7603,42.1857],[23.799,42.0618],[23.7636,41.9724],[23.7995,41.8499],[24.0911,41.6764],[24.1182,41.7341],[24.2728,41.7391],[24.4246,41.9269],[24.4249,42.0585],[24.4709,42.2095],[24.4626,42.3149],[24.3645,42.4774],[24.4083,42.5554],[24.268,42.6214],[24.1702,42.6246],[24.0487,42.5492],[23.8986,42.5356],[24.0502,42.4033],[23.9509,42.307],[23.7603,42.1857]]]}},
{"type":"Feature","id":"BGR:ADM1:BG-14","properties":{"shapeName":"Pernik","shapeISO":"BG-14","shapeType":"ADM1"},"geometry":{"type":"Polygon","coordinates":[[[23.228,42.3705],[23.2805,42.5344],[23.1602,42.667],[23.0311,42.7364],[22.7396,42.8935],[22.5153,42.8764],[22.4341,42.8207],[22.491,42.7369],[22.4558,42.6387],[22.5813,42.6219],[22.7567,42.4127],[22.8452,42.3572],[23.228,42.3705]]]}},
{"type":"Feature","id":"BGR:ADM1:BG-15","properties":{"shapeName":"Pleven","shapeISO":"BG-15","shapeType":"ADM1"},"geometry":{"type":"Polygon","coordinates":[[[25.1315,43.2937],[25.2292,43.3744],[25.1795,43.4682],[25.2012,43.6351],[24.9589,43.7092],[24.7128,43.6822],[24.5919,43.7434],[24.4707,43.7491],[24.3038,43.696],[24.1376,43.5961],[24.0246,43.5892],[24.052,43.4462],[23.9576,43.3564],[23.952,43.2404],[24.0292,43.2218],[24.3854,43.2834],[24.4402,43.2432],[24.6338,43.2364],[24.7507,43.3121],[24.9029,43.2963],[25.0528,43.3702],[25.1315,43.2937]]]}},
{"type":"Feature","id":"BGR:ADM1:BG-16","properties":{"shapeName":"Plovdiv","shapeISO":"BG-16","shapeType":"ADM1"},"geometry":{"type":"Polygon","coordinates":[[[25.3278,42.1188],[25.2498,42.1854],[25.0582,42.1929],[25.0965,42.4069],[25.1463,42.5108],[25.0091,42.5278],[24.9755,42.603],[24.9886,42.7539],[24.6991,42.7232],[24.6224,42.7869],[24.4861,42.7984],[24.3742,42.7594],[24.3583,42.6711],[24.4083,42.5554],[24.3645,42.4774],[24.4626,42.3149],[24.4709,42.2095],[24.4249,42.0585],[24.4246,41.9269],[24.5447,41.885],[24.761,41.8855],[24.7448,41.7992],[24.8773,41.7538],[25.0593,41.7985],[25.2294,41.9097],[25.2969,41.9622],[25.3278,42.1188]]]}},
{"type":"Feature","id":"BGR:ADM1:BG-17","properties":{"shapeName":"Razgrad","shapeISO":"BG-17","shapeType":"ADM1"},"geometry":{"type":"Polygon","coordinates":[[[26.3751,43.9465],[26.3067,43.8783],[26.3493,43.7995],[26.4985,43.7608],[26.4665,43.6356],[26.2946,43.6268],[26.1608,43.6596],[26.0477,43.6253],[26.0952,43.5219],[26.2331,43.5596],[26.4461,43.4492],[26.4676,43.3591],[26.6417,43.3394],[26.7318,43.4154],[26.7914,43.5475],[26.9984,43.6573],[26.989,43.7127],[26.8325,43.8393],[26.3751,43.9465]]]}},
{"type":"Feature","id":"BGR:ADM1:BG-18","properties":{"shapeName":"Ruse","shapeISO":"BG-18","shapeType":"ADM1"},"geometry":{"type":"Polygon","coordinates":[[[26.3751,43.9465],[26.3398,44.0189],[26.1491,43.9711],[25.941,43.8505],[25.7495,43.6969],[25.4835,43.6221],[25.4541,43.5759],[25.5382,43.436],[25.757,43.3721],[25.9233,43.363],[25.9971,43.3188],[25.9362,43.3918],[26.0952,43.5219],[26.0477,43.6253],[26.1608,43.6596],[26.2946,43.6268],[26.4665,43.6356],[26.4985,43.7608],[26.3493,43.7995],[26.3067,43.8783],[26.3751,43.9465]]]}},
{"type":"Feature","id":"BGR:ADM1:BG-27","properties":{"shapeName":"Shumen","shapeISO":"BG-27","shapeType":"ADM1"},"geometry":{"type":"Polygon","coordinates":[[[27.1151,42.9359],[27.0816,43.0161],[27.2589,43.2296],[27.276,43.4038],[27.3316,43.555],[27.4282,43.5971],[27.2208,43.6674],[26.989,43.7127],[26.9984,43.6573],[26.7914,43.5475],[26.7318,43.4154],[26.7607,43.2447],[26.6718,43.1684],[26.677,43.0924],[26.5545,42.9916],[26.5639,42.9209],[27.1151,42.9359]]]}},
{"type":"Feature","id":"BGR:ADM1:BG-19","properties":{"shapeName":"Silistra","shapeISO":"BG-19","shapeType":"ADM1"},"geometry":{"type":"Polygon","coordinates":[[[27.6965,43.989],[27.4067,44.018],[27.2823,44.1255],[26.9547,44.1348],[26.7585,44.0754],[26.3398,44.0189],[26.3751,43.9465],[26.8325,43.8393],[26.989,43.7127],[27.2208,43.6674],[27.2135,43.7456],[27.4382,43.8686],[27.6266,43.9164],[27.6965,43.989]]]}},
{"type":"Feature","id":"BGR:ADM1:BG-20","properties":{"shapeName":"Sliven","shapeISO":"BG-20","shapeType":"ADM1"},"geometry":{"type":"Polygon","coordinates":[[[26.5639,42.9209],[26.5545,42.9916],[26.289,43.0306],[26.1718,42.949],[25.9661,42.7958],[25.7957,42.7911],[25.8453,42.6269],[25.8552,42.4404],[25.9311,42.3319],[26.1563,42.2449],[26.2051,42.3211],[26.1633,42.4139],[26.2927,42.4455],[26.4213,42.5547],[26.5532,42.578],[26.6987,42.7036],[26.5659,42.7941],[26.5639,42.9209]]]}},
{"type":"Feature","id":"BGR:ADM1:BG-21","properties":{"shapeName":"Smolyan","shapeISO":"BG-21","shapeType":"ADM1"},"geometry":{"type":"Polygon","coordinates":[[[24.0773,41.5341],[24.3081,41.5187],[24.5482,41.5546],[24.6111,41.432],[25.0323,41.3669],[25.1782,41.3075],[25.139,41.3884],[25.1695,41.5018],[25.0202,41.5113],[24.9786,41.5759],[25.0896,41.6277],[25.0593,41.7985],[24.8773,41.7538],[24.7448,41.7992],[24.761,41.8855],[24.5447,41.885],[24.4246,41.9269],[24.2728,41.7391],[24.1182,41.7341],[24.0911,41.6764],[24.0773,41.5341]]]}},
{"type":"Feature","id":"BGR:ADM1:BG-23","properties":{"shapeName":"Sofia","shapeISO":"BG-23","shapeType":"ADM1"},"geometry":{"type":"Polygon","coordinates":[[[23.7603,42.1857],[23.9509,42.307],[24.0502,42.4033],[23.8986,42.5356],[24.0487,42.5492],[24.1702,42.6246],[24.268,42.6214],[24.4083,42.5554],[24.3583,42.6711],[24.3742,42.7594],[24.137,42.7853],[24.1467,42.9411],[23.962,43.0591],[23.6324,43.0465],[23.5375,43.004],[23.4053,43.168],[23.307,43.1306],[23.104,43.1287],[22.9864,43.1972],[22.9799,43.1314],[22.7897,42.9862],[22.7396,42.8935],[23.0311,42.7364],[23.1858,42.7475],[23.2879,42.8924],[23.615,42.8529],[23.6033,42.7275],[23.5072,42.659],[23.639,42.4171],[23.4168,42.4622],[23.2805,42.5344],[23.228,42.3705],[23.3157,42.3619],[23.5086,42.1012],[23.7603,42.1857]]]}},
{"type":"Feature","id":"BGR:ADM1:BG-22","properties":{"shapeName":"Sofia City","shapeISO":"BG-22","shapeType":"ADM1"},"geometry":{"type":"Polygon","coordinates":[[[23.2805,42.5344],[23.4168,42.4622],[23.639,42.4171],[23.5072,42.659],[23.6033,42.7275],[23.615,42.8529],[23.2879,42.8924],[23.1858,42.7475],[23.0311,42.7364],[23.1602,42.667],[23.2805,42.5344]]]}},
{"type":"Feature","id":"BGR:ADM1:BG-24","properties":{"shapeName":"Stara Zagora","shapeISO":"BG-24","shapeType":"ADM1"},"geometry":{"type":"Polygon","coordinates":[[[24.9886,42.7539],[24.9755,42.603],[25.0091,42.5278],[25.1463,42.5108],[25.0965,42.4069],[25.0582,42.1929],[25.2498,42.1854],[25.3278,42.1188],[25.4499,42.162],[25.6737,42.1525],[25.7573,42.0585],[25.8414,42.1202],[25.9648,42.0929],[26.0501,42.0241],[26.1351,42.0493],[26.1175,42.1612],[26.1736,42.2206],[26.1563,42.2449],[25.9311,42.3319],[25.8552,42.4404],[25.8453,42.6269],[25.7957,42.7911],[25.6303,42.7628],[25.4048,42.7392],[25.1538,42.776],[24.9886,42.7539]]]}},
{"type":"Feature","id":"BGR:ADM1:BG-25","properties":{"shapeName":"Targovishte","shapeISO":"BG-25","shapeType":"ADM1"},"geometry":{"type":"Polygon","coordinates":[[[26.0952,43.5219],[25.9362,43.3918],[25.9971,43.3188],[26.095,43.1988],[26.0391,43.0936],[26.1718,42.949],[26.289,43.0306],[26.5545,42.9916],[26.677,43.0924],[26.6718,43.1684],[26.7607,43.2447],[26.7318,43.4154],[26.6417,43.3394],[26.4676,43.3591],[26.4461,43.4492],[26.2331,43.5596],[26.0952,43.5219]]]}},
{"type":"Feature","id":"BGR:ADM1:BG-03","properties":{"shapeName":"Varna","shapeISO":"BG-03","shapeType":"ADM1"},"geometry":{"type":"Polygon","coordinates":[[[27.8734,42.8348],[27.8838,43.0214],[27.9456,43.1701],[28.0509,43.3117],[27.9912,43.4009],[27.8512,43.3657],[27.7199,43.4758],[27.54,43.5093],[27.4282,43.5971],[27.3316,43.555],[27.276,43.4038],[27.2589,43.2296],[27.0816,43.0161],[27.1151,42.9359],[27.2397,42.966],[27.4475,42.884],[27.6986,42.8853],[27.8734,42.8348]]]}},
{"type":"Feature","id":"BGR:ADM1:BG-04","properties":{"shapeName":"Veliko Tarnovo","shapeISO":"BG-04","shapeType":"ADM1"},"geometry":{"type":"Polygon","coordinates":[[[25.6303,42.7628],[25.7957,42.7911],[25.9661,42.7958],[26.1718,42.949],[26.0391,43.0936],[26.095,43.1988],[25.9971,43.3188],[25.9233,43.363],[25.757,43.3721],[25.5382,43.436],[25.4541,43.5759],[25.4835,43.6221],[25.2012,43.6351],[25.1795,43.4682],[25.2292,43.3744],[25.1315,43.2937],[25.0682,43.1915],[25.1226,43.1238],[25.2816,43.0639],[25.5582,43.0169],[25.5287,42.926],[25.6113,42.8699],[25.6303,42.7628]]]}},
{"type":"Feature","id":"BGR:ADM1:BG-05","properties":{"shapeName":"Vidin","shapeISO":"BG-05","shapeType":"ADM1"},"geometry":{"type":"Polygon","coordinates":[[[23.0273,43.7912],[22.8269,43.8669],[22.8615,43.9636],[23.0058,44.0226],[22.7465,44.1972],[22.6498,44.192],[22.6153,44.066],[22.4069,44.0075],[22.3482,43.8017],[22.4706,43.6477],[22.5321,43.4721],[22.738,43.3924],[22.7912,43.4831],[22.9227,43.5824],[22.944,43.6746],[23.0466,43.7055],[23.0273,43.7912]]]}},
{"type":"Feature","id":"BGR:ADM1:BG-06","properties":{"shapeName":"Vratsa","shapeISO":"BG-06","shapeType":"ADM1"},"geometry":{"type":"Polygon","coordinates":[[[24.0292,43.2218],[23.952,43.2404],[23.9576,43.3564],[24.052,43.4462],[24.0246,43.5892],[24.1376,43.5961],[24.3038,43.696],[24.1627,43.6844],[23.6836,43.8014],[23.6214,43.7958],[23.6332,43.7399],[23.548,43.587],[23.4522,43.51],[23.3839,43.3637],[23.4053,43.168],[23.5375,43.004],[23.6324,43.0465],[23.962,43.0591],[24.0362,43.1178],[24.0292,43.2218]]]}},
{"type":"Feature","id":"BGR:ADM1:BG-28","properties":{"shapeName":"Yambol","shapeISO":"BG-28","shapeType":"ADM1"},"geometry":{"type":"Polygon","coordinates":[[[26.6987,42.7036],[26.5532,42.578],[26.4213,42.5547],[26.2927,42.4455],[26.1633,42.4139],[26.2051,42.3211],[26.1563,42.2449],[26.1736,42.2206],[26.515,42.1373],[26.4799,42.029],[26.5552,41.9342],[26.9767,42.013],[27.0447,42.0898],[26.9472,42.1616],[26.9501,42.2844],[26.8855,42.4437],[26.6987,42.7036]]]}}
]}