{"type":"FeatureCollection","bbox":[8.481735,53.011021,8.990913,53.610051],"features":[
{"type":"Feature","id":"DEU:ADM3:DE-HB.bremen-kreisfreie-stadt","properties":{"shapeName":"Bremen, Kreisfreie Stadt","shapeISO":"","shapeGroup":"DEU","shapeType":"ADM3","adm1ISO":"DE-HB","parentISO":"DE-HB","parentID":"DEU:ADM1:DE-HB","src_shape_id":"24449704B51248366651218"},"geometry":{"type":"MultiPolygon","coordinates":[[[[8.523294,53.591565],[8.522185,53.591129],[8.561798,53.548872],[8.564362,53.549792],[8.569178,53.551409],[8.564773,53.556694],[8.564377,53.559825],[8.56792,53.561428],[8.57017,53.563557],[8.573761,53.573715],[8.57736,53.578409],[8.573997,53.578968],[8.569512,53.582718],[8.564285,53.583419],[8.563278,53.581264],[8.547883,53.5837],[8.540692,53.592842],[8.542384,53.595831],[8.537356,53.597327],[8.535753,53.596359],[8.523294,53.591565]]],[[[8.984185,53.126071],[8.980214,53.131578],[8.97071,53.134076],[8.960518,53.142121],[8.956631,53.147241],[8.946787,53.149904],[8.945083,53.152013],[8.940009,53.15211],[8.936767,53.15117],[8.930809,53.147542],[8.920908,53.144654],[8.922612,53.142572],[8.921026,53.139657],[8.917936,53.138259],[8.912143,53.132619],[8.908923,53.133215],[8.906514,53.137401],[8.90393,53.138176],[8.898855,53.134382],[8.890521,53.133999],[8.887254,53.133372],[8.874382,53.133777],[8.867618,53.132752],[8.864428,53.131702],[8.861276,53.134447],[8.861448,53.137875],[8.858651,53.137909],[8.853228,53.143393],[8.845589,53.145577],[8.845537,53.146956],[8.841855,53.148234],[8.840156,53.157018],[8.834975,53.157163],[8.83143,53.15992],[8.8275,53.160999],[8.829612,53.163294],[8.822104,53.16364],[8.819246,53.162468],[8.814258,53.163416],[8.813173,53.161656],[8.808858,53.162631],[8.799864,53.161148],[8.795092,53.1619],[8.792814,53.16319],[8.78841,53.161007],[8.786507,53.163408],[8.781405,53.163408],[8.775982,53.1613],[8.775396,53.158684],[8.768654,53.160864],[8.761739,53.165135],[8.755406,53.163723],[8.747437,53.165857],[8.743496,53.16411],[8.740526,53.165452],[8.741127,53.168383],[8.737417,53.17287],[8.733555,53.172896],[8.730475,53.175441],[8.728652,53.180224],[8.714396,53.183002],[8.711558,53.182087],[8.709578,53.17697],[8.706293,53.175421],[8.701196,53.178197],[8.702449,53.181236],[8.699358,53.185479],[8.697524,53.183097],[8.691201,53.18143],[8.688089,53.179208],[8.678467,53.177734],[8.679429,53.176175],[8.675729,53.175176],[8.674706,53.178919],[8.671365,53.178995],[8.670389,53.177272],[8.663828,53.176244],[8.65903,53.177282],[8.657479,53.182159],[8.653601,53.183269],[8.652339,53.188393],[8.64775,53.187865],[8.637722,53.191732],[8.638745,53.193034],[8.634392,53.196141],[8.632037,53.19553],[8.627994,53.198372],[8.625923,53.197082],[8.621773,53.197126],[8.622121,53.195279],[8.617641,53.194671],[8.616375,53.193465],[8.609011,53.192011],[8.609147,53.18883],[8.606892,53.187663],[8.599261,53.186537],[8.596576,53.183685],[8.59243,53.184311],[8.590148,53.188535],[8.581284,53.189934],[8.580098,53.193126],[8.584219,53.196964],[8.581098,53.198707],[8.581746,53.200327],[8.588592,53.202682],[8.596966,53.20747],[8.599229,53.210913],[8.599039,53.212546],[8.58199,53.216767],[8.578478,53.21727],[8.572282,53.210769],[8.566405,53.21356],[8.553699,53.207806],[8.546731,53.212973],[8.543671,53.213068],[8.540782,53.215378],[8.536351,53.215316],[8.530235,53.21609],[8.526412,53.220944],[8.523813,53.220559],[8.520697,53.222935],[8.521094,53.226451],[8.51867,53.22615],[8.517334,53.228497],[8.512641,53.227557],[8.5059,53.227861],[8.504608,53.228919],[8.492139,53.227331],[8.489674,53.228154],[8.485331,53.22712],[8.481735,53.22645],[8.482631,53.223578],[8.486842,53.220923],[8.491661,53.216434],[8.496168,53.209881],[8.501035,53.205923],[8.504712,53.200786],[8.511716,53.197213],[8.515326,53.197979],[8.522678,53.192508],[8.533268,53.187347],[8.556543,53.181658],[8.578896,53.174266],[8.58663,53.17297],[8.60796,53.170856],[8.616556,53.168958],[8.619465,53.167521],[8.623603,53.163212],[8.626088,53.148737],[8.627901,53.143019],[8.631067,53.138176],[8.635832,53.13297],[8.645947,53.126907],[8.647964,53.123884],[8.651598,53.122051],[8.650097,53.118269],[8.657681,53.118492],[8.655093,53.114955],[8.653941,53.111404],[8.654899,53.108865],[8.660972,53.106196],[8.669831,53.102975],[8.666844,53.098973],[8.664919,53.094627],[8.666494,53.091559],[8.674082,53.086692],[8.682138,53.085861],[8.688031,53.085734],[8.700763,53.082294],[8.706745,53.077284],[8.709155,53.075908],[8.710363,53.070143],[8.710242,53.066598],[8.706949,53.053354],[8.709801,53.046018],[8.711424,53.04463],[8.718621,53.040289],[8.721466,53.040533],[8.730081,53.035524],[8.737959,53.037355],[8.742762,53.040734],[8.751785,53.038151],[8.756271,53.038781],[8.757184,53.040886],[8.754737,53.042841],[8.758512,53.043918],[8.763765,53.046942],[8.761868,53.048884],[8.762225,53.050832],[8.765907,53.052449],[8.770705,53.053407],[8.772699,53.045118],[8.776612,53.043105],[8.778298,53.039667],[8.781426,53.038623],[8.785334,53.038642],[8.789371,53.037646],[8.794221,53.03549],[8.809484,53.030904],[8.81143,53.028213],[8.815222,53.026553],[8.818218,53.022842],[8.82342,53.020927],[8.830522,53.021231],[8.838098,53.018421],[8.841213,53.021269],[8.849841,53.023371],[8.847535,53.017677],[8.850792,53.016608],[8.851532,53.019278],[8.856937,53.021491],[8.866756,53.022117],[8.868606,53.024921],[8.86499,53.027147],[8.864098,53.033441],[8.861867,53.036178],[8.863378,53.040496],[8.867006,53.040833],[8.865951,53.035046],[8.867235,53.033004],[8.871005,53.030484],[8.878232,53.027107],[8.886532,53.02167],[8.891157,53.01539],[8.897477,53.012999],[8.90634,53.012399],[8.915827,53.011021],[8.917734,53.013141],[8.921475,53.012336],[8.921862,53.014876],[8.928866,53.012872],[8.929354,53.014245],[8.935916,53.013667],[8.93813,53.024986],[8.945009,53.024453],[8.945149,53.02726],[8.947034,53.031201],[8.950135,53.032674],[8.956726,53.034025],[8.963392,53.037068],[8.965622,53.036421],[8.97232,53.039895],[8.976918,53.044556],[8.980267,53.046747],[8.976551,53.051497],[8.973381,53.051075],[8.96978,53.056848],[8.964564,53.056189],[8.962676,53.061147],[8.967714,53.063564],[8.965535,53.069518],[8.963577,53.071741],[8.964544,53.073129],[8.964326,53.080724],[8.965735,53.082701],[8.961377,53.085218],[8.965676,53.090002],[8.981692,53.09289],[8.986423,53.095637],[8.990913,53.096673],[8.989616,53.098347],[8.981524,53.096493],[8.979457,53.099255],[8.970474,53.10157],[8.967462,53.100535],[8.962989,53.100299],[8.959833,53.106849],[8.959389,53.11017],[8.955321,53.112843],[8.951673,53.11331],[8.947018,53.116101],[8.953326,53.118626],[8.95871,53.118919],[8.964483,53.120538],[8.96737,53.122193],[8.978114,53.123541],[8.984185,53.126071]]]]}},
{"type":"Feature","id":"DEU:ADM3:DE-HB.bremerhaven-kreisfreie-stadt","properties":{"shapeName":"Bremerhaven, Kreisfreie Stadt","shapeISO":"","shapeGroup":"DEU","shapeType":"ADM3","adm1ISO":"DE-HB","parentISO":"DE-HB","parentID":"DEU:ADM1:DE-HB","src_shape_id":"24449704B20408807353793"},"geometry":{"type":"MultiPolygon","coordinates":[[[[8.52041,53.606205],[8.483202,53.600499],[8.486799,53.597495],[8.49197,53.591571],[8.493779,53.587971],[8.501525,53.574823],[8.503567,53.57238],[8.508792,53.568121],[8.523352,53.558488],[8.535953,53.551269],[8.539361,53.548814],[8.550111,53.539461],[8.556377,53.534922],[8.557061,53.527861],[8.554898,53.525131],[8.553519,53.522952],[8.548105,53.519941],[8.552684,53.516176],[8.532156,53.509201],[8.514609,53.501413],[8.509038,53.497644],[8.501615,53.490986],[8.492654,53.475123],[8.492652,53.47242],[8.50579,53.471178],[8.507191,53.473294],[8.511604,53.476665],[8.515545,53.476801],[8.518634,53.474446],[8.523674,53.477917],[8.531422,53.480558],[8.538197,53.48036],[8.540931,53.481581],[8.54748,53.482395],[8.563615,53.485607],[8.56959,53.487499],[8.575342,53.485908],[8.579261,53.485565],[8.583014,53.486603],[8.591174,53.484716],[8.597174,53.486076],[8.601182,53.484349],[8.605905,53.484234],[8.606131,53.485938],[8.610148,53.48614],[8.619532,53.489289],[8.623028,53.493534],[8.62633,53.496123],[8.631876,53.49881],[8.631272,53.50158],[8.637863,53.50322],[8.637848,53.505691],[8.644917,53.509322],[8.650555,53.510782],[8.648232,53.514303],[8.652134,53.516017],[8.649158,53.519579],[8.645903,53.518802],[8.644273,53.522391],[8.639775,53.525289],[8.638656,53.534954],[8.641522,53.536399],[8.642052,53.541683],[8.645227,53.540473],[8.644111,53.549204],[8.646354,53.555546],[8.636078,53.553692],[8.63086,53.55569],[8.625154,53.567315],[8.619902,53.573231],[8.616803,53.57437],[8.618011,53.578716],[8.627126,53.57912],[8.627403,53.582426],[8.633272,53.586916],[8.642716,53.592559],[8.637956,53.595067],[8.647088,53.599897],[8.650632,53.602565],[8.64192,53.604187],[8.625716,53.605413],[8.623296,53.605333],[8.61271,53.602924],[8.607068,53.598493],[8.6014,53.595563],[8.594015,53.593067],[8.58978,53.594889],[8.580714,53.596987],[8.577481,53.598406],[8.562864,53.601517],[8.558769,53.603907],[8.554828,53.603144],[8.533651,53.607618],[8.532472,53.604929],[8.524171,53.606693],[8.52041,53.606205]],[[8.523294,53.591565],[8.535753,53.596359],[8.537356,53.597327],[8.542384,53.595831],[8.540692,53.592842],[8.547883,53.5837],[8.563278,53.581264],[8.564285,53.583419],[8.569512,53.582718],[8.573997,53.578968],[8.57736,53.578409],[8.573761,53.573715],[8.57017,53.563557],[8.56792,53.561428],[8.564377,53.559825],[8.564773,53.556694],[8.569178,53.551409],[8.564362,53.549792],[8.561798,53.548872],[8.522185,53.591129],[8.523294,53.591565]]],[[[8.647233,53.610028],[8.642628,53.609213],[8.646141,53.60479],[8.652522,53.604706],[8.653642,53.602871],[8.657717,53.602986],[8.660884,53.607086],[8.653535,53.610051],[8.647233,53.610028]]]]}}
]}