{"type":"FeatureCollection","bbox":[21.0534,53.8868,26.7686,56.4387],"features":[
{"type":"Feature","id":"LTU:ADM0:LTU","properties":{"shapeName":"Lithuania","shapeISO":"LTU","shapeType":"ADM0"},"geometry":{"type":"Polygon","coordinates":[[[26.5945,55.667],[25.6497,56.1438],[25.1092,56.1831],[24.8923,56.4387],[24.4472,56.2605],[23.2884,56.373],[23.0167,56.3239],[22.0941,56.4174],[21.596,56.3079],[21.0534,56.0726],[21.0744,55.7449],[21.2892,55.3052],[21.5039,55.1944],[22.0999,55.0299],[22.5807,55.0576],[22.8089,54.8938],[22.6804,54.4532],[23.4325,54.1693],[23.6426,53.899],[24.2011,53.9525],[24.3779,53.8868],[24.8214,54.0199],[25.1935,54.2437],[25.53,54.3461],[25.7827,54.8697],[26.1386,54.9689],[26.3095,55.1446],[26.5789,55.1185],[26.7686,55.3002],[26.4455,55.3375],[26.5945,55.667]]]}}
]}