{"type":"FeatureCollection","bbox":[14.1849,35.8064,14.575,36.0814],"features":[
{"type":"Feature","id":"MLT:ADM1:MT-13","properties":{"shapeName":"Ghajnsielem","shapeISO":"MT-13","shapeType":"ADM1"},"geometry":{"type":"MultiPolygon","coordinates":[[[[14.3407,36.0184],[14.3256,36.0184],[14.3288,36.0046],[14.3452,36.0052],[14.3407,36.0184]]],[[[14.2943,36.0347],[14.2761,36.0389],[14.2686,36.0217],[14.273,36.0166],[14.3051,36.0272],[14.2943,36.0347]]]]}},
{"type":"Feature","id":"MLT:ADM1:MT-42","properties":{"shapeName":"Qala","shapeISO":"MT-42","shapeType":"ADM1"},"geometry":{"type":"Polygon","coordinates":[[[14.3051,36.0272],[14.3184,36.0257],[14.3367,36.0356],[14.3151,36.0508],[14.2943,36.0347],[14.3051,36.0272]]]}},
{"type":"Feature","id":"MLT:ADM1:MT-50","properties":{"shapeName":"Saint Lawerence","shapeISO":"MT-50","shapeType":"ADM1"},"geometry":{"type":"Polygon","coordinates":[[[14.2095,36.055],[14.1918,36.0617],[14.1967,36.0332],[14.2095,36.055]]]}},
{"type":"Feature","id":"MLT:ADM1:MT-14","properties":{"shapeName":"Gharb","shapeISO":"MT-14","shapeType":"ADM1"},"geometry":{"type":"Polygon","coordinates":[[[14.2095,36.055],[14.2159,36.0551],[14.2135,36.0801],[14.1849,36.0725],[14.1918,36.0617],[14.2095,36.055]]]}},
{"type":"Feature","id":"MLT:ADM1:MT-16","properties":{"shapeName":"Ghasri","shapeISO":"MT-16","shapeType":"ADM1"},"geometry":{"type":"Polygon","coordinates":[[[14.2159,36.0551],[14.2246,36.0514],[14.2374,36.0532],[14.2296,36.061],[14.2281,36.0814],[14.2135,36.0801],[14.2159,36.0551]]]}},
{"type":"Feature","id":"MLT:ADM1:MT-65","properties":{"shapeName":"Żebbuġ Gozo","shapeISO":"MT-65","shapeType":"ADM1"},"geometry":{"type":"Polygon","coordinates":[[[14.2374,36.0532],[14.2479,36.0495],[14.2629,36.0729],[14.2504,36.0811],[14.2281,36.0814],[14.2296,36.061],[14.2374,36.0532]]]}},
{"type":"Feature","id":"MLT:ADM1:MT-22","properties":{"shapeName":"Kerċem","shapeISO":"MT-22","shapeType":"ADM1"},"geometry":{"type":"Polygon","coordinates":[[[14.1967,36.0332],[14.2137,36.03],[14.2331,36.0358],[14.233,36.0429],[14.2246,36.0514],[14.2159,36.0551],[14.2095,36.055],[14.1967,36.0332]]]}},
{"type":"Feature","id":"MLT:ADM1:MT-36","properties":{"shapeName":"Munxar","shapeISO":"MT-36","shapeType":"ADM1"},"geometry":{"type":"Polygon","coordinates":[[[14.2137,36.03],[14.2314,36.0218],[14.239,36.0312],[14.2392,36.0324],[14.2331,36.0358],[14.2137,36.03]]]}},
{"type":"Feature","id":"MLT:ADM1:MT-10","properties":{"shapeName":"Fontana","shapeISO":"MT-10","shapeType":"ADM1"},"geometry":{"type":"Polygon","coordinates":[[[14.2331,36.0358],[14.2392,36.0324],[14.2419,36.0357],[14.233,36.0429],[14.2331,36.0358]]]}},
{"type":"Feature","id":"MLT:ADM1:MT-45","properties":{"shapeName":"Rabat Gozo","shapeISO":"MT-45","shapeType":"ADM1"},"geometry":{"type":"Polygon","coordinates":[[[14.2246,36.0514],[14.233,36.0429],[14.2419,36.0357],[14.2528,36.0421],[14.2479,36.0495],[14.2374,36.0532],[14.2246,36.0514]]]}},
{"type":"Feature","id":"MLT:ADM1:MT-63","properties":{"shapeName":"Xgħajra","shapeISO":"MT-63","shapeType":"ADM1"},"geometry":{"type":"Polygon","coordinates":[[[14.2479,36.0495],[14.2528,36.0421],[14.2756,36.04],[14.2824,36.0619],[14.2629,36.0729],[14.2479,36.0495]]]}},
{"type":"Feature","id":"MLT:ADM1:MT-52","properties":{"shapeName":"Sannat","shapeISO":"MT-52","shapeType":"ADM1"},"geometry":{"type":"Polygon","coordinates":[[[14.2686,36.0217],[14.239,36.0312],[14.2314,36.0218],[14.273,36.0166],[14.2686,36.0217]]]}},
{"type":"Feature","id":"MLT:ADM1:MT-62","properties":{"shapeName":"Xewkija","shapeISO":"MT-62","shapeType":"ADM1"},"geometry":{"type":"Polygon","coordinates":[[[14.2761,36.0389],[14.2756,36.04],[14.2528,36.0421],[14.2419,36.0357],[14.2392,36.0324],[14.239,36.0312],[14.2686,36.0217],[14.2761,36.0389]]]}},
{"type":"Feature","id":"MLT:ADM1:MT-37","properties":{"shapeName":"Nadur","shapeISO":"MT-37","shapeType":"ADM1"},"geometry":{"type":"Polygon","coordinates":[[[14.2943,36.0347],[14.3151,36.0508],[14.2919,36.0648],[14.2824,36.0619],[14.2756,36.04],[14.2761,36.0389],[14.2943,36.0347]]]}},
{"type":"Feature","id":"MLT:ADM1:MT-27","properties":{"shapeName":"Marsaskala","shapeISO":"MT-27","shapeType":"ADM1"},"geometry":{"type":"Polygon","coordinates":[[[14.5676,35.8451],[14.575,35.8595],[14.5636,35.8794],[14.5434,35.8636],[14.5499,35.8483],[14.5676,35.8451]]]}},
{"type":"Feature","id":"MLT:ADM1:melliea","properties":{"shapeName":"Mellieħa","shapeISO":"MT-30","shapeType":"ADM1"},"geometry":{"type":"Polygon","coordinates":[[[14.3918,35.9576],[14.3776,35.9708],[14.3602,35.9664],[14.3499,35.9721],[14.3689,35.9852],[14.3627,35.9953],[14.3236,35.978],[14.3363,35.9681],[14.3415,35.9535],[14.3303,35.9393],[14.3443,35.9289],[14.3718,35.939],[14.3697,35.9475],[14.3918,35.9576]]]}},
{"type":"Feature","id":"MLT:ADM1:MT-12","properties":{"shapeName":"Gżira","shapeISO":"MT-12","shapeType":"ADM1"},"geometry":{"type":"Polygon","coordinates":[[[14.5001,35.9074],[14.4912,35.9092],[14.4882,35.9086],[14.4858,35.9041],[14.492,35.8991],[14.4988,35.9024],[14.5001,35.9074]]]}},
{"type":"Feature","id":"MLT:ADM1:mgarr","properties":{"shapeName":"Mġarr","shapeISO":"MT-30","shapeType":"ADM1"},"geometry":{"type":"Polygon","coordinates":[[[14.3443,35.9289],[14.3333,35.9207],[14.3396,35.907],[14.3601,35.8979],[14.3711,35.9039],[14.4019,35.9082],[14.4012,35.9109],[14.3718,35.939],[14.3443,35.9289]]]}},
{"type":"Feature","id":"MLT:ADM1:MT-51","properties":{"shapeName":"Saint Paul's Bay","shapeISO":"MT-51","shapeType":"ADM1"},"geometry":{"type":"Polygon","coordinates":[[[14.3718,35.939],[14.4012,35.9109],[14.4239,35.9242],[14.4181,35.9384],[14.4249,35.9493],[14.3918,35.9576],[14.3697,35.9475],[14.3718,35.939]]]}},
{"type":"Feature","id":"MLT:ADM1:MT-38","properties":{"shapeName":"Naxxar","shapeISO":"MT-38","shapeType":"ADM1"},"geometry":{"type":"Polygon","coordinates":[[[14.4239,35.9242],[14.4346,35.9098],[14.4476,35.907],[14.4497,35.9167],[14.454,35.9327],[14.4606,35.9342],[14.4617,35.9382],[14.4439,35.9521],[14.4249,35.9493],[14.4181,35.9384],[14.4239,35.9242]]]}},
{"type":"Feature","id":"MLT:ADM1:MT-15","properties":{"shapeName":"Għargħur","shapeISO":"MT-15","shapeType":"ADM1"},"geometry":{"type":"Polygon","coordinates":[[[14.4497,35.9167],[14.4622,35.9132],[14.4632,35.9148],[14.454,35.9327],[14.4497,35.9167]]]}},
{"type":"Feature","id":"MLT:ADM1:MT-40","properties":{"shapeName":"Pembroke","shapeISO":"MT-40","shapeType":"ADM1"},"geometry":{"type":"Polygon","coordinates":[[[14.4606,35.9342],[14.4829,35.9252],[14.4904,35.9269],[14.4801,35.9372],[14.4617,35.9382],[14.4606,35.9342]]]}},
{"type":"Feature","id":"MLT:ADM1:MT-48","properties":{"shapeName":"Saint Julian's","shapeISO":"MT-48","shapeType":"ADM1"},"geometry":{"type":"Polygon","coordinates":[[[14.4912,35.9092],[14.4958,35.9169],[14.4904,35.9269],[14.4829,35.9252],[14.4823,35.917],[14.4882,35.9086],[14.4912,35.9092]]]}},
{"type":"Feature","id":"MLT:ADM1:MT-56","properties":{"shapeName":"Sliema","shapeISO":"MT-56","shapeType":"ADM1"},"geometry":{"type":"Polygon","coordinates":[[[14.5001,35.9074],[14.4958,35.9169],[14.4912,35.9092],[14.5001,35.9074]]]}},
{"type":"Feature","id":"MLT:ADM1:MT-57","properties":{"shapeName":"Swieqi","shapeISO":"MT-57","shapeType":"ADM1"},"geometry":{"type":"Polygon","coordinates":[[[14.454,35.9327],[14.4632,35.9148],[14.4823,35.917],[14.4829,35.9252],[14.4606,35.9342],[14.454,35.9327]]]}},
{"type":"Feature","id":"MLT:ADM1:MT-49","properties":{"shapeName":"Saint John","shapeISO":"MT-49","shapeType":"ADM1"},"geometry":{"type":"Polygon","coordinates":[[[14.4882,35.9086],[14.4823,35.917],[14.4632,35.9148],[14.4622,35.9132],[14.4629,35.9045],[14.472,35.9027],[14.4858,35.9041],[14.4882,35.9086]]]}},
{"type":"Feature","id":"MLT:ADM1:MT-19","properties":{"shapeName":"Iklin","shapeISO":"MT-19","shapeType":"ADM1"},"geometry":{"type":"Polygon","coordinates":[[[14.4476,35.907],[14.449,35.9036],[14.4535,35.9025],[14.4629,35.9045],[14.4622,35.9132],[14.4497,35.9167],[14.4476,35.907]]]}},
{"type":"Feature","id":"MLT:ADM1:MT-60","properties":{"shapeName":"Valletta","shapeISO":"MT-60","shapeType":"ADM1"},"geometry":{"type":"Polygon","coordinates":[[[14.5126,35.8909],[14.5218,35.9014],[14.5131,35.9025],[14.5049,35.8971],[14.5126,35.8909]]]}},
{"type":"Feature","id":"MLT:ADM1:MT-58","properties":{"shapeName":"Ta' Xbiex","shapeISO":"MT-58","shapeType":"ADM1"},"geometry":{"type":"Polygon","coordinates":[[[14.492,35.8991],[14.4941,35.897],[14.4967,35.8966],[14.4988,35.9024],[14.492,35.8991]]]}},
{"type":"Feature","id":"MLT:ADM1:MT-09","properties":{"shapeName":"Floriana","shapeISO":"MT-09","shapeType":"ADM1"},"geometry":{"type":"Polygon","coordinates":[[[14.5049,35.8971],[14.4981,35.8906],[14.4983,35.8879],[14.5022,35.8846],[14.5126,35.8909],[14.5049,35.8971]]]}},
{"type":"Feature","id":"MLT:ADM1:MT-41","properties":{"shapeName":"Pietà","shapeISO":"MT-41","shapeType":"ADM1"},"geometry":{"type":"Polygon","coordinates":[[[14.4941,35.897],[14.49,35.8901],[14.4966,35.8917],[14.4967,35.8966],[14.4941,35.897]]]}},
{"type":"Feature","id":"MLT:ADM1:MT-34","properties":{"shapeName":"Msida","shapeISO":"MT-34","shapeType":"ADM1"},"geometry":{"type":"Polygon","coordinates":[[[14.4858,35.9041],[14.472,35.9027],[14.4766,35.8952],[14.4857,35.8884],[14.49,35.8901],[14.4941,35.897],[14.492,35.8991],[14.4858,35.9041]]]}},
{"type":"Feature","id":"MLT:ADM1:MT-18","properties":{"shapeName":"Ħamrun","shapeISO":"MT-18","shapeType":"ADM1"},"geometry":{"type":"Polygon","coordinates":[[[14.4981,35.8906],[14.4966,35.8917],[14.49,35.8901],[14.4857,35.8884],[14.479,35.8847],[14.4852,35.879],[14.4983,35.8879],[14.4981,35.8906]]]}},
{"type":"Feature","id":"MLT:ADM1:MT-54","properties":{"shapeName":"Santa Venera","shapeISO":"MT-54","shapeType":"ADM1"},"geometry":{"type":"Polygon","coordinates":[[[14.4766,35.8952],[14.4704,35.8881],[14.479,35.8847],[14.4857,35.8884],[14.4766,35.8952]]]}},
{"type":"Feature","id":"MLT:ADM1:MT-04","properties":{"shapeName":"Birkirkara","shapeISO":"MT-04","shapeType":"ADM1"},"geometry":{"type":"Polygon","coordinates":[[[14.4629,35.9045],[14.4535,35.9025],[14.4591,35.8927],[14.4704,35.8881],[14.4766,35.8952],[14.472,35.9027],[14.4629,35.9045]]]}},
{"type":"Feature","id":"MLT:ADM1:MT-02","properties":{"shapeName":"Balzan","shapeISO":"MT-02","shapeType":"ADM1"},"geometry":{"type":"Polygon","coordinates":[[[14.449,35.9036],[14.4458,35.8978],[14.4591,35.8927],[14.4535,35.9025],[14.449,35.9036]]]}},
{"type":"Feature","id":"MLT:ADM1:MT-24","properties":{"shapeName":"Lija","shapeISO":"MT-24","shapeType":"ADM1"},"geometry":{"type":"Polygon","coordinates":[[[14.4346,35.9098],[14.4336,35.8992],[14.4458,35.8978],[14.449,35.9036],[14.4476,35.907],[14.4346,35.9098]]]}},
{"type":"Feature","id":"MLT:ADM1:MT-32","properties":{"shapeName":"Mosta","shapeISO":"MT-32","shapeType":"ADM1"},"geometry":{"type":"Polygon","coordinates":[[[14.4019,35.9082],[14.4132,35.9015],[14.4336,35.8992],[14.4346,35.9098],[14.4239,35.9242],[14.4012,35.9109],[14.4019,35.9082]]]}},
{"type":"Feature","id":"MLT:ADM1:MT-29","properties":{"shapeName":"Mdina","shapeISO":"MT-29","shapeType":"ADM1"},"geometry":{"type":"Polygon","coordinates":[[[14.4128,35.8811],[14.4126,35.8828],[14.4113,35.8865],[14.4019,35.8851],[14.4128,35.8811]]]}},
{"type":"Feature","id":"MLT:ADM1:MT-35","properties":{"shapeName":"Mtarfa","shapeISO":"MT-35","shapeType":"ADM1"},"geometry":{"type":"Polygon","coordinates":[[[14.4113,35.8865],[14.4094,35.8931],[14.4019,35.8851],[14.4113,35.8865]]]}},
{"type":"Feature","id":"MLT:ADM1:MT-46","properties":{"shapeName":"Rabat Malta","shapeISO":"MT-46","shapeType":"ADM1"},"geometry":{"type":"Polygon","coordinates":[[[14.3396,35.907],[14.3288,35.8975],[14.3417,35.8744],[14.3617,35.8633],[14.3696,35.8685],[14.3953,35.8684],[14.4007,35.8618],[14.4157,35.8661],[14.4128,35.8811],[14.4019,35.8851],[14.4094,35.8931],[14.4132,35.9015],[14.4019,35.9082],[14.3711,35.9039],[14.3601,35.8979],[14.3396,35.907]]]}},
{"type":"Feature","id":"MLT:ADM1:MT-07","properties":{"shapeName":"Dingli","shapeISO":"MT-07","shapeType":"ADM1"},"geometry":{"type":"Polygon","coordinates":[[[14.3617,35.8633],[14.3912,35.8454],[14.4007,35.8618],[14.3953,35.8684],[14.3696,35.8685],[14.3617,35.8633]]]}},
{"type":"Feature","id":"MLT:ADM1:MT-01","properties":{"shapeName":"Attard","shapeISO":"MT-01","shapeType":"ADM1"},"geometry":{"type":"Polygon","coordinates":[[[14.4458,35.8978],[14.4336,35.8992],[14.4132,35.9015],[14.4094,35.8931],[14.4113,35.8865],[14.4126,35.8828],[14.4307,35.8814],[14.4536,35.8862],[14.4591,35.8927],[14.4458,35.8978]]]}},
{"type":"Feature","id":"MLT:ADM1:MT-61","properties":{"shapeName":"Xagħra","shapeISO":"MT-61","shapeType":"ADM1"},"geometry":{"type":"Polygon","coordinates":[[[14.5563,35.8836],[14.5441,35.8916],[14.5405,35.8866],[14.5563,35.8836]]]}},
{"type":"Feature","id":"MLT:ADM1:MT-21","properties":{"shapeName":"Kalkara","shapeISO":"MT-21","shapeType":"ADM1"},"geometry":{"type":"Polygon","coordinates":[[[14.5441,35.8916],[14.5237,35.8903],[14.531,35.8868],[14.5405,35.8866],[14.5441,35.8916]]]}},
{"type":"Feature","id":"MLT:ADM1:MT-03","properties":{"shapeName":"Birgu","shapeISO":"MT-03","shapeType":"ADM1"},"geometry":{"type":"Polygon","coordinates":[[[14.5237,35.8903],[14.52,35.8888],[14.5214,35.8863],[14.5267,35.8814],[14.531,35.8868],[14.5237,35.8903]]]}},
{"type":"Feature","id":"MLT:ADM1:MT-66","properties":{"shapeName":"Żebbuġ Malta","shapeISO":"MT-66","shapeType":"ADM1"},"geometry":{"type":"Polygon","coordinates":[[[14.4128,35.8811],[14.4157,35.8661],[14.435,35.8602],[14.4465,35.8668],[14.4627,35.8657],[14.4536,35.8862],[14.4307,35.8814],[14.4126,35.8828],[14.4128,35.8811]]]}},
{"type":"Feature","id":"MLT:ADM1:MT-43","properties":{"shapeName":"Qormi","shapeISO":"MT-43","shapeType":"ADM1"},"geometry":{"type":"Polygon","coordinates":[[[14.479,35.8847],[14.4704,35.8881],[14.4591,35.8927],[14.4536,35.8862],[14.4627,35.8657],[14.469,35.8631],[14.4801,35.8741],[14.4852,35.879],[14.479,35.8847]]]}},
{"type":"Feature","id":"MLT:ADM1:MT-20","properties":{"shapeName":"Isla","shapeISO":"MT-20","shapeType":"ADM1"},"geometry":{"type":"Polygon","coordinates":[[[14.52,35.8888],[14.5176,35.8846],[14.5214,35.8863],[14.52,35.8888]]]}},
{"type":"Feature","id":"MLT:ADM1:MT-55","properties":{"shapeName":"Siġġiewi","shapeISO":"MT-55","shapeType":"ADM1"},"geometry":{"type":"Polygon","coordinates":[[[14.4007,35.8618],[14.3912,35.8454],[14.4,35.8383],[14.4323,35.8263],[14.4511,35.8418],[14.458,35.8496],[14.469,35.8631],[14.4627,35.8657],[14.4465,35.8668],[14.435,35.8602],[14.4157,35.8661],[14.4007,35.8618]]]}},
{"type":"Feature","id":"MLT:ADM1:MT-25","properties":{"shapeName":"Luqa","shapeISO":"MT-25","shapeType":"ADM1"},"geometry":{"type":"Polygon","coordinates":[[[14.469,35.8631],[14.458,35.8496],[14.4788,35.8488],[14.4922,35.8423],[14.5048,35.8324],[14.5079,35.8313],[14.5041,35.8394],[14.4956,35.8522],[14.4956,35.8592],[14.4954,35.8625],[14.4935,35.8644],[14.4801,35.8741],[14.469,35.8631]]]}},
{"type":"Feature","id":"MLT:ADM1:MT-26","properties":{"shapeName":"Marsa","shapeISO":"MT-26","shapeType":"ADM1"},"geometry":{"type":"Polygon","coordinates":[[[14.4983,35.8879],[14.4852,35.879],[14.4801,35.8741],[14.4935,35.8644],[14.5008,35.88],[14.5022,35.8846],[14.4983,35.8879]]]}},
{"type":"Feature","id":"MLT:ADM1:MT-44","properties":{"shapeName":"Qrendi","shapeISO":"MT-44","shapeType":"ADM1"},"geometry":{"type":"Polygon","coordinates":[[[14.4323,35.8263],[14.4589,35.8219],[14.4669,35.8361],[14.4511,35.8418],[14.4323,35.8263]]]}},
{"type":"Feature","id":"MLT:ADM1:MT-33","properties":{"shapeName":"Mqabba","shapeISO":"MT-33","shapeType":"ADM1"},"geometry":{"type":"Polygon","coordinates":[[[14.4511,35.8418],[14.4669,35.8361],[14.4776,35.8404],[14.4788,35.8488],[14.458,35.8496],[14.4511,35.8418]]]}},
{"type":"Feature","id":"MLT:ADM1:MT-23","properties":{"shapeName":"Kirkop","shapeISO":"MT-23","shapeType":"ADM1"},"geometry":{"type":"Polygon","coordinates":[[[14.4788,35.8488],[14.4776,35.8404],[14.4842,35.8385],[14.4922,35.8423],[14.4788,35.8488]]]}},
{"type":"Feature","id":"MLT:ADM1:MT-47","properties":{"shapeName":"Safi","shapeISO":"MT-47","shapeType":"ADM1"},"geometry":{"type":"Polygon","coordinates":[[[14.4922,35.8423],[14.4842,35.8385],[14.4897,35.8259],[14.5048,35.8324],[14.4922,35.8423]]]}},
{"type":"Feature","id":"MLT:ADM1:MT-68","properties":{"shapeName":"Żurrieq","shapeISO":"MT-68","shapeType":"ADM1"},"geometry":{"type":"Polygon","coordinates":[[[14.5048,35.8324],[14.4897,35.8259],[14.4842,35.8385],[14.4776,35.8404],[14.4669,35.8361],[14.4589,35.8219],[14.4765,35.8138],[14.5007,35.8126],[14.5098,35.8307],[14.5079,35.8313],[14.5048,35.8324]]]}},
{"type":"Feature","id":"MLT:ADM1:MT-39","properties":{"shapeName":"Paola","shapeISO":"MT-39","shapeType":"ADM1"},"geometry":{"type":"Polygon","coordinates":[[[14.4954,35.8625],[14.5104,35.8725],[14.5156,35.8775],[14.5158,35.8833],[14.5008,35.88],[14.4935,35.8644],[14.4954,35.8625]]]}},
{"type":"Feature","id":"MLT:ADM1:MT-06","properties":{"shapeName":"Bormla","shapeISO":"MT-06","shapeType":"ADM1"},"geometry":{"type":"Polygon","coordinates":[[[14.5214,35.8863],[14.5176,35.8846],[14.5158,35.8833],[14.5156,35.8775],[14.5261,35.8774],[14.5267,35.8814],[14.5214,35.8863]]]}},
{"type":"Feature","id":"MLT:ADM1:MT-59","properties":{"shapeName":"Tarxien","shapeISO":"MT-59","shapeType":"ADM1"},"geometry":{"type":"Polygon","coordinates":[[[14.4956,35.8592],[14.5104,35.8582],[14.514,35.8604],[14.5169,35.863],[14.5104,35.8725],[14.4954,35.8625],[14.4956,35.8592]]]}},
{"type":"Feature","id":"MLT:ADM1:MT-08","properties":{"shapeName":"Fgura","shapeISO":"MT-08","shapeType":"ADM1"},"geometry":{"type":"Polygon","coordinates":[[[14.5104,35.8725],[14.5169,35.863],[14.5258,35.8686],[14.5261,35.8774],[14.5156,35.8775],[14.5104,35.8725]]]}},
{"type":"Feature","id":"MLT:ADM1:MT-53","properties":{"shapeName":"Saint Lucia's","shapeISO":"MT-53","shapeType":"ADM1"},"geometry":{"type":"Polygon","coordinates":[[[14.4956,35.8522],[14.5098,35.8529],[14.5104,35.8582],[14.4956,35.8592],[14.4956,35.8522]]]}},
{"type":"Feature","id":"MLT:ADM1:MT-11","properties":{"shapeName":"Gudja","shapeISO":"MT-11","shapeType":"ADM1"},"geometry":{"type":"Polygon","coordinates":[[[14.5041,35.8394],[14.5098,35.8529],[14.4956,35.8522],[14.5041,35.8394]]]}},
{"type":"Feature","id":"MLT:ADM1:MT-17","properties":{"shapeName":"Għaxaq","shapeISO":"MT-17","shapeType":"ADM1"},"geometry":{"type":"Polygon","coordinates":[[[14.5079,35.8313],[14.5098,35.8307],[14.5262,35.8432],[14.5262,35.8466],[14.514,35.8604],[14.5104,35.8582],[14.5098,35.8529],[14.5041,35.8394],[14.5079,35.8313]]]}},
{"type":"Feature","id":"MLT:ADM1:MT-05","properties":{"shapeName":"Birżebbuġa","shapeISO":"MT-05","shapeType":"ADM1"},"geometry":{"type":"Polygon","coordinates":[[[14.5007,35.8126],[14.5134,35.8064],[14.5373,35.8074],[14.5457,35.8156],[14.5442,35.8294],[14.5262,35.8432],[14.5098,35.8307],[14.5007,35.8126]]]}},
{"type":"Feature","id":"MLT:ADM1:MT-67","properties":{"shapeName":"Żejtun","shapeISO":"MT-67","shapeType":"ADM1"},"geometry":{"type":"Polygon","coordinates":[[[14.5434,35.8636],[14.5258,35.8686],[14.5169,35.863],[14.514,35.8604],[14.5262,35.8466],[14.5499,35.8483],[14.5434,35.8636]]]}},
{"type":"Feature","id":"MLT:ADM1:MT-64","properties":{"shapeName":"Żabbar","shapeISO":"MT-64","shapeType":"ADM1"},"geometry":{"type":"Polygon","coordinates":[[[14.5636,35.8794],[14.5563,35.8836],[14.5405,35.8866],[14.531,35.8868],[14.5267,35.8814],[14.5261,35.8774],[14.5258,35.8686],[14.5434,35.8636],[14.5636,35.8794]]]}},
{"type":"Feature","id":"MLT:ADM1:MT-28","properties":{"shapeName":"Marsaxlokk","shapeISO":"MT-28","shapeType":"ADM1"},"geometry":{"type":"Polygon","coordinates":[[[14.5499,35.8483],[14.5262,35.8466],[14.5262,35.8432],[14.5442,35.8294],[14.5676,35.8451],[14.5499,35.8483]]]}}
]}