{"type":"FeatureCollection","bbox":[13.4101,45.4236,16.3764,46.864],"features":[
{"type":"Feature","id":"SVN:ADM0:SVN","properties":{"shapeName":"Slovenia","shapeISO":"SVN","shapeType":"ADM0"},"geometry":{"type":"Polygon","coordinates":[[[13.5895,45.4888],[13.889,45.4236],[14.6685,45.534],[15.1393,45.43],[15.314,45.4505],[15.2489,45.7118],[15.6661,45.8317],[15.6613,46.2153],[16.1918,46.3698],[16.3764,46.6291],[16.272,46.864],[15.9705,46.743],[15.4627,46.6146],[15.062,46.6496],[14.5022,46.4184],[13.7161,46.5189],[13.4232,46.3448],[13.4101,46.208],[13.6228,45.9664],[13.5813,45.8092],[13.7787,45.7434],[13.8478,45.5847],[13.5895,45.4888]]]}}
]}