{"type":"FeatureCollection","bbox":[-81.3268,-18.3553,-68.6428,-0.0141],"features":[
{"type":"Feature","id":"PER:ADM1:PE-PUN","properties":{"shapeName":"Puno","shapeISO":"PE-PUN","shapeType":"ADM1"},"geometry":{"type":"Polygon","coordinates":[[[-69.5799,-17.3031],[-69.143,-16.7491],[-68.952,-16.2879],[-69.485,-16.1805],[-69.469,-16.0026],[-69.9144,-15.4148],[-69.6877,-15.2619],[-69.3081,-15.5348],[-69.1263,-15.2231],[-69.3145,-14.7963],[-68.8241,-14.1996],[-69.046,-13.6727],[-68.9089,-13.5456],[-68.847,-13.0059],[-69.6066,-13.373],[-70.3942,-13.1619],[-70.5285,-13.5742],[-70.8187,-13.8139],[-70.9658,-14.4081],[-70.9507,-15.2171],[-71.0283,-15.4444],[-70.7956,-16.0154],[-70.4379,-16.057],[-70.3484,-16.411],[-69.9914,-16.7486],[-70.1172,-16.9423],[-70.0084,-17.1451],[-69.5799,-17.3031]]]}},
{"type":"Feature","id":"PER:ADM1:PE-TUM","properties":{"shapeName":"Tumbes","shapeISO":"PE-TUM","shapeType":"ADM1"},"geometry":{"type":"Polygon","coordinates":[[[-80.4937,-4.0729],[-80.1617,-3.8902],[-80.2573,-3.3979],[-80.7569,-3.7045],[-81.0556,-4.0797],[-80.6207,-4.2085],[-80.4937,-4.0729]]]}},
{"type":"Feature","id":"PER:ADM1:PE-PIU","properties":{"shapeName":"Piura","shapeISO":"PE-PIU","shapeType":"ADM1"},"geometry":{"type":"Polygon","coordinates":[[[-81.0556,-4.0797],[-81.2572,-4.2679],[-81.3268,-4.6865],[-81.1008,-4.9518],[-81.1985,-5.2274],[-80.866,-5.6755],[-81.1356,-6.0328],[-80.6391,-6.3562],[-80.3177,-5.9237],[-79.7731,-5.6595],[-79.4153,-5.9552],[-79.3736,-5.1725],[-79.223,-4.9523],[-79.509,-4.527],[-80.1202,-4.2881],[-80.3332,-4.4445],[-80.4937,-4.0729],[-80.6207,-4.2085],[-81.0556,-4.0797]]]}},
{"type":"Feature","id":"PER:ADM1:PE-LAM","properties":{"shapeName":"Lambayeque","shapeISO":"PE-LAM","shapeType":"ADM1"},"geometry":{"type":"Polygon","coordinates":[[[-80.6391,-6.3562],[-80.0328,-6.7182],[-79.6989,-7.1329],[-79.3394,-7.0172],[-79.1368,-6.7692],[-79.4565,-6.3511],[-79.4153,-5.9552],[-79.7731,-5.6595],[-80.3177,-5.9237],[-80.6391,-6.3562]]]}},
{"type":"Feature","id":"PER:ADM1:PE-CAJ","properties":{"shapeName":"Cajamarca","shapeISO":"PE-CAJ","shapeType":"ADM1"},"geometry":{"type":"Polygon","coordinates":[[[-79.4153,-5.9552],[-79.4565,-6.3511],[-79.1368,-6.7692],[-79.3394,-7.0172],[-79.3222,-7.3476],[-78.9642,-7.647],[-78.8091,-7.4107],[-78.4466,-7.4982],[-78.268,-7.729],[-77.7603,-7.4637],[-77.9924,-6.9745],[-78.1634,-6.5035],[-78.6948,-5.7233],[-78.5181,-5.3846],[-78.7149,-5.1722],[-78.7043,-4.61],[-79.0282,-4.9913],[-79.223,-4.9523],[-79.3736,-5.1725],[-79.4153,-5.9552]]]}},
{"type":"Feature","id":"PER:ADM1:PE-AMA","properties":{"shapeName":"Amazonas","shapeISO":"PE-AMA","shapeType":"ADM1"},"geometry":{"type":"Polygon","coordinates":[[[-77.9924,-6.9745],[-77.7745,-6.9396],[-77.2488,-6.3372],[-77.237,-6.1436],[-77.6311,-5.9883],[-77.7895,-5.7462],[-77.7124,-5.3775],[-77.815,-4.8357],[-77.572,-4.3917],[-77.534,-4.0174],[-77.7801,-3.4105],[-77.8263,-2.9807],[-78.1897,-3.3814],[-78.3439,-3.3915],[-78.5809,-4.0102],[-78.7043,-4.61],[-78.7149,-5.1722],[-78.5181,-5.3846],[-78.6948,-5.7233],[-78.1634,-6.5035],[-77.9924,-6.9745]]]}},
{"type":"Feature","id":"PER:ADM1:PE-LAL","properties":{"shapeName":"La Libertad","shapeISO":"PE-LAL","shapeType":"ADM1"},"geometry":{"type":"Polygon","coordinates":[[[-79.6989,-7.1329],[-79.452,-7.7363],[-79.0098,-8.1941],[-78.6529,-8.9561],[-78.2359,-8.65],[-77.8811,-8.0564],[-77.6461,-8.0683],[-77.3218,-8.5294],[-77.1285,-8.4577],[-76.9137,-8.3142],[-77.0303,-8.0533],[-77.4007,-8.0057],[-77.7745,-6.9396],[-77.9924,-6.9745],[-77.7603,-7.4637],[-78.268,-7.729],[-78.4466,-7.4982],[-78.8091,-7.4107],[-78.9642,-7.647],[-79.3222,-7.3476],[-79.3394,-7.0172],[-79.6989,-7.1329]]]}},
{"type":"Feature","id":"PER:ADM1:PE-ANC","properties":{"shapeName":"Ancash","shapeISO":"PE-ANC","shapeType":"ADM1"},"geometry":{"type":"Polygon","coordinates":[[[-78.6529,-8.9561],[-78.2368,-9.7969],[-78.1551,-10.1632],[-77.9002,-10.5926],[-77.4371,-10.7341],[-76.9183,-10.2861],[-76.8279,-10.0818],[-77.0337,-9.6231],[-76.7636,-9.1764],[-77.1572,-8.8983],[-77.3218,-8.5294],[-77.6461,-8.0683],[-77.8811,-8.0564],[-78.2359,-8.65],[-78.6529,-8.9561]]]}},
{"type":"Feature","id":"PER:ADM1:PE-SAM","properties":{"shapeName":"San Martín","shapeISO":"PE-SAM","shapeType":"ADM1"},"geometry":{"type":"Polygon","coordinates":[[[-77.7745,-6.9396],[-77.4007,-8.0057],[-77.0303,-8.0533],[-76.9137,-8.3142],[-77.1285,-8.4577],[-76.9343,-8.565],[-76.3238,-8.4658],[-76.0034,-8.3141],[-75.9672,-7.9292],[-76.2159,-7.3861],[-76.0024,-7.0456],[-75.5159,-6.7559],[-75.5759,-6.0247],[-76.183,-6.1378],[-76.3908,-5.9433],[-76.6944,-6.0206],[-76.8237,-5.7829],[-77.477,-5.5376],[-77.7124,-5.3775],[-77.7895,-5.7462],[-77.6311,-5.9883],[-77.237,-6.1436],[-77.2488,-6.3372],[-77.7745,-6.9396]]]}},
{"type":"Feature","id":"PER:ADM1:PE-HUC","properties":{"shapeName":"Huánuco","shapeISO":"PE-HUC","shapeType":"ADM1"},"geometry":{"type":"Polygon","coordinates":[[[-77.3218,-8.5294],[-77.1572,-8.8983],[-76.7636,-9.1764],[-77.0337,-9.6231],[-76.8279,-10.0818],[-76.9183,-10.2861],[-76.7348,-10.4649],[-76.3752,-10.3001],[-76.0497,-10.4657],[-75.6815,-10.0767],[-75.2377,-9.7829],[-74.8359,-9.7292],[-74.6775,-9.4308],[-74.6573,-8.9672],[-74.791,-8.6189],[-75.236,-9.2601],[-75.6348,-9.3911],[-75.9535,-8.7009],[-76.0034,-8.3141],[-76.3238,-8.4658],[-76.9343,-8.565],[-77.1285,-8.4577],[-77.3218,-8.5294]]]}},
{"type":"Feature","id":"PER:ADM1:PE-PAS","properties":{"shapeName":"Pasco","shapeISO":"PE-PAS","shapeType":"ADM1"},"geometry":{"type":"Polygon","coordinates":[[[-76.7348,-10.4649],[-76.4931,-11.0848],[-76.0041,-10.8299],[-75.4958,-10.754],[-75.3007,-10.8667],[-75.0614,-10.665],[-74.5325,-10.9086],[-74.1261,-10.5984],[-74.2768,-10.3866],[-74.4968,-9.6201],[-74.6775,-9.4308],[-74.8359,-9.7292],[-75.2377,-9.7829],[-75.6815,-10.0767],[-76.0497,-10.4657],[-76.3752,-10.3001],[-76.7348,-10.4649]]]}},
{"type":"Feature","id":"PER:ADM1:PE-LIM","properties":{"shapeName":"Lima","shapeISO":"PE-LIM","shapeType":"ADM1"},"geometry":{"type":"Polygon","coordinates":[[[-77.9002,-10.5926],[-77.6575,-10.9772],[-77.5993,-11.3374],[-77.2066,-11.6915],[-76.6322,-12.2769],[-76.7818,-12.4188],[-76.4635,-13.0745],[-76.2426,-13.3335],[-75.943,-13.0062],[-75.7103,-13.0562],[-75.5776,-12.6474],[-75.5465,-12.3725],[-75.7025,-12.0675],[-76.0145,-11.9859],[-76.366,-11.5149],[-76.4931,-11.0848],[-76.7348,-10.4649],[-76.9183,-10.2861],[-77.4371,-10.7341],[-77.9002,-10.5926]]]}},
{"type":"Feature","id":"PER:ADM1:PE-CAL","properties":{"shapeName":"El Callao","shapeISO":"PE-CAL","shapeType":"ADM1"},"geometry":{"type":"Polygon","coordinates":[[[-77.1164,-12.0803],[-77.1273,-11.8222],[-77.1964,-11.8297],[-77.1164,-12.0803]]]}},
{"type":"Feature","id":"PER:ADM1:PE-LMA","properties":{"shapeName":"Municipalidad Metropolitana de Lima","shapeISO":"PE-LMA","shapeType":"ADM1"},"geometry":{"type":"Polygon","coordinates":[[[-77.2066,-11.6915],[-77.1964,-11.8297],[-77.1273,-11.8222],[-77.1164,-12.0803],[-76.7818,-12.4188],[-76.6322,-12.2769],[-77.2066,-11.6915]]]}},
{"type":"Feature","id":"PER:ADM1:PE-UCA","properties":{"shapeName":"Ucayali","shapeISO":"PE-UCA","shapeType":"ADM1"},"geometry":{"type":"Polygon","coordinates":[[[-74.6775,-9.4308],[-74.4968,-9.6201],[-74.2768,-10.3866],[-74.1261,-10.5984],[-74.5325,-10.9086],[-74.3719,-11.0551],[-73.7801,-10.7733],[-73.5786,-10.8719],[-73.4252,-11.3715],[-72.988,-11.2385],[-72.5174,-11.4281],[-72.2446,-11.32],[-72.1243,-10.9862],[-71.3,-10.9312],[-71.1509,-10.5746],[-70.8395,-10.3097],[-70.6233,-9.9504],[-70.56,-9.4252],[-71.2044,-9.9642],[-72.1337,-10.0087],[-72.3851,-9.491],[-73.1877,-9.4194],[-72.9536,-8.9806],[-73.519,-8.3579],[-73.6788,-7.8282],[-73.974,-7.5419],[-74.4522,-7.2788],[-74.6492,-7.5496],[-74.642,-7.9238],[-75.0294,-7.976],[-75.3958,-8.1549],[-75.9535,-8.7009],[-75.6348,-9.3911],[-75.236,-9.2601],[-74.791,-8.6189],[-74.6573,-8.9672],[-74.6775,-9.4308]]]}},
{"type":"Feature","id":"PER:ADM1:PE-JUN","properties":{"shapeName":"Junín","shapeISO":"PE-JUN","shapeType":"ADM1"},"geometry":{"type":"Polygon","coordinates":[[[-76.4931,-11.0848],[-76.366,-11.5149],[-76.0145,-11.9859],[-75.7025,-12.0675],[-75.5465,-12.3725],[-75.5776,-12.6474],[-75.1442,-12.3927],[-75.0582,-12.0441],[-74.4643,-12.044],[-74.3471,-12.1835],[-73.9792,-12.296],[-73.5554,-12.2812],[-73.366,-12.1333],[-73.5842,-11.6107],[-73.4252,-11.3715],[-73.5786,-10.8719],[-73.7801,-10.7733],[-74.3719,-11.0551],[-74.5325,-10.9086],[-75.0614,-10.665],[-75.3007,-10.8667],[-75.4958,-10.754],[-76.0041,-10.8299],[-76.4931,-11.0848]]]}},
{"type":"Feature","id":"PER:ADM1:PE-ICA","properties":{"shapeName":"Ica","shapeISO":"PE-ICA","shapeType":"ADM1"},"geometry":{"type":"Polygon","coordinates":[[[-76.2426,-13.3335],[-76.1711,-13.569],[-76.2807,-13.9189],[-75.9074,-14.6596],[-75.539,-14.9028],[-75.1029,-15.4333],[-74.7704,-15.1238],[-74.6853,-14.8665],[-75.1148,-14.4254],[-75.0627,-14.1117],[-75.5696,-13.8725],[-75.7103,-13.0562],[-75.943,-13.0062],[-76.2426,-13.3335]]]}},
{"type":"Feature","id":"PER:ADM1:PE-HUV","properties":{"shapeName":"Huancavelica","shapeISO":"PE-HUV","shapeType":"ADM1"},"geometry":{"type":"Polygon","coordinates":[[[-75.7103,-13.0562],[-75.5696,-13.8725],[-75.0627,-14.1117],[-74.7668,-14.082],[-74.7685,-13.6399],[-74.9007,-13.4529],[-74.2883,-13.0536],[-74.326,-12.6204],[-74.5607,-12.3073],[-74.3471,-12.1835],[-74.4643,-12.044],[-75.0582,-12.0441],[-75.1442,-12.3927],[-75.5776,-12.6474],[-75.7103,-13.0562]]]}},
{"type":"Feature","id":"PER:ADM1:PE-MDD","properties":{"shapeName":"Madre de Dios","shapeISO":"PE-MDD","shapeType":"ADM1"},"geometry":{"type":"Polygon","coordinates":[[[-68.847,-13.0059],[-68.6428,-12.4909],[-69.0574,-11.7222],[-69.5638,-10.9502],[-69.9459,-10.9398],[-70.3422,-11.0738],[-70.6221,-10.9996],[-70.6233,-9.9504],[-70.8395,-10.3097],[-71.1509,-10.5746],[-71.3,-10.9312],[-72.1243,-10.9862],[-72.2446,-11.32],[-72.3995,-11.8152],[-71.9378,-12.333],[-71.9449,-12.6805],[-70.882,-13.0909],[-70.3942,-13.1619],[-69.6066,-13.373],[-68.847,-13.0059]]]}},
{"type":"Feature","id":"PER:ADM1:PE-CUS","properties":{"shapeName":"Cusco","shapeISO":"PE-CUS","shapeType":"ADM1"},"geometry":{"type":"Polygon","coordinates":[[[-70.3942,-13.1619],[-70.882,-13.0909],[-71.9449,-12.6805],[-71.9378,-12.333],[-72.3995,-11.8152],[-72.2446,-11.32],[-72.5174,-11.4281],[-72.988,-11.2385],[-73.4252,-11.3715],[-73.5842,-11.6107],[-73.366,-12.1333],[-73.5554,-12.2812],[-73.9792,-12.296],[-73.2092,-13.4314],[-72.9221,-13.3846],[-72.2167,-13.718],[-72.0865,-14.2297],[-72.4374,-14.5068],[-72.4716,-14.6912],[-72.3933,-14.8197],[-71.9213,-14.7663],[-71.6092,-15.1489],[-71.4453,-15.0052],[-71.1444,-15.1383],[-71.0283,-15.4444],[-70.9507,-15.2171],[-70.9658,-14.4081],[-70.8187,-13.8139],[-70.5285,-13.5742],[-70.3942,-13.1619]]]}},
{"type":"Feature","id":"PER:ADM1:PE-APU","properties":{"shapeName":"Apurímac","shapeISO":"PE-APU","shapeType":"ADM1"},"geometry":{"type":"Polygon","coordinates":[[[-73.2092,-13.4314],[-73.4603,-13.4315],[-73.8065,-13.2373],[-73.7447,-13.7942],[-73.5171,-14.2508],[-73.5635,-14.7378],[-72.9988,-14.6577],[-72.8336,-14.7317],[-72.4716,-14.6912],[-72.4374,-14.5068],[-72.0865,-14.2297],[-72.2167,-13.718],[-72.9221,-13.3846],[-73.2092,-13.4314]]]}},
{"type":"Feature","id":"PER:ADM1:PE-AYA","properties":{"shapeName":"Ayacucho","shapeISO":"PE-AYA","shapeType":"ADM1"},"geometry":{"type":"Polygon","coordinates":[[[-74.3471,-12.1835],[-74.5607,-12.3073],[-74.326,-12.6204],[-74.2883,-13.0536],[-74.9007,-13.4529],[-74.7685,-13.6399],[-74.7668,-14.082],[-75.0627,-14.1117],[-75.1148,-14.4254],[-74.6853,-14.8665],[-74.7704,-15.1238],[-74.3784,-15.2099],[-74.297,-15.4831],[-73.7979,-15.3353],[-73.3136,-15.4056],[-73.0181,-15.1285],[-72.8336,-14.7317],[-72.9988,-14.6577],[-73.5635,-14.7378],[-73.5171,-14.2508],[-73.7447,-13.7942],[-73.8065,-13.2373],[-73.4603,-13.4315],[-73.2092,-13.4314],[-73.9792,-12.296],[-74.3471,-12.1835]]]}},
{"type":"Feature","id":"PER:ADM1:PE-ARE","properties":{"shapeName":"Arequipa","shapeISO":"PE-ARE","shapeType":"ADM1"},"geometry":{"type":"Polygon","coordinates":[[[-71.0283,-15.4444],[-71.1444,-15.1383],[-71.4453,-15.0052],[-71.6092,-15.1489],[-71.9213,-14.7663],[-72.3933,-14.8197],[-72.4716,-14.6912],[-72.8336,-14.7317],[-73.0181,-15.1285],[-73.3136,-15.4056],[-73.7979,-15.3353],[-74.297,-15.4831],[-74.3784,-15.2099],[-74.7704,-15.1238],[-75.1029,-15.4333],[-74.4761,-15.7298],[-73.6943,-16.2438],[-72.4405,-16.7271],[-72.0875,-17.0328],[-71.4762,-17.2974],[-71.3178,-17.1556],[-71.436,-16.8186],[-71.1955,-16.4883],[-70.9727,-16.5092],[-70.7956,-16.0154],[-71.0283,-15.4444]]]}},
{"type":"Feature","id":"PER:ADM1:PE-MOQ","properties":{"shapeName":"Moquegua","shapeISO":"PE-MOQ","shapeType":"ADM1"},"geometry":{"type":"Polygon","coordinates":[[[-70.7956,-16.0154],[-70.9727,-16.5092],[-71.1955,-16.4883],[-71.436,-16.8186],[-71.3178,-17.1556],[-71.4762,-17.2974],[-71.3252,-17.7161],[-71.1441,-17.8294],[-70.8912,-17.6864],[-70.6511,-17.2401],[-70.2803,-16.7896],[-70.1172,-16.9423],[-69.9914,-16.7486],[-70.3484,-16.411],[-70.4379,-16.057],[-70.7956,-16.0154]]]}},
{"type":"Feature","id":"PER:ADM1:PE-TAC","properties":{"shapeName":"Tacna","shapeISO":"PE-TAC","shapeType":"ADM1"},"geometry":{"type":"Polygon","coordinates":[[[-70.1172,-16.9423],[-70.2803,-16.7896],[-70.6511,-17.2401],[-70.8912,-17.6864],[-71.1441,-17.8294],[-70.3885,-18.3553],[-69.937,-18.2753],[-69.7482,-18.0393],[-69.8149,-17.7089],[-69.4903,-17.5633],[-69.5799,-17.3031],[-70.0084,-17.1451],[-70.1172,-16.9423]]]}},
{"type":"Feature","id":"PER:ADM1:PE-LOR","properties":{"shapeName":"Loreto","shapeISO":"PE-LOR","shapeType":"ADM1"},"geometry":{"type":"Polygon","coordinates":[[[-77.7124,-5.3775],[-77.477,-5.5376],[-76.8237,-5.7829],[-76.6944,-6.0206],[-76.3908,-5.9433],[-76.183,-6.1378],[-75.5759,-6.0247],[-75.5159,-6.7559],[-76.0024,-7.0456],[-76.2159,-7.3861],[-75.9672,-7.9292],[-76.0034,-8.3141],[-75.9535,-8.7009],[-75.3958,-8.1549],[-75.0294,-7.976],[-74.642,-7.9238],[-74.6492,-7.5496],[-74.4522,-7.2788],[-73.974,-7.5419],[-73.8817,-7.1727],[-73.5988,-6.7242],[-73.0939,-6.406],[-73.2388,-6.0987],[-72.9755,-5.6727],[-72.8803,-5.1626],[-71.8978,-4.5085],[-70.9384,-4.3555],[-70.7346,-4.1391],[-70.3823,-4.1051],[-70.1711,-4.3158],[-69.9541,-4.2177],[-70.3406,-3.7847],[-70.7103,-3.7919],[-70.0763,-2.8],[-70.3424,-2.4654],[-70.8591,-2.2021],[-71.3938,-2.3807],[-71.7852,-2.1633],[-72.1252,-2.4456],[-72.6008,-2.342],[-72.8813,-2.4211],[-73.1126,-2.2833],[-73.1324,-1.8414],[-73.5256,-1.6872],[-73.6564,-1.2345],[-74.2393,-0.9702],[-74.3958,-0.5354],[-74.7777,-0.1691],[-75.1919,-0.0141],[-75.3708,-0.1381],[-75.2328,-0.5749],[-75.5538,-1.5301],[-76.0373,-2.1149],[-76.6436,-2.5718],[-77.8263,-2.9807],[-77.7801,-3.4105],[-77.534,-4.0174],[-77.572,-4.3917],[-77.815,-4.8357],[-77.7124,-5.3775]]]}}
]}