{"type":"FeatureCollection","bbox":[-81.3376,-18.3377,-68.6843,-0.0324], "features": [
{"type":"Feature","geometry":{"type":"Polygon","coordinates":[[[-69.5101,-17.5066],[-69.6228,-17.1856],[-69.4274,-17.0869],[-69.0017,-16.4228],[-69.2196,-16.1528],[-69.4243,-15.6563],[-69.1481,-15.2333],[-69.3907,-14.9644],[-69.2475,-14.5937],[-68.8837,-14.2115],[-69.016,-13.7531],[-68.981,-12.8679],[-68.6843,-12.5025],[-69.5776,-10.9523],[-69.9561,-10.9193],[-70.2894,-11.0647],[-70.6413,-11.0108],[-70.6384,-9.8518],[-70.6808,-9.5277],[-71.1965,-9.9399],[-71.3914,-10.0068],[-72.1957,-10.0056],[-72.2617,-9.6674],[-72.4302,-9.4822],[-73.215,-9.409],[-72.9594,-9.0856],[-73.1746,-8.7207],[-73.5265,-8.3724],[-73.7122,-7.7882],[-73.9694,-7.5847],[-73.7608,-7.3374],[-73.7655,-6.9042],[-73.1318,-6.4353],[-73.2348,-6.0776],[-73.0014,-5.7088],[-72.9179,-5.1321],[-72.6273,-5.0224],[-72.0711,-4.6051],[-71.7743,-4.4815],[-70.9687,-4.3853],[-70.8322,-4.1794],[-70.4299,-4.1342],[-70.2313,-4.3037],[-69.9626,-4.2643],[-70.3111,-3.8293],[-70.7341,-3.782],[-70.0506,-2.7151],[-70.8742,-2.2296],[-71.2199,-2.3415],[-71.7679,-2.1422],[-71.9663,-2.3285],[-72.3966,-2.4465],[-72.6443,-2.3341],[-72.9433,-2.419],[-73.1953,-2.1872],[-73.1863,-1.7996],[-73.531,-1.6737],[-73.6366,-1.2552],[-74.2891,-0.943],[-74.4127,-0.5731],[-74.8247,-0.1705],[-75.2221,-0.0324],[-75.4848,-0.2477],[-75.272,-0.5257],[-75.56,-1.5026],[-76.0912,-2.1289],[-76.6846,-2.5736],[-77.849,-2.9806],[-78.3629,-3.4887],[-78.6824,-4.3269],[-79.0093,-4.9601],[-79.3032,-4.9612],[-79.5072,-4.5316],[-79.7957,-4.4847],[-80.0797,-4.309],[-80.4085,-4.4775],[-80.4811,-3.9988],[-80.1653,-3.89],[-80.2716,-3.4855],[-80.5362,-3.5053],[-81.2528,-4.2387],[-81.3376,-4.6783],[-81.0634,-5.022],[-81.1985,-5.2081],[-80.8562,-5.6505],[-81.1015,-6.0721],[-80.7905,-6.2997],[-80.2981,-6.5444],[-79.9647,-6.7874],[-79.6128,-7.2664],[-79.4659,-7.7159],[-78.9857,-8.2174],[-78.9403,-8.4355],[-78.4974,-9.1895],[-78.3699,-9.6154],[-78.0558,-10.3475],[-77.6705,-10.9275],[-77.6473,-11.2923],[-77.3205,-11.4937],[-77.1459,-11.9321],[-77.1749,-12.0719],[-76.8536,-12.3026],[-76.8118,-12.4827],[-76.2211,-13.3576],[-76.1813,-13.5395],[-76.2821,-14.1409],[-75.9806,-14.4611],[-75.9307,-14.6493],[-75.5506,-14.8849],[-75.1608,-15.3933],[-74.0466,-15.9601],[-73.7003,-16.2207],[-72.6924,-16.6607],[-71.8076,-17.1913],[-71.5145,-17.2846],[-71.3596,-17.6331],[-70.3947,-18.3377],[-69.9703,-18.2506],[-69.7831,-17.9816],[-69.8576,-17.7342],[-69.5101,-17.5066]]]},"properties":{"shapeName":"Peru","shapeISO":"PER","shapeType":"ADM0"}}
]}